<?xml version="1.0" encoding="UTF-8"?>
<gpx version="1.1" creator="Diary FIT converter" xmlns="http://www.topografix.com/GPX/1/1">
  <trk><name>Cycling</name><trkseg>
    <trkpt lat="50.9642924" lon="6.8767302">
      <time>2022-04-19T07:40:21Z</time>
    </trkpt>
    <trkpt lat="50.9642655" lon="6.8768652">
      <time>2022-04-19T07:40:23Z</time>
    </trkpt>
    <trkpt lat="50.9642407" lon="6.8770251">
      <time>2022-04-19T07:40:25Z</time>
    </trkpt>
    <trkpt lat="50.9642553" lon="6.8771872">
      <time>2022-04-19T07:40:27Z</time>
    </trkpt>
    <trkpt lat="50.9643073" lon="6.8774417">
      <time>2022-04-19T07:40:30Z</time>
    </trkpt>
    <trkpt lat="50.9643370" lon="6.8775996">
      <time>2022-04-19T07:40:32Z</time>
    </trkpt>
    <trkpt lat="50.9643633" lon="6.8776684">
      <time>2022-04-19T07:40:33Z</time>
    </trkpt>
    <trkpt lat="50.9643963" lon="6.8777356">
      <time>2022-04-19T07:40:34Z</time>
    </trkpt>
    <trkpt lat="50.9645693" lon="6.8780462">
      <time>2022-04-19T07:40:40Z</time>
    </trkpt>
    <trkpt lat="50.9645859" lon="6.8782236">
      <time>2022-04-19T07:40:43Z</time>
    </trkpt>
    <trkpt lat="50.9645467" lon="6.8784895">
      <time>2022-04-19T07:40:47Z</time>
    </trkpt>
    <trkpt lat="50.9645485" lon="6.8785580">
      <time>2022-04-19T07:40:48Z</time>
    </trkpt>
    <trkpt lat="50.9645581" lon="6.8786248">
      <time>2022-04-19T07:40:49Z</time>
    </trkpt>
    <trkpt lat="50.9646032" lon="6.8787292">
      <time>2022-04-19T07:40:51Z</time>
    </trkpt>
    <trkpt lat="50.9646354" lon="6.8787725">
      <time>2022-04-19T07:40:52Z</time>
    </trkpt>
    <trkpt lat="50.9648563" lon="6.8790149">
      <time>2022-04-19T07:40:58Z</time>
    </trkpt>
    <trkpt lat="50.9649398" lon="6.8791056">
      <time>2022-04-19T07:41:00Z</time>
    </trkpt>
    <trkpt lat="50.9651334" lon="6.8793763">
      <time>2022-04-19T07:41:05Z</time>
    </trkpt>
    <trkpt lat="50.9651644" lon="6.8794355">
      <time>2022-04-19T07:41:06Z</time>
    </trkpt>
    <trkpt lat="50.9651853" lon="6.8794930">
      <time>2022-04-19T07:41:07Z</time>
    </trkpt>
    <trkpt lat="50.9652109" lon="6.8796159">
      <time>2022-04-19T07:41:09Z</time>
    </trkpt>
    <trkpt lat="50.9652726" lon="6.8797521">
      <time>2022-04-19T07:41:12Z</time>
    </trkpt>
    <trkpt lat="50.9653031" lon="6.8797928">
      <time>2022-04-19T07:41:13Z</time>
    </trkpt>
    <trkpt lat="50.9654866" lon="6.8799747">
      <time>2022-04-19T07:41:19Z</time>
    </trkpt>
    <trkpt lat="50.9655658" lon="6.8800395">
      <time>2022-04-19T07:41:22Z</time>
    </trkpt>
    <trkpt lat="50.9655823" lon="6.8800804">
      <time>2022-04-19T07:41:23Z</time>
    </trkpt>
    <trkpt lat="50.9656217" lon="6.8802404">
      <time>2022-04-19T07:41:26Z</time>
    </trkpt>
    <trkpt lat="50.9656822" lon="6.8803344">
      <time>2022-04-19T07:41:28Z</time>
    </trkpt>
    <trkpt lat="50.9657440" lon="6.8804211">
      <time>2022-04-19T07:41:30Z</time>
    </trkpt>
    <trkpt lat="50.9658017" lon="6.8805021">
      <time>2022-04-19T07:41:32Z</time>
    </trkpt>
    <trkpt lat="50.9661005" lon="6.8808124">
      <time>2022-04-19T07:41:40Z</time>
    </trkpt>
    <trkpt lat="50.9662896" lon="6.8810144">
      <time>2022-04-19T07:41:45Z</time>
    </trkpt>
    <trkpt lat="50.9663159" lon="6.8810575">
      <time>2022-04-19T07:41:46Z</time>
    </trkpt>
    <trkpt lat="50.9663327" lon="6.8810952">
      <time>2022-04-19T07:41:47Z</time>
    </trkpt>
    <trkpt lat="50.9663621" lon="6.8812558">
      <time>2022-04-19T07:41:51Z</time>
    </trkpt>
    <trkpt lat="50.9662740" lon="6.8815740">
      <time>2022-04-19T07:41:57Z</time>
    </trkpt>
    <trkpt lat="50.9662533" lon="6.8816352">
      <time>2022-04-19T07:41:58Z</time>
    </trkpt>
    <trkpt lat="50.9661629" lon="6.8819736">
      <time>2022-04-19T07:42:03Z</time>
    </trkpt>
    <trkpt lat="50.9661144" lon="6.8821281">
      <time>2022-04-19T07:42:05Z</time>
    </trkpt>
    <trkpt lat="50.9660636" lon="6.8822758">
      <time>2022-04-19T07:42:07Z</time>
    </trkpt>
    <trkpt lat="50.9660407" lon="6.8823536">
      <time>2022-04-19T07:42:08Z</time>
    </trkpt>
    <trkpt lat="50.9659151" lon="6.8826940">
      <time>2022-04-19T07:42:13Z</time>
    </trkpt>
    <trkpt lat="50.9658671" lon="6.8828415">
      <time>2022-04-19T07:42:15Z</time>
    </trkpt>
    <trkpt lat="50.9658468" lon="6.8829092">
      <time>2022-04-19T07:42:16Z</time>
    </trkpt>
    <trkpt lat="50.9658061" lon="6.8830502">
      <time>2022-04-19T07:42:18Z</time>
    </trkpt>
    <trkpt lat="50.9657416" lon="6.8832052">
      <time>2022-04-19T07:42:20Z</time>
    </trkpt>
    <trkpt lat="50.9656887" lon="6.8833488">
      <time>2022-04-19T07:42:22Z</time>
    </trkpt>
    <trkpt lat="50.9656545" lon="6.8834283">
      <time>2022-04-19T07:42:23Z</time>
    </trkpt>
    <trkpt lat="50.9654489" lon="6.8838920">
      <time>2022-04-19T07:42:29Z</time>
    </trkpt>
    <trkpt lat="50.9650991" lon="6.8844779">
      <time>2022-04-19T07:42:37Z</time>
    </trkpt>
    <trkpt lat="50.9648205" lon="6.8850027">
      <time>2022-04-19T07:42:45Z</time>
    </trkpt>
    <trkpt lat="50.9645797" lon="6.8855322">
      <time>2022-04-19T07:42:53Z</time>
    </trkpt>
    <trkpt lat="50.9644130" lon="6.8858795">
      <time>2022-04-19T07:42:58Z</time>
    </trkpt>
    <trkpt lat="50.9643199" lon="6.8860807">
      <time>2022-04-19T07:43:01Z</time>
    </trkpt>
    <trkpt lat="50.9641124" lon="6.8865488">
      <time>2022-04-19T07:43:08Z</time>
    </trkpt>
    <trkpt lat="50.9637972" lon="6.8872100">
      <time>2022-04-19T07:43:18Z</time>
    </trkpt>
    <trkpt lat="50.9634992" lon="6.8877112">
      <time>2022-04-19T07:43:26Z</time>
    </trkpt>
    <trkpt lat="50.9632993" lon="6.8881094">
      <time>2022-04-19T07:43:32Z</time>
    </trkpt>
    <trkpt lat="50.9631305" lon="6.8884656">
      <time>2022-04-19T07:43:37Z</time>
    </trkpt>
    <trkpt lat="50.9630417" lon="6.8886993">
      <time>2022-04-19T07:43:40Z</time>
    </trkpt>
    <trkpt lat="50.9629832" lon="6.8888690">
      <time>2022-04-19T07:43:42Z</time>
    </trkpt>
    <trkpt lat="50.9628632" lon="6.8892167">
      <time>2022-04-19T07:43:46Z</time>
    </trkpt>
    <trkpt lat="50.9627939" lon="6.8893871">
      <time>2022-04-19T07:43:48Z</time>
    </trkpt>
    <trkpt lat="50.9626842" lon="6.8896179">
      <time>2022-04-19T07:43:51Z</time>
    </trkpt>
    <trkpt lat="50.9626465" lon="6.8897122">
      <time>2022-04-19T07:43:52Z</time>
    </trkpt>
    <trkpt lat="50.9626151" lon="6.8897926">
      <time>2022-04-19T07:43:53Z</time>
    </trkpt>
    <trkpt lat="50.9624987" lon="6.8900694">
      <time>2022-04-19T07:43:56Z</time>
    </trkpt>
    <trkpt lat="50.9623808" lon="6.8902731">
      <time>2022-04-19T07:43:59Z</time>
    </trkpt>
    <trkpt lat="50.9623208" lon="6.8903591">
      <time>2022-04-19T07:44:01Z</time>
    </trkpt>
    <trkpt lat="50.9622360" lon="6.8904825">
      <time>2022-04-19T07:44:03Z</time>
    </trkpt>
    <trkpt lat="50.9621690" lon="6.8906051">
      <time>2022-04-19T07:44:05Z</time>
    </trkpt>
    <trkpt lat="50.9621290" lon="6.8906839">
      <time>2022-04-19T07:44:06Z</time>
    </trkpt>
    <trkpt lat="50.9620719" lon="6.8908046">
      <time>2022-04-19T07:44:08Z</time>
    </trkpt>
    <trkpt lat="50.9620434" lon="6.8908679">
      <time>2022-04-19T07:44:09Z</time>
    </trkpt>
    <trkpt lat="50.9619834" lon="6.8909961">
      <time>2022-04-19T07:44:11Z</time>
    </trkpt>
    <trkpt lat="50.9619536" lon="6.8910601">
      <time>2022-04-19T07:44:12Z</time>
    </trkpt>
    <trkpt lat="50.9616705" lon="6.8916875">
      <time>2022-04-19T07:44:22Z</time>
    </trkpt>
    <trkpt lat="50.9615563" lon="6.8919291">
      <time>2022-04-19T07:44:26Z</time>
    </trkpt>
    <trkpt lat="50.9614638" lon="6.8921404">
      <time>2022-04-19T07:44:29Z</time>
    </trkpt>
    <trkpt lat="50.9612485" lon="6.8926505">
      <time>2022-04-19T07:44:36Z</time>
    </trkpt>
    <trkpt lat="50.9612301" lon="6.8927070">
      <time>2022-04-19T07:44:37Z</time>
    </trkpt>
    <trkpt lat="50.9610165" lon="6.8932182">
      <time>2022-04-19T07:44:44Z</time>
    </trkpt>
    <trkpt lat="50.9608624" lon="6.8936110">
      <time>2022-04-19T07:44:49Z</time>
    </trkpt>
    <trkpt lat="50.9607933" lon="6.8937586">
      <time>2022-04-19T07:44:51Z</time>
    </trkpt>
    <trkpt lat="50.9604646" lon="6.8943739">
      <time>2022-04-19T07:45:00Z</time>
    </trkpt>
    <trkpt lat="50.9604278" lon="6.8944378">
      <time>2022-04-19T07:45:01Z</time>
    </trkpt>
    <trkpt lat="50.9602879" lon="6.8946902">
      <time>2022-04-19T07:45:05Z</time>
    </trkpt>
    <trkpt lat="50.9601021" lon="6.8950224">
      <time>2022-04-19T07:45:10Z</time>
    </trkpt>
    <trkpt lat="50.9599693" lon="6.8952906">
      <time>2022-04-19T07:45:14Z</time>
    </trkpt>
    <trkpt lat="50.9598593" lon="6.8954986">
      <time>2022-04-19T07:45:17Z</time>
    </trkpt>
    <trkpt lat="50.9597917" lon="6.8956197">
      <time>2022-04-19T07:45:19Z</time>
    </trkpt>
    <trkpt lat="50.9595285" lon="6.8961225">
      <time>2022-04-19T07:45:27Z</time>
    </trkpt>
    <trkpt lat="50.9593968" lon="6.8964190">
      <time>2022-04-19T07:45:32Z</time>
    </trkpt>
    <trkpt lat="50.9593457" lon="6.8965489">
      <time>2022-04-19T07:45:34Z</time>
    </trkpt>
    <trkpt lat="50.9592577" lon="6.8967339">
      <time>2022-04-19T07:45:37Z</time>
    </trkpt>
    <trkpt lat="50.9591480" lon="6.8969590">
      <time>2022-04-19T07:45:41Z</time>
    </trkpt>
    <trkpt lat="50.9591154" lon="6.8970220">
      <time>2022-04-19T07:45:42Z</time>
    </trkpt>
    <trkpt lat="50.9589516" lon="6.8973368">
      <time>2022-04-19T07:45:47Z</time>
    </trkpt>
    <trkpt lat="50.9588997" lon="6.8974743">
      <time>2022-04-19T07:45:49Z</time>
    </trkpt>
    <trkpt lat="50.9587673" lon="6.8978316">
      <time>2022-04-19T07:45:54Z</time>
    </trkpt>
    <trkpt lat="50.9587351" lon="6.8979145">
      <time>2022-04-19T07:45:55Z</time>
    </trkpt>
    <trkpt lat="50.9586275" lon="6.8981824">
      <time>2022-04-19T07:45:59Z</time>
    </trkpt>
    <trkpt lat="50.9584226" lon="6.8986062">
      <time>2022-04-19T07:46:05Z</time>
    </trkpt>
    <trkpt lat="50.9581446" lon="6.8992333">
      <time>2022-04-19T07:46:14Z</time>
    </trkpt>
    <trkpt lat="50.9580874" lon="6.8993583">
      <time>2022-04-19T07:46:16Z</time>
    </trkpt>
    <trkpt lat="50.9579746" lon="6.8995489">
      <time>2022-04-19T07:46:20Z</time>
    </trkpt>
    <trkpt lat="50.9579454" lon="6.8996291">
      <time>2022-04-19T07:46:22Z</time>
    </trkpt>
    <trkpt lat="50.9579303" lon="6.8997408">
      <time>2022-04-19T07:46:24Z</time>
    </trkpt>
    <trkpt lat="50.9578593" lon="6.8999114">
      <time>2022-04-19T07:46:29Z</time>
    </trkpt>
    <trkpt lat="50.9578229" lon="6.8999909">
      <time>2022-04-19T07:46:34Z</time>
    </trkpt>
    <trkpt lat="50.9578229" lon="6.8999909">
      <time>2022-04-19T07:46:35Z</time>
    </trkpt>
    <trkpt lat="50.9578045" lon="6.9000224">
      <time>2022-04-19T07:46:54Z</time>
    </trkpt>
    <trkpt lat="50.9577616" lon="6.9001078">
      <time>2022-04-19T07:46:56Z</time>
    </trkpt>
    <trkpt lat="50.9577160" lon="6.9002250">
      <time>2022-04-19T07:46:58Z</time>
    </trkpt>
    <trkpt lat="50.9576908" lon="6.9002897">
      <time>2022-04-19T07:46:59Z</time>
    </trkpt>
    <trkpt lat="50.9576337" lon="6.9004372">
      <time>2022-04-19T07:47:01Z</time>
    </trkpt>
    <trkpt lat="50.9575160" lon="6.9008481">
      <time>2022-04-19T07:47:06Z</time>
    </trkpt>
    <trkpt lat="50.9574236" lon="6.9010961">
      <time>2022-04-19T07:47:09Z</time>
    </trkpt>
    <trkpt lat="50.9573575" lon="6.9012479">
      <time>2022-04-19T07:47:11Z</time>
    </trkpt>
    <trkpt lat="50.9572992" lon="6.9014131">
      <time>2022-04-19T07:47:13Z</time>
    </trkpt>
    <trkpt lat="50.9572680" lon="6.9015752">
      <time>2022-04-19T07:47:15Z</time>
    </trkpt>
    <trkpt lat="50.9572467" lon="6.9016671">
      <time>2022-04-19T07:47:16Z</time>
    </trkpt>
    <trkpt lat="50.9571513" lon="6.9019206">
      <time>2022-04-19T07:47:19Z</time>
    </trkpt>
    <trkpt lat="50.9570701" lon="6.9020845">
      <time>2022-04-19T07:47:21Z</time>
    </trkpt>
    <trkpt lat="50.9568908" lon="6.9024250">
      <time>2022-04-19T07:47:26Z</time>
    </trkpt>
    <trkpt lat="50.9568589" lon="6.9024974">
      <time>2022-04-19T07:47:27Z</time>
    </trkpt>
    <trkpt lat="50.9568140" lon="6.9026149">
      <time>2022-04-19T07:47:29Z</time>
    </trkpt>
    <trkpt lat="50.9567967" lon="6.9026551">
      <time>2022-04-19T07:47:30Z</time>
    </trkpt>
    <trkpt lat="50.9567615" lon="6.9028422">
      <time>2022-04-19T07:47:34Z</time>
    </trkpt>
    <trkpt lat="50.9567629" lon="6.9028653">
      <time>2022-04-19T07:47:35Z</time>
    </trkpt>
    <trkpt lat="50.9567920" lon="6.9029086">
      <time>2022-04-19T07:47:37Z</time>
    </trkpt>
    <trkpt lat="50.9569135" lon="6.9029678">
      <time>2022-04-19T07:47:41Z</time>
    </trkpt>
    <trkpt lat="50.9569814" lon="6.9029995">
      <time>2022-04-19T07:47:43Z</time>
    </trkpt>
    <trkpt lat="50.9570476" lon="6.9030846">
      <time>2022-04-19T07:47:45Z</time>
    </trkpt>
    <trkpt lat="50.9570864" lon="6.9031362">
      <time>2022-04-19T07:47:46Z</time>
    </trkpt>
    <trkpt lat="50.9571921" lon="6.9033158">
      <time>2022-04-19T07:47:49Z</time>
    </trkpt>
    <trkpt lat="50.9572369" lon="6.9033821">
      <time>2022-04-19T07:47:50Z</time>
    </trkpt>
    <trkpt lat="50.9574175" lon="6.9035629">
      <time>2022-04-19T07:47:54Z</time>
    </trkpt>
    <trkpt lat="50.9577545" lon="6.9039290">
      <time>2022-04-19T07:48:01Z</time>
    </trkpt>
    <trkpt lat="50.9580564" lon="6.9042011">
      <time>2022-04-19T07:48:07Z</time>
    </trkpt>
    <trkpt lat="50.9584513" lon="6.9045843">
      <time>2022-04-19T07:48:15Z</time>
    </trkpt>
    <trkpt lat="50.9587814" lon="6.9048869">
      <time>2022-04-19T07:48:22Z</time>
    </trkpt>
    <trkpt lat="50.9591937" lon="6.9053159">
      <time>2022-04-19T07:48:31Z</time>
    </trkpt>
    <trkpt lat="50.9592725" lon="6.9054000">
      <time>2022-04-19T07:48:33Z</time>
    </trkpt>
    <trkpt lat="50.9593086" lon="6.9054293">
      <time>2022-04-19T07:48:34Z</time>
    </trkpt>
    <trkpt lat="50.9593672" lon="6.9054849">
      <time>2022-04-19T07:48:37Z</time>
    </trkpt>
    <trkpt lat="50.9593867" lon="6.9054897">
      <time>2022-04-19T07:48:41Z</time>
    </trkpt>
    <trkpt lat="50.9594334" lon="6.9055214">
      <time>2022-04-19T07:48:53Z</time>
    </trkpt>
    <trkpt lat="50.9594899" lon="6.9055294">
      <time>2022-04-19T07:48:55Z</time>
    </trkpt>
    <trkpt lat="50.9596414" lon="6.9056244">
      <time>2022-04-19T07:49:00Z</time>
    </trkpt>
    <trkpt lat="50.9598290" lon="6.9058509">
      <time>2022-04-19T07:49:06Z</time>
    </trkpt>
    <trkpt lat="50.9598549" lon="6.9058934">
      <time>2022-04-19T07:49:07Z</time>
    </trkpt>
    <trkpt lat="50.9599375" lon="6.9059993">
      <time>2022-04-19T07:49:10Z</time>
    </trkpt>
    <trkpt lat="50.9599687" lon="6.9060276">
      <time>2022-04-19T07:49:11Z</time>
    </trkpt>
    <trkpt lat="50.9600536" lon="6.9061564">
      <time>2022-04-19T07:49:15Z</time>
    </trkpt>
    <trkpt lat="50.9600611" lon="6.9061903">
      <time>2022-04-19T07:49:16Z</time>
    </trkpt>
    <trkpt lat="50.9600838" lon="6.9062899">
      <time>2022-04-19T07:49:21Z</time>
    </trkpt>
    <trkpt lat="50.9600937" lon="6.9063094">
      <time>2022-04-19T07:49:22Z</time>
    </trkpt>
    <trkpt lat="50.9601940" lon="6.9063987">
      <time>2022-04-19T07:49:26Z</time>
    </trkpt>
    <trkpt lat="50.9603444" lon="6.9065849">
      <time>2022-04-19T07:49:31Z</time>
    </trkpt>
    <trkpt lat="50.9604465" lon="6.9067109">
      <time>2022-04-19T07:49:34Z</time>
    </trkpt>
    <trkpt lat="50.9605533" lon="6.9068362">
      <time>2022-04-19T07:49:37Z</time>
    </trkpt>
    <trkpt lat="50.9606257" lon="6.9069163">
      <time>2022-04-19T07:49:39Z</time>
    </trkpt>
    <trkpt lat="50.9606646" lon="6.9069522">
      <time>2022-04-19T07:49:40Z</time>
    </trkpt>
    <trkpt lat="50.9607419" lon="6.9070258">
      <time>2022-04-19T07:49:42Z</time>
    </trkpt>
    <trkpt lat="50.9607811" lon="6.9070620">
      <time>2022-04-19T07:49:43Z</time>
    </trkpt>
    <trkpt lat="50.9608199" lon="6.9070991">
      <time>2022-04-19T07:49:44Z</time>
    </trkpt>
    <trkpt lat="50.9609874" lon="6.9072331">
      <time>2022-04-19T07:49:48Z</time>
    </trkpt>
    <trkpt lat="50.9611024" lon="6.9073352">
      <time>2022-04-19T07:49:51Z</time>
    </trkpt>
    <trkpt lat="50.9611863" lon="6.9073931">
      <time>2022-04-19T07:49:53Z</time>
    </trkpt>
    <trkpt lat="50.9613134" lon="6.9074799">
      <time>2022-04-19T07:49:56Z</time>
    </trkpt>
    <trkpt lat="50.9613494" lon="6.9075159">
      <time>2022-04-19T07:49:57Z</time>
    </trkpt>
    <trkpt lat="50.9614503" lon="6.9076083">
      <time>2022-04-19T07:50:00Z</time>
    </trkpt>
    <trkpt lat="50.9617278" lon="6.9079146">
      <time>2022-04-19T07:50:08Z</time>
    </trkpt>
    <trkpt lat="50.9617945" lon="6.9079927">
      <time>2022-04-19T07:50:10Z</time>
    </trkpt>
    <trkpt lat="50.9619920" lon="6.9082145">
      <time>2022-04-19T07:50:15Z</time>
    </trkpt>
    <trkpt lat="50.9622859" lon="6.9085539">
      <time>2022-04-19T07:50:23Z</time>
    </trkpt>
    <trkpt lat="50.9627018" lon="6.9090089">
      <time>2022-04-19T07:50:34Z</time>
    </trkpt>
    <trkpt lat="50.9627778" lon="6.9090936">
      <time>2022-04-19T07:50:36Z</time>
    </trkpt>
    <trkpt lat="50.9630271" lon="6.9093440">
      <time>2022-04-19T07:50:42Z</time>
    </trkpt>
    <trkpt lat="50.9631096" lon="6.9094247">
      <time>2022-04-19T07:50:44Z</time>
    </trkpt>
    <trkpt lat="50.9633886" lon="6.9097319">
      <time>2022-04-19T07:50:51Z</time>
    </trkpt>
    <trkpt lat="50.9634281" lon="6.9097821">
      <time>2022-04-19T07:50:52Z</time>
    </trkpt>
    <trkpt lat="50.9636029" lon="6.9099701">
      <time>2022-04-19T07:50:56Z</time>
    </trkpt>
    <trkpt lat="50.9638339" lon="6.9102122">
      <time>2022-04-19T07:51:02Z</time>
    </trkpt>
    <trkpt lat="50.9639673" lon="6.9103700">
      <time>2022-04-19T07:51:06Z</time>
    </trkpt>
    <trkpt lat="50.9640342" lon="6.9104355">
      <time>2022-04-19T07:51:08Z</time>
    </trkpt>
    <trkpt lat="50.9640716" lon="6.9104489">
      <time>2022-04-19T07:51:09Z</time>
    </trkpt>
    <trkpt lat="50.9641113" lon="6.9104363">
      <time>2022-04-19T07:51:10Z</time>
    </trkpt>
    <trkpt lat="50.9641662" lon="6.9103731">
      <time>2022-04-19T07:51:12Z</time>
    </trkpt>
    <trkpt lat="50.9642598" lon="6.9102988">
      <time>2022-04-19T07:51:16Z</time>
    </trkpt>
    <trkpt lat="50.9642760" lon="6.9102632">
      <time>2022-04-19T07:51:17Z</time>
    </trkpt>
    <trkpt lat="50.9642722" lon="6.9102312">
      <time>2022-04-19T07:51:20Z</time>
    </trkpt>
    <trkpt lat="50.9642558" lon="6.9101969">
      <time>2022-04-19T07:51:24Z</time>
    </trkpt>
    <trkpt lat="50.9642439" lon="6.9101646">
      <time>2022-04-19T07:51:26Z</time>
    </trkpt>
    <trkpt lat="50.9642460" lon="6.9101582">
      <time>2022-04-19T07:51:29Z</time>
    </trkpt>
    <trkpt lat="50.9642039" lon="6.9100541">
      <time>2022-04-19T07:51:38Z</time>
    </trkpt>
    <trkpt lat="50.9641884" lon="6.9100069">
      <time>2022-04-19T07:51:39Z</time>
    </trkpt>
    <trkpt lat="50.9641133" lon="6.9098468">
      <time>2022-04-19T07:51:44Z</time>
    </trkpt>
    <trkpt lat="50.9640718" lon="6.9097407">
      <time>2022-04-19T07:51:49Z</time>
    </trkpt>
    <trkpt lat="50.9640207" lon="6.9096811">
      <time>2022-04-19T07:51:51Z</time>
    </trkpt>
    <trkpt lat="50.9639412" lon="6.9094749">
      <time>2022-04-19T07:51:56Z</time>
    </trkpt>
    <trkpt lat="50.9639459" lon="6.9094110">
      <time>2022-04-19T07:51:58Z</time>
    </trkpt>
    <trkpt lat="50.9639337" lon="6.9093517">
      <time>2022-04-19T07:52:00Z</time>
    </trkpt>
    <trkpt lat="50.9639192" lon="6.9093199">
      <time>2022-04-19T07:52:01Z</time>
    </trkpt>
    <trkpt lat="50.9638793" lon="6.9090564">
      <time>2022-04-19T07:52:06Z</time>
    </trkpt>
    <trkpt lat="50.9639735" lon="6.9088459">
      <time>2022-04-19T07:52:10Z</time>
    </trkpt>
    <trkpt lat="50.9640443" lon="6.9085855">
      <time>2022-04-19T07:52:15Z</time>
    </trkpt>
    <trkpt lat="50.9640639" lon="6.9084732">
      <time>2022-04-19T07:52:17Z</time>
    </trkpt>
    <trkpt lat="50.9640968" lon="6.9081820">
      <time>2022-04-19T07:52:22Z</time>
    </trkpt>
    <trkpt lat="50.9641766" lon="6.9077634">
      <time>2022-04-19T07:52:28Z</time>
    </trkpt>
    <trkpt lat="50.9641254" lon="6.9074003">
      <time>2022-04-19T07:52:33Z</time>
    </trkpt>
    <trkpt lat="50.9640578" lon="6.9069458">
      <time>2022-04-19T07:52:39Z</time>
    </trkpt>
    <trkpt lat="50.9640463" lon="6.9068880">
      <time>2022-04-19T07:52:40Z</time>
    </trkpt>
    <trkpt lat="50.9639921" lon="6.9066095">
      <time>2022-04-19T07:52:44Z</time>
    </trkpt>
    <trkpt lat="50.9639694" lon="6.9064901">
      <time>2022-04-19T07:52:46Z</time>
    </trkpt>
    <trkpt lat="50.9639309" lon="6.9062575">
      <time>2022-04-19T07:52:50Z</time>
    </trkpt>
    <trkpt lat="50.9639296" lon="6.9062032">
      <time>2022-04-19T07:52:51Z</time>
    </trkpt>
    <trkpt lat="50.9639342" lon="6.9058854">
      <time>2022-04-19T07:52:57Z</time>
    </trkpt>
    <trkpt lat="50.9639379" lon="6.9058382">
      <time>2022-04-19T07:52:58Z</time>
    </trkpt>
    <trkpt lat="50.9639284" lon="6.9057169">
      <time>2022-04-19T07:53:01Z</time>
    </trkpt>
    <trkpt lat="50.9639124" lon="6.9056805">
      <time>2022-04-19T07:53:02Z</time>
    </trkpt>
    <trkpt lat="50.9638879" lon="6.9056516">
      <time>2022-04-19T07:53:03Z</time>
    </trkpt>
    <trkpt lat="50.9638093" lon="6.9056379">
      <time>2022-04-19T07:53:05Z</time>
    </trkpt>
    <trkpt lat="50.9637634" lon="6.9056422">
      <time>2022-04-19T07:53:06Z</time>
    </trkpt>
    <trkpt lat="50.9635597" lon="6.9055892">
      <time>2022-04-19T07:53:10Z</time>
    </trkpt>
    <trkpt lat="50.9634297" lon="6.9055445">
      <time>2022-04-19T07:53:13Z</time>
    </trkpt>
    <trkpt lat="50.9633566" lon="6.9054959">
      <time>2022-04-19T07:53:15Z</time>
    </trkpt>
    <trkpt lat="50.9632858" lon="6.9054423">
      <time>2022-04-19T07:53:17Z</time>
    </trkpt>
    <trkpt lat="50.9631501" lon="6.9053694">
      <time>2022-04-19T07:53:21Z</time>
    </trkpt>
    <trkpt lat="50.9630417" lon="6.9053074">
      <time>2022-04-19T07:53:24Z</time>
    </trkpt>
    <trkpt lat="50.9629697" lon="6.9052435">
      <time>2022-04-19T07:53:26Z</time>
    </trkpt>
    <trkpt lat="50.9628459" lon="6.9051018">
      <time>2022-04-19T07:53:31Z</time>
    </trkpt>
    <trkpt lat="50.9627062" lon="6.9049866">
      <time>2022-04-19T07:53:36Z</time>
    </trkpt>
    <trkpt lat="50.9624429" lon="6.9047205">
      <time>2022-04-19T07:53:45Z</time>
    </trkpt>
    <trkpt lat="50.9622548" lon="6.9045339">
      <time>2022-04-19T07:53:51Z</time>
    </trkpt>
    <trkpt lat="50.9620978" lon="6.9043642">
      <time>2022-04-19T07:53:56Z</time>
    </trkpt>
    <trkpt lat="50.9620620" lon="6.9043276">
      <time>2022-04-19T07:53:57Z</time>
    </trkpt>
    <trkpt lat="50.9620054" lon="6.9042417">
      <time>2022-04-19T07:53:59Z</time>
    </trkpt>
    <trkpt lat="50.9619591" lon="6.9041496">
      <time>2022-04-19T07:54:01Z</time>
    </trkpt>
    <trkpt lat="50.9619220" lon="6.9039583">
      <time>2022-04-19T07:54:06Z</time>
    </trkpt>
    <trkpt lat="50.9618642" lon="6.9038224">
      <time>2022-04-19T07:54:11Z</time>
    </trkpt>
    <trkpt lat="50.9618443" lon="6.9038162">
      <time>2022-04-19T07:54:14Z</time>
    </trkpt>
    <trkpt lat="50.9618478" lon="6.9038179">
      <time>2022-04-19T07:54:15Z</time>
    </trkpt>
    <trkpt lat="50.9618478" lon="6.9038179">
      <time>2022-04-19T07:54:18Z</time>
    </trkpt>
    <trkpt lat="50.9618536" lon="6.9038358">
      <time>2022-04-19T07:54:21Z</time>
    </trkpt>
    <trkpt lat="50.9618735" lon="6.9038314">
      <time>2022-04-19T07:54:26Z</time>
    </trkpt>
    <trkpt lat="50.9618445" lon="6.9038252">
      <time>2022-04-19T08:02:56Z</time>
    </trkpt>
    <trkpt lat="50.9617050" lon="6.9037746">
      <time>2022-04-19T08:03:01Z</time>
    </trkpt>
    <trkpt lat="50.9616693" lon="6.9037588">
      <time>2022-04-19T08:03:02Z</time>
    </trkpt>
    <trkpt lat="50.9615619" lon="6.9036586">
      <time>2022-04-19T08:03:05Z</time>
    </trkpt>
    <trkpt lat="50.9612985" lon="6.9033423">
      <time>2022-04-19T08:03:12Z</time>
    </trkpt>
    <trkpt lat="50.9612733" lon="6.9033060">
      <time>2022-04-19T08:03:13Z</time>
    </trkpt>
    <trkpt lat="50.9612405" lon="6.9032599">
      <time>2022-04-19T08:03:14Z</time>
    </trkpt>
    <trkpt lat="50.9612079" lon="6.9032189">
      <time>2022-04-19T08:03:15Z</time>
    </trkpt>
    <trkpt lat="50.9611737" lon="6.9031837">
      <time>2022-04-19T08:03:16Z</time>
    </trkpt>
    <trkpt lat="50.9611292" lon="6.9031442">
      <time>2022-04-19T08:03:17Z</time>
    </trkpt>
    <trkpt lat="50.9610949" lon="6.9031049">
      <time>2022-04-19T08:03:18Z</time>
    </trkpt>
    <trkpt lat="50.9609991" lon="6.9029863">
      <time>2022-04-19T08:03:21Z</time>
    </trkpt>
    <trkpt lat="50.9609676" lon="6.9028963">
      <time>2022-04-19T08:03:23Z</time>
    </trkpt>
    <trkpt lat="50.9608914" lon="6.9027532">
      <time>2022-04-19T08:03:27Z</time>
    </trkpt>
    <trkpt lat="50.9607665" lon="6.9025433">
      <time>2022-04-19T08:03:33Z</time>
    </trkpt>
    <trkpt lat="50.9607362" lon="6.9024358">
      <time>2022-04-19T08:03:36Z</time>
    </trkpt>
    <trkpt lat="50.9607505" lon="6.9023727">
      <time>2022-04-19T08:03:38Z</time>
    </trkpt>
    <trkpt lat="50.9607510" lon="6.9023479">
      <time>2022-04-19T08:03:39Z</time>
    </trkpt>
    <trkpt lat="50.9607515" lon="6.9023412">
      <time>2022-04-19T08:03:42Z</time>
    </trkpt>
    <trkpt lat="50.9606852" lon="6.9023587">
      <time>2022-04-19T08:04:28Z</time>
    </trkpt>
    <trkpt lat="50.9606453" lon="6.9023450">
      <time>2022-04-19T08:04:29Z</time>
    </trkpt>
    <trkpt lat="50.9604287" lon="6.9021817">
      <time>2022-04-19T08:04:34Z</time>
    </trkpt>
    <trkpt lat="50.9603620" lon="6.9021067">
      <time>2022-04-19T08:04:36Z</time>
    </trkpt>
    <trkpt lat="50.9603237" lon="6.9020777">
      <time>2022-04-19T08:04:37Z</time>
    </trkpt>
    <trkpt lat="50.9602448" lon="6.9020123">
      <time>2022-04-19T08:04:39Z</time>
    </trkpt>
    <trkpt lat="50.9600870" lon="6.9018727">
      <time>2022-04-19T08:04:43Z</time>
    </trkpt>
    <trkpt lat="50.9599991" lon="6.9018079">
      <time>2022-04-19T08:04:45Z</time>
    </trkpt>
    <trkpt lat="50.9598368" lon="6.9016806">
      <time>2022-04-19T08:04:49Z</time>
    </trkpt>
    <trkpt lat="50.9596705" lon="6.9015629">
      <time>2022-04-19T08:04:53Z</time>
    </trkpt>
    <trkpt lat="50.9595753" lon="6.9015696">
      <time>2022-04-19T08:04:55Z</time>
    </trkpt>
    <trkpt lat="50.9594778" lon="6.9015865">
      <time>2022-04-19T08:04:57Z</time>
    </trkpt>
    <trkpt lat="50.9593018" lon="6.9016324">
      <time>2022-04-19T08:05:00Z</time>
    </trkpt>
    <trkpt lat="50.9591229" lon="6.9017125">
      <time>2022-04-19T08:05:04Z</time>
    </trkpt>
    <trkpt lat="50.9590400" lon="6.9017399">
      <time>2022-04-19T08:05:06Z</time>
    </trkpt>
    <trkpt lat="50.9589526" lon="6.9017418">
      <time>2022-04-19T08:05:08Z</time>
    </trkpt>
    <trkpt lat="50.9587329" lon="6.9016611">
      <time>2022-04-19T08:05:13Z</time>
    </trkpt>
    <trkpt lat="50.9586889" lon="6.9016354">
      <time>2022-04-19T08:05:14Z</time>
    </trkpt>
    <trkpt lat="50.9585570" lon="6.9015621">
      <time>2022-04-19T08:05:17Z</time>
    </trkpt>
    <trkpt lat="50.9584272" lon="6.9014686">
      <time>2022-04-19T08:05:20Z</time>
    </trkpt>
    <trkpt lat="50.9582925" lon="6.9013675">
      <time>2022-04-19T08:05:23Z</time>
    </trkpt>
    <trkpt lat="50.9581476" lon="6.9012276">
      <time>2022-04-19T08:05:26Z</time>
    </trkpt>
    <trkpt lat="50.9577618" lon="6.9008949">
      <time>2022-04-19T08:05:35Z</time>
    </trkpt>
    <trkpt lat="50.9576476" lon="6.9008188">
      <time>2022-04-19T08:05:39Z</time>
    </trkpt>
    <trkpt lat="50.9576256" lon="6.9007875">
      <time>2022-04-19T08:05:40Z</time>
    </trkpt>
    <trkpt lat="50.9576072" lon="6.9006941">
      <time>2022-04-19T08:05:42Z</time>
    </trkpt>
    <trkpt lat="50.9576201" lon="6.9006436">
      <time>2022-04-19T08:05:43Z</time>
    </trkpt>
    <trkpt lat="50.9576507" lon="6.9005437">
      <time>2022-04-19T08:05:45Z</time>
    </trkpt>
    <trkpt lat="50.9576948" lon="6.9004235">
      <time>2022-04-19T08:05:47Z</time>
    </trkpt>
    <trkpt lat="50.9577564" lon="6.9003234">
      <time>2022-04-19T08:05:49Z</time>
    </trkpt>
    <trkpt lat="50.9578695" lon="6.9001212">
      <time>2022-04-19T08:05:53Z</time>
    </trkpt>
    <trkpt lat="50.9579177" lon="6.9000123">
      <time>2022-04-19T08:05:55Z</time>
    </trkpt>
    <trkpt lat="50.9579633" lon="6.8998877">
      <time>2022-04-19T08:05:57Z</time>
    </trkpt>
    <trkpt lat="50.9579946" lon="6.8997503">
      <time>2022-04-19T08:05:59Z</time>
    </trkpt>
    <trkpt lat="50.9580167" lon="6.8996792">
      <time>2022-04-19T08:06:00Z</time>
    </trkpt>
    <trkpt lat="50.9582500" lon="6.8991339">
      <time>2022-04-19T08:06:08Z</time>
    </trkpt>
    <trkpt lat="50.9583426" lon="6.8989366">
      <time>2022-04-19T08:06:11Z</time>
    </trkpt>
    <trkpt lat="50.9584424" lon="6.8987554">
      <time>2022-04-19T08:06:14Z</time>
    </trkpt>
    <trkpt lat="50.9585068" lon="6.8986236">
      <time>2022-04-19T08:06:16Z</time>
    </trkpt>
    <trkpt lat="50.9586357" lon="6.8983699">
      <time>2022-04-19T08:06:20Z</time>
    </trkpt>
    <trkpt lat="50.9587640" lon="6.8980920">
      <time>2022-04-19T08:06:24Z</time>
    </trkpt>
    <trkpt lat="50.9588220" lon="6.8979647">
      <time>2022-04-19T08:06:26Z</time>
    </trkpt>
    <trkpt lat="50.9588550" lon="6.8978967">
      <time>2022-04-19T08:06:27Z</time>
    </trkpt>
    <trkpt lat="50.9589870" lon="6.8976362">
      <time>2022-04-19T08:06:31Z</time>
    </trkpt>
    <trkpt lat="50.9590758" lon="6.8974371">
      <time>2022-04-19T08:06:34Z</time>
    </trkpt>
    <trkpt lat="50.9592312" lon="6.8971055">
      <time>2022-04-19T08:06:39Z</time>
    </trkpt>
    <trkpt lat="50.9593661" lon="6.8968486">
      <time>2022-04-19T08:06:43Z</time>
    </trkpt>
    <trkpt lat="50.9594913" lon="6.8965677">
      <time>2022-04-19T08:06:47Z</time>
    </trkpt>
    <trkpt lat="50.9595891" lon="6.8963516">
      <time>2022-04-19T08:06:50Z</time>
    </trkpt>
    <trkpt lat="50.9599188" lon="6.8956363">
      <time>2022-04-19T08:07:00Z</time>
    </trkpt>
    <trkpt lat="50.9599518" lon="6.8955603">
      <time>2022-04-19T08:07:01Z</time>
    </trkpt>
    <trkpt lat="50.9601815" lon="6.8950750">
      <time>2022-04-19T08:07:08Z</time>
    </trkpt>
    <trkpt lat="50.9602450" lon="6.8949396">
      <time>2022-04-19T08:07:10Z</time>
    </trkpt>
    <trkpt lat="50.9603475" lon="6.8947494">
      <time>2022-04-19T08:07:13Z</time>
    </trkpt>
    <trkpt lat="50.9604097" lon="6.8946253">
      <time>2022-04-19T08:07:15Z</time>
    </trkpt>
    <trkpt lat="50.9604398" lon="6.8945632">
      <time>2022-04-19T08:07:16Z</time>
    </trkpt>
    <trkpt lat="50.9605060" lon="6.8944414">
      <time>2022-04-19T08:07:18Z</time>
    </trkpt>
    <trkpt lat="50.9605686" lon="6.8943190">
      <time>2022-04-19T08:07:20Z</time>
    </trkpt>
    <trkpt lat="50.9606600" lon="6.8941410">
      <time>2022-04-19T08:07:23Z</time>
    </trkpt>
    <trkpt lat="50.9606894" lon="6.8940772">
      <time>2022-04-19T08:07:24Z</time>
    </trkpt>
    <trkpt lat="50.9607372" lon="6.8939341">
      <time>2022-04-19T08:07:26Z</time>
    </trkpt>
    <trkpt lat="50.9607862" lon="6.8937965">
      <time>2022-04-19T08:07:28Z</time>
    </trkpt>
    <trkpt lat="50.9608509" lon="6.8936751">
      <time>2022-04-19T08:07:30Z</time>
    </trkpt>
    <trkpt lat="50.9609366" lon="6.8935828">
      <time>2022-04-19T08:07:32Z</time>
    </trkpt>
    <trkpt lat="50.9609852" lon="6.8935436">
      <time>2022-04-19T08:07:33Z</time>
    </trkpt>
    <trkpt lat="50.9611430" lon="6.8933438">
      <time>2022-04-19T08:07:37Z</time>
    </trkpt>
    <trkpt lat="50.9612010" lon="6.8932253">
      <time>2022-04-19T08:07:39Z</time>
    </trkpt>
    <trkpt lat="50.9614128" lon="6.8928007">
      <time>2022-04-19T08:07:46Z</time>
    </trkpt>
    <trkpt lat="50.9614398" lon="6.8927250">
      <time>2022-04-19T08:07:47Z</time>
    </trkpt>
    <trkpt lat="50.9615259" lon="6.8924932">
      <time>2022-04-19T08:07:50Z</time>
    </trkpt>
    <trkpt lat="50.9616899" lon="6.8921307">
      <time>2022-04-19T08:07:55Z</time>
    </trkpt>
    <trkpt lat="50.9617930" lon="6.8919118">
      <time>2022-04-19T08:07:58Z</time>
    </trkpt>
    <trkpt lat="50.9620064" lon="6.8914452">
      <time>2022-04-19T08:08:04Z</time>
    </trkpt>
    <trkpt lat="50.9620877" lon="6.8912969">
      <time>2022-04-19T08:08:06Z</time>
    </trkpt>
    <trkpt lat="50.9621247" lon="6.8912224">
      <time>2022-04-19T08:08:07Z</time>
    </trkpt>
    <trkpt lat="50.9621952" lon="6.8910700">
      <time>2022-04-19T08:08:09Z</time>
    </trkpt>
    <trkpt lat="50.9622666" lon="6.8909203">
      <time>2022-04-19T08:08:11Z</time>
    </trkpt>
    <trkpt lat="50.9625039" lon="6.8903780">
      <time>2022-04-19T08:08:18Z</time>
    </trkpt>
    <trkpt lat="50.9626562" lon="6.8899642">
      <time>2022-04-19T08:08:23Z</time>
    </trkpt>
    <trkpt lat="50.9627230" lon="6.8897941">
      <time>2022-04-19T08:08:25Z</time>
    </trkpt>
    <trkpt lat="50.9628544" lon="6.8895005">
      <time>2022-04-19T08:08:29Z</time>
    </trkpt>
    <trkpt lat="50.9628928" lon="6.8893767">
      <time>2022-04-19T08:08:30Z</time>
    </trkpt>
    <trkpt lat="50.9629316" lon="6.8893138">
      <time>2022-04-19T08:08:31Z</time>
    </trkpt>
    <trkpt lat="50.9630544" lon="6.8891466">
      <time>2022-04-19T08:08:34Z</time>
    </trkpt>
    <trkpt lat="50.9632311" lon="6.8888026">
      <time>2022-04-19T08:08:39Z</time>
    </trkpt>
    <trkpt lat="50.9632692" lon="6.8887386">
      <time>2022-04-19T08:08:40Z</time>
    </trkpt>
    <trkpt lat="50.9634894" lon="6.8883012">
      <time>2022-04-19T08:08:47Z</time>
    </trkpt>
    <trkpt lat="50.9635790" lon="6.8881029">
      <time>2022-04-19T08:08:51Z</time>
    </trkpt>
    <trkpt lat="50.9635500" lon="6.8880347">
      <time>2022-04-19T08:08:53Z</time>
    </trkpt>
    <trkpt lat="50.9635160" lon="6.8880200">
      <time>2022-04-19T08:08:54Z</time>
    </trkpt>
    <trkpt lat="50.9634131" lon="6.8879646">
      <time>2022-04-19T08:08:59Z</time>
    </trkpt>
    <trkpt lat="50.9634131" lon="6.8879646">
      <time>2022-04-19T08:09:01Z</time>
    </trkpt>
    <trkpt lat="50.9633604" lon="6.8878995">
      <time>2022-04-19T08:09:09Z</time>
    </trkpt>
    <trkpt lat="50.9633683" lon="6.8878589">
      <time>2022-04-19T08:09:10Z</time>
    </trkpt>
    <trkpt lat="50.9634642" lon="6.8876418">
      <time>2022-04-19T08:09:15Z</time>
    </trkpt>
    <trkpt lat="50.9635951" lon="6.8873321">
      <time>2022-04-19T08:09:20Z</time>
    </trkpt>
    <trkpt lat="50.9637996" lon="6.8869686">
      <time>2022-04-19T08:09:26Z</time>
    </trkpt>
    <trkpt lat="50.9640217" lon="6.8865415">
      <time>2022-04-19T08:09:33Z</time>
    </trkpt>
    <trkpt lat="50.9641789" lon="6.8861339">
      <time>2022-04-19T08:09:40Z</time>
    </trkpt>
    <trkpt lat="50.9641701" lon="6.8860086">
      <time>2022-04-19T08:09:42Z</time>
    </trkpt>
    <trkpt lat="50.9641398" lon="6.8859568">
      <time>2022-04-19T08:09:43Z</time>
    </trkpt>
    <trkpt lat="50.9640295" lon="6.8858252">
      <time>2022-04-19T08:09:46Z</time>
    </trkpt>
    <trkpt lat="50.9639463" lon="6.8857620">
      <time>2022-04-19T08:09:48Z</time>
    </trkpt>
    <trkpt lat="50.9639047" lon="6.8857403">
      <time>2022-04-19T08:09:49Z</time>
    </trkpt>
    <trkpt lat="50.9638591" lon="6.8857257">
      <time>2022-04-19T08:09:50Z</time>
    </trkpt>
    <trkpt lat="50.9637684" lon="6.8857211">
      <time>2022-04-19T08:09:52Z</time>
    </trkpt>
    <trkpt lat="50.9636773" lon="6.8857526">
      <time>2022-04-19T08:09:54Z</time>
    </trkpt>
    <trkpt lat="50.9636021" lon="6.8858059">
      <time>2022-04-19T08:09:56Z</time>
    </trkpt>
    <trkpt lat="50.9635677" lon="6.8858352">
      <time>2022-04-19T08:09:57Z</time>
    </trkpt>
    <trkpt lat="50.9635315" lon="6.8858581">
      <time>2022-04-19T08:09:58Z</time>
    </trkpt>
    <trkpt lat="50.9634977" lon="6.8858625">
      <time>2022-04-19T08:09:59Z</time>
    </trkpt>
    <trkpt lat="50.9633757" lon="6.8857776">
      <time>2022-04-19T08:10:03Z</time>
    </trkpt>
    <trkpt lat="50.9630902" lon="6.8855909">
      <time>2022-04-19T08:10:10Z</time>
    </trkpt>
    <trkpt lat="50.9627682" lon="6.8854301">
      <time>2022-04-19T08:10:18Z</time>
    </trkpt>
    <trkpt lat="50.9626025" lon="6.8853818">
      <time>2022-04-19T08:10:22Z</time>
    </trkpt>
    <trkpt lat="50.9625134" lon="6.8853637">
      <time>2022-04-19T08:10:24Z</time>
    </trkpt>
    <trkpt lat="50.9623781" lon="6.8853153">
      <time>2022-04-19T08:10:27Z</time>
    </trkpt>
    <trkpt lat="50.9622151" lon="6.8852362">
      <time>2022-04-19T08:10:31Z</time>
    </trkpt>
    <trkpt lat="50.9621342" lon="6.8851813">
      <time>2022-04-19T08:10:33Z</time>
    </trkpt>
    <trkpt lat="50.9620692" lon="6.8850947">
      <time>2022-04-19T08:10:35Z</time>
    </trkpt>
    <trkpt lat="50.9620259" lon="6.8849454">
      <time>2022-04-19T08:10:37Z</time>
    </trkpt>
    <trkpt lat="50.9619678" lon="6.8847631">
      <time>2022-04-19T08:10:39Z</time>
    </trkpt>
    <trkpt lat="50.9619353" lon="6.8845918">
      <time>2022-04-19T08:10:41Z</time>
    </trkpt>
    <trkpt lat="50.9619475" lon="6.8841431">
      <time>2022-04-19T08:10:46Z</time>
    </trkpt>
    <trkpt lat="50.9619895" lon="6.8839929">
      <time>2022-04-19T08:10:48Z</time>
    </trkpt>
    <trkpt lat="50.9619995" lon="6.8839243">
      <time>2022-04-19T08:10:49Z</time>
    </trkpt>
    <trkpt lat="50.9620092" lon="6.8837888">
      <time>2022-04-19T08:10:51Z</time>
    </trkpt>
    <trkpt lat="50.9620138" lon="6.8837197">
      <time>2022-04-19T08:10:52Z</time>
    </trkpt>
    <trkpt lat="50.9620390" lon="6.8836381">
      <time>2022-04-19T08:10:53Z</time>
    </trkpt>
    <trkpt lat="50.9621030" lon="6.8834153">
      <time>2022-04-19T08:10:56Z</time>
    </trkpt>
    <trkpt lat="50.9621572" lon="6.8830087">
      <time>2022-04-19T08:11:01Z</time>
    </trkpt>
    <trkpt lat="50.9621734" lon="6.8829320">
      <time>2022-04-19T08:11:02Z</time>
    </trkpt>
    <trkpt lat="50.9621811" lon="6.8828486">
      <time>2022-04-19T08:11:03Z</time>
    </trkpt>
    <trkpt lat="50.9622154" lon="6.8826054">
      <time>2022-04-19T08:11:06Z</time>
    </trkpt>
    <trkpt lat="50.9622527" lon="6.8824407">
      <time>2022-04-19T08:11:08Z</time>
    </trkpt>
    <trkpt lat="50.9623299" lon="6.8819377">
      <time>2022-04-19T08:11:14Z</time>
    </trkpt>
    <trkpt lat="50.9624410" lon="6.8813775">
      <time>2022-04-19T08:11:21Z</time>
    </trkpt>
    <trkpt lat="50.9624695" lon="6.8812238">
      <time>2022-04-19T08:11:23Z</time>
    </trkpt>
    <trkpt lat="50.9625193" lon="6.8809137">
      <time>2022-04-19T08:11:27Z</time>
    </trkpt>
    <trkpt lat="50.9625424" lon="6.8807580">
      <time>2022-04-19T08:11:29Z</time>
    </trkpt>
    <trkpt lat="50.9626360" lon="6.8802335">
      <time>2022-04-19T08:11:36Z</time>
    </trkpt>
    <trkpt lat="50.9627430" lon="6.8796334">
      <time>2022-04-19T08:11:44Z</time>
    </trkpt>
    <trkpt lat="50.9627664" lon="6.8794796">
      <time>2022-04-19T08:11:46Z</time>
    </trkpt>
    <trkpt lat="50.9628125" lon="6.8792024">
      <time>2022-04-19T08:11:50Z</time>
    </trkpt>
    <trkpt lat="50.9628452" lon="6.8790712">
      <time>2022-04-19T08:11:52Z</time>
    </trkpt>
    <trkpt lat="50.9629092" lon="6.8789078">
      <time>2022-04-19T08:11:55Z</time>
    </trkpt>
    <trkpt lat="50.9630379" lon="6.8787003">
      <time>2022-04-19T08:12:00Z</time>
    </trkpt>
    <trkpt lat="50.9631014" lon="6.8786355">
      <time>2022-04-19T08:12:02Z</time>
    </trkpt>
    <trkpt lat="50.9632055" lon="6.8785312">
      <time>2022-04-19T08:12:05Z</time>
    </trkpt>
    <trkpt lat="50.9632722" lon="6.8784661">
      <time>2022-04-19T08:12:07Z</time>
    </trkpt>
    <trkpt lat="50.9633197" lon="6.8784293">
      <time>2022-04-19T08:12:08Z</time>
    </trkpt>
    <trkpt lat="50.9634478" lon="6.8783629">
      <time>2022-04-19T08:12:11Z</time>
    </trkpt>
    <trkpt lat="50.9635491" lon="6.8782948">
      <time>2022-04-19T08:12:14Z</time>
    </trkpt>
    <trkpt lat="50.9636990" lon="6.8781336">
      <time>2022-04-19T08:12:20Z</time>
    </trkpt>
    <trkpt lat="50.9637879" lon="6.8778932">
      <time>2022-04-19T08:12:25Z</time>
    </trkpt>
    <trkpt lat="50.9639182" lon="6.8775473">
      <time>2022-04-19T08:12:30Z</time>
    </trkpt>
    <trkpt lat="50.9640325" lon="6.8771907">
      <time>2022-04-19T08:12:35Z</time>
    </trkpt>
    <trkpt lat="50.9640496" lon="6.8771141">
      <time>2022-04-19T08:12:36Z</time>
    </trkpt>
    <trkpt lat="50.9640871" lon="6.8769723">
      <time>2022-04-19T08:12:38Z</time>
    </trkpt>
    <trkpt lat="50.9641261" lon="6.8768146">
      <time>2022-04-19T08:12:41Z</time>
    </trkpt>
    <trkpt lat="50.9641663" lon="6.8766098">
      <time>2022-04-19T08:12:46Z</time>
    </trkpt>
    <trkpt lat="50.9641547" lon="6.8764576">
      <time>2022-04-19T08:12:50Z</time>
    </trkpt>
    <trkpt lat="50.9641435" lon="6.8764226">
      <time>2022-04-19T08:12:51Z</time>
    </trkpt>
    <trkpt lat="50.9640942" lon="6.8762432">
      <time>2022-04-19T08:12:56Z</time>
    </trkpt>
    <trkpt lat="50.9640782" lon="6.8762150">
      <time>2022-04-19T08:12:57Z</time>
    </trkpt>
    <trkpt lat="50.9640637" lon="6.8762000">
      <time>2022-04-19T08:12:58Z</time>
    </trkpt>
    <trkpt lat="50.9639322" lon="6.8761507">
      <time>2022-04-19T08:13:03Z</time>
    </trkpt>
    <trkpt lat="50.9639166" lon="6.8761301">
      <time>2022-04-19T08:13:04Z</time>
    </trkpt>
    <trkpt lat="50.9638121" lon="6.8760834">
      <time>2022-04-19T08:13:09Z</time>
    </trkpt>
    <trkpt lat="50.9637955" lon="6.8760676">
      <time>2022-04-19T08:13:10Z</time>
    </trkpt>
    <trkpt lat="50.9637849" lon="6.8760441">
      <time>2022-04-19T08:13:12Z</time>
    </trkpt>
    <trkpt lat="50.9637647" lon="6.8760419">
      <time>2022-04-19T08:13:15Z</time>
    </trkpt>
    <trkpt lat="50.9637499" lon="6.8760501">
      <time>2022-04-19T08:13:16Z</time>
    </trkpt>
    <trkpt lat="50.9636787" lon="6.8760777">
      <time>2022-04-19T08:13:19Z</time>
    </trkpt>
    <trkpt lat="50.9635223" lon="6.8761237">
      <time>2022-04-19T08:13:26Z</time>
    </trkpt>
    <trkpt lat="50.9634799" lon="6.8761094">
      <time>2022-04-19T08:13:28Z</time>
    </trkpt>
    <trkpt lat="50.9634709" lon="6.8760724">
      <time>2022-04-19T08:13:30Z</time>
    </trkpt>
    <trkpt lat="50.9634859" lon="6.8760550">
      <time>2022-04-19T08:13:33Z</time>
    </trkpt>
    <trkpt lat="50.9634859" lon="6.8760550">
      <time>2022-04-19T08:13:35Z</time>
    </trkpt>
  </trkseg></trk>
</gpx>
