<?xml version="1.0" encoding="UTF-8"?>
<gpx version="1.1" creator="Diary FIT converter" xmlns="http://www.topografix.com/GPX/1/1">
  <trk><name>Running</name><trkseg>
    <trkpt lat="53.4750583" lon="7.9890332">
      <time>2022-04-30T05:51:24Z</time>
    </trkpt>
    <trkpt lat="53.4752162" lon="7.9889492">
      <time>2022-04-30T05:51:26Z</time>
    </trkpt>
    <trkpt lat="53.4752366" lon="7.9887928">
      <time>2022-04-30T05:51:28Z</time>
    </trkpt>
    <trkpt lat="53.4752326" lon="7.9886888">
      <time>2022-04-30T05:51:29Z</time>
    </trkpt>
    <trkpt lat="53.4751803" lon="7.9884749">
      <time>2022-04-30T05:51:32Z</time>
    </trkpt>
    <trkpt lat="53.4751036" lon="7.9883796">
      <time>2022-04-30T05:51:35Z</time>
    </trkpt>
    <trkpt lat="53.4750384" lon="7.9883213">
      <time>2022-04-30T05:51:37Z</time>
    </trkpt>
    <trkpt lat="53.4749497" lon="7.9882320">
      <time>2022-04-30T05:51:41Z</time>
    </trkpt>
    <trkpt lat="53.4748982" lon="7.9880891">
      <time>2022-04-30T05:51:45Z</time>
    </trkpt>
    <trkpt lat="53.4748601" lon="7.9880469">
      <time>2022-04-30T05:51:47Z</time>
    </trkpt>
    <trkpt lat="53.4748378" lon="7.9880789">
      <time>2022-04-30T05:51:49Z</time>
    </trkpt>
    <trkpt lat="53.4748311" lon="7.9881062">
      <time>2022-04-30T05:51:50Z</time>
    </trkpt>
    <trkpt lat="53.4747841" lon="7.9882146">
      <time>2022-04-30T05:51:53Z</time>
    </trkpt>
    <trkpt lat="53.4746905" lon="7.9883405">
      <time>2022-04-30T05:51:58Z</time>
    </trkpt>
    <trkpt lat="53.4746124" lon="7.9885144">
      <time>2022-04-30T05:52:02Z</time>
    </trkpt>
    <trkpt lat="53.4745749" lon="7.9885949">
      <time>2022-04-30T05:52:04Z</time>
    </trkpt>
    <trkpt lat="53.4745463" lon="7.9886775">
      <time>2022-04-30T05:52:06Z</time>
    </trkpt>
    <trkpt lat="53.4745069" lon="7.9888043">
      <time>2022-04-30T05:52:09Z</time>
    </trkpt>
    <trkpt lat="53.4743645" lon="7.9889814">
      <time>2022-04-30T05:52:16Z</time>
    </trkpt>
    <trkpt lat="53.4742512" lon="7.9890318">
      <time>2022-04-30T05:52:21Z</time>
    </trkpt>
    <trkpt lat="53.4740593" lon="7.9889588">
      <time>2022-04-30T05:52:29Z</time>
    </trkpt>
    <trkpt lat="53.4740360" lon="7.9889431">
      <time>2022-04-30T05:52:30Z</time>
    </trkpt>
    <trkpt lat="53.4739431" lon="7.9888674">
      <time>2022-04-30T05:52:34Z</time>
    </trkpt>
    <trkpt lat="53.4739221" lon="7.9888446">
      <time>2022-04-30T05:52:35Z</time>
    </trkpt>
    <trkpt lat="53.4738305" lon="7.9887672">
      <time>2022-04-30T05:52:39Z</time>
    </trkpt>
    <trkpt lat="53.4736656" lon="7.9886166">
      <time>2022-04-30T05:52:47Z</time>
    </trkpt>
    <trkpt lat="53.4736438" lon="7.9885954">
      <time>2022-04-30T05:52:48Z</time>
    </trkpt>
    <trkpt lat="53.4736223" lon="7.9885783">
      <time>2022-04-30T05:52:49Z</time>
    </trkpt>
    <trkpt lat="53.4735562" lon="7.9885216">
      <time>2022-04-30T05:52:52Z</time>
    </trkpt>
    <trkpt lat="53.4734496" lon="7.9884472">
      <time>2022-04-30T05:52:57Z</time>
    </trkpt>
    <trkpt lat="53.4733303" lon="7.9883199">
      <time>2022-04-30T05:53:03Z</time>
    </trkpt>
    <trkpt lat="53.4731649" lon="7.9881393">
      <time>2022-04-30T05:53:12Z</time>
    </trkpt>
    <trkpt lat="53.4731467" lon="7.9881217">
      <time>2022-04-30T05:53:13Z</time>
    </trkpt>
    <trkpt lat="53.4729954" lon="7.9879412">
      <time>2022-04-30T05:53:21Z</time>
    </trkpt>
    <trkpt lat="53.4729498" lon="7.9878996">
      <time>2022-04-30T05:53:23Z</time>
    </trkpt>
    <trkpt lat="53.4727797" lon="7.9877145">
      <time>2022-04-30T05:53:31Z</time>
    </trkpt>
    <trkpt lat="53.4726743" lon="7.9875897">
      <time>2022-04-30T05:53:36Z</time>
    </trkpt>
    <trkpt lat="53.4726142" lon="7.9875231">
      <time>2022-04-30T05:53:39Z</time>
    </trkpt>
    <trkpt lat="53.4724663" lon="7.9873804">
      <time>2022-04-30T05:53:46Z</time>
    </trkpt>
    <trkpt lat="53.4723165" lon="7.9872053">
      <time>2022-04-30T05:53:54Z</time>
    </trkpt>
    <trkpt lat="53.4722962" lon="7.9871840">
      <time>2022-04-30T05:53:55Z</time>
    </trkpt>
    <trkpt lat="53.4721362" lon="7.9870229">
      <time>2022-04-30T05:54:03Z</time>
    </trkpt>
    <trkpt lat="53.4719807" lon="7.9868559">
      <time>2022-04-30T05:54:11Z</time>
    </trkpt>
    <trkpt lat="53.4719606" lon="7.9868316">
      <time>2022-04-30T05:54:12Z</time>
    </trkpt>
    <trkpt lat="53.4717951" lon="7.9866785">
      <time>2022-04-30T05:54:20Z</time>
    </trkpt>
    <trkpt lat="53.4717752" lon="7.9866539">
      <time>2022-04-30T05:54:21Z</time>
    </trkpt>
    <trkpt lat="53.4716158" lon="7.9864675">
      <time>2022-04-30T05:54:29Z</time>
    </trkpt>
    <trkpt lat="53.4715308" lon="7.9863911">
      <time>2022-04-30T05:54:33Z</time>
    </trkpt>
    <trkpt lat="53.4713666" lon="7.9862250">
      <time>2022-04-30T05:54:41Z</time>
    </trkpt>
    <trkpt lat="53.4713505" lon="7.9862015">
      <time>2022-04-30T05:54:42Z</time>
    </trkpt>
    <trkpt lat="53.4711861" lon="7.9860353">
      <time>2022-04-30T05:54:50Z</time>
    </trkpt>
    <trkpt lat="53.4711645" lon="7.9860110">
      <time>2022-04-30T05:54:51Z</time>
    </trkpt>
    <trkpt lat="53.4710432" lon="7.9858992">
      <time>2022-04-30T05:54:57Z</time>
    </trkpt>
    <trkpt lat="53.4709528" lon="7.9858101">
      <time>2022-04-30T05:55:01Z</time>
    </trkpt>
    <trkpt lat="53.4707897" lon="7.9856293">
      <time>2022-04-30T05:55:09Z</time>
    </trkpt>
    <trkpt lat="53.4707355" lon="7.9855547">
      <time>2022-04-30T05:55:12Z</time>
    </trkpt>
    <trkpt lat="53.4706637" lon="7.9854620">
      <time>2022-04-30T05:55:16Z</time>
    </trkpt>
    <trkpt lat="53.4706478" lon="7.9854363">
      <time>2022-04-30T05:55:17Z</time>
    </trkpt>
    <trkpt lat="53.4705890" lon="7.9853765">
      <time>2022-04-30T05:55:20Z</time>
    </trkpt>
    <trkpt lat="53.4704170" lon="7.9852067">
      <time>2022-04-30T05:55:29Z</time>
    </trkpt>
    <trkpt lat="53.4703790" lon="7.9851723">
      <time>2022-04-30T05:55:31Z</time>
    </trkpt>
    <trkpt lat="53.4702421" lon="7.9850434">
      <time>2022-04-30T05:55:38Z</time>
    </trkpt>
    <trkpt lat="53.4701528" lon="7.9849387">
      <time>2022-04-30T05:55:43Z</time>
    </trkpt>
    <trkpt lat="53.4700857" lon="7.9848557">
      <time>2022-04-30T05:55:47Z</time>
    </trkpt>
    <trkpt lat="53.4699434" lon="7.9847211">
      <time>2022-04-30T05:55:54Z</time>
    </trkpt>
    <trkpt lat="53.4697783" lon="7.9845728">
      <time>2022-04-30T05:56:02Z</time>
    </trkpt>
    <trkpt lat="53.4697358" lon="7.9845311">
      <time>2022-04-30T05:56:04Z</time>
    </trkpt>
    <trkpt lat="53.4695833" lon="7.9843891">
      <time>2022-04-30T05:56:11Z</time>
    </trkpt>
    <trkpt lat="53.4694256" lon="7.9842146">
      <time>2022-04-30T05:56:19Z</time>
    </trkpt>
    <trkpt lat="53.4694081" lon="7.9841929">
      <time>2022-04-30T05:56:20Z</time>
    </trkpt>
    <trkpt lat="53.4692648" lon="7.9840109">
      <time>2022-04-30T05:56:28Z</time>
    </trkpt>
    <trkpt lat="53.4692222" lon="7.9839755">
      <time>2022-04-30T05:56:30Z</time>
    </trkpt>
    <trkpt lat="53.4690519" lon="7.9838084">
      <time>2022-04-30T05:56:39Z</time>
    </trkpt>
    <trkpt lat="53.4689315" lon="7.9836862">
      <time>2022-04-30T05:56:45Z</time>
    </trkpt>
    <trkpt lat="53.4688636" lon="7.9836237">
      <time>2022-04-30T05:56:48Z</time>
    </trkpt>
    <trkpt lat="53.4688048" lon="7.9835577">
      <time>2022-04-30T05:56:51Z</time>
    </trkpt>
    <trkpt lat="53.4687689" lon="7.9835091">
      <time>2022-04-30T05:56:53Z</time>
    </trkpt>
    <trkpt lat="53.4686280" lon="7.9833701">
      <time>2022-04-30T05:57:00Z</time>
    </trkpt>
    <trkpt lat="53.4684922" lon="7.9831887">
      <time>2022-04-30T05:57:08Z</time>
    </trkpt>
    <trkpt lat="53.4683338" lon="7.9830364">
      <time>2022-04-30T05:57:16Z</time>
    </trkpt>
    <trkpt lat="53.4681618" lon="7.9829304">
      <time>2022-04-30T05:57:24Z</time>
    </trkpt>
    <trkpt lat="53.4681214" lon="7.9829211">
      <time>2022-04-30T05:57:26Z</time>
    </trkpt>
    <trkpt lat="53.4679862" lon="7.9829384">
      <time>2022-04-30T05:57:32Z</time>
    </trkpt>
    <trkpt lat="53.4679436" lon="7.9829513">
      <time>2022-04-30T05:57:34Z</time>
    </trkpt>
    <trkpt lat="53.4677653" lon="7.9830380">
      <time>2022-04-30T05:57:42Z</time>
    </trkpt>
    <trkpt lat="53.4675868" lon="7.9831148">
      <time>2022-04-30T05:57:50Z</time>
    </trkpt>
    <trkpt lat="53.4675408" lon="7.9831293">
      <time>2022-04-30T05:57:52Z</time>
    </trkpt>
    <trkpt lat="53.4673937" lon="7.9831841">
      <time>2022-04-30T05:57:59Z</time>
    </trkpt>
    <trkpt lat="53.4671980" lon="7.9832640">
      <time>2022-04-30T05:58:07Z</time>
    </trkpt>
    <trkpt lat="53.4671471" lon="7.9832887">
      <time>2022-04-30T05:58:09Z</time>
    </trkpt>
    <trkpt lat="53.4669477" lon="7.9833698">
      <time>2022-04-30T05:58:17Z</time>
    </trkpt>
    <trkpt lat="53.4668977" lon="7.9833842">
      <time>2022-04-30T05:58:19Z</time>
    </trkpt>
    <trkpt lat="53.4667160" lon="7.9834355">
      <time>2022-04-30T05:58:26Z</time>
    </trkpt>
    <trkpt lat="53.4665895" lon="7.9834850">
      <time>2022-04-30T05:58:32Z</time>
    </trkpt>
    <trkpt lat="53.4664061" lon="7.9835526">
      <time>2022-04-30T05:58:39Z</time>
    </trkpt>
    <trkpt lat="53.4663100" lon="7.9835873">
      <time>2022-04-30T05:58:43Z</time>
    </trkpt>
    <trkpt lat="53.4661204" lon="7.9836484">
      <time>2022-04-30T05:58:50Z</time>
    </trkpt>
    <trkpt lat="53.4659359" lon="7.9837213">
      <time>2022-04-30T05:58:57Z</time>
    </trkpt>
    <trkpt lat="53.4658867" lon="7.9837396">
      <time>2022-04-30T05:58:59Z</time>
    </trkpt>
    <trkpt lat="53.4658605" lon="7.9837492">
      <time>2022-04-30T05:59:00Z</time>
    </trkpt>
    <trkpt lat="53.4657121" lon="7.9838014">
      <time>2022-04-30T05:59:06Z</time>
    </trkpt>
    <trkpt lat="53.4654999" lon="7.9838684">
      <time>2022-04-30T05:59:15Z</time>
    </trkpt>
    <trkpt lat="53.4654552" lon="7.9838893">
      <time>2022-04-30T05:59:17Z</time>
    </trkpt>
    <trkpt lat="53.4652963" lon="7.9839535">
      <time>2022-04-30T05:59:25Z</time>
    </trkpt>
    <trkpt lat="53.4650838" lon="7.9840426">
      <time>2022-04-30T05:59:33Z</time>
    </trkpt>
    <trkpt lat="53.4650615" lon="7.9840512">
      <time>2022-04-30T05:59:34Z</time>
    </trkpt>
    <trkpt lat="53.4649032" lon="7.9841104">
      <time>2022-04-30T05:59:41Z</time>
    </trkpt>
    <trkpt lat="53.4648403" lon="7.9841287">
      <time>2022-04-30T05:59:44Z</time>
    </trkpt>
    <trkpt lat="53.4646685" lon="7.9841902">
      <time>2022-04-30T05:59:52Z</time>
    </trkpt>
    <trkpt lat="53.4644730" lon="7.9842720">
      <time>2022-04-30T06:00:01Z</time>
    </trkpt>
    <trkpt lat="53.4642782" lon="7.9843350">
      <time>2022-04-30T06:00:10Z</time>
    </trkpt>
    <trkpt lat="53.4641191" lon="7.9844551">
      <time>2022-04-30T06:00:19Z</time>
    </trkpt>
    <trkpt lat="53.4640592" lon="7.9846995">
      <time>2022-04-30T06:00:25Z</time>
    </trkpt>
    <trkpt lat="53.4640453" lon="7.9850092">
      <time>2022-04-30T06:00:33Z</time>
    </trkpt>
    <trkpt lat="53.4640368" lon="7.9853326">
      <time>2022-04-30T06:00:41Z</time>
    </trkpt>
    <trkpt lat="53.4640138" lon="7.9856221">
      <time>2022-04-30T06:00:48Z</time>
    </trkpt>
    <trkpt lat="53.4640000" lon="7.9859513">
      <time>2022-04-30T06:00:56Z</time>
    </trkpt>
    <trkpt lat="53.4639560" lon="7.9862079">
      <time>2022-04-30T06:01:02Z</time>
    </trkpt>
    <trkpt lat="53.4639219" lon="7.9862882">
      <time>2022-04-30T06:01:04Z</time>
    </trkpt>
    <trkpt lat="53.4638618" lon="7.9863777">
      <time>2022-04-30T06:01:07Z</time>
    </trkpt>
    <trkpt lat="53.4638195" lon="7.9865018">
      <time>2022-04-30T06:01:10Z</time>
    </trkpt>
    <trkpt lat="53.4637812" lon="7.9868138">
      <time>2022-04-30T06:01:17Z</time>
    </trkpt>
    <trkpt lat="53.4637656" lon="7.9871206">
      <time>2022-04-30T06:01:24Z</time>
    </trkpt>
    <trkpt lat="53.4637643" lon="7.9871621">
      <time>2022-04-30T06:01:25Z</time>
    </trkpt>
    <trkpt lat="53.4637484" lon="7.9873273">
      <time>2022-04-30T06:01:29Z</time>
    </trkpt>
    <trkpt lat="53.4637195" lon="7.9875330">
      <time>2022-04-30T06:01:34Z</time>
    </trkpt>
    <trkpt lat="53.4636930" lon="7.9878586">
      <time>2022-04-30T06:01:41Z</time>
    </trkpt>
    <trkpt lat="53.4636704" lon="7.9881679">
      <time>2022-04-30T06:01:46Z</time>
    </trkpt>
    <trkpt lat="53.4636702" lon="7.9882240">
      <time>2022-04-30T06:01:47Z</time>
    </trkpt>
    <trkpt lat="53.4636686" lon="7.9882753">
      <time>2022-04-30T06:01:48Z</time>
    </trkpt>
    <trkpt lat="53.4636645" lon="7.9883619">
      <time>2022-04-30T06:01:50Z</time>
    </trkpt>
    <trkpt lat="53.4636582" lon="7.9884469">
      <time>2022-04-30T06:01:52Z</time>
    </trkpt>
    <trkpt lat="53.4636249" lon="7.9887211">
      <time>2022-04-30T06:01:59Z</time>
    </trkpt>
    <trkpt lat="53.4636140" lon="7.9887622">
      <time>2022-04-30T06:02:00Z</time>
    </trkpt>
    <trkpt lat="53.4635935" lon="7.9888797">
      <time>2022-04-30T06:02:03Z</time>
    </trkpt>
    <trkpt lat="53.4635644" lon="7.9891466">
      <time>2022-04-30T06:02:10Z</time>
    </trkpt>
    <trkpt lat="53.4635572" lon="7.9892640">
      <time>2022-04-30T06:02:13Z</time>
    </trkpt>
    <trkpt lat="53.4635484" lon="7.9894703">
      <time>2022-04-30T06:02:18Z</time>
    </trkpt>
    <trkpt lat="53.4635066" lon="7.9897740">
      <time>2022-04-30T06:02:26Z</time>
    </trkpt>
    <trkpt lat="53.4634692" lon="7.9900918">
      <time>2022-04-30T06:02:35Z</time>
    </trkpt>
    <trkpt lat="53.4634311" lon="7.9903755">
      <time>2022-04-30T06:02:43Z</time>
    </trkpt>
    <trkpt lat="53.4633963" lon="7.9906895">
      <time>2022-04-30T06:02:51Z</time>
    </trkpt>
    <trkpt lat="53.4633856" lon="7.9907613">
      <time>2022-04-30T06:02:53Z</time>
    </trkpt>
    <trkpt lat="53.4633507" lon="7.9910673">
      <time>2022-04-30T06:03:01Z</time>
    </trkpt>
    <trkpt lat="53.4633467" lon="7.9910993">
      <time>2022-04-30T06:03:02Z</time>
    </trkpt>
    <trkpt lat="53.4633168" lon="7.9914215">
      <time>2022-04-30T06:03:10Z</time>
    </trkpt>
    <trkpt lat="53.4633009" lon="7.9916434">
      <time>2022-04-30T06:03:16Z</time>
    </trkpt>
    <trkpt lat="53.4632728" lon="7.9919203">
      <time>2022-04-30T06:03:23Z</time>
    </trkpt>
    <trkpt lat="53.4632443" lon="7.9921378">
      <time>2022-04-30T06:03:29Z</time>
    </trkpt>
    <trkpt lat="53.4632186" lon="7.9924159">
      <time>2022-04-30T06:03:37Z</time>
    </trkpt>
    <trkpt lat="53.4632130" lon="7.9924551">
      <time>2022-04-30T06:03:38Z</time>
    </trkpt>
    <trkpt lat="53.4631783" lon="7.9926896">
      <time>2022-04-30T06:03:44Z</time>
    </trkpt>
    <trkpt lat="53.4631743" lon="7.9927709">
      <time>2022-04-30T06:03:46Z</time>
    </trkpt>
    <trkpt lat="53.4631416" lon="7.9931016">
      <time>2022-04-30T06:03:54Z</time>
    </trkpt>
    <trkpt lat="53.4631342" lon="7.9932194">
      <time>2022-04-30T06:03:57Z</time>
    </trkpt>
    <trkpt lat="53.4631342" lon="7.9932194">
      <time>2022-04-30T06:03:58Z</time>
    </trkpt>
    <trkpt lat="53.4630996" lon="7.9935488">
      <time>2022-04-30T06:04:06Z</time>
    </trkpt>
    <trkpt lat="53.4630775" lon="7.9938334">
      <time>2022-04-30T06:04:14Z</time>
    </trkpt>
    <trkpt lat="53.4630684" lon="7.9939026">
      <time>2022-04-30T06:04:16Z</time>
    </trkpt>
    <trkpt lat="53.4630564" lon="7.9940111">
      <time>2022-04-30T06:04:19Z</time>
    </trkpt>
    <trkpt lat="53.4630439" lon="7.9943074">
      <time>2022-04-30T06:04:28Z</time>
    </trkpt>
    <trkpt lat="53.4630134" lon="7.9946044">
      <time>2022-04-30T06:04:35Z</time>
    </trkpt>
    <trkpt lat="53.4630050" lon="7.9947446">
      <time>2022-04-30T06:04:40Z</time>
    </trkpt>
    <trkpt lat="53.4629832" lon="7.9950448">
      <time>2022-04-30T06:04:47Z</time>
    </trkpt>
    <trkpt lat="53.4629644" lon="7.9952023">
      <time>2022-04-30T06:04:51Z</time>
    </trkpt>
    <trkpt lat="53.4629388" lon="7.9955234">
      <time>2022-04-30T06:05:00Z</time>
    </trkpt>
    <trkpt lat="53.4629122" lon="7.9958284">
      <time>2022-04-30T06:05:07Z</time>
    </trkpt>
    <trkpt lat="53.4628700" lon="7.9961547">
      <time>2022-04-30T06:05:15Z</time>
    </trkpt>
    <trkpt lat="53.4628700" lon="7.9961547">
      <time>2022-04-30T06:05:16Z</time>
    </trkpt>
    <trkpt lat="53.4628423" lon="7.9963999">
      <time>2022-04-30T06:05:21Z</time>
    </trkpt>
    <trkpt lat="53.4628323" lon="7.9965571">
      <time>2022-04-30T06:05:25Z</time>
    </trkpt>
    <trkpt lat="53.4628047" lon="7.9968774">
      <time>2022-04-30T06:05:33Z</time>
    </trkpt>
    <trkpt lat="53.4627518" lon="7.9971588">
      <time>2022-04-30T06:05:40Z</time>
    </trkpt>
    <trkpt lat="53.4627361" lon="7.9974021">
      <time>2022-04-30T06:05:46Z</time>
    </trkpt>
    <trkpt lat="53.4627234" lon="7.9975213">
      <time>2022-04-30T06:05:49Z</time>
    </trkpt>
    <trkpt lat="53.4627134" lon="7.9977499">
      <time>2022-04-30T06:05:55Z</time>
    </trkpt>
    <trkpt lat="53.4626984" lon="7.9980569">
      <time>2022-04-30T06:06:03Z</time>
    </trkpt>
    <trkpt lat="53.4626957" lon="7.9980968">
      <time>2022-04-30T06:06:04Z</time>
    </trkpt>
    <trkpt lat="53.4626662" lon="7.9984066">
      <time>2022-04-30T06:06:12Z</time>
    </trkpt>
    <trkpt lat="53.4626518" lon="7.9985256">
      <time>2022-04-30T06:06:15Z</time>
    </trkpt>
    <trkpt lat="53.4626379" lon="7.9987284">
      <time>2022-04-30T06:06:20Z</time>
    </trkpt>
    <trkpt lat="53.4626363" lon="7.9988359">
      <time>2022-04-30T06:06:24Z</time>
    </trkpt>
    <trkpt lat="53.4626085" lon="7.9991778">
      <time>2022-04-30T06:06:32Z</time>
    </trkpt>
    <trkpt lat="53.4626086" lon="7.9992562">
      <time>2022-04-30T06:06:34Z</time>
    </trkpt>
    <trkpt lat="53.4625923" lon="7.9994992">
      <time>2022-04-30T06:06:40Z</time>
    </trkpt>
    <trkpt lat="53.4625907" lon="7.9995430">
      <time>2022-04-30T06:06:41Z</time>
    </trkpt>
    <trkpt lat="53.4625791" lon="7.9997108">
      <time>2022-04-30T06:06:45Z</time>
    </trkpt>
    <trkpt lat="53.4625651" lon="7.9998321">
      <time>2022-04-30T06:06:49Z</time>
    </trkpt>
    <trkpt lat="53.4625288" lon="8.0001896">
      <time>2022-04-30T06:06:57Z</time>
    </trkpt>
    <trkpt lat="53.4625199" lon="8.0003037">
      <time>2022-04-30T06:07:00Z</time>
    </trkpt>
    <trkpt lat="53.4625025" lon="8.0006244">
      <time>2022-04-30T06:07:08Z</time>
    </trkpt>
    <trkpt lat="53.4624948" lon="8.0006666">
      <time>2022-04-30T06:07:09Z</time>
    </trkpt>
    <trkpt lat="53.4624412" lon="8.0009964">
      <time>2022-04-30T06:07:16Z</time>
    </trkpt>
    <trkpt lat="53.4624303" lon="8.0010809">
      <time>2022-04-30T06:07:18Z</time>
    </trkpt>
    <trkpt lat="53.4623952" lon="8.0013400">
      <time>2022-04-30T06:07:24Z</time>
    </trkpt>
    <trkpt lat="53.4623677" lon="8.0016485">
      <time>2022-04-30T06:07:31Z</time>
    </trkpt>
    <trkpt lat="53.4623668" lon="8.0016863">
      <time>2022-04-30T06:07:32Z</time>
    </trkpt>
    <trkpt lat="53.4623388" lon="8.0019279">
      <time>2022-04-30T06:07:38Z</time>
    </trkpt>
    <trkpt lat="53.4623348" lon="8.0019661">
      <time>2022-04-30T06:07:39Z</time>
    </trkpt>
    <trkpt lat="53.4623217" lon="8.0022089">
      <time>2022-04-30T06:07:45Z</time>
    </trkpt>
    <trkpt lat="53.4622918" lon="8.0025071">
      <time>2022-04-30T06:07:52Z</time>
    </trkpt>
    <trkpt lat="53.4622727" lon="8.0026735">
      <time>2022-04-30T06:07:56Z</time>
    </trkpt>
    <trkpt lat="53.4622669" lon="8.0029500">
      <time>2022-04-30T06:08:03Z</time>
    </trkpt>
    <trkpt lat="53.4622291" lon="8.0032630">
      <time>2022-04-30T06:08:11Z</time>
    </trkpt>
    <trkpt lat="53.4622204" lon="8.0033439">
      <time>2022-04-30T06:08:13Z</time>
    </trkpt>
    <trkpt lat="53.4621871" lon="8.0036486">
      <time>2022-04-30T06:08:20Z</time>
    </trkpt>
    <trkpt lat="53.4621491" lon="8.0038992">
      <time>2022-04-30T06:08:26Z</time>
    </trkpt>
    <trkpt lat="53.4621864" lon="8.0041396">
      <time>2022-04-30T06:08:33Z</time>
    </trkpt>
    <trkpt lat="53.4621264" lon="8.0044103">
      <time>2022-04-30T06:08:39Z</time>
    </trkpt>
    <trkpt lat="53.4620254" lon="8.0046986">
      <time>2022-04-30T06:08:47Z</time>
    </trkpt>
    <trkpt lat="53.4619725" lon="8.0050417">
      <time>2022-04-30T06:08:55Z</time>
    </trkpt>
    <trkpt lat="53.4619475" lon="8.0052919">
      <time>2022-04-30T06:09:01Z</time>
    </trkpt>
    <trkpt lat="53.4619365" lon="8.0054217">
      <time>2022-04-30T06:09:04Z</time>
    </trkpt>
    <trkpt lat="53.4618954" lon="8.0057294">
      <time>2022-04-30T06:09:11Z</time>
    </trkpt>
    <trkpt lat="53.4618882" lon="8.0057736">
      <time>2022-04-30T06:09:12Z</time>
    </trkpt>
    <trkpt lat="53.4618463" lon="8.0061098">
      <time>2022-04-30T06:09:20Z</time>
    </trkpt>
    <trkpt lat="53.4618262" lon="8.0062442">
      <time>2022-04-30T06:09:23Z</time>
    </trkpt>
    <trkpt lat="53.4617898" lon="8.0065513">
      <time>2022-04-30T06:09:30Z</time>
    </trkpt>
    <trkpt lat="53.4617856" lon="8.0066387">
      <time>2022-04-30T06:09:32Z</time>
    </trkpt>
    <trkpt lat="53.4617494" lon="8.0069708">
      <time>2022-04-30T06:09:40Z</time>
    </trkpt>
    <trkpt lat="53.4617395" lon="8.0070614">
      <time>2022-04-30T06:09:43Z</time>
    </trkpt>
    <trkpt lat="53.4617105" lon="8.0073828">
      <time>2022-04-30T06:09:49Z</time>
    </trkpt>
    <trkpt lat="53.4617027" lon="8.0074742">
      <time>2022-04-30T06:09:51Z</time>
    </trkpt>
    <trkpt lat="53.4616806" lon="8.0077882">
      <time>2022-04-30T06:09:58Z</time>
    </trkpt>
    <trkpt lat="53.4616508" lon="8.0081280">
      <time>2022-04-30T06:10:06Z</time>
    </trkpt>
    <trkpt lat="53.4616214" lon="8.0083419">
      <time>2022-04-30T06:10:12Z</time>
    </trkpt>
    <trkpt lat="53.4615981" lon="8.0085047">
      <time>2022-04-30T06:10:16Z</time>
    </trkpt>
    <trkpt lat="53.4615670" lon="8.0088221">
      <time>2022-04-30T06:10:24Z</time>
    </trkpt>
    <trkpt lat="53.4615657" lon="8.0088631">
      <time>2022-04-30T06:10:25Z</time>
    </trkpt>
    <trkpt lat="53.4615255" lon="8.0091827">
      <time>2022-04-30T06:10:32Z</time>
    </trkpt>
    <trkpt lat="53.4615255" lon="8.0091827">
      <time>2022-04-30T06:10:33Z</time>
    </trkpt>
    <trkpt lat="53.4614910" lon="8.0094968">
      <time>2022-04-30T06:10:41Z</time>
    </trkpt>
    <trkpt lat="53.4614854" lon="8.0095351">
      <time>2022-04-30T06:10:42Z</time>
    </trkpt>
    <trkpt lat="53.4614542" lon="8.0098333">
      <time>2022-04-30T06:10:50Z</time>
    </trkpt>
    <trkpt lat="53.4614486" lon="8.0098892">
      <time>2022-04-30T06:10:52Z</time>
    </trkpt>
    <trkpt lat="53.4614537" lon="8.0099730">
      <time>2022-04-30T06:10:57Z</time>
    </trkpt>
    <trkpt lat="53.4614574" lon="8.0099865">
      <time>2022-04-30T06:10:59Z</time>
    </trkpt>
    <trkpt lat="53.4614603" lon="8.0099937">
      <time>2022-04-30T06:11:02Z</time>
    </trkpt>
    <trkpt lat="53.4614702" lon="8.0099881">
      <time>2022-04-30T06:11:04Z</time>
    </trkpt>
    <trkpt lat="53.4615596" lon="8.0097059">
      <time>2022-04-30T06:14:36Z</time>
    </trkpt>
    <trkpt lat="53.4615598" lon="8.0097022">
      <time>2022-04-30T06:14:37Z</time>
    </trkpt>
    <trkpt lat="53.4615598" lon="8.0096919">
      <time>2022-04-30T06:14:40Z</time>
    </trkpt>
    <trkpt lat="53.4616033" lon="8.0093442">
      <time>2022-04-30T06:14:51Z</time>
    </trkpt>
    <trkpt lat="53.4616145" lon="8.0092724">
      <time>2022-04-30T06:14:53Z</time>
    </trkpt>
    <trkpt lat="53.4616295" lon="8.0091210">
      <time>2022-04-30T06:14:57Z</time>
    </trkpt>
    <trkpt lat="53.4616354" lon="8.0090495">
      <time>2022-04-30T06:14:59Z</time>
    </trkpt>
    <trkpt lat="53.4616417" lon="8.0089652">
      <time>2022-04-30T06:15:01Z</time>
    </trkpt>
    <trkpt lat="53.4616721" lon="8.0087449">
      <time>2022-04-30T06:15:07Z</time>
    </trkpt>
    <trkpt lat="53.4616893" lon="8.0086333">
      <time>2022-04-30T06:15:10Z</time>
    </trkpt>
    <trkpt lat="53.4617091" lon="8.0084797">
      <time>2022-04-30T06:15:15Z</time>
    </trkpt>
    <trkpt lat="53.4617266" lon="8.0081689">
      <time>2022-04-30T06:15:22Z</time>
    </trkpt>
    <trkpt lat="53.4617535" lon="8.0078597">
      <time>2022-04-30T06:15:30Z</time>
    </trkpt>
    <trkpt lat="53.4617607" lon="8.0077410">
      <time>2022-04-30T06:15:33Z</time>
    </trkpt>
    <trkpt lat="53.4617943" lon="8.0074359">
      <time>2022-04-30T06:15:41Z</time>
    </trkpt>
    <trkpt lat="53.4617966" lon="8.0073974">
      <time>2022-04-30T06:15:42Z</time>
    </trkpt>
    <trkpt lat="53.4618229" lon="8.0070785">
      <time>2022-04-30T06:15:50Z</time>
    </trkpt>
    <trkpt lat="53.4618255" lon="8.0070406">
      <time>2022-04-30T06:15:51Z</time>
    </trkpt>
    <trkpt lat="53.4618576" lon="8.0067333">
      <time>2022-04-30T06:15:59Z</time>
    </trkpt>
    <trkpt lat="53.4618750" lon="8.0065763">
      <time>2022-04-30T06:16:03Z</time>
    </trkpt>
    <trkpt lat="53.4619076" lon="8.0062464">
      <time>2022-04-30T06:16:12Z</time>
    </trkpt>
    <trkpt lat="53.4619437" lon="8.0059130">
      <time>2022-04-30T06:16:21Z</time>
    </trkpt>
    <trkpt lat="53.4619514" lon="8.0058384">
      <time>2022-04-30T06:16:23Z</time>
    </trkpt>
    <trkpt lat="53.4619892" lon="8.0055411">
      <time>2022-04-30T06:16:31Z</time>
    </trkpt>
    <trkpt lat="53.4620069" lon="8.0053848">
      <time>2022-04-30T06:16:35Z</time>
    </trkpt>
    <trkpt lat="53.4620394" lon="8.0050759">
      <time>2022-04-30T06:16:43Z</time>
    </trkpt>
    <trkpt lat="53.4620427" lon="8.0049950">
      <time>2022-04-30T06:16:45Z</time>
    </trkpt>
    <trkpt lat="53.4620655" lon="8.0046826">
      <time>2022-04-30T06:16:53Z</time>
    </trkpt>
    <trkpt lat="53.4620797" lon="8.0045263">
      <time>2022-04-30T06:16:57Z</time>
    </trkpt>
    <trkpt lat="53.4621396" lon="8.0043209">
      <time>2022-04-30T06:17:03Z</time>
    </trkpt>
    <trkpt lat="53.4621726" lon="8.0040009">
      <time>2022-04-30T06:17:11Z</time>
    </trkpt>
    <trkpt lat="53.4621762" lon="8.0039624">
      <time>2022-04-30T06:17:12Z</time>
    </trkpt>
    <trkpt lat="53.4622186" lon="8.0036860">
      <time>2022-04-30T06:17:19Z</time>
    </trkpt>
    <trkpt lat="53.4622528" lon="8.0033525">
      <time>2022-04-30T06:17:28Z</time>
    </trkpt>
    <trkpt lat="53.4622568" lon="8.0033126">
      <time>2022-04-30T06:17:29Z</time>
    </trkpt>
    <trkpt lat="53.4622826" lon="8.0029930">
      <time>2022-04-30T06:17:38Z</time>
    </trkpt>
    <trkpt lat="53.4622883" lon="8.0029096">
      <time>2022-04-30T06:17:40Z</time>
    </trkpt>
    <trkpt lat="53.4623153" lon="8.0025955">
      <time>2022-04-30T06:17:48Z</time>
    </trkpt>
    <trkpt lat="53.4623270" lon="8.0024801">
      <time>2022-04-30T06:17:51Z</time>
    </trkpt>
    <trkpt lat="53.4623699" lon="8.0021517">
      <time>2022-04-30T06:18:00Z</time>
    </trkpt>
    <trkpt lat="53.4623779" lon="8.0020797">
      <time>2022-04-30T06:18:02Z</time>
    </trkpt>
    <trkpt lat="53.4624001" lon="8.0017498">
      <time>2022-04-30T06:18:10Z</time>
    </trkpt>
    <trkpt lat="53.4624352" lon="8.0014740">
      <time>2022-04-30T06:18:18Z</time>
    </trkpt>
    <trkpt lat="53.4624608" lon="8.0011544">
      <time>2022-04-30T06:18:27Z</time>
    </trkpt>
    <trkpt lat="53.4624638" lon="8.0011204">
      <time>2022-04-30T06:18:28Z</time>
    </trkpt>
    <trkpt lat="53.4624880" lon="8.0008142">
      <time>2022-04-30T06:18:36Z</time>
    </trkpt>
    <trkpt lat="53.4624915" lon="8.0007786">
      <time>2022-04-30T06:18:38Z</time>
    </trkpt>
    <trkpt lat="53.4625280" lon="8.0004278">
      <time>2022-04-30T06:18:46Z</time>
    </trkpt>
    <trkpt lat="53.4625313" lon="8.0003893">
      <time>2022-04-30T06:18:47Z</time>
    </trkpt>
    <trkpt lat="53.4625586" lon="8.0001162">
      <time>2022-04-30T06:18:55Z</time>
    </trkpt>
    <trkpt lat="53.4625751" lon="7.9999928">
      <time>2022-04-30T06:18:59Z</time>
    </trkpt>
    <trkpt lat="53.4626083" lon="7.9996616">
      <time>2022-04-30T06:19:07Z</time>
    </trkpt>
    <trkpt lat="53.4626357" lon="7.9993602">
      <time>2022-04-30T06:19:15Z</time>
    </trkpt>
    <trkpt lat="53.4626626" lon="7.9991044">
      <time>2022-04-30T06:19:22Z</time>
    </trkpt>
    <trkpt lat="53.4626950" lon="7.9988014">
      <time>2022-04-30T06:19:30Z</time>
    </trkpt>
    <trkpt lat="53.4627192" lon="7.9985144">
      <time>2022-04-30T06:19:37Z</time>
    </trkpt>
    <trkpt lat="53.4627505" lon="7.9982087">
      <time>2022-04-30T06:19:45Z</time>
    </trkpt>
    <trkpt lat="53.4627567" lon="7.9981683">
      <time>2022-04-30T06:19:46Z</time>
    </trkpt>
    <trkpt lat="53.4627882" lon="7.9978797">
      <time>2022-04-30T06:19:53Z</time>
    </trkpt>
    <trkpt lat="53.4628190" lon="7.9975684">
      <time>2022-04-30T06:20:01Z</time>
    </trkpt>
    <trkpt lat="53.4628319" lon="7.9974583">
      <time>2022-04-30T06:20:04Z</time>
    </trkpt>
    <trkpt lat="53.4628592" lon="7.9971562">
      <time>2022-04-30T06:20:12Z</time>
    </trkpt>
    <trkpt lat="53.4628615" lon="7.9970873">
      <time>2022-04-30T06:20:14Z</time>
    </trkpt>
    <trkpt lat="53.4628636" lon="7.9970539">
      <time>2022-04-30T06:20:15Z</time>
    </trkpt>
    <trkpt lat="53.4628970" lon="7.9967450">
      <time>2022-04-30T06:20:24Z</time>
    </trkpt>
    <trkpt lat="53.4629048" lon="7.9966499">
      <time>2022-04-30T06:20:27Z</time>
    </trkpt>
    <trkpt lat="53.4629364" lon="7.9963329">
      <time>2022-04-30T06:20:36Z</time>
    </trkpt>
    <trkpt lat="53.4629407" lon="7.9962370">
      <time>2022-04-30T06:20:39Z</time>
    </trkpt>
    <trkpt lat="53.4629622" lon="7.9959299">
      <time>2022-04-30T06:20:48Z</time>
    </trkpt>
    <trkpt lat="53.4629658" lon="7.9958893">
      <time>2022-04-30T06:20:49Z</time>
    </trkpt>
    <trkpt lat="53.4629999" lon="7.9955890">
      <time>2022-04-30T06:20:57Z</time>
    </trkpt>
    <trkpt lat="53.4630047" lon="7.9955453">
      <time>2022-04-30T06:20:58Z</time>
    </trkpt>
    <trkpt lat="53.4630208" lon="7.9952304">
      <time>2022-04-30T06:21:07Z</time>
    </trkpt>
    <trkpt lat="53.4630249" lon="7.9951932">
      <time>2022-04-30T06:21:08Z</time>
    </trkpt>
    <trkpt lat="53.4630480" lon="7.9949146">
      <time>2022-04-30T06:21:15Z</time>
    </trkpt>
    <trkpt lat="53.4630668" lon="7.9946119">
      <time>2022-04-30T06:21:23Z</time>
    </trkpt>
    <trkpt lat="53.4630724" lon="7.9945695">
      <time>2022-04-30T06:21:24Z</time>
    </trkpt>
    <trkpt lat="53.4630986" lon="7.9942469">
      <time>2022-04-30T06:21:32Z</time>
    </trkpt>
    <trkpt lat="53.4631125" lon="7.9941546">
      <time>2022-04-30T06:21:34Z</time>
    </trkpt>
    <trkpt lat="53.4631476" lon="7.9938591">
      <time>2022-04-30T06:21:42Z</time>
    </trkpt>
    <trkpt lat="53.4631647" lon="7.9936613">
      <time>2022-04-30T06:21:47Z</time>
    </trkpt>
    <trkpt lat="53.4631881" lon="7.9933427">
      <time>2022-04-30T06:21:55Z</time>
    </trkpt>
    <trkpt lat="53.4631895" lon="7.9932081">
      <time>2022-04-30T06:21:59Z</time>
    </trkpt>
    <trkpt lat="53.4632215" lon="7.9928835">
      <time>2022-04-30T06:22:08Z</time>
    </trkpt>
    <trkpt lat="53.4632239" lon="7.9928477">
      <time>2022-04-30T06:22:09Z</time>
    </trkpt>
    <trkpt lat="53.4632609" lon="7.9925330">
      <time>2022-04-30T06:22:18Z</time>
    </trkpt>
    <trkpt lat="53.4632629" lon="7.9925017">
      <time>2022-04-30T06:22:19Z</time>
    </trkpt>
    <trkpt lat="53.4632904" lon="7.9921723">
      <time>2022-04-30T06:22:28Z</time>
    </trkpt>
    <trkpt lat="53.4632975" lon="7.9920785">
      <time>2022-04-30T06:22:31Z</time>
    </trkpt>
    <trkpt lat="53.4633148" lon="7.9917739">
      <time>2022-04-30T06:22:40Z</time>
    </trkpt>
    <trkpt lat="53.4633203" lon="7.9917018">
      <time>2022-04-30T06:22:42Z</time>
    </trkpt>
    <trkpt lat="53.4633567" lon="7.9914058">
      <time>2022-04-30T06:22:51Z</time>
    </trkpt>
    <trkpt lat="53.4633572" lon="7.9913821">
      <time>2022-04-30T06:22:52Z</time>
    </trkpt>
    <trkpt lat="53.4633888" lon="7.9911062">
      <time>2022-04-30T06:23:00Z</time>
    </trkpt>
    <trkpt lat="53.4634279" lon="7.9907851">
      <time>2022-04-30T06:23:09Z</time>
    </trkpt>
    <trkpt lat="53.4634526" lon="7.9904668">
      <time>2022-04-30T06:23:18Z</time>
    </trkpt>
    <trkpt lat="53.4634553" lon="7.9904255">
      <time>2022-04-30T06:23:19Z</time>
    </trkpt>
    <trkpt lat="53.4634898" lon="7.9901183">
      <time>2022-04-30T06:23:28Z</time>
    </trkpt>
    <trkpt lat="53.4634941" lon="7.9900765">
      <time>2022-04-30T06:23:29Z</time>
    </trkpt>
    <trkpt lat="53.4635214" lon="7.9897642">
      <time>2022-04-30T06:23:38Z</time>
    </trkpt>
    <trkpt lat="53.4635285" lon="7.9896791">
      <time>2022-04-30T06:23:40Z</time>
    </trkpt>
    <trkpt lat="53.4635638" lon="7.9893636">
      <time>2022-04-30T06:23:48Z</time>
    </trkpt>
    <trkpt lat="53.4635797" lon="7.9891979">
      <time>2022-04-30T06:23:52Z</time>
    </trkpt>
    <trkpt lat="53.4635810" lon="7.9891604">
      <time>2022-04-30T06:23:53Z</time>
    </trkpt>
    <trkpt lat="53.4636023" lon="7.9888417">
      <time>2022-04-30T06:24:01Z</time>
    </trkpt>
    <trkpt lat="53.4636103" lon="7.9887191">
      <time>2022-04-30T06:24:04Z</time>
    </trkpt>
    <trkpt lat="53.4636171" lon="7.9886308">
      <time>2022-04-30T06:24:06Z</time>
    </trkpt>
    <trkpt lat="53.4636525" lon="7.9883066">
      <time>2022-04-30T06:24:14Z</time>
    </trkpt>
    <trkpt lat="53.4636542" lon="7.9882727">
      <time>2022-04-30T06:24:15Z</time>
    </trkpt>
    <trkpt lat="53.4636801" lon="7.9879449">
      <time>2022-04-30T06:24:24Z</time>
    </trkpt>
    <trkpt lat="53.4637091" lon="7.9876546">
      <time>2022-04-30T06:24:32Z</time>
    </trkpt>
    <trkpt lat="53.4637305" lon="7.9874859">
      <time>2022-04-30T06:24:37Z</time>
    </trkpt>
    <trkpt lat="53.4637579" lon="7.9871729">
      <time>2022-04-30T06:24:45Z</time>
    </trkpt>
    <trkpt lat="53.4637881" lon="7.9868394">
      <time>2022-04-30T06:24:54Z</time>
    </trkpt>
    <trkpt lat="53.4638079" lon="7.9866620">
      <time>2022-04-30T06:25:00Z</time>
    </trkpt>
    <trkpt lat="53.4638301" lon="7.9864785">
      <time>2022-04-30T06:25:04Z</time>
    </trkpt>
    <trkpt lat="53.4638663" lon="7.9862554">
      <time>2022-04-30T06:25:10Z</time>
    </trkpt>
    <trkpt lat="53.4639181" lon="7.9861311">
      <time>2022-04-30T06:25:14Z</time>
    </trkpt>
    <trkpt lat="53.4640142" lon="7.9858331">
      <time>2022-04-30T06:25:22Z</time>
    </trkpt>
    <trkpt lat="53.4640465" lon="7.9855107">
      <time>2022-04-30T06:25:30Z</time>
    </trkpt>
    <trkpt lat="53.4640498" lon="7.9854747">
      <time>2022-04-30T06:25:32Z</time>
    </trkpt>
    <trkpt lat="53.4640824" lon="7.9851515">
      <time>2022-04-30T06:25:39Z</time>
    </trkpt>
    <trkpt lat="53.4640919" lon="7.9849636">
      <time>2022-04-30T06:25:44Z</time>
    </trkpt>
    <trkpt lat="53.4641145" lon="7.9846303">
      <time>2022-04-30T06:25:53Z</time>
    </trkpt>
    <trkpt lat="53.4641198" lon="7.9845875">
      <time>2022-04-30T06:25:54Z</time>
    </trkpt>
    <trkpt lat="53.4641804" lon="7.9843076">
      <time>2022-04-30T06:26:02Z</time>
    </trkpt>
    <trkpt lat="53.4643114" lon="7.9841954">
      <time>2022-04-30T06:26:09Z</time>
    </trkpt>
    <trkpt lat="53.4644747" lon="7.9841488">
      <time>2022-04-30T06:26:17Z</time>
    </trkpt>
    <trkpt lat="53.4646663" lon="7.9840874">
      <time>2022-04-30T06:26:26Z</time>
    </trkpt>
    <trkpt lat="53.4647055" lon="7.9840809">
      <time>2022-04-30T06:26:28Z</time>
    </trkpt>
    <trkpt lat="53.4649036" lon="7.9840291">
      <time>2022-04-30T06:26:37Z</time>
    </trkpt>
    <trkpt lat="53.4649305" lon="7.9840175">
      <time>2022-04-30T06:26:38Z</time>
    </trkpt>
    <trkpt lat="53.4651180" lon="7.9839446">
      <time>2022-04-30T06:26:47Z</time>
    </trkpt>
    <trkpt lat="53.4651663" lon="7.9839269">
      <time>2022-04-30T06:26:49Z</time>
    </trkpt>
    <trkpt lat="53.4653540" lon="7.9838686">
      <time>2022-04-30T06:26:57Z</time>
    </trkpt>
    <trkpt lat="53.4655319" lon="7.9837929">
      <time>2022-04-30T06:27:05Z</time>
    </trkpt>
    <trkpt lat="53.4657305" lon="7.9837107">
      <time>2022-04-30T06:27:13Z</time>
    </trkpt>
    <trkpt lat="53.4657922" lon="7.9836786">
      <time>2022-04-30T06:27:16Z</time>
    </trkpt>
    <trkpt lat="53.4659819" lon="7.9836240">
      <time>2022-04-30T06:27:24Z</time>
    </trkpt>
    <trkpt lat="53.4660756" lon="7.9835826">
      <time>2022-04-30T06:27:28Z</time>
    </trkpt>
    <trkpt lat="53.4662534" lon="7.9835209">
      <time>2022-04-30T06:27:36Z</time>
    </trkpt>
    <trkpt lat="53.4662979" lon="7.9835073">
      <time>2022-04-30T06:27:38Z</time>
    </trkpt>
    <trkpt lat="53.4664912" lon="7.9834495">
      <time>2022-04-30T06:27:47Z</time>
    </trkpt>
    <trkpt lat="53.4665138" lon="7.9834393">
      <time>2022-04-30T06:27:48Z</time>
    </trkpt>
    <trkpt lat="53.4667055" lon="7.9833740">
      <time>2022-04-30T06:27:57Z</time>
    </trkpt>
    <trkpt lat="53.4667269" lon="7.9833688">
      <time>2022-04-30T06:27:58Z</time>
    </trkpt>
    <trkpt lat="53.4669267" lon="7.9833075">
      <time>2022-04-30T06:28:07Z</time>
    </trkpt>
    <trkpt lat="53.4669476" lon="7.9833013">
      <time>2022-04-30T06:28:08Z</time>
    </trkpt>
    <trkpt lat="53.4670801" lon="7.9832542">
      <time>2022-04-30T06:28:14Z</time>
    </trkpt>
    <trkpt lat="53.4671781" lon="7.9832202">
      <time>2022-04-30T06:28:18Z</time>
    </trkpt>
    <trkpt lat="53.4673698" lon="7.9831369">
      <time>2022-04-30T06:28:26Z</time>
    </trkpt>
    <trkpt lat="53.4674973" lon="7.9830833">
      <time>2022-04-30T06:28:31Z</time>
    </trkpt>
    <trkpt lat="53.4676854" lon="7.9830185">
      <time>2022-04-30T06:28:39Z</time>
    </trkpt>
    <trkpt lat="53.4678680" lon="7.9829320">
      <time>2022-04-30T06:28:47Z</time>
    </trkpt>
    <trkpt lat="53.4680537" lon="7.9828704">
      <time>2022-04-30T06:28:55Z</time>
    </trkpt>
    <trkpt lat="53.4681097" lon="7.9828600">
      <time>2022-04-30T06:28:59Z</time>
    </trkpt>
    <trkpt lat="53.4682933" lon="7.9829436">
      <time>2022-04-30T06:29:06Z</time>
    </trkpt>
    <trkpt lat="53.4684584" lon="7.9831019">
      <time>2022-04-30T06:29:14Z</time>
    </trkpt>
    <trkpt lat="53.4685134" lon="7.9831590">
      <time>2022-04-30T06:29:17Z</time>
    </trkpt>
    <trkpt lat="53.4686714" lon="7.9833403">
      <time>2022-04-30T06:29:26Z</time>
    </trkpt>
    <trkpt lat="53.4688313" lon="7.9835134">
      <time>2022-04-30T06:29:35Z</time>
    </trkpt>
    <trkpt lat="53.4689775" lon="7.9836628">
      <time>2022-04-30T06:29:43Z</time>
    </trkpt>
    <trkpt lat="53.4691294" lon="7.9838250">
      <time>2022-04-30T06:29:51Z</time>
    </trkpt>
    <trkpt lat="53.4691723" lon="7.9838703">
      <time>2022-04-30T06:29:53Z</time>
    </trkpt>
    <trkpt lat="53.4693458" lon="7.9840462">
      <time>2022-04-30T06:30:01Z</time>
    </trkpt>
    <trkpt lat="53.4693672" lon="7.9840682">
      <time>2022-04-30T06:30:03Z</time>
    </trkpt>
    <trkpt lat="53.4694727" lon="7.9841851">
      <time>2022-04-30T06:30:07Z</time>
    </trkpt>
    <trkpt lat="53.4696262" lon="7.9843493">
      <time>2022-04-30T06:30:14Z</time>
    </trkpt>
    <trkpt lat="53.4696469" lon="7.9843757">
      <time>2022-04-30T06:30:15Z</time>
    </trkpt>
    <trkpt lat="53.4698085" lon="7.9845397">
      <time>2022-04-30T06:30:22Z</time>
    </trkpt>
    <trkpt lat="53.4699335" lon="7.9846602">
      <time>2022-04-30T06:30:27Z</time>
    </trkpt>
    <trkpt lat="53.4701004" lon="7.9848172">
      <time>2022-04-30T06:30:34Z</time>
    </trkpt>
    <trkpt lat="53.4701232" lon="7.9848355">
      <time>2022-04-30T06:30:35Z</time>
    </trkpt>
    <trkpt lat="53.4702413" lon="7.9849510">
      <time>2022-04-30T06:30:40Z</time>
    </trkpt>
    <trkpt lat="53.4703126" lon="7.9850124">
      <time>2022-04-30T06:30:43Z</time>
    </trkpt>
    <trkpt lat="53.4704644" lon="7.9851788">
      <time>2022-04-30T06:30:50Z</time>
    </trkpt>
    <trkpt lat="53.4705984" lon="7.9853278">
      <time>2022-04-30T06:30:56Z</time>
    </trkpt>
    <trkpt lat="53.4707684" lon="7.9855039">
      <time>2022-04-30T06:31:04Z</time>
    </trkpt>
    <trkpt lat="53.4708062" lon="7.9855465">
      <time>2022-04-30T06:31:06Z</time>
    </trkpt>
    <trkpt lat="53.4708677" lon="7.9856126">
      <time>2022-04-30T06:31:09Z</time>
    </trkpt>
    <trkpt lat="53.4710213" lon="7.9858013">
      <time>2022-04-30T06:31:17Z</time>
    </trkpt>
    <trkpt lat="53.4710589" lon="7.9858448">
      <time>2022-04-30T06:31:19Z</time>
    </trkpt>
    <trkpt lat="53.4711560" lon="7.9859456">
      <time>2022-04-30T06:31:24Z</time>
    </trkpt>
    <trkpt lat="53.4712341" lon="7.9860357">
      <time>2022-04-30T06:31:28Z</time>
    </trkpt>
    <trkpt lat="53.4713977" lon="7.9862209">
      <time>2022-04-30T06:31:37Z</time>
    </trkpt>
    <trkpt lat="53.4714672" lon="7.9863022">
      <time>2022-04-30T06:31:41Z</time>
    </trkpt>
    <trkpt lat="53.4716040" lon="7.9864608">
      <time>2022-04-30T06:31:48Z</time>
    </trkpt>
    <trkpt lat="53.4717387" lon="7.9866301">
      <time>2022-04-30T06:31:56Z</time>
    </trkpt>
    <trkpt lat="53.4719090" lon="7.9868051">
      <time>2022-04-30T06:32:05Z</time>
    </trkpt>
    <trkpt lat="53.4720635" lon="7.9869626">
      <time>2022-04-30T06:32:13Z</time>
    </trkpt>
    <trkpt lat="53.4721018" lon="7.9870075">
      <time>2022-04-30T06:32:15Z</time>
    </trkpt>
    <trkpt lat="53.4722579" lon="7.9871803">
      <time>2022-04-30T06:32:23Z</time>
    </trkpt>
    <trkpt lat="53.4723399" lon="7.9872678">
      <time>2022-04-30T06:32:27Z</time>
    </trkpt>
    <trkpt lat="53.4725196" lon="7.9874235">
      <time>2022-04-30T06:32:35Z</time>
    </trkpt>
    <trkpt lat="53.4725348" lon="7.9874414">
      <time>2022-04-30T06:32:36Z</time>
    </trkpt>
    <trkpt lat="53.4727085" lon="7.9875969">
      <time>2022-04-30T06:32:44Z</time>
    </trkpt>
    <trkpt lat="53.4727268" lon="7.9876257">
      <time>2022-04-30T06:32:45Z</time>
    </trkpt>
    <trkpt lat="53.4728773" lon="7.9878054">
      <time>2022-04-30T06:32:53Z</time>
    </trkpt>
    <trkpt lat="53.4729483" lon="7.9878873">
      <time>2022-04-30T06:32:57Z</time>
    </trkpt>
    <trkpt lat="53.4731086" lon="7.9880401">
      <time>2022-04-30T06:33:05Z</time>
    </trkpt>
    <trkpt lat="53.4731278" lon="7.9880550">
      <time>2022-04-30T06:33:06Z</time>
    </trkpt>
    <trkpt lat="53.4732849" lon="7.9882018">
      <time>2022-04-30T06:33:14Z</time>
    </trkpt>
    <trkpt lat="53.4733479" lon="7.9882533">
      <time>2022-04-30T06:33:17Z</time>
    </trkpt>
    <trkpt lat="53.4735546" lon="7.9884001">
      <time>2022-04-30T06:33:27Z</time>
    </trkpt>
    <trkpt lat="53.4737174" lon="7.9885457">
      <time>2022-04-30T06:33:36Z</time>
    </trkpt>
    <trkpt lat="53.4737618" lon="7.9885818">
      <time>2022-04-30T06:33:38Z</time>
    </trkpt>
    <trkpt lat="53.4739271" lon="7.9887076">
      <time>2022-04-30T06:33:46Z</time>
    </trkpt>
    <trkpt lat="53.4739476" lon="7.9887246">
      <time>2022-04-30T06:33:47Z</time>
    </trkpt>
    <trkpt lat="53.4741280" lon="7.9888561">
      <time>2022-04-30T06:33:56Z</time>
    </trkpt>
    <trkpt lat="53.4743114" lon="7.9889243">
      <time>2022-04-30T06:34:05Z</time>
    </trkpt>
    <trkpt lat="53.4743324" lon="7.9889192">
      <time>2022-04-30T06:34:06Z</time>
    </trkpt>
    <trkpt lat="53.4744627" lon="7.9887853">
      <time>2022-04-30T06:34:13Z</time>
    </trkpt>
    <trkpt lat="53.4745599" lon="7.9886319">
      <time>2022-04-30T06:34:19Z</time>
    </trkpt>
    <trkpt lat="53.4745664" lon="7.9886061">
      <time>2022-04-30T06:34:20Z</time>
    </trkpt>
    <trkpt lat="53.4745989" lon="7.9885109">
      <time>2022-04-30T06:34:23Z</time>
    </trkpt>
    <trkpt lat="53.4746591" lon="7.9883850">
      <time>2022-04-30T06:34:27Z</time>
    </trkpt>
    <trkpt lat="53.4747048" lon="7.9882711">
      <time>2022-04-30T06:34:30Z</time>
    </trkpt>
    <trkpt lat="53.4748047" lon="7.9881433">
      <time>2022-04-30T06:34:36Z</time>
    </trkpt>
    <trkpt lat="53.4748841" lon="7.9880240">
      <time>2022-04-30T06:34:41Z</time>
    </trkpt>
    <trkpt lat="53.4749138" lon="7.9879810">
      <time>2022-04-30T06:34:43Z</time>
    </trkpt>
    <trkpt lat="53.4749333" lon="7.9879649">
      <time>2022-04-30T06:34:44Z</time>
    </trkpt>
    <trkpt lat="53.4749991" lon="7.9879867">
      <time>2022-04-30T06:34:47Z</time>
    </trkpt>
    <trkpt lat="53.4751042" lon="7.9882256">
      <time>2022-04-30T06:34:54Z</time>
    </trkpt>
    <trkpt lat="53.4752152" lon="7.9883866">
      <time>2022-04-30T06:35:00Z</time>
    </trkpt>
    <trkpt lat="53.4753336" lon="7.9885435">
      <time>2022-04-30T06:35:07Z</time>
    </trkpt>
    <trkpt lat="53.4753642" lon="7.9885353">
      <time>2022-04-30T06:35:09Z</time>
    </trkpt>
    <trkpt lat="53.4753825" lon="7.9884858">
      <time>2022-04-30T06:35:11Z</time>
    </trkpt>
    <trkpt lat="53.4754281" lon="7.9884341">
      <time>2022-04-30T06:35:14Z</time>
    </trkpt>
    <trkpt lat="53.4754823" lon="7.9884770">
      <time>2022-04-30T06:35:17Z</time>
    </trkpt>
    <trkpt lat="53.4754963" lon="7.9884937">
      <time>2022-04-30T06:35:18Z</time>
    </trkpt>
  </trkseg></trk>
</gpx>
