<?xml version="1.0" encoding="UTF-8"?>
<gpx version="1.1" creator="Diary FIT converter" xmlns="http://www.topografix.com/GPX/1/1">
  <trk><name>Running</name><trkseg>
    <trkpt lat="50.9632463" lon="6.8763517">
      <time>2021-01-26T05:15:43Z</time>
    </trkpt>
    <trkpt lat="50.9632189" lon="6.8764956">
      <time>2021-01-26T05:15:47Z</time>
    </trkpt>
    <trkpt lat="50.9632121" lon="6.8765118">
      <time>2021-01-26T05:15:48Z</time>
    </trkpt>
    <trkpt lat="50.9631842" lon="6.8766098">
      <time>2021-01-26T05:15:52Z</time>
    </trkpt>
    <trkpt lat="50.9631931" lon="6.8767065">
      <time>2021-01-26T05:15:55Z</time>
    </trkpt>
    <trkpt lat="50.9631950" lon="6.8767644">
      <time>2021-01-26T05:15:57Z</time>
    </trkpt>
    <trkpt lat="50.9632163" lon="6.8768703">
      <time>2021-01-26T05:16:00Z</time>
    </trkpt>
    <trkpt lat="50.9632265" lon="6.8769247">
      <time>2021-01-26T05:16:02Z</time>
    </trkpt>
    <trkpt lat="50.9632313" lon="6.8769671">
      <time>2021-01-26T05:16:04Z</time>
    </trkpt>
    <trkpt lat="50.9632802" lon="6.8771684">
      <time>2021-01-26T05:16:13Z</time>
    </trkpt>
    <trkpt lat="50.9633916" lon="6.8772929">
      <time>2021-01-26T05:16:18Z</time>
    </trkpt>
    <trkpt lat="50.9634566" lon="6.8774780">
      <time>2021-01-26T05:16:23Z</time>
    </trkpt>
    <trkpt lat="50.9634405" lon="6.8776701">
      <time>2021-01-26T05:16:28Z</time>
    </trkpt>
    <trkpt lat="50.9634546" lon="6.8776985">
      <time>2021-01-26T05:16:29Z</time>
    </trkpt>
    <trkpt lat="50.9635016" lon="6.8777728">
      <time>2021-01-26T05:16:32Z</time>
    </trkpt>
    <trkpt lat="50.9636184" lon="6.8778307">
      <time>2021-01-26T05:16:36Z</time>
    </trkpt>
    <trkpt lat="50.9636551" lon="6.8778789">
      <time>2021-01-26T05:16:39Z</time>
    </trkpt>
    <trkpt lat="50.9637152" lon="6.8779493">
      <time>2021-01-26T05:16:42Z</time>
    </trkpt>
    <trkpt lat="50.9637509" lon="6.8780047">
      <time>2021-01-26T05:16:44Z</time>
    </trkpt>
    <trkpt lat="50.9638143" lon="6.8780988">
      <time>2021-01-26T05:16:47Z</time>
    </trkpt>
    <trkpt lat="50.9639130" lon="6.8782164">
      <time>2021-01-26T05:16:52Z</time>
    </trkpt>
    <trkpt lat="50.9639522" lon="6.8782574">
      <time>2021-01-26T05:16:54Z</time>
    </trkpt>
    <trkpt lat="50.9640335" lon="6.8784058">
      <time>2021-01-26T05:16:59Z</time>
    </trkpt>
    <trkpt lat="50.9641146" lon="6.8785627">
      <time>2021-01-26T05:17:04Z</time>
    </trkpt>
    <trkpt lat="50.9642478" lon="6.8788132">
      <time>2021-01-26T05:17:11Z</time>
    </trkpt>
    <trkpt lat="50.9642676" lon="6.8788491">
      <time>2021-01-26T05:17:12Z</time>
    </trkpt>
    <trkpt lat="50.9643187" lon="6.8789394">
      <time>2021-01-26T05:17:15Z</time>
    </trkpt>
    <trkpt lat="50.9643498" lon="6.8789870">
      <time>2021-01-26T05:17:17Z</time>
    </trkpt>
    <trkpt lat="50.9643857" lon="6.8790380">
      <time>2021-01-26T05:17:19Z</time>
    </trkpt>
    <trkpt lat="50.9644162" lon="6.8790683">
      <time>2021-01-26T05:17:20Z</time>
    </trkpt>
    <trkpt lat="50.9645408" lon="6.8792776">
      <time>2021-01-26T05:17:27Z</time>
    </trkpt>
    <trkpt lat="50.9645537" lon="6.8792990">
      <time>2021-01-26T05:17:28Z</time>
    </trkpt>
    <trkpt lat="50.9646542" lon="6.8794463">
      <time>2021-01-26T05:17:34Z</time>
    </trkpt>
    <trkpt lat="50.9647698" lon="6.8795557">
      <time>2021-01-26T05:17:41Z</time>
    </trkpt>
    <trkpt lat="50.9647861" lon="6.8795741">
      <time>2021-01-26T05:17:42Z</time>
    </trkpt>
    <trkpt lat="50.9648913" lon="6.8797045">
      <time>2021-01-26T05:17:48Z</time>
    </trkpt>
    <trkpt lat="50.9650433" lon="6.8798572">
      <time>2021-01-26T05:17:55Z</time>
    </trkpt>
    <trkpt lat="50.9651568" lon="6.8799780">
      <time>2021-01-26T05:18:00Z</time>
    </trkpt>
    <trkpt lat="50.9652300" lon="6.8800639">
      <time>2021-01-26T05:18:04Z</time>
    </trkpt>
    <trkpt lat="50.9653613" lon="6.8802602">
      <time>2021-01-26T05:18:12Z</time>
    </trkpt>
    <trkpt lat="50.9653838" lon="6.8802842">
      <time>2021-01-26T05:18:13Z</time>
    </trkpt>
    <trkpt lat="50.9655532" lon="6.8804339">
      <time>2021-01-26T05:18:21Z</time>
    </trkpt>
    <trkpt lat="50.9657232" lon="6.8805726">
      <time>2021-01-26T05:18:29Z</time>
    </trkpt>
    <trkpt lat="50.9658553" lon="6.8807217">
      <time>2021-01-26T05:18:36Z</time>
    </trkpt>
    <trkpt lat="50.9658747" lon="6.8807409">
      <time>2021-01-26T05:18:37Z</time>
    </trkpt>
    <trkpt lat="50.9660396" lon="6.8809166">
      <time>2021-01-26T05:18:45Z</time>
    </trkpt>
    <trkpt lat="50.9660860" lon="6.8809574">
      <time>2021-01-26T05:18:47Z</time>
    </trkpt>
    <trkpt lat="50.9662127" lon="6.8810977">
      <time>2021-01-26T05:18:54Z</time>
    </trkpt>
    <trkpt lat="50.9662296" lon="6.8811192">
      <time>2021-01-26T05:18:55Z</time>
    </trkpt>
    <trkpt lat="50.9663007" lon="6.8813284">
      <time>2021-01-26T05:19:01Z</time>
    </trkpt>
    <trkpt lat="50.9662955" lon="6.8815328">
      <time>2021-01-26T05:19:06Z</time>
    </trkpt>
    <trkpt lat="50.9661817" lon="6.8817824">
      <time>2021-01-26T05:19:13Z</time>
    </trkpt>
    <trkpt lat="50.9661388" lon="6.8819389">
      <time>2021-01-26T05:19:17Z</time>
    </trkpt>
    <trkpt lat="50.9660597" lon="6.8821573">
      <time>2021-01-26T05:19:23Z</time>
    </trkpt>
    <trkpt lat="50.9659869" lon="6.8823172">
      <time>2021-01-26T05:19:28Z</time>
    </trkpt>
    <trkpt lat="50.9658882" lon="6.8825024">
      <time>2021-01-26T05:19:34Z</time>
    </trkpt>
    <trkpt lat="50.9658249" lon="6.8826796">
      <time>2021-01-26T05:19:39Z</time>
    </trkpt>
    <trkpt lat="50.9657538" lon="6.8828683">
      <time>2021-01-26T05:19:45Z</time>
    </trkpt>
    <trkpt lat="50.9657229" lon="6.8829661">
      <time>2021-01-26T05:19:48Z</time>
    </trkpt>
    <trkpt lat="50.9657128" lon="6.8830277">
      <time>2021-01-26T05:19:50Z</time>
    </trkpt>
    <trkpt lat="50.9657087" lon="6.8830640">
      <time>2021-01-26T05:19:51Z</time>
    </trkpt>
    <trkpt lat="50.9656206" lon="6.8832453">
      <time>2021-01-26T05:19:57Z</time>
    </trkpt>
    <trkpt lat="50.9655375" lon="6.8834277">
      <time>2021-01-26T05:20:03Z</time>
    </trkpt>
    <trkpt lat="50.9654964" lon="6.8835589">
      <time>2021-01-26T05:20:07Z</time>
    </trkpt>
    <trkpt lat="50.9654775" lon="6.8836138">
      <time>2021-01-26T05:20:09Z</time>
    </trkpt>
    <trkpt lat="50.9653451" lon="6.8838067">
      <time>2021-01-26T05:20:16Z</time>
    </trkpt>
    <trkpt lat="50.9652582" lon="6.8839907">
      <time>2021-01-26T05:20:22Z</time>
    </trkpt>
    <trkpt lat="50.9651748" lon="6.8841795">
      <time>2021-01-26T05:20:28Z</time>
    </trkpt>
    <trkpt lat="50.9651194" lon="6.8843117">
      <time>2021-01-26T05:20:32Z</time>
    </trkpt>
    <trkpt lat="50.9650993" lon="6.8843795">
      <time>2021-01-26T05:20:35Z</time>
    </trkpt>
    <trkpt lat="50.9650340" lon="6.8845262">
      <time>2021-01-26T05:20:41Z</time>
    </trkpt>
    <trkpt lat="50.9649264" lon="6.8847617">
      <time>2021-01-26T05:20:48Z</time>
    </trkpt>
    <trkpt lat="50.9648494" lon="6.8849483">
      <time>2021-01-26T05:20:54Z</time>
    </trkpt>
    <trkpt lat="50.9648158" lon="6.8850171">
      <time>2021-01-26T05:20:56Z</time>
    </trkpt>
    <trkpt lat="50.9647119" lon="6.8851897">
      <time>2021-01-26T05:21:01Z</time>
    </trkpt>
    <trkpt lat="50.9646968" lon="6.8852129">
      <time>2021-01-26T05:21:02Z</time>
    </trkpt>
    <trkpt lat="50.9646676" lon="6.8852739">
      <time>2021-01-26T05:21:04Z</time>
    </trkpt>
    <trkpt lat="50.9645888" lon="6.8854341">
      <time>2021-01-26T05:21:08Z</time>
    </trkpt>
    <trkpt lat="50.9645701" lon="6.8854976">
      <time>2021-01-26T05:21:10Z</time>
    </trkpt>
    <trkpt lat="50.9644434" lon="6.8857504">
      <time>2021-01-26T05:21:18Z</time>
    </trkpt>
    <trkpt lat="50.9643665" lon="6.8859585">
      <time>2021-01-26T05:21:24Z</time>
    </trkpt>
    <trkpt lat="50.9643425" lon="6.8860215">
      <time>2021-01-26T05:21:26Z</time>
    </trkpt>
    <trkpt lat="50.9642594" lon="6.8862241">
      <time>2021-01-26T05:21:32Z</time>
    </trkpt>
    <trkpt lat="50.9641775" lon="6.8863605">
      <time>2021-01-26T05:21:37Z</time>
    </trkpt>
    <trkpt lat="50.9640920" lon="6.8865092">
      <time>2021-01-26T05:21:42Z</time>
    </trkpt>
    <trkpt lat="50.9640088" lon="6.8867133">
      <time>2021-01-26T05:21:48Z</time>
    </trkpt>
    <trkpt lat="50.9639436" lon="6.8868373">
      <time>2021-01-26T05:21:52Z</time>
    </trkpt>
    <trkpt lat="50.9639214" lon="6.8868955">
      <time>2021-01-26T05:21:54Z</time>
    </trkpt>
    <trkpt lat="50.9639172" lon="6.8869182">
      <time>2021-01-26T05:21:55Z</time>
    </trkpt>
    <trkpt lat="50.9638519" lon="6.8871041">
      <time>2021-01-26T05:22:01Z</time>
    </trkpt>
    <trkpt lat="50.9638306" lon="6.8871258">
      <time>2021-01-26T05:22:02Z</time>
    </trkpt>
    <trkpt lat="50.9637712" lon="6.8872511">
      <time>2021-01-26T05:22:07Z</time>
    </trkpt>
    <trkpt lat="50.9637175" lon="6.8873814">
      <time>2021-01-26T05:22:12Z</time>
    </trkpt>
    <trkpt lat="50.9636135" lon="6.8875387">
      <time>2021-01-26T05:22:18Z</time>
    </trkpt>
    <trkpt lat="50.9634744" lon="6.8877258">
      <time>2021-01-26T05:22:25Z</time>
    </trkpt>
    <trkpt lat="50.9634403" lon="6.8879848">
      <time>2021-01-26T05:22:32Z</time>
    </trkpt>
    <trkpt lat="50.9633933" lon="6.8881930">
      <time>2021-01-26T05:22:38Z</time>
    </trkpt>
    <trkpt lat="50.9632546" lon="6.8884020">
      <time>2021-01-26T05:22:46Z</time>
    </trkpt>
    <trkpt lat="50.9632256" lon="6.8884512">
      <time>2021-01-26T05:22:48Z</time>
    </trkpt>
    <trkpt lat="50.9630994" lon="6.8885799">
      <time>2021-01-26T05:22:54Z</time>
    </trkpt>
    <trkpt lat="50.9629815" lon="6.8887489">
      <time>2021-01-26T05:23:01Z</time>
    </trkpt>
    <trkpt lat="50.9629489" lon="6.8888859">
      <time>2021-01-26T05:23:05Z</time>
    </trkpt>
    <trkpt lat="50.9629561" lon="6.8891128">
      <time>2021-01-26T05:23:10Z</time>
    </trkpt>
    <trkpt lat="50.9629002" lon="6.8893026">
      <time>2021-01-26T05:23:16Z</time>
    </trkpt>
    <trkpt lat="50.9628458" lon="6.8894599">
      <time>2021-01-26T05:23:21Z</time>
    </trkpt>
    <trkpt lat="50.9627741" lon="6.8895549">
      <time>2021-01-26T05:23:25Z</time>
    </trkpt>
    <trkpt lat="50.9627031" lon="6.8895661">
      <time>2021-01-26T05:23:27Z</time>
    </trkpt>
    <trkpt lat="50.9625972" lon="6.8897950">
      <time>2021-01-26T05:23:34Z</time>
    </trkpt>
    <trkpt lat="50.9625986" lon="6.8898432">
      <time>2021-01-26T05:23:35Z</time>
    </trkpt>
    <trkpt lat="50.9625893" lon="6.8899186">
      <time>2021-01-26T05:23:37Z</time>
    </trkpt>
    <trkpt lat="50.9625336" lon="6.8899784">
      <time>2021-01-26T05:23:40Z</time>
    </trkpt>
    <trkpt lat="50.9624581" lon="6.8901178">
      <time>2021-01-26T05:23:46Z</time>
    </trkpt>
    <trkpt lat="50.9623407" lon="6.8902904">
      <time>2021-01-26T05:23:53Z</time>
    </trkpt>
    <trkpt lat="50.9622398" lon="6.8904485">
      <time>2021-01-26T05:23:58Z</time>
    </trkpt>
    <trkpt lat="50.9621850" lon="6.8905757">
      <time>2021-01-26T05:24:03Z</time>
    </trkpt>
    <trkpt lat="50.9621479" lon="6.8906862">
      <time>2021-01-26T05:24:06Z</time>
    </trkpt>
    <trkpt lat="50.9621247" lon="6.8907111">
      <time>2021-01-26T05:24:07Z</time>
    </trkpt>
    <trkpt lat="50.9620673" lon="6.8908295">
      <time>2021-01-26T05:24:11Z</time>
    </trkpt>
    <trkpt lat="50.9620051" lon="6.8909761">
      <time>2021-01-26T05:24:16Z</time>
    </trkpt>
    <trkpt lat="50.9619002" lon="6.8912256">
      <time>2021-01-26T05:24:24Z</time>
    </trkpt>
    <trkpt lat="50.9618847" lon="6.8912603">
      <time>2021-01-26T05:24:25Z</time>
    </trkpt>
    <trkpt lat="50.9618583" lon="6.8913319">
      <time>2021-01-26T05:24:27Z</time>
    </trkpt>
    <trkpt lat="50.9617776" lon="6.8915303">
      <time>2021-01-26T05:24:33Z</time>
    </trkpt>
    <trkpt lat="50.9616797" lon="6.8917872">
      <time>2021-01-26T05:24:41Z</time>
    </trkpt>
    <trkpt lat="50.9616646" lon="6.8918199">
      <time>2021-01-26T05:24:42Z</time>
    </trkpt>
    <trkpt lat="50.9616006" lon="6.8919798">
      <time>2021-01-26T05:24:47Z</time>
    </trkpt>
    <trkpt lat="50.9615596" lon="6.8920760">
      <time>2021-01-26T05:24:50Z</time>
    </trkpt>
    <trkpt lat="50.9615120" lon="6.8921972">
      <time>2021-01-26T05:24:54Z</time>
    </trkpt>
    <trkpt lat="50.9614079" lon="6.8924459">
      <time>2021-01-26T05:25:02Z</time>
    </trkpt>
    <trkpt lat="50.9613996" lon="6.8924729">
      <time>2021-01-26T05:25:03Z</time>
    </trkpt>
    <trkpt lat="50.9613742" lon="6.8925123">
      <time>2021-01-26T05:25:05Z</time>
    </trkpt>
    <trkpt lat="50.9613005" lon="6.8925142">
      <time>2021-01-26T05:25:07Z</time>
    </trkpt>
    <trkpt lat="50.9612039" lon="6.8923918">
      <time>2021-01-26T05:25:12Z</time>
    </trkpt>
    <trkpt lat="50.9610775" lon="6.8921777">
      <time>2021-01-26T05:25:19Z</time>
    </trkpt>
    <trkpt lat="50.9609337" lon="6.8919389">
      <time>2021-01-26T05:25:26Z</time>
    </trkpt>
    <trkpt lat="50.9608745" lon="6.8918639">
      <time>2021-01-26T05:25:28Z</time>
    </trkpt>
    <trkpt lat="50.9607261" lon="6.8916279">
      <time>2021-01-26T05:25:35Z</time>
    </trkpt>
    <trkpt lat="50.9606952" lon="6.8915906">
      <time>2021-01-26T05:25:36Z</time>
    </trkpt>
    <trkpt lat="50.9605777" lon="6.8914306">
      <time>2021-01-26T05:25:41Z</time>
    </trkpt>
    <trkpt lat="50.9604511" lon="6.8912122">
      <time>2021-01-26T05:25:48Z</time>
    </trkpt>
    <trkpt lat="50.9604293" lon="6.8911802">
      <time>2021-01-26T05:25:49Z</time>
    </trkpt>
    <trkpt lat="50.9603278" lon="6.8909469">
      <time>2021-01-26T05:25:56Z</time>
    </trkpt>
    <trkpt lat="50.9602457" lon="6.8907857">
      <time>2021-01-26T05:26:01Z</time>
    </trkpt>
    <trkpt lat="50.9602204" lon="6.8907314">
      <time>2021-01-26T05:26:03Z</time>
    </trkpt>
    <trkpt lat="50.9602100" lon="6.8906412">
      <time>2021-01-26T05:26:06Z</time>
    </trkpt>
    <trkpt lat="50.9601605" lon="6.8904232">
      <time>2021-01-26T05:26:12Z</time>
    </trkpt>
    <trkpt lat="50.9601545" lon="6.8902034">
      <time>2021-01-26T05:26:18Z</time>
    </trkpt>
    <trkpt lat="50.9601497" lon="6.8899649">
      <time>2021-01-26T05:26:24Z</time>
    </trkpt>
    <trkpt lat="50.9601455" lon="6.8899263">
      <time>2021-01-26T05:26:25Z</time>
    </trkpt>
    <trkpt lat="50.9602006" lon="6.8896357">
      <time>2021-01-26T05:26:32Z</time>
    </trkpt>
    <trkpt lat="50.9602340" lon="6.8894164">
      <time>2021-01-26T05:26:38Z</time>
    </trkpt>
    <trkpt lat="50.9602382" lon="6.8893880">
      <time>2021-01-26T05:26:39Z</time>
    </trkpt>
    <trkpt lat="50.9602961" lon="6.8883242">
      <time>2021-01-26T05:27:07Z</time>
    </trkpt>
    <trkpt lat="50.9603409" lon="6.8880886">
      <time>2021-01-26T05:27:14Z</time>
    </trkpt>
    <trkpt lat="50.9602475" lon="6.8877991">
      <time>2021-01-26T05:27:22Z</time>
    </trkpt>
    <trkpt lat="50.9602337" lon="6.8875606">
      <time>2021-01-26T05:27:28Z</time>
    </trkpt>
    <trkpt lat="50.9602300" lon="6.8875221">
      <time>2021-01-26T05:27:29Z</time>
    </trkpt>
    <trkpt lat="50.9602053" lon="6.8873771">
      <time>2021-01-26T05:27:33Z</time>
    </trkpt>
    <trkpt lat="50.9601952" lon="6.8872302">
      <time>2021-01-26T05:27:37Z</time>
    </trkpt>
    <trkpt lat="50.9601802" lon="6.8870521">
      <time>2021-01-26T05:27:42Z</time>
    </trkpt>
    <trkpt lat="50.9601727" lon="6.8870192">
      <time>2021-01-26T05:27:43Z</time>
    </trkpt>
    <trkpt lat="50.9601057" lon="6.8867555">
      <time>2021-01-26T05:27:51Z</time>
    </trkpt>
    <trkpt lat="50.9600205" lon="6.8865260">
      <time>2021-01-26T05:27:58Z</time>
    </trkpt>
    <trkpt lat="50.9599283" lon="6.8862691">
      <time>2021-01-26T05:28:06Z</time>
    </trkpt>
    <trkpt lat="50.9599165" lon="6.8862310">
      <time>2021-01-26T05:28:07Z</time>
    </trkpt>
    <trkpt lat="50.9598895" lon="6.8861758">
      <time>2021-01-26T05:28:09Z</time>
    </trkpt>
    <trkpt lat="50.9598369" lon="6.8860287">
      <time>2021-01-26T05:28:14Z</time>
    </trkpt>
    <trkpt lat="50.9598392" lon="6.8859640">
      <time>2021-01-26T05:28:16Z</time>
    </trkpt>
    <trkpt lat="50.9598734" lon="6.8859128">
      <time>2021-01-26T05:28:18Z</time>
    </trkpt>
    <trkpt lat="50.9600450" lon="6.8857880">
      <time>2021-01-26T05:28:24Z</time>
    </trkpt>
    <trkpt lat="50.9602506" lon="6.8857748">
      <time>2021-01-26T05:28:31Z</time>
    </trkpt>
    <trkpt lat="50.9602708" lon="6.8857672">
      <time>2021-01-26T05:28:32Z</time>
    </trkpt>
    <trkpt lat="50.9603962" lon="6.8857086">
      <time>2021-01-26T05:28:38Z</time>
    </trkpt>
    <trkpt lat="50.9605462" lon="6.8856656">
      <time>2021-01-26T05:28:45Z</time>
    </trkpt>
    <trkpt lat="50.9606915" lon="6.8856818">
      <time>2021-01-26T05:28:50Z</time>
    </trkpt>
    <trkpt lat="50.9608913" lon="6.8856276">
      <time>2021-01-26T05:28:58Z</time>
    </trkpt>
    <trkpt lat="50.9610669" lon="6.8855673">
      <time>2021-01-26T05:29:05Z</time>
    </trkpt>
    <trkpt lat="50.9611084" lon="6.8855449">
      <time>2021-01-26T05:29:07Z</time>
    </trkpt>
    <trkpt lat="50.9612581" lon="6.8854601">
      <time>2021-01-26T05:29:14Z</time>
    </trkpt>
    <trkpt lat="50.9614213" lon="6.8853215">
      <time>2021-01-26T05:29:22Z</time>
    </trkpt>
    <trkpt lat="50.9614422" lon="6.8852995">
      <time>2021-01-26T05:29:23Z</time>
    </trkpt>
    <trkpt lat="50.9615974" lon="6.8851273">
      <time>2021-01-26T05:29:31Z</time>
    </trkpt>
    <trkpt lat="50.9617375" lon="6.8850426">
      <time>2021-01-26T05:29:37Z</time>
    </trkpt>
    <trkpt lat="50.9618099" lon="6.8850130">
      <time>2021-01-26T05:29:40Z</time>
    </trkpt>
    <trkpt lat="50.9619006" lon="6.8849594">
      <time>2021-01-26T05:29:44Z</time>
    </trkpt>
    <trkpt lat="50.9619859" lon="6.8848088">
      <time>2021-01-26T05:29:51Z</time>
    </trkpt>
    <trkpt lat="50.9619856" lon="6.8847652">
      <time>2021-01-26T05:29:53Z</time>
    </trkpt>
    <trkpt lat="50.9619896" lon="6.8847104">
      <time>2021-01-26T05:29:55Z</time>
    </trkpt>
    <trkpt lat="50.9619902" lon="6.8845523">
      <time>2021-01-26T05:30:00Z</time>
    </trkpt>
    <trkpt lat="50.9619987" lon="6.8844462">
      <time>2021-01-26T05:30:03Z</time>
    </trkpt>
    <trkpt lat="50.9619732" lon="6.8842112">
      <time>2021-01-26T05:30:10Z</time>
    </trkpt>
    <trkpt lat="50.9619261" lon="6.8840398">
      <time>2021-01-26T05:30:16Z</time>
    </trkpt>
    <trkpt lat="50.9618677" lon="6.8838541">
      <time>2021-01-26T05:30:22Z</time>
    </trkpt>
    <trkpt lat="50.9618262" lon="6.8836904">
      <time>2021-01-26T05:30:27Z</time>
    </trkpt>
    <trkpt lat="50.9617825" lon="6.8835345">
      <time>2021-01-26T05:30:32Z</time>
    </trkpt>
    <trkpt lat="50.9616928" lon="6.8832433">
      <time>2021-01-26T05:30:41Z</time>
    </trkpt>
    <trkpt lat="50.9616794" lon="6.8832114">
      <time>2021-01-26T05:30:42Z</time>
    </trkpt>
    <trkpt lat="50.9616329" lon="6.8830208">
      <time>2021-01-26T05:30:48Z</time>
    </trkpt>
    <trkpt lat="50.9615541" lon="6.8827373">
      <time>2021-01-26T05:30:57Z</time>
    </trkpt>
    <trkpt lat="50.9614925" lon="6.8825070">
      <time>2021-01-26T05:31:05Z</time>
    </trkpt>
    <trkpt lat="50.9614211" lon="6.8822203">
      <time>2021-01-26T05:31:15Z</time>
    </trkpt>
    <trkpt lat="50.9613550" lon="6.8819388">
      <time>2021-01-26T05:31:24Z</time>
    </trkpt>
    <trkpt lat="50.9613348" lon="6.8818842">
      <time>2021-01-26T05:31:26Z</time>
    </trkpt>
    <trkpt lat="50.9612724" lon="6.8816118">
      <time>2021-01-26T05:31:35Z</time>
    </trkpt>
    <trkpt lat="50.9612641" lon="6.8815811">
      <time>2021-01-26T05:31:36Z</time>
    </trkpt>
    <trkpt lat="50.9611980" lon="6.8813040">
      <time>2021-01-26T05:31:45Z</time>
    </trkpt>
    <trkpt lat="50.9611200" lon="6.8810298">
      <time>2021-01-26T05:31:54Z</time>
    </trkpt>
    <trkpt lat="50.9611095" lon="6.8809982">
      <time>2021-01-26T05:31:55Z</time>
    </trkpt>
    <trkpt lat="50.9610466" lon="6.8807281">
      <time>2021-01-26T05:32:04Z</time>
    </trkpt>
    <trkpt lat="50.9610273" lon="6.8806640">
      <time>2021-01-26T05:32:06Z</time>
    </trkpt>
    <trkpt lat="50.9609489" lon="6.8803939">
      <time>2021-01-26T05:32:14Z</time>
    </trkpt>
    <trkpt lat="50.9609271" lon="6.8803333">
      <time>2021-01-26T05:32:16Z</time>
    </trkpt>
    <trkpt lat="50.9608525" lon="6.8800836">
      <time>2021-01-26T05:32:24Z</time>
    </trkpt>
    <trkpt lat="50.9607810" lon="6.8798392">
      <time>2021-01-26T05:32:32Z</time>
    </trkpt>
    <trkpt lat="50.9607355" lon="6.8795540">
      <time>2021-01-26T05:32:40Z</time>
    </trkpt>
    <trkpt lat="50.9607430" lon="6.8792647">
      <time>2021-01-26T05:32:48Z</time>
    </trkpt>
    <trkpt lat="50.9608223" lon="6.8790116">
      <time>2021-01-26T05:32:56Z</time>
    </trkpt>
    <trkpt lat="50.9609091" lon="6.8787932">
      <time>2021-01-26T05:33:03Z</time>
    </trkpt>
    <trkpt lat="50.9610322" lon="6.8786049">
      <time>2021-01-26T05:33:10Z</time>
    </trkpt>
    <trkpt lat="50.9611608" lon="6.8784525">
      <time>2021-01-26T05:33:16Z</time>
    </trkpt>
    <trkpt lat="50.9612872" lon="6.8784049">
      <time>2021-01-26T05:33:22Z</time>
    </trkpt>
    <trkpt lat="50.9614106" lon="6.8784384">
      <time>2021-01-26T05:33:28Z</time>
    </trkpt>
    <trkpt lat="50.9615449" lon="6.8785036">
      <time>2021-01-26T05:33:35Z</time>
    </trkpt>
    <trkpt lat="50.9615684" lon="6.8785128">
      <time>2021-01-26T05:33:36Z</time>
    </trkpt>
    <trkpt lat="50.9616617" lon="6.8785559">
      <time>2021-01-26T05:33:41Z</time>
    </trkpt>
    <trkpt lat="50.9616976" lon="6.8785747">
      <time>2021-01-26T05:33:43Z</time>
    </trkpt>
    <trkpt lat="50.9618178" lon="6.8786228">
      <time>2021-01-26T05:33:49Z</time>
    </trkpt>
    <trkpt lat="50.9618717" lon="6.8786427">
      <time>2021-01-26T05:33:52Z</time>
    </trkpt>
    <trkpt lat="50.9619316" lon="6.8786644">
      <time>2021-01-26T05:33:55Z</time>
    </trkpt>
    <trkpt lat="50.9620414" lon="6.8787173">
      <time>2021-01-26T05:34:00Z</time>
    </trkpt>
    <trkpt lat="50.9621657" lon="6.8787542">
      <time>2021-01-26T05:34:06Z</time>
    </trkpt>
    <trkpt lat="50.9623041" lon="6.8788244">
      <time>2021-01-26T05:34:13Z</time>
    </trkpt>
    <trkpt lat="50.9624953" lon="6.8789252">
      <time>2021-01-26T05:34:19Z</time>
    </trkpt>
    <trkpt lat="50.9625737" lon="6.8789482">
      <time>2021-01-26T05:34:22Z</time>
    </trkpt>
    <trkpt lat="50.9627178" lon="6.8790186">
      <time>2021-01-26T05:34:28Z</time>
    </trkpt>
    <trkpt lat="50.9627509" lon="6.8790631">
      <time>2021-01-26T05:34:30Z</time>
    </trkpt>
    <trkpt lat="50.9627620" lon="6.8790930">
      <time>2021-01-26T05:34:31Z</time>
    </trkpt>
    <trkpt lat="50.9627730" lon="6.8792863">
      <time>2021-01-26T05:34:36Z</time>
    </trkpt>
    <trkpt lat="50.9627489" lon="6.8795644">
      <time>2021-01-26T05:34:43Z</time>
    </trkpt>
    <trkpt lat="50.9627380" lon="6.8797112">
      <time>2021-01-26T05:34:47Z</time>
    </trkpt>
    <trkpt lat="50.9627179" lon="6.8797955">
      <time>2021-01-26T05:34:49Z</time>
    </trkpt>
    <trkpt lat="50.9626827" lon="6.8801133">
      <time>2021-01-26T05:34:57Z</time>
    </trkpt>
    <trkpt lat="50.9626811" lon="6.8801584">
      <time>2021-01-26T05:34:58Z</time>
    </trkpt>
    <trkpt lat="50.9626620" lon="6.8804504">
      <time>2021-01-26T05:35:05Z</time>
    </trkpt>
    <trkpt lat="50.9626528" lon="6.8805328">
      <time>2021-01-26T05:35:07Z</time>
    </trkpt>
    <trkpt lat="50.9626026" lon="6.8808375">
      <time>2021-01-26T05:35:15Z</time>
    </trkpt>
    <trkpt lat="50.9625711" lon="6.8811308">
      <time>2021-01-26T05:35:22Z</time>
    </trkpt>
    <trkpt lat="50.9625691" lon="6.8811732">
      <time>2021-01-26T05:35:23Z</time>
    </trkpt>
    <trkpt lat="50.9625527" lon="6.8813356">
      <time>2021-01-26T05:35:27Z</time>
    </trkpt>
    <trkpt lat="50.9625247" lon="6.8815396">
      <time>2021-01-26T05:35:32Z</time>
    </trkpt>
    <trkpt lat="50.9624827" lon="6.8817942">
      <time>2021-01-26T05:35:39Z</time>
    </trkpt>
    <trkpt lat="50.9624234" lon="6.8820312">
      <time>2021-01-26T05:35:46Z</time>
    </trkpt>
    <trkpt lat="50.9623614" lon="6.8823044">
      <time>2021-01-26T05:35:54Z</time>
    </trkpt>
    <trkpt lat="50.9623626" lon="6.8823848">
      <time>2021-01-26T05:35:56Z</time>
    </trkpt>
    <trkpt lat="50.9623229" lon="6.8826904">
      <time>2021-01-26T05:36:05Z</time>
    </trkpt>
    <trkpt lat="50.9622667" lon="6.8829697">
      <time>2021-01-26T05:36:14Z</time>
    </trkpt>
    <trkpt lat="50.9622271" lon="6.8831765">
      <time>2021-01-26T05:36:20Z</time>
    </trkpt>
    <trkpt lat="50.9622080" lon="6.8833946">
      <time>2021-01-26T05:36:26Z</time>
    </trkpt>
    <trkpt lat="50.9621768" lon="6.8836511">
      <time>2021-01-26T05:36:33Z</time>
    </trkpt>
    <trkpt lat="50.9621300" lon="6.8839338">
      <time>2021-01-26T05:36:41Z</time>
    </trkpt>
    <trkpt lat="50.9621255" lon="6.8840260">
      <time>2021-01-26T05:36:43Z</time>
    </trkpt>
    <trkpt lat="50.9621277" lon="6.8841270">
      <time>2021-01-26T05:36:46Z</time>
    </trkpt>
    <trkpt lat="50.9621312" lon="6.8841669">
      <time>2021-01-26T05:36:47Z</time>
    </trkpt>
    <trkpt lat="50.9621002" lon="6.8843090">
      <time>2021-01-26T05:36:51Z</time>
    </trkpt>
    <trkpt lat="50.9620828" lon="6.8843219">
      <time>2021-01-26T05:36:52Z</time>
    </trkpt>
    <trkpt lat="50.9620246" lon="6.8842769">
      <time>2021-01-26T05:36:55Z</time>
    </trkpt>
    <trkpt lat="50.9619532" lon="6.8840572">
      <time>2021-01-26T05:37:01Z</time>
    </trkpt>
    <trkpt lat="50.9618789" lon="6.8837973">
      <time>2021-01-26T05:37:08Z</time>
    </trkpt>
    <trkpt lat="50.9618550" lon="6.8837183">
      <time>2021-01-26T05:37:10Z</time>
    </trkpt>
    <trkpt lat="50.9617750" lon="6.8834830">
      <time>2021-01-26T05:37:16Z</time>
    </trkpt>
    <trkpt lat="50.9617093" lon="6.8832014">
      <time>2021-01-26T05:37:23Z</time>
    </trkpt>
    <trkpt lat="50.9616401" lon="6.8829191">
      <time>2021-01-26T05:37:31Z</time>
    </trkpt>
    <trkpt lat="50.9616142" lon="6.8828533">
      <time>2021-01-26T05:37:33Z</time>
    </trkpt>
    <trkpt lat="50.9615426" lon="6.8826379">
      <time>2021-01-26T05:37:40Z</time>
    </trkpt>
    <trkpt lat="50.9614666" lon="6.8823938">
      <time>2021-01-26T05:37:48Z</time>
    </trkpt>
    <trkpt lat="50.9614088" lon="6.8821052">
      <time>2021-01-26T05:37:57Z</time>
    </trkpt>
    <trkpt lat="50.9614020" lon="6.8820752">
      <time>2021-01-26T05:37:58Z</time>
    </trkpt>
    <trkpt lat="50.9613554" lon="6.8819014">
      <time>2021-01-26T05:38:04Z</time>
    </trkpt>
    <trkpt lat="50.9613076" lon="6.8817386">
      <time>2021-01-26T05:38:09Z</time>
    </trkpt>
    <trkpt lat="50.9612361" lon="6.8814388">
      <time>2021-01-26T05:38:17Z</time>
    </trkpt>
    <trkpt lat="50.9612069" lon="6.8812953">
      <time>2021-01-26T05:38:21Z</time>
    </trkpt>
    <trkpt lat="50.9611266" lon="6.8810046">
      <time>2021-01-26T05:38:29Z</time>
    </trkpt>
    <trkpt lat="50.9610984" lon="6.8808877">
      <time>2021-01-26T05:38:32Z</time>
    </trkpt>
    <trkpt lat="50.9610135" lon="6.8806109">
      <time>2021-01-26T05:38:40Z</time>
    </trkpt>
    <trkpt lat="50.9609926" lon="6.8805411">
      <time>2021-01-26T05:38:42Z</time>
    </trkpt>
    <trkpt lat="50.9609062" lon="6.8802569">
      <time>2021-01-26T05:38:50Z</time>
    </trkpt>
    <trkpt lat="50.9608774" lon="6.8801572">
      <time>2021-01-26T05:38:53Z</time>
    </trkpt>
    <trkpt lat="50.9608047" lon="6.8798810">
      <time>2021-01-26T05:39:01Z</time>
    </trkpt>
    <trkpt lat="50.9607420" lon="6.8795821">
      <time>2021-01-26T05:39:09Z</time>
    </trkpt>
    <trkpt lat="50.9607263" lon="6.8794565">
      <time>2021-01-26T05:39:12Z</time>
    </trkpt>
    <trkpt lat="50.9607427" lon="6.8791909">
      <time>2021-01-26T05:39:19Z</time>
    </trkpt>
    <trkpt lat="50.9608323" lon="6.8789726">
      <time>2021-01-26T05:39:26Z</time>
    </trkpt>
    <trkpt lat="50.9608894" lon="6.8788292">
      <time>2021-01-26T05:39:31Z</time>
    </trkpt>
    <trkpt lat="50.9609321" lon="6.8787315">
      <time>2021-01-26T05:39:35Z</time>
    </trkpt>
    <trkpt lat="50.9609396" lon="6.8787128">
      <time>2021-01-26T05:39:36Z</time>
    </trkpt>
    <trkpt lat="50.9610287" lon="6.8785906">
      <time>2021-01-26T05:39:42Z</time>
    </trkpt>
    <trkpt lat="50.9611160" lon="6.8784639">
      <time>2021-01-26T05:39:48Z</time>
    </trkpt>
    <trkpt lat="50.9611533" lon="6.8784419">
      <time>2021-01-26T05:39:50Z</time>
    </trkpt>
    <trkpt lat="50.9613328" lon="6.8784489">
      <time>2021-01-26T05:39:58Z</time>
    </trkpt>
    <trkpt lat="50.9615097" lon="6.8785064">
      <time>2021-01-26T05:40:06Z</time>
    </trkpt>
    <trkpt lat="50.9616997" lon="6.8785674">
      <time>2021-01-26T05:40:14Z</time>
    </trkpt>
    <trkpt lat="50.9617233" lon="6.8785795">
      <time>2021-01-26T05:40:15Z</time>
    </trkpt>
    <trkpt lat="50.9618553" lon="6.8786408">
      <time>2021-01-26T05:40:21Z</time>
    </trkpt>
    <trkpt lat="50.9619305" lon="6.8786801">
      <time>2021-01-26T05:40:24Z</time>
    </trkpt>
    <trkpt lat="50.9621109" lon="6.8787596">
      <time>2021-01-26T05:40:32Z</time>
    </trkpt>
    <trkpt lat="50.9621597" lon="6.8787822">
      <time>2021-01-26T05:40:34Z</time>
    </trkpt>
    <trkpt lat="50.9622876" lon="6.8788157">
      <time>2021-01-26T05:40:39Z</time>
    </trkpt>
    <trkpt lat="50.9623942" lon="6.8788381">
      <time>2021-01-26T05:40:43Z</time>
    </trkpt>
    <trkpt lat="50.9625012" lon="6.8788784">
      <time>2021-01-26T05:40:49Z</time>
    </trkpt>
    <trkpt lat="50.9626773" lon="6.8789708">
      <time>2021-01-26T05:40:56Z</time>
    </trkpt>
    <trkpt lat="50.9626979" lon="6.8789825">
      <time>2021-01-26T05:40:57Z</time>
    </trkpt>
    <trkpt lat="50.9628230" lon="6.8791885">
      <time>2021-01-26T05:41:05Z</time>
    </trkpt>
    <trkpt lat="50.9628260" lon="6.8792214">
      <time>2021-01-26T05:41:06Z</time>
    </trkpt>
    <trkpt lat="50.9628259" lon="6.8792814">
      <time>2021-01-26T05:41:08Z</time>
    </trkpt>
    <trkpt lat="50.9628157" lon="6.8793694">
      <time>2021-01-26T05:41:10Z</time>
    </trkpt>
    <trkpt lat="50.9627872" lon="6.8796504">
      <time>2021-01-26T05:41:18Z</time>
    </trkpt>
    <trkpt lat="50.9627498" lon="6.8799362">
      <time>2021-01-26T05:41:25Z</time>
    </trkpt>
    <trkpt lat="50.9627417" lon="6.8799763">
      <time>2021-01-26T05:41:26Z</time>
    </trkpt>
    <trkpt lat="50.9626908" lon="6.8802918">
      <time>2021-01-26T05:41:34Z</time>
    </trkpt>
    <trkpt lat="50.9626810" lon="6.8803311">
      <time>2021-01-26T05:41:35Z</time>
    </trkpt>
    <trkpt lat="50.9626239" lon="6.8806363">
      <time>2021-01-26T05:41:43Z</time>
    </trkpt>
    <trkpt lat="50.9626181" lon="6.8806858">
      <time>2021-01-26T05:41:44Z</time>
    </trkpt>
    <trkpt lat="50.9625770" lon="6.8809130">
      <time>2021-01-26T05:41:50Z</time>
    </trkpt>
    <trkpt lat="50.9625358" lon="6.8812019">
      <time>2021-01-26T05:41:58Z</time>
    </trkpt>
    <trkpt lat="50.9625286" lon="6.8812370">
      <time>2021-01-26T05:41:59Z</time>
    </trkpt>
    <trkpt lat="50.9624741" lon="6.8815159">
      <time>2021-01-26T05:42:07Z</time>
    </trkpt>
    <trkpt lat="50.9624587" lon="6.8815806">
      <time>2021-01-26T05:42:09Z</time>
    </trkpt>
    <trkpt lat="50.9624305" lon="6.8818655">
      <time>2021-01-26T05:42:17Z</time>
    </trkpt>
    <trkpt lat="50.9624252" lon="6.8818993">
      <time>2021-01-26T05:42:18Z</time>
    </trkpt>
    <trkpt lat="50.9623872" lon="6.8821889">
      <time>2021-01-26T05:42:26Z</time>
    </trkpt>
    <trkpt lat="50.9623725" lon="6.8822797">
      <time>2021-01-26T05:42:28Z</time>
    </trkpt>
    <trkpt lat="50.9623198" lon="6.8825762">
      <time>2021-01-26T05:42:36Z</time>
    </trkpt>
    <trkpt lat="50.9623062" lon="6.8826583">
      <time>2021-01-26T05:42:38Z</time>
    </trkpt>
    <trkpt lat="50.9622811" lon="6.8828729">
      <time>2021-01-26T05:42:44Z</time>
    </trkpt>
    <trkpt lat="50.9622698" lon="6.8829358">
      <time>2021-01-26T05:42:46Z</time>
    </trkpt>
    <trkpt lat="50.9622588" lon="6.8830395">
      <time>2021-01-26T05:42:49Z</time>
    </trkpt>
    <trkpt lat="50.9622210" lon="6.8832667">
      <time>2021-01-26T05:42:55Z</time>
    </trkpt>
    <trkpt lat="50.9622210" lon="6.8834977">
      <time>2021-01-26T05:43:01Z</time>
    </trkpt>
    <trkpt lat="50.9621662" lon="6.8837718">
      <time>2021-01-26T05:43:08Z</time>
    </trkpt>
    <trkpt lat="50.9621192" lon="6.8840207">
      <time>2021-01-26T05:43:15Z</time>
    </trkpt>
    <trkpt lat="50.9620751" lon="6.8842366">
      <time>2021-01-26T05:43:22Z</time>
    </trkpt>
    <trkpt lat="50.9620527" lon="6.8842497">
      <time>2021-01-26T05:43:23Z</time>
    </trkpt>
    <trkpt lat="50.9619945" lon="6.8842385">
      <time>2021-01-26T05:43:25Z</time>
    </trkpt>
    <trkpt lat="50.9619709" lon="6.8841789">
      <time>2021-01-26T05:43:27Z</time>
    </trkpt>
    <trkpt lat="50.9618889" lon="6.8838988">
      <time>2021-01-26T05:43:35Z</time>
    </trkpt>
    <trkpt lat="50.9618181" lon="6.8836076">
      <time>2021-01-26T05:43:43Z</time>
    </trkpt>
    <trkpt lat="50.9617510" lon="6.8833296">
      <time>2021-01-26T05:43:51Z</time>
    </trkpt>
    <trkpt lat="50.9617386" lon="6.8832659">
      <time>2021-01-26T05:43:53Z</time>
    </trkpt>
    <trkpt lat="50.9616896" lon="6.8830598">
      <time>2021-01-26T05:43:59Z</time>
    </trkpt>
    <trkpt lat="50.9615971" lon="6.8827869">
      <time>2021-01-26T05:44:07Z</time>
    </trkpt>
    <trkpt lat="50.9615867" lon="6.8827613">
      <time>2021-01-26T05:44:08Z</time>
    </trkpt>
    <trkpt lat="50.9615237" lon="6.8825812">
      <time>2021-01-26T05:44:14Z</time>
    </trkpt>
    <trkpt lat="50.9614462" lon="6.8822970">
      <time>2021-01-26T05:44:23Z</time>
    </trkpt>
    <trkpt lat="50.9614375" lon="6.8822670">
      <time>2021-01-26T05:44:24Z</time>
    </trkpt>
    <trkpt lat="50.9613771" lon="6.8819908">
      <time>2021-01-26T05:44:32Z</time>
    </trkpt>
    <trkpt lat="50.9613111" lon="6.8817181">
      <time>2021-01-26T05:44:40Z</time>
    </trkpt>
    <trkpt lat="50.9613006" lon="6.8816887">
      <time>2021-01-26T05:44:41Z</time>
    </trkpt>
    <trkpt lat="50.9612501" lon="6.8814751">
      <time>2021-01-26T05:44:48Z</time>
    </trkpt>
    <trkpt lat="50.9611730" lon="6.8811760">
      <time>2021-01-26T05:44:57Z</time>
    </trkpt>
    <trkpt lat="50.9610950" lon="6.8809097">
      <time>2021-01-26T05:45:05Z</time>
    </trkpt>
    <trkpt lat="50.9610582" lon="6.8807742">
      <time>2021-01-26T05:45:09Z</time>
    </trkpt>
    <trkpt lat="50.9609755" lon="6.8804856">
      <time>2021-01-26T05:45:17Z</time>
    </trkpt>
    <trkpt lat="50.9609653" lon="6.8804493">
      <time>2021-01-26T05:45:18Z</time>
    </trkpt>
    <trkpt lat="50.9608954" lon="6.8801632">
      <time>2021-01-26T05:45:26Z</time>
    </trkpt>
    <trkpt lat="50.9608569" lon="6.8800214">
      <time>2021-01-26T05:45:30Z</time>
    </trkpt>
    <trkpt lat="50.9608290" lon="6.8799121">
      <time>2021-01-26T05:45:33Z</time>
    </trkpt>
    <trkpt lat="50.9607825" lon="6.8796525">
      <time>2021-01-26T05:45:40Z</time>
    </trkpt>
    <trkpt lat="50.9607556" lon="6.8793620">
      <time>2021-01-26T05:45:47Z</time>
    </trkpt>
    <trkpt lat="50.9607544" lon="6.8793184">
      <time>2021-01-26T05:45:48Z</time>
    </trkpt>
    <trkpt lat="50.9608116" lon="6.8791020">
      <time>2021-01-26T05:45:54Z</time>
    </trkpt>
    <trkpt lat="50.9608686" lon="6.8789167">
      <time>2021-01-26T05:45:59Z</time>
    </trkpt>
    <trkpt lat="50.9608933" lon="6.8788408">
      <time>2021-01-26T05:46:01Z</time>
    </trkpt>
    <trkpt lat="50.9609870" lon="6.8786330">
      <time>2021-01-26T05:46:08Z</time>
    </trkpt>
    <trkpt lat="50.9610600" lon="6.8785467">
      <time>2021-01-26T05:46:12Z</time>
    </trkpt>
    <trkpt lat="50.9612064" lon="6.8784491">
      <time>2021-01-26T05:46:18Z</time>
    </trkpt>
    <trkpt lat="50.9613190" lon="6.8784259">
      <time>2021-01-26T05:46:24Z</time>
    </trkpt>
    <trkpt lat="50.9615164" lon="6.8784881">
      <time>2021-01-26T05:46:32Z</time>
    </trkpt>
    <trkpt lat="50.9617047" lon="6.8785504">
      <time>2021-01-26T05:46:39Z</time>
    </trkpt>
    <trkpt lat="50.9617279" lon="6.8785537">
      <time>2021-01-26T05:46:40Z</time>
    </trkpt>
    <trkpt lat="50.9618844" lon="6.8786258">
      <time>2021-01-26T05:46:46Z</time>
    </trkpt>
    <trkpt lat="50.9620570" lon="6.8787099">
      <time>2021-01-26T05:46:53Z</time>
    </trkpt>
    <trkpt lat="50.9621067" lon="6.8787258">
      <time>2021-01-26T05:46:55Z</time>
    </trkpt>
    <trkpt lat="50.9622414" lon="6.8787956">
      <time>2021-01-26T05:47:01Z</time>
    </trkpt>
    <trkpt lat="50.9624239" lon="6.8788720">
      <time>2021-01-26T05:47:08Z</time>
    </trkpt>
    <trkpt lat="50.9624744" lon="6.8788855">
      <time>2021-01-26T05:47:10Z</time>
    </trkpt>
    <trkpt lat="50.9626182" lon="6.8789511">
      <time>2021-01-26T05:47:16Z</time>
    </trkpt>
    <trkpt lat="50.9626879" lon="6.8789894">
      <time>2021-01-26T05:47:19Z</time>
    </trkpt>
    <trkpt lat="50.9627889" lon="6.8791024">
      <time>2021-01-26T05:47:24Z</time>
    </trkpt>
    <trkpt lat="50.9627997" lon="6.8791447">
      <time>2021-01-26T05:47:25Z</time>
    </trkpt>
    <trkpt lat="50.9627865" lon="6.8793305">
      <time>2021-01-26T05:47:29Z</time>
    </trkpt>
    <trkpt lat="50.9627650" lon="6.8796291">
      <time>2021-01-26T05:47:37Z</time>
    </trkpt>
    <trkpt lat="50.9627131" lon="6.8799162">
      <time>2021-01-26T05:47:44Z</time>
    </trkpt>
    <trkpt lat="50.9627115" lon="6.8799499">
      <time>2021-01-26T05:47:45Z</time>
    </trkpt>
    <trkpt lat="50.9626733" lon="6.8801874">
      <time>2021-01-26T05:47:52Z</time>
    </trkpt>
    <trkpt lat="50.9626376" lon="6.8804736">
      <time>2021-01-26T05:48:00Z</time>
    </trkpt>
    <trkpt lat="50.9626062" lon="6.8807187">
      <time>2021-01-26T05:48:07Z</time>
    </trkpt>
    <trkpt lat="50.9625670" lon="6.8810173">
      <time>2021-01-26T05:48:15Z</time>
    </trkpt>
    <trkpt lat="50.9625576" lon="6.8810951">
      <time>2021-01-26T05:48:17Z</time>
    </trkpt>
    <trkpt lat="50.9625159" lon="6.8813432">
      <time>2021-01-26T05:48:24Z</time>
    </trkpt>
    <trkpt lat="50.9625098" lon="6.8813765">
      <time>2021-01-26T05:48:25Z</time>
    </trkpt>
    <trkpt lat="50.9624560" lon="6.8816613">
      <time>2021-01-26T05:48:33Z</time>
    </trkpt>
    <trkpt lat="50.9624526" lon="6.8816958">
      <time>2021-01-26T05:48:34Z</time>
    </trkpt>
    <trkpt lat="50.9624154" lon="6.8819950">
      <time>2021-01-26T05:48:42Z</time>
    </trkpt>
    <trkpt lat="50.9624097" lon="6.8820358">
      <time>2021-01-26T05:48:43Z</time>
    </trkpt>
    <trkpt lat="50.9623618" lon="6.8823348">
      <time>2021-01-26T05:48:51Z</time>
    </trkpt>
    <trkpt lat="50.9623576" lon="6.8823694">
      <time>2021-01-26T05:48:52Z</time>
    </trkpt>
    <trkpt lat="50.9623153" lon="6.8826578">
      <time>2021-01-26T05:49:00Z</time>
    </trkpt>
    <trkpt lat="50.9623122" lon="6.8826912">
      <time>2021-01-26T05:49:01Z</time>
    </trkpt>
    <trkpt lat="50.9622669" lon="6.8829818">
      <time>2021-01-26T05:49:09Z</time>
    </trkpt>
    <trkpt lat="50.9622519" lon="6.8830473">
      <time>2021-01-26T05:49:11Z</time>
    </trkpt>
    <trkpt lat="50.9622218" lon="6.8833007">
      <time>2021-01-26T05:49:18Z</time>
    </trkpt>
    <trkpt lat="50.9621994" lon="6.8835844">
      <time>2021-01-26T05:49:26Z</time>
    </trkpt>
    <trkpt lat="50.9621486" lon="6.8838315">
      <time>2021-01-26T05:49:33Z</time>
    </trkpt>
    <trkpt lat="50.9621052" lon="6.8841404">
      <time>2021-01-26T05:49:42Z</time>
    </trkpt>
    <trkpt lat="50.9620689" lon="6.8842689">
      <time>2021-01-26T05:49:46Z</time>
    </trkpt>
    <trkpt lat="50.9620065" lon="6.8842778">
      <time>2021-01-26T05:49:48Z</time>
    </trkpt>
    <trkpt lat="50.9619781" lon="6.8842121">
      <time>2021-01-26T05:49:50Z</time>
    </trkpt>
    <trkpt lat="50.9619811" lon="6.8841644">
      <time>2021-01-26T05:49:52Z</time>
    </trkpt>
    <trkpt lat="50.9619498" lon="6.8839848">
      <time>2021-01-26T05:49:58Z</time>
    </trkpt>
    <trkpt lat="50.9618710" lon="6.8837230">
      <time>2021-01-26T05:50:05Z</time>
    </trkpt>
    <trkpt lat="50.9618536" lon="6.8836564">
      <time>2021-01-26T05:50:07Z</time>
    </trkpt>
    <trkpt lat="50.9617790" lon="6.8833669">
      <time>2021-01-26T05:50:15Z</time>
    </trkpt>
    <trkpt lat="50.9617498" lon="6.8832907">
      <time>2021-01-26T05:50:17Z</time>
    </trkpt>
    <trkpt lat="50.9616793" lon="6.8830378">
      <time>2021-01-26T05:50:24Z</time>
    </trkpt>
    <trkpt lat="50.9616075" lon="6.8827681">
      <time>2021-01-26T05:50:32Z</time>
    </trkpt>
    <trkpt lat="50.9615270" lon="6.8824976">
      <time>2021-01-26T05:50:40Z</time>
    </trkpt>
    <trkpt lat="50.9614898" lon="6.8823478">
      <time>2021-01-26T05:50:44Z</time>
    </trkpt>
    <trkpt lat="50.9614242" lon="6.8820842">
      <time>2021-01-26T05:50:51Z</time>
    </trkpt>
    <trkpt lat="50.9613608" lon="6.8818109">
      <time>2021-01-26T05:50:59Z</time>
    </trkpt>
    <trkpt lat="50.9612865" lon="6.8815331">
      <time>2021-01-26T05:51:07Z</time>
    </trkpt>
    <trkpt lat="50.9612055" lon="6.8812397">
      <time>2021-01-26T05:51:15Z</time>
    </trkpt>
    <trkpt lat="50.9611851" lon="6.8811641">
      <time>2021-01-26T05:51:17Z</time>
    </trkpt>
    <trkpt lat="50.9611019" lon="6.8808729">
      <time>2021-01-26T05:51:25Z</time>
    </trkpt>
    <trkpt lat="50.9610460" lon="6.8806943">
      <time>2021-01-26T05:51:30Z</time>
    </trkpt>
    <trkpt lat="50.9610108" lon="6.8805872">
      <time>2021-01-26T05:51:33Z</time>
    </trkpt>
    <trkpt lat="50.9609462" lon="6.8803405">
      <time>2021-01-26T05:51:40Z</time>
    </trkpt>
    <trkpt lat="50.9608748" lon="6.8800717">
      <time>2021-01-26T05:51:48Z</time>
    </trkpt>
    <trkpt lat="50.9608194" lon="6.8798494">
      <time>2021-01-26T05:51:54Z</time>
    </trkpt>
    <trkpt lat="50.9607669" lon="6.8795497">
      <time>2021-01-26T05:52:02Z</time>
    </trkpt>
    <trkpt lat="50.9607656" lon="6.8794225">
      <time>2021-01-26T05:52:05Z</time>
    </trkpt>
    <trkpt lat="50.9608258" lon="6.8791212">
      <time>2021-01-26T05:52:12Z</time>
    </trkpt>
    <trkpt lat="50.9608761" lon="6.8789278">
      <time>2021-01-26T05:52:17Z</time>
    </trkpt>
    <trkpt lat="50.9609426" lon="6.8787716">
      <time>2021-01-26T05:52:23Z</time>
    </trkpt>
    <trkpt lat="50.9610794" lon="6.8785937">
      <time>2021-01-26T05:52:30Z</time>
    </trkpt>
    <trkpt lat="50.9612203" lon="6.8784474">
      <time>2021-01-26T05:52:38Z</time>
    </trkpt>
    <trkpt lat="50.9613957" lon="6.8784555">
      <time>2021-01-26T05:52:46Z</time>
    </trkpt>
    <trkpt lat="50.9615803" lon="6.8785222">
      <time>2021-01-26T05:52:54Z</time>
    </trkpt>
    <trkpt lat="50.9616120" lon="6.8785303">
      <time>2021-01-26T05:52:55Z</time>
    </trkpt>
    <trkpt lat="50.9618052" lon="6.8785875">
      <time>2021-01-26T05:53:03Z</time>
    </trkpt>
    <trkpt lat="50.9619864" lon="6.8786130">
      <time>2021-01-26T05:53:11Z</time>
    </trkpt>
    <trkpt lat="50.9620157" lon="6.8784973">
      <time>2021-01-26T05:53:15Z</time>
    </trkpt>
    <trkpt lat="50.9620305" lon="6.8782978">
      <time>2021-01-26T05:53:21Z</time>
    </trkpt>
    <trkpt lat="50.9620219" lon="6.8782623">
      <time>2021-01-26T05:53:22Z</time>
    </trkpt>
    <trkpt lat="50.9620201" lon="6.8781324">
      <time>2021-01-26T05:53:26Z</time>
    </trkpt>
    <trkpt lat="50.9620593" lon="6.8778966">
      <time>2021-01-26T05:53:32Z</time>
    </trkpt>
    <trkpt lat="50.9620559" lon="6.8777635">
      <time>2021-01-26T05:53:35Z</time>
    </trkpt>
    <trkpt lat="50.9620451" lon="6.8776308">
      <time>2021-01-26T05:53:38Z</time>
    </trkpt>
    <trkpt lat="50.9620426" lon="6.8773846">
      <time>2021-01-26T05:53:45Z</time>
    </trkpt>
    <trkpt lat="50.9620355" lon="6.8773478">
      <time>2021-01-26T05:53:46Z</time>
    </trkpt>
    <trkpt lat="50.9620413" lon="6.8771557">
      <time>2021-01-26T05:53:52Z</time>
    </trkpt>
    <trkpt lat="50.9620279" lon="6.8769153">
      <time>2021-01-26T05:53:58Z</time>
    </trkpt>
    <trkpt lat="50.9620236" lon="6.8767036">
      <time>2021-01-26T05:54:03Z</time>
    </trkpt>
    <trkpt lat="50.9620508" lon="6.8764140">
      <time>2021-01-26T05:54:10Z</time>
    </trkpt>
    <trkpt lat="50.9620639" lon="6.8763824">
      <time>2021-01-26T05:54:11Z</time>
    </trkpt>
    <trkpt lat="50.9621272" lon="6.8763315">
      <time>2021-01-26T05:54:15Z</time>
    </trkpt>
    <trkpt lat="50.9621243" lon="6.8763487">
      <time>2021-01-26T05:54:16Z</time>
    </trkpt>
    <trkpt lat="50.9621616" lon="6.8764466">
      <time>2021-01-26T05:54:20Z</time>
    </trkpt>
    <trkpt lat="50.9621776" lon="6.8764620">
      <time>2021-01-26T05:54:21Z</time>
    </trkpt>
    <trkpt lat="50.9622472" lon="6.8764885">
      <time>2021-01-26T05:54:24Z</time>
    </trkpt>
    <trkpt lat="50.9624227" lon="6.8765294">
      <time>2021-01-26T05:54:31Z</time>
    </trkpt>
    <trkpt lat="50.9626348" lon="6.8765284">
      <time>2021-01-26T05:54:38Z</time>
    </trkpt>
    <trkpt lat="50.9628308" lon="6.8765449">
      <time>2021-01-26T05:54:46Z</time>
    </trkpt>
    <trkpt lat="50.9630204" lon="6.8764943">
      <time>2021-01-26T05:54:54Z</time>
    </trkpt>
    <trkpt lat="50.9631342" lon="6.8763454">
      <time>2021-01-26T05:55:00Z</time>
    </trkpt>
    <trkpt lat="50.9632785" lon="6.8761391">
      <time>2021-01-26T05:55:07Z</time>
    </trkpt>
    <trkpt lat="50.9633323" lon="6.8759126">
      <time>2021-01-26T05:55:13Z</time>
    </trkpt>
    <trkpt lat="50.9633807" lon="6.8758706">
      <time>2021-01-26T05:55:16Z</time>
    </trkpt>
    <trkpt lat="50.9633981" lon="6.8758915">
      <time>2021-01-26T05:55:17Z</time>
    </trkpt>
    <trkpt lat="50.9634530" lon="6.8758902">
      <time>2021-01-26T05:55:20Z</time>
    </trkpt>
  </trkseg></trk>
</gpx>
