<?xml version="1.0" encoding="UTF-8"?>
<gpx version="1.1" creator="Diary FIT converter" xmlns="http://www.topografix.com/GPX/1/1">
  <trk><name>Cycling</name><trkseg>
    <trkpt lat="50.9631971" lon="6.8767732">
      <time>2023-09-13T07:24:12Z</time>
    </trkpt>
    <trkpt lat="50.9632142" lon="6.8768231">
      <time>2023-09-13T07:24:13Z</time>
    </trkpt>
    <trkpt lat="50.9632497" lon="6.8769359">
      <time>2023-09-13T07:24:15Z</time>
    </trkpt>
    <trkpt lat="50.9633056" lon="6.8770397">
      <time>2023-09-13T07:24:17Z</time>
    </trkpt>
    <trkpt lat="50.9633984" lon="6.8772179">
      <time>2023-09-13T07:24:20Z</time>
    </trkpt>
    <trkpt lat="50.9635329" lon="6.8775568">
      <time>2023-09-13T07:24:25Z</time>
    </trkpt>
    <trkpt lat="50.9636173" lon="6.8776840">
      <time>2023-09-13T07:24:27Z</time>
    </trkpt>
    <trkpt lat="50.9636505" lon="6.8777492">
      <time>2023-09-13T07:24:28Z</time>
    </trkpt>
    <trkpt lat="50.9637156" lon="6.8778771">
      <time>2023-09-13T07:24:30Z</time>
    </trkpt>
    <trkpt lat="50.9637534" lon="6.8779343">
      <time>2023-09-13T07:24:31Z</time>
    </trkpt>
    <trkpt lat="50.9638441" lon="6.8780216">
      <time>2023-09-13T07:24:33Z</time>
    </trkpt>
    <trkpt lat="50.9639210" lon="6.8781088">
      <time>2023-09-13T07:24:35Z</time>
    </trkpt>
    <trkpt lat="50.9639574" lon="6.8781552">
      <time>2023-09-13T07:24:36Z</time>
    </trkpt>
    <trkpt lat="50.9641660" lon="6.8784431">
      <time>2023-09-13T07:24:41Z</time>
    </trkpt>
    <trkpt lat="50.9641999" lon="6.8785044">
      <time>2023-09-13T07:24:42Z</time>
    </trkpt>
    <trkpt lat="50.9642596" lon="6.8785504">
      <time>2023-09-13T07:24:43Z</time>
    </trkpt>
    <trkpt lat="50.9643826" lon="6.8787184">
      <time>2023-09-13T07:24:46Z</time>
    </trkpt>
    <trkpt lat="50.9644217" lon="6.8787789">
      <time>2023-09-13T07:24:47Z</time>
    </trkpt>
    <trkpt lat="50.9645399" lon="6.8789346">
      <time>2023-09-13T07:24:50Z</time>
    </trkpt>
    <trkpt lat="50.9645696" lon="6.8789728">
      <time>2023-09-13T07:24:51Z</time>
    </trkpt>
    <trkpt lat="50.9647295" lon="6.8791684">
      <time>2023-09-13T07:24:56Z</time>
    </trkpt>
    <trkpt lat="50.9648318" lon="6.8793357">
      <time>2023-09-13T07:24:59Z</time>
    </trkpt>
    <trkpt lat="50.9648749" lon="6.8794250">
      <time>2023-09-13T07:25:01Z</time>
    </trkpt>
    <trkpt lat="50.9650153" lon="6.8796188">
      <time>2023-09-13T07:25:05Z</time>
    </trkpt>
    <trkpt lat="50.9650665" lon="6.8796800">
      <time>2023-09-13T07:25:06Z</time>
    </trkpt>
    <trkpt lat="50.9652081" lon="6.8798842">
      <time>2023-09-13T07:25:09Z</time>
    </trkpt>
    <trkpt lat="50.9652966" lon="6.8799882">
      <time>2023-09-13T07:25:11Z</time>
    </trkpt>
    <trkpt lat="50.9655550" lon="6.8802008">
      <time>2023-09-13T07:25:16Z</time>
    </trkpt>
    <trkpt lat="50.9657396" lon="6.8804151">
      <time>2023-09-13T07:25:20Z</time>
    </trkpt>
    <trkpt lat="50.9659217" lon="6.8806354">
      <time>2023-09-13T07:25:24Z</time>
    </trkpt>
    <trkpt lat="50.9659505" lon="6.8807072">
      <time>2023-09-13T07:25:25Z</time>
    </trkpt>
    <trkpt lat="50.9663106" lon="6.8810863">
      <time>2023-09-13T07:25:33Z</time>
    </trkpt>
    <trkpt lat="50.9663921" lon="6.8811748">
      <time>2023-09-13T07:25:35Z</time>
    </trkpt>
    <trkpt lat="50.9664491" lon="6.8812863">
      <time>2023-09-13T07:25:37Z</time>
    </trkpt>
    <trkpt lat="50.9664709" lon="6.8813525">
      <time>2023-09-13T07:25:38Z</time>
    </trkpt>
    <trkpt lat="50.9664780" lon="6.8814159">
      <time>2023-09-13T07:25:39Z</time>
    </trkpt>
    <trkpt lat="50.9664556" lon="6.8815425">
      <time>2023-09-13T07:25:41Z</time>
    </trkpt>
    <trkpt lat="50.9664352" lon="6.8816061">
      <time>2023-09-13T07:25:42Z</time>
    </trkpt>
    <trkpt lat="50.9663347" lon="6.8818586">
      <time>2023-09-13T07:25:46Z</time>
    </trkpt>
    <trkpt lat="50.9661679" lon="6.8822642">
      <time>2023-09-13T07:25:52Z</time>
    </trkpt>
    <trkpt lat="50.9661319" lon="6.8823303">
      <time>2023-09-13T07:25:53Z</time>
    </trkpt>
    <trkpt lat="50.9660237" lon="6.8825268">
      <time>2023-09-13T07:25:56Z</time>
    </trkpt>
    <trkpt lat="50.9659927" lon="6.8825926">
      <time>2023-09-13T07:25:57Z</time>
    </trkpt>
    <trkpt lat="50.9658990" lon="6.8827617">
      <time>2023-09-13T07:26:00Z</time>
    </trkpt>
    <trkpt lat="50.9658327" lon="6.8828913">
      <time>2023-09-13T07:26:02Z</time>
    </trkpt>
    <trkpt lat="50.9656696" lon="6.8832150">
      <time>2023-09-13T07:26:07Z</time>
    </trkpt>
    <trkpt lat="50.9656410" lon="6.8832796">
      <time>2023-09-13T07:26:08Z</time>
    </trkpt>
    <trkpt lat="50.9655985" lon="6.8833496">
      <time>2023-09-13T07:26:09Z</time>
    </trkpt>
    <trkpt lat="50.9655178" lon="6.8834938">
      <time>2023-09-13T07:26:11Z</time>
    </trkpt>
    <trkpt lat="50.9654892" lon="6.8835659">
      <time>2023-09-13T07:26:12Z</time>
    </trkpt>
    <trkpt lat="50.9653783" lon="6.8838653">
      <time>2023-09-13T07:26:17Z</time>
    </trkpt>
    <trkpt lat="50.9652189" lon="6.8841569">
      <time>2023-09-13T07:26:22Z</time>
    </trkpt>
    <trkpt lat="50.9650174" lon="6.8845746">
      <time>2023-09-13T07:26:28Z</time>
    </trkpt>
    <trkpt lat="50.9648121" lon="6.8850421">
      <time>2023-09-13T07:26:35Z</time>
    </trkpt>
    <trkpt lat="50.9645261" lon="6.8856141">
      <time>2023-09-13T07:26:44Z</time>
    </trkpt>
    <trkpt lat="50.9644942" lon="6.8856693">
      <time>2023-09-13T07:26:45Z</time>
    </trkpt>
    <trkpt lat="50.9642181" lon="6.8862843">
      <time>2023-09-13T07:26:54Z</time>
    </trkpt>
    <trkpt lat="50.9639525" lon="6.8868490">
      <time>2023-09-13T07:27:02Z</time>
    </trkpt>
    <trkpt lat="50.9637304" lon="6.8872717">
      <time>2023-09-13T07:27:09Z</time>
    </trkpt>
    <trkpt lat="50.9635265" lon="6.8876389">
      <time>2023-09-13T07:27:14Z</time>
    </trkpt>
    <trkpt lat="50.9634447" lon="6.8877887">
      <time>2023-09-13T07:27:16Z</time>
    </trkpt>
    <trkpt lat="50.9633233" lon="6.8880766">
      <time>2023-09-13T07:27:20Z</time>
    </trkpt>
    <trkpt lat="50.9630556" lon="6.8885641">
      <time>2023-09-13T07:27:26Z</time>
    </trkpt>
    <trkpt lat="50.9629650" lon="6.8888204">
      <time>2023-09-13T07:27:29Z</time>
    </trkpt>
    <trkpt lat="50.9629059" lon="6.8890010">
      <time>2023-09-13T07:27:31Z</time>
    </trkpt>
    <trkpt lat="50.9627877" lon="6.8893404">
      <time>2023-09-13T07:27:35Z</time>
    </trkpt>
    <trkpt lat="50.9627193" lon="6.8895050">
      <time>2023-09-13T07:27:37Z</time>
    </trkpt>
    <trkpt lat="50.9626886" lon="6.8895647">
      <time>2023-09-13T07:27:38Z</time>
    </trkpt>
    <trkpt lat="50.9625831" lon="6.8898149">
      <time>2023-09-13T07:27:41Z</time>
    </trkpt>
    <trkpt lat="50.9624665" lon="6.8901169">
      <time>2023-09-13T07:27:45Z</time>
    </trkpt>
    <trkpt lat="50.9624112" lon="6.8901906">
      <time>2023-09-13T07:27:46Z</time>
    </trkpt>
    <trkpt lat="50.9622781" lon="6.8903795">
      <time>2023-09-13T07:27:49Z</time>
    </trkpt>
    <trkpt lat="50.9622052" lon="6.8905287">
      <time>2023-09-13T07:27:51Z</time>
    </trkpt>
    <trkpt lat="50.9621061" lon="6.8907560">
      <time>2023-09-13T07:27:54Z</time>
    </trkpt>
    <trkpt lat="50.9620105" lon="6.8909836">
      <time>2023-09-13T07:27:57Z</time>
    </trkpt>
    <trkpt lat="50.9619317" lon="6.8911225">
      <time>2023-09-13T07:27:59Z</time>
    </trkpt>
    <trkpt lat="50.9617025" lon="6.8916182">
      <time>2023-09-13T07:28:06Z</time>
    </trkpt>
    <trkpt lat="50.9616376" lon="6.8917571">
      <time>2023-09-13T07:28:08Z</time>
    </trkpt>
    <trkpt lat="50.9615643" lon="6.8919675">
      <time>2023-09-13T07:28:11Z</time>
    </trkpt>
    <trkpt lat="50.9615135" lon="6.8921723">
      <time>2023-09-13T07:28:14Z</time>
    </trkpt>
    <trkpt lat="50.9614706" lon="6.8923089">
      <time>2023-09-13T07:28:16Z</time>
    </trkpt>
    <trkpt lat="50.9614017" lon="6.8924898">
      <time>2023-09-13T07:28:19Z</time>
    </trkpt>
    <trkpt lat="50.9613768" lon="6.8925381">
      <time>2023-09-13T07:28:21Z</time>
    </trkpt>
    <trkpt lat="50.9613498" lon="6.8925808">
      <time>2023-09-13T07:28:27Z</time>
    </trkpt>
    <trkpt lat="50.9613498" lon="6.8925808">
      <time>2023-09-13T07:28:28Z</time>
    </trkpt>
    <trkpt lat="50.9613291" lon="6.8926157">
      <time>2023-09-13T07:28:50Z</time>
    </trkpt>
    <trkpt lat="50.9612849" lon="6.8926951">
      <time>2023-09-13T07:28:52Z</time>
    </trkpt>
    <trkpt lat="50.9611903" lon="6.8928956">
      <time>2023-09-13T07:28:56Z</time>
    </trkpt>
    <trkpt lat="50.9611432" lon="6.8929916">
      <time>2023-09-13T07:28:58Z</time>
    </trkpt>
    <trkpt lat="50.9610831" lon="6.8931151">
      <time>2023-09-13T07:29:00Z</time>
    </trkpt>
    <trkpt lat="50.9610194" lon="6.8932352">
      <time>2023-09-13T07:29:02Z</time>
    </trkpt>
    <trkpt lat="50.9609697" lon="6.8933791">
      <time>2023-09-13T07:29:04Z</time>
    </trkpt>
    <trkpt lat="50.9609418" lon="6.8934482">
      <time>2023-09-13T07:29:05Z</time>
    </trkpt>
    <trkpt lat="50.9609152" lon="6.8935193">
      <time>2023-09-13T07:29:06Z</time>
    </trkpt>
    <trkpt lat="50.9607495" lon="6.8938065">
      <time>2023-09-13T07:29:10Z</time>
    </trkpt>
    <trkpt lat="50.9605433" lon="6.8941341">
      <time>2023-09-13T07:29:15Z</time>
    </trkpt>
    <trkpt lat="50.9604285" lon="6.8943221">
      <time>2023-09-13T07:29:18Z</time>
    </trkpt>
    <trkpt lat="50.9603625" lon="6.8944456">
      <time>2023-09-13T07:29:20Z</time>
    </trkpt>
    <trkpt lat="50.9602768" lon="6.8945724">
      <time>2023-09-13T07:29:22Z</time>
    </trkpt>
    <trkpt lat="50.9600049" lon="6.8951209">
      <time>2023-09-13T07:29:30Z</time>
    </trkpt>
    <trkpt lat="50.9598811" lon="6.8953447">
      <time>2023-09-13T07:29:33Z</time>
    </trkpt>
    <trkpt lat="50.9597390" lon="6.8956350">
      <time>2023-09-13T07:29:37Z</time>
    </trkpt>
    <trkpt lat="50.9595451" lon="6.8960841">
      <time>2023-09-13T07:29:43Z</time>
    </trkpt>
    <trkpt lat="50.9594827" lon="6.8962278">
      <time>2023-09-13T07:29:45Z</time>
    </trkpt>
    <trkpt lat="50.9594536" lon="6.8963009">
      <time>2023-09-13T07:29:46Z</time>
    </trkpt>
    <trkpt lat="50.9593422" lon="6.8965810">
      <time>2023-09-13T07:29:50Z</time>
    </trkpt>
    <trkpt lat="50.9592075" lon="6.8969030">
      <time>2023-09-13T07:29:55Z</time>
    </trkpt>
    <trkpt lat="50.9591956" lon="6.8969816">
      <time>2023-09-13T07:29:56Z</time>
    </trkpt>
    <trkpt lat="50.9591684" lon="6.8971302">
      <time>2023-09-13T07:29:58Z</time>
    </trkpt>
    <trkpt lat="50.9590955" lon="6.8972959">
      <time>2023-09-13T07:30:00Z</time>
    </trkpt>
    <trkpt lat="50.9589126" lon="6.8976996">
      <time>2023-09-13T07:30:05Z</time>
    </trkpt>
    <trkpt lat="50.9588885" lon="6.8977611">
      <time>2023-09-13T07:30:06Z</time>
    </trkpt>
    <trkpt lat="50.9586885" lon="6.8982274">
      <time>2023-09-13T07:30:12Z</time>
    </trkpt>
    <trkpt lat="50.9585554" lon="6.8985201">
      <time>2023-09-13T07:30:16Z</time>
    </trkpt>
    <trkpt lat="50.9583258" lon="6.8989611">
      <time>2023-09-13T07:30:22Z</time>
    </trkpt>
    <trkpt lat="50.9582543" lon="6.8991004">
      <time>2023-09-13T07:30:24Z</time>
    </trkpt>
    <trkpt lat="50.9580310" lon="6.8995337">
      <time>2023-09-13T07:30:30Z</time>
    </trkpt>
    <trkpt lat="50.9579631" lon="6.8996468">
      <time>2023-09-13T07:30:32Z</time>
    </trkpt>
    <trkpt lat="50.9579465" lon="6.8996824">
      <time>2023-09-13T07:30:33Z</time>
    </trkpt>
    <trkpt lat="50.9579382" lon="6.8997518">
      <time>2023-09-13T07:30:35Z</time>
    </trkpt>
    <trkpt lat="50.9579446" lon="6.8998132">
      <time>2023-09-13T07:30:37Z</time>
    </trkpt>
    <trkpt lat="50.9579196" lon="6.8998871">
      <time>2023-09-13T07:30:40Z</time>
    </trkpt>
    <trkpt lat="50.9579135" lon="6.8998930">
      <time>2023-09-13T07:30:43Z</time>
    </trkpt>
    <trkpt lat="50.9578853" lon="6.8999733">
      <time>2023-09-13T07:30:46Z</time>
    </trkpt>
    <trkpt lat="50.9577880" lon="6.9001964">
      <time>2023-09-13T07:30:50Z</time>
    </trkpt>
    <trkpt lat="50.9577305" lon="6.9003363">
      <time>2023-09-13T07:30:52Z</time>
    </trkpt>
    <trkpt lat="50.9576709" lon="6.9004802">
      <time>2023-09-13T07:30:54Z</time>
    </trkpt>
    <trkpt lat="50.9576377" lon="6.9005565">
      <time>2023-09-13T07:30:55Z</time>
    </trkpt>
    <trkpt lat="50.9576100" lon="6.9006389">
      <time>2023-09-13T07:30:56Z</time>
    </trkpt>
    <trkpt lat="50.9575635" lon="6.9008056">
      <time>2023-09-13T07:30:58Z</time>
    </trkpt>
    <trkpt lat="50.9575353" lon="6.9008891">
      <time>2023-09-13T07:30:59Z</time>
    </trkpt>
    <trkpt lat="50.9574591" lon="6.9011362">
      <time>2023-09-13T07:31:02Z</time>
    </trkpt>
    <trkpt lat="50.9573870" lon="6.9013897">
      <time>2023-09-13T07:31:05Z</time>
    </trkpt>
    <trkpt lat="50.9572990" lon="6.9017436">
      <time>2023-09-13T07:31:09Z</time>
    </trkpt>
    <trkpt lat="50.9572441" lon="6.9019009">
      <time>2023-09-13T07:31:11Z</time>
    </trkpt>
    <trkpt lat="50.9571739" lon="6.9020510">
      <time>2023-09-13T07:31:13Z</time>
    </trkpt>
    <trkpt lat="50.9570950" lon="6.9022088">
      <time>2023-09-13T07:31:15Z</time>
    </trkpt>
    <trkpt lat="50.9570565" lon="6.9022891">
      <time>2023-09-13T07:31:16Z</time>
    </trkpt>
    <trkpt lat="50.9569265" lon="6.9026519">
      <time>2023-09-13T07:31:21Z</time>
    </trkpt>
    <trkpt lat="50.9568409" lon="6.9029077">
      <time>2023-09-13T07:31:26Z</time>
    </trkpt>
    <trkpt lat="50.9568015" lon="6.9029616">
      <time>2023-09-13T07:31:29Z</time>
    </trkpt>
    <trkpt lat="50.9567978" lon="6.9029713">
      <time>2023-09-13T07:31:30Z</time>
    </trkpt>
    <trkpt lat="50.9567885" lon="6.9030121">
      <time>2023-09-13T07:31:34Z</time>
    </trkpt>
    <trkpt lat="50.9567767" lon="6.9030336">
      <time>2023-09-13T07:31:35Z</time>
    </trkpt>
    <trkpt lat="50.9567327" lon="6.9031385">
      <time>2023-09-13T07:31:38Z</time>
    </trkpt>
    <trkpt lat="50.9567209" lon="6.9031951">
      <time>2023-09-13T07:31:39Z</time>
    </trkpt>
    <trkpt lat="50.9566702" lon="6.9034934">
      <time>2023-09-13T07:31:43Z</time>
    </trkpt>
    <trkpt lat="50.9565696" lon="6.9038058">
      <time>2023-09-13T07:31:47Z</time>
    </trkpt>
    <trkpt lat="50.9565304" lon="6.9039649">
      <time>2023-09-13T07:31:49Z</time>
    </trkpt>
    <trkpt lat="50.9565035" lon="6.9040409">
      <time>2023-09-13T07:31:50Z</time>
    </trkpt>
    <trkpt lat="50.9564614" lon="6.9041926">
      <time>2023-09-13T07:31:52Z</time>
    </trkpt>
    <trkpt lat="50.9563455" lon="6.9046937">
      <time>2023-09-13T07:31:58Z</time>
    </trkpt>
    <trkpt lat="50.9562868" lon="6.9050294">
      <time>2023-09-13T07:32:02Z</time>
    </trkpt>
    <trkpt lat="50.9562619" lon="6.9051891">
      <time>2023-09-13T07:32:04Z</time>
    </trkpt>
    <trkpt lat="50.9562515" lon="6.9052706">
      <time>2023-09-13T07:32:05Z</time>
    </trkpt>
    <trkpt lat="50.9562164" lon="6.9054230">
      <time>2023-09-13T07:32:07Z</time>
    </trkpt>
    <trkpt lat="50.9561897" lon="6.9054997">
      <time>2023-09-13T07:32:08Z</time>
    </trkpt>
    <trkpt lat="50.9560183" lon="6.9059353">
      <time>2023-09-13T07:32:14Z</time>
    </trkpt>
    <trkpt lat="50.9559814" lon="6.9060039">
      <time>2023-09-13T07:32:15Z</time>
    </trkpt>
    <trkpt lat="50.9558707" lon="6.9063098">
      <time>2023-09-13T07:32:19Z</time>
    </trkpt>
    <trkpt lat="50.9558255" lon="6.9064648">
      <time>2023-09-13T07:32:21Z</time>
    </trkpt>
    <trkpt lat="50.9556864" lon="6.9068397">
      <time>2023-09-13T07:32:26Z</time>
    </trkpt>
    <trkpt lat="50.9556319" lon="6.9069883">
      <time>2023-09-13T07:32:28Z</time>
    </trkpt>
    <trkpt lat="50.9555416" lon="6.9071511">
      <time>2023-09-13T07:32:30Z</time>
    </trkpt>
    <trkpt lat="50.9554804" lon="6.9073086">
      <time>2023-09-13T07:32:32Z</time>
    </trkpt>
    <trkpt lat="50.9553619" lon="6.9076815">
      <time>2023-09-13T07:32:37Z</time>
    </trkpt>
    <trkpt lat="50.9552626" lon="6.9079943">
      <time>2023-09-13T07:32:41Z</time>
    </trkpt>
    <trkpt lat="50.9551477" lon="6.9082970">
      <time>2023-09-13T07:32:45Z</time>
    </trkpt>
    <trkpt lat="50.9551273" lon="6.9083745">
      <time>2023-09-13T07:32:46Z</time>
    </trkpt>
    <trkpt lat="50.9550109" lon="6.9087680">
      <time>2023-09-13T07:32:51Z</time>
    </trkpt>
    <trkpt lat="50.9549840" lon="6.9088307">
      <time>2023-09-13T07:32:52Z</time>
    </trkpt>
    <trkpt lat="50.9548144" lon="6.9094000">
      <time>2023-09-13T07:33:00Z</time>
    </trkpt>
    <trkpt lat="50.9547388" lon="6.9097151">
      <time>2023-09-13T07:33:05Z</time>
    </trkpt>
    <trkpt lat="50.9546943" lon="6.9098252">
      <time>2023-09-13T07:33:09Z</time>
    </trkpt>
    <trkpt lat="50.9546829" lon="6.9098904">
      <time>2023-09-13T07:33:13Z</time>
    </trkpt>
    <trkpt lat="50.9546770" lon="6.9099083">
      <time>2023-09-13T07:33:15Z</time>
    </trkpt>
    <trkpt lat="50.9546770" lon="6.9099083">
      <time>2023-09-13T07:33:17Z</time>
    </trkpt>
    <trkpt lat="50.9546427" lon="6.9099927">
      <time>2023-09-13T07:33:27Z</time>
    </trkpt>
    <trkpt lat="50.9546293" lon="6.9100275">
      <time>2023-09-13T07:33:28Z</time>
    </trkpt>
    <trkpt lat="50.9545751" lon="6.9102371">
      <time>2023-09-13T07:33:32Z</time>
    </trkpt>
    <trkpt lat="50.9544631" lon="6.9105535">
      <time>2023-09-13T07:33:37Z</time>
    </trkpt>
    <trkpt lat="50.9544012" lon="6.9106697">
      <time>2023-09-13T07:33:39Z</time>
    </trkpt>
    <trkpt lat="50.9543501" lon="6.9107875">
      <time>2023-09-13T07:33:41Z</time>
    </trkpt>
    <trkpt lat="50.9542909" lon="6.9108908">
      <time>2023-09-13T07:33:43Z</time>
    </trkpt>
    <trkpt lat="50.9541842" lon="6.9110514">
      <time>2023-09-13T07:33:46Z</time>
    </trkpt>
    <trkpt lat="50.9541136" lon="6.9111553">
      <time>2023-09-13T07:33:48Z</time>
    </trkpt>
    <trkpt lat="50.9540834" lon="6.9112076">
      <time>2023-09-13T07:33:49Z</time>
    </trkpt>
    <trkpt lat="50.9540122" lon="6.9113240">
      <time>2023-09-13T07:33:51Z</time>
    </trkpt>
    <trkpt lat="50.9539855" lon="6.9113816">
      <time>2023-09-13T07:33:52Z</time>
    </trkpt>
    <trkpt lat="50.9538028" lon="6.9116480">
      <time>2023-09-13T07:33:57Z</time>
    </trkpt>
    <trkpt lat="50.9536864" lon="6.9117783">
      <time>2023-09-13T07:33:59Z</time>
    </trkpt>
    <trkpt lat="50.9536531" lon="6.9118412">
      <time>2023-09-13T07:34:00Z</time>
    </trkpt>
    <trkpt lat="50.9534925" lon="6.9120864">
      <time>2023-09-13T07:34:04Z</time>
    </trkpt>
    <trkpt lat="50.9533504" lon="6.9122655">
      <time>2023-09-13T07:34:07Z</time>
    </trkpt>
    <trkpt lat="50.9531702" lon="6.9124899">
      <time>2023-09-13T07:34:11Z</time>
    </trkpt>
    <trkpt lat="50.9528540" lon="6.9129794">
      <time>2023-09-13T07:34:19Z</time>
    </trkpt>
    <trkpt lat="50.9527395" lon="6.9131626">
      <time>2023-09-13T07:34:22Z</time>
    </trkpt>
    <trkpt lat="50.9525092" lon="6.9135262">
      <time>2023-09-13T07:34:28Z</time>
    </trkpt>
    <trkpt lat="50.9523806" lon="6.9137003">
      <time>2023-09-13T07:34:31Z</time>
    </trkpt>
    <trkpt lat="50.9522620" lon="6.9138837">
      <time>2023-09-13T07:34:34Z</time>
    </trkpt>
    <trkpt lat="50.9521420" lon="6.9141136">
      <time>2023-09-13T07:34:38Z</time>
    </trkpt>
    <trkpt lat="50.9520758" lon="6.9142261">
      <time>2023-09-13T07:34:40Z</time>
    </trkpt>
    <trkpt lat="50.9520007" lon="6.9143477">
      <time>2023-09-13T07:34:42Z</time>
    </trkpt>
    <trkpt lat="50.9519164" lon="6.9145219">
      <time>2023-09-13T07:34:45Z</time>
    </trkpt>
    <trkpt lat="50.9518407" lon="6.9146599">
      <time>2023-09-13T07:34:47Z</time>
    </trkpt>
    <trkpt lat="50.9517262" lon="6.9148628">
      <time>2023-09-13T07:34:51Z</time>
    </trkpt>
    <trkpt lat="50.9514787" lon="6.9153163">
      <time>2023-09-13T07:34:59Z</time>
    </trkpt>
    <trkpt lat="50.9512569" lon="6.9153231">
      <time>2023-09-13T07:35:01Z</time>
    </trkpt>
    <trkpt lat="50.9510914" lon="6.9155696">
      <time>2023-09-13T07:35:05Z</time>
    </trkpt>
    <trkpt lat="50.9510524" lon="6.9156237">
      <time>2023-09-13T07:35:06Z</time>
    </trkpt>
    <trkpt lat="50.9509235" lon="6.9158589">
      <time>2023-09-13T07:35:11Z</time>
    </trkpt>
    <trkpt lat="50.9509005" lon="6.9159247">
      <time>2023-09-13T07:35:12Z</time>
    </trkpt>
    <trkpt lat="50.9508440" lon="6.9161070">
      <time>2023-09-13T07:35:16Z</time>
    </trkpt>
    <trkpt lat="50.9508149" lon="6.9161492">
      <time>2023-09-13T07:35:17Z</time>
    </trkpt>
    <trkpt lat="50.9506451" lon="6.9163584">
      <time>2023-09-13T07:35:23Z</time>
    </trkpt>
    <trkpt lat="50.9505047" lon="6.9165417">
      <time>2023-09-13T07:35:29Z</time>
    </trkpt>
    <trkpt lat="50.9504099" lon="6.9165684">
      <time>2023-09-13T07:35:31Z</time>
    </trkpt>
    <trkpt lat="50.9503617" lon="6.9165582">
      <time>2023-09-13T07:35:32Z</time>
    </trkpt>
    <trkpt lat="50.9503133" lon="6.9165277">
      <time>2023-09-13T07:35:33Z</time>
    </trkpt>
    <trkpt lat="50.9501688" lon="6.9164149">
      <time>2023-09-13T07:35:36Z</time>
    </trkpt>
    <trkpt lat="50.9500258" lon="6.9163380">
      <time>2023-09-13T07:35:38Z</time>
    </trkpt>
    <trkpt lat="50.9498713" lon="6.9162174">
      <time>2023-09-13T07:35:41Z</time>
    </trkpt>
    <trkpt lat="50.9497165" lon="6.9160088">
      <time>2023-09-13T07:35:47Z</time>
    </trkpt>
    <trkpt lat="50.9496629" lon="6.9159342">
      <time>2023-09-13T07:35:52Z</time>
    </trkpt>
    <trkpt lat="50.9495289" lon="6.9157708">
      <time>2023-09-13T07:35:56Z</time>
    </trkpt>
    <trkpt lat="50.9492633" lon="6.9154984">
      <time>2023-09-13T07:36:02Z</time>
    </trkpt>
    <trkpt lat="50.9491890" lon="6.9154033">
      <time>2023-09-13T07:36:04Z</time>
    </trkpt>
    <trkpt lat="50.9491156" lon="6.9152837">
      <time>2023-09-13T07:36:06Z</time>
    </trkpt>
    <trkpt lat="50.9490711" lon="6.9152306">
      <time>2023-09-13T07:36:07Z</time>
    </trkpt>
    <trkpt lat="50.9487936" lon="6.9150052">
      <time>2023-09-13T07:36:13Z</time>
    </trkpt>
    <trkpt lat="50.9486798" lon="6.9149394">
      <time>2023-09-13T07:36:17Z</time>
    </trkpt>
    <trkpt lat="50.9485093" lon="6.9147654">
      <time>2023-09-13T07:36:22Z</time>
    </trkpt>
    <trkpt lat="50.9484379" lon="6.9146820">
      <time>2023-09-13T07:36:24Z</time>
    </trkpt>
    <trkpt lat="50.9483640" lon="6.9146255">
      <time>2023-09-13T07:36:26Z</time>
    </trkpt>
    <trkpt lat="50.9483191" lon="6.9145860">
      <time>2023-09-13T07:36:27Z</time>
    </trkpt>
    <trkpt lat="50.9482212" lon="6.9145004">
      <time>2023-09-13T07:36:29Z</time>
    </trkpt>
    <trkpt lat="50.9481317" lon="6.9144291">
      <time>2023-09-13T07:36:31Z</time>
    </trkpt>
    <trkpt lat="50.9479185" lon="6.9142719">
      <time>2023-09-13T07:36:35Z</time>
    </trkpt>
    <trkpt lat="50.9478637" lon="6.9142219">
      <time>2023-09-13T07:36:36Z</time>
    </trkpt>
    <trkpt lat="50.9477664" lon="6.9141280">
      <time>2023-09-13T07:36:38Z</time>
    </trkpt>
    <trkpt lat="50.9476688" lon="6.9140597">
      <time>2023-09-13T07:36:40Z</time>
    </trkpt>
    <trkpt lat="50.9476143" lon="6.9140505">
      <time>2023-09-13T07:36:41Z</time>
    </trkpt>
    <trkpt lat="50.9472627" lon="6.9137060">
      <time>2023-09-13T07:36:48Z</time>
    </trkpt>
    <trkpt lat="50.9471572" lon="6.9136398">
      <time>2023-09-13T07:36:50Z</time>
    </trkpt>
    <trkpt lat="50.9469947" lon="6.9135033">
      <time>2023-09-13T07:36:53Z</time>
    </trkpt>
    <trkpt lat="50.9468235" lon="6.9133751">
      <time>2023-09-13T07:36:56Z</time>
    </trkpt>
    <trkpt lat="50.9466602" lon="6.9132755">
      <time>2023-09-13T07:36:59Z</time>
    </trkpt>
    <trkpt lat="50.9466071" lon="6.9132527">
      <time>2023-09-13T07:37:00Z</time>
    </trkpt>
    <trkpt lat="50.9465588" lon="6.9132288">
      <time>2023-09-13T07:37:01Z</time>
    </trkpt>
    <trkpt lat="50.9464644" lon="6.9131870">
      <time>2023-09-13T07:37:03Z</time>
    </trkpt>
    <trkpt lat="50.9463237" lon="6.9131177">
      <time>2023-09-13T07:37:06Z</time>
    </trkpt>
    <trkpt lat="50.9462978" lon="6.9130884">
      <time>2023-09-13T07:37:07Z</time>
    </trkpt>
    <trkpt lat="50.9462204" lon="6.9130432">
      <time>2023-09-13T07:37:10Z</time>
    </trkpt>
    <trkpt lat="50.9459467" lon="6.9129878">
      <time>2023-09-13T07:37:14Z</time>
    </trkpt>
    <trkpt lat="50.9458639" lon="6.9129527">
      <time>2023-09-13T07:37:15Z</time>
    </trkpt>
    <trkpt lat="50.9458002" lon="6.9129058">
      <time>2023-09-13T07:37:16Z</time>
    </trkpt>
    <trkpt lat="50.9456590" lon="6.9128282">
      <time>2023-09-13T07:37:19Z</time>
    </trkpt>
    <trkpt lat="50.9453271" lon="6.9127842">
      <time>2023-09-13T07:37:24Z</time>
    </trkpt>
    <trkpt lat="50.9450289" lon="6.9127534">
      <time>2023-09-13T07:37:28Z</time>
    </trkpt>
    <trkpt lat="50.9449755" lon="6.9127150">
      <time>2023-09-13T07:37:29Z</time>
    </trkpt>
    <trkpt lat="50.9448514" lon="6.9126663">
      <time>2023-09-13T07:37:31Z</time>
    </trkpt>
    <trkpt lat="50.9446777" lon="6.9126587">
      <time>2023-09-13T07:37:34Z</time>
    </trkpt>
    <trkpt lat="50.9444808" lon="6.9126874">
      <time>2023-09-13T07:37:37Z</time>
    </trkpt>
    <trkpt lat="50.9441622" lon="6.9127191">
      <time>2023-09-13T07:37:42Z</time>
    </trkpt>
    <trkpt lat="50.9440516" lon="6.9127083">
      <time>2023-09-13T07:37:44Z</time>
    </trkpt>
    <trkpt lat="50.9438699" lon="6.9127260">
      <time>2023-09-13T07:37:47Z</time>
    </trkpt>
    <trkpt lat="50.9437536" lon="6.9127385">
      <time>2023-09-13T07:37:49Z</time>
    </trkpt>
    <trkpt lat="50.9435278" lon="6.9127912">
      <time>2023-09-13T07:37:53Z</time>
    </trkpt>
    <trkpt lat="50.9434479" lon="6.9128030">
      <time>2023-09-13T07:37:55Z</time>
    </trkpt>
    <trkpt lat="50.9433531" lon="6.9128484">
      <time>2023-09-13T07:37:59Z</time>
    </trkpt>
    <trkpt lat="50.9432634" lon="6.9128237">
      <time>2023-09-13T07:38:03Z</time>
    </trkpt>
    <trkpt lat="50.9432339" lon="6.9128337">
      <time>2023-09-13T07:38:04Z</time>
    </trkpt>
    <trkpt lat="50.9431621" lon="6.9128551">
      <time>2023-09-13T07:38:06Z</time>
    </trkpt>
    <trkpt lat="50.9430731" lon="6.9128433">
      <time>2023-09-13T07:38:08Z</time>
    </trkpt>
    <trkpt lat="50.9429725" lon="6.9128329">
      <time>2023-09-13T07:38:10Z</time>
    </trkpt>
    <trkpt lat="50.9427378" lon="6.9128620">
      <time>2023-09-13T07:38:14Z</time>
    </trkpt>
    <trkpt lat="50.9424547" lon="6.9128680">
      <time>2023-09-13T07:38:18Z</time>
    </trkpt>
    <trkpt lat="50.9423147" lon="6.9128466">
      <time>2023-09-13T07:38:20Z</time>
    </trkpt>
    <trkpt lat="50.9421322" lon="6.9127462">
      <time>2023-09-13T07:38:23Z</time>
    </trkpt>
    <trkpt lat="50.9417521" lon="6.9124794">
      <time>2023-09-13T07:38:30Z</time>
    </trkpt>
    <trkpt lat="50.9416830" lon="6.9124594">
      <time>2023-09-13T07:38:31Z</time>
    </trkpt>
    <trkpt lat="50.9412913" lon="6.9121961">
      <time>2023-09-13T07:38:38Z</time>
    </trkpt>
    <trkpt lat="50.9411331" lon="6.9120686">
      <time>2023-09-13T07:38:41Z</time>
    </trkpt>
    <trkpt lat="50.9409314" lon="6.9118777">
      <time>2023-09-13T07:38:45Z</time>
    </trkpt>
    <trkpt lat="50.9407796" lon="6.9117367">
      <time>2023-09-13T07:38:48Z</time>
    </trkpt>
    <trkpt lat="50.9407397" lon="6.9116993">
      <time>2023-09-13T07:38:49Z</time>
    </trkpt>
    <trkpt lat="50.9405908" lon="6.9115390">
      <time>2023-09-13T07:38:52Z</time>
    </trkpt>
    <trkpt lat="50.9404586" lon="6.9114228">
      <time>2023-09-13T07:38:55Z</time>
    </trkpt>
    <trkpt lat="50.9403579" lon="6.9113328">
      <time>2023-09-13T07:38:57Z</time>
    </trkpt>
    <trkpt lat="50.9403200" lon="6.9113027">
      <time>2023-09-13T07:38:58Z</time>
    </trkpt>
    <trkpt lat="50.9400820" lon="6.9110697">
      <time>2023-09-13T07:39:04Z</time>
    </trkpt>
    <trkpt lat="50.9399494" lon="6.9109556">
      <time>2023-09-13T07:39:09Z</time>
    </trkpt>
    <trkpt lat="50.9397056" lon="6.9107534">
      <time>2023-09-13T07:39:15Z</time>
    </trkpt>
    <trkpt lat="50.9396533" lon="6.9106966">
      <time>2023-09-13T07:39:16Z</time>
    </trkpt>
    <trkpt lat="50.9395618" lon="6.9106099">
      <time>2023-09-13T07:39:18Z</time>
    </trkpt>
    <trkpt lat="50.9395074" lon="6.9105694">
      <time>2023-09-13T07:39:19Z</time>
    </trkpt>
    <trkpt lat="50.9394701" lon="6.9105284">
      <time>2023-09-13T07:39:20Z</time>
    </trkpt>
    <trkpt lat="50.9393295" lon="6.9103619">
      <time>2023-09-13T07:39:23Z</time>
    </trkpt>
    <trkpt lat="50.9392854" lon="6.9103116">
      <time>2023-09-13T07:39:24Z</time>
    </trkpt>
    <trkpt lat="50.9390190" lon="6.9100971">
      <time>2023-09-13T07:39:29Z</time>
    </trkpt>
    <trkpt lat="50.9389118" lon="6.9100118">
      <time>2023-09-13T07:39:31Z</time>
    </trkpt>
    <trkpt lat="50.9387559" lon="6.9099033">
      <time>2023-09-13T07:39:34Z</time>
    </trkpt>
    <trkpt lat="50.9387058" lon="6.9098523">
      <time>2023-09-13T07:39:35Z</time>
    </trkpt>
    <trkpt lat="50.9386668" lon="6.9098157">
      <time>2023-09-13T07:39:36Z</time>
    </trkpt>
    <trkpt lat="50.9385738" lon="6.9097189">
      <time>2023-09-13T07:39:38Z</time>
    </trkpt>
    <trkpt lat="50.9384286" lon="6.9096044">
      <time>2023-09-13T07:39:42Z</time>
    </trkpt>
    <trkpt lat="50.9383889" lon="6.9095726">
      <time>2023-09-13T07:39:45Z</time>
    </trkpt>
    <trkpt lat="50.9383860" lon="6.9095570">
      <time>2023-09-13T07:39:46Z</time>
    </trkpt>
    <trkpt lat="50.9383813" lon="6.9095448">
      <time>2023-09-13T07:39:47Z</time>
    </trkpt>
    <trkpt lat="50.9383611" lon="6.9094956">
      <time>2023-09-13T07:39:51Z</time>
    </trkpt>
    <trkpt lat="50.9383590" lon="6.9094915">
      <time>2023-09-13T07:39:54Z</time>
    </trkpt>
    <trkpt lat="50.9382969" lon="6.9094463">
      <time>2023-09-13T07:40:50Z</time>
    </trkpt>
    <trkpt lat="50.9382746" lon="6.9094178">
      <time>2023-09-13T07:40:51Z</time>
    </trkpt>
    <trkpt lat="50.9381507" lon="6.9091941">
      <time>2023-09-13T07:40:56Z</time>
    </trkpt>
    <trkpt lat="50.9381026" lon="6.9090809">
      <time>2023-09-13T07:40:58Z</time>
    </trkpt>
    <trkpt lat="50.9379975" lon="6.9089105">
      <time>2023-09-13T07:41:01Z</time>
    </trkpt>
    <trkpt lat="50.9378563" lon="6.9087844">
      <time>2023-09-13T07:41:04Z</time>
    </trkpt>
    <trkpt lat="50.9376672" lon="6.9086887">
      <time>2023-09-13T07:41:07Z</time>
    </trkpt>
    <trkpt lat="50.9373064" lon="6.9086026">
      <time>2023-09-13T07:41:13Z</time>
    </trkpt>
    <trkpt lat="50.9372120" lon="6.9085656">
      <time>2023-09-13T07:41:15Z</time>
    </trkpt>
    <trkpt lat="50.9371334" lon="6.9085383">
      <time>2023-09-13T07:41:17Z</time>
    </trkpt>
    <trkpt lat="50.9370930" lon="6.9085254">
      <time>2023-09-13T07:41:19Z</time>
    </trkpt>
    <trkpt lat="50.9370782" lon="6.9085149">
      <time>2023-09-13T07:41:21Z</time>
    </trkpt>
    <trkpt lat="50.9370782" lon="6.9085149">
      <time>2023-09-13T07:41:23Z</time>
    </trkpt>
    <trkpt lat="50.9370320" lon="6.9085216">
      <time>2023-09-13T07:41:44Z</time>
    </trkpt>
    <trkpt lat="50.9370119" lon="6.9085062">
      <time>2023-09-13T07:41:45Z</time>
    </trkpt>
    <trkpt lat="50.9368728" lon="6.9084571">
      <time>2023-09-13T07:41:49Z</time>
    </trkpt>
    <trkpt lat="50.9368273" lon="6.9084315">
      <time>2023-09-13T07:41:50Z</time>
    </trkpt>
    <trkpt lat="50.9366147" lon="6.9083317">
      <time>2023-09-13T07:41:54Z</time>
    </trkpt>
    <trkpt lat="50.9362623" lon="6.9081959">
      <time>2023-09-13T07:41:59Z</time>
    </trkpt>
    <trkpt lat="50.9357716" lon="6.9080780">
      <time>2023-09-13T07:42:06Z</time>
    </trkpt>
    <trkpt lat="50.9357020" lon="6.9080605">
      <time>2023-09-13T07:42:07Z</time>
    </trkpt>
    <trkpt lat="50.9355557" lon="6.9080381">
      <time>2023-09-13T07:42:09Z</time>
    </trkpt>
    <trkpt lat="50.9355076" lon="6.9080282">
      <time>2023-09-13T07:42:10Z</time>
    </trkpt>
    <trkpt lat="50.9353142" lon="6.9080209">
      <time>2023-09-13T07:42:13Z</time>
    </trkpt>
    <trkpt lat="50.9352473" lon="6.9080135">
      <time>2023-09-13T07:42:14Z</time>
    </trkpt>
    <trkpt lat="50.9351753" lon="6.9080035">
      <time>2023-09-13T07:42:15Z</time>
    </trkpt>
    <trkpt lat="50.9348955" lon="6.9079545">
      <time>2023-09-13T07:42:19Z</time>
    </trkpt>
    <trkpt lat="50.9347644" lon="6.9079157">
      <time>2023-09-13T07:42:21Z</time>
    </trkpt>
    <trkpt lat="50.9346849" lon="6.9079069">
      <time>2023-09-13T07:42:22Z</time>
    </trkpt>
    <trkpt lat="50.9346129" lon="6.9079049">
      <time>2023-09-13T07:42:23Z</time>
    </trkpt>
    <trkpt lat="50.9345446" lon="6.9078934">
      <time>2023-09-13T07:42:24Z</time>
    </trkpt>
    <trkpt lat="50.9344755" lon="6.9078912">
      <time>2023-09-13T07:42:25Z</time>
    </trkpt>
    <trkpt lat="50.9344224" lon="6.9078863">
      <time>2023-09-13T07:42:26Z</time>
    </trkpt>
    <trkpt lat="50.9343529" lon="6.9078761">
      <time>2023-09-13T07:42:27Z</time>
    </trkpt>
    <trkpt lat="50.9342256" lon="6.9078368">
      <time>2023-09-13T07:42:29Z</time>
    </trkpt>
    <trkpt lat="50.9340370" lon="6.9077921">
      <time>2023-09-13T07:42:32Z</time>
    </trkpt>
    <trkpt lat="50.9339572" lon="6.9077850">
      <time>2023-09-13T07:42:33Z</time>
    </trkpt>
    <trkpt lat="50.9339052" lon="6.9077755">
      <time>2023-09-13T07:42:34Z</time>
    </trkpt>
    <trkpt lat="50.9337663" lon="6.9077394">
      <time>2023-09-13T07:42:36Z</time>
    </trkpt>
    <trkpt lat="50.9337063" lon="6.9077381">
      <time>2023-09-13T07:42:37Z</time>
    </trkpt>
    <trkpt lat="50.9334524" lon="6.9077087">
      <time>2023-09-13T07:42:41Z</time>
    </trkpt>
    <trkpt lat="50.9334050" lon="6.9077050">
      <time>2023-09-13T07:42:42Z</time>
    </trkpt>
    <trkpt lat="50.9333353" lon="6.9076843">
      <time>2023-09-13T07:42:43Z</time>
    </trkpt>
    <trkpt lat="50.9332224" lon="6.9076793">
      <time>2023-09-13T07:42:45Z</time>
    </trkpt>
    <trkpt lat="50.9331746" lon="6.9076873">
      <time>2023-09-13T07:42:46Z</time>
    </trkpt>
    <trkpt lat="50.9329322" lon="6.9077033">
      <time>2023-09-13T07:42:50Z</time>
    </trkpt>
    <trkpt lat="50.9326154" lon="6.9077033">
      <time>2023-09-13T07:42:55Z</time>
    </trkpt>
    <trkpt lat="50.9325469" lon="6.9077085">
      <time>2023-09-13T07:42:56Z</time>
    </trkpt>
    <trkpt lat="50.9321337" lon="6.9077256">
      <time>2023-09-13T07:43:02Z</time>
    </trkpt>
    <trkpt lat="50.9319380" lon="6.9077145">
      <time>2023-09-13T07:43:05Z</time>
    </trkpt>
    <trkpt lat="50.9316758" lon="6.9077625">
      <time>2023-09-13T07:43:09Z</time>
    </trkpt>
    <trkpt lat="50.9314388" lon="6.9077917">
      <time>2023-09-13T07:43:13Z</time>
    </trkpt>
    <trkpt lat="50.9313967" lon="6.9077980">
      <time>2023-09-13T07:43:14Z</time>
    </trkpt>
    <trkpt lat="50.9313642" lon="6.9078123">
      <time>2023-09-13T07:43:15Z</time>
    </trkpt>
    <trkpt lat="50.9312643" lon="6.9078414">
      <time>2023-09-13T07:43:17Z</time>
    </trkpt>
    <trkpt lat="50.9312142" lon="6.9078499">
      <time>2023-09-13T07:43:18Z</time>
    </trkpt>
    <trkpt lat="50.9310588" lon="6.9078570">
      <time>2023-09-13T07:43:21Z</time>
    </trkpt>
    <trkpt lat="50.9309583" lon="6.9078416">
      <time>2023-09-13T07:43:23Z</time>
    </trkpt>
    <trkpt lat="50.9306841" lon="6.9079012">
      <time>2023-09-13T07:43:27Z</time>
    </trkpt>
    <trkpt lat="50.9304820" lon="6.9079378">
      <time>2023-09-13T07:43:30Z</time>
    </trkpt>
    <trkpt lat="50.9302547" lon="6.9079875">
      <time>2023-09-13T07:43:33Z</time>
    </trkpt>
    <trkpt lat="50.9298481" lon="6.9080690">
      <time>2023-09-13T07:43:39Z</time>
    </trkpt>
    <trkpt lat="50.9295132" lon="6.9081775">
      <time>2023-09-13T07:43:44Z</time>
    </trkpt>
    <trkpt lat="50.9293888" lon="6.9081925">
      <time>2023-09-13T07:43:46Z</time>
    </trkpt>
    <trkpt lat="50.9288803" lon="6.9083463">
      <time>2023-09-13T07:43:54Z</time>
    </trkpt>
    <trkpt lat="50.9285849" lon="6.9084508">
      <time>2023-09-13T07:43:59Z</time>
    </trkpt>
    <trkpt lat="50.9282425" lon="6.9085446">
      <time>2023-09-13T07:44:05Z</time>
    </trkpt>
    <trkpt lat="50.9281932" lon="6.9085689">
      <time>2023-09-13T07:44:06Z</time>
    </trkpt>
    <trkpt lat="50.9280996" lon="6.9086008">
      <time>2023-09-13T07:44:08Z</time>
    </trkpt>
    <trkpt lat="50.9280010" lon="6.9086160">
      <time>2023-09-13T07:44:10Z</time>
    </trkpt>
    <trkpt lat="50.9278009" lon="6.9087233">
      <time>2023-09-13T07:44:16Z</time>
    </trkpt>
    <trkpt lat="50.9277818" lon="6.9087350">
      <time>2023-09-13T07:44:18Z</time>
    </trkpt>
    <trkpt lat="50.9277795" lon="6.9087329">
      <time>2023-09-13T07:44:19Z</time>
    </trkpt>
    <trkpt lat="50.9277795" lon="6.9087329">
      <time>2023-09-13T07:44:21Z</time>
    </trkpt>
    <trkpt lat="50.9277427" lon="6.9087601">
      <time>2023-09-13T07:44:36Z</time>
    </trkpt>
    <trkpt lat="50.9277269" lon="6.9087834">
      <time>2023-09-13T07:44:37Z</time>
    </trkpt>
    <trkpt lat="50.9276406" lon="6.9088909">
      <time>2023-09-13T07:44:40Z</time>
    </trkpt>
    <trkpt lat="50.9275901" lon="6.9089276">
      <time>2023-09-13T07:44:41Z</time>
    </trkpt>
    <trkpt lat="50.9275446" lon="6.9089500">
      <time>2023-09-13T07:44:42Z</time>
    </trkpt>
    <trkpt lat="50.9274601" lon="6.9090055">
      <time>2023-09-13T07:44:44Z</time>
    </trkpt>
    <trkpt lat="50.9274056" lon="6.9090550">
      <time>2023-09-13T07:44:45Z</time>
    </trkpt>
    <trkpt lat="50.9271675" lon="6.9093086">
      <time>2023-09-13T07:44:50Z</time>
    </trkpt>
    <trkpt lat="50.9269198" lon="6.9095417">
      <time>2023-09-13T07:44:54Z</time>
    </trkpt>
    <trkpt lat="50.9268724" lon="6.9095791">
      <time>2023-09-13T07:44:55Z</time>
    </trkpt>
    <trkpt lat="50.9266231" lon="6.9097898">
      <time>2023-09-13T07:45:00Z</time>
    </trkpt>
    <trkpt lat="50.9263740" lon="6.9100380">
      <time>2023-09-13T07:45:05Z</time>
    </trkpt>
    <trkpt lat="50.9263401" lon="6.9100773">
      <time>2023-09-13T07:45:06Z</time>
    </trkpt>
    <trkpt lat="50.9262693" lon="6.9101284">
      <time>2023-09-13T07:45:07Z</time>
    </trkpt>
    <trkpt lat="50.9261092" lon="6.9102723">
      <time>2023-09-13T07:45:10Z</time>
    </trkpt>
    <trkpt lat="50.9259333" lon="6.9104291">
      <time>2023-09-13T07:45:14Z</time>
    </trkpt>
    <trkpt lat="50.9257910" lon="6.9105418">
      <time>2023-09-13T07:45:17Z</time>
    </trkpt>
    <trkpt lat="50.9254893" lon="6.9108517">
      <time>2023-09-13T07:45:23Z</time>
    </trkpt>
    <trkpt lat="50.9252036" lon="6.9110961">
      <time>2023-09-13T07:45:28Z</time>
    </trkpt>
    <trkpt lat="50.9250974" lon="6.9111971">
      <time>2023-09-13T07:45:30Z</time>
    </trkpt>
    <trkpt lat="50.9247721" lon="6.9114141">
      <time>2023-09-13T07:45:35Z</time>
    </trkpt>
    <trkpt lat="50.9246179" lon="6.9115045">
      <time>2023-09-13T07:45:37Z</time>
    </trkpt>
    <trkpt lat="50.9245245" lon="6.9115792">
      <time>2023-09-13T07:45:40Z</time>
    </trkpt>
    <trkpt lat="50.9244881" lon="6.9116168">
      <time>2023-09-13T07:45:46Z</time>
    </trkpt>
    <trkpt lat="50.9244881" lon="6.9116168">
      <time>2023-09-13T07:45:47Z</time>
    </trkpt>
    <trkpt lat="50.9244358" lon="6.9116179">
      <time>2023-09-13T07:46:30Z</time>
    </trkpt>
    <trkpt lat="50.9244066" lon="6.9116301">
      <time>2023-09-13T07:46:31Z</time>
    </trkpt>
    <trkpt lat="50.9243719" lon="6.9116448">
      <time>2023-09-13T07:46:32Z</time>
    </trkpt>
    <trkpt lat="50.9241338" lon="6.9117650">
      <time>2023-09-13T07:46:37Z</time>
    </trkpt>
    <trkpt lat="50.9238100" lon="6.9119520">
      <time>2023-09-13T07:46:43Z</time>
    </trkpt>
    <trkpt lat="50.9236392" lon="6.9120064">
      <time>2023-09-13T07:46:46Z</time>
    </trkpt>
    <trkpt lat="50.9235359" lon="6.9120132">
      <time>2023-09-13T07:46:48Z</time>
    </trkpt>
    <trkpt lat="50.9234743" lon="6.9120102">
      <time>2023-09-13T07:46:50Z</time>
    </trkpt>
    <trkpt lat="50.9234663" lon="6.9120168">
      <time>2023-09-13T07:46:51Z</time>
    </trkpt>
    <trkpt lat="50.9234663" lon="6.9120168">
      <time>2023-09-13T07:46:53Z</time>
    </trkpt>
    <trkpt lat="50.9235321" lon="6.9120059">
      <time>2023-09-13T07:47:42Z</time>
    </trkpt>
    <trkpt lat="50.9236379" lon="6.9121490">
      <time>2023-09-13T07:47:46Z</time>
    </trkpt>
    <trkpt lat="50.9237190" lon="6.9122710">
      <time>2023-09-13T07:47:49Z</time>
    </trkpt>
    <trkpt lat="50.9237652" lon="6.9123625">
      <time>2023-09-13T07:47:51Z</time>
    </trkpt>
    <trkpt lat="50.9238116" lon="6.9124952">
      <time>2023-09-13T07:47:54Z</time>
    </trkpt>
    <trkpt lat="50.9238022" lon="6.9125342">
      <time>2023-09-13T07:47:55Z</time>
    </trkpt>
    <trkpt lat="50.9237172" lon="6.9126329">
      <time>2023-09-13T07:47:58Z</time>
    </trkpt>
    <trkpt lat="50.9235113" lon="6.9128175">
      <time>2023-09-13T07:48:04Z</time>
    </trkpt>
    <trkpt lat="50.9232710" lon="6.9129941">
      <time>2023-09-13T07:48:10Z</time>
    </trkpt>
    <trkpt lat="50.9231772" lon="6.9130523">
      <time>2023-09-13T07:48:12Z</time>
    </trkpt>
    <trkpt lat="50.9230542" lon="6.9131368">
      <time>2023-09-13T07:48:15Z</time>
    </trkpt>
    <trkpt lat="50.9229274" lon="6.9132583">
      <time>2023-09-13T07:48:18Z</time>
    </trkpt>
    <trkpt lat="50.9228364" lon="6.9133085">
      <time>2023-09-13T07:48:20Z</time>
    </trkpt>
    <trkpt lat="50.9227943" lon="6.9133360">
      <time>2023-09-13T07:48:21Z</time>
    </trkpt>
    <trkpt lat="50.9227590" lon="6.9133674">
      <time>2023-09-13T07:48:22Z</time>
    </trkpt>
    <trkpt lat="50.9226575" lon="6.9134812">
      <time>2023-09-13T07:48:25Z</time>
    </trkpt>
    <trkpt lat="50.9226271" lon="6.9135108">
      <time>2023-09-13T07:48:26Z</time>
    </trkpt>
    <trkpt lat="50.9225769" lon="6.9135911">
      <time>2023-09-13T07:48:30Z</time>
    </trkpt>
    <trkpt lat="50.9225720" lon="6.9136305">
      <time>2023-09-13T07:48:33Z</time>
    </trkpt>
    <trkpt lat="50.9225690" lon="6.9136630">
      <time>2023-09-13T07:48:34Z</time>
    </trkpt>
    <trkpt lat="50.9225524" lon="6.9137521">
      <time>2023-09-13T07:48:36Z</time>
    </trkpt>
    <trkpt lat="50.9225590" lon="6.9138078">
      <time>2023-09-13T07:48:37Z</time>
    </trkpt>
    <trkpt lat="50.9225729" lon="6.9138671">
      <time>2023-09-13T07:48:38Z</time>
    </trkpt>
    <trkpt lat="50.9226192" lon="6.9140639">
      <time>2023-09-13T07:48:41Z</time>
    </trkpt>
    <trkpt lat="50.9226512" lon="6.9142056">
      <time>2023-09-13T07:48:43Z</time>
    </trkpt>
    <trkpt lat="50.9226690" lon="6.9142774">
      <time>2023-09-13T07:48:44Z</time>
    </trkpt>
    <trkpt lat="50.9227248" lon="6.9145022">
      <time>2023-09-13T07:48:47Z</time>
    </trkpt>
    <trkpt lat="50.9227399" lon="6.9147330">
      <time>2023-09-13T07:48:50Z</time>
    </trkpt>
    <trkpt lat="50.9227496" lon="6.9148133">
      <time>2023-09-13T07:48:51Z</time>
    </trkpt>
    <trkpt lat="50.9227921" lon="6.9151404">
      <time>2023-09-13T07:48:55Z</time>
    </trkpt>
    <trkpt lat="50.9228426" lon="6.9155413">
      <time>2023-09-13T07:49:00Z</time>
    </trkpt>
    <trkpt lat="50.9229262" lon="6.9158974">
      <time>2023-09-13T07:49:05Z</time>
    </trkpt>
    <trkpt lat="50.9229410" lon="6.9159658">
      <time>2023-09-13T07:49:06Z</time>
    </trkpt>
    <trkpt lat="50.9229943" lon="6.9162791">
      <time>2023-09-13T07:49:11Z</time>
    </trkpt>
    <trkpt lat="50.9230060" lon="6.9163372">
      <time>2023-09-13T07:49:12Z</time>
    </trkpt>
    <trkpt lat="50.9230553" lon="6.9164883">
      <time>2023-09-13T07:49:15Z</time>
    </trkpt>
    <trkpt lat="50.9230829" lon="6.9165756">
      <time>2023-09-13T07:49:17Z</time>
    </trkpt>
    <trkpt lat="50.9230990" lon="6.9166668">
      <time>2023-09-13T07:49:21Z</time>
    </trkpt>
    <trkpt lat="50.9231045" lon="6.9166753">
      <time>2023-09-13T07:49:22Z</time>
    </trkpt>
    <trkpt lat="50.9231177" lon="6.9166835">
      <time>2023-09-13T07:49:24Z</time>
    </trkpt>
    <trkpt lat="50.9231189" lon="6.9166883">
      <time>2023-09-13T07:49:26Z</time>
    </trkpt>
    <trkpt lat="50.9231189" lon="6.9166883">
      <time>2023-09-13T07:49:32Z</time>
    </trkpt>
    <trkpt lat="50.9231176" lon="6.9167048">
      <time>2023-09-13T07:49:38Z</time>
    </trkpt>
    <trkpt lat="50.9231207" lon="6.9167014">
      <time>2023-09-13T07:49:39Z</time>
    </trkpt>
    <trkpt lat="50.9231207" lon="6.9167014">
      <time>2023-09-13T07:49:43Z</time>
    </trkpt>
    <trkpt lat="50.9232589" lon="6.9169614">
      <time>2023-09-13T07:50:53Z</time>
    </trkpt>
    <trkpt lat="50.9233048" lon="6.9169659">
      <time>2023-09-13T07:50:55Z</time>
    </trkpt>
    <trkpt lat="50.9518906" lon="6.9140740">
      <time>2023-09-13T08:22:00Z</time>
    </trkpt>
    <trkpt lat="50.9519433" lon="6.9140142">
      <time>2023-09-13T08:22:01Z</time>
    </trkpt>
    <trkpt lat="50.9520769" lon="6.9137994">
      <time>2023-09-13T08:22:04Z</time>
    </trkpt>
    <trkpt lat="50.9521848" lon="6.9136467">
      <time>2023-09-13T08:22:07Z</time>
    </trkpt>
    <trkpt lat="50.9522225" lon="6.9135900">
      <time>2023-09-13T08:22:08Z</time>
    </trkpt>
    <trkpt lat="50.9523302" lon="6.9134183">
      <time>2023-09-13T08:22:11Z</time>
    </trkpt>
    <trkpt lat="50.9525978" lon="6.9130297">
      <time>2023-09-13T08:22:17Z</time>
    </trkpt>
    <trkpt lat="50.9529012" lon="6.9125664">
      <time>2023-09-13T08:22:24Z</time>
    </trkpt>
    <trkpt lat="50.9529537" lon="6.9124848">
      <time>2023-09-13T08:22:25Z</time>
    </trkpt>
    <trkpt lat="50.9531596" lon="6.9121588">
      <time>2023-09-13T08:22:30Z</time>
    </trkpt>
    <trkpt lat="50.9532792" lon="6.9119660">
      <time>2023-09-13T08:22:33Z</time>
    </trkpt>
    <trkpt lat="50.9534098" lon="6.9117813">
      <time>2023-09-13T08:22:36Z</time>
    </trkpt>
    <trkpt lat="50.9538064" lon="6.9112148">
      <time>2023-09-13T08:22:45Z</time>
    </trkpt>
    <trkpt lat="50.9541511" lon="6.9106691">
      <time>2023-09-13T08:22:53Z</time>
    </trkpt>
    <trkpt lat="50.9543795" lon="6.9102633">
      <time>2023-09-13T08:22:59Z</time>
    </trkpt>
    <trkpt lat="50.9544027" lon="6.9102044">
      <time>2023-09-13T08:23:00Z</time>
    </trkpt>
    <trkpt lat="50.9544568" lon="6.9099995">
      <time>2023-09-13T08:23:05Z</time>
    </trkpt>
    <trkpt lat="50.9544569" lon="6.9099792">
      <time>2023-09-13T08:23:09Z</time>
    </trkpt>
    <trkpt lat="50.9544569" lon="6.9099792">
      <time>2023-09-13T08:23:10Z</time>
    </trkpt>
    <trkpt lat="50.9545443" lon="6.9098672">
      <time>2023-09-13T08:23:27Z</time>
    </trkpt>
    <trkpt lat="50.9545727" lon="6.9098156">
      <time>2023-09-13T08:23:28Z</time>
    </trkpt>
    <trkpt lat="50.9546811" lon="6.9094625">
      <time>2023-09-13T08:23:33Z</time>
    </trkpt>
    <trkpt lat="50.9547682" lon="6.9091953">
      <time>2023-09-13T08:23:36Z</time>
    </trkpt>
    <trkpt lat="50.9548208" lon="6.9090040">
      <time>2023-09-13T08:23:38Z</time>
    </trkpt>
    <trkpt lat="50.9548457" lon="6.9089317">
      <time>2023-09-13T08:23:39Z</time>
    </trkpt>
    <trkpt lat="50.9549831" lon="6.9085376">
      <time>2023-09-13T08:23:43Z</time>
    </trkpt>
    <trkpt lat="50.9550487" lon="6.9083348">
      <time>2023-09-13T08:23:45Z</time>
    </trkpt>
    <trkpt lat="50.9550845" lon="6.9082317">
      <time>2023-09-13T08:23:46Z</time>
    </trkpt>
    <trkpt lat="50.9551748" lon="6.9079258">
      <time>2023-09-13T08:23:49Z</time>
    </trkpt>
    <trkpt lat="50.9552011" lon="6.9078437">
      <time>2023-09-13T08:23:50Z</time>
    </trkpt>
    <trkpt lat="50.9552985" lon="6.9074957">
      <time>2023-09-13T08:23:53Z</time>
    </trkpt>
    <trkpt lat="50.9553873" lon="6.9071982">
      <time>2023-09-13T08:23:56Z</time>
    </trkpt>
    <trkpt lat="50.9554154" lon="6.9071019">
      <time>2023-09-13T08:23:57Z</time>
    </trkpt>
    <trkpt lat="50.9556685" lon="6.9063309">
      <time>2023-09-13T08:24:05Z</time>
    </trkpt>
    <trkpt lat="50.9558421" lon="6.9058195">
      <time>2023-09-13T08:24:10Z</time>
    </trkpt>
    <trkpt lat="50.9558864" lon="6.9057280">
      <time>2023-09-13T08:24:11Z</time>
    </trkpt>
    <trkpt lat="50.9560786" lon="6.9052485">
      <time>2023-09-13T08:24:16Z</time>
    </trkpt>
    <trkpt lat="50.9562614" lon="6.9046730">
      <time>2023-09-13T08:24:22Z</time>
    </trkpt>
    <trkpt lat="50.9563386" lon="6.9044994">
      <time>2023-09-13T08:24:24Z</time>
    </trkpt>
    <trkpt lat="50.9563750" lon="6.9044062">
      <time>2023-09-13T08:24:25Z</time>
    </trkpt>
    <trkpt lat="50.9565262" lon="6.9039565">
      <time>2023-09-13T08:24:30Z</time>
    </trkpt>
    <trkpt lat="50.9565767" lon="6.9037893">
      <time>2023-09-13T08:24:32Z</time>
    </trkpt>
    <trkpt lat="50.9566471" lon="6.9035588">
      <time>2023-09-13T08:24:35Z</time>
    </trkpt>
    <trkpt lat="50.9567292" lon="6.9033777">
      <time>2023-09-13T08:24:39Z</time>
    </trkpt>
    <trkpt lat="50.9567460" lon="6.9033097">
      <time>2023-09-13T08:24:42Z</time>
    </trkpt>
    <trkpt lat="50.9567504" lon="6.9032971">
      <time>2023-09-13T08:24:43Z</time>
    </trkpt>
    <trkpt lat="50.9567489" lon="6.9032962">
      <time>2023-09-13T08:24:44Z</time>
    </trkpt>
    <trkpt lat="50.9567399" lon="6.9032612">
      <time>2023-09-13T08:24:46Z</time>
    </trkpt>
    <trkpt lat="50.9567791" lon="6.9031435">
      <time>2023-09-13T08:24:49Z</time>
    </trkpt>
    <trkpt lat="50.9568975" lon="6.9028582">
      <time>2023-09-13T08:24:54Z</time>
    </trkpt>
    <trkpt lat="50.9570083" lon="6.9025001">
      <time>2023-09-13T08:24:58Z</time>
    </trkpt>
    <trkpt lat="50.9571367" lon="6.9019718">
      <time>2023-09-13T08:25:03Z</time>
    </trkpt>
    <trkpt lat="50.9572531" lon="6.9016201">
      <time>2023-09-13T08:25:07Z</time>
    </trkpt>
    <trkpt lat="50.9573329" lon="6.9014432">
      <time>2023-09-13T08:25:09Z</time>
    </trkpt>
    <trkpt lat="50.9574052" lon="6.9012999">
      <time>2023-09-13T08:25:11Z</time>
    </trkpt>
    <trkpt lat="50.9574546" lon="6.9011395">
      <time>2023-09-13T08:25:13Z</time>
    </trkpt>
    <trkpt lat="50.9574997" lon="6.9010036">
      <time>2023-09-13T08:25:15Z</time>
    </trkpt>
    <trkpt lat="50.9575342" lon="6.9009182">
      <time>2023-09-13T08:25:17Z</time>
    </trkpt>
    <trkpt lat="50.9575616" lon="6.9008371">
      <time>2023-09-13T08:25:19Z</time>
    </trkpt>
    <trkpt lat="50.9575782" lon="6.9007930">
      <time>2023-09-13T08:25:21Z</time>
    </trkpt>
    <trkpt lat="50.9575812" lon="6.9007912">
      <time>2023-09-13T08:25:22Z</time>
    </trkpt>
    <trkpt lat="50.9575812" lon="6.9007912">
      <time>2023-09-13T08:25:24Z</time>
    </trkpt>
    <trkpt lat="50.9575933" lon="6.9007008">
      <time>2023-09-13T08:25:27Z</time>
    </trkpt>
    <trkpt lat="50.9576057" lon="6.9006531">
      <time>2023-09-13T08:25:28Z</time>
    </trkpt>
    <trkpt lat="50.9577173" lon="6.9003948">
      <time>2023-09-13T08:25:33Z</time>
    </trkpt>
    <trkpt lat="50.9577487" lon="6.9003233">
      <time>2023-09-13T08:25:34Z</time>
    </trkpt>
    <trkpt lat="50.9578610" lon="6.9000689">
      <time>2023-09-13T08:25:38Z</time>
    </trkpt>
    <trkpt lat="50.9579772" lon="6.8998038">
      <time>2023-09-13T08:25:41Z</time>
    </trkpt>
    <trkpt lat="50.9580674" lon="6.8996340">
      <time>2023-09-13T08:25:43Z</time>
    </trkpt>
    <trkpt lat="50.9582905" lon="6.8990964">
      <time>2023-09-13T08:25:48Z</time>
    </trkpt>
    <trkpt lat="50.9584366" lon="6.8987823">
      <time>2023-09-13T08:25:51Z</time>
    </trkpt>
    <trkpt lat="50.9585832" lon="6.8984649">
      <time>2023-09-13T08:25:54Z</time>
    </trkpt>
    <trkpt lat="50.9589339" lon="6.8977544">
      <time>2023-09-13T08:26:01Z</time>
    </trkpt>
    <trkpt lat="50.9590414" lon="6.8975670">
      <time>2023-09-13T08:26:03Z</time>
    </trkpt>
    <trkpt lat="50.9593037" lon="6.8970042">
      <time>2023-09-13T08:26:09Z</time>
    </trkpt>
    <trkpt lat="50.9594052" lon="6.8968129">
      <time>2023-09-13T08:26:11Z</time>
    </trkpt>
    <trkpt lat="50.9595311" lon="6.8965593">
      <time>2023-09-13T08:26:14Z</time>
    </trkpt>
    <trkpt lat="50.9597730" lon="6.8959704">
      <time>2023-09-13T08:26:21Z</time>
    </trkpt>
    <trkpt lat="50.9598951" lon="6.8956969">
      <time>2023-09-13T08:26:24Z</time>
    </trkpt>
    <trkpt lat="50.9600833" lon="6.8952869">
      <time>2023-09-13T08:26:29Z</time>
    </trkpt>
    <trkpt lat="50.9603674" lon="6.8947054">
      <time>2023-09-13T08:26:36Z</time>
    </trkpt>
    <trkpt lat="50.9604861" lon="6.8944787">
      <time>2023-09-13T08:26:39Z</time>
    </trkpt>
    <trkpt lat="50.9605579" lon="6.8943489">
      <time>2023-09-13T08:26:41Z</time>
    </trkpt>
    <trkpt lat="50.9606027" lon="6.8942507">
      <time>2023-09-13T08:26:42Z</time>
    </trkpt>
    <trkpt lat="50.9607311" lon="6.8939277">
      <time>2023-09-13T08:26:46Z</time>
    </trkpt>
    <trkpt lat="50.9608368" lon="6.8936863">
      <time>2023-09-13T08:26:49Z</time>
    </trkpt>
    <trkpt lat="50.9609444" lon="6.8935584">
      <time>2023-09-13T08:26:51Z</time>
    </trkpt>
    <trkpt lat="50.9610385" lon="6.8934646">
      <time>2023-09-13T08:26:53Z</time>
    </trkpt>
    <trkpt lat="50.9611749" lon="6.8932320">
      <time>2023-09-13T08:26:56Z</time>
    </trkpt>
    <trkpt lat="50.9612845" lon="6.8929965">
      <time>2023-09-13T08:26:59Z</time>
    </trkpt>
    <trkpt lat="50.9613646" lon="6.8928417">
      <time>2023-09-13T08:27:01Z</time>
    </trkpt>
    <trkpt lat="50.9614332" lon="6.8926845">
      <time>2023-09-13T08:27:03Z</time>
    </trkpt>
    <trkpt lat="50.9615265" lon="6.8924483">
      <time>2023-09-13T08:27:06Z</time>
    </trkpt>
    <trkpt lat="50.9617282" lon="6.8919856">
      <time>2023-09-13T08:27:12Z</time>
    </trkpt>
    <trkpt lat="50.9620275" lon="6.8913415">
      <time>2023-09-13T08:27:20Z</time>
    </trkpt>
    <trkpt lat="50.9623432" lon="6.8906579">
      <time>2023-09-13T08:27:28Z</time>
    </trkpt>
    <trkpt lat="50.9625936" lon="6.8900857">
      <time>2023-09-13T08:27:35Z</time>
    </trkpt>
    <trkpt lat="50.9627915" lon="6.8895845">
      <time>2023-09-13T08:27:41Z</time>
    </trkpt>
    <trkpt lat="50.9628610" lon="6.8894365">
      <time>2023-09-13T08:27:43Z</time>
    </trkpt>
    <trkpt lat="50.9631459" lon="6.8890214">
      <time>2023-09-13T08:27:50Z</time>
    </trkpt>
    <trkpt lat="50.9634061" lon="6.8884779">
      <time>2023-09-13T08:27:58Z</time>
    </trkpt>
    <trkpt lat="50.9635549" lon="6.8881680">
      <time>2023-09-13T08:28:03Z</time>
    </trkpt>
    <trkpt lat="50.9635754" lon="6.8881004">
      <time>2023-09-13T08:28:04Z</time>
    </trkpt>
    <trkpt lat="50.9635971" lon="6.8880336">
      <time>2023-09-13T08:28:05Z</time>
    </trkpt>
    <trkpt lat="50.9636268" lon="6.8878884">
      <time>2023-09-13T08:28:07Z</time>
    </trkpt>
    <trkpt lat="50.9636503" lon="6.8877267">
      <time>2023-09-13T08:28:09Z</time>
    </trkpt>
    <trkpt lat="50.9636636" lon="6.8876451">
      <time>2023-09-13T08:28:10Z</time>
    </trkpt>
    <trkpt lat="50.9637451" lon="6.8873808">
      <time>2023-09-13T08:28:13Z</time>
    </trkpt>
    <trkpt lat="50.9639414" lon="6.8869192">
      <time>2023-09-13T08:28:18Z</time>
    </trkpt>
    <trkpt lat="50.9639875" lon="6.8868227">
      <time>2023-09-13T08:28:19Z</time>
    </trkpt>
    <trkpt lat="50.9642890" lon="6.8861728">
      <time>2023-09-13T08:28:26Z</time>
    </trkpt>
    <trkpt lat="50.9643295" lon="6.8860858">
      <time>2023-09-13T08:28:27Z</time>
    </trkpt>
    <trkpt lat="50.9644858" lon="6.8857476">
      <time>2023-09-13T08:28:31Z</time>
    </trkpt>
    <trkpt lat="50.9647445" lon="6.8851647">
      <time>2023-09-13T08:28:38Z</time>
    </trkpt>
    <trkpt lat="50.9649922" lon="6.8846198">
      <time>2023-09-13T08:28:45Z</time>
    </trkpt>
    <trkpt lat="50.9650389" lon="6.8845403">
      <time>2023-09-13T08:28:46Z</time>
    </trkpt>
    <trkpt lat="50.9651870" lon="6.8842486">
      <time>2023-09-13T08:28:50Z</time>
    </trkpt>
    <trkpt lat="50.9654779" lon="6.8836301">
      <time>2023-09-13T08:28:58Z</time>
    </trkpt>
    <trkpt lat="50.9657563" lon="6.8830161">
      <time>2023-09-13T08:29:06Z</time>
    </trkpt>
    <trkpt lat="50.9657952" lon="6.8829321">
      <time>2023-09-13T08:29:07Z</time>
    </trkpt>
    <trkpt lat="50.9659143" lon="6.8826125">
      <time>2023-09-13T08:29:11Z</time>
    </trkpt>
    <trkpt lat="50.9659727" lon="6.8824586">
      <time>2023-09-13T08:29:13Z</time>
    </trkpt>
    <trkpt lat="50.9660381" lon="6.8822921">
      <time>2023-09-13T08:29:15Z</time>
    </trkpt>
    <trkpt lat="50.9660579" lon="6.8822222">
      <time>2023-09-13T08:29:16Z</time>
    </trkpt>
    <trkpt lat="50.9660947" lon="6.8821220">
      <time>2023-09-13T08:29:17Z</time>
    </trkpt>
    <trkpt lat="50.9662796" lon="6.8816516">
      <time>2023-09-13T08:29:23Z</time>
    </trkpt>
    <trkpt lat="50.9663730" lon="6.8813833">
      <time>2023-09-13T08:29:27Z</time>
    </trkpt>
    <trkpt lat="50.9663997" lon="6.8813244">
      <time>2023-09-13T08:29:28Z</time>
    </trkpt>
    <trkpt lat="50.9664491" lon="6.8812110">
      <time>2023-09-13T08:29:30Z</time>
    </trkpt>
    <trkpt lat="50.9664421" lon="6.8811221">
      <time>2023-09-13T08:29:32Z</time>
    </trkpt>
    <trkpt lat="50.9662500" lon="6.8809018">
      <time>2023-09-13T08:29:37Z</time>
    </trkpt>
    <trkpt lat="50.9658802" lon="6.8805878">
      <time>2023-09-13T08:29:45Z</time>
    </trkpt>
    <trkpt lat="50.9658361" lon="6.8805512">
      <time>2023-09-13T08:29:46Z</time>
    </trkpt>
    <trkpt lat="50.9656086" lon="6.8803455">
      <time>2023-09-13T08:29:51Z</time>
    </trkpt>
    <trkpt lat="50.9652417" lon="6.8799700">
      <time>2023-09-13T08:29:59Z</time>
    </trkpt>
    <trkpt lat="50.9650744" lon="6.8797679">
      <time>2023-09-13T08:30:03Z</time>
    </trkpt>
    <trkpt lat="50.9649819" lon="6.8796590">
      <time>2023-09-13T08:30:05Z</time>
    </trkpt>
    <trkpt lat="50.9649422" lon="6.8796079">
      <time>2023-09-13T08:30:06Z</time>
    </trkpt>
    <trkpt lat="50.9647877" lon="6.8794135">
      <time>2023-09-13T08:30:10Z</time>
    </trkpt>
    <trkpt lat="50.9646413" lon="6.8792161">
      <time>2023-09-13T08:30:14Z</time>
    </trkpt>
    <trkpt lat="50.9644157" lon="6.8788839">
      <time>2023-09-13T08:30:20Z</time>
    </trkpt>
    <trkpt lat="50.9643719" lon="6.8788206">
      <time>2023-09-13T08:30:21Z</time>
    </trkpt>
    <trkpt lat="50.9641696" lon="6.8785425">
      <time>2023-09-13T08:30:26Z</time>
    </trkpt>
    <trkpt lat="50.9640989" lon="6.8784280">
      <time>2023-09-13T08:30:28Z</time>
    </trkpt>
    <trkpt lat="50.9640249" lon="6.8783187">
      <time>2023-09-13T08:30:30Z</time>
    </trkpt>
    <trkpt lat="50.9638352" lon="6.8779969">
      <time>2023-09-13T08:30:36Z</time>
    </trkpt>
    <trkpt lat="50.9636495" lon="6.8776949">
      <time>2023-09-13T08:30:42Z</time>
    </trkpt>
    <trkpt lat="50.9636153" lon="6.8776426">
      <time>2023-09-13T08:30:43Z</time>
    </trkpt>
    <trkpt lat="50.9635258" lon="6.8774940">
      <time>2023-09-13T08:30:46Z</time>
    </trkpt>
    <trkpt lat="50.9634765" lon="6.8773589">
      <time>2023-09-13T08:30:49Z</time>
    </trkpt>
    <trkpt lat="50.9633214" lon="6.8770930">
      <time>2023-09-13T08:30:54Z</time>
    </trkpt>
    <trkpt lat="50.9632879" lon="6.8770634">
      <time>2023-09-13T08:30:55Z</time>
    </trkpt>
    <trkpt lat="50.9631098" lon="6.8768096">
      <time>2023-09-13T08:31:00Z</time>
    </trkpt>
    <trkpt lat="50.9631101" lon="6.8765010">
      <time>2023-09-13T08:31:05Z</time>
    </trkpt>
    <trkpt lat="50.9632524" lon="6.8760775">
      <time>2023-09-13T08:31:13Z</time>
    </trkpt>
    <trkpt lat="50.9633328" lon="6.8759196">
      <time>2023-09-13T08:31:17Z</time>
    </trkpt>
    <trkpt lat="50.9633523" lon="6.8759089">
      <time>2023-09-13T08:31:18Z</time>
    </trkpt>
    <trkpt lat="50.9634143" lon="6.8759244">
      <time>2023-09-13T08:31:22Z</time>
    </trkpt>
    <trkpt lat="50.9634239" lon="6.8759239">
      <time>2023-09-13T08:31:27Z</time>
    </trkpt>
  </trkseg></trk>
</gpx>
