<?xml version="1.0" encoding="UTF-8"?>
<gpx version="1.1" creator="Diary FIT converter" xmlns="http://www.topografix.com/GPX/1/1">
  <trk><name>Cycling</name><trkseg>
    <trkpt lat="50.9526342" lon="6.9922797">
      <ele>34.4</ele>
      <time>2019-09-08T15:51:04Z</time>
    </trkpt>
    <trkpt lat="50.9525574" lon="6.9922606">
      <ele>36.2</ele>
      <time>2019-09-08T15:51:52Z</time>
    </trkpt>
    <trkpt lat="50.9525077" lon="6.9921249">
      <ele>36.0</ele>
      <time>2019-09-08T15:51:54Z</time>
    </trkpt>
    <trkpt lat="50.9523553" lon="6.9919593">
      <ele>37.2</ele>
      <time>2019-09-08T15:51:58Z</time>
    </trkpt>
    <trkpt lat="50.9518513" lon="6.9916694">
      <ele>42.2</ele>
      <time>2019-09-08T15:52:07Z</time>
    </trkpt>
    <trkpt lat="50.9517993" lon="6.9915565">
      <ele>42.6</ele>
      <time>2019-09-08T15:52:09Z</time>
    </trkpt>
    <trkpt lat="50.9518043" lon="6.9914091">
      <ele>43.0</ele>
      <time>2019-09-08T15:52:11Z</time>
    </trkpt>
    <trkpt lat="50.9519604" lon="6.9905814">
      <ele>45.2</ele>
      <time>2019-09-08T15:52:23Z</time>
    </trkpt>
    <trkpt lat="50.9519348" lon="6.9904719">
      <ele>45.8</ele>
      <time>2019-09-08T15:52:25Z</time>
    </trkpt>
    <trkpt lat="50.9516206" lon="6.9898378">
      <ele>50.4</ele>
      <time>2019-09-08T15:52:39Z</time>
    </trkpt>
    <trkpt lat="50.9517455" lon="6.9895394">
      <ele>51.6</ele>
      <time>2019-09-08T15:52:45Z</time>
    </trkpt>
    <trkpt lat="50.9517796" lon="6.9893695">
      <ele>53.6</ele>
      <time>2019-09-08T15:52:55Z</time>
    </trkpt>
    <trkpt lat="50.9517485" lon="6.9892706">
      <ele>53.2</ele>
      <time>2019-09-08T15:53:02Z</time>
    </trkpt>
    <trkpt lat="50.9512742" lon="6.9888240">
      <ele>57.8</ele>
      <time>2019-09-08T15:53:14Z</time>
    </trkpt>
    <trkpt lat="50.9510451" lon="6.9886268">
      <ele>58.2</ele>
      <time>2019-09-08T15:53:19Z</time>
    </trkpt>
    <trkpt lat="50.9508746" lon="6.9884481">
      <ele>58.4</ele>
      <time>2019-09-08T15:53:23Z</time>
    </trkpt>
    <trkpt lat="50.9508291" lon="6.9884093">
      <ele>58.4</ele>
      <time>2019-09-08T15:53:24Z</time>
    </trkpt>
    <trkpt lat="50.9505763" lon="6.9882056">
      <ele>55.8</ele>
      <time>2019-09-08T15:53:29Z</time>
    </trkpt>
    <trkpt lat="50.9502874" lon="6.9879363">
      <ele>52.0</ele>
      <time>2019-09-08T15:53:36Z</time>
    </trkpt>
    <trkpt lat="50.9502434" lon="6.9879032">
      <ele>51.6</ele>
      <time>2019-09-08T15:53:37Z</time>
    </trkpt>
    <trkpt lat="50.9497512" lon="6.9874870">
      <ele>49.4</ele>
      <time>2019-09-08T15:53:48Z</time>
    </trkpt>
    <trkpt lat="50.9492347" lon="6.9870433">
      <ele>47.8</ele>
      <time>2019-09-08T15:53:59Z</time>
    </trkpt>
    <trkpt lat="50.9487569" lon="6.9866442">
      <ele>47.8</ele>
      <time>2019-09-08T15:54:09Z</time>
    </trkpt>
    <trkpt lat="50.9482758" lon="6.9862409">
      <ele>47.8</ele>
      <time>2019-09-08T15:54:19Z</time>
    </trkpt>
    <trkpt lat="50.9479012" lon="6.9858897">
      <ele>48.2</ele>
      <time>2019-09-08T15:54:27Z</time>
    </trkpt>
    <trkpt lat="50.9478537" lon="6.9858476">
      <ele>48.2</ele>
      <time>2019-09-08T15:54:28Z</time>
    </trkpt>
    <trkpt lat="50.9477666" lon="6.9857481">
      <ele>48.2</ele>
      <time>2019-09-08T15:54:30Z</time>
    </trkpt>
    <trkpt lat="50.9476440" lon="6.9855948">
      <ele>48.4</ele>
      <time>2019-09-08T15:54:33Z</time>
    </trkpt>
    <trkpt lat="50.9474695" lon="6.9854522">
      <ele>49.0</ele>
      <time>2019-09-08T15:54:37Z</time>
    </trkpt>
    <trkpt lat="50.9473878" lon="6.9853489">
      <ele>49.0</ele>
      <time>2019-09-08T15:54:39Z</time>
    </trkpt>
    <trkpt lat="50.9468866" lon="6.9849389">
      <ele>47.4</ele>
      <time>2019-09-08T15:54:49Z</time>
    </trkpt>
    <trkpt lat="50.9463642" lon="6.9844820">
      <ele>47.4</ele>
      <time>2019-09-08T15:55:00Z</time>
    </trkpt>
    <trkpt lat="50.9458815" lon="6.9840896">
      <ele>46.8</ele>
      <time>2019-09-08T15:55:09Z</time>
    </trkpt>
    <trkpt lat="50.9453987" lon="6.9836695">
      <ele>46.0</ele>
      <time>2019-09-08T15:55:18Z</time>
    </trkpt>
    <trkpt lat="50.9450420" lon="6.9833447">
      <ele>47.2</ele>
      <time>2019-09-08T15:55:25Z</time>
    </trkpt>
    <trkpt lat="50.9448659" lon="6.9831083">
      <ele>46.4</ele>
      <time>2019-09-08T15:55:29Z</time>
    </trkpt>
    <trkpt lat="50.9444214" lon="6.9825569">
      <ele>43.0</ele>
      <time>2019-09-08T15:55:39Z</time>
    </trkpt>
    <trkpt lat="50.9439481" lon="6.9821093">
      <ele>42.0</ele>
      <time>2019-09-08T15:55:49Z</time>
    </trkpt>
    <trkpt lat="50.9434352" lon="6.9816920">
      <ele>44.0</ele>
      <time>2019-09-08T15:55:59Z</time>
    </trkpt>
    <trkpt lat="50.9429288" lon="6.9812097">
      <ele>46.2</ele>
      <time>2019-09-08T15:56:10Z</time>
    </trkpt>
    <trkpt lat="50.9424122" lon="6.9808120">
      <ele>47.2</ele>
      <time>2019-09-08T15:56:21Z</time>
    </trkpt>
    <trkpt lat="50.9419191" lon="6.9804025">
      <ele>44.2</ele>
      <time>2019-09-08T15:56:31Z</time>
    </trkpt>
    <trkpt lat="50.9417704" lon="6.9802611">
      <ele>42.8</ele>
      <time>2019-09-08T15:56:34Z</time>
    </trkpt>
    <trkpt lat="50.9412184" lon="6.9799284">
      <ele>42.0</ele>
      <time>2019-09-08T15:56:43Z</time>
    </trkpt>
    <trkpt lat="50.9411576" lon="6.9798970">
      <ele>42.2</ele>
      <time>2019-09-08T15:56:44Z</time>
    </trkpt>
    <trkpt lat="50.9410293" lon="6.9797699">
      <ele>42.4</ele>
      <time>2019-09-08T15:56:47Z</time>
    </trkpt>
    <trkpt lat="50.9409384" lon="6.9795968">
      <ele>41.6</ele>
      <time>2019-09-08T15:56:52Z</time>
    </trkpt>
    <trkpt lat="50.9404271" lon="6.9793565">
      <ele>56.4</ele>
      <time>2019-09-08T15:57:09Z</time>
    </trkpt>
    <trkpt lat="50.9403488" lon="6.9792808">
      <ele>53.0</ele>
      <time>2019-09-08T15:57:10Z</time>
    </trkpt>
    <trkpt lat="50.9400912" lon="6.9790595">
      <ele>55.0</ele>
      <time>2019-09-08T15:57:15Z</time>
    </trkpt>
    <trkpt lat="50.9399876" lon="6.9789028">
      <ele>50.4</ele>
      <time>2019-09-08T15:57:17Z</time>
    </trkpt>
    <trkpt lat="50.9398189" lon="6.9785229">
      <ele>42.0</ele>
      <time>2019-09-08T15:57:21Z</time>
    </trkpt>
    <trkpt lat="50.9397946" lon="6.9783329">
      <ele>42.0</ele>
      <time>2019-09-08T15:57:23Z</time>
    </trkpt>
    <trkpt lat="50.9398420" lon="6.9774019">
      <ele>41.6</ele>
      <time>2019-09-08T15:57:32Z</time>
    </trkpt>
    <trkpt lat="50.9398615" lon="6.9770026">
      <ele>41.4</ele>
      <time>2019-09-08T15:57:36Z</time>
    </trkpt>
    <trkpt lat="50.9399172" lon="6.9761384">
      <ele>41.2</ele>
      <time>2019-09-08T15:57:45Z</time>
    </trkpt>
    <trkpt lat="50.9399818" lon="6.9752098">
      <ele>40.8</ele>
      <time>2019-09-08T15:57:55Z</time>
    </trkpt>
    <trkpt lat="50.9400239" lon="6.9742883">
      <ele>41.6</ele>
      <time>2019-09-08T15:58:05Z</time>
    </trkpt>
    <trkpt lat="50.9400054" lon="6.9734986">
      <ele>41.4</ele>
      <time>2019-09-08T15:58:22Z</time>
    </trkpt>
    <trkpt lat="50.9400113" lon="6.9734214">
      <ele>41.2</ele>
      <time>2019-09-08T15:59:16Z</time>
    </trkpt>
    <trkpt lat="50.9400319" lon="6.9732133">
      <ele>41.4</ele>
      <time>2019-09-08T15:59:20Z</time>
    </trkpt>
    <trkpt lat="50.9402079" lon="6.9729031">
      <ele>41.6</ele>
      <time>2019-09-08T15:59:27Z</time>
    </trkpt>
    <trkpt lat="50.9405716" lon="6.9722488">
      <ele>41.2</ele>
      <time>2019-09-08T15:59:39Z</time>
    </trkpt>
    <trkpt lat="50.9406946" lon="6.9716272">
      <ele>49.4</ele>
      <time>2019-09-08T15:59:50Z</time>
    </trkpt>
    <trkpt lat="50.9410252" lon="6.9708033">
      <ele>42.6</ele>
      <time>2019-09-08T15:59:58Z</time>
    </trkpt>
    <trkpt lat="50.9412100" lon="6.9698998">
      <ele>46.6</ele>
      <time>2019-09-08T16:00:07Z</time>
    </trkpt>
    <trkpt lat="50.9412295" lon="6.9698115">
      <ele>46.8</ele>
      <time>2019-09-08T16:00:08Z</time>
    </trkpt>
    <trkpt lat="50.9412788" lon="6.9695548">
      <ele>46.6</ele>
      <time>2019-09-08T16:00:11Z</time>
    </trkpt>
    <trkpt lat="50.9412995" lon="6.9686821">
      <ele>46.8</ele>
      <time>2019-09-08T16:00:22Z</time>
    </trkpt>
    <trkpt lat="50.9412755" lon="6.9677877">
      <ele>47.6</ele>
      <time>2019-09-08T16:00:35Z</time>
    </trkpt>
    <trkpt lat="50.9412726" lon="6.9677257">
      <ele>47.6</ele>
      <time>2019-09-08T16:00:36Z</time>
    </trkpt>
    <trkpt lat="50.9412425" lon="6.9668594">
      <ele>50.0</ele>
      <time>2019-09-08T16:00:49Z</time>
    </trkpt>
    <trkpt lat="50.9412426" lon="6.9664951">
      <ele>52.0</ele>
      <time>2019-09-08T16:00:56Z</time>
    </trkpt>
    <trkpt lat="50.9412841" lon="6.9655671">
      <ele>48.8</ele>
      <time>2019-09-08T16:01:07Z</time>
    </trkpt>
    <trkpt lat="50.9413048" lon="6.9652283">
      <ele>46.4</ele>
      <time>2019-09-08T16:01:11Z</time>
    </trkpt>
    <trkpt lat="50.9412906" lon="6.9648016">
      <ele>45.6</ele>
      <time>2019-09-08T16:01:16Z</time>
    </trkpt>
    <trkpt lat="50.9412840" lon="6.9643130">
      <ele>45.0</ele>
      <time>2019-09-08T16:01:22Z</time>
    </trkpt>
    <trkpt lat="50.9412650" lon="6.9635776">
      <ele>46.8</ele>
      <time>2019-09-08T16:01:31Z</time>
    </trkpt>
    <trkpt lat="50.9412882" lon="6.9627446">
      <ele>44.6</ele>
      <time>2019-09-08T16:01:41Z</time>
    </trkpt>
    <trkpt lat="50.9412385" lon="6.9624149">
      <ele>46.2</ele>
      <time>2019-09-08T16:01:45Z</time>
    </trkpt>
    <trkpt lat="50.9412469" lon="6.9621560">
      <ele>46.0</ele>
      <time>2019-09-08T16:01:48Z</time>
    </trkpt>
    <trkpt lat="50.9412531" lon="6.9618260">
      <ele>45.6</ele>
      <time>2019-09-08T16:01:52Z</time>
    </trkpt>
    <trkpt lat="50.9412489" lon="6.9612529">
      <ele>46.8</ele>
      <time>2019-09-08T16:01:59Z</time>
    </trkpt>
    <trkpt lat="50.9411872" lon="6.9609937">
      <ele>47.6</ele>
      <time>2019-09-08T16:02:03Z</time>
    </trkpt>
    <trkpt lat="50.9411506" lon="6.9604138">
      <ele>48.8</ele>
      <time>2019-09-08T16:02:10Z</time>
    </trkpt>
    <trkpt lat="50.9411379" lon="6.9602376">
      <ele>49.2</ele>
      <time>2019-09-08T16:02:12Z</time>
    </trkpt>
    <trkpt lat="50.9409778" lon="6.9594498">
      <ele>51.4</ele>
      <time>2019-09-08T16:02:28Z</time>
    </trkpt>
    <trkpt lat="50.9408852" lon="6.9585760">
      <ele>48.2</ele>
      <time>2019-09-08T16:02:47Z</time>
    </trkpt>
    <trkpt lat="50.9408993" lon="6.9582641">
      <ele>48.2</ele>
      <time>2019-09-08T16:02:50Z</time>
    </trkpt>
    <trkpt lat="50.9409444" lon="6.9577452">
      <ele>53.6</ele>
      <time>2019-09-08T16:02:54Z</time>
    </trkpt>
    <trkpt lat="50.9408482" lon="6.9572248">
      <ele>60.2</ele>
      <time>2019-09-08T16:03:02Z</time>
    </trkpt>
    <trkpt lat="50.9408627" lon="6.9569195">
      <ele>59.0</ele>
      <time>2019-09-08T16:03:06Z</time>
    </trkpt>
    <trkpt lat="50.9408825" lon="6.9566450">
      <ele>60.6</ele>
      <time>2019-09-08T16:03:14Z</time>
    </trkpt>
    <trkpt lat="50.9409239" lon="6.9565755">
      <ele>60.4</ele>
      <time>2019-09-08T16:03:24Z</time>
    </trkpt>
    <trkpt lat="50.9408817" lon="6.9565448">
      <ele>62.6</ele>
      <time>2019-09-08T16:03:26Z</time>
    </trkpt>
    <trkpt lat="50.9408377" lon="6.9563128">
      <ele>68.6</ele>
      <time>2019-09-08T16:03:41Z</time>
    </trkpt>
    <trkpt lat="50.9408719" lon="6.9562673">
      <ele>71.2</ele>
      <time>2019-09-08T16:03:55Z</time>
    </trkpt>
    <trkpt lat="50.9411055" lon="6.9563367">
      <ele>65.0</ele>
      <time>2019-09-08T16:03:59Z</time>
    </trkpt>
    <trkpt lat="50.9414601" lon="6.9565204">
      <ele>59.0</ele>
      <time>2019-09-08T16:04:07Z</time>
    </trkpt>
    <trkpt lat="50.9416034" lon="6.9563098">
      <ele>60.8</ele>
      <time>2019-09-08T16:04:10Z</time>
    </trkpt>
    <trkpt lat="50.9416911" lon="6.9558648">
      <ele>63.0</ele>
      <time>2019-09-08T16:04:14Z</time>
    </trkpt>
    <trkpt lat="50.9416422" lon="6.9549284">
      <ele>58.8</ele>
      <time>2019-09-08T16:04:22Z</time>
    </trkpt>
    <trkpt lat="50.9415396" lon="6.9540116">
      <ele>61.8</ele>
      <time>2019-09-08T16:04:30Z</time>
    </trkpt>
    <trkpt lat="50.9414667" lon="6.9531349">
      <ele>60.4</ele>
      <time>2019-09-08T16:04:42Z</time>
    </trkpt>
    <trkpt lat="50.9414716" lon="6.9531028">
      <ele>59.0</ele>
      <time>2019-09-08T16:04:46Z</time>
    </trkpt>
    <trkpt lat="50.9415189" lon="6.9530198">
      <ele>59.0</ele>
      <time>2019-09-08T16:05:06Z</time>
    </trkpt>
    <trkpt lat="50.9415527" lon="6.9525933">
      <ele>59.6</ele>
      <time>2019-09-08T16:05:13Z</time>
    </trkpt>
    <trkpt lat="50.9415956" lon="6.9517034">
      <ele>57.8</ele>
      <time>2019-09-08T16:05:24Z</time>
    </trkpt>
    <trkpt lat="50.9415892" lon="6.9516084">
      <ele>56.2</ele>
      <time>2019-09-08T16:05:25Z</time>
    </trkpt>
    <trkpt lat="50.9416003" lon="6.9506754">
      <ele>55.8</ele>
      <time>2019-09-08T16:05:35Z</time>
    </trkpt>
    <trkpt lat="50.9415458" lon="6.9499957">
      <ele>55.8</ele>
      <time>2019-09-08T16:05:42Z</time>
    </trkpt>
    <trkpt lat="50.9414816" lon="6.9495427">
      <ele>61.6</ele>
      <time>2019-09-08T16:05:47Z</time>
    </trkpt>
    <trkpt lat="50.9413330" lon="6.9487081">
      <ele>69.2</ele>
      <time>2019-09-08T16:05:56Z</time>
    </trkpt>
    <trkpt lat="50.9411970" lon="6.9478596">
      <ele>67.6</ele>
      <time>2019-09-08T16:06:05Z</time>
    </trkpt>
    <trkpt lat="50.9411148" lon="6.9473249">
      <ele>66.0</ele>
      <time>2019-09-08T16:06:11Z</time>
    </trkpt>
    <trkpt lat="50.9410725" lon="6.9464383">
      <ele>56.4</ele>
      <time>2019-09-08T16:06:20Z</time>
    </trkpt>
    <trkpt lat="50.9410335" lon="6.9462579">
      <ele>55.0</ele>
      <time>2019-09-08T16:06:21Z</time>
    </trkpt>
    <trkpt lat="50.9406405" lon="6.9455687">
      <ele>63.0</ele>
      <time>2019-09-08T16:06:30Z</time>
    </trkpt>
    <trkpt lat="50.9402809" lon="6.9448325">
      <ele>59.4</ele>
      <time>2019-09-08T16:06:38Z</time>
    </trkpt>
    <trkpt lat="50.9402057" lon="6.9446527">
      <ele>60.2</ele>
      <time>2019-09-08T16:06:40Z</time>
    </trkpt>
    <trkpt lat="50.9400259" lon="6.9438410">
      <ele>62.4</ele>
      <time>2019-09-08T16:06:56Z</time>
    </trkpt>
    <trkpt lat="50.9399625" lon="6.9429564">
      <ele>63.4</ele>
      <time>2019-09-08T16:07:11Z</time>
    </trkpt>
    <trkpt lat="50.9399745" lon="6.9428557">
      <ele>63.0</ele>
      <time>2019-09-08T16:07:12Z</time>
    </trkpt>
    <trkpt lat="50.9401228" lon="6.9419583">
      <ele>69.4</ele>
      <time>2019-09-08T16:07:23Z</time>
    </trkpt>
    <trkpt lat="50.9401658" lon="6.9416875">
      <ele>76.2</ele>
      <time>2019-09-08T16:07:27Z</time>
    </trkpt>
    <trkpt lat="50.9404001" lon="6.9408611">
      <ele>63.2</ele>
      <time>2019-09-08T16:07:37Z</time>
    </trkpt>
    <trkpt lat="50.9405457" lon="6.9404141">
      <ele>60.6</ele>
      <time>2019-09-08T16:07:50Z</time>
    </trkpt>
    <trkpt lat="50.9405510" lon="6.9403886">
      <ele>67.0</ele>
      <time>2019-09-08T16:08:01Z</time>
    </trkpt>
    <trkpt lat="50.9405666" lon="6.9395151">
      <ele>83.2</ele>
      <time>2019-09-08T16:08:12Z</time>
    </trkpt>
    <trkpt lat="50.9406974" lon="6.9385992">
      <ele>83.4</ele>
      <time>2019-09-08T16:08:21Z</time>
    </trkpt>
    <trkpt lat="50.9409123" lon="6.9381276">
      <ele>70.2</ele>
      <time>2019-09-08T16:08:26Z</time>
    </trkpt>
    <trkpt lat="50.9410268" lon="6.9380090">
      <ele>65.6</ele>
      <time>2019-09-08T16:08:28Z</time>
    </trkpt>
    <trkpt lat="50.9414640" lon="6.9374518">
      <ele>54.2</ele>
      <time>2019-09-08T16:08:38Z</time>
    </trkpt>
    <trkpt lat="50.9417921" lon="6.9368958">
      <ele>55.6</ele>
      <time>2019-09-08T16:08:49Z</time>
    </trkpt>
    <trkpt lat="50.9420397" lon="6.9362260">
      <ele>37.2</ele>
      <time>2019-09-08T16:09:00Z</time>
    </trkpt>
    <trkpt lat="50.9423814" lon="6.9355634">
      <ele>36.0</ele>
      <time>2019-09-08T16:09:09Z</time>
    </trkpt>
    <trkpt lat="50.9427810" lon="6.9348709">
      <ele>35.4</ele>
      <time>2019-09-08T16:09:20Z</time>
    </trkpt>
    <trkpt lat="50.9431314" lon="6.9341685">
      <ele>42.6</ele>
      <time>2019-09-08T16:09:30Z</time>
    </trkpt>
    <trkpt lat="50.9434549" lon="6.9336785">
      <ele>40.0</ele>
      <time>2019-09-08T16:09:38Z</time>
    </trkpt>
    <trkpt lat="50.9437015" lon="6.9329480">
      <ele>42.4</ele>
      <time>2019-09-08T16:09:47Z</time>
    </trkpt>
    <trkpt lat="50.9439062" lon="6.9324061">
      <ele>41.6</ele>
      <time>2019-09-08T16:09:55Z</time>
    </trkpt>
    <trkpt lat="50.9440813" lon="6.9319040">
      <ele>39.8</ele>
      <time>2019-09-08T16:10:02Z</time>
    </trkpt>
    <trkpt lat="50.9442599" lon="6.9315857">
      <ele>36.4</ele>
      <time>2019-09-08T16:10:07Z</time>
    </trkpt>
    <trkpt lat="50.9445430" lon="6.9307839">
      <ele>37.6</ele>
      <time>2019-09-08T16:10:17Z</time>
    </trkpt>
    <trkpt lat="50.9447927" lon="6.9300034">
      <ele>37.2</ele>
      <time>2019-09-08T16:10:26Z</time>
    </trkpt>
    <trkpt lat="50.9448248" lon="6.9297966">
      <ele>37.8</ele>
      <time>2019-09-08T16:10:27Z</time>
    </trkpt>
    <trkpt lat="50.9448767" lon="6.9294701">
      <ele>40.8</ele>
      <time>2019-09-08T16:10:31Z</time>
    </trkpt>
    <trkpt lat="50.9450804" lon="6.9288396">
      <ele>40.8</ele>
      <time>2019-09-08T16:10:37Z</time>
    </trkpt>
    <trkpt lat="50.9452147" lon="6.9282798">
      <ele>41.8</ele>
      <time>2019-09-08T16:10:42Z</time>
    </trkpt>
    <trkpt lat="50.9455426" lon="6.9275216">
      <ele>48.6</ele>
      <time>2019-09-08T16:10:49Z</time>
    </trkpt>
    <trkpt lat="50.9458328" lon="6.9266641">
      <ele>49.2</ele>
      <time>2019-09-08T16:10:56Z</time>
    </trkpt>
    <trkpt lat="50.9460371" lon="6.9260997">
      <ele>48.8</ele>
      <time>2019-09-08T16:11:01Z</time>
    </trkpt>
    <trkpt lat="50.9461744" lon="6.9256587">
      <ele>48.2</ele>
      <time>2019-09-08T16:11:05Z</time>
    </trkpt>
    <trkpt lat="50.9464822" lon="6.9249363">
      <ele>45.2</ele>
      <time>2019-09-08T16:11:12Z</time>
    </trkpt>
    <trkpt lat="50.9468191" lon="6.9241397">
      <ele>42.8</ele>
      <time>2019-09-08T16:11:19Z</time>
    </trkpt>
    <trkpt lat="50.9471610" lon="6.9233389">
      <ele>42.4</ele>
      <time>2019-09-08T16:11:26Z</time>
    </trkpt>
    <trkpt lat="50.9475010" lon="6.9225845">
      <ele>44.8</ele>
      <time>2019-09-08T16:11:33Z</time>
    </trkpt>
    <trkpt lat="50.9478299" lon="6.9217766">
      <ele>45.4</ele>
      <time>2019-09-08T16:11:41Z</time>
    </trkpt>
    <trkpt lat="50.9481378" lon="6.9210223">
      <ele>45.2</ele>
      <time>2019-09-08T16:11:49Z</time>
    </trkpt>
    <trkpt lat="50.9483652" lon="6.9205054">
      <ele>45.6</ele>
      <time>2019-09-08T16:11:56Z</time>
    </trkpt>
    <trkpt lat="50.9486811" lon="6.9197381">
      <ele>47.2</ele>
      <time>2019-09-08T16:12:05Z</time>
    </trkpt>
    <trkpt lat="50.9490075" lon="6.9190485">
      <ele>49.6</ele>
      <time>2019-09-08T16:12:15Z</time>
    </trkpt>
    <trkpt lat="50.9493369" lon="6.9183528">
      <ele>50.4</ele>
      <time>2019-09-08T16:12:30Z</time>
    </trkpt>
    <trkpt lat="50.9497159" lon="6.9177357">
      <ele>43.6</ele>
      <time>2019-09-08T16:12:43Z</time>
    </trkpt>
    <trkpt lat="50.9501101" lon="6.9171504">
      <ele>44.4</ele>
      <time>2019-09-08T16:12:52Z</time>
    </trkpt>
    <trkpt lat="50.9502278" lon="6.9169641">
      <ele>47.6</ele>
      <time>2019-09-08T16:13:03Z</time>
    </trkpt>
    <trkpt lat="50.9503129" lon="6.9168365">
      <ele>45.2</ele>
      <time>2019-09-08T16:13:15Z</time>
    </trkpt>
    <trkpt lat="50.9507368" lon="6.9162711">
      <ele>48.4</ele>
      <time>2019-09-08T16:13:24Z</time>
    </trkpt>
    <trkpt lat="50.9511211" lon="6.9155984">
      <ele>47.0</ele>
      <time>2019-09-08T16:13:34Z</time>
    </trkpt>
    <trkpt lat="50.9514815" lon="6.9149709">
      <ele>41.0</ele>
      <time>2019-09-08T16:13:44Z</time>
    </trkpt>
    <trkpt lat="50.9518034" lon="6.9144889">
      <ele>34.8</ele>
      <time>2019-09-08T16:13:58Z</time>
    </trkpt>
    <trkpt lat="50.9518868" lon="6.9143910">
      <ele>33.8</ele>
      <time>2019-09-08T16:14:00Z</time>
    </trkpt>
    <trkpt lat="50.9522744" lon="6.9137741">
      <ele>32.2</ele>
      <time>2019-09-08T16:14:10Z</time>
    </trkpt>
    <trkpt lat="50.9526791" lon="6.9131751">
      <ele>22.2</ele>
      <time>2019-09-08T16:14:21Z</time>
    </trkpt>
    <trkpt lat="50.9530795" lon="6.9125574">
      <ele>31.6</ele>
      <time>2019-09-08T16:14:32Z</time>
    </trkpt>
    <trkpt lat="50.9531927" lon="6.9123494">
      <ele>29.0</ele>
      <time>2019-09-08T16:14:36Z</time>
    </trkpt>
    <trkpt lat="50.9532528" lon="6.9122391">
      <ele>27.8</ele>
      <time>2019-09-08T16:14:38Z</time>
    </trkpt>
    <trkpt lat="50.9536678" lon="6.9116089">
      <ele>27.4</ele>
      <time>2019-09-08T16:14:46Z</time>
    </trkpt>
    <trkpt lat="50.9540656" lon="6.9109806">
      <ele>28.8</ele>
      <time>2019-09-08T16:14:57Z</time>
    </trkpt>
    <trkpt lat="50.9543995" lon="6.9103060">
      <ele>33.2</ele>
      <time>2019-09-08T16:15:15Z</time>
    </trkpt>
    <trkpt lat="50.9547103" lon="6.9094837">
      <ele>38.8</ele>
      <time>2019-09-08T16:15:23Z</time>
    </trkpt>
    <trkpt lat="50.9549698" lon="6.9086100">
      <ele>41.0</ele>
      <time>2019-09-08T16:15:31Z</time>
    </trkpt>
    <trkpt lat="50.9552182" lon="6.9078493">
      <ele>44.0</ele>
      <time>2019-09-08T16:15:38Z</time>
    </trkpt>
    <trkpt lat="50.9554792" lon="6.9070853">
      <ele>44.0</ele>
      <time>2019-09-08T16:15:45Z</time>
    </trkpt>
    <trkpt lat="50.9557729" lon="6.9063013">
      <ele>43.2</ele>
      <time>2019-09-08T16:15:53Z</time>
    </trkpt>
    <trkpt lat="50.9560597" lon="6.9055094">
      <ele>43.2</ele>
      <time>2019-09-08T16:16:02Z</time>
    </trkpt>
    <trkpt lat="50.9563347" lon="6.9047388">
      <ele>43.0</ele>
      <time>2019-09-08T16:16:11Z</time>
    </trkpt>
    <trkpt lat="50.9565850" lon="6.9039817">
      <ele>42.4</ele>
      <time>2019-09-08T16:16:20Z</time>
    </trkpt>
    <trkpt lat="50.9568100" lon="6.9033436">
      <ele>44.8</ele>
      <time>2019-09-08T16:16:34Z</time>
    </trkpt>
    <trkpt lat="50.9568369" lon="6.9033099">
      <ele>43.0</ele>
      <time>2019-09-08T16:16:40Z</time>
    </trkpt>
    <trkpt lat="50.9568530" lon="6.9032601">
      <ele>42.0</ele>
      <time>2019-09-08T16:16:43Z</time>
    </trkpt>
    <trkpt lat="50.9570973" lon="6.9024761">
      <ele>42.0</ele>
      <time>2019-09-08T16:16:55Z</time>
    </trkpt>
    <trkpt lat="50.9573041" lon="6.9016624">
      <ele>40.0</ele>
      <time>2019-09-08T16:17:05Z</time>
    </trkpt>
    <trkpt lat="50.9575884" lon="6.9009050">
      <ele>41.6</ele>
      <time>2019-09-08T16:17:16Z</time>
    </trkpt>
    <trkpt lat="50.9577139" lon="6.9006439">
      <ele>43.0</ele>
      <time>2019-09-08T16:17:25Z</time>
    </trkpt>
    <trkpt lat="50.9580484" lon="6.8998731">
      <ele>40.2</ele>
      <time>2019-09-08T16:17:36Z</time>
    </trkpt>
    <trkpt lat="50.9583786" lon="6.8991346">
      <ele>41.6</ele>
      <time>2019-09-08T16:17:45Z</time>
    </trkpt>
    <trkpt lat="50.9587396" lon="6.8983993">
      <ele>39.8</ele>
      <time>2019-09-08T16:17:55Z</time>
    </trkpt>
    <trkpt lat="50.9590696" lon="6.8976956">
      <ele>43.8</ele>
      <time>2019-09-08T16:18:04Z</time>
    </trkpt>
    <trkpt lat="50.9594105" lon="6.8969206">
      <ele>42.0</ele>
      <time>2019-09-08T16:18:14Z</time>
    </trkpt>
    <trkpt lat="50.9597571" lon="6.8961593">
      <ele>40.2</ele>
      <time>2019-09-08T16:18:24Z</time>
    </trkpt>
    <trkpt lat="50.9600936" lon="6.8954068">
      <ele>40.2</ele>
      <time>2019-09-08T16:18:33Z</time>
    </trkpt>
    <trkpt lat="50.9604260" lon="6.8947225">
      <ele>38.2</ele>
      <time>2019-09-08T16:18:42Z</time>
    </trkpt>
    <trkpt lat="50.9607634" lon="6.8940108">
      <ele>40.0</ele>
      <time>2019-09-08T16:18:51Z</time>
    </trkpt>
    <trkpt lat="50.9608639" lon="6.8937614">
      <ele>39.8</ele>
      <time>2019-09-08T16:18:54Z</time>
    </trkpt>
    <trkpt lat="50.9609602" lon="6.8936269">
      <ele>40.2</ele>
      <time>2019-09-08T16:18:56Z</time>
    </trkpt>
    <trkpt lat="50.9611165" lon="6.8934813">
      <ele>40.0</ele>
      <time>2019-09-08T16:18:59Z</time>
    </trkpt>
    <trkpt lat="50.9613582" lon="6.8929836">
      <ele>39.6</ele>
      <time>2019-09-08T16:19:08Z</time>
    </trkpt>
    <trkpt lat="50.9612316" lon="6.8927277">
      <ele>41.4</ele>
      <time>2019-09-08T16:19:13Z</time>
    </trkpt>
    <trkpt lat="50.9611558" lon="6.8924510">
      <ele>40.0</ele>
      <time>2019-09-08T16:19:17Z</time>
    </trkpt>
    <trkpt lat="50.9610467" lon="6.8922547">
      <ele>39.0</ele>
      <time>2019-09-08T16:19:20Z</time>
    </trkpt>
    <trkpt lat="50.9606706" lon="6.8915239">
      <ele>35.8</ele>
      <time>2019-09-08T16:19:28Z</time>
    </trkpt>
    <trkpt lat="50.9602515" lon="6.8908411">
      <ele>37.0</ele>
      <time>2019-09-08T16:19:35Z</time>
    </trkpt>
    <trkpt lat="50.9601935" lon="6.8905897">
      <ele>37.2</ele>
      <time>2019-09-08T16:19:36Z</time>
    </trkpt>
    <trkpt lat="50.9601785" lon="6.8904619">
      <ele>37.2</ele>
      <time>2019-09-08T16:19:38Z</time>
    </trkpt>
    <trkpt lat="50.9602113" lon="6.8899096">
      <ele>38.2</ele>
      <time>2019-09-08T16:19:42Z</time>
    </trkpt>
    <trkpt lat="50.9603234" lon="6.8889936">
      <ele>38.2</ele>
      <time>2019-09-08T16:19:49Z</time>
    </trkpt>
    <trkpt lat="50.9604071" lon="6.8880854">
      <ele>36.6</ele>
      <time>2019-09-08T16:19:57Z</time>
    </trkpt>
    <trkpt lat="50.9603240" lon="6.8872177">
      <ele>35.0</ele>
      <time>2019-09-08T16:20:06Z</time>
    </trkpt>
    <trkpt lat="50.9601479" lon="6.8864119">
      <ele>36.4</ele>
      <time>2019-09-08T16:20:15Z</time>
    </trkpt>
    <trkpt lat="50.9599296" lon="6.8858539">
      <ele>37.6</ele>
      <time>2019-09-08T16:20:24Z</time>
    </trkpt>
    <trkpt lat="50.9604847" lon="6.8857766">
      <ele>38.2</ele>
      <time>2019-09-08T16:20:39Z</time>
    </trkpt>
    <trkpt lat="50.9610532" lon="6.8856652">
      <ele>42.0</ele>
      <time>2019-09-08T16:20:51Z</time>
    </trkpt>
    <trkpt lat="50.9615796" lon="6.8852642">
      <ele>42.0</ele>
      <time>2019-09-08T16:21:02Z</time>
    </trkpt>
    <trkpt lat="50.9616719" lon="6.8851803">
      <ele>42.2</ele>
      <time>2019-09-08T16:21:03Z</time>
    </trkpt>
    <trkpt lat="50.9619713" lon="6.8850311">
      <ele>41.4</ele>
      <time>2019-09-08T16:21:10Z</time>
    </trkpt>
    <trkpt lat="50.9620388" lon="6.8849486">
      <ele>41.0</ele>
      <time>2019-09-08T16:21:12Z</time>
    </trkpt>
    <trkpt lat="50.9620860" lon="6.8847578">
      <ele>39.8</ele>
      <time>2019-09-08T16:21:15Z</time>
    </trkpt>
    <trkpt lat="50.9621530" lon="6.8838145">
      <ele>44.2</ele>
      <time>2019-09-08T16:21:25Z</time>
    </trkpt>
    <trkpt lat="50.9622761" lon="6.8828973">
      <ele>46.8</ele>
      <time>2019-09-08T16:21:35Z</time>
    </trkpt>
    <trkpt lat="50.9624040" lon="6.8820239">
      <ele>46.6</ele>
      <time>2019-09-08T16:21:44Z</time>
    </trkpt>
    <trkpt lat="50.9625433" lon="6.8811387">
      <ele>44.4</ele>
      <time>2019-09-08T16:21:53Z</time>
    </trkpt>
    <trkpt lat="50.9626756" lon="6.8802894">
      <ele>41.2</ele>
      <time>2019-09-08T16:22:02Z</time>
    </trkpt>
    <trkpt lat="50.9627896" lon="6.8794391">
      <ele>40.8</ele>
      <time>2019-09-08T16:22:12Z</time>
    </trkpt>
    <trkpt lat="50.9628695" lon="6.8790481">
      <ele>41.0</ele>
      <time>2019-09-08T16:22:17Z</time>
    </trkpt>
    <trkpt lat="50.9629484" lon="6.8788683">
      <ele>39.8</ele>
      <time>2019-09-08T16:22:20Z</time>
    </trkpt>
    <trkpt lat="50.9634214" lon="6.8783997">
      <ele>26.6</ele>
      <time>2019-09-08T16:22:34Z</time>
    </trkpt>
    <trkpt lat="50.9637887" lon="6.8782095">
      <ele>23.6</ele>
      <time>2019-09-08T16:22:47Z</time>
    </trkpt>
    <trkpt lat="50.9635618" lon="6.8774579">
      <ele>30.0</ele>
      <time>2019-09-08T16:23:02Z</time>
    </trkpt>
    <trkpt lat="50.9635591" lon="6.8773165">
      <ele>34.0</ele>
      <time>2019-09-08T16:23:06Z</time>
    </trkpt>
    <trkpt lat="50.9635646" lon="6.8772479">
      <ele>38.4</ele>
      <time>2019-09-08T16:23:10Z</time>
    </trkpt>
    <trkpt lat="50.9635313" lon="6.8771916">
      <ele>41.6</ele>
      <time>2019-09-08T16:23:13Z</time>
    </trkpt>
    <trkpt lat="50.9634763" lon="6.8771882">
      <ele>45.8</ele>
      <time>2019-09-08T16:23:17Z</time>
    </trkpt>
    <trkpt lat="50.9632059" lon="6.8771335">
      <ele>70.4</ele>
      <time>2019-09-08T16:23:33Z</time>
    </trkpt>
    <trkpt lat="50.9632641" lon="6.8769643">
      <ele>63.8</ele>
      <time>2019-09-08T16:23:43Z</time>
    </trkpt>
    <trkpt lat="50.9633312" lon="6.8768854">
      <ele>55.0</ele>
      <time>2019-09-08T16:23:47Z</time>
    </trkpt>
    <trkpt lat="50.9634485" lon="6.8765491">
      <ele>74.2</ele>
      <time>2019-09-08T17:48:53Z</time>
    </trkpt>
    <trkpt lat="50.9634286" lon="6.8765584">
      <ele>69.4</ele>
      <time>2019-09-08T17:48:54Z</time>
    </trkpt>
    <trkpt lat="50.9629660" lon="6.8767982">
      <ele>-4.6</ele>
      <time>2019-09-08T17:49:03Z</time>
    </trkpt>
    <trkpt lat="50.9632516" lon="6.8770145">
      <ele>35.2</ele>
      <time>2019-09-08T17:49:38Z</time>
    </trkpt>
    <trkpt lat="50.9631504" lon="6.8767395">
      <ele>52.2</ele>
      <time>2019-09-08T18:05:49Z</time>
    </trkpt>
    <trkpt lat="50.9631417" lon="6.8767940">
      <ele>51.2</ele>
      <time>2019-09-08T18:05:50Z</time>
    </trkpt>
    <trkpt lat="50.9632620" lon="6.8772460">
      <ele>47.6</ele>
      <time>2019-09-08T18:06:00Z</time>
    </trkpt>
    <trkpt lat="50.9634540" lon="6.8776063">
      <ele>45.8</ele>
      <time>2019-09-08T18:06:07Z</time>
    </trkpt>
    <trkpt lat="50.9636866" lon="6.8780292">
      <ele>46.6</ele>
      <time>2019-09-08T18:06:14Z</time>
    </trkpt>
    <trkpt lat="50.9638563" lon="6.8783367">
      <ele>46.2</ele>
      <time>2019-09-08T18:06:20Z</time>
    </trkpt>
    <trkpt lat="50.9642763" lon="6.8789867">
      <ele>43.0</ele>
      <time>2019-09-08T18:06:32Z</time>
    </trkpt>
    <trkpt lat="50.9646718" lon="6.8795774">
      <ele>37.0</ele>
      <time>2019-09-08T18:06:43Z</time>
    </trkpt>
    <trkpt lat="50.9651283" lon="6.8800663">
      <ele>39.2</ele>
      <time>2019-09-08T18:06:52Z</time>
    </trkpt>
    <trkpt lat="50.9656275" lon="6.8804877">
      <ele>50.2</ele>
      <time>2019-09-08T18:07:01Z</time>
    </trkpt>
    <trkpt lat="50.9661128" lon="6.8809849">
      <ele>49.0</ele>
      <time>2019-09-08T18:07:12Z</time>
    </trkpt>
    <trkpt lat="50.9662458" lon="6.8811356">
      <ele>48.6</ele>
      <time>2019-09-08T18:07:15Z</time>
    </trkpt>
    <trkpt lat="50.9662910" lon="6.8812769">
      <ele>47.4</ele>
      <time>2019-09-08T18:07:17Z</time>
    </trkpt>
    <trkpt lat="50.9662906" lon="6.8814356">
      <ele>46.4</ele>
      <time>2019-09-08T18:07:19Z</time>
    </trkpt>
    <trkpt lat="50.9662540" lon="6.8815831">
      <ele>45.6</ele>
      <time>2019-09-08T18:07:21Z</time>
    </trkpt>
    <trkpt lat="50.9659952" lon="6.8823379">
      <ele>51.2</ele>
      <time>2019-09-08T18:07:32Z</time>
    </trkpt>
    <trkpt lat="50.9656636" lon="6.8830153">
      <ele>59.0</ele>
      <time>2019-09-08T18:07:43Z</time>
    </trkpt>
    <trkpt lat="50.9653281" lon="6.8837035">
      <ele>65.4</ele>
      <time>2019-09-08T18:07:53Z</time>
    </trkpt>
    <trkpt lat="50.9650120" lon="6.8844541">
      <ele>62.0</ele>
      <time>2019-09-08T18:08:02Z</time>
    </trkpt>
    <trkpt lat="50.9646866" lon="6.8851961">
      <ele>56.2</ele>
      <time>2019-09-08T18:08:10Z</time>
    </trkpt>
    <trkpt lat="50.9643334" lon="6.8859599">
      <ele>53.2</ele>
      <time>2019-09-08T18:08:19Z</time>
    </trkpt>
    <trkpt lat="50.9639866" lon="6.8867192">
      <ele>52.4</ele>
      <time>2019-09-08T18:08:28Z</time>
    </trkpt>
    <trkpt lat="50.9636415" lon="6.8874160">
      <ele>49.6</ele>
      <time>2019-09-08T18:08:37Z</time>
    </trkpt>
    <trkpt lat="50.9632757" lon="6.8881194">
      <ele>48.2</ele>
      <time>2019-09-08T18:08:46Z</time>
    </trkpt>
    <trkpt lat="50.9630111" lon="6.8887141">
      <ele>48.2</ele>
      <time>2019-09-08T18:08:53Z</time>
    </trkpt>
    <trkpt lat="50.9627168" lon="6.8894845">
      <ele>47.6</ele>
      <time>2019-09-08T18:09:01Z</time>
    </trkpt>
    <trkpt lat="50.9625665" lon="6.8898465">
      <ele>46.8</ele>
      <time>2019-09-08T18:09:05Z</time>
    </trkpt>
    <trkpt lat="50.9622562" lon="6.8903350">
      <ele>44.0</ele>
      <time>2019-09-08T18:09:12Z</time>
    </trkpt>
    <trkpt lat="50.9619134" lon="6.8910461">
      <ele>43.8</ele>
      <time>2019-09-08T18:09:21Z</time>
    </trkpt>
    <trkpt lat="50.9615846" lon="6.8917631">
      <ele>49.4</ele>
      <time>2019-09-08T18:09:31Z</time>
    </trkpt>
    <trkpt lat="50.9612809" lon="6.8924780">
      <ele>59.8</ele>
      <time>2019-09-08T18:09:52Z</time>
    </trkpt>
    <trkpt lat="50.9612685" lon="6.8924951">
      <ele>59.8</ele>
      <time>2019-09-08T18:09:53Z</time>
    </trkpt>
    <trkpt lat="50.9609507" lon="6.8931884">
      <ele>57.0</ele>
      <time>2019-09-08T18:10:06Z</time>
    </trkpt>
    <trkpt lat="50.9606299" lon="6.8939702">
      <ele>59.6</ele>
      <time>2019-09-08T18:10:16Z</time>
    </trkpt>
    <trkpt lat="50.9602548" lon="6.8946159">
      <ele>54.6</ele>
      <time>2019-09-08T18:10:25Z</time>
    </trkpt>
    <trkpt lat="50.9598913" lon="6.8953014">
      <ele>51.0</ele>
      <time>2019-09-08T18:10:34Z</time>
    </trkpt>
    <trkpt lat="50.9595564" lon="6.8959802">
      <ele>47.6</ele>
      <time>2019-09-08T18:10:42Z</time>
    </trkpt>
    <trkpt lat="50.9592084" lon="6.8966944">
      <ele>50.2</ele>
      <time>2019-09-08T18:10:52Z</time>
    </trkpt>
    <trkpt lat="50.9588670" lon="6.8974651">
      <ele>49.8</ele>
      <time>2019-09-08T18:11:01Z</time>
    </trkpt>
    <trkpt lat="50.9585073" lon="6.8982134">
      <ele>48.0</ele>
      <time>2019-09-08T18:11:09Z</time>
    </trkpt>
    <trkpt lat="50.9581638" lon="6.8989730">
      <ele>53.4</ele>
      <time>2019-09-08T18:11:18Z</time>
    </trkpt>
    <trkpt lat="50.9578359" lon="6.8996841">
      <ele>55.4</ele>
      <time>2019-09-08T18:11:26Z</time>
    </trkpt>
    <trkpt lat="50.9577699" lon="6.8998778">
      <ele>55.8</ele>
      <time>2019-09-08T18:11:28Z</time>
    </trkpt>
    <trkpt lat="50.9575021" lon="6.9006378">
      <ele>55.4</ele>
      <time>2019-09-08T18:11:35Z</time>
    </trkpt>
    <trkpt lat="50.9573425" lon="6.9010832">
      <ele>57.8</ele>
      <time>2019-09-08T18:11:39Z</time>
    </trkpt>
    <trkpt lat="50.9572602" lon="6.9013196">
      <ele>56.0</ele>
      <time>2019-09-08T18:11:41Z</time>
    </trkpt>
    <trkpt lat="50.9571747" lon="6.9016929">
      <ele>55.2</ele>
      <time>2019-09-08T18:11:44Z</time>
    </trkpt>
    <trkpt lat="50.9568656" lon="6.9024079">
      <ele>53.4</ele>
      <time>2019-09-08T18:11:51Z</time>
    </trkpt>
    <trkpt lat="50.9566963" lon="6.9029177">
      <ele>52.0</ele>
      <time>2019-09-08T18:11:56Z</time>
    </trkpt>
    <trkpt lat="50.9565415" lon="6.9035732">
      <ele>49.8</ele>
      <time>2019-09-08T18:12:02Z</time>
    </trkpt>
    <trkpt lat="50.9562995" lon="6.9043516">
      <ele>53.4</ele>
      <time>2019-09-08T18:12:10Z</time>
    </trkpt>
    <trkpt lat="50.9560791" lon="6.9051335">
      <ele>56.4</ele>
      <time>2019-09-08T18:12:19Z</time>
    </trkpt>
    <trkpt lat="50.9559384" lon="6.9057564">
      <ele>62.6</ele>
      <time>2019-09-08T18:12:27Z</time>
    </trkpt>
    <trkpt lat="50.9557272" lon="6.9064681">
      <ele>57.0</ele>
      <time>2019-09-08T18:12:36Z</time>
    </trkpt>
    <trkpt lat="50.9555117" lon="6.9069688">
      <ele>58.6</ele>
      <time>2019-09-08T18:12:43Z</time>
    </trkpt>
    <trkpt lat="50.9552561" lon="6.9077413">
      <ele>66.8</ele>
      <time>2019-09-08T18:12:53Z</time>
    </trkpt>
    <trkpt lat="50.9550094" lon="6.9085707">
      <ele>73.4</ele>
      <time>2019-09-08T18:13:03Z</time>
    </trkpt>
    <trkpt lat="50.9547620" lon="6.9093801">
      <ele>85.2</ele>
      <time>2019-09-08T18:13:13Z</time>
    </trkpt>
    <trkpt lat="50.9544422" lon="6.9100976">
      <ele>98.8</ele>
      <time>2019-09-08T18:13:30Z</time>
    </trkpt>
    <trkpt lat="50.9544049" lon="6.9101831">
      <ele>99.6</ele>
      <time>2019-09-08T18:13:31Z</time>
    </trkpt>
    <trkpt lat="50.9539850" lon="6.9108625">
      <ele>103.8</ele>
      <time>2019-09-08T18:13:40Z</time>
    </trkpt>
    <trkpt lat="50.9535482" lon="6.9115444">
      <ele>97.0</ele>
      <time>2019-09-08T18:13:49Z</time>
    </trkpt>
    <trkpt lat="50.9531372" lon="6.9122029">
      <ele>78.6</ele>
      <time>2019-09-08T18:13:57Z</time>
    </trkpt>
    <trkpt lat="50.9527410" lon="6.9128475">
      <ele>69.0</ele>
      <time>2019-09-08T18:14:06Z</time>
    </trkpt>
    <trkpt lat="50.9523353" lon="6.9134677">
      <ele>72.6</ele>
      <time>2019-09-08T18:14:16Z</time>
    </trkpt>
    <trkpt lat="50.9519596" lon="6.9141669">
      <ele>79.0</ele>
      <time>2019-09-08T18:14:26Z</time>
    </trkpt>
    <trkpt lat="50.9517200" lon="6.9144466">
      <ele>74.6</ele>
      <time>2019-09-08T18:14:33Z</time>
    </trkpt>
    <trkpt lat="50.9516658" lon="6.9144700">
      <ele>72.8</ele>
      <time>2019-09-08T18:14:37Z</time>
    </trkpt>
    <trkpt lat="50.9516411" lon="6.9144946">
      <ele>72.8</ele>
      <time>2019-09-08T18:14:39Z</time>
    </trkpt>
    <trkpt lat="50.9515725" lon="6.9146825">
      <ele>69.4</ele>
      <time>2019-09-08T18:14:43Z</time>
    </trkpt>
    <trkpt lat="50.9511881" lon="6.9153562">
      <ele>68.6</ele>
      <time>2019-09-08T18:14:56Z</time>
    </trkpt>
    <trkpt lat="50.9507581" lon="6.9159016">
      <ele>63.2</ele>
      <time>2019-09-08T18:15:06Z</time>
    </trkpt>
    <trkpt lat="50.9503670" lon="6.9165341">
      <ele>68.0</ele>
      <time>2019-09-08T18:15:17Z</time>
    </trkpt>
    <trkpt lat="50.9499584" lon="6.9170996">
      <ele>62.2</ele>
      <time>2019-09-08T18:15:25Z</time>
    </trkpt>
    <trkpt lat="50.9495910" lon="6.9177318">
      <ele>62.0</ele>
      <time>2019-09-08T18:15:33Z</time>
    </trkpt>
    <trkpt lat="50.9492127" lon="6.9184044">
      <ele>64.6</ele>
      <time>2019-09-08T18:15:42Z</time>
    </trkpt>
    <trkpt lat="50.9489098" lon="6.9191599">
      <ele>67.4</ele>
      <time>2019-09-08T18:15:51Z</time>
    </trkpt>
    <trkpt lat="50.9486064" lon="6.9199092">
      <ele>71.8</ele>
      <time>2019-09-08T18:15:59Z</time>
    </trkpt>
    <trkpt lat="50.9483493" lon="6.9206726">
      <ele>83.0</ele>
      <time>2019-09-08T18:16:07Z</time>
    </trkpt>
    <trkpt lat="50.9480213" lon="6.9214520">
      <ele>89.8</ele>
      <time>2019-09-08T18:16:16Z</time>
    </trkpt>
    <trkpt lat="50.9476695" lon="6.9221698">
      <ele>91.0</ele>
      <time>2019-09-08T18:16:25Z</time>
    </trkpt>
    <trkpt lat="50.9473302" lon="6.9228723">
      <ele>85.0</ele>
      <time>2019-09-08T18:16:34Z</time>
    </trkpt>
    <trkpt lat="50.9470124" lon="6.9236318">
      <ele>85.2</ele>
      <time>2019-09-08T18:16:44Z</time>
    </trkpt>
    <trkpt lat="50.9466960" lon="6.9243630">
      <ele>79.4</ele>
      <time>2019-09-08T18:16:53Z</time>
    </trkpt>
    <trkpt lat="50.9464230" lon="6.9251345">
      <ele>86.4</ele>
      <time>2019-09-08T18:17:01Z</time>
    </trkpt>
    <trkpt lat="50.9460909" lon="6.9259321">
      <ele>89.2</ele>
      <time>2019-09-08T18:17:09Z</time>
    </trkpt>
    <trkpt lat="50.9457469" lon="6.9266403">
      <ele>88.6</ele>
      <time>2019-09-08T18:17:17Z</time>
    </trkpt>
    <trkpt lat="50.9456572" lon="6.9267947">
      <ele>83.0</ele>
      <time>2019-09-08T18:17:19Z</time>
    </trkpt>
    <trkpt lat="50.9453866" lon="6.9273886">
      <ele>72.2</ele>
      <time>2019-09-08T18:17:28Z</time>
    </trkpt>
    <trkpt lat="50.9453436" lon="6.9275038">
      <ele>70.4</ele>
      <time>2019-09-08T18:17:30Z</time>
    </trkpt>
    <trkpt lat="50.9450589" lon="6.9282604">
      <ele>55.4</ele>
      <time>2019-09-08T18:17:49Z</time>
    </trkpt>
    <trkpt lat="50.9449092" lon="6.9285040">
      <ele>55.8</ele>
      <time>2019-09-08T18:17:53Z</time>
    </trkpt>
    <trkpt lat="50.9446099" lon="6.9292575">
      <ele>56.6</ele>
      <time>2019-09-08T18:18:02Z</time>
    </trkpt>
    <trkpt lat="50.9443690" lon="6.9300947">
      <ele>56.6</ele>
      <time>2019-09-08T18:18:10Z</time>
    </trkpt>
    <trkpt lat="50.9441058" lon="6.9309085">
      <ele>54.4</ele>
      <time>2019-09-08T18:18:19Z</time>
    </trkpt>
    <trkpt lat="50.9438494" lon="6.9317294">
      <ele>55.2</ele>
      <time>2019-09-08T18:18:29Z</time>
    </trkpt>
    <trkpt lat="50.9437970" lon="6.9321550">
      <ele>58.6</ele>
      <time>2019-09-08T18:18:34Z</time>
    </trkpt>
    <trkpt lat="50.9437432" lon="6.9323253">
      <ele>60.6</ele>
      <time>2019-09-08T18:18:36Z</time>
    </trkpt>
    <trkpt lat="50.9434871" lon="6.9331291">
      <ele>60.2</ele>
      <time>2019-09-08T18:18:47Z</time>
    </trkpt>
    <trkpt lat="50.9434666" lon="6.9331798">
      <ele>58.2</ele>
      <time>2019-09-08T18:18:51Z</time>
    </trkpt>
    <trkpt lat="50.9433889" lon="6.9332355">
      <ele>54.6</ele>
      <time>2019-09-08T18:19:18Z</time>
    </trkpt>
    <trkpt lat="50.9430215" lon="6.9340024">
      <ele>53.2</ele>
      <time>2019-09-08T18:19:29Z</time>
    </trkpt>
    <trkpt lat="50.9426395" lon="6.9347113">
      <ele>53.8</ele>
      <time>2019-09-08T18:19:36Z</time>
    </trkpt>
    <trkpt lat="50.9422956" lon="6.9353774">
      <ele>57.6</ele>
      <time>2019-09-08T18:19:44Z</time>
    </trkpt>
    <trkpt lat="50.9422770" lon="6.9354037">
      <ele>59.8</ele>
      <time>2019-09-08T18:19:48Z</time>
    </trkpt>
    <trkpt lat="50.9422286" lon="6.9354727">
      <ele>55.8</ele>
      <time>2019-09-08T18:19:56Z</time>
    </trkpt>
    <trkpt lat="50.9419033" lon="6.9362260">
      <ele>61.6</ele>
      <time>2019-09-08T18:20:07Z</time>
    </trkpt>
    <trkpt lat="50.9415414" lon="6.9369615">
      <ele>67.8</ele>
      <time>2019-09-08T18:20:16Z</time>
    </trkpt>
    <trkpt lat="50.9412223" lon="6.9376787">
      <ele>77.4</ele>
      <time>2019-09-08T18:20:25Z</time>
    </trkpt>
    <trkpt lat="50.9408632" lon="6.9384483">
      <ele>88.0</ele>
      <time>2019-09-08T18:20:35Z</time>
    </trkpt>
    <trkpt lat="50.9406658" lon="6.9393012">
      <ele>97.0</ele>
      <time>2019-09-08T18:20:44Z</time>
    </trkpt>
    <trkpt lat="50.9406290" lon="6.9399221">
      <ele>71.6</ele>
      <time>2019-09-08T18:20:56Z</time>
    </trkpt>
    <trkpt lat="50.9406719" lon="6.9400246">
      <ele>67.4</ele>
      <time>2019-09-08T18:22:14Z</time>
    </trkpt>
    <trkpt lat="50.9406536" lon="6.9400826">
      <ele>66.8</ele>
      <time>2019-09-08T18:22:15Z</time>
    </trkpt>
    <trkpt lat="50.9406277" lon="6.9402180">
      <ele>65.6</ele>
      <time>2019-09-08T18:22:16Z</time>
    </trkpt>
    <trkpt lat="50.9405211" lon="6.9410673">
      <ele>61.6</ele>
      <time>2019-09-08T18:22:27Z</time>
    </trkpt>
    <trkpt lat="50.9404504" lon="6.9412355">
      <ele>61.4</ele>
      <time>2019-09-08T18:22:28Z</time>
    </trkpt>
    <trkpt lat="50.9402960" lon="6.9415584">
      <ele>61.8</ele>
      <time>2019-09-08T18:22:33Z</time>
    </trkpt>
    <trkpt lat="50.9402267" lon="6.9418010">
      <ele>60.6</ele>
      <time>2019-09-08T18:22:36Z</time>
    </trkpt>
    <trkpt lat="50.9402112" lon="6.9418845">
      <ele>60.4</ele>
      <time>2019-09-08T18:22:37Z</time>
    </trkpt>
    <trkpt lat="50.9401224" lon="6.9423087">
      <ele>56.2</ele>
      <time>2019-09-08T18:22:42Z</time>
    </trkpt>
    <trkpt lat="50.9400768" lon="6.9425473">
      <ele>54.2</ele>
      <time>2019-09-08T18:22:45Z</time>
    </trkpt>
    <trkpt lat="50.9400519" lon="6.9427083">
      <ele>53.4</ele>
      <time>2019-09-08T18:22:46Z</time>
    </trkpt>
    <trkpt lat="50.9400600" lon="6.9428872">
      <ele>54.0</ele>
      <time>2019-09-08T18:22:49Z</time>
    </trkpt>
    <trkpt lat="50.9400260" lon="6.9432743">
      <ele>52.4</ele>
      <time>2019-09-08T18:22:54Z</time>
    </trkpt>
    <trkpt lat="50.9400135" lon="6.9435739">
      <ele>52.6</ele>
      <time>2019-09-08T18:22:58Z</time>
    </trkpt>
    <trkpt lat="50.9400456" lon="6.9442132">
      <ele>50.4</ele>
      <time>2019-09-08T18:23:16Z</time>
    </trkpt>
    <trkpt lat="50.9400679" lon="6.9442401">
      <ele>51.6</ele>
      <time>2019-09-08T18:23:17Z</time>
    </trkpt>
    <trkpt lat="50.9402990" lon="6.9449377">
      <ele>53.8</ele>
      <time>2019-09-08T18:23:29Z</time>
    </trkpt>
    <trkpt lat="50.9406294" lon="6.9456527">
      <ele>60.0</ele>
      <time>2019-09-08T18:23:42Z</time>
    </trkpt>
    <trkpt lat="50.9407968" lon="6.9458645">
      <ele>83.0</ele>
      <time>2019-09-08T18:23:55Z</time>
    </trkpt>
    <trkpt lat="50.9408240" lon="6.9459791">
      <ele>88.2</ele>
      <time>2019-09-08T18:24:20Z</time>
    </trkpt>
    <trkpt lat="50.9409180" lon="6.9461701">
      <ele>95.2</ele>
      <time>2019-09-08T18:24:24Z</time>
    </trkpt>
    <trkpt lat="50.9409701" lon="6.9462894">
      <ele>96.2</ele>
      <time>2019-09-08T18:24:26Z</time>
    </trkpt>
    <trkpt lat="50.9410158" lon="6.9464481">
      <ele>95.4</ele>
      <time>2019-09-08T18:24:28Z</time>
    </trkpt>
    <trkpt lat="50.9410380" lon="6.9466109">
      <ele>94.6</ele>
      <time>2019-09-08T18:24:30Z</time>
    </trkpt>
    <trkpt lat="50.9410485" lon="6.9474996">
      <ele>74.0</ele>
      <time>2019-09-08T18:24:40Z</time>
    </trkpt>
    <trkpt lat="50.9410221" lon="6.9483936">
      <ele>62.0</ele>
      <time>2019-09-08T18:24:51Z</time>
    </trkpt>
    <trkpt lat="50.9410331" lon="6.9486246">
      <ele>59.0</ele>
      <time>2019-09-08T18:24:54Z</time>
    </trkpt>
    <trkpt lat="50.9410468" lon="6.9488482">
      <ele>57.4</ele>
      <time>2019-09-08T18:24:57Z</time>
    </trkpt>
    <trkpt lat="50.9410687" lon="6.9491524">
      <ele>56.4</ele>
      <time>2019-09-08T18:25:01Z</time>
    </trkpt>
    <trkpt lat="50.9411091" lon="6.9496274">
      <ele>55.2</ele>
      <time>2019-09-08T18:25:07Z</time>
    </trkpt>
    <trkpt lat="50.9411847" lon="6.9505389">
      <ele>54.0</ele>
      <time>2019-09-08T18:25:18Z</time>
    </trkpt>
    <trkpt lat="50.9412216" lon="6.9514477">
      <ele>53.4</ele>
      <time>2019-09-08T18:25:28Z</time>
    </trkpt>
    <trkpt lat="50.9412445" lon="6.9523216">
      <ele>48.8</ele>
      <time>2019-09-08T18:25:39Z</time>
    </trkpt>
    <trkpt lat="50.9412540" lon="6.9524576">
      <ele>47.2</ele>
      <time>2019-09-08T18:25:41Z</time>
    </trkpt>
    <trkpt lat="50.9414317" lon="6.9531478">
      <ele>44.4</ele>
      <time>2019-09-08T18:25:49Z</time>
    </trkpt>
    <trkpt lat="50.9414987" lon="6.9540547">
      <ele>45.8</ele>
      <time>2019-09-08T18:25:58Z</time>
    </trkpt>
    <trkpt lat="50.9415898" lon="6.9549059">
      <ele>46.4</ele>
      <time>2019-09-08T18:26:07Z</time>
    </trkpt>
    <trkpt lat="50.9416309" lon="6.9557689">
      <ele>45.4</ele>
      <time>2019-09-08T18:26:23Z</time>
    </trkpt>
    <trkpt lat="50.9416530" lon="6.9562859">
      <ele>45.6</ele>
      <time>2019-09-08T18:26:31Z</time>
    </trkpt>
    <trkpt lat="50.9411197" lon="6.9560966">
      <ele>53.8</ele>
      <time>2019-09-08T18:26:48Z</time>
    </trkpt>
    <trkpt lat="50.9409557" lon="6.9560915">
      <ele>60.4</ele>
      <time>2019-09-08T18:26:57Z</time>
    </trkpt>
    <trkpt lat="50.9409283" lon="6.9561858">
      <ele>65.6</ele>
      <time>2019-09-08T18:27:05Z</time>
    </trkpt>
    <trkpt lat="50.9408890" lon="6.9564224">
      <ele>66.4</ele>
      <time>2019-09-08T18:27:15Z</time>
    </trkpt>
    <trkpt lat="50.9408124" lon="6.9573524">
      <ele>74.0</ele>
      <time>2019-09-08T18:27:26Z</time>
    </trkpt>
    <trkpt lat="50.9408268" lon="6.9582718">
      <ele>65.4</ele>
      <time>2019-09-08T18:27:38Z</time>
    </trkpt>
    <trkpt lat="50.9409081" lon="6.9588584">
      <ele>69.2</ele>
      <time>2019-09-08T18:27:51Z</time>
    </trkpt>
    <trkpt lat="50.9409150" lon="6.9591228">
      <ele>75.8</ele>
      <time>2019-09-08T18:27:56Z</time>
    </trkpt>
    <trkpt lat="50.9410224" lon="6.9592277">
      <ele>77.8</ele>
      <time>2019-09-08T18:27:59Z</time>
    </trkpt>
    <trkpt lat="50.9410918" lon="6.9593250">
      <ele>80.0</ele>
      <time>2019-09-08T18:28:01Z</time>
    </trkpt>
    <trkpt lat="50.9411921" lon="6.9595408">
      <ele>83.8</ele>
      <time>2019-09-08T18:28:04Z</time>
    </trkpt>
    <trkpt lat="50.9412132" lon="6.9597276">
      <ele>82.8</ele>
      <time>2019-09-08T18:28:06Z</time>
    </trkpt>
    <trkpt lat="50.9412014" lon="6.9599471">
      <ele>73.0</ele>
      <time>2019-09-08T18:28:08Z</time>
    </trkpt>
    <trkpt lat="50.9412004" lon="6.9604217">
      <ele>58.8</ele>
      <time>2019-09-08T18:28:13Z</time>
    </trkpt>
    <trkpt lat="50.9412044" lon="6.9606661">
      <ele>54.6</ele>
      <time>2019-09-08T18:28:16Z</time>
    </trkpt>
    <trkpt lat="50.9411861" lon="6.9609835">
      <ele>53.2</ele>
      <time>2019-09-08T18:28:20Z</time>
    </trkpt>
    <trkpt lat="50.9412223" lon="6.9611956">
      <ele>53.2</ele>
      <time>2019-09-08T18:28:23Z</time>
    </trkpt>
    <trkpt lat="50.9412536" lon="6.9613417">
      <ele>52.6</ele>
      <time>2019-09-08T18:28:25Z</time>
    </trkpt>
    <trkpt lat="50.9412534" lon="6.9615079">
      <ele>50.8</ele>
      <time>2019-09-08T18:28:27Z</time>
    </trkpt>
    <trkpt lat="50.9412505" lon="6.9617652">
      <ele>48.4</ele>
      <time>2019-09-08T18:28:30Z</time>
    </trkpt>
    <trkpt lat="50.9412446" lon="6.9623689">
      <ele>49.6</ele>
      <time>2019-09-08T18:28:36Z</time>
    </trkpt>
    <trkpt lat="50.9413083" lon="6.9628284">
      <ele>50.0</ele>
      <time>2019-09-08T18:28:41Z</time>
    </trkpt>
    <trkpt lat="50.9413240" lon="6.9637005">
      <ele>51.6</ele>
      <time>2019-09-08T18:28:53Z</time>
    </trkpt>
    <trkpt lat="50.9412626" lon="6.9645746">
      <ele>85.0</ele>
      <time>2019-09-08T18:29:16Z</time>
    </trkpt>
    <trkpt lat="50.9412625" lon="6.9654483">
      <ele>85.0</ele>
      <time>2019-09-08T18:29:28Z</time>
    </trkpt>
    <trkpt lat="50.9412395" lon="6.9663780">
      <ele>79.8</ele>
      <time>2019-09-08T18:29:35Z</time>
    </trkpt>
    <trkpt lat="50.9412607" lon="6.9672955">
      <ele>71.4</ele>
      <time>2019-09-08T18:29:43Z</time>
    </trkpt>
    <trkpt lat="50.9412788" lon="6.9681706">
      <ele>64.2</ele>
      <time>2019-09-08T18:29:51Z</time>
    </trkpt>
    <trkpt lat="50.9412951" lon="6.9691212">
      <ele>61.2</ele>
      <time>2019-09-08T18:30:06Z</time>
    </trkpt>
    <trkpt lat="50.9412944" lon="6.9695763">
      <ele>59.0</ele>
      <time>2019-09-08T18:30:10Z</time>
    </trkpt>
    <trkpt lat="50.9412453" lon="6.9697979">
      <ele>57.6</ele>
      <time>2019-09-08T18:30:12Z</time>
    </trkpt>
    <trkpt lat="50.9410802" lon="6.9706792">
      <ele>51.6</ele>
      <time>2019-09-08T18:30:19Z</time>
    </trkpt>
    <trkpt lat="50.9408404" lon="6.9715189">
      <ele>49.6</ele>
      <time>2019-09-08T18:30:26Z</time>
    </trkpt>
    <trkpt lat="50.9405683" lon="6.9721276">
      <ele>49.8</ele>
      <time>2019-09-08T18:30:32Z</time>
    </trkpt>
    <trkpt lat="50.9403490" lon="6.9726017">
      <ele>51.8</ele>
      <time>2019-09-08T18:30:37Z</time>
    </trkpt>
    <trkpt lat="50.9402612" lon="6.9728977">
      <ele>50.8</ele>
      <time>2019-09-08T18:30:40Z</time>
    </trkpt>
    <trkpt lat="50.9401570" lon="6.9730244">
      <ele>47.0</ele>
      <time>2019-09-08T18:30:42Z</time>
    </trkpt>
    <trkpt lat="50.9400264" lon="6.9730773">
      <ele>46.0</ele>
      <time>2019-09-08T18:30:51Z</time>
    </trkpt>
    <trkpt lat="50.9400358" lon="6.9731442">
      <ele>45.4</ele>
      <time>2019-09-08T18:30:55Z</time>
    </trkpt>
    <trkpt lat="50.9399633" lon="6.9740538">
      <ele>42.6</ele>
      <time>2019-09-08T18:31:06Z</time>
    </trkpt>
    <trkpt lat="50.9399564" lon="6.9749438">
      <ele>41.8</ele>
      <time>2019-09-08T18:31:15Z</time>
    </trkpt>
    <trkpt lat="50.9398962" lon="6.9758443">
      <ele>41.6</ele>
      <time>2019-09-08T18:31:24Z</time>
    </trkpt>
    <trkpt lat="50.9398245" lon="6.9767794">
      <ele>42.6</ele>
      <time>2019-09-08T18:31:34Z</time>
    </trkpt>
    <trkpt lat="50.9398169" lon="6.9769685">
      <ele>42.4</ele>
      <time>2019-09-08T18:31:36Z</time>
    </trkpt>
    <trkpt lat="50.9398208" lon="6.9771604">
      <ele>42.4</ele>
      <time>2019-09-08T18:31:38Z</time>
    </trkpt>
    <trkpt lat="50.9397640" lon="6.9780341">
      <ele>42.0</ele>
      <time>2019-09-08T18:31:47Z</time>
    </trkpt>
    <trkpt lat="50.9397439" lon="6.9784738">
      <ele>41.6</ele>
      <time>2019-09-08T18:31:52Z</time>
    </trkpt>
    <trkpt lat="50.9398343" lon="6.9789013">
      <ele>43.2</ele>
      <time>2019-09-08T18:31:57Z</time>
    </trkpt>
    <trkpt lat="50.9399596" lon="6.9790832">
      <ele>41.8</ele>
      <time>2019-09-08T18:32:01Z</time>
    </trkpt>
    <trkpt lat="50.9404824" lon="6.9794064">
      <ele>39.6</ele>
      <time>2019-09-08T18:32:12Z</time>
    </trkpt>
    <trkpt lat="50.9409179" lon="6.9795679">
      <ele>39.8</ele>
      <time>2019-09-08T18:32:24Z</time>
    </trkpt>
    <trkpt lat="50.9410838" lon="6.9798950">
      <ele>41.0</ele>
      <time>2019-09-08T18:32:32Z</time>
    </trkpt>
    <trkpt lat="50.9413863" lon="6.9801217">
      <ele>40.0</ele>
      <time>2019-09-08T18:32:39Z</time>
    </trkpt>
    <trkpt lat="50.9417050" lon="6.9802527">
      <ele>43.8</ele>
      <time>2019-09-08T18:32:45Z</time>
    </trkpt>
    <trkpt lat="50.9421779" lon="6.9806769">
      <ele>45.2</ele>
      <time>2019-09-08T18:32:56Z</time>
    </trkpt>
    <trkpt lat="50.9427074" lon="6.9810564">
      <ele>46.4</ele>
      <time>2019-09-08T18:33:07Z</time>
    </trkpt>
    <trkpt lat="50.9432387" lon="6.9814617">
      <ele>45.2</ele>
      <time>2019-09-08T18:33:18Z</time>
    </trkpt>
    <trkpt lat="50.9437160" lon="6.9819196">
      <ele>52.2</ele>
      <time>2019-09-08T18:33:28Z</time>
    </trkpt>
    <trkpt lat="50.9442207" lon="6.9823777">
      <ele>47.6</ele>
      <time>2019-09-08T18:33:39Z</time>
    </trkpt>
    <trkpt lat="50.9443931" lon="6.9825108">
      <ele>45.6</ele>
      <time>2019-09-08T18:33:43Z</time>
    </trkpt>
    <trkpt lat="50.9448311" lon="6.9830711">
      <ele>44.6</ele>
      <time>2019-09-08T18:33:54Z</time>
    </trkpt>
    <trkpt lat="50.9449801" lon="6.9833245">
      <ele>45.6</ele>
      <time>2019-09-08T18:33:59Z</time>
    </trkpt>
    <trkpt lat="50.9450569" lon="6.9835206">
      <ele>45.8</ele>
      <time>2019-09-08T18:34:02Z</time>
    </trkpt>
    <trkpt lat="50.9451362" lon="6.9836322">
      <ele>46.6</ele>
      <time>2019-09-08T18:34:04Z</time>
    </trkpt>
    <trkpt lat="50.9456339" lon="6.9841067">
      <ele>44.6</ele>
      <time>2019-09-08T18:34:15Z</time>
    </trkpt>
    <trkpt lat="50.9461192" lon="6.9844916">
      <ele>49.0</ele>
      <time>2019-09-08T18:34:25Z</time>
    </trkpt>
    <trkpt lat="50.9466234" lon="6.9849091">
      <ele>47.2</ele>
      <time>2019-09-08T18:34:36Z</time>
    </trkpt>
    <trkpt lat="50.9471333" lon="6.9853534">
      <ele>47.4</ele>
      <time>2019-09-08T18:34:47Z</time>
    </trkpt>
    <trkpt lat="50.9474763" lon="6.9857213">
      <ele>45.6</ele>
      <time>2019-09-08T18:34:55Z</time>
    </trkpt>
    <trkpt lat="50.9475499" lon="6.9858400">
      <ele>44.2</ele>
      <time>2019-09-08T18:34:57Z</time>
    </trkpt>
    <trkpt lat="50.9476568" lon="6.9858984">
      <ele>43.2</ele>
      <time>2019-09-08T18:34:59Z</time>
    </trkpt>
    <trkpt lat="50.9477977" lon="6.9859378">
      <ele>44.0</ele>
      <time>2019-09-08T18:35:01Z</time>
    </trkpt>
    <trkpt lat="50.9482791" lon="6.9863625">
      <ele>45.8</ele>
      <time>2019-09-08T18:35:10Z</time>
    </trkpt>
    <trkpt lat="50.9487726" lon="6.9867410">
      <ele>48.2</ele>
      <time>2019-09-08T18:35:19Z</time>
    </trkpt>
    <trkpt lat="50.9490929" lon="6.9869909">
      <ele>50.0</ele>
      <time>2019-09-08T18:35:25Z</time>
    </trkpt>
    <trkpt lat="50.9496091" lon="6.9874348">
      <ele>48.4</ele>
      <time>2019-09-08T18:35:35Z</time>
    </trkpt>
    <trkpt lat="50.9501230" lon="6.9878822">
      <ele>47.0</ele>
      <time>2019-09-08T18:35:46Z</time>
    </trkpt>
    <trkpt lat="50.9506181" lon="6.9883000">
      <ele>46.6</ele>
      <time>2019-09-08T18:35:56Z</time>
    </trkpt>
    <trkpt lat="50.9511087" lon="6.9887331">
      <ele>45.4</ele>
      <time>2019-09-08T18:36:06Z</time>
    </trkpt>
    <trkpt lat="50.9516119" lon="6.9891670">
      <ele>48.2</ele>
      <time>2019-09-08T18:36:18Z</time>
    </trkpt>
    <trkpt lat="50.9517812" lon="6.9894336">
      <ele>47.4</ele>
      <time>2019-09-08T18:36:26Z</time>
    </trkpt>
    <trkpt lat="50.9516497" lon="6.9900604">
      <ele>46.6</ele>
      <time>2019-09-08T18:36:38Z</time>
    </trkpt>
    <trkpt lat="50.9519860" lon="6.9905050">
      <ele>56.8</ele>
      <time>2019-09-08T18:36:52Z</time>
    </trkpt>
    <trkpt lat="50.9518288" lon="6.9913480">
      <ele>63.2</ele>
      <time>2019-09-08T18:37:06Z</time>
    </trkpt>
    <trkpt lat="50.9518593" lon="6.9916350">
      <ele>57.4</ele>
      <time>2019-09-08T18:37:11Z</time>
    </trkpt>
    <trkpt lat="50.9523693" lon="6.9920319">
      <ele>48.2</ele>
      <time>2019-09-08T18:37:27Z</time>
    </trkpt>
    <trkpt lat="50.9525043" lon="6.9926579">
      <ele>50.6</ele>
      <time>2019-09-08T18:37:43Z</time>
    </trkpt>
    <trkpt lat="50.9524701" lon="6.9926681">
      <ele>50.4</ele>
      <time>2019-09-08T18:37:45Z</time>
    </trkpt>
    <trkpt lat="50.9520749" lon="6.9925292">
      <ele>54.8</ele>
      <time>2019-09-08T18:38:04Z</time>
    </trkpt>
  </trkseg></trk>
</gpx>
