<?xml version="1.0" encoding="UTF-8"?>
<gpx version="1.1" creator="Diary FIT converter" xmlns="http://www.topografix.com/GPX/1/1">
  <trk><name>Cycling</name><trkseg>
    <trkpt lat="50.9632896" lon="6.8760343">
      <time>2022-05-18T08:51:23Z</time>
    </trkpt>
    <trkpt lat="50.9632991" lon="6.8760458">
      <time>2022-05-18T08:51:25Z</time>
    </trkpt>
    <trkpt lat="50.9633217" lon="6.8760331">
      <time>2022-05-18T08:51:28Z</time>
    </trkpt>
    <trkpt lat="50.9632749" lon="6.8760648">
      <time>2022-05-18T08:51:32Z</time>
    </trkpt>
    <trkpt lat="50.9632462" lon="6.8761487">
      <time>2022-05-18T08:51:34Z</time>
    </trkpt>
    <trkpt lat="50.9631805" lon="6.8764134">
      <time>2022-05-18T08:51:38Z</time>
    </trkpt>
    <trkpt lat="50.9631515" lon="6.8765569">
      <time>2022-05-18T08:51:40Z</time>
    </trkpt>
    <trkpt lat="50.9631440" lon="6.8766495">
      <time>2022-05-18T08:51:41Z</time>
    </trkpt>
    <trkpt lat="50.9631453" lon="6.8767110">
      <time>2022-05-18T08:51:42Z</time>
    </trkpt>
    <trkpt lat="50.9631663" lon="6.8767839">
      <time>2022-05-18T08:51:43Z</time>
    </trkpt>
    <trkpt lat="50.9632054" lon="6.8768528">
      <time>2022-05-18T08:51:44Z</time>
    </trkpt>
    <trkpt lat="50.9633140" lon="6.8770594">
      <time>2022-05-18T08:51:47Z</time>
    </trkpt>
    <trkpt lat="50.9633520" lon="6.8771287">
      <time>2022-05-18T08:51:48Z</time>
    </trkpt>
    <trkpt lat="50.9636098" lon="6.8775358">
      <time>2022-05-18T08:51:54Z</time>
    </trkpt>
    <trkpt lat="50.9638536" lon="6.8778463">
      <time>2022-05-18T08:52:00Z</time>
    </trkpt>
    <trkpt lat="50.9638591" lon="6.8778858">
      <time>2022-05-18T08:52:01Z</time>
    </trkpt>
    <trkpt lat="50.9638370" lon="6.8779494">
      <time>2022-05-18T08:52:03Z</time>
    </trkpt>
    <trkpt lat="50.9637589" lon="6.8780486">
      <time>2022-05-18T08:52:06Z</time>
    </trkpt>
    <trkpt lat="50.9637226" lon="6.8780945">
      <time>2022-05-18T08:52:07Z</time>
    </trkpt>
    <trkpt lat="50.9636767" lon="6.8781452">
      <time>2022-05-18T08:52:08Z</time>
    </trkpt>
    <trkpt lat="50.9636251" lon="6.8781931">
      <time>2022-05-18T08:52:09Z</time>
    </trkpt>
    <trkpt lat="50.9634610" lon="6.8782821">
      <time>2022-05-18T08:52:12Z</time>
    </trkpt>
    <trkpt lat="50.9633222" lon="6.8784050">
      <time>2022-05-18T08:52:16Z</time>
    </trkpt>
    <trkpt lat="50.9632916" lon="6.8784412">
      <time>2022-05-18T08:52:17Z</time>
    </trkpt>
    <trkpt lat="50.9631680" lon="6.8785941">
      <time>2022-05-18T08:52:21Z</time>
    </trkpt>
    <trkpt lat="50.9630287" lon="6.8787004">
      <time>2022-05-18T08:52:24Z</time>
    </trkpt>
    <trkpt lat="50.9629866" lon="6.8787489">
      <time>2022-05-18T08:52:25Z</time>
    </trkpt>
    <trkpt lat="50.9629413" lon="6.8788637">
      <time>2022-05-18T08:52:27Z</time>
    </trkpt>
    <trkpt lat="50.9628733" lon="6.8790507">
      <time>2022-05-18T08:52:30Z</time>
    </trkpt>
    <trkpt lat="50.9628428" lon="6.8791188">
      <time>2022-05-18T08:52:31Z</time>
    </trkpt>
    <trkpt lat="50.9628109" lon="6.8791871">
      <time>2022-05-18T08:52:32Z</time>
    </trkpt>
    <trkpt lat="50.9627877" lon="6.8793397">
      <time>2022-05-18T08:52:34Z</time>
    </trkpt>
    <trkpt lat="50.9627359" lon="6.8796645">
      <time>2022-05-18T08:52:38Z</time>
    </trkpt>
    <trkpt lat="50.9627031" lon="6.8798305">
      <time>2022-05-18T08:52:40Z</time>
    </trkpt>
    <trkpt lat="50.9625817" lon="6.8805800">
      <time>2022-05-18T08:52:49Z</time>
    </trkpt>
    <trkpt lat="50.9625390" lon="6.8809372">
      <time>2022-05-18T08:52:53Z</time>
    </trkpt>
    <trkpt lat="50.9624824" lon="6.8812888">
      <time>2022-05-18T08:52:57Z</time>
    </trkpt>
    <trkpt lat="50.9624698" lon="6.8813773">
      <time>2022-05-18T08:52:58Z</time>
    </trkpt>
    <trkpt lat="50.9623877" lon="6.8818939">
      <time>2022-05-18T08:53:04Z</time>
    </trkpt>
    <trkpt lat="50.9623769" lon="6.8819633">
      <time>2022-05-18T08:53:05Z</time>
    </trkpt>
    <trkpt lat="50.9623420" lon="6.8822141">
      <time>2022-05-18T08:53:08Z</time>
    </trkpt>
    <trkpt lat="50.9623087" lon="6.8823737">
      <time>2022-05-18T08:53:10Z</time>
    </trkpt>
    <trkpt lat="50.9623009" lon="6.8824612">
      <time>2022-05-18T08:53:11Z</time>
    </trkpt>
    <trkpt lat="50.9622747" lon="6.8826186">
      <time>2022-05-18T08:53:13Z</time>
    </trkpt>
    <trkpt lat="50.9622428" lon="6.8828528">
      <time>2022-05-18T08:53:16Z</time>
    </trkpt>
    <trkpt lat="50.9621626" lon="6.8833248">
      <time>2022-05-18T08:53:22Z</time>
    </trkpt>
    <trkpt lat="50.9621512" lon="6.8833988">
      <time>2022-05-18T08:53:23Z</time>
    </trkpt>
    <trkpt lat="50.9620898" lon="6.8836741">
      <time>2022-05-18T08:53:27Z</time>
    </trkpt>
    <trkpt lat="50.9620713" lon="6.8837368">
      <time>2022-05-18T08:53:28Z</time>
    </trkpt>
    <trkpt lat="50.9620378" lon="6.8838625">
      <time>2022-05-18T08:53:30Z</time>
    </trkpt>
    <trkpt lat="50.9620336" lon="6.8840147">
      <time>2022-05-18T08:53:32Z</time>
    </trkpt>
    <trkpt lat="50.9620300" lon="6.8840926">
      <time>2022-05-18T08:53:33Z</time>
    </trkpt>
    <trkpt lat="50.9620046" lon="6.8842305">
      <time>2022-05-18T08:53:35Z</time>
    </trkpt>
    <trkpt lat="50.9619701" lon="6.8843767">
      <time>2022-05-18T08:53:37Z</time>
    </trkpt>
    <trkpt lat="50.9619342" lon="6.8845219">
      <time>2022-05-18T08:53:39Z</time>
    </trkpt>
    <trkpt lat="50.9619134" lon="6.8846746">
      <time>2022-05-18T08:53:41Z</time>
    </trkpt>
    <trkpt lat="50.9618976" lon="6.8847476">
      <time>2022-05-18T08:53:42Z</time>
    </trkpt>
    <trkpt lat="50.9618915" lon="6.8849307">
      <time>2022-05-18T08:53:45Z</time>
    </trkpt>
    <trkpt lat="50.9618694" lon="6.8849810">
      <time>2022-05-18T08:53:46Z</time>
    </trkpt>
    <trkpt lat="50.9618458" lon="6.8850140">
      <time>2022-05-18T08:53:47Z</time>
    </trkpt>
    <trkpt lat="50.9618082" lon="6.8850409">
      <time>2022-05-18T08:53:48Z</time>
    </trkpt>
    <trkpt lat="50.9617604" lon="6.8850654">
      <time>2022-05-18T08:53:49Z</time>
    </trkpt>
    <trkpt lat="50.9617069" lon="6.8850954">
      <time>2022-05-18T08:53:50Z</time>
    </trkpt>
    <trkpt lat="50.9616487" lon="6.8851334">
      <time>2022-05-18T08:53:51Z</time>
    </trkpt>
    <trkpt lat="50.9615191" lon="6.8852574">
      <time>2022-05-18T08:53:54Z</time>
    </trkpt>
    <trkpt lat="50.9614741" lon="6.8853016">
      <time>2022-05-18T08:53:55Z</time>
    </trkpt>
    <trkpt lat="50.9613912" lon="6.8853848">
      <time>2022-05-18T08:53:57Z</time>
    </trkpt>
    <trkpt lat="50.9613486" lon="6.8854335">
      <time>2022-05-18T08:53:58Z</time>
    </trkpt>
    <trkpt lat="50.9612505" lon="6.8855286">
      <time>2022-05-18T08:54:00Z</time>
    </trkpt>
    <trkpt lat="50.9611424" lon="6.8855871">
      <time>2022-05-18T08:54:02Z</time>
    </trkpt>
    <trkpt lat="50.9607689" lon="6.8856883">
      <time>2022-05-18T08:54:09Z</time>
    </trkpt>
    <trkpt lat="50.9603724" lon="6.8858000">
      <time>2022-05-18T08:54:16Z</time>
    </trkpt>
    <trkpt lat="50.9602345" lon="6.8858280">
      <time>2022-05-18T08:54:19Z</time>
    </trkpt>
    <trkpt lat="50.9601813" lon="6.8858387">
      <time>2022-05-18T08:54:20Z</time>
    </trkpt>
    <trkpt lat="50.9600429" lon="6.8858890">
      <time>2022-05-18T08:54:23Z</time>
    </trkpt>
    <trkpt lat="50.9599642" lon="6.8859184">
      <time>2022-05-18T08:54:25Z</time>
    </trkpt>
    <trkpt lat="50.9599019" lon="6.8859599">
      <time>2022-05-18T08:54:27Z</time>
    </trkpt>
    <trkpt lat="50.9598839" lon="6.8859896">
      <time>2022-05-18T08:54:28Z</time>
    </trkpt>
    <trkpt lat="50.9598620" lon="6.8860806">
      <time>2022-05-18T08:54:30Z</time>
    </trkpt>
    <trkpt lat="50.9599034" lon="6.8861987">
      <time>2022-05-18T08:54:32Z</time>
    </trkpt>
    <trkpt lat="50.9600268" lon="6.8864538">
      <time>2022-05-18T08:54:36Z</time>
    </trkpt>
    <trkpt lat="50.9601004" lon="6.8866728">
      <time>2022-05-18T08:54:39Z</time>
    </trkpt>
    <trkpt lat="50.9601550" lon="6.8869053">
      <time>2022-05-18T08:54:42Z</time>
    </trkpt>
    <trkpt lat="50.9602080" lon="6.8871477">
      <time>2022-05-18T08:54:45Z</time>
    </trkpt>
    <trkpt lat="50.9602635" lon="6.8875642">
      <time>2022-05-18T08:54:50Z</time>
    </trkpt>
    <trkpt lat="50.9602931" lon="6.8877294">
      <time>2022-05-18T08:54:52Z</time>
    </trkpt>
    <trkpt lat="50.9603055" lon="6.8878156">
      <time>2022-05-18T08:54:53Z</time>
    </trkpt>
    <trkpt lat="50.9603304" lon="6.8882681">
      <time>2022-05-18T08:54:58Z</time>
    </trkpt>
    <trkpt lat="50.9603236" lon="6.8884459">
      <time>2022-05-18T08:55:00Z</time>
    </trkpt>
    <trkpt lat="50.9602977" lon="6.8886993">
      <time>2022-05-18T08:55:03Z</time>
    </trkpt>
    <trkpt lat="50.9602880" lon="6.8887838">
      <time>2022-05-18T08:55:04Z</time>
    </trkpt>
    <trkpt lat="50.9601294" lon="6.8898545">
      <time>2022-05-18T08:55:15Z</time>
    </trkpt>
    <trkpt lat="50.9601496" lon="6.8900560">
      <time>2022-05-18T08:55:17Z</time>
    </trkpt>
    <trkpt lat="50.9601397" lon="6.8901449">
      <time>2022-05-18T08:55:18Z</time>
    </trkpt>
    <trkpt lat="50.9601558" lon="6.8902312">
      <time>2022-05-18T08:55:19Z</time>
    </trkpt>
    <trkpt lat="50.9602262" lon="6.8905213">
      <time>2022-05-18T08:55:22Z</time>
    </trkpt>
    <trkpt lat="50.9603594" lon="6.8909400">
      <time>2022-05-18T08:55:27Z</time>
    </trkpt>
    <trkpt lat="50.9604158" lon="6.8910809">
      <time>2022-05-18T08:55:29Z</time>
    </trkpt>
    <trkpt lat="50.9605070" lon="6.8913005">
      <time>2022-05-18T08:55:32Z</time>
    </trkpt>
    <trkpt lat="50.9605651" lon="6.8914497">
      <time>2022-05-18T08:55:34Z</time>
    </trkpt>
    <trkpt lat="50.9607182" lon="6.8917420">
      <time>2022-05-18T08:55:38Z</time>
    </trkpt>
    <trkpt lat="50.9608883" lon="6.8920991">
      <time>2022-05-18T08:55:43Z</time>
    </trkpt>
    <trkpt lat="50.9609185" lon="6.8921687">
      <time>2022-05-18T08:55:44Z</time>
    </trkpt>
    <trkpt lat="50.9609798" lon="6.8923031">
      <time>2022-05-18T08:55:46Z</time>
    </trkpt>
    <trkpt lat="50.9611068" lon="6.8925163">
      <time>2022-05-18T08:55:49Z</time>
    </trkpt>
    <trkpt lat="50.9611229" lon="6.8925942">
      <time>2022-05-18T08:55:50Z</time>
    </trkpt>
    <trkpt lat="50.9611286" lon="6.8926721">
      <time>2022-05-18T08:55:51Z</time>
    </trkpt>
    <trkpt lat="50.9610932" lon="6.8928217">
      <time>2022-05-18T08:55:53Z</time>
    </trkpt>
    <trkpt lat="50.9608862" lon="6.8932614">
      <time>2022-05-18T08:55:59Z</time>
    </trkpt>
    <trkpt lat="50.9607363" lon="6.8936251">
      <time>2022-05-18T08:56:03Z</time>
    </trkpt>
    <trkpt lat="50.9606480" lon="6.8937921">
      <time>2022-05-18T08:56:05Z</time>
    </trkpt>
    <trkpt lat="50.9604534" lon="6.8941522">
      <time>2022-05-18T08:56:09Z</time>
    </trkpt>
    <trkpt lat="50.9604104" lon="6.8942440">
      <time>2022-05-18T08:56:10Z</time>
    </trkpt>
    <trkpt lat="50.9602196" lon="6.8946195">
      <time>2022-05-18T08:56:14Z</time>
    </trkpt>
    <trkpt lat="50.9600747" lon="6.8949017">
      <time>2022-05-18T08:56:17Z</time>
    </trkpt>
    <trkpt lat="50.9600265" lon="6.8949949">
      <time>2022-05-18T08:56:18Z</time>
    </trkpt>
    <trkpt lat="50.9598330" lon="6.8953695">
      <time>2022-05-18T08:56:22Z</time>
    </trkpt>
    <trkpt lat="50.9596026" lon="6.8958347">
      <time>2022-05-18T08:56:27Z</time>
    </trkpt>
    <trkpt lat="50.9594805" lon="6.8961128">
      <time>2022-05-18T08:56:30Z</time>
    </trkpt>
    <trkpt lat="50.9593223" lon="6.8964604">
      <time>2022-05-18T08:56:34Z</time>
    </trkpt>
    <trkpt lat="50.9591889" lon="6.8967079">
      <time>2022-05-18T08:56:37Z</time>
    </trkpt>
    <trkpt lat="50.9591203" lon="6.8968804">
      <time>2022-05-18T08:56:39Z</time>
    </trkpt>
    <trkpt lat="50.9589141" lon="6.8973423">
      <time>2022-05-18T08:56:44Z</time>
    </trkpt>
    <trkpt lat="50.9586377" lon="6.8978934">
      <time>2022-05-18T08:56:50Z</time>
    </trkpt>
    <trkpt lat="50.9584101" lon="6.8984586">
      <time>2022-05-18T08:56:56Z</time>
    </trkpt>
    <trkpt lat="50.9581544" lon="6.8989629">
      <time>2022-05-18T08:57:02Z</time>
    </trkpt>
    <trkpt lat="50.9579345" lon="6.8994038">
      <time>2022-05-18T08:57:08Z</time>
    </trkpt>
    <trkpt lat="50.9578002" lon="6.8996643">
      <time>2022-05-18T08:57:12Z</time>
    </trkpt>
    <trkpt lat="50.9577817" lon="6.8997384">
      <time>2022-05-18T08:57:13Z</time>
    </trkpt>
    <trkpt lat="50.9577634" lon="6.8998083">
      <time>2022-05-18T08:57:14Z</time>
    </trkpt>
    <trkpt lat="50.9577012" lon="6.8999683">
      <time>2022-05-18T08:57:17Z</time>
    </trkpt>
    <trkpt lat="50.9575695" lon="6.9003033">
      <time>2022-05-18T08:57:23Z</time>
    </trkpt>
    <trkpt lat="50.9575181" lon="6.9004398">
      <time>2022-05-18T08:57:25Z</time>
    </trkpt>
    <trkpt lat="50.9574756" lon="6.9005925">
      <time>2022-05-18T08:57:27Z</time>
    </trkpt>
    <trkpt lat="50.9574474" lon="6.9007723">
      <time>2022-05-18T08:57:29Z</time>
    </trkpt>
    <trkpt lat="50.9573663" lon="6.9009497">
      <time>2022-05-18T08:57:31Z</time>
    </trkpt>
    <trkpt lat="50.9572741" lon="6.9011294">
      <time>2022-05-18T08:57:33Z</time>
    </trkpt>
    <trkpt lat="50.9571757" lon="6.9014511">
      <time>2022-05-18T08:57:36Z</time>
    </trkpt>
    <trkpt lat="50.9571582" lon="6.9015647">
      <time>2022-05-18T08:57:37Z</time>
    </trkpt>
    <trkpt lat="50.9571317" lon="6.9016718">
      <time>2022-05-18T08:57:38Z</time>
    </trkpt>
    <trkpt lat="50.9570227" lon="6.9019592">
      <time>2022-05-18T08:57:41Z</time>
    </trkpt>
    <trkpt lat="50.9567677" lon="6.9026962">
      <time>2022-05-18T08:57:48Z</time>
    </trkpt>
    <trkpt lat="50.9567080" lon="6.9029025">
      <time>2022-05-18T08:57:50Z</time>
    </trkpt>
    <trkpt lat="50.9566384" lon="6.9030841">
      <time>2022-05-18T08:57:52Z</time>
    </trkpt>
    <trkpt lat="50.9565843" lon="6.9033885">
      <time>2022-05-18T08:57:55Z</time>
    </trkpt>
    <trkpt lat="50.9565617" lon="6.9034925">
      <time>2022-05-18T08:57:56Z</time>
    </trkpt>
    <trkpt lat="50.9564357" lon="6.9038804">
      <time>2022-05-18T08:58:00Z</time>
    </trkpt>
    <trkpt lat="50.9561931" lon="6.9045494">
      <time>2022-05-18T08:58:07Z</time>
    </trkpt>
    <trkpt lat="50.9560608" lon="6.9049128">
      <time>2022-05-18T08:58:11Z</time>
    </trkpt>
    <trkpt lat="50.9560141" lon="6.9051081">
      <time>2022-05-18T08:58:13Z</time>
    </trkpt>
    <trkpt lat="50.9559886" lon="6.9052051">
      <time>2022-05-18T08:58:14Z</time>
    </trkpt>
    <trkpt lat="50.9558302" lon="6.9056908">
      <time>2022-05-18T08:58:19Z</time>
    </trkpt>
    <trkpt lat="50.9555669" lon="6.9064753">
      <time>2022-05-18T08:58:27Z</time>
    </trkpt>
    <trkpt lat="50.9554000" lon="6.9069631">
      <time>2022-05-18T08:58:32Z</time>
    </trkpt>
    <trkpt lat="50.9552916" lon="6.9072514">
      <time>2022-05-18T08:58:35Z</time>
    </trkpt>
    <trkpt lat="50.9552042" lon="6.9075623">
      <time>2022-05-18T08:58:38Z</time>
    </trkpt>
    <trkpt lat="50.9551426" lon="6.9077705">
      <time>2022-05-18T08:58:40Z</time>
    </trkpt>
    <trkpt lat="50.9550701" lon="6.9080887">
      <time>2022-05-18T08:58:43Z</time>
    </trkpt>
    <trkpt lat="50.9550419" lon="6.9081916">
      <time>2022-05-18T08:58:44Z</time>
    </trkpt>
    <trkpt lat="50.9550055" lon="6.9082871">
      <time>2022-05-18T08:58:45Z</time>
    </trkpt>
    <trkpt lat="50.9549332" lon="6.9084706">
      <time>2022-05-18T08:58:47Z</time>
    </trkpt>
    <trkpt lat="50.9547741" lon="6.9089481">
      <time>2022-05-18T08:58:52Z</time>
    </trkpt>
    <trkpt lat="50.9546204" lon="6.9093702">
      <time>2022-05-18T08:58:57Z</time>
    </trkpt>
    <trkpt lat="50.9545893" lon="6.9094397">
      <time>2022-05-18T08:58:58Z</time>
    </trkpt>
    <trkpt lat="50.9545179" lon="6.9096258">
      <time>2022-05-18T08:59:01Z</time>
    </trkpt>
    <trkpt lat="50.9544815" lon="6.9097125">
      <time>2022-05-18T08:59:03Z</time>
    </trkpt>
    <trkpt lat="50.9544697" lon="6.9097459">
      <time>2022-05-18T08:59:04Z</time>
    </trkpt>
    <trkpt lat="50.9544766" lon="6.9098087">
      <time>2022-05-18T08:59:06Z</time>
    </trkpt>
    <trkpt lat="50.9544755" lon="6.9098271">
      <time>2022-05-18T08:59:07Z</time>
    </trkpt>
    <trkpt lat="50.9544761" lon="6.9098344">
      <time>2022-05-18T08:59:10Z</time>
    </trkpt>
    <trkpt lat="50.9544504" lon="6.9099043">
      <time>2022-05-18T08:59:16Z</time>
    </trkpt>
    <trkpt lat="50.9543831" lon="6.9100564">
      <time>2022-05-18T08:59:19Z</time>
    </trkpt>
    <trkpt lat="50.9543599" lon="6.9101188">
      <time>2022-05-18T08:59:20Z</time>
    </trkpt>
    <trkpt lat="50.9542091" lon="6.9104873">
      <time>2022-05-18T08:59:25Z</time>
    </trkpt>
    <trkpt lat="50.9541621" lon="6.9105613">
      <time>2022-05-18T08:59:26Z</time>
    </trkpt>
    <trkpt lat="50.9540133" lon="6.9107382">
      <time>2022-05-18T08:59:29Z</time>
    </trkpt>
    <trkpt lat="50.9539724" lon="6.9108006">
      <time>2022-05-18T08:59:30Z</time>
    </trkpt>
    <trkpt lat="50.9539015" lon="6.9109455">
      <time>2022-05-18T08:59:32Z</time>
    </trkpt>
    <trkpt lat="50.9538594" lon="6.9110085">
      <time>2022-05-18T08:59:33Z</time>
    </trkpt>
    <trkpt lat="50.9536624" lon="6.9112645">
      <time>2022-05-18T08:59:37Z</time>
    </trkpt>
    <trkpt lat="50.9532844" lon="6.9118137">
      <time>2022-05-18T08:59:45Z</time>
    </trkpt>
    <trkpt lat="50.9530913" lon="6.9120971">
      <time>2022-05-18T08:59:49Z</time>
    </trkpt>
    <trkpt lat="50.9530029" lon="6.9122450">
      <time>2022-05-18T08:59:51Z</time>
    </trkpt>
    <trkpt lat="50.9529648" lon="6.9123167">
      <time>2022-05-18T08:59:52Z</time>
    </trkpt>
    <trkpt lat="50.9529107" lon="6.9123767">
      <time>2022-05-18T08:59:53Z</time>
    </trkpt>
    <trkpt lat="50.9528054" lon="6.9124975">
      <time>2022-05-18T08:59:55Z</time>
    </trkpt>
    <trkpt lat="50.9526766" lon="6.9127254">
      <time>2022-05-18T08:59:58Z</time>
    </trkpt>
    <trkpt lat="50.9525919" lon="6.9128653">
      <time>2022-05-18T09:00:00Z</time>
    </trkpt>
    <trkpt lat="50.9524536" lon="6.9130672">
      <time>2022-05-18T09:00:04Z</time>
    </trkpt>
    <trkpt lat="50.9523516" lon="6.9131989">
      <time>2022-05-18T09:00:08Z</time>
    </trkpt>
    <trkpt lat="50.9522464" lon="6.9134333">
      <time>2022-05-18T09:00:13Z</time>
    </trkpt>
    <trkpt lat="50.9521742" lon="6.9135398">
      <time>2022-05-18T09:00:15Z</time>
    </trkpt>
    <trkpt lat="50.9519604" lon="6.9138272">
      <time>2022-05-18T09:00:20Z</time>
    </trkpt>
    <trkpt lat="50.9519112" lon="6.9138871">
      <time>2022-05-18T09:00:21Z</time>
    </trkpt>
    <trkpt lat="50.9517971" lon="6.9140923">
      <time>2022-05-18T09:00:24Z</time>
    </trkpt>
    <trkpt lat="50.9517042" lon="6.9143147">
      <time>2022-05-18T09:00:27Z</time>
    </trkpt>
    <trkpt lat="50.9516633" lon="6.9143821">
      <time>2022-05-18T09:00:28Z</time>
    </trkpt>
    <trkpt lat="50.9515773" lon="6.9145220">
      <time>2022-05-18T09:00:30Z</time>
    </trkpt>
    <trkpt lat="50.9515305" lon="6.9145851">
      <time>2022-05-18T09:00:31Z</time>
    </trkpt>
    <trkpt lat="50.9514103" lon="6.9147566">
      <time>2022-05-18T09:00:34Z</time>
    </trkpt>
    <trkpt lat="50.9511523" lon="6.9151457">
      <time>2022-05-18T09:00:43Z</time>
    </trkpt>
    <trkpt lat="50.9510034" lon="6.9153997">
      <time>2022-05-18T09:00:48Z</time>
    </trkpt>
    <trkpt lat="50.9509275" lon="6.9155352">
      <time>2022-05-18T09:00:50Z</time>
    </trkpt>
    <trkpt lat="50.9508056" lon="6.9156753">
      <time>2022-05-18T09:00:53Z</time>
    </trkpt>
    <trkpt lat="50.9507542" lon="6.9157725">
      <time>2022-05-18T09:00:56Z</time>
    </trkpt>
    <trkpt lat="50.9506561" lon="6.9159357">
      <time>2022-05-18T09:01:00Z</time>
    </trkpt>
    <trkpt lat="50.9506219" lon="6.9159838">
      <time>2022-05-18T09:01:01Z</time>
    </trkpt>
    <trkpt lat="50.9505602" lon="6.9160833">
      <time>2022-05-18T09:01:03Z</time>
    </trkpt>
    <trkpt lat="50.9505267" lon="6.9161256">
      <time>2022-05-18T09:01:04Z</time>
    </trkpt>
    <trkpt lat="50.9504773" lon="6.9162210">
      <time>2022-05-18T09:01:06Z</time>
    </trkpt>
    <trkpt lat="50.9504307" lon="6.9163220">
      <time>2022-05-18T09:01:08Z</time>
    </trkpt>
    <trkpt lat="50.9504058" lon="6.9163619">
      <time>2022-05-18T09:01:09Z</time>
    </trkpt>
    <trkpt lat="50.9503722" lon="6.9164266">
      <time>2022-05-18T09:01:11Z</time>
    </trkpt>
    <trkpt lat="50.9503608" lon="6.9164577">
      <time>2022-05-18T09:01:13Z</time>
    </trkpt>
    <trkpt lat="50.9503474" lon="6.9164670">
      <time>2022-05-18T09:01:16Z</time>
    </trkpt>
    <trkpt lat="50.9503372" lon="6.9164782">
      <time>2022-05-18T09:01:17Z</time>
    </trkpt>
    <trkpt lat="50.9502016" lon="6.9166194">
      <time>2022-05-18T09:01:22Z</time>
    </trkpt>
    <trkpt lat="50.9500807" lon="6.9168373">
      <time>2022-05-18T09:01:26Z</time>
    </trkpt>
    <trkpt lat="50.9500423" lon="6.9169038">
      <time>2022-05-18T09:01:27Z</time>
    </trkpt>
    <trkpt lat="50.9498790" lon="6.9172076">
      <time>2022-05-18T09:01:31Z</time>
    </trkpt>
    <trkpt lat="50.9498370" lon="6.9172917">
      <time>2022-05-18T09:01:32Z</time>
    </trkpt>
    <trkpt lat="50.9495882" lon="6.9176925">
      <time>2022-05-18T09:01:37Z</time>
    </trkpt>
    <trkpt lat="50.9492187" lon="6.9182474">
      <time>2022-05-18T09:01:44Z</time>
    </trkpt>
    <trkpt lat="50.9491321" lon="6.9183975">
      <time>2022-05-18T09:01:46Z</time>
    </trkpt>
    <trkpt lat="50.9490625" lon="6.9185576">
      <time>2022-05-18T09:01:48Z</time>
    </trkpt>
    <trkpt lat="50.9489546" lon="6.9187988">
      <time>2022-05-18T09:01:51Z</time>
    </trkpt>
    <trkpt lat="50.9488641" lon="6.9190538">
      <time>2022-05-18T09:01:54Z</time>
    </trkpt>
    <trkpt lat="50.9486331" lon="6.9195911">
      <time>2022-05-18T09:02:00Z</time>
    </trkpt>
    <trkpt lat="50.9485213" lon="6.9198403">
      <time>2022-05-18T09:02:03Z</time>
    </trkpt>
    <trkpt lat="50.9484385" lon="6.9199833">
      <time>2022-05-18T09:02:05Z</time>
    </trkpt>
    <trkpt lat="50.9484059" lon="6.9200563">
      <time>2022-05-18T09:02:06Z</time>
    </trkpt>
    <trkpt lat="50.9483232" lon="6.9203195">
      <time>2022-05-18T09:02:10Z</time>
    </trkpt>
    <trkpt lat="50.9482804" lon="6.9204277">
      <time>2022-05-18T09:02:12Z</time>
    </trkpt>
    <trkpt lat="50.9482130" lon="6.9205584">
      <time>2022-05-18T09:02:14Z</time>
    </trkpt>
    <trkpt lat="50.9481895" lon="6.9206340">
      <time>2022-05-18T09:02:15Z</time>
    </trkpt>
    <trkpt lat="50.9480679" lon="6.9208587">
      <time>2022-05-18T09:02:18Z</time>
    </trkpt>
    <trkpt lat="50.9480290" lon="6.9209364">
      <time>2022-05-18T09:02:19Z</time>
    </trkpt>
    <trkpt lat="50.9478962" lon="6.9212661">
      <time>2022-05-18T09:02:23Z</time>
    </trkpt>
    <trkpt lat="50.9478639" lon="6.9214580">
      <time>2022-05-18T09:02:25Z</time>
    </trkpt>
    <trkpt lat="50.9477077" lon="6.9217666">
      <time>2022-05-18T09:02:29Z</time>
    </trkpt>
    <trkpt lat="50.9475501" lon="6.9222107">
      <time>2022-05-18T09:02:34Z</time>
    </trkpt>
    <trkpt lat="50.9475173" lon="6.9222951">
      <time>2022-05-18T09:02:35Z</time>
    </trkpt>
    <trkpt lat="50.9474551" lon="6.9224252">
      <time>2022-05-18T09:02:37Z</time>
    </trkpt>
    <trkpt lat="50.9473921" lon="6.9225279">
      <time>2022-05-18T09:02:39Z</time>
    </trkpt>
    <trkpt lat="50.9473464" lon="6.9226153">
      <time>2022-05-18T09:02:41Z</time>
    </trkpt>
    <trkpt lat="50.9473083" lon="6.9227116">
      <time>2022-05-18T09:02:43Z</time>
    </trkpt>
    <trkpt lat="50.9472679" lon="6.9228393">
      <time>2022-05-18T09:02:45Z</time>
    </trkpt>
    <trkpt lat="50.9471988" lon="6.9229750">
      <time>2022-05-18T09:02:47Z</time>
    </trkpt>
    <trkpt lat="50.9471278" lon="6.9231214">
      <time>2022-05-18T09:02:49Z</time>
    </trkpt>
    <trkpt lat="50.9470746" lon="6.9232837">
      <time>2022-05-18T09:02:51Z</time>
    </trkpt>
    <trkpt lat="50.9468723" lon="6.9237210">
      <time>2022-05-18T09:02:57Z</time>
    </trkpt>
    <trkpt lat="50.9468038" lon="6.9239324">
      <time>2022-05-18T09:03:00Z</time>
    </trkpt>
    <trkpt lat="50.9467435" lon="6.9240656">
      <time>2022-05-18T09:03:02Z</time>
    </trkpt>
    <trkpt lat="50.9466134" lon="6.9243704">
      <time>2022-05-18T09:03:06Z</time>
    </trkpt>
    <trkpt lat="50.9465600" lon="6.9245392">
      <time>2022-05-18T09:03:08Z</time>
    </trkpt>
    <trkpt lat="50.9463334" lon="6.9250893">
      <time>2022-05-18T09:03:15Z</time>
    </trkpt>
    <trkpt lat="50.9461110" lon="6.9255536">
      <time>2022-05-18T09:03:21Z</time>
    </trkpt>
    <trkpt lat="50.9460684" lon="6.9256285">
      <time>2022-05-18T09:03:22Z</time>
    </trkpt>
    <trkpt lat="50.9460024" lon="6.9258004">
      <time>2022-05-18T09:03:24Z</time>
    </trkpt>
    <trkpt lat="50.9459797" lon="6.9258948">
      <time>2022-05-18T09:03:25Z</time>
    </trkpt>
    <trkpt lat="50.9459283" lon="6.9260917">
      <time>2022-05-18T09:03:27Z</time>
    </trkpt>
    <trkpt lat="50.9458544" lon="6.9262698">
      <time>2022-05-18T09:03:29Z</time>
    </trkpt>
    <trkpt lat="50.9458140" lon="6.9263502">
      <time>2022-05-18T09:03:30Z</time>
    </trkpt>
    <trkpt lat="50.9456743" lon="6.9265726">
      <time>2022-05-18T09:03:33Z</time>
    </trkpt>
    <trkpt lat="50.9455537" lon="6.9268164">
      <time>2022-05-18T09:03:36Z</time>
    </trkpt>
    <trkpt lat="50.9454928" lon="6.9269804">
      <time>2022-05-18T09:03:38Z</time>
    </trkpt>
    <trkpt lat="50.9453246" lon="6.9275503">
      <time>2022-05-18T09:03:44Z</time>
    </trkpt>
    <trkpt lat="50.9451980" lon="6.9280057">
      <time>2022-05-18T09:03:48Z</time>
    </trkpt>
    <trkpt lat="50.9451040" lon="6.9282449">
      <time>2022-05-18T09:03:50Z</time>
    </trkpt>
    <trkpt lat="50.9449970" lon="6.9284533">
      <time>2022-05-18T09:03:52Z</time>
    </trkpt>
    <trkpt lat="50.9448765" lon="6.9286447">
      <time>2022-05-18T09:03:54Z</time>
    </trkpt>
    <trkpt lat="50.9447689" lon="6.9288558">
      <time>2022-05-18T09:03:56Z</time>
    </trkpt>
    <trkpt lat="50.9447290" lon="6.9289696">
      <time>2022-05-18T09:03:57Z</time>
    </trkpt>
    <trkpt lat="50.9446964" lon="6.9290818">
      <time>2022-05-18T09:03:58Z</time>
    </trkpt>
    <trkpt lat="50.9446014" lon="6.9294282">
      <time>2022-05-18T09:04:01Z</time>
    </trkpt>
    <trkpt lat="50.9444170" lon="6.9299758">
      <time>2022-05-18T09:04:06Z</time>
    </trkpt>
    <trkpt lat="50.9443416" lon="6.9301579">
      <time>2022-05-18T09:04:08Z</time>
    </trkpt>
    <trkpt lat="50.9442982" lon="6.9303274">
      <time>2022-05-18T09:04:10Z</time>
    </trkpt>
    <trkpt lat="50.9441666" lon="6.9307099">
      <time>2022-05-18T09:04:15Z</time>
    </trkpt>
    <trkpt lat="50.9440841" lon="6.9309416">
      <time>2022-05-18T09:04:18Z</time>
    </trkpt>
    <trkpt lat="50.9440599" lon="6.9310161">
      <time>2022-05-18T09:04:19Z</time>
    </trkpt>
    <trkpt lat="50.9439818" lon="6.9312471">
      <time>2022-05-18T09:04:22Z</time>
    </trkpt>
    <trkpt lat="50.9438998" lon="6.9315105">
      <time>2022-05-18T09:04:25Z</time>
    </trkpt>
    <trkpt lat="50.9438486" lon="6.9316926">
      <time>2022-05-18T09:04:27Z</time>
    </trkpt>
    <trkpt lat="50.9438233" lon="6.9320002">
      <time>2022-05-18T09:04:30Z</time>
    </trkpt>
    <trkpt lat="50.9438116" lon="6.9322200">
      <time>2022-05-18T09:04:32Z</time>
    </trkpt>
    <trkpt lat="50.9437414" lon="6.9324124">
      <time>2022-05-18T09:04:34Z</time>
    </trkpt>
    <trkpt lat="50.9437050" lon="6.9325067">
      <time>2022-05-18T09:04:35Z</time>
    </trkpt>
    <trkpt lat="50.9435824" lon="6.9327524">
      <time>2022-05-18T09:04:38Z</time>
    </trkpt>
    <trkpt lat="50.9434886" lon="6.9329893">
      <time>2022-05-18T09:04:41Z</time>
    </trkpt>
    <trkpt lat="50.9434271" lon="6.9331449">
      <time>2022-05-18T09:04:43Z</time>
    </trkpt>
    <trkpt lat="50.9433848" lon="6.9332189">
      <time>2022-05-18T09:04:44Z</time>
    </trkpt>
    <trkpt lat="50.9433039" lon="6.9333907">
      <time>2022-05-18T09:04:46Z</time>
    </trkpt>
    <trkpt lat="50.9432760" lon="6.9334731">
      <time>2022-05-18T09:04:47Z</time>
    </trkpt>
    <trkpt lat="50.9432545" lon="6.9335392">
      <time>2022-05-18T09:04:48Z</time>
    </trkpt>
    <trkpt lat="50.9431941" lon="6.9335852">
      <time>2022-05-18T09:04:50Z</time>
    </trkpt>
    <trkpt lat="50.9428896" lon="6.9343871">
      <time>2022-05-18T09:05:05Z</time>
    </trkpt>
    <trkpt lat="50.9427938" lon="6.9344159">
      <time>2022-05-18T09:05:06Z</time>
    </trkpt>
    <trkpt lat="50.9427191" lon="6.9345633">
      <time>2022-05-18T09:05:08Z</time>
    </trkpt>
    <trkpt lat="50.9425945" lon="6.9347585">
      <time>2022-05-18T09:05:11Z</time>
    </trkpt>
    <trkpt lat="50.9424693" lon="6.9349822">
      <time>2022-05-18T09:05:14Z</time>
    </trkpt>
    <trkpt lat="50.9423592" lon="6.9352057">
      <time>2022-05-18T09:05:17Z</time>
    </trkpt>
    <trkpt lat="50.9423166" lon="6.9352815">
      <time>2022-05-18T09:05:18Z</time>
    </trkpt>
    <trkpt lat="50.9422484" lon="6.9354267">
      <time>2022-05-18T09:05:20Z</time>
    </trkpt>
    <trkpt lat="50.9421037" lon="6.9356267">
      <time>2022-05-18T09:05:23Z</time>
    </trkpt>
    <trkpt lat="50.9420478" lon="6.9356924">
      <time>2022-05-18T09:05:24Z</time>
    </trkpt>
    <trkpt lat="50.9419174" lon="6.9358893">
      <time>2022-05-18T09:05:27Z</time>
    </trkpt>
    <trkpt lat="50.9418492" lon="6.9360330">
      <time>2022-05-18T09:05:29Z</time>
    </trkpt>
    <trkpt lat="50.9417778" lon="6.9361740">
      <time>2022-05-18T09:05:31Z</time>
    </trkpt>
    <trkpt lat="50.9417337" lon="6.9362399">
      <time>2022-05-18T09:05:32Z</time>
    </trkpt>
    <trkpt lat="50.9416901" lon="6.9363011">
      <time>2022-05-18T09:05:33Z</time>
    </trkpt>
    <trkpt lat="50.9416015" lon="6.9365051">
      <time>2022-05-18T09:05:36Z</time>
    </trkpt>
    <trkpt lat="50.9413674" lon="6.9369769">
      <time>2022-05-18T09:05:41Z</time>
    </trkpt>
    <trkpt lat="50.9413184" lon="6.9370682">
      <time>2022-05-18T09:05:42Z</time>
    </trkpt>
    <trkpt lat="50.9411435" lon="6.9373398">
      <time>2022-05-18T09:05:45Z</time>
    </trkpt>
    <trkpt lat="50.9409427" lon="6.9377341">
      <time>2022-05-18T09:05:49Z</time>
    </trkpt>
    <trkpt lat="50.9408936" lon="6.9378207">
      <time>2022-05-18T09:05:50Z</time>
    </trkpt>
    <trkpt lat="50.9408474" lon="6.9379094">
      <time>2022-05-18T09:05:51Z</time>
    </trkpt>
    <trkpt lat="50.9407807" lon="6.9381116">
      <time>2022-05-18T09:05:53Z</time>
    </trkpt>
    <trkpt lat="50.9407583" lon="6.9382234">
      <time>2022-05-18T09:05:54Z</time>
    </trkpt>
    <trkpt lat="50.9407110" lon="6.9384471">
      <time>2022-05-18T09:05:56Z</time>
    </trkpt>
    <trkpt lat="50.9406988" lon="6.9385743">
      <time>2022-05-18T09:05:57Z</time>
    </trkpt>
    <trkpt lat="50.9406593" lon="6.9388074">
      <time>2022-05-18T09:05:59Z</time>
    </trkpt>
    <trkpt lat="50.9406397" lon="6.9389225">
      <time>2022-05-18T09:06:00Z</time>
    </trkpt>
    <trkpt lat="50.9405825" lon="6.9392365">
      <time>2022-05-18T09:06:03Z</time>
    </trkpt>
    <trkpt lat="50.9405408" lon="6.9394268">
      <time>2022-05-18T09:06:05Z</time>
    </trkpt>
    <trkpt lat="50.9405795" lon="6.9396496">
      <time>2022-05-18T09:06:08Z</time>
    </trkpt>
    <trkpt lat="50.9406108" lon="6.9397060">
      <time>2022-05-18T09:06:09Z</time>
    </trkpt>
    <trkpt lat="50.9406305" lon="6.9397545">
      <time>2022-05-18T09:06:11Z</time>
    </trkpt>
    <trkpt lat="50.9406331" lon="6.9397595">
      <time>2022-05-18T09:06:12Z</time>
    </trkpt>
    <trkpt lat="50.9406331" lon="6.9397595">
      <time>2022-05-18T09:06:14Z</time>
    </trkpt>
    <trkpt lat="50.9406411" lon="6.9398386">
      <time>2022-05-18T09:07:13Z</time>
    </trkpt>
    <trkpt lat="50.9406424" lon="6.9399263">
      <time>2022-05-18T09:07:14Z</time>
    </trkpt>
    <trkpt lat="50.9406403" lon="6.9400191">
      <time>2022-05-18T09:07:15Z</time>
    </trkpt>
    <trkpt lat="50.9406314" lon="6.9402257">
      <time>2022-05-18T09:07:17Z</time>
    </trkpt>
    <trkpt lat="50.9406220" lon="6.9403336">
      <time>2022-05-18T09:07:18Z</time>
    </trkpt>
    <trkpt lat="50.9406066" lon="6.9404421">
      <time>2022-05-18T09:07:19Z</time>
    </trkpt>
    <trkpt lat="50.9405712" lon="6.9407946">
      <time>2022-05-18T09:07:22Z</time>
    </trkpt>
    <trkpt lat="50.9404328" lon="6.9413734">
      <time>2022-05-18T09:07:27Z</time>
    </trkpt>
    <trkpt lat="50.9404067" lon="6.9414896">
      <time>2022-05-18T09:07:28Z</time>
    </trkpt>
    <trkpt lat="50.9403994" lon="6.9417418">
      <time>2022-05-18T09:07:30Z</time>
    </trkpt>
    <trkpt lat="50.9403651" lon="6.9419775">
      <time>2022-05-18T09:07:32Z</time>
    </trkpt>
    <trkpt lat="50.9403060" lon="6.9421972">
      <time>2022-05-18T09:07:34Z</time>
    </trkpt>
    <trkpt lat="50.9402777" lon="6.9423095">
      <time>2022-05-18T09:07:35Z</time>
    </trkpt>
    <trkpt lat="50.9402293" lon="6.9425370">
      <time>2022-05-18T09:07:37Z</time>
    </trkpt>
    <trkpt lat="50.9401879" lon="6.9428896">
      <time>2022-05-18T09:07:40Z</time>
    </trkpt>
    <trkpt lat="50.9402079" lon="6.9433831">
      <time>2022-05-18T09:07:44Z</time>
    </trkpt>
    <trkpt lat="50.9402086" lon="6.9435378">
      <time>2022-05-18T09:07:45Z</time>
    </trkpt>
    <trkpt lat="50.9402061" lon="6.9437723">
      <time>2022-05-18T09:07:47Z</time>
    </trkpt>
    <trkpt lat="50.9402539" lon="6.9441960">
      <time>2022-05-18T09:07:50Z</time>
    </trkpt>
    <trkpt lat="50.9402795" lon="6.9442977">
      <time>2022-05-18T09:07:51Z</time>
    </trkpt>
    <trkpt lat="50.9403851" lon="6.9446702">
      <time>2022-05-18T09:07:54Z</time>
    </trkpt>
    <trkpt lat="50.9404189" lon="6.9447887">
      <time>2022-05-18T09:07:55Z</time>
    </trkpt>
    <trkpt lat="50.9405790" lon="6.9452449">
      <time>2022-05-18T09:07:59Z</time>
    </trkpt>
    <trkpt lat="50.9406268" lon="6.9453492">
      <time>2022-05-18T09:08:00Z</time>
    </trkpt>
    <trkpt lat="50.9406849" lon="6.9454739">
      <time>2022-05-18T09:08:01Z</time>
    </trkpt>
    <trkpt lat="50.9407343" lon="6.9455721">
      <time>2022-05-18T09:08:02Z</time>
    </trkpt>
    <trkpt lat="50.9408284" lon="6.9457307">
      <time>2022-05-18T09:08:04Z</time>
    </trkpt>
    <trkpt lat="50.9409294" lon="6.9459432">
      <time>2022-05-18T09:08:06Z</time>
    </trkpt>
    <trkpt lat="50.9410283" lon="6.9461350">
      <time>2022-05-18T09:08:08Z</time>
    </trkpt>
    <trkpt lat="50.9410616" lon="6.9462110">
      <time>2022-05-18T09:08:09Z</time>
    </trkpt>
    <trkpt lat="50.9411319" lon="6.9464587">
      <time>2022-05-18T09:08:11Z</time>
    </trkpt>
    <trkpt lat="50.9411552" lon="6.9466768">
      <time>2022-05-18T09:08:13Z</time>
    </trkpt>
    <trkpt lat="50.9411463" lon="6.9469122">
      <time>2022-05-18T09:08:15Z</time>
    </trkpt>
    <trkpt lat="50.9411163" lon="6.9471565">
      <time>2022-05-18T09:08:17Z</time>
    </trkpt>
    <trkpt lat="50.9410521" lon="6.9477876">
      <time>2022-05-18T09:08:23Z</time>
    </trkpt>
    <trkpt lat="50.9410465" lon="6.9478942">
      <time>2022-05-18T09:08:24Z</time>
    </trkpt>
    <trkpt lat="50.9410477" lon="6.9481034">
      <time>2022-05-18T09:08:26Z</time>
    </trkpt>
    <trkpt lat="50.9410589" lon="6.9482070">
      <time>2022-05-18T09:08:27Z</time>
    </trkpt>
    <trkpt lat="50.9410842" lon="6.9488864">
      <time>2022-05-18T09:08:33Z</time>
    </trkpt>
    <trkpt lat="50.9410847" lon="6.9490109">
      <time>2022-05-18T09:08:34Z</time>
    </trkpt>
    <trkpt lat="50.9410723" lon="6.9492523">
      <time>2022-05-18T09:08:36Z</time>
    </trkpt>
    <trkpt lat="50.9410937" lon="6.9494779">
      <time>2022-05-18T09:08:38Z</time>
    </trkpt>
    <trkpt lat="50.9411588" lon="6.9501706">
      <time>2022-05-18T09:08:44Z</time>
    </trkpt>
    <trkpt lat="50.9412174" lon="6.9509957">
      <time>2022-05-18T09:08:51Z</time>
    </trkpt>
    <trkpt lat="50.9412554" lon="6.9515319">
      <time>2022-05-18T09:08:56Z</time>
    </trkpt>
    <trkpt lat="50.9412865" lon="6.9518351">
      <time>2022-05-18T09:08:59Z</time>
    </trkpt>
    <trkpt lat="50.9412996" lon="6.9520286">
      <time>2022-05-18T09:09:01Z</time>
    </trkpt>
    <trkpt lat="50.9413131" lon="6.9522196">
      <time>2022-05-18T09:09:03Z</time>
    </trkpt>
    <trkpt lat="50.9413306" lon="6.9523477">
      <time>2022-05-18T09:09:05Z</time>
    </trkpt>
    <trkpt lat="50.9413373" lon="6.9523848">
      <time>2022-05-18T09:09:06Z</time>
    </trkpt>
    <trkpt lat="50.9413604" lon="6.9524677">
      <time>2022-05-18T09:09:10Z</time>
    </trkpt>
    <trkpt lat="50.9414124" lon="6.9526075">
      <time>2022-05-18T09:09:13Z</time>
    </trkpt>
    <trkpt lat="50.9414315" lon="6.9526749">
      <time>2022-05-18T09:09:14Z</time>
    </trkpt>
    <trkpt lat="50.9414842" lon="6.9529182">
      <time>2022-05-18T09:09:17Z</time>
    </trkpt>
    <trkpt lat="50.9415454" lon="6.9532957">
      <time>2022-05-18T09:09:21Z</time>
    </trkpt>
    <trkpt lat="50.9415525" lon="6.9535218">
      <time>2022-05-18T09:09:23Z</time>
    </trkpt>
    <trkpt lat="50.9415541" lon="6.9543171">
      <time>2022-05-18T09:09:30Z</time>
    </trkpt>
    <trkpt lat="50.9416791" lon="6.9550489">
      <time>2022-05-18T09:09:36Z</time>
    </trkpt>
    <trkpt lat="50.9417245" lon="6.9554947">
      <time>2022-05-18T09:09:40Z</time>
    </trkpt>
    <trkpt lat="50.9417330" lon="6.9555913">
      <time>2022-05-18T09:09:41Z</time>
    </trkpt>
    <trkpt lat="50.9417518" lon="6.9557705">
      <time>2022-05-18T09:09:43Z</time>
    </trkpt>
    <trkpt lat="50.9417492" lon="6.9559178">
      <time>2022-05-18T09:09:45Z</time>
    </trkpt>
    <trkpt lat="50.9417366" lon="6.9561531">
      <time>2022-05-18T09:09:49Z</time>
    </trkpt>
    <trkpt lat="50.9417003" lon="6.9562997">
      <time>2022-05-18T09:09:52Z</time>
    </trkpt>
    <trkpt lat="50.9416849" lon="6.9563174">
      <time>2022-05-18T09:09:53Z</time>
    </trkpt>
    <trkpt lat="50.9416682" lon="6.9563246">
      <time>2022-05-18T09:09:54Z</time>
    </trkpt>
    <trkpt lat="50.9416347" lon="6.9563103">
      <time>2022-05-18T09:09:56Z</time>
    </trkpt>
    <trkpt lat="50.9413574" lon="6.9562680">
      <time>2022-05-18T09:10:03Z</time>
    </trkpt>
    <trkpt lat="50.9412229" lon="6.9562020">
      <time>2022-05-18T09:10:08Z</time>
    </trkpt>
    <trkpt lat="50.9410719" lon="6.9561398">
      <time>2022-05-18T09:10:14Z</time>
    </trkpt>
    <trkpt lat="50.9410119" lon="6.9561556">
      <time>2022-05-18T09:10:16Z</time>
    </trkpt>
    <trkpt lat="50.9409783" lon="6.9562113">
      <time>2022-05-18T09:10:18Z</time>
    </trkpt>
    <trkpt lat="50.9409728" lon="6.9563262">
      <time>2022-05-18T09:10:21Z</time>
    </trkpt>
    <trkpt lat="50.9409969" lon="6.9564025">
      <time>2022-05-18T09:10:22Z</time>
    </trkpt>
    <trkpt lat="50.9409441" lon="6.9564755">
      <time>2022-05-18T09:10:24Z</time>
    </trkpt>
    <trkpt lat="50.9409393" lon="6.9565023">
      <time>2022-05-18T09:10:25Z</time>
    </trkpt>
    <trkpt lat="50.9408398" lon="6.9566661">
      <time>2022-05-18T09:10:28Z</time>
    </trkpt>
    <trkpt lat="50.9408258" lon="6.9567722">
      <time>2022-05-18T09:10:29Z</time>
    </trkpt>
    <trkpt lat="50.9408237" lon="6.9568559">
      <time>2022-05-18T09:10:30Z</time>
    </trkpt>
    <trkpt lat="50.9408378" lon="6.9569659">
      <time>2022-05-18T09:10:31Z</time>
    </trkpt>
    <trkpt lat="50.9408184" lon="6.9570466">
      <time>2022-05-18T09:10:32Z</time>
    </trkpt>
    <trkpt lat="50.9408310" lon="6.9571975">
      <time>2022-05-18T09:10:34Z</time>
    </trkpt>
    <trkpt lat="50.9408470" lon="6.9572920">
      <time>2022-05-18T09:10:35Z</time>
    </trkpt>
    <trkpt lat="50.9408573" lon="6.9573586">
      <time>2022-05-18T09:10:36Z</time>
    </trkpt>
    <trkpt lat="50.9408591" lon="6.9575545">
      <time>2022-05-18T09:10:39Z</time>
    </trkpt>
    <trkpt lat="50.9408722" lon="6.9576374">
      <time>2022-05-18T09:10:40Z</time>
    </trkpt>
    <trkpt lat="50.9408774" lon="6.9577253">
      <time>2022-05-18T09:10:41Z</time>
    </trkpt>
    <trkpt lat="50.9408550" lon="6.9579024">
      <time>2022-05-18T09:10:43Z</time>
    </trkpt>
    <trkpt lat="50.9407999" lon="6.9580648">
      <time>2022-05-18T09:10:45Z</time>
    </trkpt>
    <trkpt lat="50.9407966" lon="6.9581441">
      <time>2022-05-18T09:10:46Z</time>
    </trkpt>
    <trkpt lat="50.9408285" lon="6.9583110">
      <time>2022-05-18T09:10:48Z</time>
    </trkpt>
    <trkpt lat="50.9408328" lon="6.9583807">
      <time>2022-05-18T09:10:49Z</time>
    </trkpt>
    <trkpt lat="50.9409052" lon="6.9585134">
      <time>2022-05-18T09:10:51Z</time>
    </trkpt>
    <trkpt lat="50.9410042" lon="6.9586631">
      <time>2022-05-18T09:10:54Z</time>
    </trkpt>
    <trkpt lat="50.9410635" lon="6.9586934">
      <time>2022-05-18T09:10:55Z</time>
    </trkpt>
    <trkpt lat="50.9412006" lon="6.9587436">
      <time>2022-05-18T09:10:57Z</time>
    </trkpt>
    <trkpt lat="50.9413531" lon="6.9587918">
      <time>2022-05-18T09:10:59Z</time>
    </trkpt>
    <trkpt lat="50.9415201" lon="6.9588397">
      <time>2022-05-18T09:11:02Z</time>
    </trkpt>
    <trkpt lat="50.9415348" lon="6.9588760">
      <time>2022-05-18T09:11:03Z</time>
    </trkpt>
    <trkpt lat="50.9415537" lon="6.9589542">
      <time>2022-05-18T09:11:06Z</time>
    </trkpt>
    <trkpt lat="50.9414601" lon="6.9592614">
      <time>2022-05-18T09:11:08Z</time>
    </trkpt>
    <trkpt lat="50.9414742" lon="6.9594674">
      <time>2022-05-18T09:11:10Z</time>
    </trkpt>
    <trkpt lat="50.9414752" lon="6.9595542">
      <time>2022-05-18T09:11:11Z</time>
    </trkpt>
    <trkpt lat="50.9414517" lon="6.9597322">
      <time>2022-05-18T09:11:13Z</time>
    </trkpt>
    <trkpt lat="50.9414292" lon="6.9598228">
      <time>2022-05-18T09:11:14Z</time>
    </trkpt>
    <trkpt lat="50.9413644" lon="6.9601284">
      <time>2022-05-18T09:11:17Z</time>
    </trkpt>
    <trkpt lat="50.9412845" lon="6.9603295">
      <time>2022-05-18T09:11:19Z</time>
    </trkpt>
    <trkpt lat="50.9411973" lon="6.9605489">
      <time>2022-05-18T09:11:22Z</time>
    </trkpt>
    <trkpt lat="50.9411521" lon="6.9607014">
      <time>2022-05-18T09:11:24Z</time>
    </trkpt>
    <trkpt lat="50.9411272" lon="6.9608330">
      <time>2022-05-18T09:11:26Z</time>
    </trkpt>
    <trkpt lat="50.9411697" lon="6.9611140">
      <time>2022-05-18T09:11:30Z</time>
    </trkpt>
    <trkpt lat="50.9411887" lon="6.9611744">
      <time>2022-05-18T09:11:31Z</time>
    </trkpt>
    <trkpt lat="50.9412496" lon="6.9612862">
      <time>2022-05-18T09:11:35Z</time>
    </trkpt>
    <trkpt lat="50.9412656" lon="6.9614122">
      <time>2022-05-18T09:11:38Z</time>
    </trkpt>
    <trkpt lat="50.9412555" lon="6.9614678">
      <time>2022-05-18T09:11:39Z</time>
    </trkpt>
    <trkpt lat="50.9412637" lon="6.9617517">
      <time>2022-05-18T09:11:43Z</time>
    </trkpt>
    <trkpt lat="50.9412392" lon="6.9621598">
      <time>2022-05-18T09:11:48Z</time>
    </trkpt>
    <trkpt lat="50.9412401" lon="6.9624439">
      <time>2022-05-18T09:11:52Z</time>
    </trkpt>
    <trkpt lat="50.9412597" lon="6.9625729">
      <time>2022-05-18T09:11:54Z</time>
    </trkpt>
    <trkpt lat="50.9412795" lon="6.9627029">
      <time>2022-05-18T09:11:56Z</time>
    </trkpt>
    <trkpt lat="50.9412945" lon="6.9629222">
      <time>2022-05-18T09:11:59Z</time>
    </trkpt>
    <trkpt lat="50.9412904" lon="6.9629973">
      <time>2022-05-18T09:12:00Z</time>
    </trkpt>
    <trkpt lat="50.9412639" lon="6.9631482">
      <time>2022-05-18T09:12:02Z</time>
    </trkpt>
    <trkpt lat="50.9412599" lon="6.9632331">
      <time>2022-05-18T09:12:03Z</time>
    </trkpt>
    <trkpt lat="50.9412543" lon="6.9633153">
      <time>2022-05-18T09:12:04Z</time>
    </trkpt>
    <trkpt lat="50.9412273" lon="6.9636621">
      <time>2022-05-18T09:12:08Z</time>
    </trkpt>
    <trkpt lat="50.9412347" lon="6.9637543">
      <time>2022-05-18T09:12:09Z</time>
    </trkpt>
    <trkpt lat="50.9412276" lon="6.9639317">
      <time>2022-05-18T09:12:11Z</time>
    </trkpt>
    <trkpt lat="50.9412141" lon="6.9640230">
      <time>2022-05-18T09:12:12Z</time>
    </trkpt>
    <trkpt lat="50.9412271" lon="6.9643120">
      <time>2022-05-18T09:12:15Z</time>
    </trkpt>
    <trkpt lat="50.9412093" lon="6.9644297">
      <time>2022-05-18T09:12:17Z</time>
    </trkpt>
    <trkpt lat="50.9411982" lon="6.9644682">
      <time>2022-05-18T09:12:20Z</time>
    </trkpt>
    <trkpt lat="50.9411767" lon="6.9644104">
      <time>2022-05-18T09:12:22Z</time>
    </trkpt>
    <trkpt lat="50.9411616" lon="6.9643105">
      <time>2022-05-18T09:12:24Z</time>
    </trkpt>
    <trkpt lat="50.9411473" lon="6.9641174">
      <time>2022-05-18T09:12:27Z</time>
    </trkpt>
    <trkpt lat="50.9411101" lon="6.9639540">
      <time>2022-05-18T09:12:29Z</time>
    </trkpt>
    <trkpt lat="50.9411480" lon="6.9634692">
      <time>2022-05-18T09:12:35Z</time>
    </trkpt>
    <trkpt lat="50.9411442" lon="6.9627932">
      <time>2022-05-18T09:12:43Z</time>
    </trkpt>
    <trkpt lat="50.9411352" lon="6.9626308">
      <time>2022-05-18T09:12:45Z</time>
    </trkpt>
    <trkpt lat="50.9411226" lon="6.9624541">
      <time>2022-05-18T09:12:47Z</time>
    </trkpt>
    <trkpt lat="50.9411223" lon="6.9623651">
      <time>2022-05-18T09:12:48Z</time>
    </trkpt>
    <trkpt lat="50.9411684" lon="6.9617578">
      <time>2022-05-18T09:12:55Z</time>
    </trkpt>
    <trkpt lat="50.9411774" lon="6.9613547">
      <time>2022-05-18T09:13:00Z</time>
    </trkpt>
    <trkpt lat="50.9411717" lon="6.9612676">
      <time>2022-05-18T09:13:02Z</time>
    </trkpt>
    <trkpt lat="50.9411599" lon="6.9612481">
      <time>2022-05-18T09:13:03Z</time>
    </trkpt>
    <trkpt lat="50.9411413" lon="6.9612422">
      <time>2022-05-18T09:13:04Z</time>
    </trkpt>
    <trkpt lat="50.9410509" lon="6.9612949">
      <time>2022-05-18T09:13:07Z</time>
    </trkpt>
    <trkpt lat="50.9409663" lon="6.9613610">
      <time>2022-05-18T09:13:12Z</time>
    </trkpt>
    <trkpt lat="50.9410020" lon="6.9613871">
      <time>2022-05-18T09:13:14Z</time>
    </trkpt>
    <trkpt lat="50.9410530" lon="6.9613657">
      <time>2022-05-18T09:13:16Z</time>
    </trkpt>
    <trkpt lat="50.9411842" lon="6.9613759">
      <time>2022-05-18T09:13:20Z</time>
    </trkpt>
    <trkpt lat="50.9412020" lon="6.9614230">
      <time>2022-05-18T09:13:22Z</time>
    </trkpt>
    <trkpt lat="50.9411485" lon="6.9614931">
      <time>2022-05-18T09:13:24Z</time>
    </trkpt>
    <trkpt lat="50.9411231" lon="6.9615012">
      <time>2022-05-18T09:13:25Z</time>
    </trkpt>
    <trkpt lat="50.9410335" lon="6.9615096">
      <time>2022-05-18T09:13:28Z</time>
    </trkpt>
    <trkpt lat="50.9409902" lon="6.9615371">
      <time>2022-05-18T09:13:30Z</time>
    </trkpt>
    <trkpt lat="50.9409922" lon="6.9615860">
      <time>2022-05-18T09:13:33Z</time>
    </trkpt>
    <trkpt lat="50.9410832" lon="6.9615742">
      <time>2022-05-18T09:13:37Z</time>
    </trkpt>
    <trkpt lat="50.9411739" lon="6.9615976">
      <time>2022-05-18T09:13:41Z</time>
    </trkpt>
    <trkpt lat="50.9411315" lon="6.9616569">
      <time>2022-05-18T09:13:44Z</time>
    </trkpt>
    <trkpt lat="50.9409701" lon="6.9618188">
      <time>2022-05-18T09:13:48Z</time>
    </trkpt>
    <trkpt lat="50.9408233" lon="6.9620543">
      <time>2022-05-18T09:13:52Z</time>
    </trkpt>
    <trkpt lat="50.9407674" lon="6.9622046">
      <time>2022-05-18T09:13:54Z</time>
    </trkpt>
    <trkpt lat="50.9406585" lon="6.9624556">
      <time>2022-05-18T09:13:57Z</time>
    </trkpt>
    <trkpt lat="50.9405782" lon="6.9626005">
      <time>2022-05-18T09:13:59Z</time>
    </trkpt>
    <trkpt lat="50.9404739" lon="6.9626997">
      <time>2022-05-18T09:14:02Z</time>
    </trkpt>
    <trkpt lat="50.9403715" lon="6.9627799">
      <time>2022-05-18T09:14:05Z</time>
    </trkpt>
    <trkpt lat="50.9403057" lon="6.9628236">
      <time>2022-05-18T09:14:07Z</time>
    </trkpt>
    <trkpt lat="50.9401353" lon="6.9628379">
      <time>2022-05-18T09:14:12Z</time>
    </trkpt>
    <trkpt lat="50.9400857" lon="6.9628548">
      <time>2022-05-18T09:14:13Z</time>
    </trkpt>
    <trkpt lat="50.9400299" lon="6.9628678">
      <time>2022-05-18T09:14:14Z</time>
    </trkpt>
    <trkpt lat="50.9399793" lon="6.9628835">
      <time>2022-05-18T09:14:15Z</time>
    </trkpt>
    <trkpt lat="50.9399190" lon="6.9629031">
      <time>2022-05-18T09:14:16Z</time>
    </trkpt>
    <trkpt lat="50.9398489" lon="6.9629109">
      <time>2022-05-18T09:14:17Z</time>
    </trkpt>
    <trkpt lat="50.9396807" lon="6.9628941">
      <time>2022-05-18T09:14:20Z</time>
    </trkpt>
    <trkpt lat="50.9395603" lon="6.9628838">
      <time>2022-05-18T09:14:22Z</time>
    </trkpt>
    <trkpt lat="50.9394960" lon="6.9628837">
      <time>2022-05-18T09:14:23Z</time>
    </trkpt>
    <trkpt lat="50.9393979" lon="6.9628765">
      <time>2022-05-18T09:14:25Z</time>
    </trkpt>
    <trkpt lat="50.9392909" lon="6.9628734">
      <time>2022-05-18T09:14:27Z</time>
    </trkpt>
    <trkpt lat="50.9392018" lon="6.9628772">
      <time>2022-05-18T09:14:29Z</time>
    </trkpt>
    <trkpt lat="50.9391495" lon="6.9628755">
      <time>2022-05-18T09:14:30Z</time>
    </trkpt>
    <trkpt lat="50.9390940" lon="6.9628826">
      <time>2022-05-18T09:14:31Z</time>
    </trkpt>
    <trkpt lat="50.9388943" lon="6.9629070">
      <time>2022-05-18T09:14:35Z</time>
    </trkpt>
    <trkpt lat="50.9385875" lon="6.9629706">
      <time>2022-05-18T09:14:41Z</time>
    </trkpt>
    <trkpt lat="50.9385361" lon="6.9629822">
      <time>2022-05-18T09:14:42Z</time>
    </trkpt>
    <trkpt lat="50.9384249" lon="6.9630210">
      <time>2022-05-18T09:14:45Z</time>
    </trkpt>
    <trkpt lat="50.9383033" lon="6.9630479">
      <time>2022-05-18T09:14:48Z</time>
    </trkpt>
    <trkpt lat="50.9382184" lon="6.9630838">
      <time>2022-05-18T09:14:50Z</time>
    </trkpt>
    <trkpt lat="50.9381756" lon="6.9631005">
      <time>2022-05-18T09:14:51Z</time>
    </trkpt>
    <trkpt lat="50.9380463" lon="6.9631219">
      <time>2022-05-18T09:14:54Z</time>
    </trkpt>
    <trkpt lat="50.9380045" lon="6.9631111">
      <time>2022-05-18T09:14:55Z</time>
    </trkpt>
    <trkpt lat="50.9378374" lon="6.9631657">
      <time>2022-05-18T09:14:58Z</time>
    </trkpt>
    <trkpt lat="50.9377261" lon="6.9631982">
      <time>2022-05-18T09:15:01Z</time>
    </trkpt>
    <trkpt lat="50.9376021" lon="6.9631926">
      <time>2022-05-18T09:15:05Z</time>
    </trkpt>
    <trkpt lat="50.9374251" lon="6.9631875">
      <time>2022-05-18T09:15:09Z</time>
    </trkpt>
    <trkpt lat="50.9373770" lon="6.9632117">
      <time>2022-05-18T09:15:10Z</time>
    </trkpt>
    <trkpt lat="50.9373288" lon="6.9632442">
      <time>2022-05-18T09:15:11Z</time>
    </trkpt>
    <trkpt lat="50.9371654" lon="6.9632987">
      <time>2022-05-18T09:15:14Z</time>
    </trkpt>
    <trkpt lat="50.9369839" lon="6.9633443">
      <time>2022-05-18T09:15:17Z</time>
    </trkpt>
    <trkpt lat="50.9369217" lon="6.9633490">
      <time>2022-05-18T09:15:18Z</time>
    </trkpt>
    <trkpt lat="50.9368033" lon="6.9633366">
      <time>2022-05-18T09:15:20Z</time>
    </trkpt>
    <trkpt lat="50.9366279" lon="6.9633336">
      <time>2022-05-18T09:15:23Z</time>
    </trkpt>
    <trkpt lat="50.9365117" lon="6.9633581">
      <time>2022-05-18T09:15:25Z</time>
    </trkpt>
    <trkpt lat="50.9361766" lon="6.9633811">
      <time>2022-05-18T09:15:31Z</time>
    </trkpt>
    <trkpt lat="50.9360978" lon="6.9633871">
      <time>2022-05-18T09:15:33Z</time>
    </trkpt>
    <trkpt lat="50.9360414" lon="6.9634125">
      <time>2022-05-18T09:15:34Z</time>
    </trkpt>
    <trkpt lat="50.9358874" lon="6.9634262">
      <time>2022-05-18T09:15:37Z</time>
    </trkpt>
    <trkpt lat="50.9357735" lon="6.9633341">
      <time>2022-05-18T09:15:39Z</time>
    </trkpt>
    <trkpt lat="50.9356643" lon="6.9633175">
      <time>2022-05-18T09:15:41Z</time>
    </trkpt>
    <trkpt lat="50.9355504" lon="6.9633200">
      <time>2022-05-18T09:15:43Z</time>
    </trkpt>
    <trkpt lat="50.9354826" lon="6.9633267">
      <time>2022-05-18T09:15:44Z</time>
    </trkpt>
    <trkpt lat="50.9350337" lon="6.9633172">
      <time>2022-05-18T09:15:52Z</time>
    </trkpt>
    <trkpt lat="50.9349758" lon="6.9633026">
      <time>2022-05-18T09:15:53Z</time>
    </trkpt>
    <trkpt lat="50.9348558" lon="6.9632782">
      <time>2022-05-18T09:15:56Z</time>
    </trkpt>
    <trkpt lat="50.9347531" lon="6.9632485">
      <time>2022-05-18T09:15:58Z</time>
    </trkpt>
    <trkpt lat="50.9346641" lon="6.9632532">
      <time>2022-05-18T09:16:00Z</time>
    </trkpt>
    <trkpt lat="50.9345493" lon="6.9632630">
      <time>2022-05-18T09:16:02Z</time>
    </trkpt>
    <trkpt lat="50.9344362" lon="6.9632710">
      <time>2022-05-18T09:16:04Z</time>
    </trkpt>
    <trkpt lat="50.9342520" lon="6.9632936">
      <time>2022-05-18T09:16:07Z</time>
    </trkpt>
    <trkpt lat="50.9338759" lon="6.9633127">
      <time>2022-05-18T09:16:13Z</time>
    </trkpt>
    <trkpt lat="50.9338119" lon="6.9633136">
      <time>2022-05-18T09:16:14Z</time>
    </trkpt>
    <trkpt lat="50.9336976" lon="6.9633174">
      <time>2022-05-18T09:16:16Z</time>
    </trkpt>
    <trkpt lat="50.9333715" lon="6.9633088">
      <time>2022-05-18T09:16:21Z</time>
    </trkpt>
    <trkpt lat="50.9332921" lon="6.9632987">
      <time>2022-05-18T09:16:22Z</time>
    </trkpt>
    <trkpt lat="50.9329392" lon="6.9632351">
      <time>2022-05-18T09:16:28Z</time>
    </trkpt>
    <trkpt lat="50.9326583" lon="6.9631804">
      <time>2022-05-18T09:16:34Z</time>
    </trkpt>
    <trkpt lat="50.9324253" lon="6.9631537">
      <time>2022-05-18T09:16:39Z</time>
    </trkpt>
    <trkpt lat="50.9322033" lon="6.9630828">
      <time>2022-05-18T09:16:43Z</time>
    </trkpt>
    <trkpt lat="50.9321457" lon="6.9630447">
      <time>2022-05-18T09:16:44Z</time>
    </trkpt>
    <trkpt lat="50.9319656" lon="6.9629498">
      <time>2022-05-18T09:16:47Z</time>
    </trkpt>
    <trkpt lat="50.9318383" lon="6.9629114">
      <time>2022-05-18T09:16:49Z</time>
    </trkpt>
    <trkpt lat="50.9313992" lon="6.9628181">
      <time>2022-05-18T09:16:56Z</time>
    </trkpt>
    <trkpt lat="50.9310942" lon="6.9628232">
      <time>2022-05-18T09:17:01Z</time>
    </trkpt>
    <trkpt lat="50.9309764" lon="6.9628299">
      <time>2022-05-18T09:17:03Z</time>
    </trkpt>
    <trkpt lat="50.9307163" lon="6.9628501">
      <time>2022-05-18T09:17:07Z</time>
    </trkpt>
    <trkpt lat="50.9305208" lon="6.9628585">
      <time>2022-05-18T09:17:10Z</time>
    </trkpt>
    <trkpt lat="50.9303091" lon="6.9628692">
      <time>2022-05-18T09:17:13Z</time>
    </trkpt>
    <trkpt lat="50.9301879" lon="6.9628966">
      <time>2022-05-18T09:17:16Z</time>
    </trkpt>
    <trkpt lat="50.9301286" lon="6.9629005">
      <time>2022-05-18T09:17:17Z</time>
    </trkpt>
    <trkpt lat="50.9298884" lon="6.9628880">
      <time>2022-05-18T09:17:20Z</time>
    </trkpt>
    <trkpt lat="50.9297712" lon="6.9628828">
      <time>2022-05-18T09:17:23Z</time>
    </trkpt>
    <trkpt lat="50.9296523" lon="6.9629302">
      <time>2022-05-18T09:17:25Z</time>
    </trkpt>
    <trkpt lat="50.9293259" lon="6.9629925">
      <time>2022-05-18T09:17:30Z</time>
    </trkpt>
    <trkpt lat="50.9292556" lon="6.9630092">
      <time>2022-05-18T09:17:31Z</time>
    </trkpt>
    <trkpt lat="50.9288965" lon="6.9630637">
      <time>2022-05-18T09:17:38Z</time>
    </trkpt>
    <trkpt lat="50.9285051" lon="6.9631643">
      <time>2022-05-18T09:17:44Z</time>
    </trkpt>
    <trkpt lat="50.9283972" lon="6.9632407">
      <time>2022-05-18T09:17:46Z</time>
    </trkpt>
    <trkpt lat="50.9282830" lon="6.9633103">
      <time>2022-05-18T09:17:48Z</time>
    </trkpt>
    <trkpt lat="50.9282192" lon="6.9633296">
      <time>2022-05-18T09:17:49Z</time>
    </trkpt>
    <trkpt lat="50.9280739" lon="6.9633631">
      <time>2022-05-18T09:17:51Z</time>
    </trkpt>
    <trkpt lat="50.9279507" lon="6.9634158">
      <time>2022-05-18T09:17:53Z</time>
    </trkpt>
    <trkpt lat="50.9278942" lon="6.9634482">
      <time>2022-05-18T09:17:54Z</time>
    </trkpt>
    <trkpt lat="50.9278000" lon="6.9635139">
      <time>2022-05-18T09:17:56Z</time>
    </trkpt>
    <trkpt lat="50.9276621" lon="6.9636007">
      <time>2022-05-18T09:17:58Z</time>
    </trkpt>
    <trkpt lat="50.9275978" lon="6.9636319">
      <time>2022-05-18T09:17:59Z</time>
    </trkpt>
    <trkpt lat="50.9272657" lon="6.9638418">
      <time>2022-05-18T09:18:04Z</time>
    </trkpt>
    <trkpt lat="50.9270935" lon="6.9640192">
      <time>2022-05-18T09:18:08Z</time>
    </trkpt>
    <trkpt lat="50.9267150" lon="6.9643606">
      <time>2022-05-18T09:18:15Z</time>
    </trkpt>
    <trkpt lat="50.9263246" lon="6.9646923">
      <time>2022-05-18T09:18:22Z</time>
    </trkpt>
    <trkpt lat="50.9258936" lon="6.9650842">
      <time>2022-05-18T09:18:30Z</time>
    </trkpt>
    <trkpt lat="50.9255590" lon="6.9653076">
      <time>2022-05-18T09:18:35Z</time>
    </trkpt>
    <trkpt lat="50.9254712" lon="6.9653476">
      <time>2022-05-18T09:18:36Z</time>
    </trkpt>
    <trkpt lat="50.9253263" lon="6.9654422">
      <time>2022-05-18T09:18:38Z</time>
    </trkpt>
    <trkpt lat="50.9252569" lon="6.9654944">
      <time>2022-05-18T09:18:39Z</time>
    </trkpt>
    <trkpt lat="50.9247733" lon="6.9659406">
      <time>2022-05-18T09:18:46Z</time>
    </trkpt>
    <trkpt lat="50.9243676" lon="6.9663473">
      <time>2022-05-18T09:18:52Z</time>
    </trkpt>
    <trkpt lat="50.9242336" lon="6.9664305">
      <time>2022-05-18T09:18:54Z</time>
    </trkpt>
    <trkpt lat="50.9240850" lon="6.9664997">
      <time>2022-05-18T09:18:56Z</time>
    </trkpt>
    <trkpt lat="50.9240149" lon="6.9665389">
      <time>2022-05-18T09:18:57Z</time>
    </trkpt>
    <trkpt lat="50.9239675" lon="6.9665774">
      <time>2022-05-18T09:18:58Z</time>
    </trkpt>
    <trkpt lat="50.9239045" lon="6.9666239">
      <time>2022-05-18T09:18:59Z</time>
    </trkpt>
    <trkpt lat="50.9238250" lon="6.9666733">
      <time>2022-05-18T09:19:00Z</time>
    </trkpt>
    <trkpt lat="50.9237570" lon="6.9667119">
      <time>2022-05-18T09:19:01Z</time>
    </trkpt>
    <trkpt lat="50.9234465" lon="6.9669376">
      <time>2022-05-18T09:19:06Z</time>
    </trkpt>
    <trkpt lat="50.9233251" lon="6.9670014">
      <time>2022-05-18T09:19:08Z</time>
    </trkpt>
    <trkpt lat="50.9232093" lon="6.9670616">
      <time>2022-05-18T09:19:10Z</time>
    </trkpt>
    <trkpt lat="50.9231566" lon="6.9670991">
      <time>2022-05-18T09:19:11Z</time>
    </trkpt>
    <trkpt lat="50.9229941" lon="6.9671942">
      <time>2022-05-18T09:19:14Z</time>
    </trkpt>
    <trkpt lat="50.9229052" lon="6.9672145">
      <time>2022-05-18T09:19:16Z</time>
    </trkpt>
    <trkpt lat="50.9228622" lon="6.9672382">
      <time>2022-05-18T09:19:18Z</time>
    </trkpt>
    <trkpt lat="50.9228515" lon="6.9672649">
      <time>2022-05-18T09:19:19Z</time>
    </trkpt>
    <trkpt lat="50.9228503" lon="6.9672921">
      <time>2022-05-18T09:19:20Z</time>
    </trkpt>
    <trkpt lat="50.9227675" lon="6.9673277">
      <time>2022-05-18T09:19:23Z</time>
    </trkpt>
    <trkpt lat="50.9225266" lon="6.9674433">
      <time>2022-05-18T09:19:27Z</time>
    </trkpt>
    <trkpt lat="50.9224588" lon="6.9674496">
      <time>2022-05-18T09:19:28Z</time>
    </trkpt>
    <trkpt lat="50.9221953" lon="6.9675508">
      <time>2022-05-18T09:19:32Z</time>
    </trkpt>
    <trkpt lat="50.9220086" lon="6.9676546">
      <time>2022-05-18T09:19:35Z</time>
    </trkpt>
    <trkpt lat="50.9218738" lon="6.9677156">
      <time>2022-05-18T09:19:37Z</time>
    </trkpt>
    <trkpt lat="50.9214864" lon="6.9679484">
      <time>2022-05-18T09:19:43Z</time>
    </trkpt>
    <trkpt lat="50.9214114" lon="6.9679898">
      <time>2022-05-18T09:19:44Z</time>
    </trkpt>
    <trkpt lat="50.9213362" lon="6.9680242">
      <time>2022-05-18T09:19:45Z</time>
    </trkpt>
    <trkpt lat="50.9211066" lon="6.9681202">
      <time>2022-05-18T09:19:48Z</time>
    </trkpt>
    <trkpt lat="50.9210304" lon="6.9681603">
      <time>2022-05-18T09:19:49Z</time>
    </trkpt>
    <trkpt lat="50.9208305" lon="6.9682768">
      <time>2022-05-18T09:19:52Z</time>
    </trkpt>
    <trkpt lat="50.9207046" lon="6.9683550">
      <time>2022-05-18T09:19:54Z</time>
    </trkpt>
    <trkpt lat="50.9203104" lon="6.9685737">
      <time>2022-05-18T09:20:00Z</time>
    </trkpt>
    <trkpt lat="50.9198209" lon="6.9688173">
      <time>2022-05-18T09:20:07Z</time>
    </trkpt>
    <trkpt lat="50.9194800" lon="6.9690270">
      <time>2022-05-18T09:20:12Z</time>
    </trkpt>
    <trkpt lat="50.9193372" lon="6.9691046">
      <time>2022-05-18T09:20:14Z</time>
    </trkpt>
    <trkpt lat="50.9187893" lon="6.9694218">
      <time>2022-05-18T09:20:22Z</time>
    </trkpt>
    <trkpt lat="50.9187088" lon="6.9694462">
      <time>2022-05-18T09:20:23Z</time>
    </trkpt>
    <trkpt lat="50.9182733" lon="6.9696548">
      <time>2022-05-18T09:20:30Z</time>
    </trkpt>
    <trkpt lat="50.9179302" lon="6.9698003">
      <time>2022-05-18T09:20:35Z</time>
    </trkpt>
    <trkpt lat="50.9174402" lon="6.9700023">
      <time>2022-05-18T09:20:42Z</time>
    </trkpt>
    <trkpt lat="50.9171168" lon="6.9701821">
      <time>2022-05-18T09:20:47Z</time>
    </trkpt>
    <trkpt lat="50.9170414" lon="6.9702262">
      <time>2022-05-18T09:20:48Z</time>
    </trkpt>
    <trkpt lat="50.9168838" lon="6.9703230">
      <time>2022-05-18T09:20:50Z</time>
    </trkpt>
    <trkpt lat="50.9167534" lon="6.9703790">
      <time>2022-05-18T09:20:52Z</time>
    </trkpt>
    <trkpt lat="50.9165322" lon="6.9704578">
      <time>2022-05-18T09:20:55Z</time>
    </trkpt>
    <trkpt lat="50.9163469" lon="6.9705681">
      <time>2022-05-18T09:20:58Z</time>
    </trkpt>
    <trkpt lat="50.9162073" lon="6.9707205">
      <time>2022-05-18T09:21:00Z</time>
    </trkpt>
    <trkpt lat="50.9161444" lon="6.9707488">
      <time>2022-05-18T09:21:02Z</time>
    </trkpt>
    <trkpt lat="50.9160100" lon="6.9707429">
      <time>2022-05-18T09:21:04Z</time>
    </trkpt>
    <trkpt lat="50.9158550" lon="6.9707463">
      <time>2022-05-18T09:21:06Z</time>
    </trkpt>
    <trkpt lat="50.9157242" lon="6.9708177">
      <time>2022-05-18T09:21:08Z</time>
    </trkpt>
    <trkpt lat="50.9154326" lon="6.9710024">
      <time>2022-05-18T09:21:13Z</time>
    </trkpt>
    <trkpt lat="50.9153208" lon="6.9710640">
      <time>2022-05-18T09:21:15Z</time>
    </trkpt>
    <trkpt lat="50.9150184" lon="6.9712921">
      <time>2022-05-18T09:21:20Z</time>
    </trkpt>
    <trkpt lat="50.9145898" lon="6.9715495">
      <time>2022-05-18T09:21:27Z</time>
    </trkpt>
    <trkpt lat="50.9142705" lon="6.9717708">
      <time>2022-05-18T09:21:32Z</time>
    </trkpt>
    <trkpt lat="50.9141070" lon="6.9718770">
      <time>2022-05-18T09:21:35Z</time>
    </trkpt>
    <trkpt lat="50.9139935" lon="6.9719599">
      <time>2022-05-18T09:21:37Z</time>
    </trkpt>
    <trkpt lat="50.9139405" lon="6.9720783">
      <time>2022-05-18T09:21:39Z</time>
    </trkpt>
    <trkpt lat="50.9139737" lon="6.9722060">
      <time>2022-05-18T09:21:41Z</time>
    </trkpt>
    <trkpt lat="50.9139778" lon="6.9722971">
      <time>2022-05-18T09:21:42Z</time>
    </trkpt>
    <trkpt lat="50.9139608" lon="6.9723525">
      <time>2022-05-18T09:21:43Z</time>
    </trkpt>
    <trkpt lat="50.9139126" lon="6.9724199">
      <time>2022-05-18T09:21:44Z</time>
    </trkpt>
    <trkpt lat="50.9138161" lon="6.9725039">
      <time>2022-05-18T09:21:46Z</time>
    </trkpt>
    <trkpt lat="50.9135742" lon="6.9726908">
      <time>2022-05-18T09:21:50Z</time>
    </trkpt>
    <trkpt lat="50.9130412" lon="6.9730912">
      <time>2022-05-18T09:21:57Z</time>
    </trkpt>
    <trkpt lat="50.9124912" lon="6.9735280">
      <time>2022-05-18T09:22:05Z</time>
    </trkpt>
    <trkpt lat="50.9124367" lon="6.9735730">
      <time>2022-05-18T09:22:06Z</time>
    </trkpt>
    <trkpt lat="50.9119482" lon="6.9739497">
      <time>2022-05-18T09:22:13Z</time>
    </trkpt>
    <trkpt lat="50.9117562" lon="6.9741002">
      <time>2022-05-18T09:22:16Z</time>
    </trkpt>
    <trkpt lat="50.9112168" lon="6.9745157">
      <time>2022-05-18T09:22:24Z</time>
    </trkpt>
    <trkpt lat="50.9111518" lon="6.9745665">
      <time>2022-05-18T09:22:25Z</time>
    </trkpt>
    <trkpt lat="50.9106240" lon="6.9749751">
      <time>2022-05-18T09:22:33Z</time>
    </trkpt>
    <trkpt lat="50.9103667" lon="6.9751871">
      <time>2022-05-18T09:22:37Z</time>
    </trkpt>
    <trkpt lat="50.9103031" lon="6.9752351">
      <time>2022-05-18T09:22:38Z</time>
    </trkpt>
    <trkpt lat="50.9102628" lon="6.9752876">
      <time>2022-05-18T09:22:39Z</time>
    </trkpt>
    <trkpt lat="50.9101954" lon="6.9754445">
      <time>2022-05-18T09:22:41Z</time>
    </trkpt>
    <trkpt lat="50.9101549" lon="6.9755181">
      <time>2022-05-18T09:22:42Z</time>
    </trkpt>
    <trkpt lat="50.9100445" lon="6.9756183">
      <time>2022-05-18T09:22:44Z</time>
    </trkpt>
    <trkpt lat="50.9097027" lon="6.9759488">
      <time>2022-05-18T09:22:50Z</time>
    </trkpt>
    <trkpt lat="50.9093402" lon="6.9762580">
      <time>2022-05-18T09:22:56Z</time>
    </trkpt>
    <trkpt lat="50.9088468" lon="6.9766297">
      <time>2022-05-18T09:23:04Z</time>
    </trkpt>
    <trkpt lat="50.9087829" lon="6.9766768">
      <time>2022-05-18T09:23:05Z</time>
    </trkpt>
    <trkpt lat="50.9082519" lon="6.9771026">
      <time>2022-05-18T09:23:14Z</time>
    </trkpt>
    <trkpt lat="50.9082026" lon="6.9771378">
      <time>2022-05-18T09:23:15Z</time>
    </trkpt>
    <trkpt lat="50.9077208" lon="6.9775503">
      <time>2022-05-18T09:23:23Z</time>
    </trkpt>
    <trkpt lat="50.9073156" lon="6.9779040">
      <time>2022-05-18T09:23:30Z</time>
    </trkpt>
    <trkpt lat="50.9070823" lon="6.9781142">
      <time>2022-05-18T09:23:34Z</time>
    </trkpt>
    <trkpt lat="50.9065851" lon="6.9785839">
      <time>2022-05-18T09:23:43Z</time>
    </trkpt>
    <trkpt lat="50.9061994" lon="6.9789494">
      <time>2022-05-18T09:23:50Z</time>
    </trkpt>
    <trkpt lat="50.9059756" lon="6.9791644">
      <time>2022-05-18T09:23:54Z</time>
    </trkpt>
    <trkpt lat="50.9055104" lon="6.9796309">
      <time>2022-05-18T09:24:02Z</time>
    </trkpt>
    <trkpt lat="50.9053973" lon="6.9797371">
      <time>2022-05-18T09:24:04Z</time>
    </trkpt>
    <trkpt lat="50.9052614" lon="6.9798653">
      <time>2022-05-18T09:24:06Z</time>
    </trkpt>
    <trkpt lat="50.9049075" lon="6.9802279">
      <time>2022-05-18T09:24:12Z</time>
    </trkpt>
    <trkpt lat="50.9048505" lon="6.9802879">
      <time>2022-05-18T09:24:13Z</time>
    </trkpt>
    <trkpt lat="50.9044629" lon="6.9806830">
      <time>2022-05-18T09:24:20Z</time>
    </trkpt>
    <trkpt lat="50.9040088" lon="6.9811531">
      <time>2022-05-18T09:24:28Z</time>
    </trkpt>
    <trkpt lat="50.9038943" lon="6.9812831">
      <time>2022-05-18T09:24:30Z</time>
    </trkpt>
    <trkpt lat="50.9035020" lon="6.9817549">
      <time>2022-05-18T09:24:37Z</time>
    </trkpt>
    <trkpt lat="50.9033296" lon="6.9819432">
      <time>2022-05-18T09:24:40Z</time>
    </trkpt>
    <trkpt lat="50.9031620" lon="6.9821349">
      <time>2022-05-18T09:24:43Z</time>
    </trkpt>
    <trkpt lat="50.9029725" lon="6.9823527">
      <time>2022-05-18T09:24:46Z</time>
    </trkpt>
    <trkpt lat="50.9026796" lon="6.9827013">
      <time>2022-05-18T09:24:51Z</time>
    </trkpt>
    <trkpt lat="50.9026219" lon="6.9827742">
      <time>2022-05-18T09:24:52Z</time>
    </trkpt>
    <trkpt lat="50.9021726" lon="6.9833281">
      <time>2022-05-18T09:25:00Z</time>
    </trkpt>
    <trkpt lat="50.9021138" lon="6.9833826">
      <time>2022-05-18T09:25:01Z</time>
    </trkpt>
    <trkpt lat="50.9019483" lon="6.9834401">
      <time>2022-05-18T09:25:04Z</time>
    </trkpt>
    <trkpt lat="50.9018013" lon="6.9835809">
      <time>2022-05-18T09:25:07Z</time>
    </trkpt>
    <trkpt lat="50.9017501" lon="6.9836450">
      <time>2022-05-18T09:25:08Z</time>
    </trkpt>
    <trkpt lat="50.9013979" lon="6.9840336">
      <time>2022-05-18T09:25:14Z</time>
    </trkpt>
    <trkpt lat="50.9010506" lon="6.9845092">
      <time>2022-05-18T09:25:21Z</time>
    </trkpt>
    <trkpt lat="50.9010126" lon="6.9845627">
      <time>2022-05-18T09:25:22Z</time>
    </trkpt>
    <trkpt lat="50.9009599" lon="6.9845903">
      <time>2022-05-18T09:25:24Z</time>
    </trkpt>
    <trkpt lat="50.9008941" lon="6.9845799">
      <time>2022-05-18T09:25:27Z</time>
    </trkpt>
    <trkpt lat="50.9008666" lon="6.9846138">
      <time>2022-05-18T09:25:28Z</time>
    </trkpt>
    <trkpt lat="50.9008032" lon="6.9846982">
      <time>2022-05-18T09:25:30Z</time>
    </trkpt>
    <trkpt lat="50.9007135" lon="6.9847876">
      <time>2022-05-18T09:25:33Z</time>
    </trkpt>
    <trkpt lat="50.9006384" lon="6.9848559">
      <time>2022-05-18T09:25:36Z</time>
    </trkpt>
    <trkpt lat="50.9005837" lon="6.9849146">
      <time>2022-05-18T09:25:39Z</time>
    </trkpt>
    <trkpt lat="50.9005087" lon="6.9849808">
      <time>2022-05-18T09:25:43Z</time>
    </trkpt>
    <trkpt lat="50.9004872" lon="6.9849801">
      <time>2022-05-18T09:25:44Z</time>
    </trkpt>
    <trkpt lat="50.9004264" lon="6.9849811">
      <time>2022-05-18T09:25:47Z</time>
    </trkpt>
    <trkpt lat="50.9003384" lon="6.9850474">
      <time>2022-05-18T09:25:51Z</time>
    </trkpt>
    <trkpt lat="50.9002131" lon="6.9851524">
      <time>2022-05-18T09:25:57Z</time>
    </trkpt>
    <trkpt lat="50.9001995" lon="6.9851709">
      <time>2022-05-18T09:25:58Z</time>
    </trkpt>
    <trkpt lat="50.9001930" lon="6.9851923">
      <time>2022-05-18T09:25:59Z</time>
    </trkpt>
    <trkpt lat="50.9001861" lon="6.9852172">
      <time>2022-05-18T09:26:04Z</time>
    </trkpt>
    <trkpt lat="50.9001438" lon="6.9852501">
      <time>2022-05-18T09:26:57Z</time>
    </trkpt>
    <trkpt lat="50.9001045" lon="6.9852967">
      <time>2022-05-18T09:26:59Z</time>
    </trkpt>
    <trkpt lat="50.9000539" lon="6.9853613">
      <time>2022-05-18T09:27:01Z</time>
    </trkpt>
    <trkpt lat="50.9000202" lon="6.9854004">
      <time>2022-05-18T09:27:02Z</time>
    </trkpt>
    <trkpt lat="50.8999711" lon="6.9854644">
      <time>2022-05-18T09:27:04Z</time>
    </trkpt>
    <trkpt lat="50.8998574" lon="6.9856152">
      <time>2022-05-18T09:27:08Z</time>
    </trkpt>
    <trkpt lat="50.8997001" lon="6.9858265">
      <time>2022-05-18T09:27:13Z</time>
    </trkpt>
    <trkpt lat="50.8996666" lon="6.9858669">
      <time>2022-05-18T09:27:14Z</time>
    </trkpt>
    <trkpt lat="50.8994278" lon="6.9862203">
      <time>2022-05-18T09:27:22Z</time>
    </trkpt>
    <trkpt lat="50.8993996" lon="6.9862673">
      <time>2022-05-18T09:27:23Z</time>
    </trkpt>
    <trkpt lat="50.8993681" lon="6.9863155">
      <time>2022-05-18T09:27:24Z</time>
    </trkpt>
    <trkpt lat="50.8992332" lon="6.9864978">
      <time>2022-05-18T09:27:28Z</time>
    </trkpt>
    <trkpt lat="50.8990582" lon="6.9868279">
      <time>2022-05-18T09:27:35Z</time>
    </trkpt>
    <trkpt lat="50.8990266" lon="6.9868889">
      <time>2022-05-18T09:27:36Z</time>
    </trkpt>
    <trkpt lat="50.8987856" lon="6.9872631">
      <time>2022-05-18T09:27:45Z</time>
    </trkpt>
    <trkpt lat="50.8985876" lon="6.9876090">
      <time>2022-05-18T09:27:53Z</time>
    </trkpt>
    <trkpt lat="50.8985334" lon="6.9876924">
      <time>2022-05-18T09:27:58Z</time>
    </trkpt>
    <trkpt lat="50.8985334" lon="6.9876924">
      <time>2022-05-18T09:28:00Z</time>
    </trkpt>
    <trkpt lat="50.8987225" lon="6.9873704">
      <time>2022-05-18T09:29:31Z</time>
    </trkpt>
    <trkpt lat="50.8987400" lon="6.9873428">
      <time>2022-05-18T09:29:32Z</time>
    </trkpt>
    <trkpt lat="50.8987607" lon="6.9873181">
      <time>2022-05-18T09:29:33Z</time>
    </trkpt>
    <trkpt lat="50.8988650" lon="6.9871245">
      <time>2022-05-18T09:29:38Z</time>
    </trkpt>
    <trkpt lat="50.8989384" lon="6.9870152">
      <time>2022-05-18T09:29:41Z</time>
    </trkpt>
    <trkpt lat="50.8990069" lon="6.9868993">
      <time>2022-05-18T09:29:44Z</time>
    </trkpt>
    <trkpt lat="50.8992079" lon="6.9865641">
      <time>2022-05-18T09:29:53Z</time>
    </trkpt>
    <trkpt lat="50.8992347" lon="6.9865196">
      <time>2022-05-18T09:29:54Z</time>
    </trkpt>
    <trkpt lat="50.8992849" lon="6.9864350">
      <time>2022-05-18T09:29:56Z</time>
    </trkpt>
    <trkpt lat="50.8994313" lon="6.9861973">
      <time>2022-05-18T09:30:01Z</time>
    </trkpt>
    <trkpt lat="50.8995815" lon="6.9859648">
      <time>2022-05-18T09:30:06Z</time>
    </trkpt>
    <trkpt lat="50.8996722" lon="6.9858314">
      <time>2022-05-18T09:30:09Z</time>
    </trkpt>
    <trkpt lat="50.8999190" lon="6.9854787">
      <time>2022-05-18T09:30:17Z</time>
    </trkpt>
    <trkpt lat="50.9002336" lon="6.9850862">
      <time>2022-05-18T09:30:27Z</time>
    </trkpt>
    <trkpt lat="50.9004282" lon="6.9849512">
      <time>2022-05-18T09:30:34Z</time>
    </trkpt>
    <trkpt lat="50.9004372" lon="6.9849328">
      <time>2022-05-18T09:30:35Z</time>
    </trkpt>
    <trkpt lat="50.9004321" lon="6.9848999">
      <time>2022-05-18T09:30:37Z</time>
    </trkpt>
    <trkpt lat="50.9004223" lon="6.9848901">
      <time>2022-05-18T09:30:38Z</time>
    </trkpt>
    <trkpt lat="50.9004147" lon="6.9848840">
      <time>2022-05-18T09:30:39Z</time>
    </trkpt>
    <trkpt lat="50.9004114" lon="6.9848824">
      <time>2022-05-18T09:30:42Z</time>
    </trkpt>
    <trkpt lat="50.9004016" lon="6.9848495">
      <time>2022-05-18T09:31:28Z</time>
    </trkpt>
    <trkpt lat="50.9003551" lon="6.9846491">
      <time>2022-05-18T09:31:33Z</time>
    </trkpt>
    <trkpt lat="50.9003258" lon="6.9845078">
      <time>2022-05-18T09:31:37Z</time>
    </trkpt>
    <trkpt lat="50.9003158" lon="6.9844934">
      <time>2022-05-18T09:31:38Z</time>
    </trkpt>
    <trkpt lat="50.9003033" lon="6.9844907">
      <time>2022-05-18T09:31:39Z</time>
    </trkpt>
    <trkpt lat="50.9002319" lon="6.9845055">
      <time>2022-05-18T09:31:42Z</time>
    </trkpt>
    <trkpt lat="50.8999638" lon="6.9844167">
      <time>2022-05-18T09:31:51Z</time>
    </trkpt>
    <trkpt lat="50.8998274" lon="6.9843279">
      <time>2022-05-18T09:31:56Z</time>
    </trkpt>
    <trkpt lat="50.8997183" lon="6.9841452">
      <time>2022-05-18T09:32:00Z</time>
    </trkpt>
    <trkpt lat="50.8996829" lon="6.9840986">
      <time>2022-05-18T09:32:01Z</time>
    </trkpt>
    <trkpt lat="50.8996072" lon="6.9839628">
      <time>2022-05-18T09:32:03Z</time>
    </trkpt>
    <trkpt lat="50.8995620" lon="6.9838394">
      <time>2022-05-18T09:32:06Z</time>
    </trkpt>
    <trkpt lat="50.8995195" lon="6.9837451">
      <time>2022-05-18T09:32:09Z</time>
    </trkpt>
    <trkpt lat="50.8994991" lon="6.9837051">
      <time>2022-05-18T09:32:10Z</time>
    </trkpt>
    <trkpt lat="50.8994257" lon="6.9836125">
      <time>2022-05-18T09:32:12Z</time>
    </trkpt>
    <trkpt lat="50.8993773" lon="6.9835247">
      <time>2022-05-18T09:32:14Z</time>
    </trkpt>
    <trkpt lat="50.8993556" lon="6.9834816">
      <time>2022-05-18T09:32:15Z</time>
    </trkpt>
    <trkpt lat="50.8992048" lon="6.9831727">
      <time>2022-05-18T09:32:22Z</time>
    </trkpt>
    <trkpt lat="50.8990995" lon="6.9830201">
      <time>2022-05-18T09:32:27Z</time>
    </trkpt>
    <trkpt lat="50.8989125" lon="6.9826490">
      <time>2022-05-18T09:32:34Z</time>
    </trkpt>
    <trkpt lat="50.8988681" lon="6.9825169">
      <time>2022-05-18T09:32:36Z</time>
    </trkpt>
    <trkpt lat="50.8988226" lon="6.9823096">
      <time>2022-05-18T09:32:39Z</time>
    </trkpt>
    <trkpt lat="50.8988006" lon="6.9822410">
      <time>2022-05-18T09:32:40Z</time>
    </trkpt>
    <trkpt lat="50.8987711" lon="6.9821728">
      <time>2022-05-18T09:32:41Z</time>
    </trkpt>
    <trkpt lat="50.8986935" lon="6.9820921">
      <time>2022-05-18T09:32:43Z</time>
    </trkpt>
    <trkpt lat="50.8984770" lon="6.9819040">
      <time>2022-05-18T09:32:48Z</time>
    </trkpt>
    <trkpt lat="50.8984246" lon="6.9818428">
      <time>2022-05-18T09:32:49Z</time>
    </trkpt>
    <trkpt lat="50.8983355" lon="6.9816698">
      <time>2022-05-18T09:32:52Z</time>
    </trkpt>
    <trkpt lat="50.8982376" lon="6.9814439">
      <time>2022-05-18T09:32:55Z</time>
    </trkpt>
    <trkpt lat="50.8981375" lon="6.9812377">
      <time>2022-05-18T09:32:58Z</time>
    </trkpt>
    <trkpt lat="50.8980826" lon="6.9811532">
      <time>2022-05-18T09:33:01Z</time>
    </trkpt>
    <trkpt lat="50.8980238" lon="6.9811069">
      <time>2022-05-18T09:33:06Z</time>
    </trkpt>
    <trkpt lat="50.8980238" lon="6.9811069">
      <time>2022-05-18T09:33:07Z</time>
    </trkpt>
    <trkpt lat="50.8979805" lon="6.9810464">
      <time>2022-05-18T09:33:17Z</time>
    </trkpt>
    <trkpt lat="50.8979581" lon="6.9810191">
      <time>2022-05-18T09:33:18Z</time>
    </trkpt>
    <trkpt lat="50.8979327" lon="6.9809836">
      <time>2022-05-18T09:33:19Z</time>
    </trkpt>
    <trkpt lat="50.8977464" lon="6.9806926">
      <time>2022-05-18T09:33:25Z</time>
    </trkpt>
    <trkpt lat="50.8975173" lon="6.9803594">
      <time>2022-05-18T09:33:31Z</time>
    </trkpt>
    <trkpt lat="50.8974450" lon="6.9802511">
      <time>2022-05-18T09:33:33Z</time>
    </trkpt>
    <trkpt lat="50.8973446" lon="6.9801031">
      <time>2022-05-18T09:33:36Z</time>
    </trkpt>
    <trkpt lat="50.8971612" lon="6.9798161">
      <time>2022-05-18T09:33:42Z</time>
    </trkpt>
    <trkpt lat="50.8968483" lon="6.9794206">
      <time>2022-05-18T09:33:50Z</time>
    </trkpt>
    <trkpt lat="50.8965791" lon="6.9790811">
      <time>2022-05-18T09:33:57Z</time>
    </trkpt>
    <trkpt lat="50.8964953" lon="6.9789690">
      <time>2022-05-18T09:34:00Z</time>
    </trkpt>
    <trkpt lat="50.8964114" lon="6.9788213">
      <time>2022-05-18T09:34:03Z</time>
    </trkpt>
    <trkpt lat="50.8961957" lon="6.9785224">
      <time>2022-05-18T09:34:10Z</time>
    </trkpt>
    <trkpt lat="50.8959800" lon="6.9782240">
      <time>2022-05-18T09:34:16Z</time>
    </trkpt>
    <trkpt lat="50.8958639" lon="6.9780560">
      <time>2022-05-18T09:34:20Z</time>
    </trkpt>
    <trkpt lat="50.8956264" lon="6.9777273">
      <time>2022-05-18T09:34:26Z</time>
    </trkpt>
    <trkpt lat="50.8955354" lon="6.9776253">
      <time>2022-05-18T09:34:28Z</time>
    </trkpt>
    <trkpt lat="50.8954486" lon="6.9774876">
      <time>2022-05-18T09:34:31Z</time>
    </trkpt>
    <trkpt lat="50.8954039" lon="6.9774368">
      <time>2022-05-18T09:34:32Z</time>
    </trkpt>
    <trkpt lat="50.8952597" lon="6.9771771">
      <time>2022-05-18T09:34:36Z</time>
    </trkpt>
    <trkpt lat="50.8951840" lon="6.9770588">
      <time>2022-05-18T09:34:38Z</time>
    </trkpt>
    <trkpt lat="50.8950294" lon="6.9768716">
      <time>2022-05-18T09:34:43Z</time>
    </trkpt>
    <trkpt lat="50.8949561" lon="6.9767769">
      <time>2022-05-18T09:34:46Z</time>
    </trkpt>
    <trkpt lat="50.8948374" lon="6.9766463">
      <time>2022-05-18T09:34:51Z</time>
    </trkpt>
    <trkpt lat="50.8947997" lon="6.9765225">
      <time>2022-05-18T09:34:56Z</time>
    </trkpt>
    <trkpt lat="50.8946791" lon="6.9764296">
      <time>2022-05-18T09:35:02Z</time>
    </trkpt>
    <trkpt lat="50.8946114" lon="6.9763817">
      <time>2022-05-18T09:35:04Z</time>
    </trkpt>
    <trkpt lat="50.8945744" lon="6.9762868">
      <time>2022-05-18T09:35:06Z</time>
    </trkpt>
    <trkpt lat="50.8945525" lon="6.9762300">
      <time>2022-05-18T09:35:07Z</time>
    </trkpt>
    <trkpt lat="50.8944848" lon="6.9761121">
      <time>2022-05-18T09:35:09Z</time>
    </trkpt>
    <trkpt lat="50.8944178" lon="6.9760308">
      <time>2022-05-18T09:35:11Z</time>
    </trkpt>
    <trkpt lat="50.8942760" lon="6.9758946">
      <time>2022-05-18T09:35:14Z</time>
    </trkpt>
    <trkpt lat="50.8941757" lon="6.9757895">
      <time>2022-05-18T09:35:17Z</time>
    </trkpt>
    <trkpt lat="50.8940736" lon="6.9756889">
      <time>2022-05-18T09:35:20Z</time>
    </trkpt>
    <trkpt lat="50.8939754" lon="6.9755932">
      <time>2022-05-18T09:35:23Z</time>
    </trkpt>
    <trkpt lat="50.8939318" lon="6.9755485">
      <time>2022-05-18T09:35:24Z</time>
    </trkpt>
    <trkpt lat="50.8937948" lon="6.9753189">
      <time>2022-05-18T09:35:28Z</time>
    </trkpt>
    <trkpt lat="50.8935908" lon="6.9750001">
      <time>2022-05-18T09:35:34Z</time>
    </trkpt>
    <trkpt lat="50.8935417" lon="6.9749421">
      <time>2022-05-18T09:35:35Z</time>
    </trkpt>
    <trkpt lat="50.8933857" lon="6.9747380">
      <time>2022-05-18T09:35:39Z</time>
    </trkpt>
    <trkpt lat="50.8932723" lon="6.9745766">
      <time>2022-05-18T09:35:42Z</time>
    </trkpt>
    <trkpt lat="50.8929751" lon="6.9741079">
      <time>2022-05-18T09:35:50Z</time>
    </trkpt>
    <trkpt lat="50.8928788" lon="6.9738878">
      <time>2022-05-18T09:35:53Z</time>
    </trkpt>
    <trkpt lat="50.8927316" lon="6.9734707">
      <time>2022-05-18T09:35:59Z</time>
    </trkpt>
    <trkpt lat="50.8925737" lon="6.9728922">
      <time>2022-05-18T09:36:07Z</time>
    </trkpt>
    <trkpt lat="50.8925576" lon="6.9728181">
      <time>2022-05-18T09:36:08Z</time>
    </trkpt>
    <trkpt lat="50.8923483" lon="6.9720261">
      <time>2022-05-18T09:36:18Z</time>
    </trkpt>
    <trkpt lat="50.8922836" lon="6.9718226">
      <time>2022-05-18T09:36:21Z</time>
    </trkpt>
    <trkpt lat="50.8922271" lon="6.9715980">
      <time>2022-05-18T09:36:24Z</time>
    </trkpt>
    <trkpt lat="50.8921391" lon="6.9710924">
      <time>2022-05-18T09:36:31Z</time>
    </trkpt>
    <trkpt lat="50.8920183" lon="6.9706162">
      <time>2022-05-18T09:36:38Z</time>
    </trkpt>
    <trkpt lat="50.8918909" lon="6.9700392">
      <time>2022-05-18T09:36:46Z</time>
    </trkpt>
    <trkpt lat="50.8917683" lon="6.9695669">
      <time>2022-05-18T09:36:53Z</time>
    </trkpt>
    <trkpt lat="50.8917495" lon="6.9695009">
      <time>2022-05-18T09:36:54Z</time>
    </trkpt>
    <trkpt lat="50.8916802" lon="6.9692885">
      <time>2022-05-18T09:36:57Z</time>
    </trkpt>
    <trkpt lat="50.8916019" lon="6.9689974">
      <time>2022-05-18T09:37:01Z</time>
    </trkpt>
    <trkpt lat="50.8915574" lon="6.9688773">
      <time>2022-05-18T09:37:03Z</time>
    </trkpt>
    <trkpt lat="50.8914960" lon="6.9687893">
      <time>2022-05-18T09:37:05Z</time>
    </trkpt>
    <trkpt lat="50.8913951" lon="6.9687190">
      <time>2022-05-18T09:37:07Z</time>
    </trkpt>
    <trkpt lat="50.8913064" lon="6.9686842">
      <time>2022-05-18T09:37:09Z</time>
    </trkpt>
    <trkpt lat="50.8911745" lon="6.9686408">
      <time>2022-05-18T09:37:12Z</time>
    </trkpt>
    <trkpt lat="50.8910913" lon="6.9686292">
      <time>2022-05-18T09:37:14Z</time>
    </trkpt>
    <trkpt lat="50.8909923" lon="6.9686252">
      <time>2022-05-18T09:37:16Z</time>
    </trkpt>
    <trkpt lat="50.8909404" lon="6.9686012">
      <time>2022-05-18T09:37:17Z</time>
    </trkpt>
    <trkpt lat="50.8908569" lon="6.9685392">
      <time>2022-05-18T09:37:19Z</time>
    </trkpt>
    <trkpt lat="50.8907604" lon="6.9684867">
      <time>2022-05-18T09:37:21Z</time>
    </trkpt>
    <trkpt lat="50.8907128" lon="6.9684660">
      <time>2022-05-18T09:37:22Z</time>
    </trkpt>
    <trkpt lat="50.8905560" lon="6.9683754">
      <time>2022-05-18T09:37:25Z</time>
    </trkpt>
    <trkpt lat="50.8904629" lon="6.9682691">
      <time>2022-05-18T09:37:27Z</time>
    </trkpt>
    <trkpt lat="50.8904255" lon="6.9682077">
      <time>2022-05-18T09:37:28Z</time>
    </trkpt>
    <trkpt lat="50.8905220" lon="6.9669255">
      <time>2022-05-18T09:37:46Z</time>
    </trkpt>
    <trkpt lat="50.8903640" lon="6.9668736">
      <time>2022-05-18T09:37:48Z</time>
    </trkpt>
    <trkpt lat="50.8903353" lon="6.9668227">
      <time>2022-05-18T09:37:50Z</time>
    </trkpt>
    <trkpt lat="50.8902322" lon="6.9667335">
      <time>2022-05-18T09:37:52Z</time>
    </trkpt>
    <trkpt lat="50.8901242" lon="6.9666504">
      <time>2022-05-18T09:37:55Z</time>
    </trkpt>
    <trkpt lat="50.8900541" lon="6.9665833">
      <time>2022-05-18T09:37:57Z</time>
    </trkpt>
    <trkpt lat="50.8899994" lon="6.9664503">
      <time>2022-05-18T09:37:59Z</time>
    </trkpt>
    <trkpt lat="50.8899202" lon="6.9663077">
      <time>2022-05-18T09:38:02Z</time>
    </trkpt>
    <trkpt lat="50.8897978" lon="6.9660739">
      <time>2022-05-18T09:38:08Z</time>
    </trkpt>
    <trkpt lat="50.8897747" lon="6.9660307">
      <time>2022-05-18T09:38:13Z</time>
    </trkpt>
    <trkpt lat="50.8897665" lon="6.9660164">
      <time>2022-05-18T09:38:14Z</time>
    </trkpt>
    <trkpt lat="50.8897215" lon="6.9659079">
      <time>2022-05-18T09:38:18Z</time>
    </trkpt>
    <trkpt lat="50.8896755" lon="6.9658484">
      <time>2022-05-18T09:38:20Z</time>
    </trkpt>
    <trkpt lat="50.8895552" lon="6.9655879">
      <time>2022-05-18T09:38:26Z</time>
    </trkpt>
    <trkpt lat="50.8895355" lon="6.9655516">
      <time>2022-05-18T09:38:27Z</time>
    </trkpt>
    <trkpt lat="50.8894286" lon="6.9652822">
      <time>2022-05-18T09:38:33Z</time>
    </trkpt>
    <trkpt lat="50.8893181" lon="6.9649207">
      <time>2022-05-18T09:38:40Z</time>
    </trkpt>
    <trkpt lat="50.8892268" lon="6.9645440">
      <time>2022-05-18T09:38:47Z</time>
    </trkpt>
    <trkpt lat="50.8891745" lon="6.9642822">
      <time>2022-05-18T09:38:52Z</time>
    </trkpt>
    <trkpt lat="50.8891943" lon="6.9641872">
      <time>2022-05-18T09:38:54Z</time>
    </trkpt>
    <trkpt lat="50.8892386" lon="6.9641017">
      <time>2022-05-18T09:38:56Z</time>
    </trkpt>
    <trkpt lat="50.8893613" lon="6.9639069">
      <time>2022-05-18T09:39:01Z</time>
    </trkpt>
    <trkpt lat="50.8894620" lon="6.9637292">
      <time>2022-05-18T09:39:05Z</time>
    </trkpt>
    <trkpt lat="50.8894568" lon="6.9637025">
      <time>2022-05-18T09:39:06Z</time>
    </trkpt>
    <trkpt lat="50.8893340" lon="6.9635759">
      <time>2022-05-18T09:39:11Z</time>
    </trkpt>
    <trkpt lat="50.8890243" lon="6.9632017">
      <time>2022-05-18T09:39:20Z</time>
    </trkpt>
    <trkpt lat="50.8889078" lon="6.9629286">
      <time>2022-05-18T09:39:27Z</time>
    </trkpt>
    <trkpt lat="50.8887269" lon="6.9626465">
      <time>2022-05-18T09:39:34Z</time>
    </trkpt>
    <trkpt lat="50.8885944" lon="6.9624337">
      <time>2022-05-18T09:39:39Z</time>
    </trkpt>
    <trkpt lat="50.8885800" lon="6.9623844">
      <time>2022-05-18T09:39:40Z</time>
    </trkpt>
    <trkpt lat="50.8885470" lon="6.9622744">
      <time>2022-05-18T09:39:42Z</time>
    </trkpt>
    <trkpt lat="50.8884767" lon="6.9621233">
      <time>2022-05-18T09:39:45Z</time>
    </trkpt>
    <trkpt lat="50.8883746" lon="6.9618923">
      <time>2022-05-18T09:39:49Z</time>
    </trkpt>
    <trkpt lat="50.8882521" lon="6.9616772">
      <time>2022-05-18T09:39:53Z</time>
    </trkpt>
    <trkpt lat="50.8882097" lon="6.9615515">
      <time>2022-05-18T09:39:55Z</time>
    </trkpt>
    <trkpt lat="50.8880991" lon="6.9611809">
      <time>2022-05-18T09:40:01Z</time>
    </trkpt>
    <trkpt lat="50.8880709" lon="6.9610673">
      <time>2022-05-18T09:40:03Z</time>
    </trkpt>
    <trkpt lat="50.8880318" lon="6.9609402">
      <time>2022-05-18T09:40:05Z</time>
    </trkpt>
    <trkpt lat="50.8879661" lon="6.9607380">
      <time>2022-05-18T09:40:08Z</time>
    </trkpt>
    <trkpt lat="50.8877950" lon="6.9602143">
      <time>2022-05-18T09:40:16Z</time>
    </trkpt>
    <trkpt lat="50.8876182" lon="6.9596868">
      <time>2022-05-18T09:40:24Z</time>
    </trkpt>
    <trkpt lat="50.8875308" lon="6.9594417">
      <time>2022-05-18T09:40:29Z</time>
    </trkpt>
    <trkpt lat="50.8874824" lon="6.9593301">
      <time>2022-05-18T09:40:31Z</time>
    </trkpt>
    <trkpt lat="50.8873892" lon="6.9590900">
      <time>2022-05-18T09:40:36Z</time>
    </trkpt>
    <trkpt lat="50.8873263" lon="6.9588011">
      <time>2022-05-18T09:40:41Z</time>
    </trkpt>
    <trkpt lat="50.8874163" lon="6.9584626">
      <time>2022-05-18T09:40:47Z</time>
    </trkpt>
    <trkpt lat="50.8874288" lon="6.9583870">
      <time>2022-05-18T09:40:48Z</time>
    </trkpt>
    <trkpt lat="50.8875278" lon="6.9579668">
      <time>2022-05-18T09:40:54Z</time>
    </trkpt>
    <trkpt lat="50.8876755" lon="6.9574032">
      <time>2022-05-18T09:41:02Z</time>
    </trkpt>
    <trkpt lat="50.8877629" lon="6.9569742">
      <time>2022-05-18T09:41:08Z</time>
    </trkpt>
    <trkpt lat="50.8877778" lon="6.9569005">
      <time>2022-05-18T09:41:09Z</time>
    </trkpt>
    <trkpt lat="50.8878919" lon="6.9562780">
      <time>2022-05-18T09:41:18Z</time>
    </trkpt>
    <trkpt lat="50.8878965" lon="6.9562089">
      <time>2022-05-18T09:41:19Z</time>
    </trkpt>
    <trkpt lat="50.8879235" lon="6.9559980">
      <time>2022-05-18T09:41:22Z</time>
    </trkpt>
    <trkpt lat="50.8879389" lon="6.9559338">
      <time>2022-05-18T09:41:23Z</time>
    </trkpt>
    <trkpt lat="50.8879663" lon="6.9558114">
      <time>2022-05-18T09:41:25Z</time>
    </trkpt>
    <trkpt lat="50.8880001" lon="6.9556390">
      <time>2022-05-18T09:41:28Z</time>
    </trkpt>
    <trkpt lat="50.8880102" lon="6.9555822">
      <time>2022-05-18T09:41:29Z</time>
    </trkpt>
    <trkpt lat="50.8880831" lon="6.9551999">
      <time>2022-05-18T09:41:35Z</time>
    </trkpt>
    <trkpt lat="50.8881394" lon="6.9550056">
      <time>2022-05-18T09:41:38Z</time>
    </trkpt>
    <trkpt lat="50.8881857" lon="6.9548877">
      <time>2022-05-18T09:41:40Z</time>
    </trkpt>
    <trkpt lat="50.8882095" lon="6.9548244">
      <time>2022-05-18T09:41:41Z</time>
    </trkpt>
    <trkpt lat="50.8883181" lon="6.9543352">
      <time>2022-05-18T09:41:48Z</time>
    </trkpt>
    <trkpt lat="50.8883378" lon="6.9542610">
      <time>2022-05-18T09:41:49Z</time>
    </trkpt>
    <trkpt lat="50.8884360" lon="6.9538163">
      <time>2022-05-18T09:41:55Z</time>
    </trkpt>
    <trkpt lat="50.8884550" lon="6.9537476">
      <time>2022-05-18T09:41:56Z</time>
    </trkpt>
    <trkpt lat="50.8885246" lon="6.9534595">
      <time>2022-05-18T09:42:00Z</time>
    </trkpt>
    <trkpt lat="50.8885766" lon="6.9532477">
      <time>2022-05-18T09:42:03Z</time>
    </trkpt>
    <trkpt lat="50.8886899" lon="6.9527409">
      <time>2022-05-18T09:42:10Z</time>
    </trkpt>
    <trkpt lat="50.8888128" lon="6.9522244">
      <time>2022-05-18T09:42:18Z</time>
    </trkpt>
    <trkpt lat="50.8888701" lon="6.9520388">
      <time>2022-05-18T09:42:22Z</time>
    </trkpt>
    <trkpt lat="50.8888813" lon="6.9519984">
      <time>2022-05-18T09:42:23Z</time>
    </trkpt>
    <trkpt lat="50.8888862" lon="6.9518191">
      <time>2022-05-18T09:42:27Z</time>
    </trkpt>
    <trkpt lat="50.8889207" lon="6.9516064">
      <time>2022-05-18T09:42:30Z</time>
    </trkpt>
    <trkpt lat="50.8889368" lon="6.9515379">
      <time>2022-05-18T09:42:31Z</time>
    </trkpt>
    <trkpt lat="50.8889492" lon="6.9514828">
      <time>2022-05-18T09:42:32Z</time>
    </trkpt>
    <trkpt lat="50.8890167" lon="6.9512227">
      <time>2022-05-18T09:42:36Z</time>
    </trkpt>
    <trkpt lat="50.8890375" lon="6.9511654">
      <time>2022-05-18T09:42:37Z</time>
    </trkpt>
    <trkpt lat="50.8891589" lon="6.9508611">
      <time>2022-05-18T09:42:42Z</time>
    </trkpt>
    <trkpt lat="50.8892005" lon="6.9507435">
      <time>2022-05-18T09:42:44Z</time>
    </trkpt>
    <trkpt lat="50.8892195" lon="6.9506833">
      <time>2022-05-18T09:42:45Z</time>
    </trkpt>
    <trkpt lat="50.8892564" lon="6.9505757">
      <time>2022-05-18T09:42:47Z</time>
    </trkpt>
    <trkpt lat="50.8893616" lon="6.9502752">
      <time>2022-05-18T09:42:52Z</time>
    </trkpt>
    <trkpt lat="50.8894352" lon="6.9500760">
      <time>2022-05-18T09:42:56Z</time>
    </trkpt>
    <trkpt lat="50.8896311" lon="6.9496668">
      <time>2022-05-18T09:43:03Z</time>
    </trkpt>
    <trkpt lat="50.8896636" lon="6.9496088">
      <time>2022-05-18T09:43:04Z</time>
    </trkpt>
    <trkpt lat="50.8898064" lon="6.9493464">
      <time>2022-05-18T09:43:08Z</time>
    </trkpt>
    <trkpt lat="50.8898362" lon="6.9492861">
      <time>2022-05-18T09:43:09Z</time>
    </trkpt>
    <trkpt lat="50.8900116" lon="6.9489287">
      <time>2022-05-18T09:43:15Z</time>
    </trkpt>
    <trkpt lat="50.8900678" lon="6.9488100">
      <time>2022-05-18T09:43:17Z</time>
    </trkpt>
    <trkpt lat="50.8901013" lon="6.9487711">
      <time>2022-05-18T09:43:18Z</time>
    </trkpt>
    <trkpt lat="50.8901356" lon="6.9487242">
      <time>2022-05-18T09:43:19Z</time>
    </trkpt>
    <trkpt lat="50.8902479" lon="6.9485157">
      <time>2022-05-18T09:43:23Z</time>
    </trkpt>
    <trkpt lat="50.8904724" lon="6.9481901">
      <time>2022-05-18T09:43:29Z</time>
    </trkpt>
    <trkpt lat="50.8906534" lon="6.9479019">
      <time>2022-05-18T09:43:34Z</time>
    </trkpt>
    <trkpt lat="50.8907637" lon="6.9477414">
      <time>2022-05-18T09:43:37Z</time>
    </trkpt>
    <trkpt lat="50.8908124" lon="6.9476803">
      <time>2022-05-18T09:43:38Z</time>
    </trkpt>
    <trkpt lat="50.8911634" lon="6.9472530">
      <time>2022-05-18T09:43:47Z</time>
    </trkpt>
    <trkpt lat="50.8912131" lon="6.9472016">
      <time>2022-05-18T09:43:48Z</time>
    </trkpt>
    <trkpt lat="50.8915721" lon="6.9467143">
      <time>2022-05-18T09:43:58Z</time>
    </trkpt>
    <trkpt lat="50.8917377" lon="6.9465214">
      <time>2022-05-18T09:44:04Z</time>
    </trkpt>
    <trkpt lat="50.8917764" lon="6.9464685">
      <time>2022-05-18T09:44:07Z</time>
    </trkpt>
    <trkpt lat="50.8917859" lon="6.9464596">
      <time>2022-05-18T09:44:08Z</time>
    </trkpt>
    <trkpt lat="50.8918016" lon="6.9464452">
      <time>2022-05-18T09:44:10Z</time>
    </trkpt>
    <trkpt lat="50.8918655" lon="6.9463725">
      <time>2022-05-18T09:44:13Z</time>
    </trkpt>
    <trkpt lat="50.8920437" lon="6.9461347">
      <time>2022-05-18T09:44:19Z</time>
    </trkpt>
    <trkpt lat="50.8922951" lon="6.9457909">
      <time>2022-05-18T09:44:26Z</time>
    </trkpt>
    <trkpt lat="50.8924575" lon="6.9455841">
      <time>2022-05-18T09:44:30Z</time>
    </trkpt>
    <trkpt lat="50.8924965" lon="6.9455496">
      <time>2022-05-18T09:44:31Z</time>
    </trkpt>
    <trkpt lat="50.8925681" lon="6.9454722">
      <time>2022-05-18T09:44:33Z</time>
    </trkpt>
    <trkpt lat="50.8926713" lon="6.9453444">
      <time>2022-05-18T09:44:36Z</time>
    </trkpt>
  </trkseg></trk>
</gpx>
