<?xml version="1.0" encoding="UTF-8"?>
<gpx version="1.1" creator="Diary FIT converter" xmlns="http://www.topografix.com/GPX/1/1">
  <trk><name>Running</name><trkseg>
    <trkpt lat="50.9633783" lon="6.8771086">
      <time>2021-01-17T16:32:17Z</time>
    </trkpt>
    <trkpt lat="50.9634853" lon="6.8773572">
      <time>2021-01-17T16:32:24Z</time>
    </trkpt>
    <trkpt lat="50.9636146" lon="6.8775461">
      <time>2021-01-17T16:32:31Z</time>
    </trkpt>
    <trkpt lat="50.9636098" lon="6.8776341">
      <time>2021-01-17T16:32:33Z</time>
    </trkpt>
    <trkpt lat="50.9636258" lon="6.8777064">
      <time>2021-01-17T16:32:35Z</time>
    </trkpt>
    <trkpt lat="50.9636398" lon="6.8777344">
      <time>2021-01-17T16:32:36Z</time>
    </trkpt>
    <trkpt lat="50.9636783" lon="6.8778154">
      <time>2021-01-17T16:32:39Z</time>
    </trkpt>
    <trkpt lat="50.9637224" lon="6.8778841">
      <time>2021-01-17T16:32:42Z</time>
    </trkpt>
    <trkpt lat="50.9637990" lon="6.8780379">
      <time>2021-01-17T16:32:48Z</time>
    </trkpt>
    <trkpt lat="50.9639230" lon="6.8781746">
      <time>2021-01-17T16:32:53Z</time>
    </trkpt>
    <trkpt lat="50.9640655" lon="6.8783612">
      <time>2021-01-17T16:33:00Z</time>
    </trkpt>
    <trkpt lat="50.9641071" lon="6.8784113">
      <time>2021-01-17T16:33:02Z</time>
    </trkpt>
    <trkpt lat="50.9642410" lon="6.8785646">
      <time>2021-01-17T16:33:08Z</time>
    </trkpt>
    <trkpt lat="50.9643249" lon="6.8786943">
      <time>2021-01-17T16:33:12Z</time>
    </trkpt>
    <trkpt lat="50.9643639" lon="6.8787481">
      <time>2021-01-17T16:33:14Z</time>
    </trkpt>
    <trkpt lat="50.9644409" lon="6.8788986">
      <time>2021-01-17T16:33:19Z</time>
    </trkpt>
    <trkpt lat="50.9645276" lon="6.8790367">
      <time>2021-01-17T16:33:24Z</time>
    </trkpt>
    <trkpt lat="50.9646306" lon="6.8792013">
      <time>2021-01-17T16:33:31Z</time>
    </trkpt>
    <trkpt lat="50.9646459" lon="6.8792482">
      <time>2021-01-17T16:33:33Z</time>
    </trkpt>
    <trkpt lat="50.9646960" lon="6.8792906">
      <time>2021-01-17T16:33:35Z</time>
    </trkpt>
    <trkpt lat="50.9647710" lon="6.8794207">
      <time>2021-01-17T16:33:41Z</time>
    </trkpt>
    <trkpt lat="50.9648140" lon="6.8794821">
      <time>2021-01-17T16:33:44Z</time>
    </trkpt>
    <trkpt lat="50.9648697" lon="6.8795335">
      <time>2021-01-17T16:33:47Z</time>
    </trkpt>
    <trkpt lat="50.9650213" lon="6.8797265">
      <time>2021-01-17T16:33:53Z</time>
    </trkpt>
    <trkpt lat="50.9650592" lon="6.8797824">
      <time>2021-01-17T16:33:55Z</time>
    </trkpt>
    <trkpt lat="50.9652101" lon="6.8799473">
      <time>2021-01-17T16:34:02Z</time>
    </trkpt>
    <trkpt lat="50.9653491" lon="6.8800713">
      <time>2021-01-17T16:34:08Z</time>
    </trkpt>
    <trkpt lat="50.9654479" lon="6.8801591">
      <time>2021-01-17T16:34:13Z</time>
    </trkpt>
    <trkpt lat="50.9654911" lon="6.8802156">
      <time>2021-01-17T16:34:15Z</time>
    </trkpt>
    <trkpt lat="50.9656388" lon="6.8804106">
      <time>2021-01-17T16:34:22Z</time>
    </trkpt>
    <trkpt lat="50.9656388" lon="6.8804106">
      <time>2021-01-17T16:34:23Z</time>
    </trkpt>
    <trkpt lat="50.9657696" lon="6.8805355">
      <time>2021-01-17T16:34:28Z</time>
    </trkpt>
    <trkpt lat="50.9659142" lon="6.8806639">
      <time>2021-01-17T16:34:35Z</time>
    </trkpt>
    <trkpt lat="50.9660746" lon="6.8808657">
      <time>2021-01-17T16:34:43Z</time>
    </trkpt>
    <trkpt lat="50.9660933" lon="6.8808927">
      <time>2021-01-17T16:34:44Z</time>
    </trkpt>
    <trkpt lat="50.9662575" lon="6.8810405">
      <time>2021-01-17T16:34:51Z</time>
    </trkpt>
    <trkpt lat="50.9662770" lon="6.8810664">
      <time>2021-01-17T16:34:52Z</time>
    </trkpt>
    <trkpt lat="50.9663190" lon="6.8811208">
      <time>2021-01-17T16:34:54Z</time>
    </trkpt>
    <trkpt lat="50.9663828" lon="6.8813218">
      <time>2021-01-17T16:34:59Z</time>
    </trkpt>
    <trkpt lat="50.9663134" lon="6.8815227">
      <time>2021-01-17T16:35:04Z</time>
    </trkpt>
    <trkpt lat="50.9662253" lon="6.8818121">
      <time>2021-01-17T16:35:11Z</time>
    </trkpt>
    <trkpt lat="50.9662175" lon="6.8818505">
      <time>2021-01-17T16:35:12Z</time>
    </trkpt>
    <trkpt lat="50.9661869" lon="6.8821068">
      <time>2021-01-17T16:35:19Z</time>
    </trkpt>
    <trkpt lat="50.9661237" lon="6.8822756">
      <time>2021-01-17T16:35:24Z</time>
    </trkpt>
    <trkpt lat="50.9661216" lon="6.8823048">
      <time>2021-01-17T16:35:25Z</time>
    </trkpt>
    <trkpt lat="50.9661108" lon="6.8823343">
      <time>2021-01-17T16:35:26Z</time>
    </trkpt>
    <trkpt lat="50.9660461" lon="6.8824215">
      <time>2021-01-17T16:35:29Z</time>
    </trkpt>
    <trkpt lat="50.9659296" lon="6.8826365">
      <time>2021-01-17T16:35:36Z</time>
    </trkpt>
    <trkpt lat="50.9658387" lon="6.8828206">
      <time>2021-01-17T16:35:42Z</time>
    </trkpt>
    <trkpt lat="50.9657247" lon="6.8830213">
      <time>2021-01-17T16:35:49Z</time>
    </trkpt>
    <trkpt lat="50.9656511" lon="6.8831876">
      <time>2021-01-17T16:35:54Z</time>
    </trkpt>
    <trkpt lat="50.9656374" lon="6.8832227">
      <time>2021-01-17T16:35:55Z</time>
    </trkpt>
    <trkpt lat="50.9655733" lon="6.8833547">
      <time>2021-01-17T16:36:00Z</time>
    </trkpt>
    <trkpt lat="50.9655390" lon="6.8834406">
      <time>2021-01-17T16:36:03Z</time>
    </trkpt>
    <trkpt lat="50.9654332" lon="6.8836780">
      <time>2021-01-17T16:36:10Z</time>
    </trkpt>
    <trkpt lat="50.9653948" lon="6.8837495">
      <time>2021-01-17T16:36:12Z</time>
    </trkpt>
    <trkpt lat="50.9653054" lon="6.8839087">
      <time>2021-01-17T16:36:18Z</time>
    </trkpt>
    <trkpt lat="50.9652114" lon="6.8840629">
      <time>2021-01-17T16:36:24Z</time>
    </trkpt>
    <trkpt lat="50.9650975" lon="6.8843013">
      <time>2021-01-17T16:36:31Z</time>
    </trkpt>
    <trkpt lat="50.9649918" lon="6.8845581">
      <time>2021-01-17T16:36:39Z</time>
    </trkpt>
    <trkpt lat="50.9648754" lon="6.8848176">
      <time>2021-01-17T16:36:47Z</time>
    </trkpt>
    <trkpt lat="50.9648454" lon="6.8848900">
      <time>2021-01-17T16:36:49Z</time>
    </trkpt>
    <trkpt lat="50.9647297" lon="6.8851513">
      <time>2021-01-17T16:36:56Z</time>
    </trkpt>
    <trkpt lat="50.9646591" lon="6.8852985">
      <time>2021-01-17T16:36:59Z</time>
    </trkpt>
    <trkpt lat="50.9645361" lon="6.8855445">
      <time>2021-01-17T16:37:05Z</time>
    </trkpt>
    <trkpt lat="50.9645058" lon="6.8856167">
      <time>2021-01-17T16:37:07Z</time>
    </trkpt>
    <trkpt lat="50.9643948" lon="6.8858538">
      <time>2021-01-17T16:37:14Z</time>
    </trkpt>
    <trkpt lat="50.9642831" lon="6.8861179">
      <time>2021-01-17T16:37:21Z</time>
    </trkpt>
    <trkpt lat="50.9641858" lon="6.8863311">
      <time>2021-01-17T16:37:27Z</time>
    </trkpt>
    <trkpt lat="50.9641498" lon="6.8863903">
      <time>2021-01-17T16:37:29Z</time>
    </trkpt>
    <trkpt lat="50.9640527" lon="6.8866520">
      <time>2021-01-17T16:37:36Z</time>
    </trkpt>
    <trkpt lat="50.9640084" lon="6.8867685">
      <time>2021-01-17T16:37:39Z</time>
    </trkpt>
    <trkpt lat="50.9639629" lon="6.8868755">
      <time>2021-01-17T16:37:42Z</time>
    </trkpt>
    <trkpt lat="50.9639357" lon="6.8869322">
      <time>2021-01-17T16:37:44Z</time>
    </trkpt>
    <trkpt lat="50.9638443" lon="6.8871013">
      <time>2021-01-17T16:37:50Z</time>
    </trkpt>
    <trkpt lat="50.9637559" lon="6.8872229">
      <time>2021-01-17T16:37:55Z</time>
    </trkpt>
    <trkpt lat="50.9637263" lon="6.8872847">
      <time>2021-01-17T16:37:57Z</time>
    </trkpt>
    <trkpt lat="50.9636676" lon="6.8873915">
      <time>2021-01-17T16:38:00Z</time>
    </trkpt>
    <trkpt lat="50.9635870" lon="6.8875288">
      <time>2021-01-17T16:38:04Z</time>
    </trkpt>
    <trkpt lat="50.9634765" lon="6.8877408">
      <time>2021-01-17T16:38:10Z</time>
    </trkpt>
    <trkpt lat="50.9634515" lon="6.8878013">
      <time>2021-01-17T16:38:12Z</time>
    </trkpt>
    <trkpt lat="50.9634305" lon="6.8878403">
      <time>2021-01-17T16:38:13Z</time>
    </trkpt>
    <trkpt lat="50.9633403" lon="6.8881274">
      <time>2021-01-17T16:38:20Z</time>
    </trkpt>
    <trkpt lat="50.9633198" lon="6.8881503">
      <time>2021-01-17T16:38:21Z</time>
    </trkpt>
    <trkpt lat="50.9632197" lon="6.8883245">
      <time>2021-01-17T16:38:27Z</time>
    </trkpt>
    <trkpt lat="50.9631221" lon="6.8885139">
      <time>2021-01-17T16:38:33Z</time>
    </trkpt>
    <trkpt lat="50.9630099" lon="6.8887352">
      <time>2021-01-17T16:38:39Z</time>
    </trkpt>
    <trkpt lat="50.9629527" lon="6.8890291">
      <time>2021-01-17T16:38:46Z</time>
    </trkpt>
    <trkpt lat="50.9628524" lon="6.8893046">
      <time>2021-01-17T16:38:53Z</time>
    </trkpt>
    <trkpt lat="50.9628334" lon="6.8893369">
      <time>2021-01-17T16:38:54Z</time>
    </trkpt>
    <trkpt lat="50.9627110" lon="6.8895611">
      <time>2021-01-17T16:39:01Z</time>
    </trkpt>
    <trkpt lat="50.9626112" lon="6.8897254">
      <time>2021-01-17T16:39:06Z</time>
    </trkpt>
    <trkpt lat="50.9625409" lon="6.8899057">
      <time>2021-01-17T16:39:11Z</time>
    </trkpt>
    <trkpt lat="50.9623962" lon="6.8901081">
      <time>2021-01-17T16:39:18Z</time>
    </trkpt>
    <trkpt lat="50.9623358" lon="6.8901758">
      <time>2021-01-17T16:39:21Z</time>
    </trkpt>
    <trkpt lat="50.9622019" lon="6.8903840">
      <time>2021-01-17T16:39:28Z</time>
    </trkpt>
    <trkpt lat="50.9621016" lon="6.8906214">
      <time>2021-01-17T16:39:35Z</time>
    </trkpt>
    <trkpt lat="50.9620075" lon="6.8908907">
      <time>2021-01-17T16:39:43Z</time>
    </trkpt>
    <trkpt lat="50.9619331" lon="6.8910943">
      <time>2021-01-17T16:39:49Z</time>
    </trkpt>
    <trkpt lat="50.9618717" lon="6.8912990">
      <time>2021-01-17T16:39:55Z</time>
    </trkpt>
    <trkpt lat="50.9617781" lon="6.8915124">
      <time>2021-01-17T16:40:01Z</time>
    </trkpt>
    <trkpt lat="50.9616713" lon="6.8917183">
      <time>2021-01-17T16:40:07Z</time>
    </trkpt>
    <trkpt lat="50.9616135" lon="6.8919460">
      <time>2021-01-17T16:40:13Z</time>
    </trkpt>
    <trkpt lat="50.9616021" lon="6.8919890">
      <time>2021-01-17T16:40:14Z</time>
    </trkpt>
    <trkpt lat="50.9615073" lon="6.8922791">
      <time>2021-01-17T16:40:22Z</time>
    </trkpt>
    <trkpt lat="50.9614247" lon="6.8924488">
      <time>2021-01-17T16:40:27Z</time>
    </trkpt>
    <trkpt lat="50.9613500" lon="6.8925153">
      <time>2021-01-17T16:40:30Z</time>
    </trkpt>
    <trkpt lat="50.9613095" lon="6.8925069">
      <time>2021-01-17T16:40:31Z</time>
    </trkpt>
    <trkpt lat="50.9611493" lon="6.8924189">
      <time>2021-01-17T16:40:36Z</time>
    </trkpt>
    <trkpt lat="50.9609985" lon="6.8922291">
      <time>2021-01-17T16:40:42Z</time>
    </trkpt>
    <trkpt lat="50.9608922" lon="6.8919831">
      <time>2021-01-17T16:40:48Z</time>
    </trkpt>
    <trkpt lat="50.9608499" lon="6.8919141">
      <time>2021-01-17T16:40:50Z</time>
    </trkpt>
    <trkpt lat="50.9607116" lon="6.8916740">
      <time>2021-01-17T16:40:57Z</time>
    </trkpt>
    <trkpt lat="50.9605863" lon="6.8914426">
      <time>2021-01-17T16:41:03Z</time>
    </trkpt>
    <trkpt lat="50.9605233" lon="6.8913197">
      <time>2021-01-17T16:41:07Z</time>
    </trkpt>
    <trkpt lat="50.9604376" lon="6.8911518">
      <time>2021-01-17T16:41:12Z</time>
    </trkpt>
    <trkpt lat="50.9603311" lon="6.8909781">
      <time>2021-01-17T16:41:18Z</time>
    </trkpt>
    <trkpt lat="50.9602770" lon="6.8908094">
      <time>2021-01-17T16:41:23Z</time>
    </trkpt>
    <trkpt lat="50.9602291" lon="6.8905218">
      <time>2021-01-17T16:41:30Z</time>
    </trkpt>
    <trkpt lat="50.9602256" lon="6.8904751">
      <time>2021-01-17T16:41:31Z</time>
    </trkpt>
    <trkpt lat="50.9602030" lon="6.8902345">
      <time>2021-01-17T16:41:37Z</time>
    </trkpt>
    <trkpt lat="50.9602046" lon="6.8901836">
      <time>2021-01-17T16:41:38Z</time>
    </trkpt>
    <trkpt lat="50.9602008" lon="6.8900074">
      <time>2021-01-17T16:41:42Z</time>
    </trkpt>
    <trkpt lat="50.9601992" lon="6.8899598">
      <time>2021-01-17T16:41:43Z</time>
    </trkpt>
    <trkpt lat="50.9602268" lon="6.8896533">
      <time>2021-01-17T16:41:50Z</time>
    </trkpt>
    <trkpt lat="50.9602565" lon="6.8894243">
      <time>2021-01-17T16:41:56Z</time>
    </trkpt>
    <trkpt lat="50.9602587" lon="6.8893414">
      <time>2021-01-17T16:41:59Z</time>
    </trkpt>
    <trkpt lat="50.9602636" lon="6.8893155">
      <time>2021-01-17T16:42:00Z</time>
    </trkpt>
    <trkpt lat="50.9604302" lon="6.8882919">
      <time>2021-01-17T16:42:20Z</time>
    </trkpt>
    <trkpt lat="50.9604563" lon="6.8880913">
      <time>2021-01-17T16:42:25Z</time>
    </trkpt>
    <trkpt lat="50.9604214" lon="6.8878351">
      <time>2021-01-17T16:42:32Z</time>
    </trkpt>
    <trkpt lat="50.9604104" lon="6.8877180">
      <time>2021-01-17T16:42:35Z</time>
    </trkpt>
    <trkpt lat="50.9603951" lon="6.8875751">
      <time>2021-01-17T16:42:39Z</time>
    </trkpt>
    <trkpt lat="50.9603592" lon="6.8872559">
      <time>2021-01-17T16:42:47Z</time>
    </trkpt>
    <trkpt lat="50.9603506" lon="6.8872160">
      <time>2021-01-17T16:42:48Z</time>
    </trkpt>
    <trkpt lat="50.9603047" lon="6.8869058">
      <time>2021-01-17T16:42:56Z</time>
    </trkpt>
    <trkpt lat="50.9602879" lon="6.8868477">
      <time>2021-01-17T16:42:58Z</time>
    </trkpt>
    <trkpt lat="50.9602408" lon="6.8866735">
      <time>2021-01-17T16:43:03Z</time>
    </trkpt>
    <trkpt lat="50.9601657" lon="6.8864888">
      <time>2021-01-17T16:43:08Z</time>
    </trkpt>
    <trkpt lat="50.9600727" lon="6.8862378">
      <time>2021-01-17T16:43:15Z</time>
    </trkpt>
    <trkpt lat="50.9600183" lon="6.8861505">
      <time>2021-01-17T16:43:18Z</time>
    </trkpt>
    <trkpt lat="50.9599776" lon="6.8860635">
      <time>2021-01-17T16:43:21Z</time>
    </trkpt>
    <trkpt lat="50.9599645" lon="6.8859870">
      <time>2021-01-17T16:43:24Z</time>
    </trkpt>
    <trkpt lat="50.9599860" lon="6.8859449">
      <time>2021-01-17T16:43:26Z</time>
    </trkpt>
    <trkpt lat="50.9601093" lon="6.8858463">
      <time>2021-01-17T16:43:31Z</time>
    </trkpt>
    <trkpt lat="50.9602805" lon="6.8857912">
      <time>2021-01-17T16:43:38Z</time>
    </trkpt>
    <trkpt lat="50.9604475" lon="6.8857372">
      <time>2021-01-17T16:43:45Z</time>
    </trkpt>
    <trkpt lat="50.9604855" lon="6.8857198">
      <time>2021-01-17T16:43:47Z</time>
    </trkpt>
    <trkpt lat="50.9605812" lon="6.8856902">
      <time>2021-01-17T16:43:52Z</time>
    </trkpt>
    <trkpt lat="50.9605969" lon="6.8856776">
      <time>2021-01-17T16:43:53Z</time>
    </trkpt>
    <trkpt lat="50.9607476" lon="6.8856314">
      <time>2021-01-17T16:43:59Z</time>
    </trkpt>
    <trkpt lat="50.9608769" lon="6.8856077">
      <time>2021-01-17T16:44:03Z</time>
    </trkpt>
    <trkpt lat="50.9609597" lon="6.8855789">
      <time>2021-01-17T16:44:06Z</time>
    </trkpt>
    <trkpt lat="50.9610655" lon="6.8855548">
      <time>2021-01-17T16:44:10Z</time>
    </trkpt>
    <trkpt lat="50.9611913" lon="6.8855073">
      <time>2021-01-17T16:44:15Z</time>
    </trkpt>
    <trkpt lat="50.9613311" lon="6.8854154">
      <time>2021-01-17T16:44:21Z</time>
    </trkpt>
    <trkpt lat="50.9615011" lon="6.8852400">
      <time>2021-01-17T16:44:29Z</time>
    </trkpt>
    <trkpt lat="50.9616368" lon="6.8850952">
      <time>2021-01-17T16:44:35Z</time>
    </trkpt>
    <trkpt lat="50.9618120" lon="6.8849878">
      <time>2021-01-17T16:44:42Z</time>
    </trkpt>
    <trkpt lat="50.9619548" lon="6.8848906">
      <time>2021-01-17T16:44:48Z</time>
    </trkpt>
    <trkpt lat="50.9620006" lon="6.8847094">
      <time>2021-01-17T16:44:54Z</time>
    </trkpt>
    <trkpt lat="50.9620187" lon="6.8844098">
      <time>2021-01-17T16:45:02Z</time>
    </trkpt>
    <trkpt lat="50.9620223" lon="6.8843724">
      <time>2021-01-17T16:45:03Z</time>
    </trkpt>
    <trkpt lat="50.9619906" lon="6.8841001">
      <time>2021-01-17T16:45:11Z</time>
    </trkpt>
    <trkpt lat="50.9619200" lon="6.8838758">
      <time>2021-01-17T16:45:17Z</time>
    </trkpt>
    <trkpt lat="50.9618404" lon="6.8836181">
      <time>2021-01-17T16:45:24Z</time>
    </trkpt>
    <trkpt lat="50.9618054" lon="6.8835081">
      <time>2021-01-17T16:45:27Z</time>
    </trkpt>
    <trkpt lat="50.9617787" lon="6.8833930">
      <time>2021-01-17T16:45:30Z</time>
    </trkpt>
    <trkpt lat="50.9617387" lon="6.8832340">
      <time>2021-01-17T16:45:34Z</time>
    </trkpt>
    <trkpt lat="50.9617067" lon="6.8831178">
      <time>2021-01-17T16:45:37Z</time>
    </trkpt>
    <trkpt lat="50.9616468" lon="6.8828882">
      <time>2021-01-17T16:45:43Z</time>
    </trkpt>
    <trkpt lat="50.9616100" lon="6.8827914">
      <time>2021-01-17T16:45:46Z</time>
    </trkpt>
    <trkpt lat="50.9615303" lon="6.8825146">
      <time>2021-01-17T16:45:54Z</time>
    </trkpt>
    <trkpt lat="50.9614559" lon="6.8822526">
      <time>2021-01-17T16:46:01Z</time>
    </trkpt>
    <trkpt lat="50.9614467" lon="6.8822128">
      <time>2021-01-17T16:46:02Z</time>
    </trkpt>
    <trkpt lat="50.9614089" lon="6.8820566">
      <time>2021-01-17T16:46:06Z</time>
    </trkpt>
    <trkpt lat="50.9613484" lon="6.8818176">
      <time>2021-01-17T16:46:13Z</time>
    </trkpt>
    <trkpt lat="50.9612710" lon="6.8815272">
      <time>2021-01-17T16:46:21Z</time>
    </trkpt>
    <trkpt lat="50.9612473" lon="6.8814468">
      <time>2021-01-17T16:46:23Z</time>
    </trkpt>
    <trkpt lat="50.9611730" lon="6.8811473">
      <time>2021-01-17T16:46:31Z</time>
    </trkpt>
    <trkpt lat="50.9611639" lon="6.8811106">
      <time>2021-01-17T16:46:32Z</time>
    </trkpt>
    <trkpt lat="50.9610887" lon="6.8808170">
      <time>2021-01-17T16:46:40Z</time>
    </trkpt>
    <trkpt lat="50.9610797" lon="6.8807797">
      <time>2021-01-17T16:46:41Z</time>
    </trkpt>
    <trkpt lat="50.9610012" lon="6.8805226">
      <time>2021-01-17T16:46:48Z</time>
    </trkpt>
    <trkpt lat="50.9609810" lon="6.8804433">
      <time>2021-01-17T16:46:50Z</time>
    </trkpt>
    <trkpt lat="50.9609015" lon="6.8801769">
      <time>2021-01-17T16:46:57Z</time>
    </trkpt>
    <trkpt lat="50.9608642" lon="6.8800263">
      <time>2021-01-17T16:47:01Z</time>
    </trkpt>
    <trkpt lat="50.9608057" lon="6.8797519">
      <time>2021-01-17T16:47:08Z</time>
    </trkpt>
    <trkpt lat="50.9607934" lon="6.8796689">
      <time>2021-01-17T16:47:10Z</time>
    </trkpt>
    <trkpt lat="50.9607628" lon="6.8793683">
      <time>2021-01-17T16:47:17Z</time>
    </trkpt>
    <trkpt lat="50.9607638" lon="6.8793277">
      <time>2021-01-17T16:47:18Z</time>
    </trkpt>
    <trkpt lat="50.9608244" lon="6.8790316">
      <time>2021-01-17T16:47:26Z</time>
    </trkpt>
    <trkpt lat="50.9608958" lon="6.8788061">
      <time>2021-01-17T16:47:33Z</time>
    </trkpt>
    <trkpt lat="50.9608915" lon="6.8787170">
      <time>2021-01-17T16:47:36Z</time>
    </trkpt>
    <trkpt lat="50.9608718" lon="6.8786999">
      <time>2021-01-17T16:47:37Z</time>
    </trkpt>
    <trkpt lat="50.9607213" lon="6.8786757">
      <time>2021-01-17T16:47:43Z</time>
    </trkpt>
    <trkpt lat="50.9605935" lon="6.8786705">
      <time>2021-01-17T16:47:48Z</time>
    </trkpt>
    <trkpt lat="50.9605531" lon="6.8786611">
      <time>2021-01-17T16:47:50Z</time>
    </trkpt>
    <trkpt lat="50.9603975" lon="6.8786662">
      <time>2021-01-17T16:47:57Z</time>
    </trkpt>
    <trkpt lat="50.9602267" lon="6.8786134">
      <time>2021-01-17T16:48:03Z</time>
    </trkpt>
    <trkpt lat="50.9601161" lon="6.8784285">
      <time>2021-01-17T16:48:09Z</time>
    </trkpt>
    <trkpt lat="50.9599854" lon="6.8782309">
      <time>2021-01-17T16:48:16Z</time>
    </trkpt>
    <trkpt lat="50.9599640" lon="6.8782104">
      <time>2021-01-17T16:48:17Z</time>
    </trkpt>
    <trkpt lat="50.9598769" lon="6.8781256">
      <time>2021-01-17T16:48:21Z</time>
    </trkpt>
    <trkpt lat="50.9597304" lon="6.8779547">
      <time>2021-01-17T16:48:28Z</time>
    </trkpt>
    <trkpt lat="50.9596882" lon="6.8779006">
      <time>2021-01-17T16:48:30Z</time>
    </trkpt>
    <trkpt lat="50.9595382" lon="6.8776825">
      <time>2021-01-17T16:48:38Z</time>
    </trkpt>
    <trkpt lat="50.9595099" lon="6.8776231">
      <time>2021-01-17T16:48:40Z</time>
    </trkpt>
    <trkpt lat="50.9593882" lon="6.8774095">
      <time>2021-01-17T16:48:47Z</time>
    </trkpt>
    <trkpt lat="50.9593606" lon="6.8773459">
      <time>2021-01-17T16:48:49Z</time>
    </trkpt>
    <trkpt lat="50.9593187" lon="6.8771534">
      <time>2021-01-17T16:48:55Z</time>
    </trkpt>
    <trkpt lat="50.9593196" lon="6.8769442">
      <time>2021-01-17T16:49:01Z</time>
    </trkpt>
    <trkpt lat="50.9593213" lon="6.8769009">
      <time>2021-01-17T16:49:02Z</time>
    </trkpt>
    <trkpt lat="50.9593338" lon="6.8766948">
      <time>2021-01-17T16:49:07Z</time>
    </trkpt>
    <trkpt lat="50.9593309" lon="6.8765837">
      <time>2021-01-17T16:49:10Z</time>
    </trkpt>
    <trkpt lat="50.9593202" lon="6.8763248">
      <time>2021-01-17T16:49:17Z</time>
    </trkpt>
    <trkpt lat="50.9593192" lon="6.8762896">
      <time>2021-01-17T16:49:18Z</time>
    </trkpt>
    <trkpt lat="50.9593161" lon="6.8759934">
      <time>2021-01-17T16:49:26Z</time>
    </trkpt>
    <trkpt lat="50.9593244" lon="6.8756825">
      <time>2021-01-17T16:49:34Z</time>
    </trkpt>
    <trkpt lat="50.9593353" lon="6.8756520">
      <time>2021-01-17T16:49:35Z</time>
    </trkpt>
    <trkpt lat="50.9594437" lon="6.8755618">
      <time>2021-01-17T16:49:40Z</time>
    </trkpt>
    <trkpt lat="50.9596254" lon="6.8755196">
      <time>2021-01-17T16:49:47Z</time>
    </trkpt>
    <trkpt lat="50.9596461" lon="6.8755141">
      <time>2021-01-17T16:49:48Z</time>
    </trkpt>
    <trkpt lat="50.9597480" lon="6.8754289">
      <time>2021-01-17T16:49:53Z</time>
    </trkpt>
    <trkpt lat="50.9597555" lon="6.8753980">
      <time>2021-01-17T16:49:54Z</time>
    </trkpt>
    <trkpt lat="50.9597718" lon="6.8751088">
      <time>2021-01-17T16:50:01Z</time>
    </trkpt>
    <trkpt lat="50.9597720" lon="6.8750695">
      <time>2021-01-17T16:50:02Z</time>
    </trkpt>
    <trkpt lat="50.9597820" lon="6.8749980">
      <time>2021-01-17T16:50:04Z</time>
    </trkpt>
    <trkpt lat="50.9598027" lon="6.8748466">
      <time>2021-01-17T16:50:08Z</time>
    </trkpt>
    <trkpt lat="50.9598188" lon="6.8745801">
      <time>2021-01-17T16:50:15Z</time>
    </trkpt>
    <trkpt lat="50.9598403" lon="6.8743471">
      <time>2021-01-17T16:50:21Z</time>
    </trkpt>
    <trkpt lat="50.9598615" lon="6.8740638">
      <time>2021-01-17T16:50:28Z</time>
    </trkpt>
    <trkpt lat="50.9598611" lon="6.8739871">
      <time>2021-01-17T16:50:30Z</time>
    </trkpt>
    <trkpt lat="50.9598669" lon="6.8736651">
      <time>2021-01-17T16:50:37Z</time>
    </trkpt>
    <trkpt lat="50.9598613" lon="6.8736296">
      <time>2021-01-17T16:50:38Z</time>
    </trkpt>
    <trkpt lat="50.9598086" lon="6.8734123">
      <time>2021-01-17T16:50:44Z</time>
    </trkpt>
    <trkpt lat="50.9597842" lon="6.8731554">
      <time>2021-01-17T16:50:51Z</time>
    </trkpt>
    <trkpt lat="50.9597539" lon="6.8729089">
      <time>2021-01-17T16:50:58Z</time>
    </trkpt>
    <trkpt lat="50.9597254" lon="6.8727993">
      <time>2021-01-17T16:51:01Z</time>
    </trkpt>
    <trkpt lat="50.9596964" lon="6.8726490">
      <time>2021-01-17T16:51:05Z</time>
    </trkpt>
    <trkpt lat="50.9596515" lon="6.8723880">
      <time>2021-01-17T16:51:12Z</time>
    </trkpt>
    <trkpt lat="50.9596031" lon="6.8720765">
      <time>2021-01-17T16:51:20Z</time>
    </trkpt>
    <trkpt lat="50.9595996" lon="6.8720348">
      <time>2021-01-17T16:51:21Z</time>
    </trkpt>
    <trkpt lat="50.9595346" lon="6.8717566">
      <time>2021-01-17T16:51:28Z</time>
    </trkpt>
    <trkpt lat="50.9595082" lon="6.8716400">
      <time>2021-01-17T16:51:31Z</time>
    </trkpt>
    <trkpt lat="50.9594917" lon="6.8715721">
      <time>2021-01-17T16:51:33Z</time>
    </trkpt>
    <trkpt lat="50.9594697" lon="6.8714255">
      <time>2021-01-17T16:51:37Z</time>
    </trkpt>
    <trkpt lat="50.9593880" lon="6.8711541">
      <time>2021-01-17T16:51:45Z</time>
    </trkpt>
    <trkpt lat="50.9593778" lon="6.8711168">
      <time>2021-01-17T16:51:46Z</time>
    </trkpt>
    <trkpt lat="50.9593221" lon="6.8708262">
      <time>2021-01-17T16:51:54Z</time>
    </trkpt>
    <trkpt lat="50.9593342" lon="6.8706383">
      <time>2021-01-17T16:52:00Z</time>
    </trkpt>
    <trkpt lat="50.9593493" lon="6.8706197">
      <time>2021-01-17T16:52:01Z</time>
    </trkpt>
    <trkpt lat="50.9594078" lon="6.8705465">
      <time>2021-01-17T16:52:04Z</time>
    </trkpt>
    <trkpt lat="50.9595622" lon="6.8703936">
      <time>2021-01-17T16:52:10Z</time>
    </trkpt>
    <trkpt lat="50.9596298" lon="6.8703295">
      <time>2021-01-17T16:52:13Z</time>
    </trkpt>
    <trkpt lat="50.9598317" lon="6.8703056">
      <time>2021-01-17T16:52:20Z</time>
    </trkpt>
    <trkpt lat="50.9599989" lon="6.8702945">
      <time>2021-01-17T16:52:27Z</time>
    </trkpt>
    <trkpt lat="50.9601782" lon="6.8702511">
      <time>2021-01-17T16:52:35Z</time>
    </trkpt>
    <trkpt lat="50.9603848" lon="6.8702408">
      <time>2021-01-17T16:52:43Z</time>
    </trkpt>
    <trkpt lat="50.9604138" lon="6.8702315">
      <time>2021-01-17T16:52:44Z</time>
    </trkpt>
    <trkpt lat="50.9605648" lon="6.8702056">
      <time>2021-01-17T16:52:50Z</time>
    </trkpt>
    <trkpt lat="50.9607120" lon="6.8701597">
      <time>2021-01-17T16:52:56Z</time>
    </trkpt>
    <trkpt lat="50.9608990" lon="6.8700585">
      <time>2021-01-17T16:53:03Z</time>
    </trkpt>
    <trkpt lat="50.9610945" lon="6.8699705">
      <time>2021-01-17T16:53:11Z</time>
    </trkpt>
    <trkpt lat="50.9612843" lon="6.8698893">
      <time>2021-01-17T16:53:19Z</time>
    </trkpt>
    <trkpt lat="50.9614755" lon="6.8698337">
      <time>2021-01-17T16:53:27Z</time>
    </trkpt>
    <trkpt lat="50.9616605" lon="6.8697736">
      <time>2021-01-17T16:53:34Z</time>
    </trkpt>
    <trkpt lat="50.9616805" lon="6.8697627">
      <time>2021-01-17T16:53:35Z</time>
    </trkpt>
    <trkpt lat="50.9617019" lon="6.8697534">
      <time>2021-01-17T16:53:36Z</time>
    </trkpt>
    <trkpt lat="50.9618948" lon="6.8697114">
      <time>2021-01-17T16:53:43Z</time>
    </trkpt>
    <trkpt lat="50.9619414" lon="6.8696869">
      <time>2021-01-17T16:53:45Z</time>
    </trkpt>
    <trkpt lat="50.9620828" lon="6.8696482">
      <time>2021-01-17T16:53:51Z</time>
    </trkpt>
    <trkpt lat="50.9622627" lon="6.8696383">
      <time>2021-01-17T16:53:58Z</time>
    </trkpt>
    <trkpt lat="50.9623188" lon="6.8696291">
      <time>2021-01-17T16:54:00Z</time>
    </trkpt>
    <trkpt lat="50.9624936" lon="6.8696109">
      <time>2021-01-17T16:54:08Z</time>
    </trkpt>
    <trkpt lat="50.9626895" lon="6.8695812">
      <time>2021-01-17T16:54:15Z</time>
    </trkpt>
    <trkpt lat="50.9627075" lon="6.8695797">
      <time>2021-01-17T16:54:16Z</time>
    </trkpt>
    <trkpt lat="50.9628778" lon="6.8695565">
      <time>2021-01-17T16:54:23Z</time>
    </trkpt>
    <trkpt lat="50.9630218" lon="6.8695305">
      <time>2021-01-17T16:54:29Z</time>
    </trkpt>
    <trkpt lat="50.9632028" lon="6.8694892">
      <time>2021-01-17T16:54:37Z</time>
    </trkpt>
    <trkpt lat="50.9632256" lon="6.8694882">
      <time>2021-01-17T16:54:38Z</time>
    </trkpt>
    <trkpt lat="50.9633981" lon="6.8695192">
      <time>2021-01-17T16:54:45Z</time>
    </trkpt>
    <trkpt lat="50.9635794" lon="6.8695255">
      <time>2021-01-17T16:54:53Z</time>
    </trkpt>
    <trkpt lat="50.9637776" lon="6.8695273">
      <time>2021-01-17T16:55:01Z</time>
    </trkpt>
    <trkpt lat="50.9638047" lon="6.8695345">
      <time>2021-01-17T16:55:02Z</time>
    </trkpt>
    <trkpt lat="50.9640124" lon="6.8695804">
      <time>2021-01-17T16:55:10Z</time>
    </trkpt>
    <trkpt lat="50.9640333" lon="6.8695872">
      <time>2021-01-17T16:55:11Z</time>
    </trkpt>
    <trkpt lat="50.9641133" lon="6.8695051">
      <time>2021-01-17T16:55:16Z</time>
    </trkpt>
    <trkpt lat="50.9641495" lon="6.8693914">
      <time>2021-01-17T16:55:20Z</time>
    </trkpt>
    <trkpt lat="50.9641864" lon="6.8692602">
      <time>2021-01-17T16:55:24Z</time>
    </trkpt>
    <trkpt lat="50.9642438" lon="6.8690271">
      <time>2021-01-17T16:55:31Z</time>
    </trkpt>
    <trkpt lat="50.9642951" lon="6.8687761">
      <time>2021-01-17T16:55:37Z</time>
    </trkpt>
    <trkpt lat="50.9643228" lon="6.8685078">
      <time>2021-01-17T16:55:44Z</time>
    </trkpt>
    <trkpt lat="50.9643351" lon="6.8682408">
      <time>2021-01-17T16:55:51Z</time>
    </trkpt>
    <trkpt lat="50.9643170" lon="6.8679834">
      <time>2021-01-17T16:55:59Z</time>
    </trkpt>
    <trkpt lat="50.9643310" lon="6.8679569">
      <time>2021-01-17T16:56:00Z</time>
    </trkpt>
    <trkpt lat="50.9643536" lon="6.8679304">
      <time>2021-01-17T16:56:02Z</time>
    </trkpt>
    <trkpt lat="50.9643937" lon="6.8679200">
      <time>2021-01-17T16:56:04Z</time>
    </trkpt>
    <trkpt lat="50.9645667" lon="6.8679413">
      <time>2021-01-17T16:56:10Z</time>
    </trkpt>
    <trkpt lat="50.9647321" lon="6.8679941">
      <time>2021-01-17T16:56:17Z</time>
    </trkpt>
    <trkpt lat="50.9648817" lon="6.8681501">
      <time>2021-01-17T16:56:25Z</time>
    </trkpt>
    <trkpt lat="50.9650679" lon="6.8682111">
      <time>2021-01-17T16:56:33Z</time>
    </trkpt>
    <trkpt lat="50.9651127" lon="6.8682310">
      <time>2021-01-17T16:56:35Z</time>
    </trkpt>
    <trkpt lat="50.9652863" lon="6.8683258">
      <time>2021-01-17T16:56:43Z</time>
    </trkpt>
    <trkpt lat="50.9654829" lon="6.8683919">
      <time>2021-01-17T16:56:51Z</time>
    </trkpt>
    <trkpt lat="50.9655382" lon="6.8684159">
      <time>2021-01-17T16:56:53Z</time>
    </trkpt>
    <trkpt lat="50.9657286" lon="6.8684773">
      <time>2021-01-17T16:57:01Z</time>
    </trkpt>
    <trkpt lat="50.9657531" lon="6.8684857">
      <time>2021-01-17T16:57:02Z</time>
    </trkpt>
    <trkpt lat="50.9659381" lon="6.8685624">
      <time>2021-01-17T16:57:10Z</time>
    </trkpt>
    <trkpt lat="50.9659627" lon="6.8685721">
      <time>2021-01-17T16:57:11Z</time>
    </trkpt>
    <trkpt lat="50.9660697" lon="6.8686089">
      <time>2021-01-17T16:57:16Z</time>
    </trkpt>
    <trkpt lat="50.9661679" lon="6.8686852">
      <time>2021-01-17T16:57:20Z</time>
    </trkpt>
    <trkpt lat="50.9662404" lon="6.8689352">
      <time>2021-01-17T16:57:26Z</time>
    </trkpt>
    <trkpt lat="50.9662833" lon="6.8692175">
      <time>2021-01-17T16:57:33Z</time>
    </trkpt>
    <trkpt lat="50.9662884" lon="6.8693036">
      <time>2021-01-17T16:57:35Z</time>
    </trkpt>
    <trkpt lat="50.9662525" lon="6.8695218">
      <time>2021-01-17T16:57:40Z</time>
    </trkpt>
    <trkpt lat="50.9661917" lon="6.8697052">
      <time>2021-01-17T16:57:45Z</time>
    </trkpt>
    <trkpt lat="50.9661282" lon="6.8699820">
      <time>2021-01-17T16:57:52Z</time>
    </trkpt>
    <trkpt lat="50.9660301" lon="6.8702361">
      <time>2021-01-17T16:57:59Z</time>
    </trkpt>
    <trkpt lat="50.9659934" lon="6.8703094">
      <time>2021-01-17T16:58:01Z</time>
    </trkpt>
    <trkpt lat="50.9658662" lon="6.8705395">
      <time>2021-01-17T16:58:08Z</time>
    </trkpt>
    <trkpt lat="50.9658503" lon="6.8705750">
      <time>2021-01-17T16:58:09Z</time>
    </trkpt>
    <trkpt lat="50.9657771" lon="6.8708004">
      <time>2021-01-17T16:58:16Z</time>
    </trkpt>
    <trkpt lat="50.9658060" lon="6.8710464">
      <time>2021-01-17T16:58:23Z</time>
    </trkpt>
    <trkpt lat="50.9657831" lon="6.8713016">
      <time>2021-01-17T16:58:30Z</time>
    </trkpt>
    <trkpt lat="50.9657571" lon="6.8715727">
      <time>2021-01-17T16:58:37Z</time>
    </trkpt>
    <trkpt lat="50.9657589" lon="6.8718731">
      <time>2021-01-17T16:58:44Z</time>
    </trkpt>
    <trkpt lat="50.9657589" lon="6.8719215">
      <time>2021-01-17T16:58:45Z</time>
    </trkpt>
    <trkpt lat="50.9657249" lon="6.8721944">
      <time>2021-01-17T16:58:52Z</time>
    </trkpt>
    <trkpt lat="50.9656765" lon="6.8724290">
      <time>2021-01-17T16:58:58Z</time>
    </trkpt>
    <trkpt lat="50.9656594" lon="6.8726327">
      <time>2021-01-17T16:59:03Z</time>
    </trkpt>
    <trkpt lat="50.9656342" lon="6.8726932">
      <time>2021-01-17T16:59:05Z</time>
    </trkpt>
    <trkpt lat="50.9655282" lon="6.8729402">
      <time>2021-01-17T16:59:13Z</time>
    </trkpt>
    <trkpt lat="50.9655093" lon="6.8729751">
      <time>2021-01-17T16:59:14Z</time>
    </trkpt>
    <trkpt lat="50.9653764" lon="6.8732153">
      <time>2021-01-17T16:59:21Z</time>
    </trkpt>
    <trkpt lat="50.9652416" lon="6.8734385">
      <time>2021-01-17T16:59:28Z</time>
    </trkpt>
    <trkpt lat="50.9651158" lon="6.8736594">
      <time>2021-01-17T16:59:35Z</time>
    </trkpt>
    <trkpt lat="50.9649855" lon="6.8738578">
      <time>2021-01-17T16:59:42Z</time>
    </trkpt>
    <trkpt lat="50.9648894" lon="6.8741298">
      <time>2021-01-17T16:59:50Z</time>
    </trkpt>
    <trkpt lat="50.9648788" lon="6.8741713">
      <time>2021-01-17T16:59:51Z</time>
    </trkpt>
    <trkpt lat="50.9647985" lon="6.8744264">
      <time>2021-01-17T16:59:58Z</time>
    </trkpt>
    <trkpt lat="50.9647739" lon="6.8745343">
      <time>2021-01-17T17:00:01Z</time>
    </trkpt>
    <trkpt lat="50.9647355" lon="6.8746383">
      <time>2021-01-17T17:00:04Z</time>
    </trkpt>
    <trkpt lat="50.9646548" lon="6.8748972">
      <time>2021-01-17T17:00:11Z</time>
    </trkpt>
    <trkpt lat="50.9645633" lon="6.8751705">
      <time>2021-01-17T17:00:19Z</time>
    </trkpt>
    <trkpt lat="50.9645573" lon="6.8752039">
      <time>2021-01-17T17:00:20Z</time>
    </trkpt>
    <trkpt lat="50.9645125" lon="6.8755231">
      <time>2021-01-17T17:00:28Z</time>
    </trkpt>
    <trkpt lat="50.9645045" lon="6.8755607">
      <time>2021-01-17T17:00:29Z</time>
    </trkpt>
    <trkpt lat="50.9644395" lon="6.8758223">
      <time>2021-01-17T17:00:36Z</time>
    </trkpt>
    <trkpt lat="50.9643943" lon="6.8760503">
      <time>2021-01-17T17:00:42Z</time>
    </trkpt>
    <trkpt lat="50.9643757" lon="6.8761545">
      <time>2021-01-17T17:00:45Z</time>
    </trkpt>
    <trkpt lat="50.9643298" lon="6.8761681">
      <time>2021-01-17T17:00:47Z</time>
    </trkpt>
    <trkpt lat="50.9641525" lon="6.8761482">
      <time>2021-01-17T17:00:54Z</time>
    </trkpt>
    <trkpt lat="50.9640017" lon="6.8761340">
      <time>2021-01-17T17:01:00Z</time>
    </trkpt>
    <trkpt lat="50.9639103" lon="6.8760538">
      <time>2021-01-17T17:01:04Z</time>
    </trkpt>
    <trkpt lat="50.9638865" lon="6.8760398">
      <time>2021-01-17T17:01:05Z</time>
    </trkpt>
    <trkpt lat="50.9638543" lon="6.8760371">
      <time>2021-01-17T17:01:06Z</time>
    </trkpt>
    <trkpt lat="50.9637508" lon="6.8760366">
      <time>2021-01-17T17:01:09Z</time>
    </trkpt>
    <trkpt lat="50.9636358" lon="6.8760393">
      <time>2021-01-17T17:01:13Z</time>
    </trkpt>
    <trkpt lat="50.9635447" lon="6.8760278">
      <time>2021-01-17T17:01:16Z</time>
    </trkpt>
    <trkpt lat="50.9634775" lon="6.8760094">
      <time>2021-01-17T17:01:19Z</time>
    </trkpt>
  </trkseg></trk>
</gpx>
