<?xml version="1.0" encoding="UTF-8"?>
<gpx version="1.1" creator="Diary FIT converter" xmlns="http://www.topografix.com/GPX/1/1">
  <trk><name>Cycling</name><trkseg>
    <trkpt lat="50.9658095" lon="6.8805951">
      <ele>51.2</ele>
      <time>2019-08-06T10:06:35Z</time>
    </trkpt>
    <trkpt lat="50.9662569" lon="6.8810859">
      <ele>57.4</ele>
      <time>2019-08-06T10:06:41Z</time>
    </trkpt>
    <trkpt lat="50.9663689" lon="6.8812389">
      <ele>57.4</ele>
      <time>2019-08-06T10:06:43Z</time>
    </trkpt>
    <trkpt lat="50.9664184" lon="6.8814485">
      <ele>57.8</ele>
      <time>2019-08-06T10:06:45Z</time>
    </trkpt>
    <trkpt lat="50.9663797" lon="6.8816713">
      <ele>57.8</ele>
      <time>2019-08-06T10:06:47Z</time>
    </trkpt>
    <trkpt lat="50.9660802" lon="6.8824348">
      <ele>55.8</ele>
      <time>2019-08-06T10:06:54Z</time>
    </trkpt>
    <trkpt lat="50.9660011" lon="6.8826539">
      <ele>55.4</ele>
      <time>2019-08-06T10:06:56Z</time>
    </trkpt>
    <trkpt lat="50.9659658" lon="6.8827644">
      <ele>55.0</ele>
      <time>2019-08-06T10:06:57Z</time>
    </trkpt>
    <trkpt lat="50.9659222" lon="6.8828741">
      <ele>54.6</ele>
      <time>2019-08-06T10:06:58Z</time>
    </trkpt>
    <trkpt lat="50.9658184" lon="6.8830937">
      <ele>53.8</ele>
      <time>2019-08-06T10:07:00Z</time>
    </trkpt>
    <trkpt lat="50.9657609" lon="6.8832011">
      <ele>53.6</ele>
      <time>2019-08-06T10:07:01Z</time>
    </trkpt>
    <trkpt lat="50.9657006" lon="6.8833071">
      <ele>53.4</ele>
      <time>2019-08-06T10:07:02Z</time>
    </trkpt>
    <trkpt lat="50.9656463" lon="6.8834281">
      <ele>53.0</ele>
      <time>2019-08-06T10:07:03Z</time>
    </trkpt>
    <trkpt lat="50.9655884" lon="6.8835451">
      <ele>52.6</ele>
      <time>2019-08-06T10:07:04Z</time>
    </trkpt>
    <trkpt lat="50.9655324" lon="6.8836594">
      <ele>52.4</ele>
      <time>2019-08-06T10:07:05Z</time>
    </trkpt>
    <trkpt lat="50.9653256" lon="6.8840995">
      <ele>52.0</ele>
      <time>2019-08-06T10:07:09Z</time>
    </trkpt>
    <trkpt lat="50.9652720" lon="6.8842066">
      <ele>51.6</ele>
      <time>2019-08-06T10:07:10Z</time>
    </trkpt>
    <trkpt lat="50.9651142" lon="6.8845519">
      <ele>51.2</ele>
      <time>2019-08-06T10:07:13Z</time>
    </trkpt>
    <trkpt lat="50.9650208" lon="6.8847659">
      <ele>51.2</ele>
      <time>2019-08-06T10:07:15Z</time>
    </trkpt>
    <trkpt lat="50.9648781" lon="6.8850668">
      <ele>50.8</ele>
      <time>2019-08-06T10:07:18Z</time>
    </trkpt>
    <trkpt lat="50.9648308" lon="6.8851509">
      <ele>50.6</ele>
      <time>2019-08-06T10:07:19Z</time>
    </trkpt>
    <trkpt lat="50.9647905" lon="6.8852284">
      <ele>50.6</ele>
      <time>2019-08-06T10:07:20Z</time>
    </trkpt>
    <trkpt lat="50.9647473" lon="6.8853117">
      <ele>50.8</ele>
      <time>2019-08-06T10:07:21Z</time>
    </trkpt>
    <trkpt lat="50.9647055" lon="6.8853957">
      <ele>50.6</ele>
      <time>2019-08-06T10:07:22Z</time>
    </trkpt>
    <trkpt lat="50.9646629" lon="6.8854834">
      <ele>50.4</ele>
      <time>2019-08-06T10:07:23Z</time>
    </trkpt>
    <trkpt lat="50.9646184" lon="6.8855755">
      <ele>50.4</ele>
      <time>2019-08-06T10:07:24Z</time>
    </trkpt>
    <trkpt lat="50.9645731" lon="6.8856671">
      <ele>50.4</ele>
      <time>2019-08-06T10:07:25Z</time>
    </trkpt>
    <trkpt lat="50.9645247" lon="6.8857599">
      <ele>50.4</ele>
      <time>2019-08-06T10:07:26Z</time>
    </trkpt>
    <trkpt lat="50.9644719" lon="6.8858491">
      <ele>51.0</ele>
      <time>2019-08-06T10:07:27Z</time>
    </trkpt>
    <trkpt lat="50.9644268" lon="6.8859496">
      <ele>51.0</ele>
      <time>2019-08-06T10:07:28Z</time>
    </trkpt>
    <trkpt lat="50.9643843" lon="6.8860489">
      <ele>51.0</ele>
      <time>2019-08-06T10:07:29Z</time>
    </trkpt>
    <trkpt lat="50.9643363" lon="6.8861519">
      <ele>50.8</ele>
      <time>2019-08-06T10:07:30Z</time>
    </trkpt>
    <trkpt lat="50.9642877" lon="6.8862536">
      <ele>50.6</ele>
      <time>2019-08-06T10:07:31Z</time>
    </trkpt>
    <trkpt lat="50.9642370" lon="6.8863548">
      <ele>50.4</ele>
      <time>2019-08-06T10:07:32Z</time>
    </trkpt>
    <trkpt lat="50.9641894" lon="6.8864554">
      <ele>50.0</ele>
      <time>2019-08-06T10:07:33Z</time>
    </trkpt>
    <trkpt lat="50.9641392" lon="6.8865552">
      <ele>49.8</ele>
      <time>2019-08-06T10:07:34Z</time>
    </trkpt>
    <trkpt lat="50.9638349" lon="6.8871388">
      <ele>48.4</ele>
      <time>2019-08-06T10:07:40Z</time>
    </trkpt>
    <trkpt lat="50.9637790" lon="6.8872314">
      <ele>47.8</ele>
      <time>2019-08-06T10:07:41Z</time>
    </trkpt>
    <trkpt lat="50.9634158" lon="6.8878731">
      <ele>45.2</ele>
      <time>2019-08-06T10:07:48Z</time>
    </trkpt>
    <trkpt lat="50.9630916" lon="6.8885584">
      <ele>44.0</ele>
      <time>2019-08-06T10:07:55Z</time>
    </trkpt>
    <trkpt lat="50.9628106" lon="6.8893077">
      <ele>42.4</ele>
      <time>2019-08-06T10:08:02Z</time>
    </trkpt>
    <trkpt lat="50.9626251" lon="6.8897166">
      <ele>41.6</ele>
      <time>2019-08-06T10:08:06Z</time>
    </trkpt>
    <trkpt lat="50.9622632" lon="6.8903498">
      <ele>40.6</ele>
      <time>2019-08-06T10:08:13Z</time>
    </trkpt>
    <trkpt lat="50.9618871" lon="6.8911042">
      <ele>39.4</ele>
      <time>2019-08-06T10:08:21Z</time>
    </trkpt>
    <trkpt lat="50.9618002" lon="6.8912907">
      <ele>39.2</ele>
      <time>2019-08-06T10:08:23Z</time>
    </trkpt>
    <trkpt lat="50.9615705" lon="6.8917284">
      <ele>38.2</ele>
      <time>2019-08-06T10:08:28Z</time>
    </trkpt>
    <trkpt lat="50.9612740" lon="6.8923454">
      <ele>37.2</ele>
      <time>2019-08-06T10:08:36Z</time>
    </trkpt>
    <trkpt lat="50.9611815" lon="6.8925214">
      <ele>37.4</ele>
      <time>2019-08-06T10:08:42Z</time>
    </trkpt>
    <trkpt lat="50.9611775" lon="6.8925416">
      <ele>38.6</ele>
      <time>2019-08-06T10:08:45Z</time>
    </trkpt>
    <trkpt lat="50.9610851" lon="6.8928242">
      <ele>40.2</ele>
      <time>2019-08-06T10:09:13Z</time>
    </trkpt>
    <trkpt lat="50.9610565" lon="6.8928753">
      <ele>40.4</ele>
      <time>2019-08-06T10:09:14Z</time>
    </trkpt>
    <trkpt lat="50.9607478" lon="6.8936039">
      <ele>41.8</ele>
      <time>2019-08-06T10:09:22Z</time>
    </trkpt>
    <trkpt lat="50.9604000" lon="6.8942709">
      <ele>42.8</ele>
      <time>2019-08-06T10:09:29Z</time>
    </trkpt>
    <trkpt lat="50.9603522" lon="6.8943662">
      <ele>42.8</ele>
      <time>2019-08-06T10:09:30Z</time>
    </trkpt>
    <trkpt lat="50.9603057" lon="6.8944606">
      <ele>43.0</ele>
      <time>2019-08-06T10:09:31Z</time>
    </trkpt>
    <trkpt lat="50.9602589" lon="6.8945567">
      <ele>43.0</ele>
      <time>2019-08-06T10:09:32Z</time>
    </trkpt>
    <trkpt lat="50.9602128" lon="6.8946528">
      <ele>43.2</ele>
      <time>2019-08-06T10:09:33Z</time>
    </trkpt>
    <trkpt lat="50.9601667" lon="6.8947415">
      <ele>43.4</ele>
      <time>2019-08-06T10:09:34Z</time>
    </trkpt>
    <trkpt lat="50.9601204" lon="6.8948299">
      <ele>43.6</ele>
      <time>2019-08-06T10:09:35Z</time>
    </trkpt>
    <trkpt lat="50.9600747" lon="6.8949213">
      <ele>43.8</ele>
      <time>2019-08-06T10:09:36Z</time>
    </trkpt>
    <trkpt lat="50.9597520" lon="6.8955806">
      <ele>44.8</ele>
      <time>2019-08-06T10:09:43Z</time>
    </trkpt>
    <trkpt lat="50.9596145" lon="6.8958567">
      <ele>45.2</ele>
      <time>2019-08-06T10:09:46Z</time>
    </trkpt>
    <trkpt lat="50.9593485" lon="6.8964094">
      <ele>46.2</ele>
      <time>2019-08-06T10:09:52Z</time>
    </trkpt>
    <trkpt lat="50.9591447" lon="6.8968556">
      <ele>47.2</ele>
      <time>2019-08-06T10:09:57Z</time>
    </trkpt>
    <trkpt lat="50.9589028" lon="6.8974063">
      <ele>49.0</ele>
      <time>2019-08-06T10:10:03Z</time>
    </trkpt>
    <trkpt lat="50.9585616" lon="6.8981277">
      <ele>50.8</ele>
      <time>2019-08-06T10:10:11Z</time>
    </trkpt>
    <trkpt lat="50.9582347" lon="6.8988329">
      <ele>51.8</ele>
      <time>2019-08-06T10:10:19Z</time>
    </trkpt>
    <trkpt lat="50.9581936" lon="6.8989168">
      <ele>51.8</ele>
      <time>2019-08-06T10:10:20Z</time>
    </trkpt>
    <trkpt lat="50.9580275" lon="6.8992577">
      <ele>52.2</ele>
      <time>2019-08-06T10:10:24Z</time>
    </trkpt>
    <trkpt lat="50.9578977" lon="6.8994965">
      <ele>52.4</ele>
      <time>2019-08-06T10:10:27Z</time>
    </trkpt>
    <trkpt lat="50.9578234" lon="6.8996630">
      <ele>52.4</ele>
      <time>2019-08-06T10:10:29Z</time>
    </trkpt>
    <trkpt lat="50.9577816" lon="6.8998527">
      <ele>52.4</ele>
      <time>2019-08-06T10:10:31Z</time>
    </trkpt>
    <trkpt lat="50.9575980" lon="6.9003074">
      <ele>52.8</ele>
      <time>2019-08-06T10:10:36Z</time>
    </trkpt>
    <trkpt lat="50.9575686" lon="6.9004105">
      <ele>52.8</ele>
      <time>2019-08-06T10:10:37Z</time>
    </trkpt>
    <trkpt lat="50.9573673" lon="6.9010240">
      <ele>53.4</ele>
      <time>2019-08-06T10:10:43Z</time>
    </trkpt>
    <trkpt lat="50.9572370" lon="6.9013328">
      <ele>53.2</ele>
      <time>2019-08-06T10:10:46Z</time>
    </trkpt>
    <trkpt lat="50.9571885" lon="6.9015737">
      <ele>53.0</ele>
      <time>2019-08-06T10:10:48Z</time>
    </trkpt>
    <trkpt lat="50.9571337" lon="6.9018027">
      <ele>53.0</ele>
      <time>2019-08-06T10:10:50Z</time>
    </trkpt>
    <trkpt lat="50.9567885" lon="6.9025663">
      <ele>52.2</ele>
      <time>2019-08-06T10:10:58Z</time>
    </trkpt>
    <trkpt lat="50.9567121" lon="6.9028606">
      <ele>52.0</ele>
      <time>2019-08-06T10:11:01Z</time>
    </trkpt>
    <trkpt lat="50.9565960" lon="6.9033788">
      <ele>51.2</ele>
      <time>2019-08-06T10:11:06Z</time>
    </trkpt>
    <trkpt lat="50.9565471" lon="6.9036100">
      <ele>50.8</ele>
      <time>2019-08-06T10:11:08Z</time>
    </trkpt>
    <trkpt lat="50.9562521" lon="6.9044008">
      <ele>50.0</ele>
      <time>2019-08-06T10:11:15Z</time>
    </trkpt>
    <trkpt lat="50.9561796" lon="6.9046311">
      <ele>50.0</ele>
      <time>2019-08-06T10:11:17Z</time>
    </trkpt>
    <trkpt lat="50.9560791" lon="6.9049702">
      <ele>50.0</ele>
      <time>2019-08-06T10:11:20Z</time>
    </trkpt>
    <trkpt lat="50.9560487" lon="6.9050794">
      <ele>50.0</ele>
      <time>2019-08-06T10:11:21Z</time>
    </trkpt>
    <trkpt lat="50.9560221" lon="6.9051920">
      <ele>50.0</ele>
      <time>2019-08-06T10:11:22Z</time>
    </trkpt>
    <trkpt lat="50.9558641" lon="6.9058033">
      <ele>50.2</ele>
      <time>2019-08-06T10:11:28Z</time>
    </trkpt>
    <trkpt lat="50.9558107" lon="6.9059886">
      <ele>50.0</ele>
      <time>2019-08-06T10:11:30Z</time>
    </trkpt>
    <trkpt lat="50.9556854" lon="6.9064348">
      <ele>50.0</ele>
      <time>2019-08-06T10:11:35Z</time>
    </trkpt>
    <trkpt lat="50.9554225" lon="6.9071954">
      <ele>50.4</ele>
      <time>2019-08-06T10:11:46Z</time>
    </trkpt>
    <trkpt lat="50.9552632" lon="6.9077241">
      <ele>50.2</ele>
      <time>2019-08-06T10:11:51Z</time>
    </trkpt>
    <trkpt lat="50.9552026" lon="6.9079506">
      <ele>50.0</ele>
      <time>2019-08-06T10:11:53Z</time>
    </trkpt>
    <trkpt lat="50.9550197" lon="6.9086143">
      <ele>50.2</ele>
      <time>2019-08-06T10:11:59Z</time>
    </trkpt>
    <trkpt lat="50.9547401" lon="6.9094301">
      <ele>50.2</ele>
      <time>2019-08-06T10:12:07Z</time>
    </trkpt>
    <trkpt lat="50.9545357" lon="6.9099878">
      <ele>50.4</ele>
      <time>2019-08-06T10:12:13Z</time>
    </trkpt>
    <trkpt lat="50.9544225" lon="6.9102554">
      <ele>50.4</ele>
      <time>2019-08-06T10:12:16Z</time>
    </trkpt>
    <trkpt lat="50.9543422" lon="6.9104477">
      <ele>50.4</ele>
      <time>2019-08-06T10:12:18Z</time>
    </trkpt>
    <trkpt lat="50.9541325" lon="6.9107779">
      <ele>50.8</ele>
      <time>2019-08-06T10:12:22Z</time>
    </trkpt>
    <trkpt lat="50.9538180" lon="6.9112884">
      <ele>50.6</ele>
      <time>2019-08-06T10:12:29Z</time>
    </trkpt>
    <trkpt lat="50.9534116" lon="6.9119147">
      <ele>50.8</ele>
      <time>2019-08-06T10:12:38Z</time>
    </trkpt>
    <trkpt lat="50.9529697" lon="6.9125348">
      <ele>50.2</ele>
      <time>2019-08-06T10:12:47Z</time>
    </trkpt>
    <trkpt lat="50.9526766" lon="6.9129657">
      <ele>50.0</ele>
      <time>2019-08-06T10:12:53Z</time>
    </trkpt>
    <trkpt lat="50.9522359" lon="6.9135807">
      <ele>49.6</ele>
      <time>2019-08-06T10:13:00Z</time>
    </trkpt>
    <trkpt lat="50.9520609" lon="6.9138728">
      <ele>49.8</ele>
      <time>2019-08-06T10:13:03Z</time>
    </trkpt>
    <trkpt lat="50.9518959" lon="6.9141653">
      <ele>50.2</ele>
      <time>2019-08-06T10:13:06Z</time>
    </trkpt>
    <trkpt lat="50.9514892" lon="6.9147857">
      <ele>50.6</ele>
      <time>2019-08-06T10:13:13Z</time>
    </trkpt>
    <trkpt lat="50.9511736" lon="6.9152572">
      <ele>50.8</ele>
      <time>2019-08-06T10:13:21Z</time>
    </trkpt>
    <trkpt lat="50.9510810" lon="6.9155299">
      <ele>51.0</ele>
      <time>2019-08-06T10:13:26Z</time>
    </trkpt>
    <trkpt lat="50.9510059" lon="6.9156336">
      <ele>51.0</ele>
      <time>2019-08-06T10:13:28Z</time>
    </trkpt>
    <trkpt lat="50.9509066" lon="6.9157496">
      <ele>50.8</ele>
      <time>2019-08-06T10:13:32Z</time>
    </trkpt>
    <trkpt lat="50.9508441" lon="6.9158446">
      <ele>50.4</ele>
      <time>2019-08-06T10:13:36Z</time>
    </trkpt>
    <trkpt lat="50.9508038" lon="6.9159188">
      <ele>50.4</ele>
      <time>2019-08-06T10:13:38Z</time>
    </trkpt>
    <trkpt lat="50.9507545" lon="6.9159991">
      <ele>50.6</ele>
      <time>2019-08-06T10:13:40Z</time>
    </trkpt>
    <trkpt lat="50.9504372" lon="6.9165548">
      <ele>50.4</ele>
      <time>2019-08-06T10:13:57Z</time>
    </trkpt>
    <trkpt lat="50.9502092" lon="6.9167080">
      <ele>51.6</ele>
      <time>2019-08-06T10:14:21Z</time>
    </trkpt>
    <trkpt lat="50.9501744" lon="6.9167459">
      <ele>51.6</ele>
      <time>2019-08-06T10:14:22Z</time>
    </trkpt>
    <trkpt lat="50.9501398" lon="6.9167991">
      <ele>51.8</ele>
      <time>2019-08-06T10:14:23Z</time>
    </trkpt>
    <trkpt lat="50.9500705" lon="6.9169540">
      <ele>51.8</ele>
      <time>2019-08-06T10:14:25Z</time>
    </trkpt>
    <trkpt lat="50.9497827" lon="6.9174241">
      <ele>52.4</ele>
      <time>2019-08-06T10:14:30Z</time>
    </trkpt>
    <trkpt lat="50.9497156" lon="6.9175276">
      <ele>52.4</ele>
      <time>2019-08-06T10:14:31Z</time>
    </trkpt>
    <trkpt lat="50.9496510" lon="6.9176313">
      <ele>52.6</ele>
      <time>2019-08-06T10:14:32Z</time>
    </trkpt>
    <trkpt lat="50.9495865" lon="6.9177353">
      <ele>52.6</ele>
      <time>2019-08-06T10:14:33Z</time>
    </trkpt>
    <trkpt lat="50.9491637" lon="6.9184506">
      <ele>53.2</ele>
      <time>2019-08-06T10:14:40Z</time>
    </trkpt>
    <trkpt lat="50.9490667" lon="6.9186585">
      <ele>53.4</ele>
      <time>2019-08-06T10:14:42Z</time>
    </trkpt>
    <trkpt lat="50.9490198" lon="6.9187617">
      <ele>53.4</ele>
      <time>2019-08-06T10:14:43Z</time>
    </trkpt>
    <trkpt lat="50.9486928" lon="6.9195836">
      <ele>54.2</ele>
      <time>2019-08-06T10:14:51Z</time>
    </trkpt>
    <trkpt lat="50.9486118" lon="6.9197766">
      <ele>54.6</ele>
      <time>2019-08-06T10:14:53Z</time>
    </trkpt>
    <trkpt lat="50.9483336" lon="6.9204988">
      <ele>55.2</ele>
      <time>2019-08-06T10:15:00Z</time>
    </trkpt>
    <trkpt lat="50.9480862" lon="6.9210752">
      <ele>55.6</ele>
      <time>2019-08-06T10:15:05Z</time>
    </trkpt>
    <trkpt lat="50.9480379" lon="6.9211768">
      <ele>55.8</ele>
      <time>2019-08-06T10:15:06Z</time>
    </trkpt>
    <trkpt lat="50.9479531" lon="6.9213863">
      <ele>55.8</ele>
      <time>2019-08-06T10:15:08Z</time>
    </trkpt>
    <trkpt lat="50.9478595" lon="6.9215921">
      <ele>56.0</ele>
      <time>2019-08-06T10:15:10Z</time>
    </trkpt>
    <trkpt lat="50.9476294" lon="6.9221156">
      <ele>56.4</ele>
      <time>2019-08-06T10:15:15Z</time>
    </trkpt>
    <trkpt lat="50.9475427" lon="6.9223231">
      <ele>56.6</ele>
      <time>2019-08-06T10:15:17Z</time>
    </trkpt>
    <trkpt lat="50.9472434" lon="6.9230890">
      <ele>56.6</ele>
      <time>2019-08-06T10:15:25Z</time>
    </trkpt>
    <trkpt lat="50.9469521" lon="6.9238344">
      <ele>57.0</ele>
      <time>2019-08-06T10:15:33Z</time>
    </trkpt>
    <trkpt lat="50.9466690" lon="6.9245029">
      <ele>57.6</ele>
      <time>2019-08-06T10:15:40Z</time>
    </trkpt>
    <trkpt lat="50.9464777" lon="6.9250059">
      <ele>58.2</ele>
      <time>2019-08-06T10:15:45Z</time>
    </trkpt>
    <trkpt lat="50.9462620" lon="6.9255032">
      <ele>59.0</ele>
      <time>2019-08-06T10:15:50Z</time>
    </trkpt>
    <trkpt lat="50.9460910" lon="6.9259057">
      <ele>59.6</ele>
      <time>2019-08-06T10:15:54Z</time>
    </trkpt>
    <trkpt lat="50.9459418" lon="6.9263454">
      <ele>59.8</ele>
      <time>2019-08-06T10:15:58Z</time>
    </trkpt>
    <trkpt lat="50.9456700" lon="6.9268326">
      <ele>59.8</ele>
      <time>2019-08-06T10:16:03Z</time>
    </trkpt>
    <trkpt lat="50.9453382" lon="6.9276264">
      <ele>59.8</ele>
      <time>2019-08-06T10:16:11Z</time>
    </trkpt>
    <trkpt lat="50.9452796" lon="6.9278097">
      <ele>59.8</ele>
      <time>2019-08-06T10:16:13Z</time>
    </trkpt>
    <trkpt lat="50.9451586" lon="6.9282042">
      <ele>60.0</ele>
      <time>2019-08-06T10:16:50Z</time>
    </trkpt>
    <trkpt lat="50.9451586" lon="6.9282042">
      <ele>60.0</ele>
      <time>2019-08-06T10:16:51Z</time>
    </trkpt>
    <trkpt lat="50.9451591" lon="6.9282223">
      <ele>59.8</ele>
      <time>2019-08-06T10:16:52Z</time>
    </trkpt>
    <trkpt lat="50.9449844" lon="6.9285351">
      <ele>59.8</ele>
      <time>2019-08-06T10:17:00Z</time>
    </trkpt>
    <trkpt lat="50.9446773" lon="6.9293784">
      <ele>59.8</ele>
      <time>2019-08-06T10:17:09Z</time>
    </trkpt>
    <trkpt lat="50.9444254" lon="6.9301378">
      <ele>59.4</ele>
      <time>2019-08-06T10:17:15Z</time>
    </trkpt>
    <trkpt lat="50.9443379" lon="6.9303803">
      <ele>59.2</ele>
      <time>2019-08-06T10:17:17Z</time>
    </trkpt>
    <trkpt lat="50.9440610" lon="6.9311819">
      <ele>58.6</ele>
      <time>2019-08-06T10:17:24Z</time>
    </trkpt>
    <trkpt lat="50.9439803" lon="6.9313994">
      <ele>58.4</ele>
      <time>2019-08-06T10:17:26Z</time>
    </trkpt>
    <trkpt lat="50.9439079" lon="6.9316108">
      <ele>58.2</ele>
      <time>2019-08-06T10:17:28Z</time>
    </trkpt>
    <trkpt lat="50.9438742" lon="6.9317234">
      <ele>58.0</ele>
      <time>2019-08-06T10:17:29Z</time>
    </trkpt>
    <trkpt lat="50.9438516" lon="6.9318387">
      <ele>58.0</ele>
      <time>2019-08-06T10:17:30Z</time>
    </trkpt>
    <trkpt lat="50.9438299" lon="6.9319487">
      <ele>57.8</ele>
      <time>2019-08-06T10:17:31Z</time>
    </trkpt>
    <trkpt lat="50.9438185" lon="6.9320671">
      <ele>57.6</ele>
      <time>2019-08-06T10:17:32Z</time>
    </trkpt>
    <trkpt lat="50.9438030" lon="6.9321910">
      <ele>57.4</ele>
      <time>2019-08-06T10:17:33Z</time>
    </trkpt>
    <trkpt lat="50.9437812" lon="6.9323038">
      <ele>57.2</ele>
      <time>2019-08-06T10:17:34Z</time>
    </trkpt>
    <trkpt lat="50.9437593" lon="6.9324175">
      <ele>57.0</ele>
      <time>2019-08-06T10:17:35Z</time>
    </trkpt>
    <trkpt lat="50.9436634" lon="6.9327343">
      <ele>56.6</ele>
      <time>2019-08-06T10:17:38Z</time>
    </trkpt>
    <trkpt lat="50.9435858" lon="6.9329302">
      <ele>56.2</ele>
      <time>2019-08-06T10:17:40Z</time>
    </trkpt>
    <trkpt lat="50.9434320" lon="6.9332409">
      <ele>55.6</ele>
      <time>2019-08-06T10:17:44Z</time>
    </trkpt>
    <trkpt lat="50.9433449" lon="6.9333572">
      <ele>55.4</ele>
      <time>2019-08-06T10:17:46Z</time>
    </trkpt>
    <trkpt lat="50.9430126" lon="6.9340498">
      <ele>54.8</ele>
      <time>2019-08-06T10:17:55Z</time>
    </trkpt>
    <trkpt lat="50.9427821" lon="6.9345233">
      <ele>54.6</ele>
      <time>2019-08-06T10:18:00Z</time>
    </trkpt>
    <trkpt lat="50.9424659" lon="6.9352761">
      <ele>54.4</ele>
      <time>2019-08-06T10:18:08Z</time>
    </trkpt>
    <trkpt lat="50.9420742" lon="6.9359332">
      <ele>53.6</ele>
      <time>2019-08-06T10:18:16Z</time>
    </trkpt>
    <trkpt lat="50.9419579" lon="6.9362807">
      <ele>53.8</ele>
      <time>2019-08-06T10:18:20Z</time>
    </trkpt>
    <trkpt lat="50.9418335" lon="6.9365000">
      <ele>54.0</ele>
      <time>2019-08-06T10:18:23Z</time>
    </trkpt>
    <trkpt lat="50.9417037" lon="6.9367787">
      <ele>54.6</ele>
      <time>2019-08-06T10:18:27Z</time>
    </trkpt>
    <trkpt lat="50.9416406" lon="6.9369188">
      <ele>55.0</ele>
      <time>2019-08-06T10:18:29Z</time>
    </trkpt>
    <trkpt lat="50.9415683" lon="6.9370465">
      <ele>55.0</ele>
      <time>2019-08-06T10:18:31Z</time>
    </trkpt>
    <trkpt lat="50.9415318" lon="6.9371136">
      <ele>55.2</ele>
      <time>2019-08-06T10:18:32Z</time>
    </trkpt>
    <trkpt lat="50.9414997" lon="6.9371837">
      <ele>55.2</ele>
      <time>2019-08-06T10:18:33Z</time>
    </trkpt>
    <trkpt lat="50.9411621" lon="6.9378800">
      <ele>56.0</ele>
      <time>2019-08-06T10:18:43Z</time>
    </trkpt>
    <trkpt lat="50.9410589" lon="6.9379990">
      <ele>55.6</ele>
      <time>2019-08-06T10:18:45Z</time>
    </trkpt>
    <trkpt lat="50.9409718" lon="6.9381287">
      <ele>55.4</ele>
      <time>2019-08-06T10:18:47Z</time>
    </trkpt>
    <trkpt lat="50.9407667" lon="6.9386516">
      <ele>55.6</ele>
      <time>2019-08-06T10:18:54Z</time>
    </trkpt>
    <trkpt lat="50.9407087" lon="6.9388830">
      <ele>56.0</ele>
      <time>2019-08-06T10:18:57Z</time>
    </trkpt>
    <trkpt lat="50.9406527" lon="6.9391201">
      <ele>57.4</ele>
      <time>2019-08-06T10:19:01Z</time>
    </trkpt>
    <trkpt lat="50.9406755" lon="6.9396337">
      <ele>61.0</ele>
      <time>2019-08-06T10:19:12Z</time>
    </trkpt>
    <trkpt lat="50.9406612" lon="6.9398088">
      <ele>65.6</ele>
      <time>2019-08-06T10:19:23Z</time>
    </trkpt>
    <trkpt lat="50.9406612" lon="6.9398088">
      <ele>65.6</ele>
      <time>2019-08-06T10:19:58Z</time>
    </trkpt>
    <trkpt lat="50.9406612" lon="6.9398088">
      <ele>65.6</ele>
      <time>2019-08-06T10:19:59Z</time>
    </trkpt>
    <trkpt lat="50.9406559" lon="6.9398290">
      <ele>65.4</ele>
      <time>2019-08-06T10:20:01Z</time>
    </trkpt>
    <trkpt lat="50.9406341" lon="6.9400565">
      <ele>66.2</ele>
      <time>2019-08-06T10:20:06Z</time>
    </trkpt>
    <trkpt lat="50.9406139" lon="6.9403139">
      <ele>66.6</ele>
      <time>2019-08-06T10:20:09Z</time>
    </trkpt>
    <trkpt lat="50.9404352" lon="6.9412010">
      <ele>68.8</ele>
      <time>2019-08-06T10:20:19Z</time>
    </trkpt>
    <trkpt lat="50.9403407" lon="6.9416608">
      <ele>69.6</ele>
      <time>2019-08-06T10:20:24Z</time>
    </trkpt>
    <trkpt lat="50.9403394" lon="6.9417719">
      <ele>69.8</ele>
      <time>2019-08-06T10:20:25Z</time>
    </trkpt>
    <trkpt lat="50.9403297" lon="6.9422558">
      <ele>70.4</ele>
      <time>2019-08-06T10:20:29Z</time>
    </trkpt>
    <trkpt lat="50.9403414" lon="6.9431523">
      <ele>71.0</ele>
      <time>2019-08-06T10:20:35Z</time>
    </trkpt>
    <trkpt lat="50.9403426" lon="6.9436342">
      <ele>71.6</ele>
      <time>2019-08-06T10:20:39Z</time>
    </trkpt>
    <trkpt lat="50.9403303" lon="6.9437494">
      <ele>71.8</ele>
      <time>2019-08-06T10:20:40Z</time>
    </trkpt>
    <trkpt lat="50.9403260" lon="6.9438701">
      <ele>72.0</ele>
      <time>2019-08-06T10:20:41Z</time>
    </trkpt>
    <trkpt lat="50.9403244" lon="6.9442601">
      <ele>72.4</ele>
      <time>2019-08-06T10:20:44Z</time>
    </trkpt>
    <trkpt lat="50.9403848" lon="6.9446602">
      <ele>72.8</ele>
      <time>2019-08-06T10:20:47Z</time>
    </trkpt>
    <trkpt lat="50.9403920" lon="6.9447919">
      <ele>72.8</ele>
      <time>2019-08-06T10:20:48Z</time>
    </trkpt>
    <trkpt lat="50.9404003" lon="6.9449252">
      <ele>72.8</ele>
      <time>2019-08-06T10:20:49Z</time>
    </trkpt>
    <trkpt lat="50.9404225" lon="6.9450477">
      <ele>72.6</ele>
      <time>2019-08-06T10:20:50Z</time>
    </trkpt>
    <trkpt lat="50.9404930" lon="6.9452804">
      <ele>72.6</ele>
      <time>2019-08-06T10:20:52Z</time>
    </trkpt>
    <trkpt lat="50.9405316" lon="6.9453870">
      <ele>72.4</ele>
      <time>2019-08-06T10:20:53Z</time>
    </trkpt>
    <trkpt lat="50.9405693" lon="6.9454867">
      <ele>72.4</ele>
      <time>2019-08-06T10:20:54Z</time>
    </trkpt>
    <trkpt lat="50.9408967" lon="6.9463120">
      <ele>72.4</ele>
      <time>2019-08-06T10:21:01Z</time>
    </trkpt>
    <trkpt lat="50.9409914" lon="6.9465701">
      <ele>72.6</ele>
      <time>2019-08-06T10:21:03Z</time>
    </trkpt>
    <trkpt lat="50.9410316" lon="6.9468554">
      <ele>72.6</ele>
      <time>2019-08-06T10:21:05Z</time>
    </trkpt>
    <trkpt lat="50.9410806" lon="6.9473546">
      <ele>72.8</ele>
      <time>2019-08-06T10:21:09Z</time>
    </trkpt>
    <trkpt lat="50.9410865" lon="6.9474535">
      <ele>72.8</ele>
      <time>2019-08-06T10:21:10Z</time>
    </trkpt>
    <trkpt lat="50.9411034" lon="6.9477875">
      <ele>72.8</ele>
      <time>2019-08-06T10:21:16Z</time>
    </trkpt>
    <trkpt lat="50.9411007" lon="6.9477911">
      <ele>72.8</ele>
      <time>2019-08-06T10:21:17Z</time>
    </trkpt>
    <trkpt lat="50.9410583" lon="6.9477971">
      <ele>72.6</ele>
      <time>2019-08-06T10:21:23Z</time>
    </trkpt>
    <trkpt lat="50.9410583" lon="6.9477971">
      <ele>72.6</ele>
      <time>2019-08-06T10:21:24Z</time>
    </trkpt>
    <trkpt lat="50.9410400" lon="6.9478221">
      <ele>72.6</ele>
      <time>2019-08-06T10:21:26Z</time>
    </trkpt>
    <trkpt lat="50.9410132" lon="6.9479293">
      <ele>71.6</ele>
      <time>2019-08-06T10:21:29Z</time>
    </trkpt>
    <trkpt lat="50.9410174" lon="6.9480430">
      <ele>70.6</ele>
      <time>2019-08-06T10:21:31Z</time>
    </trkpt>
    <trkpt lat="50.9410693" lon="6.9486057">
      <ele>68.2</ele>
      <time>2019-08-06T10:21:38Z</time>
    </trkpt>
    <trkpt lat="50.9410885" lon="6.9488929">
      <ele>67.0</ele>
      <time>2019-08-06T10:21:41Z</time>
    </trkpt>
    <trkpt lat="50.9411435" lon="6.9496909">
      <ele>64.0</ele>
      <time>2019-08-06T10:21:49Z</time>
    </trkpt>
    <trkpt lat="50.9412593" lon="6.9505630">
      <ele>61.6</ele>
      <time>2019-08-06T10:21:57Z</time>
    </trkpt>
    <trkpt lat="50.9412956" lon="6.9514800">
      <ele>59.6</ele>
      <time>2019-08-06T10:22:05Z</time>
    </trkpt>
    <trkpt lat="50.9413147" lon="6.9521503">
      <ele>58.4</ele>
      <time>2019-08-06T10:22:11Z</time>
    </trkpt>
    <trkpt lat="50.9413420" lon="6.9525837">
      <ele>58.0</ele>
      <time>2019-08-06T10:22:17Z</time>
    </trkpt>
    <trkpt lat="50.9413525" lon="6.9525950">
      <ele>58.0</ele>
      <time>2019-08-06T10:22:19Z</time>
    </trkpt>
    <trkpt lat="50.9413474" lon="6.9525710">
      <ele>58.4</ele>
      <time>2019-08-06T10:22:36Z</time>
    </trkpt>
    <trkpt lat="50.9413657" lon="6.9526435">
      <ele>58.8</ele>
      <time>2019-08-06T10:22:41Z</time>
    </trkpt>
    <trkpt lat="50.9414485" lon="6.9530250">
      <ele>58.4</ele>
      <time>2019-08-06T10:22:47Z</time>
    </trkpt>
    <trkpt lat="50.9415442" lon="6.9538300">
      <ele>58.0</ele>
      <time>2019-08-06T10:22:54Z</time>
    </trkpt>
    <trkpt lat="50.9416681" lon="6.9546782">
      <ele>57.4</ele>
      <time>2019-08-06T10:23:01Z</time>
    </trkpt>
    <trkpt lat="50.9417543" lon="6.9553832">
      <ele>56.6</ele>
      <time>2019-08-06T10:23:07Z</time>
    </trkpt>
    <trkpt lat="50.9418311" lon="6.9561715">
      <ele>55.6</ele>
      <time>2019-08-06T10:23:14Z</time>
    </trkpt>
    <trkpt lat="50.9418240" lon="6.9562626">
      <ele>55.4</ele>
      <time>2019-08-06T10:23:15Z</time>
    </trkpt>
    <trkpt lat="50.9417119" lon="6.9563693">
      <ele>55.4</ele>
      <time>2019-08-06T10:23:18Z</time>
    </trkpt>
    <trkpt lat="50.9416025" lon="6.9563698">
      <ele>55.0</ele>
      <time>2019-08-06T10:23:20Z</time>
    </trkpt>
    <trkpt lat="50.9415004" lon="6.9563544">
      <ele>54.8</ele>
      <time>2019-08-06T10:23:22Z</time>
    </trkpt>
    <trkpt lat="50.9411226" lon="6.9561523">
      <ele>54.2</ele>
      <time>2019-08-06T10:23:33Z</time>
    </trkpt>
    <trkpt lat="50.9408848" lon="6.9560431">
      <ele>52.8</ele>
      <time>2019-08-06T10:23:44Z</time>
    </trkpt>
    <trkpt lat="50.9408417" lon="6.9561270">
      <ele>51.6</ele>
      <time>2019-08-06T10:23:51Z</time>
    </trkpt>
    <trkpt lat="50.9408625" lon="6.9561935">
      <ele>51.4</ele>
      <time>2019-08-06T10:23:53Z</time>
    </trkpt>
    <trkpt lat="50.9408787" lon="6.9562994">
      <ele>51.2</ele>
      <time>2019-08-06T10:23:55Z</time>
    </trkpt>
    <trkpt lat="50.9408889" lon="6.9566641">
      <ele>51.0</ele>
      <time>2019-08-06T10:23:58Z</time>
    </trkpt>
    <trkpt lat="50.9408620" lon="6.9569412">
      <ele>50.8</ele>
      <time>2019-08-06T10:24:01Z</time>
    </trkpt>
    <trkpt lat="50.9408915" lon="6.9573064">
      <ele>50.8</ele>
      <time>2019-08-06T10:24:05Z</time>
    </trkpt>
    <trkpt lat="50.9409421" lon="6.9578578">
      <ele>50.4</ele>
      <time>2019-08-06T10:24:12Z</time>
    </trkpt>
    <trkpt lat="50.9408868" lon="6.9582098">
      <ele>50.0</ele>
      <time>2019-08-06T10:24:16Z</time>
    </trkpt>
    <trkpt lat="50.9408771" lon="6.9583988">
      <ele>50.0</ele>
      <time>2019-08-06T10:24:18Z</time>
    </trkpt>
    <trkpt lat="50.9410601" lon="6.9592525">
      <ele>47.8</ele>
      <time>2019-08-06T10:24:32Z</time>
    </trkpt>
    <trkpt lat="50.9410312" lon="6.9594889">
      <ele>50.8</ele>
      <time>2019-08-06T10:24:37Z</time>
    </trkpt>
    <trkpt lat="50.9410537" lon="6.9596111">
      <ele>51.2</ele>
      <time>2019-08-06T10:24:39Z</time>
    </trkpt>
    <trkpt lat="50.9410775" lon="6.9597670">
      <ele>51.8</ele>
      <time>2019-08-06T10:24:41Z</time>
    </trkpt>
    <trkpt lat="50.9411888" lon="6.9606692">
      <ele>54.8</ele>
      <time>2019-08-06T10:24:48Z</time>
    </trkpt>
    <trkpt lat="50.9411920" lon="6.9609848">
      <ele>55.0</ele>
      <time>2019-08-06T10:24:51Z</time>
    </trkpt>
    <trkpt lat="50.9412063" lon="6.9610675">
      <ele>55.0</ele>
      <time>2019-08-06T10:24:52Z</time>
    </trkpt>
    <trkpt lat="50.9412593" lon="6.9613158">
      <ele>57.4</ele>
      <time>2019-08-06T10:24:59Z</time>
    </trkpt>
    <trkpt lat="50.9412804" lon="6.9614084">
      <ele>57.8</ele>
      <time>2019-08-06T10:25:01Z</time>
    </trkpt>
    <trkpt lat="50.9412761" lon="6.9615927">
      <ele>57.8</ele>
      <time>2019-08-06T10:25:04Z</time>
    </trkpt>
    <trkpt lat="50.9412805" lon="6.9618258">
      <ele>58.0</ele>
      <time>2019-08-06T10:25:07Z</time>
    </trkpt>
    <trkpt lat="50.9412681" lon="6.9619920">
      <ele>57.6</ele>
      <time>2019-08-06T10:25:09Z</time>
    </trkpt>
    <trkpt lat="50.9413048" lon="6.9626188">
      <ele>57.6</ele>
      <time>2019-08-06T10:25:16Z</time>
    </trkpt>
    <trkpt lat="50.9413469" lon="6.9628704">
      <ele>57.2</ele>
      <time>2019-08-06T10:25:23Z</time>
    </trkpt>
    <trkpt lat="50.9413490" lon="6.9629362">
      <ele>57.6</ele>
      <time>2019-08-06T10:25:30Z</time>
    </trkpt>
    <trkpt lat="50.9413415" lon="6.9630147">
      <ele>58.2</ele>
      <time>2019-08-06T10:25:38Z</time>
    </trkpt>
    <trkpt lat="50.9413495" lon="6.9633735">
      <ele>59.0</ele>
      <time>2019-08-06T10:25:47Z</time>
    </trkpt>
    <trkpt lat="50.9413509" lon="6.9635225">
      <ele>59.4</ele>
      <time>2019-08-06T10:25:49Z</time>
    </trkpt>
    <trkpt lat="50.9413564" lon="6.9640272">
      <ele>59.6</ele>
      <time>2019-08-06T10:25:54Z</time>
    </trkpt>
    <trkpt lat="50.9413557" lon="6.9641827">
      <ele>59.6</ele>
      <time>2019-08-06T10:25:57Z</time>
    </trkpt>
    <trkpt lat="50.9413532" lon="6.9643060">
      <ele>60.0</ele>
      <time>2019-08-06T10:26:01Z</time>
    </trkpt>
    <trkpt lat="50.9413536" lon="6.9645057">
      <ele>59.6</ele>
      <time>2019-08-06T10:26:04Z</time>
    </trkpt>
    <trkpt lat="50.9414088" lon="6.9653495">
      <ele>59.6</ele>
      <time>2019-08-06T10:26:15Z</time>
    </trkpt>
    <trkpt lat="50.9413978" lon="6.9658396">
      <ele>60.8</ele>
      <time>2019-08-06T10:26:29Z</time>
    </trkpt>
    <trkpt lat="50.9413759" lon="6.9662602">
      <ele>62.4</ele>
      <time>2019-08-06T10:26:36Z</time>
    </trkpt>
    <trkpt lat="50.9413617" lon="6.9665022">
      <ele>63.0</ele>
      <time>2019-08-06T10:26:40Z</time>
    </trkpt>
    <trkpt lat="50.9413734" lon="6.9666187">
      <ele>63.4</ele>
      <time>2019-08-06T10:26:44Z</time>
    </trkpt>
    <trkpt lat="50.9413661" lon="6.9666459">
      <ele>63.6</ele>
      <time>2019-08-06T10:26:47Z</time>
    </trkpt>
    <trkpt lat="50.9413586" lon="6.9667662">
      <ele>63.4</ele>
      <time>2019-08-06T10:26:55Z</time>
    </trkpt>
    <trkpt lat="50.9413598" lon="6.9668193">
      <ele>63.2</ele>
      <time>2019-08-06T10:26:56Z</time>
    </trkpt>
    <trkpt lat="50.9413710" lon="6.9670353">
      <ele>63.6</ele>
      <time>2019-08-06T10:26:59Z</time>
    </trkpt>
    <trkpt lat="50.9413782" lon="6.9671324">
      <ele>63.8</ele>
      <time>2019-08-06T10:27:00Z</time>
    </trkpt>
    <trkpt lat="50.9413767" lon="6.9678240">
      <ele>64.8</ele>
      <time>2019-08-06T10:27:05Z</time>
    </trkpt>
    <trkpt lat="50.9413782" lon="6.9679569">
      <ele>65.0</ele>
      <time>2019-08-06T10:27:06Z</time>
    </trkpt>
    <trkpt lat="50.9413785" lon="6.9680784">
      <ele>65.2</ele>
      <time>2019-08-06T10:27:07Z</time>
    </trkpt>
    <trkpt lat="50.9413826" lon="6.9681867">
      <ele>65.6</ele>
      <time>2019-08-06T10:27:08Z</time>
    </trkpt>
    <trkpt lat="50.9413893" lon="6.9684333">
      <ele>66.0</ele>
      <time>2019-08-06T10:27:11Z</time>
    </trkpt>
    <trkpt lat="50.9413513" lon="6.9690185">
      <ele>65.0</ele>
      <time>2019-08-06T10:27:16Z</time>
    </trkpt>
    <trkpt lat="50.9413469" lon="6.9692976">
      <ele>65.0</ele>
      <time>2019-08-06T10:27:18Z</time>
    </trkpt>
    <trkpt lat="50.9413284" lon="6.9695769">
      <ele>64.8</ele>
      <time>2019-08-06T10:27:20Z</time>
    </trkpt>
    <trkpt lat="50.9412548" lon="6.9699769">
      <ele>65.0</ele>
      <time>2019-08-06T10:27:23Z</time>
    </trkpt>
    <trkpt lat="50.9412402" lon="6.9701295">
      <ele>65.2</ele>
      <time>2019-08-06T10:27:24Z</time>
    </trkpt>
    <trkpt lat="50.9412257" lon="6.9702867">
      <ele>65.0</ele>
      <time>2019-08-06T10:27:25Z</time>
    </trkpt>
    <trkpt lat="50.9410474" lon="6.9711072">
      <ele>63.8</ele>
      <time>2019-08-06T10:27:30Z</time>
    </trkpt>
    <trkpt lat="50.9408527" lon="6.9716926">
      <ele>62.8</ele>
      <time>2019-08-06T10:27:34Z</time>
    </trkpt>
    <trkpt lat="50.9407929" lon="6.9718242">
      <ele>62.6</ele>
      <time>2019-08-06T10:27:35Z</time>
    </trkpt>
    <trkpt lat="50.9404871" lon="6.9724569">
      <ele>60.6</ele>
      <time>2019-08-06T10:27:40Z</time>
    </trkpt>
    <trkpt lat="50.9403302" lon="6.9728185">
      <ele>59.2</ele>
      <time>2019-08-06T10:27:43Z</time>
    </trkpt>
    <trkpt lat="50.9402497" lon="6.9730096">
      <ele>58.4</ele>
      <time>2019-08-06T10:27:45Z</time>
    </trkpt>
    <trkpt lat="50.9400934" lon="6.9732243">
      <ele>57.2</ele>
      <time>2019-08-06T10:27:49Z</time>
    </trkpt>
    <trkpt lat="50.9400740" lon="6.9733942">
      <ele>56.8</ele>
      <time>2019-08-06T10:27:51Z</time>
    </trkpt>
    <trkpt lat="50.9400682" lon="6.9735889">
      <ele>56.4</ele>
      <time>2019-08-06T10:27:53Z</time>
    </trkpt>
    <trkpt lat="50.9399892" lon="6.9738596">
      <ele>55.8</ele>
      <time>2019-08-06T10:27:56Z</time>
    </trkpt>
    <trkpt lat="50.9399806" lon="6.9740873">
      <ele>55.2</ele>
      <time>2019-08-06T10:27:58Z</time>
    </trkpt>
    <trkpt lat="50.9399516" lon="6.9749419">
      <ele>52.4</ele>
      <time>2019-08-06T10:28:04Z</time>
    </trkpt>
    <trkpt lat="50.9398849" lon="6.9759075">
      <ele>50.4</ele>
      <time>2019-08-06T10:28:11Z</time>
    </trkpt>
    <trkpt lat="50.9398139" lon="6.9768466">
      <ele>48.4</ele>
      <time>2019-08-06T10:28:18Z</time>
    </trkpt>
    <trkpt lat="50.9398094" lon="6.9769807">
      <ele>48.2</ele>
      <time>2019-08-06T10:28:19Z</time>
    </trkpt>
    <trkpt lat="50.9398128" lon="6.9771129">
      <ele>47.8</ele>
      <time>2019-08-06T10:28:20Z</time>
    </trkpt>
    <trkpt lat="50.9397602" lon="6.9780071">
      <ele>46.0</ele>
      <time>2019-08-06T10:28:27Z</time>
    </trkpt>
    <trkpt lat="50.9397248" lon="6.9785485">
      <ele>45.4</ele>
      <time>2019-08-06T10:28:32Z</time>
    </trkpt>
    <trkpt lat="50.9397509" lon="6.9788282">
      <ele>45.2</ele>
      <time>2019-08-06T10:28:35Z</time>
    </trkpt>
    <trkpt lat="50.9397667" lon="6.9789077">
      <ele>45.2</ele>
      <time>2019-08-06T10:28:36Z</time>
    </trkpt>
    <trkpt lat="50.9399317" lon="6.9792602">
      <ele>45.6</ele>
      <time>2019-08-06T10:28:41Z</time>
    </trkpt>
    <trkpt lat="50.9403927" lon="6.9797886">
      <ele>45.8</ele>
      <time>2019-08-06T10:28:51Z</time>
    </trkpt>
    <trkpt lat="50.9405470" lon="6.9798816">
      <ele>45.4</ele>
      <time>2019-08-06T10:28:54Z</time>
    </trkpt>
    <trkpt lat="50.9408746" lon="6.9796215">
      <ele>43.8</ele>
      <time>2019-08-06T10:29:00Z</time>
    </trkpt>
    <trkpt lat="50.9409346" lon="6.9795424">
      <ele>43.4</ele>
      <time>2019-08-06T10:29:02Z</time>
    </trkpt>
    <trkpt lat="50.9409659" lon="6.9793392">
      <ele>43.4</ele>
      <time>2019-08-06T10:29:05Z</time>
    </trkpt>
    <trkpt lat="50.9409755" lon="6.9791030">
      <ele>43.0</ele>
      <time>2019-08-06T10:29:08Z</time>
    </trkpt>
    <trkpt lat="50.9410076" lon="6.9788550">
      <ele>42.6</ele>
      <time>2019-08-06T10:29:11Z</time>
    </trkpt>
    <trkpt lat="50.9410876" lon="6.9786974">
      <ele>42.6</ele>
      <time>2019-08-06T10:29:13Z</time>
    </trkpt>
    <trkpt lat="50.9411846" lon="6.9785853">
      <ele>42.2</ele>
      <time>2019-08-06T10:29:15Z</time>
    </trkpt>
    <trkpt lat="50.9412964" lon="6.9785736">
      <ele>42.2</ele>
      <time>2019-08-06T10:29:17Z</time>
    </trkpt>
    <trkpt lat="50.9414187" lon="6.9785821">
      <ele>42.4</ele>
      <time>2019-08-06T10:29:19Z</time>
    </trkpt>
    <trkpt lat="50.9415912" lon="6.9786388">
      <ele>42.4</ele>
      <time>2019-08-06T10:29:22Z</time>
    </trkpt>
    <trkpt lat="50.9416659" lon="6.9787785">
      <ele>42.0</ele>
      <time>2019-08-06T10:29:24Z</time>
    </trkpt>
    <trkpt lat="50.9416634" lon="6.9789695">
      <ele>41.6</ele>
      <time>2019-08-06T10:29:26Z</time>
    </trkpt>
    <trkpt lat="50.9416044" lon="6.9792282">
      <ele>41.4</ele>
      <time>2019-08-06T10:29:29Z</time>
    </trkpt>
    <trkpt lat="50.9415666" lon="6.9795705">
      <ele>41.6</ele>
      <time>2019-08-06T10:29:33Z</time>
    </trkpt>
    <trkpt lat="50.9415646" lon="6.9798173">
      <ele>41.6</ele>
      <time>2019-08-06T10:29:36Z</time>
    </trkpt>
    <trkpt lat="50.9416256" lon="6.9799706">
      <ele>41.2</ele>
      <time>2019-08-06T10:29:39Z</time>
    </trkpt>
    <trkpt lat="50.9416612" lon="6.9802952">
      <ele>40.6</ele>
      <time>2019-08-06T10:29:46Z</time>
    </trkpt>
    <trkpt lat="50.9417717" lon="6.9804273">
      <ele>40.8</ele>
      <time>2019-08-06T10:29:52Z</time>
    </trkpt>
    <trkpt lat="50.9417986" lon="6.9804620">
      <ele>40.8</ele>
      <time>2019-08-06T10:29:53Z</time>
    </trkpt>
    <trkpt lat="50.9419540" lon="6.9806036">
      <ele>41.0</ele>
      <time>2019-08-06T10:29:57Z</time>
    </trkpt>
    <trkpt lat="50.9423295" lon="6.9808318">
      <ele>42.0</ele>
      <time>2019-08-06T10:30:04Z</time>
    </trkpt>
    <trkpt lat="50.9428418" lon="6.9812849">
      <ele>44.6</ele>
      <time>2019-08-06T10:30:14Z</time>
    </trkpt>
    <trkpt lat="50.9428995" lon="6.9813210">
      <ele>44.8</ele>
      <time>2019-08-06T10:30:15Z</time>
    </trkpt>
    <trkpt lat="50.9432905" lon="6.9817021">
      <ele>47.2</ele>
      <time>2019-08-06T10:30:22Z</time>
    </trkpt>
    <trkpt lat="50.9436928" lon="6.9820982">
      <ele>49.2</ele>
      <time>2019-08-06T10:30:29Z</time>
    </trkpt>
    <trkpt lat="50.9441379" lon="6.9823900">
      <ele>51.2</ele>
      <time>2019-08-06T10:30:36Z</time>
    </trkpt>
    <trkpt lat="50.9445524" lon="6.9827720">
      <ele>52.2</ele>
      <time>2019-08-06T10:30:43Z</time>
    </trkpt>
    <trkpt lat="50.9449762" lon="6.9833400">
      <ele>53.2</ele>
      <time>2019-08-06T10:30:52Z</time>
    </trkpt>
    <trkpt lat="50.9450163" lon="6.9834260">
      <ele>53.4</ele>
      <time>2019-08-06T10:30:53Z</time>
    </trkpt>
    <trkpt lat="50.9451382" lon="6.9836811">
      <ele>53.8</ele>
      <time>2019-08-06T10:30:56Z</time>
    </trkpt>
    <trkpt lat="50.9452449" lon="6.9838093">
      <ele>54.0</ele>
      <time>2019-08-06T10:30:58Z</time>
    </trkpt>
    <trkpt lat="50.9457582" lon="6.9842704">
      <ele>53.8</ele>
      <time>2019-08-06T10:31:06Z</time>
    </trkpt>
    <trkpt lat="50.9462931" lon="6.9847202">
      <ele>54.2</ele>
      <time>2019-08-06T10:31:14Z</time>
    </trkpt>
    <trkpt lat="50.9463592" lon="6.9847763">
      <ele>54.4</ele>
      <time>2019-08-06T10:31:15Z</time>
    </trkpt>
    <trkpt lat="50.9468315" lon="6.9851342">
      <ele>54.6</ele>
      <time>2019-08-06T10:31:22Z</time>
    </trkpt>
    <trkpt lat="50.9469037" lon="6.9851961">
      <ele>54.4</ele>
      <time>2019-08-06T10:31:23Z</time>
    </trkpt>
    <trkpt lat="50.9469740" lon="6.9852525">
      <ele>54.2</ele>
      <time>2019-08-06T10:31:24Z</time>
    </trkpt>
    <trkpt lat="50.9474910" lon="6.9857009">
      <ele>54.0</ele>
      <time>2019-08-06T10:31:32Z</time>
    </trkpt>
    <trkpt lat="50.9475408" lon="6.9858013">
      <ele>54.0</ele>
      <time>2019-08-06T10:31:33Z</time>
    </trkpt>
    <trkpt lat="50.9476559" lon="6.9859436">
      <ele>54.0</ele>
      <time>2019-08-06T10:31:35Z</time>
    </trkpt>
    <trkpt lat="50.9478028" lon="6.9860102">
      <ele>53.8</ele>
      <time>2019-08-06T10:31:37Z</time>
    </trkpt>
    <trkpt lat="50.9479500" lon="6.9861042">
      <ele>53.4</ele>
      <time>2019-08-06T10:31:39Z</time>
    </trkpt>
    <trkpt lat="50.9480826" lon="6.9862286">
      <ele>53.0</ele>
      <time>2019-08-06T10:31:41Z</time>
    </trkpt>
    <trkpt lat="50.9481567" lon="6.9862844">
      <ele>52.6</ele>
      <time>2019-08-06T10:31:42Z</time>
    </trkpt>
    <trkpt lat="50.9486550" lon="6.9866965">
      <ele>51.4</ele>
      <time>2019-08-06T10:31:50Z</time>
    </trkpt>
    <trkpt lat="50.9491345" lon="6.9871490">
      <ele>50.2</ele>
      <time>2019-08-06T10:32:00Z</time>
    </trkpt>
    <trkpt lat="50.9494951" lon="6.9874530">
      <ele>49.4</ele>
      <time>2019-08-06T10:32:05Z</time>
    </trkpt>
    <trkpt lat="50.9497093" lon="6.9876338">
      <ele>48.8</ele>
      <time>2019-08-06T10:32:08Z</time>
    </trkpt>
    <trkpt lat="50.9497760" lon="6.9876920">
      <ele>48.6</ele>
      <time>2019-08-06T10:32:09Z</time>
    </trkpt>
    <trkpt lat="50.9499835" lon="6.9878791">
      <ele>48.2</ele>
      <time>2019-08-06T10:32:12Z</time>
    </trkpt>
    <trkpt lat="50.9504742" lon="6.9882708">
      <ele>46.8</ele>
      <time>2019-08-06T10:32:19Z</time>
    </trkpt>
    <trkpt lat="50.9509843" lon="6.9887417">
      <ele>45.6</ele>
      <time>2019-08-06T10:32:27Z</time>
    </trkpt>
    <trkpt lat="50.9514573" lon="6.9891601">
      <ele>44.8</ele>
      <time>2019-08-06T10:32:35Z</time>
    </trkpt>
    <trkpt lat="50.9517167" lon="6.9893774">
      <ele>44.2</ele>
      <time>2019-08-06T10:32:40Z</time>
    </trkpt>
    <trkpt lat="50.9517487" lon="6.9894228">
      <ele>44.2</ele>
      <time>2019-08-06T10:32:41Z</time>
    </trkpt>
    <trkpt lat="50.9517658" lon="6.9894798">
      <ele>44.0</ele>
      <time>2019-08-06T10:32:42Z</time>
    </trkpt>
    <trkpt lat="50.9517656" lon="6.9895367">
      <ele>44.2</ele>
      <time>2019-08-06T10:32:43Z</time>
    </trkpt>
    <trkpt lat="50.9516425" lon="6.9900563">
      <ele>44.4</ele>
      <time>2019-08-06T10:32:50Z</time>
    </trkpt>
    <trkpt lat="50.9516570" lon="6.9901910">
      <ele>44.6</ele>
      <time>2019-08-06T10:32:52Z</time>
    </trkpt>
    <trkpt lat="50.9517209" lon="6.9903095">
      <ele>45.2</ele>
      <time>2019-08-06T10:32:54Z</time>
    </trkpt>
    <trkpt lat="50.9519946" lon="6.9905728">
      <ele>47.4</ele>
      <time>2019-08-06T10:32:59Z</time>
    </trkpt>
    <trkpt lat="50.9520334" lon="6.9907572">
      <ele>47.8</ele>
      <time>2019-08-06T10:33:01Z</time>
    </trkpt>
    <trkpt lat="50.9520297" lon="6.9908474">
      <ele>48.0</ele>
      <time>2019-08-06T10:33:02Z</time>
    </trkpt>
    <trkpt lat="50.9519557" lon="6.9914182">
      <ele>48.8</ele>
      <time>2019-08-06T10:33:08Z</time>
    </trkpt>
    <trkpt lat="50.9519147" lon="6.9916810">
      <ele>49.2</ele>
      <time>2019-08-06T10:33:11Z</time>
    </trkpt>
    <trkpt lat="50.9519217" lon="6.9918141">
      <ele>49.6</ele>
      <time>2019-08-06T10:33:13Z</time>
    </trkpt>
    <trkpt lat="50.9519640" lon="6.9918928">
      <ele>50.2</ele>
      <time>2019-08-06T10:33:15Z</time>
    </trkpt>
    <trkpt lat="50.9520781" lon="6.9919830">
      <ele>50.8</ele>
      <time>2019-08-06T10:33:18Z</time>
    </trkpt>
    <trkpt lat="50.9521510" lon="6.9920328">
      <ele>51.2</ele>
      <time>2019-08-06T10:33:20Z</time>
    </trkpt>
    <trkpt lat="50.9524079" lon="6.9921489">
      <ele>51.6</ele>
      <time>2019-08-06T10:33:27Z</time>
    </trkpt>
    <trkpt lat="50.9525126" lon="6.9923139">
      <ele>52.0</ele>
      <time>2019-08-06T10:33:30Z</time>
    </trkpt>
    <trkpt lat="50.9525068" lon="6.9927116">
      <ele>52.8</ele>
      <time>2019-08-06T10:33:38Z</time>
    </trkpt>
    <trkpt lat="50.9524601" lon="6.9927172">
      <ele>53.2</ele>
      <time>2019-08-06T10:33:40Z</time>
    </trkpt>
    <trkpt lat="50.9523418" lon="6.9926548">
      <ele>53.6</ele>
      <time>2019-08-06T10:33:44Z</time>
    </trkpt>
  </trkseg></trk>
</gpx>
