<?xml version="1.0" encoding="UTF-8"?>
<gpx version="1.1" creator="Diary FIT converter" xmlns="http://www.topografix.com/GPX/1/1">
  <trk><name>Cycling</name><trkseg>
    <trkpt lat="50.9517856" lon="6.9903019">
      <ele>33.2</ele>
      <time>2019-05-31T10:18:35Z</time>
    </trkpt>
    <trkpt lat="50.9516521" lon="6.9901831">
      <ele>35.8</ele>
      <time>2019-05-31T10:18:39Z</time>
    </trkpt>
    <trkpt lat="50.9516939" lon="6.9899177">
      <ele>39.2</ele>
      <time>2019-05-31T10:18:43Z</time>
    </trkpt>
    <trkpt lat="50.9518853" lon="6.9893987">
      <ele>44.6</ele>
      <time>2019-05-31T10:19:06Z</time>
    </trkpt>
    <trkpt lat="50.9518560" lon="6.9892981">
      <ele>44.8</ele>
      <time>2019-05-31T10:19:09Z</time>
    </trkpt>
    <trkpt lat="50.9517812" lon="6.9892284">
      <ele>44.8</ele>
      <time>2019-05-31T10:19:11Z</time>
    </trkpt>
    <trkpt lat="50.9515029" lon="6.9890074">
      <ele>45.2</ele>
      <time>2019-05-31T10:19:17Z</time>
    </trkpt>
    <trkpt lat="50.9511448" lon="6.9886772">
      <ele>45.6</ele>
      <time>2019-05-31T10:19:24Z</time>
    </trkpt>
    <trkpt lat="50.9508949" lon="6.9884299">
      <ele>45.6</ele>
      <time>2019-05-31T10:19:29Z</time>
    </trkpt>
    <trkpt lat="50.9505233" lon="6.9881123">
      <ele>45.0</ele>
      <time>2019-05-31T10:19:36Z</time>
    </trkpt>
    <trkpt lat="50.9503648" lon="6.9879802">
      <ele>44.8</ele>
      <time>2019-05-31T10:19:39Z</time>
    </trkpt>
    <trkpt lat="50.9503105" lon="6.9879373">
      <ele>44.6</ele>
      <time>2019-05-31T10:19:40Z</time>
    </trkpt>
    <trkpt lat="50.9502602" lon="6.9878930">
      <ele>44.6</ele>
      <time>2019-05-31T10:19:41Z</time>
    </trkpt>
    <trkpt lat="50.9502095" lon="6.9878493">
      <ele>44.6</ele>
      <time>2019-05-31T10:19:42Z</time>
    </trkpt>
    <trkpt lat="50.9499481" lon="6.9876593">
      <ele>44.2</ele>
      <time>2019-05-31T10:19:47Z</time>
    </trkpt>
    <trkpt lat="50.9498975" lon="6.9876189">
      <ele>44.2</ele>
      <time>2019-05-31T10:19:48Z</time>
    </trkpt>
    <trkpt lat="50.9498464" lon="6.9875771">
      <ele>44.2</ele>
      <time>2019-05-31T10:19:49Z</time>
    </trkpt>
    <trkpt lat="50.9497440" lon="6.9874934">
      <ele>44.0</ele>
      <time>2019-05-31T10:19:50Z</time>
    </trkpt>
    <trkpt lat="50.9496931" lon="6.9874518">
      <ele>43.8</ele>
      <time>2019-05-31T10:19:52Z</time>
    </trkpt>
    <trkpt lat="50.9495371" lon="6.9873224">
      <ele>43.6</ele>
      <time>2019-05-31T10:19:55Z</time>
    </trkpt>
    <trkpt lat="50.9493232" lon="6.9871397">
      <ele>43.6</ele>
      <time>2019-05-31T10:19:59Z</time>
    </trkpt>
    <trkpt lat="50.9488356" lon="6.9867318">
      <ele>43.0</ele>
      <time>2019-05-31T10:20:08Z</time>
    </trkpt>
    <trkpt lat="50.9486205" lon="6.9865575">
      <ele>43.2</ele>
      <time>2019-05-31T10:20:12Z</time>
    </trkpt>
    <trkpt lat="50.9481040" lon="6.9861140">
      <ele>43.6</ele>
      <time>2019-05-31T10:20:22Z</time>
    </trkpt>
    <trkpt lat="50.9477598" lon="6.9857905">
      <ele>43.8</ele>
      <time>2019-05-31T10:20:29Z</time>
    </trkpt>
    <trkpt lat="50.9476288" lon="6.9856142">
      <ele>43.6</ele>
      <time>2019-05-31T10:20:32Z</time>
    </trkpt>
    <trkpt lat="50.9472392" lon="6.9852357">
      <ele>44.0</ele>
      <time>2019-05-31T10:20:40Z</time>
    </trkpt>
    <trkpt lat="50.9471385" lon="6.9851357">
      <ele>45.2</ele>
      <time>2019-05-31T10:20:44Z</time>
    </trkpt>
    <trkpt lat="50.9471331" lon="6.9852334">
      <ele>45.6</ele>
      <time>2019-05-31T10:20:47Z</time>
    </trkpt>
    <trkpt lat="50.9471887" lon="6.9853778">
      <ele>46.2</ele>
      <time>2019-05-31T10:20:50Z</time>
    </trkpt>
    <trkpt lat="50.9472715" lon="6.9854856">
      <ele>46.0</ele>
      <time>2019-05-31T10:20:52Z</time>
    </trkpt>
    <trkpt lat="50.9474247" lon="6.9857103">
      <ele>46.2</ele>
      <time>2019-05-31T10:20:56Z</time>
    </trkpt>
    <trkpt lat="50.9474712" lon="6.9858559">
      <ele>45.6</ele>
      <time>2019-05-31T10:20:58Z</time>
    </trkpt>
    <trkpt lat="50.9474363" lon="6.9861707">
      <ele>45.2</ele>
      <time>2019-05-31T10:21:03Z</time>
    </trkpt>
    <trkpt lat="50.9473869" lon="6.9863020">
      <ele>45.4</ele>
      <time>2019-05-31T10:21:06Z</time>
    </trkpt>
    <trkpt lat="50.9472825" lon="6.9864589">
      <ele>46.4</ele>
      <time>2019-05-31T10:21:11Z</time>
    </trkpt>
    <trkpt lat="50.9472404" lon="6.9864021">
      <ele>46.6</ele>
      <time>2019-05-31T10:21:13Z</time>
    </trkpt>
    <trkpt lat="50.9472514" lon="6.9863023">
      <ele>46.6</ele>
      <time>2019-05-31T10:21:15Z</time>
    </trkpt>
    <trkpt lat="50.9474989" lon="6.9856079">
      <ele>51.0</ele>
      <time>2019-05-31T10:21:29Z</time>
    </trkpt>
    <trkpt lat="50.9475477" lon="6.9855341">
      <ele>51.4</ele>
      <time>2019-05-31T10:21:31Z</time>
    </trkpt>
    <trkpt lat="50.9476008" lon="6.9854705">
      <ele>51.8</ele>
      <time>2019-05-31T10:21:32Z</time>
    </trkpt>
    <trkpt lat="50.9476008" lon="6.9854705">
      <ele>51.8</ele>
      <time>2019-05-31T10:21:33Z</time>
    </trkpt>
    <trkpt lat="50.9478217" lon="6.9852499">
      <ele>52.8</ele>
      <time>2019-05-31T10:21:41Z</time>
    </trkpt>
    <trkpt lat="50.9480929" lon="6.9849943">
      <ele>54.2</ele>
      <time>2019-05-31T10:21:50Z</time>
    </trkpt>
    <trkpt lat="50.9482225" lon="6.9848736">
      <ele>55.0</ele>
      <time>2019-05-31T10:21:54Z</time>
    </trkpt>
    <trkpt lat="50.9485005" lon="6.9846191">
      <ele>56.4</ele>
      <time>2019-05-31T10:22:02Z</time>
    </trkpt>
    <trkpt lat="50.9486905" lon="6.9844385">
      <ele>56.8</ele>
      <time>2019-05-31T10:22:07Z</time>
    </trkpt>
    <trkpt lat="50.9487617" lon="6.9843648">
      <ele>57.2</ele>
      <time>2019-05-31T10:22:08Z</time>
    </trkpt>
    <trkpt lat="50.9487617" lon="6.9843648">
      <ele>57.2</ele>
      <time>2019-05-31T10:22:09Z</time>
    </trkpt>
    <trkpt lat="50.9488325" lon="6.9842937">
      <ele>57.2</ele>
      <time>2019-05-31T10:22:11Z</time>
    </trkpt>
    <trkpt lat="50.9489374" lon="6.9841865">
      <ele>57.0</ele>
      <time>2019-05-31T10:22:14Z</time>
    </trkpt>
    <trkpt lat="50.9492269" lon="6.9838511">
      <ele>57.6</ele>
      <time>2019-05-31T10:22:22Z</time>
    </trkpt>
    <trkpt lat="50.9493965" lon="6.9836526">
      <ele>58.4</ele>
      <time>2019-05-31T10:22:26Z</time>
    </trkpt>
    <trkpt lat="50.9498506" lon="6.9830770">
      <ele>58.8</ele>
      <time>2019-05-31T10:22:36Z</time>
    </trkpt>
    <trkpt lat="50.9502123" lon="6.9825569">
      <ele>58.8</ele>
      <time>2019-05-31T10:22:44Z</time>
    </trkpt>
    <trkpt lat="50.9506449" lon="6.9819093">
      <ele>58.2</ele>
      <time>2019-05-31T10:22:53Z</time>
    </trkpt>
    <trkpt lat="50.9507498" lon="6.9817452">
      <ele>58.0</ele>
      <time>2019-05-31T10:22:54Z</time>
    </trkpt>
    <trkpt lat="50.9507498" lon="6.9817452">
      <ele>58.0</ele>
      <time>2019-05-31T10:22:55Z</time>
    </trkpt>
    <trkpt lat="50.9511790" lon="6.9810576">
      <ele>56.6</ele>
      <time>2019-05-31T10:23:03Z</time>
    </trkpt>
    <trkpt lat="50.9513938" lon="6.9807132">
      <ele>56.2</ele>
      <time>2019-05-31T10:23:07Z</time>
    </trkpt>
    <trkpt lat="50.9517895" lon="6.9800853">
      <ele>55.8</ele>
      <time>2019-05-31T10:23:14Z</time>
    </trkpt>
    <trkpt lat="50.9519076" lon="6.9798996">
      <ele>55.6</ele>
      <time>2019-05-31T10:23:15Z</time>
    </trkpt>
    <trkpt lat="50.9519076" lon="6.9798996">
      <ele>55.6</ele>
      <time>2019-05-31T10:23:16Z</time>
    </trkpt>
    <trkpt lat="50.9521945" lon="6.9794398">
      <ele>55.6</ele>
      <time>2019-05-31T10:23:21Z</time>
    </trkpt>
    <trkpt lat="50.9523075" lon="6.9792615">
      <ele>55.4</ele>
      <time>2019-05-31T10:23:22Z</time>
    </trkpt>
    <trkpt lat="50.9523075" lon="6.9792615">
      <ele>55.4</ele>
      <time>2019-05-31T10:23:23Z</time>
    </trkpt>
    <trkpt lat="50.9527338" lon="6.9786086">
      <ele>55.6</ele>
      <time>2019-05-31T10:23:31Z</time>
    </trkpt>
    <trkpt lat="50.9530425" lon="6.9781384">
      <ele>57.0</ele>
      <time>2019-05-31T10:23:38Z</time>
    </trkpt>
    <trkpt lat="50.9531249" lon="6.9780084">
      <ele>57.2</ele>
      <time>2019-05-31T10:23:40Z</time>
    </trkpt>
    <trkpt lat="50.9535173" lon="6.9773855">
      <ele>58.6</ele>
      <time>2019-05-31T10:23:50Z</time>
    </trkpt>
    <trkpt lat="50.9539321" lon="6.9767294">
      <ele>59.4</ele>
      <time>2019-05-31T10:24:01Z</time>
    </trkpt>
    <trkpt lat="50.9540802" lon="6.9764951">
      <ele>59.6</ele>
      <time>2019-05-31T10:24:05Z</time>
    </trkpt>
    <trkpt lat="50.9544684" lon="6.9758723">
      <ele>59.4</ele>
      <time>2019-05-31T10:24:15Z</time>
    </trkpt>
    <trkpt lat="50.9547058" lon="6.9754949">
      <ele>59.0</ele>
      <time>2019-05-31T10:24:21Z</time>
    </trkpt>
    <trkpt lat="50.9549015" lon="6.9751895">
      <ele>58.6</ele>
      <time>2019-05-31T10:24:26Z</time>
    </trkpt>
    <trkpt lat="50.9553036" lon="6.9745583">
      <ele>58.4</ele>
      <time>2019-05-31T10:24:36Z</time>
    </trkpt>
    <trkpt lat="50.9555870" lon="6.9741142">
      <ele>57.8</ele>
      <time>2019-05-31T10:24:43Z</time>
    </trkpt>
    <trkpt lat="50.9558385" lon="6.9737237">
      <ele>57.0</ele>
      <time>2019-05-31T10:24:49Z</time>
    </trkpt>
    <trkpt lat="50.9559667" lon="6.9735256">
      <ele>56.6</ele>
      <time>2019-05-31T10:24:52Z</time>
    </trkpt>
    <trkpt lat="50.9563728" lon="6.9729607">
      <ele>54.8</ele>
      <time>2019-05-31T10:25:01Z</time>
    </trkpt>
    <trkpt lat="50.9564291" lon="6.9729111">
      <ele>54.4</ele>
      <time>2019-05-31T10:25:02Z</time>
    </trkpt>
    <trkpt lat="50.9566293" lon="6.9728276">
      <ele>53.0</ele>
      <time>2019-05-31T10:25:05Z</time>
    </trkpt>
    <trkpt lat="50.9567028" lon="6.9728340">
      <ele>52.6</ele>
      <time>2019-05-31T10:25:06Z</time>
    </trkpt>
    <trkpt lat="50.9568496" lon="6.9728933">
      <ele>51.6</ele>
      <time>2019-05-31T10:25:07Z</time>
    </trkpt>
    <trkpt lat="50.9568496" lon="6.9728933">
      <ele>51.6</ele>
      <time>2019-05-31T10:25:08Z</time>
    </trkpt>
    <trkpt lat="50.9569204" lon="6.9729410">
      <ele>51.2</ele>
      <time>2019-05-31T10:25:09Z</time>
    </trkpt>
    <trkpt lat="50.9570779" lon="6.9731263">
      <ele>50.2</ele>
      <time>2019-05-31T10:25:12Z</time>
    </trkpt>
    <trkpt lat="50.9571077" lon="6.9732756">
      <ele>49.2</ele>
      <time>2019-05-31T10:25:14Z</time>
    </trkpt>
    <trkpt lat="50.9570566" lon="6.9734952">
      <ele>47.4</ele>
      <time>2019-05-31T10:25:17Z</time>
    </trkpt>
    <trkpt lat="50.9569840" lon="6.9735682">
      <ele>46.2</ele>
      <time>2019-05-31T10:25:19Z</time>
    </trkpt>
    <trkpt lat="50.9568457" lon="6.9734859">
      <ele>44.0</ele>
      <time>2019-05-31T10:25:22Z</time>
    </trkpt>
    <trkpt lat="50.9568073" lon="6.9733094">
      <ele>42.6</ele>
      <time>2019-05-31T10:25:24Z</time>
    </trkpt>
    <trkpt lat="50.9568436" lon="6.9730460">
      <ele>41.0</ele>
      <time>2019-05-31T10:25:27Z</time>
    </trkpt>
    <trkpt lat="50.9569096" lon="6.9729080">
      <ele>40.4</ele>
      <time>2019-05-31T10:25:29Z</time>
    </trkpt>
    <trkpt lat="50.9570051" lon="6.9726462">
      <ele>40.8</ele>
      <time>2019-05-31T10:25:39Z</time>
    </trkpt>
    <trkpt lat="50.9569571" lon="6.9728262">
      <ele>39.6</ele>
      <time>2019-05-31T10:25:44Z</time>
    </trkpt>
    <trkpt lat="50.9566644" lon="6.9734694">
      <ele>38.6</ele>
      <time>2019-05-31T10:25:54Z</time>
    </trkpt>
    <trkpt lat="50.9564736" lon="6.9739252">
      <ele>38.6</ele>
      <time>2019-05-31T10:26:00Z</time>
    </trkpt>
    <trkpt lat="50.9563688" lon="6.9740451">
      <ele>39.8</ele>
      <time>2019-05-31T10:26:13Z</time>
    </trkpt>
    <trkpt lat="50.9563724" lon="6.9740511">
      <ele>39.8</ele>
      <time>2019-05-31T10:26:21Z</time>
    </trkpt>
    <trkpt lat="50.9563703" lon="6.9740543">
      <ele>39.8</ele>
      <time>2019-05-31T10:26:24Z</time>
    </trkpt>
    <trkpt lat="50.9563740" lon="6.9740500">
      <ele>40.2</ele>
      <time>2019-05-31T10:26:29Z</time>
    </trkpt>
    <trkpt lat="50.9563370" lon="6.9741090">
      <ele>40.2</ele>
      <time>2019-05-31T10:26:41Z</time>
    </trkpt>
    <trkpt lat="50.9562210" lon="6.9742602">
      <ele>40.4</ele>
      <time>2019-05-31T10:26:45Z</time>
    </trkpt>
    <trkpt lat="50.9561200" lon="6.9741628">
      <ele>40.4</ele>
      <time>2019-05-31T10:26:48Z</time>
    </trkpt>
    <trkpt lat="50.9559862" lon="6.9739169">
      <ele>40.2</ele>
      <time>2019-05-31T10:26:52Z</time>
    </trkpt>
    <trkpt lat="50.9558053" lon="6.9735989">
      <ele>39.8</ele>
      <time>2019-05-31T10:26:57Z</time>
    </trkpt>
    <trkpt lat="50.9555519" lon="6.9730588">
      <ele>38.8</ele>
      <time>2019-05-31T10:27:05Z</time>
    </trkpt>
    <trkpt lat="50.9555093" lon="6.9729981">
      <ele>38.8</ele>
      <time>2019-05-31T10:27:06Z</time>
    </trkpt>
    <trkpt lat="50.9554412" lon="6.9728631">
      <ele>41.2</ele>
      <time>2019-05-31T10:27:07Z</time>
    </trkpt>
    <trkpt lat="50.9554412" lon="6.9728631">
      <ele>41.2</ele>
      <time>2019-05-31T10:27:08Z</time>
    </trkpt>
    <trkpt lat="50.9551818" lon="6.9724910">
      <ele>41.4</ele>
      <time>2019-05-31T10:27:14Z</time>
    </trkpt>
    <trkpt lat="50.9547929" lon="6.9719267">
      <ele>40.8</ele>
      <time>2019-05-31T10:27:23Z</time>
    </trkpt>
    <trkpt lat="50.9547479" lon="6.9718638">
      <ele>40.8</ele>
      <time>2019-05-31T10:27:24Z</time>
    </trkpt>
    <trkpt lat="50.9546597" lon="6.9717389">
      <ele>40.8</ele>
      <time>2019-05-31T10:27:25Z</time>
    </trkpt>
    <trkpt lat="50.9546597" lon="6.9717389">
      <ele>40.8</ele>
      <time>2019-05-31T10:27:26Z</time>
    </trkpt>
    <trkpt lat="50.9545716" lon="6.9716159">
      <ele>40.8</ele>
      <time>2019-05-31T10:27:28Z</time>
    </trkpt>
    <trkpt lat="50.9544875" lon="6.9714909">
      <ele>40.8</ele>
      <time>2019-05-31T10:27:29Z</time>
    </trkpt>
    <trkpt lat="50.9544875" lon="6.9714909">
      <ele>40.8</ele>
      <time>2019-05-31T10:27:30Z</time>
    </trkpt>
    <trkpt lat="50.9544452" lon="6.9714306">
      <ele>40.6</ele>
      <time>2019-05-31T10:27:31Z</time>
    </trkpt>
    <trkpt lat="50.9543597" lon="6.9713155">
      <ele>40.4</ele>
      <time>2019-05-31T10:27:32Z</time>
    </trkpt>
    <trkpt lat="50.9542719" lon="6.9712041">
      <ele>40.4</ele>
      <time>2019-05-31T10:27:35Z</time>
    </trkpt>
    <trkpt lat="50.9541903" lon="6.9710887">
      <ele>40.2</ele>
      <time>2019-05-31T10:27:36Z</time>
    </trkpt>
    <trkpt lat="50.9541903" lon="6.9710887">
      <ele>40.2</ele>
      <time>2019-05-31T10:27:37Z</time>
    </trkpt>
    <trkpt lat="50.9539774" lon="6.9707985">
      <ele>39.6</ele>
      <time>2019-05-31T10:27:42Z</time>
    </trkpt>
    <trkpt lat="50.9538909" lon="6.9706825">
      <ele>39.4</ele>
      <time>2019-05-31T10:27:43Z</time>
    </trkpt>
    <trkpt lat="50.9538909" lon="6.9706825">
      <ele>39.4</ele>
      <time>2019-05-31T10:27:44Z</time>
    </trkpt>
    <trkpt lat="50.9534746" lon="6.9701371">
      <ele>39.0</ele>
      <time>2019-05-31T10:27:53Z</time>
    </trkpt>
    <trkpt lat="50.9530352" lon="6.9695945">
      <ele>38.8</ele>
      <time>2019-05-31T10:28:02Z</time>
    </trkpt>
    <trkpt lat="50.9525894" lon="6.9690718">
      <ele>39.0</ele>
      <time>2019-05-31T10:28:11Z</time>
    </trkpt>
    <trkpt lat="50.9521146" lon="6.9685288">
      <ele>38.6</ele>
      <time>2019-05-31T10:28:21Z</time>
    </trkpt>
    <trkpt lat="50.9517875" lon="6.9681549">
      <ele>38.2</ele>
      <time>2019-05-31T10:28:28Z</time>
    </trkpt>
    <trkpt lat="50.9513310" lon="6.9676911">
      <ele>38.2</ele>
      <time>2019-05-31T10:28:37Z</time>
    </trkpt>
    <trkpt lat="50.9508482" lon="6.9672087">
      <ele>37.8</ele>
      <time>2019-05-31T10:28:46Z</time>
    </trkpt>
    <trkpt lat="50.9503717" lon="6.9667739">
      <ele>38.6</ele>
      <time>2019-05-31T10:28:55Z</time>
    </trkpt>
    <trkpt lat="50.9498573" lon="6.9663033">
      <ele>39.0</ele>
      <time>2019-05-31T10:29:05Z</time>
    </trkpt>
    <trkpt lat="50.9496386" lon="6.9661328">
      <ele>40.2</ele>
      <time>2019-05-31T10:29:09Z</time>
    </trkpt>
    <trkpt lat="50.9491491" lon="6.9657346">
      <ele>41.0</ele>
      <time>2019-05-31T10:29:18Z</time>
    </trkpt>
    <trkpt lat="50.9487612" lon="6.9654521">
      <ele>40.4</ele>
      <time>2019-05-31T10:29:25Z</time>
    </trkpt>
    <trkpt lat="50.9482674" lon="6.9650720">
      <ele>40.8</ele>
      <time>2019-05-31T10:29:34Z</time>
    </trkpt>
    <trkpt lat="50.9480937" lon="6.9649494">
      <ele>40.8</ele>
      <time>2019-05-31T10:29:37Z</time>
    </trkpt>
    <trkpt lat="50.9479790" lon="6.9648654">
      <ele>40.8</ele>
      <time>2019-05-31T10:29:39Z</time>
    </trkpt>
    <trkpt lat="50.9474501" lon="6.9645462">
      <ele>40.8</ele>
      <time>2019-05-31T10:29:48Z</time>
    </trkpt>
    <trkpt lat="50.9471613" lon="6.9643707">
      <ele>40.4</ele>
      <time>2019-05-31T10:29:53Z</time>
    </trkpt>
    <trkpt lat="50.9466116" lon="6.9640593">
      <ele>39.6</ele>
      <time>2019-05-31T10:30:02Z</time>
    </trkpt>
    <trkpt lat="50.9463224" lon="6.9638991">
      <ele>37.6</ele>
      <time>2019-05-31T10:30:07Z</time>
    </trkpt>
    <trkpt lat="50.9461157" lon="6.9638179">
      <ele>36.8</ele>
      <time>2019-05-31T10:30:10Z</time>
    </trkpt>
    <trkpt lat="50.9459065" lon="6.9637145">
      <ele>35.4</ele>
      <time>2019-05-31T10:30:13Z</time>
    </trkpt>
    <trkpt lat="50.9458354" lon="6.9636804">
      <ele>35.4</ele>
      <time>2019-05-31T10:30:14Z</time>
    </trkpt>
    <trkpt lat="50.9456972" lon="6.9636143">
      <ele>34.8</ele>
      <time>2019-05-31T10:30:15Z</time>
    </trkpt>
    <trkpt lat="50.9456972" lon="6.9636143">
      <ele>34.8</ele>
      <time>2019-05-31T10:30:16Z</time>
    </trkpt>
    <trkpt lat="50.9451410" lon="6.9634173">
      <ele>38.4</ele>
      <time>2019-05-31T10:30:25Z</time>
    </trkpt>
    <trkpt lat="50.9447493" lon="6.9633153">
      <ele>40.2</ele>
      <time>2019-05-31T10:30:31Z</time>
    </trkpt>
    <trkpt lat="50.9444273" lon="6.9631974">
      <ele>40.0</ele>
      <time>2019-05-31T10:30:36Z</time>
    </trkpt>
    <trkpt lat="50.9438467" lon="6.9630252">
      <ele>37.6</ele>
      <time>2019-05-31T10:30:45Z</time>
    </trkpt>
    <trkpt lat="50.9437857" lon="6.9630073">
      <ele>37.2</ele>
      <time>2019-05-31T10:30:46Z</time>
    </trkpt>
    <trkpt lat="50.9436143" lon="6.9629487">
      <ele>35.8</ele>
      <time>2019-05-31T10:30:49Z</time>
    </trkpt>
    <trkpt lat="50.9431219" lon="6.9628691">
      <ele>37.2</ele>
      <time>2019-05-31T10:30:58Z</time>
    </trkpt>
    <trkpt lat="50.9425408" lon="6.9627747">
      <ele>38.4</ele>
      <time>2019-05-31T10:31:08Z</time>
    </trkpt>
    <trkpt lat="50.9422904" lon="6.9627706">
      <ele>40.4</ele>
      <time>2019-05-31T10:31:15Z</time>
    </trkpt>
    <trkpt lat="50.9422233" lon="6.9627768">
      <ele>39.8</ele>
      <time>2019-05-31T10:31:18Z</time>
    </trkpt>
    <trkpt lat="50.9422023" lon="6.9628194">
      <ele>39.6</ele>
      <time>2019-05-31T10:31:21Z</time>
    </trkpt>
    <trkpt lat="50.9420554" lon="6.9628222">
      <ele>40.8</ele>
      <time>2019-05-31T10:31:26Z</time>
    </trkpt>
    <trkpt lat="50.9420075" lon="6.9628258">
      <ele>41.0</ele>
      <time>2019-05-31T10:31:27Z</time>
    </trkpt>
    <trkpt lat="50.9418666" lon="6.9628229">
      <ele>40.8</ele>
      <time>2019-05-31T10:31:30Z</time>
    </trkpt>
    <trkpt lat="50.9417748" lon="6.9628577">
      <ele>41.0</ele>
      <time>2019-05-31T10:31:32Z</time>
    </trkpt>
    <trkpt lat="50.9415823" lon="6.9629062">
      <ele>42.0</ele>
      <time>2019-05-31T10:31:36Z</time>
    </trkpt>
    <trkpt lat="50.9413910" lon="6.9629490">
      <ele>45.0</ele>
      <time>2019-05-31T10:31:42Z</time>
    </trkpt>
    <trkpt lat="50.9413574" lon="6.9629818">
      <ele>46.4</ele>
      <time>2019-05-31T10:31:46Z</time>
    </trkpt>
    <trkpt lat="50.9412033" lon="6.9629615">
      <ele>46.0</ele>
      <time>2019-05-31T10:31:51Z</time>
    </trkpt>
    <trkpt lat="50.9411200" lon="6.9629232">
      <ele>42.8</ele>
      <time>2019-05-31T10:31:52Z</time>
    </trkpt>
    <trkpt lat="50.9411200" lon="6.9629232">
      <ele>42.8</ele>
      <time>2019-05-31T10:31:53Z</time>
    </trkpt>
    <trkpt lat="50.9409203" lon="6.9628564">
      <ele>39.2</ele>
      <time>2019-05-31T10:31:58Z</time>
    </trkpt>
    <trkpt lat="50.9407578" lon="6.9628450">
      <ele>37.8</ele>
      <time>2019-05-31T10:32:02Z</time>
    </trkpt>
    <trkpt lat="50.9406434" lon="6.9628328">
      <ele>37.6</ele>
      <time>2019-05-31T10:32:04Z</time>
    </trkpt>
    <trkpt lat="50.9400873" lon="6.9628565">
      <ele>37.0</ele>
      <time>2019-05-31T10:32:14Z</time>
    </trkpt>
    <trkpt lat="50.9397938" lon="6.9628481">
      <ele>37.6</ele>
      <time>2019-05-31T10:32:18Z</time>
    </trkpt>
    <trkpt lat="50.9395990" lon="6.9628957">
      <ele>38.4</ele>
      <time>2019-05-31T10:32:21Z</time>
    </trkpt>
    <trkpt lat="50.9392811" lon="6.9629290">
      <ele>39.2</ele>
      <time>2019-05-31T10:32:27Z</time>
    </trkpt>
    <trkpt lat="50.9391621" lon="6.9629533">
      <ele>39.6</ele>
      <time>2019-05-31T10:32:28Z</time>
    </trkpt>
    <trkpt lat="50.9391027" lon="6.9629517">
      <ele>40.0</ele>
      <time>2019-05-31T10:32:30Z</time>
    </trkpt>
    <trkpt lat="50.9389261" lon="6.9629613">
      <ele>40.6</ele>
      <time>2019-05-31T10:32:33Z</time>
    </trkpt>
    <trkpt lat="50.9386555" lon="6.9629754">
      <ele>43.6</ele>
      <time>2019-05-31T10:32:38Z</time>
    </trkpt>
    <trkpt lat="50.9384952" lon="6.9629762">
      <ele>44.2</ele>
      <time>2019-05-31T10:32:41Z</time>
    </trkpt>
    <trkpt lat="50.9383051" lon="6.9630495">
      <ele>44.0</ele>
      <time>2019-05-31T10:32:46Z</time>
    </trkpt>
    <trkpt lat="50.9378306" lon="6.9632063">
      <ele>40.6</ele>
      <time>2019-05-31T10:32:59Z</time>
    </trkpt>
    <trkpt lat="50.9374432" lon="6.9632846">
      <ele>36.8</ele>
      <time>2019-05-31T10:33:09Z</time>
    </trkpt>
    <trkpt lat="50.9368599" lon="6.9633806">
      <ele>37.6</ele>
      <time>2019-05-31T10:33:22Z</time>
    </trkpt>
    <trkpt lat="50.9367050" lon="6.9633379">
      <ele>39.6</ele>
      <time>2019-05-31T10:33:25Z</time>
    </trkpt>
    <trkpt lat="50.9365782" lon="6.9633276">
      <ele>40.8</ele>
      <time>2019-05-31T10:33:26Z</time>
    </trkpt>
    <trkpt lat="50.9365147" lon="6.9633229">
      <ele>40.8</ele>
      <time>2019-05-31T10:33:28Z</time>
    </trkpt>
    <trkpt lat="50.9359326" lon="6.9633587">
      <ele>43.6</ele>
      <time>2019-05-31T10:33:38Z</time>
    </trkpt>
    <trkpt lat="50.9357985" lon="6.9633574">
      <ele>43.8</ele>
      <time>2019-05-31T10:33:40Z</time>
    </trkpt>
    <trkpt lat="50.9353167" lon="6.9634216">
      <ele>43.2</ele>
      <time>2019-05-31T10:33:49Z</time>
    </trkpt>
    <trkpt lat="50.9352705" lon="6.9634084">
      <ele>43.0</ele>
      <time>2019-05-31T10:33:50Z</time>
    </trkpt>
    <trkpt lat="50.9352270" lon="6.9633901">
      <ele>43.2</ele>
      <time>2019-05-31T10:33:51Z</time>
    </trkpt>
    <trkpt lat="50.9351807" lon="6.9633786">
      <ele>43.2</ele>
      <time>2019-05-31T10:33:52Z</time>
    </trkpt>
    <trkpt lat="50.9351353" lon="6.9633731">
      <ele>43.4</ele>
      <time>2019-05-31T10:33:53Z</time>
    </trkpt>
    <trkpt lat="50.9350919" lon="6.9633723">
      <ele>43.2</ele>
      <time>2019-05-31T10:33:54Z</time>
    </trkpt>
    <trkpt lat="50.9349598" lon="6.9633414">
      <ele>40.8</ele>
      <time>2019-05-31T10:33:57Z</time>
    </trkpt>
    <trkpt lat="50.9349148" lon="6.9633381">
      <ele>40.6</ele>
      <time>2019-05-31T10:33:58Z</time>
    </trkpt>
    <trkpt lat="50.9344648" lon="6.9633624">
      <ele>39.2</ele>
      <time>2019-05-31T10:34:07Z</time>
    </trkpt>
    <trkpt lat="50.9341180" lon="6.9633946">
      <ele>38.2</ele>
      <time>2019-05-31T10:34:13Z</time>
    </trkpt>
    <trkpt lat="50.9340608" lon="6.9633992">
      <ele>38.0</ele>
      <time>2019-05-31T10:34:14Z</time>
    </trkpt>
    <trkpt lat="50.9339533" lon="6.9634069">
      <ele>37.6</ele>
      <time>2019-05-31T10:34:16Z</time>
    </trkpt>
    <trkpt lat="50.9339012" lon="6.9634071">
      <ele>37.4</ele>
      <time>2019-05-31T10:34:17Z</time>
    </trkpt>
    <trkpt lat="50.9338482" lon="6.9634028">
      <ele>37.2</ele>
      <time>2019-05-31T10:34:18Z</time>
    </trkpt>
    <trkpt lat="50.9335578" lon="6.9633974">
      <ele>38.0</ele>
      <time>2019-05-31T10:34:23Z</time>
    </trkpt>
    <trkpt lat="50.9329889" lon="6.9633314">
      <ele>42.4</ele>
      <time>2019-05-31T10:34:34Z</time>
    </trkpt>
    <trkpt lat="50.9324318" lon="6.9631770">
      <ele>41.6</ele>
      <time>2019-05-31T10:34:46Z</time>
    </trkpt>
    <trkpt lat="50.9318737" lon="6.9629538">
      <ele>40.6</ele>
      <time>2019-05-31T10:34:57Z</time>
    </trkpt>
    <trkpt lat="50.9313334" lon="6.9628251">
      <ele>43.4</ele>
      <time>2019-05-31T10:35:07Z</time>
    </trkpt>
    <trkpt lat="50.9307575" lon="6.9628711">
      <ele>45.0</ele>
      <time>2019-05-31T10:35:19Z</time>
    </trkpt>
    <trkpt lat="50.9304605" lon="6.9629149">
      <ele>48.4</ele>
      <time>2019-05-31T10:35:25Z</time>
    </trkpt>
    <trkpt lat="50.9303649" lon="6.9629123">
      <ele>49.2</ele>
      <time>2019-05-31T10:35:27Z</time>
    </trkpt>
    <trkpt lat="50.9298214" lon="6.9629473">
      <ele>53.8</ele>
      <time>2019-05-31T10:35:37Z</time>
    </trkpt>
    <trkpt lat="50.9294027" lon="6.9628444">
      <ele>72.2</ele>
      <time>2019-05-31T10:35:46Z</time>
    </trkpt>
    <trkpt lat="50.9288426" lon="6.9628622">
      <ele>96.6</ele>
      <time>2019-05-31T10:35:57Z</time>
    </trkpt>
    <trkpt lat="50.9286391" lon="6.9629641">
      <ele>86.2</ele>
      <time>2019-05-31T10:36:01Z</time>
    </trkpt>
    <trkpt lat="50.9285303" lon="6.9630041">
      <ele>82.6</ele>
      <time>2019-05-31T10:36:03Z</time>
    </trkpt>
    <trkpt lat="50.9279770" lon="6.9632396">
      <ele>65.8</ele>
      <time>2019-05-31T10:36:13Z</time>
    </trkpt>
    <trkpt lat="50.9274461" lon="6.9635516">
      <ele>60.6</ele>
      <time>2019-05-31T10:36:22Z</time>
    </trkpt>
    <trkpt lat="50.9272351" lon="6.9637100">
      <ele>61.6</ele>
      <time>2019-05-31T10:36:26Z</time>
    </trkpt>
    <trkpt lat="50.9267182" lon="6.9641664">
      <ele>52.8</ele>
      <time>2019-05-31T10:36:36Z</time>
    </trkpt>
    <trkpt lat="50.9262407" lon="6.9645955">
      <ele>40.4</ele>
      <time>2019-05-31T10:36:45Z</time>
    </trkpt>
    <trkpt lat="50.9257718" lon="6.9650511">
      <ele>37.4</ele>
      <time>2019-05-31T10:36:55Z</time>
    </trkpt>
    <trkpt lat="50.9256228" lon="6.9652180">
      <ele>35.4</ele>
      <time>2019-05-31T10:36:59Z</time>
    </trkpt>
    <trkpt lat="50.9255719" lon="6.9653081">
      <ele>32.8</ele>
      <time>2019-05-31T10:37:02Z</time>
    </trkpt>
    <trkpt lat="50.9251381" lon="6.9656166">
      <ele>40.0</ele>
      <time>2019-05-31T10:37:17Z</time>
    </trkpt>
    <trkpt lat="50.9250438" lon="6.9656816">
      <ele>40.6</ele>
      <time>2019-05-31T10:37:18Z</time>
    </trkpt>
    <trkpt lat="50.9246520" lon="6.9660415">
      <ele>42.8</ele>
      <time>2019-05-31T10:37:27Z</time>
    </trkpt>
    <trkpt lat="50.9241683" lon="6.9665285">
      <ele>54.6</ele>
      <time>2019-05-31T10:37:39Z</time>
    </trkpt>
    <trkpt lat="50.9238913" lon="6.9667239">
      <ele>56.2</ele>
      <time>2019-05-31T10:37:45Z</time>
    </trkpt>
    <trkpt lat="50.9237931" lon="6.9667842">
      <ele>55.4</ele>
      <time>2019-05-31T10:37:46Z</time>
    </trkpt>
    <trkpt lat="50.9237374" lon="6.9668239">
      <ele>55.4</ele>
      <time>2019-05-31T10:37:48Z</time>
    </trkpt>
    <trkpt lat="50.9236294" lon="6.9669020">
      <ele>54.4</ele>
      <time>2019-05-31T10:37:50Z</time>
    </trkpt>
    <trkpt lat="50.9230933" lon="6.9670861">
      <ele>53.8</ele>
      <time>2019-05-31T10:38:03Z</time>
    </trkpt>
    <trkpt lat="50.9230201" lon="6.9670280">
      <ele>52.6</ele>
      <time>2019-05-31T10:38:04Z</time>
    </trkpt>
    <trkpt lat="50.9229959" lon="6.9669860">
      <ele>51.6</ele>
      <time>2019-05-31T10:38:05Z</time>
    </trkpt>
    <trkpt lat="50.9229959" lon="6.9669860">
      <ele>51.6</ele>
      <time>2019-05-31T10:38:06Z</time>
    </trkpt>
    <trkpt lat="50.9227685" lon="6.9667297">
      <ele>45.6</ele>
      <time>2019-05-31T10:38:14Z</time>
    </trkpt>
    <trkpt lat="50.9224439" lon="6.9666862">
      <ele>43.2</ele>
      <time>2019-05-31T10:38:25Z</time>
    </trkpt>
    <trkpt lat="50.9223666" lon="6.9666838">
      <ele>43.2</ele>
      <time>2019-05-31T10:38:26Z</time>
    </trkpt>
    <trkpt lat="50.9223461" lon="6.9666402">
      <ele>43.8</ele>
      <time>2019-05-31T10:38:28Z</time>
    </trkpt>
    <trkpt lat="50.9223287" lon="6.9664135">
      <ele>45.6</ele>
      <time>2019-05-31T10:38:32Z</time>
    </trkpt>
    <trkpt lat="50.9222682" lon="6.9657228">
      <ele>40.0</ele>
      <time>2019-05-31T10:38:43Z</time>
    </trkpt>
    <trkpt lat="50.9221629" lon="6.9652604">
      <ele>34.8</ele>
      <time>2019-05-31T10:38:51Z</time>
    </trkpt>
    <trkpt lat="50.9221298" lon="6.9651854">
      <ele>34.4</ele>
      <time>2019-05-31T10:38:54Z</time>
    </trkpt>
    <trkpt lat="50.9220678" lon="6.9652283">
      <ele>33.4</ele>
      <time>2019-05-31T10:38:59Z</time>
    </trkpt>
    <trkpt lat="50.9220168" lon="6.9652900">
      <ele>35.4</ele>
      <time>2019-05-31T10:39:06Z</time>
    </trkpt>
    <trkpt lat="50.9220047" lon="6.9652824">
      <ele>35.4</ele>
      <time>2019-05-31T10:39:14Z</time>
    </trkpt>
    <trkpt lat="50.9219892" lon="6.9652972">
      <ele>40.2</ele>
      <time>2019-05-31T10:39:26Z</time>
    </trkpt>
    <trkpt lat="50.9220075" lon="6.9652917">
      <ele>42.6</ele>
      <time>2019-05-31T10:39:29Z</time>
    </trkpt>
    <trkpt lat="50.9213301" lon="6.9621556">
      <ele>107.4</ele>
      <time>2019-05-31T12:30:38Z</time>
    </trkpt>
    <trkpt lat="50.9213284" lon="6.9622099">
      <ele>109.6</ele>
      <time>2019-05-31T12:30:39Z</time>
    </trkpt>
    <trkpt lat="50.9213576" lon="6.9623412">
      <ele>114.6</ele>
      <time>2019-05-31T12:30:41Z</time>
    </trkpt>
    <trkpt lat="50.9214861" lon="6.9631642">
      <ele>136.2</ele>
      <time>2019-05-31T12:30:52Z</time>
    </trkpt>
    <trkpt lat="50.9215009" lon="6.9632320">
      <ele>137.6</ele>
      <time>2019-05-31T12:30:53Z</time>
    </trkpt>
    <trkpt lat="50.9215413" lon="6.9634070">
      <ele>142.0</ele>
      <time>2019-05-31T12:30:56Z</time>
    </trkpt>
    <trkpt lat="50.9215256" lon="6.9637450">
      <ele>140.4</ele>
      <time>2019-05-31T12:31:08Z</time>
    </trkpt>
    <trkpt lat="50.9215265" lon="6.9638074">
      <ele>140.8</ele>
      <time>2019-05-31T12:31:10Z</time>
    </trkpt>
    <trkpt lat="50.9215315" lon="6.9639138">
      <ele>141.6</ele>
      <time>2019-05-31T12:31:12Z</time>
    </trkpt>
    <trkpt lat="50.9215418" lon="6.9640463">
      <ele>142.6</ele>
      <time>2019-05-31T12:31:14Z</time>
    </trkpt>
    <trkpt lat="50.9215469" lon="6.9641160">
      <ele>143.8</ele>
      <time>2019-05-31T12:31:15Z</time>
    </trkpt>
    <trkpt lat="50.9215685" lon="6.9643493">
      <ele>146.8</ele>
      <time>2019-05-31T12:31:18Z</time>
    </trkpt>
    <trkpt lat="50.9215749" lon="6.9647012">
      <ele>148.0</ele>
      <time>2019-05-31T12:31:22Z</time>
    </trkpt>
    <trkpt lat="50.9215824" lon="6.9647908">
      <ele>148.4</ele>
      <time>2019-05-31T12:31:23Z</time>
    </trkpt>
    <trkpt lat="50.9216019" lon="6.9649712">
      <ele>148.8</ele>
      <time>2019-05-31T12:31:25Z</time>
    </trkpt>
    <trkpt lat="50.9216169" lon="6.9653309">
      <ele>149.8</ele>
      <time>2019-05-31T12:31:29Z</time>
    </trkpt>
    <trkpt lat="50.9216885" lon="6.9656224">
      <ele>147.6</ele>
      <time>2019-05-31T12:31:32Z</time>
    </trkpt>
    <trkpt lat="50.9217376" lon="6.9657188">
      <ele>145.2</ele>
      <time>2019-05-31T12:31:33Z</time>
    </trkpt>
    <trkpt lat="50.9219080" lon="6.9660095">
      <ele>130.4</ele>
      <time>2019-05-31T12:31:36Z</time>
    </trkpt>
    <trkpt lat="50.9220364" lon="6.9661034">
      <ele>114.2</ele>
      <time>2019-05-31T12:31:37Z</time>
    </trkpt>
    <trkpt lat="50.9221664" lon="6.9662870">
      <ele>104.8</ele>
      <time>2019-05-31T12:31:39Z</time>
    </trkpt>
    <trkpt lat="50.9221640" lon="6.9663854">
      <ele>103.2</ele>
      <time>2019-05-31T12:31:40Z</time>
    </trkpt>
    <trkpt lat="50.9221562" lon="6.9664867">
      <ele>101.6</ele>
      <time>2019-05-31T12:31:41Z</time>
    </trkpt>
    <trkpt lat="50.9219865" lon="6.9669011">
      <ele>92.2</ele>
      <time>2019-05-31T12:31:45Z</time>
    </trkpt>
    <trkpt lat="50.9219353" lon="6.9673158">
      <ele>74.0</ele>
      <time>2019-05-31T12:31:56Z</time>
    </trkpt>
    <trkpt lat="50.9219313" lon="6.9673107">
      <ele>73.6</ele>
      <time>2019-05-31T12:31:57Z</time>
    </trkpt>
    <trkpt lat="50.9219247" lon="6.9673023">
      <ele>73.2</ele>
      <time>2019-05-31T12:31:58Z</time>
    </trkpt>
    <trkpt lat="50.9219247" lon="6.9673023">
      <ele>73.2</ele>
      <time>2019-05-31T12:31:59Z</time>
    </trkpt>
    <trkpt lat="50.9219213" lon="6.9672960">
      <ele>73.0</ele>
      <time>2019-05-31T12:32:00Z</time>
    </trkpt>
    <trkpt lat="50.9219251" lon="6.9672905">
      <ele>73.0</ele>
      <time>2019-05-31T12:32:01Z</time>
    </trkpt>
    <trkpt lat="50.9219500" lon="6.9672854">
      <ele>71.8</ele>
      <time>2019-05-31T12:32:03Z</time>
    </trkpt>
    <trkpt lat="50.9222071" lon="6.9671821">
      <ele>66.0</ele>
      <time>2019-05-31T12:32:10Z</time>
    </trkpt>
    <trkpt lat="50.9224357" lon="6.9670062">
      <ele>64.2</ele>
      <time>2019-05-31T12:32:15Z</time>
    </trkpt>
    <trkpt lat="50.9227736" lon="6.9668463">
      <ele>63.8</ele>
      <time>2019-05-31T12:32:33Z</time>
    </trkpt>
    <trkpt lat="50.9227746" lon="6.9668457">
      <ele>63.8</ele>
      <time>2019-05-31T12:32:36Z</time>
    </trkpt>
    <trkpt lat="50.9227779" lon="6.9668443">
      <ele>63.8</ele>
      <time>2019-05-31T12:32:39Z</time>
    </trkpt>
    <trkpt lat="50.9227802" lon="6.9668440">
      <ele>63.8</ele>
      <time>2019-05-31T12:32:41Z</time>
    </trkpt>
    <trkpt lat="50.9227953" lon="6.9668900">
      <ele>63.8</ele>
      <time>2019-05-31T12:32:47Z</time>
    </trkpt>
    <trkpt lat="50.9229052" lon="6.9671863">
      <ele>63.8</ele>
      <time>2019-05-31T12:32:54Z</time>
    </trkpt>
    <trkpt lat="50.9232499" lon="6.9670008">
      <ele>63.8</ele>
      <time>2019-05-31T12:33:02Z</time>
    </trkpt>
    <trkpt lat="50.9234843" lon="6.9668874">
      <ele>63.2</ele>
      <time>2019-05-31T12:33:06Z</time>
    </trkpt>
    <trkpt lat="50.9235380" lon="6.9668393">
      <ele>63.0</ele>
      <time>2019-05-31T12:33:07Z</time>
    </trkpt>
    <trkpt lat="50.9236479" lon="6.9667306">
      <ele>62.8</ele>
      <time>2019-05-31T12:33:09Z</time>
    </trkpt>
    <trkpt lat="50.9237034" lon="6.9666893">
      <ele>62.8</ele>
      <time>2019-05-31T12:33:10Z</time>
    </trkpt>
    <trkpt lat="50.9241476" lon="6.9664557">
      <ele>62.6</ele>
      <time>2019-05-31T12:33:17Z</time>
    </trkpt>
    <trkpt lat="50.9246439" lon="6.9660501">
      <ele>62.0</ele>
      <time>2019-05-31T12:33:25Z</time>
    </trkpt>
    <trkpt lat="50.9251556" lon="6.9655916">
      <ele>60.8</ele>
      <time>2019-05-31T12:33:35Z</time>
    </trkpt>
    <trkpt lat="50.9252378" lon="6.9655305">
      <ele>60.4</ele>
      <time>2019-05-31T12:33:37Z</time>
    </trkpt>
    <trkpt lat="50.9255428" lon="6.9654794">
      <ele>58.8</ele>
      <time>2019-05-31T12:33:48Z</time>
    </trkpt>
    <trkpt lat="50.9256004" lon="6.9653672">
      <ele>58.4</ele>
      <time>2019-05-31T12:33:51Z</time>
    </trkpt>
    <trkpt lat="50.9256131" lon="6.9652475">
      <ele>58.4</ele>
      <time>2019-05-31T12:33:54Z</time>
    </trkpt>
    <trkpt lat="50.9261006" lon="6.9648499">
      <ele>56.4</ele>
      <time>2019-05-31T12:34:06Z</time>
    </trkpt>
    <trkpt lat="50.9265849" lon="6.9644184">
      <ele>56.8</ele>
      <time>2019-05-31T12:34:16Z</time>
    </trkpt>
    <trkpt lat="50.9270208" lon="6.9638178">
      <ele>63.8</ele>
      <time>2019-05-31T12:34:28Z</time>
    </trkpt>
    <trkpt lat="50.9275260" lon="6.9633749">
      <ele>65.4</ele>
      <time>2019-05-31T12:34:39Z</time>
    </trkpt>
    <trkpt lat="50.9280729" lon="6.9631406">
      <ele>67.6</ele>
      <time>2019-05-31T12:34:50Z</time>
    </trkpt>
    <trkpt lat="50.9282134" lon="6.9631124">
      <ele>68.6</ele>
      <time>2019-05-31T12:34:53Z</time>
    </trkpt>
    <trkpt lat="50.9283696" lon="6.9630634">
      <ele>67.8</ele>
      <time>2019-05-31T12:34:56Z</time>
    </trkpt>
    <trkpt lat="50.9284289" lon="6.9630511">
      <ele>66.6</ele>
      <time>2019-05-31T12:34:57Z</time>
    </trkpt>
    <trkpt lat="50.9284850" lon="6.9630445">
      <ele>65.2</ele>
      <time>2019-05-31T12:34:58Z</time>
    </trkpt>
    <trkpt lat="50.9290368" lon="6.9629005">
      <ele>66.8</ele>
      <time>2019-05-31T12:35:09Z</time>
    </trkpt>
    <trkpt lat="50.9293018" lon="6.9628748">
      <ele>71.0</ele>
      <time>2019-05-31T12:35:15Z</time>
    </trkpt>
    <trkpt lat="50.9298806" lon="6.9628639">
      <ele>68.8</ele>
      <time>2019-05-31T12:35:26Z</time>
    </trkpt>
    <trkpt lat="50.9300238" lon="6.9628444">
      <ele>67.4</ele>
      <time>2019-05-31T12:35:29Z</time>
    </trkpt>
    <trkpt lat="50.9302572" lon="6.9628487">
      <ele>66.2</ele>
      <time>2019-05-31T12:35:34Z</time>
    </trkpt>
    <trkpt lat="50.9308271" lon="6.9627781">
      <ele>60.6</ele>
      <time>2019-05-31T12:35:44Z</time>
    </trkpt>
    <trkpt lat="50.9312379" lon="6.9626776">
      <ele>67.0</ele>
      <time>2019-05-31T12:35:52Z</time>
    </trkpt>
    <trkpt lat="50.9312923" lon="6.9626779">
      <ele>68.0</ele>
      <time>2019-05-31T12:35:53Z</time>
    </trkpt>
    <trkpt lat="50.9317752" lon="6.9628883">
      <ele>50.4</ele>
      <time>2019-05-31T12:36:00Z</time>
    </trkpt>
    <trkpt lat="50.9323040" lon="6.9631171">
      <ele>40.8</ele>
      <time>2019-05-31T12:36:09Z</time>
    </trkpt>
    <trkpt lat="50.9328551" lon="6.9632625">
      <ele>36.6</ele>
      <time>2019-05-31T12:36:19Z</time>
    </trkpt>
    <trkpt lat="50.9333983" lon="6.9633696">
      <ele>36.0</ele>
      <time>2019-05-31T12:36:28Z</time>
    </trkpt>
    <trkpt lat="50.9336503" lon="6.9633962">
      <ele>34.6</ele>
      <time>2019-05-31T12:36:32Z</time>
    </trkpt>
    <trkpt lat="50.9342228" lon="6.9633861">
      <ele>30.8</ele>
      <time>2019-05-31T12:36:41Z</time>
    </trkpt>
    <trkpt lat="50.9343445" lon="6.9633796">
      <ele>30.8</ele>
      <time>2019-05-31T12:36:43Z</time>
    </trkpt>
    <trkpt lat="50.9344684" lon="6.9633742">
      <ele>30.4</ele>
      <time>2019-05-31T12:36:45Z</time>
    </trkpt>
    <trkpt lat="50.9346398" lon="6.9633495">
      <ele>30.6</ele>
      <time>2019-05-31T12:36:48Z</time>
    </trkpt>
    <trkpt lat="50.9346925" lon="6.9633424">
      <ele>30.4</ele>
      <time>2019-05-31T12:36:49Z</time>
    </trkpt>
    <trkpt lat="50.9348977" lon="6.9633822">
      <ele>30.6</ele>
      <time>2019-05-31T12:36:55Z</time>
    </trkpt>
    <trkpt lat="50.9349562" lon="6.9633871">
      <ele>30.8</ele>
      <time>2019-05-31T12:36:57Z</time>
    </trkpt>
    <trkpt lat="50.9349918" lon="6.9633882">
      <ele>30.6</ele>
      <time>2019-05-31T12:36:58Z</time>
    </trkpt>
    <trkpt lat="50.9351112" lon="6.9633823">
      <ele>29.0</ele>
      <time>2019-05-31T12:37:01Z</time>
    </trkpt>
    <trkpt lat="50.9351595" lon="6.9633891">
      <ele>29.4</ele>
      <time>2019-05-31T12:37:02Z</time>
    </trkpt>
    <trkpt lat="50.9352083" lon="6.9633987">
      <ele>29.4</ele>
      <time>2019-05-31T12:37:03Z</time>
    </trkpt>
    <trkpt lat="50.9352530" lon="6.9634066">
      <ele>29.6</ele>
      <time>2019-05-31T12:37:04Z</time>
    </trkpt>
    <trkpt lat="50.9352917" lon="6.9634132">
      <ele>29.4</ele>
      <time>2019-05-31T12:37:05Z</time>
    </trkpt>
    <trkpt lat="50.9353621" lon="6.9634215">
      <ele>28.8</ele>
      <time>2019-05-31T12:37:07Z</time>
    </trkpt>
    <trkpt lat="50.9355265" lon="6.9634018">
      <ele>28.8</ele>
      <time>2019-05-31T12:37:11Z</time>
    </trkpt>
    <trkpt lat="50.9356165" lon="6.9634066">
      <ele>29.2</ele>
      <time>2019-05-31T12:37:13Z</time>
    </trkpt>
    <trkpt lat="50.9356633" lon="6.9633949">
      <ele>29.8</ele>
      <time>2019-05-31T12:37:14Z</time>
    </trkpt>
    <trkpt lat="50.9357592" lon="6.9633964">
      <ele>30.2</ele>
      <time>2019-05-31T12:37:16Z</time>
    </trkpt>
    <trkpt lat="50.9359617" lon="6.9634381">
      <ele>30.8</ele>
      <time>2019-05-31T12:37:20Z</time>
    </trkpt>
    <trkpt lat="50.9360142" lon="6.9634448">
      <ele>30.8</ele>
      <time>2019-05-31T12:37:21Z</time>
    </trkpt>
    <trkpt lat="50.9361093" lon="6.9634475">
      <ele>31.2</ele>
      <time>2019-05-31T12:37:23Z</time>
    </trkpt>
    <trkpt lat="50.9361523" lon="6.9634550">
      <ele>31.0</ele>
      <time>2019-05-31T12:37:24Z</time>
    </trkpt>
    <trkpt lat="50.9361906" lon="6.9634683">
      <ele>30.8</ele>
      <time>2019-05-31T12:37:25Z</time>
    </trkpt>
    <trkpt lat="50.9363201" lon="6.9634347">
      <ele>24.4</ele>
      <time>2019-05-31T12:37:29Z</time>
    </trkpt>
    <trkpt lat="50.9366141" lon="6.9633948">
      <ele>27.8</ele>
      <time>2019-05-31T12:37:39Z</time>
    </trkpt>
    <trkpt lat="50.9366674" lon="6.9633492">
      <ele>28.4</ele>
      <time>2019-05-31T12:37:42Z</time>
    </trkpt>
    <trkpt lat="50.9369197" lon="6.9632839">
      <ele>28.2</ele>
      <time>2019-05-31T12:37:49Z</time>
    </trkpt>
    <trkpt lat="50.9370091" lon="6.9633050">
      <ele>30.4</ele>
      <time>2019-05-31T12:37:51Z</time>
    </trkpt>
    <trkpt lat="50.9372676" lon="6.9633324">
      <ele>32.8</ele>
      <time>2019-05-31T12:37:57Z</time>
    </trkpt>
    <trkpt lat="50.9373535" lon="6.9633062">
      <ele>33.2</ele>
      <time>2019-05-31T12:37:59Z</time>
    </trkpt>
    <trkpt lat="50.9377832" lon="6.9630069">
      <ele>39.6</ele>
      <time>2019-05-31T12:38:16Z</time>
    </trkpt>
    <trkpt lat="50.9383000" lon="6.9630444">
      <ele>36.2</ele>
      <time>2019-05-31T12:38:33Z</time>
    </trkpt>
    <trkpt lat="50.9383309" lon="6.9630479">
      <ele>36.6</ele>
      <time>2019-05-31T12:38:34Z</time>
    </trkpt>
    <trkpt lat="50.9383895" lon="6.9630527">
      <ele>37.6</ele>
      <time>2019-05-31T12:38:36Z</time>
    </trkpt>
    <trkpt lat="50.9384470" lon="6.9630263">
      <ele>37.8</ele>
      <time>2019-05-31T12:38:38Z</time>
    </trkpt>
    <trkpt lat="50.9385056" lon="6.9630120">
      <ele>38.6</ele>
      <time>2019-05-31T12:38:40Z</time>
    </trkpt>
    <trkpt lat="50.9385301" lon="6.9630246">
      <ele>39.0</ele>
      <time>2019-05-31T12:38:41Z</time>
    </trkpt>
    <trkpt lat="50.9385733" lon="6.9630445">
      <ele>39.2</ele>
      <time>2019-05-31T12:38:43Z</time>
    </trkpt>
    <trkpt lat="50.9388337" lon="6.9630070">
      <ele>37.8</ele>
      <time>2019-05-31T12:38:49Z</time>
    </trkpt>
    <trkpt lat="50.9389369" lon="6.9629721">
      <ele>37.0</ele>
      <time>2019-05-31T12:38:51Z</time>
    </trkpt>
    <trkpt lat="50.9389871" lon="6.9629570">
      <ele>36.4</ele>
      <time>2019-05-31T12:38:52Z</time>
    </trkpt>
    <trkpt lat="50.9390346" lon="6.9629371">
      <ele>35.4</ele>
      <time>2019-05-31T12:38:53Z</time>
    </trkpt>
    <trkpt lat="50.9391268" lon="6.9629159">
      <ele>33.2</ele>
      <time>2019-05-31T12:38:55Z</time>
    </trkpt>
    <trkpt lat="50.9395079" lon="6.9628983">
      <ele>30.4</ele>
      <time>2019-05-31T12:39:02Z</time>
    </trkpt>
    <trkpt lat="50.9396194" lon="6.9628863">
      <ele>30.4</ele>
      <time>2019-05-31T12:39:04Z</time>
    </trkpt>
    <trkpt lat="50.9396769" lon="6.9628713">
      <ele>30.0</ele>
      <time>2019-05-31T12:39:05Z</time>
    </trkpt>
    <trkpt lat="50.9398369" lon="6.9628490">
      <ele>30.2</ele>
      <time>2019-05-31T12:39:08Z</time>
    </trkpt>
    <trkpt lat="50.9403846" lon="6.9628639">
      <ele>25.0</ele>
      <time>2019-05-31T12:39:23Z</time>
    </trkpt>
    <trkpt lat="50.9408617" lon="6.9628928">
      <ele>30.2</ele>
      <time>2019-05-31T12:39:32Z</time>
    </trkpt>
    <trkpt lat="50.9411402" lon="6.9629119">
      <ele>30.6</ele>
      <time>2019-05-31T12:39:37Z</time>
    </trkpt>
    <trkpt lat="50.9416623" lon="6.9629115">
      <ele>30.4</ele>
      <time>2019-05-31T12:39:51Z</time>
    </trkpt>
    <trkpt lat="50.9420647" lon="6.9628300">
      <ele>37.4</ele>
      <time>2019-05-31T12:40:03Z</time>
    </trkpt>
    <trkpt lat="50.9422173" lon="6.9627704">
      <ele>37.0</ele>
      <time>2019-05-31T12:40:12Z</time>
    </trkpt>
    <trkpt lat="50.9428175" lon="6.9628496">
      <ele>35.0</ele>
      <time>2019-05-31T12:40:24Z</time>
    </trkpt>
    <trkpt lat="50.9433850" lon="6.9629321">
      <ele>34.8</ele>
      <time>2019-05-31T12:40:31Z</time>
    </trkpt>
    <trkpt lat="50.9438379" lon="6.9630259">
      <ele>37.0</ele>
      <time>2019-05-31T12:40:36Z</time>
    </trkpt>
    <trkpt lat="50.9441153" lon="6.9631029">
      <ele>39.0</ele>
      <time>2019-05-31T12:40:39Z</time>
    </trkpt>
    <trkpt lat="50.9442938" lon="6.9631515">
      <ele>38.6</ele>
      <time>2019-05-31T12:40:41Z</time>
    </trkpt>
    <trkpt lat="50.9446492" lon="6.9632545">
      <ele>40.6</ele>
      <time>2019-05-31T12:40:45Z</time>
    </trkpt>
    <trkpt lat="50.9451149" lon="6.9633891">
      <ele>46.0</ele>
      <time>2019-05-31T12:40:51Z</time>
    </trkpt>
    <trkpt lat="50.9451861" lon="6.9634128">
      <ele>45.4</ele>
      <time>2019-05-31T12:40:52Z</time>
    </trkpt>
    <trkpt lat="50.9453381" lon="6.9634402">
      <ele>45.6</ele>
      <time>2019-05-31T12:40:54Z</time>
    </trkpt>
    <trkpt lat="50.9454993" lon="6.9634784">
      <ele>45.2</ele>
      <time>2019-05-31T12:40:57Z</time>
    </trkpt>
    <trkpt lat="50.9455401" lon="6.9634979">
      <ele>44.8</ele>
      <time>2019-05-31T12:40:58Z</time>
    </trkpt>
    <trkpt lat="50.9455880" lon="6.9635163">
      <ele>45.0</ele>
      <time>2019-05-31T12:40:59Z</time>
    </trkpt>
    <trkpt lat="50.9456896" lon="6.9635603">
      <ele>45.2</ele>
      <time>2019-05-31T12:41:01Z</time>
    </trkpt>
    <trkpt lat="50.9457463" lon="6.9635863">
      <ele>44.6</ele>
      <time>2019-05-31T12:41:02Z</time>
    </trkpt>
    <trkpt lat="50.9458069" lon="6.9636133">
      <ele>44.2</ele>
      <time>2019-05-31T12:41:03Z</time>
    </trkpt>
    <trkpt lat="50.9459926" lon="6.9637001">
      <ele>43.8</ele>
      <time>2019-05-31T12:41:06Z</time>
    </trkpt>
    <trkpt lat="50.9461162" lon="6.9637700">
      <ele>42.8</ele>
      <time>2019-05-31T12:41:08Z</time>
    </trkpt>
    <trkpt lat="50.9462370" lon="6.9638340">
      <ele>42.2</ele>
      <time>2019-05-31T12:41:10Z</time>
    </trkpt>
    <trkpt lat="50.9463467" lon="6.9638926">
      <ele>42.4</ele>
      <time>2019-05-31T12:41:12Z</time>
    </trkpt>
    <trkpt lat="50.9463958" lon="6.9639121">
      <ele>42.4</ele>
      <time>2019-05-31T12:41:13Z</time>
    </trkpt>
    <trkpt lat="50.9468040" lon="6.9641169">
      <ele>41.4</ele>
      <time>2019-05-31T12:41:22Z</time>
    </trkpt>
    <trkpt lat="50.9473165" lon="6.9644372">
      <ele>40.0</ele>
      <time>2019-05-31T12:41:30Z</time>
    </trkpt>
    <trkpt lat="50.9476613" lon="6.9646544">
      <ele>39.8</ele>
      <time>2019-05-31T12:41:35Z</time>
    </trkpt>
    <trkpt lat="50.9481898" lon="6.9650188">
      <ele>39.8</ele>
      <time>2019-05-31T12:41:43Z</time>
    </trkpt>
    <trkpt lat="50.9487121" lon="6.9653984">
      <ele>40.0</ele>
      <time>2019-05-31T12:41:51Z</time>
    </trkpt>
    <trkpt lat="50.9489625" lon="6.9655946">
      <ele>40.8</ele>
      <time>2019-05-31T12:41:55Z</time>
    </trkpt>
    <trkpt lat="50.9494593" lon="6.9659505">
      <ele>40.6</ele>
      <time>2019-05-31T12:42:03Z</time>
    </trkpt>
    <trkpt lat="50.9496388" lon="6.9660965">
      <ele>40.8</ele>
      <time>2019-05-31T12:42:06Z</time>
    </trkpt>
    <trkpt lat="50.9498756" lon="6.9663067">
      <ele>41.2</ele>
      <time>2019-05-31T12:42:10Z</time>
    </trkpt>
    <trkpt lat="50.9503508" lon="6.9667287">
      <ele>41.4</ele>
      <time>2019-05-31T12:42:18Z</time>
    </trkpt>
    <trkpt lat="50.9508256" lon="6.9671899">
      <ele>41.4</ele>
      <time>2019-05-31T12:42:26Z</time>
    </trkpt>
    <trkpt lat="50.9508871" lon="6.9672447">
      <ele>41.6</ele>
      <time>2019-05-31T12:42:27Z</time>
    </trkpt>
    <trkpt lat="50.9509458" lon="6.9673017">
      <ele>41.4</ele>
      <time>2019-05-31T12:42:28Z</time>
    </trkpt>
    <trkpt lat="50.9512957" lon="6.9676488">
      <ele>41.4</ele>
      <time>2019-05-31T12:42:34Z</time>
    </trkpt>
    <trkpt lat="50.9517427" lon="6.9681315">
      <ele>41.4</ele>
      <time>2019-05-31T12:42:42Z</time>
    </trkpt>
    <trkpt lat="50.9521662" lon="6.9686164">
      <ele>41.2</ele>
      <time>2019-05-31T12:42:50Z</time>
    </trkpt>
    <trkpt lat="50.9525119" lon="6.9689906">
      <ele>40.6</ele>
      <time>2019-05-31T12:42:57Z</time>
    </trkpt>
    <trkpt lat="50.9527051" lon="6.9692025">
      <ele>40.2</ele>
      <time>2019-05-31T12:43:01Z</time>
    </trkpt>
    <trkpt lat="50.9531373" lon="6.9697469">
      <ele>39.8</ele>
      <time>2019-05-31T12:43:10Z</time>
    </trkpt>
    <trkpt lat="50.9535058" lon="6.9702183">
      <ele>39.8</ele>
      <time>2019-05-31T12:43:18Z</time>
    </trkpt>
    <trkpt lat="50.9539360" lon="6.9707939">
      <ele>39.8</ele>
      <time>2019-05-31T12:43:28Z</time>
    </trkpt>
    <trkpt lat="50.9541601" lon="6.9710889">
      <ele>39.2</ele>
      <time>2019-05-31T12:43:33Z</time>
    </trkpt>
    <trkpt lat="50.9546012" lon="6.9717277">
      <ele>38.6</ele>
      <time>2019-05-31T12:43:43Z</time>
    </trkpt>
    <trkpt lat="50.9550041" lon="6.9723456">
      <ele>37.8</ele>
      <time>2019-05-31T12:43:52Z</time>
    </trkpt>
    <trkpt lat="50.9553026" lon="6.9728127">
      <ele>37.2</ele>
      <time>2019-05-31T12:43:59Z</time>
    </trkpt>
    <trkpt lat="50.9556989" lon="6.9734725">
      <ele>37.0</ele>
      <time>2019-05-31T12:44:09Z</time>
    </trkpt>
    <trkpt lat="50.9560583" lon="6.9740418">
      <ele>36.8</ele>
      <time>2019-05-31T12:44:19Z</time>
    </trkpt>
    <trkpt lat="50.9561179" lon="6.9741474">
      <ele>36.8</ele>
      <time>2019-05-31T12:44:21Z</time>
    </trkpt>
    <trkpt lat="50.9561945" lon="6.9742533">
      <ele>36.8</ele>
      <time>2019-05-31T12:44:25Z</time>
    </trkpt>
    <trkpt lat="50.9562103" lon="6.9742495">
      <ele>36.4</ele>
      <time>2019-05-31T12:44:27Z</time>
    </trkpt>
    <trkpt lat="50.9562108" lon="6.9742554">
      <ele>36.2</ele>
      <time>2019-05-31T12:44:34Z</time>
    </trkpt>
    <trkpt lat="50.9562108" lon="6.9742554">
      <ele>36.2</ele>
      <time>2019-05-31T12:44:54Z</time>
    </trkpt>
    <trkpt lat="50.9562108" lon="6.9742554">
      <ele>36.2</ele>
      <time>2019-05-31T12:44:59Z</time>
    </trkpt>
    <trkpt lat="50.9562108" lon="6.9742554">
      <ele>36.2</ele>
      <time>2019-05-31T12:45:04Z</time>
    </trkpt>
    <trkpt lat="50.9562108" lon="6.9742554">
      <ele>36.2</ele>
      <time>2019-05-31T12:45:11Z</time>
    </trkpt>
    <trkpt lat="50.9562108" lon="6.9742554">
      <ele>36.2</ele>
      <time>2019-05-31T12:45:23Z</time>
    </trkpt>
    <trkpt lat="50.9562108" lon="6.9742554">
      <ele>36.2</ele>
      <time>2019-05-31T12:45:34Z</time>
    </trkpt>
    <trkpt lat="50.9562307" lon="6.9742326">
      <ele>36.2</ele>
      <time>2019-05-31T12:45:37Z</time>
    </trkpt>
    <trkpt lat="50.9562643" lon="6.9741978">
      <ele>35.8</ele>
      <time>2019-05-31T12:45:39Z</time>
    </trkpt>
    <trkpt lat="50.9563217" lon="6.9741043">
      <ele>35.4</ele>
      <time>2019-05-31T12:45:42Z</time>
    </trkpt>
    <trkpt lat="50.9564015" lon="6.9739922">
      <ele>34.8</ele>
      <time>2019-05-31T12:45:45Z</time>
    </trkpt>
    <trkpt lat="50.9564806" lon="6.9737627">
      <ele>35.0</ele>
      <time>2019-05-31T12:45:49Z</time>
    </trkpt>
    <trkpt lat="50.9565946" lon="6.9735092">
      <ele>34.8</ele>
      <time>2019-05-31T12:45:54Z</time>
    </trkpt>
    <trkpt lat="50.9566865" lon="6.9733226">
      <ele>34.6</ele>
      <time>2019-05-31T12:45:58Z</time>
    </trkpt>
    <trkpt lat="50.9567162" lon="6.9732937">
      <ele>34.6</ele>
      <time>2019-05-31T12:45:59Z</time>
    </trkpt>
    <trkpt lat="50.9567463" lon="6.9732893">
      <ele>34.8</ele>
      <time>2019-05-31T12:46:00Z</time>
    </trkpt>
    <trkpt lat="50.9567968" lon="6.9733309">
      <ele>35.0</ele>
      <time>2019-05-31T12:46:01Z</time>
    </trkpt>
    <trkpt lat="50.9567968" lon="6.9733309">
      <ele>35.0</ele>
      <time>2019-05-31T12:46:02Z</time>
    </trkpt>
    <trkpt lat="50.9568122" lon="6.9733726">
      <ele>35.0</ele>
      <time>2019-05-31T12:46:03Z</time>
    </trkpt>
    <trkpt lat="50.9568298" lon="6.9734110">
      <ele>35.0</ele>
      <time>2019-05-31T12:46:04Z</time>
    </trkpt>
    <trkpt lat="50.9568517" lon="6.9734481">
      <ele>35.0</ele>
      <time>2019-05-31T12:46:05Z</time>
    </trkpt>
    <trkpt lat="50.9569339" lon="6.9735138">
      <ele>35.0</ele>
      <time>2019-05-31T12:46:08Z</time>
    </trkpt>
    <trkpt lat="50.9570106" lon="6.9734833">
      <ele>35.0</ele>
      <time>2019-05-31T12:46:11Z</time>
    </trkpt>
    <trkpt lat="50.9570479" lon="6.9734215">
      <ele>35.0</ele>
      <time>2019-05-31T12:46:13Z</time>
    </trkpt>
    <trkpt lat="50.9570701" lon="6.9731643">
      <ele>34.4</ele>
      <time>2019-05-31T12:46:19Z</time>
    </trkpt>
    <trkpt lat="50.9570333" lon="6.9730919">
      <ele>33.8</ele>
      <time>2019-05-31T12:46:21Z</time>
    </trkpt>
    <trkpt lat="50.9569635" lon="6.9730018">
      <ele>33.4</ele>
      <time>2019-05-31T12:46:24Z</time>
    </trkpt>
    <trkpt lat="50.9569376" lon="6.9729840">
      <ele>33.4</ele>
      <time>2019-05-31T12:46:25Z</time>
    </trkpt>
    <trkpt lat="50.9569106" lon="6.9729673">
      <ele>33.4</ele>
      <time>2019-05-31T12:46:26Z</time>
    </trkpt>
    <trkpt lat="50.9568649" lon="6.9729254">
      <ele>33.6</ele>
      <time>2019-05-31T12:46:27Z</time>
    </trkpt>
    <trkpt lat="50.9568649" lon="6.9729254">
      <ele>33.6</ele>
      <time>2019-05-31T12:46:28Z</time>
    </trkpt>
    <trkpt lat="50.9568431" lon="6.9729068">
      <ele>34.0</ele>
      <time>2019-05-31T12:46:29Z</time>
    </trkpt>
    <trkpt lat="50.9568193" lon="6.9728886">
      <ele>34.0</ele>
      <time>2019-05-31T12:46:30Z</time>
    </trkpt>
    <trkpt lat="50.9567986" lon="6.9728694">
      <ele>34.2</ele>
      <time>2019-05-31T12:46:31Z</time>
    </trkpt>
    <trkpt lat="50.9567047" lon="6.9728270">
      <ele>35.2</ele>
      <time>2019-05-31T12:46:35Z</time>
    </trkpt>
    <trkpt lat="50.9565467" lon="6.9728187">
      <ele>36.8</ele>
      <time>2019-05-31T12:46:41Z</time>
    </trkpt>
    <trkpt lat="50.9562438" lon="6.9730728">
      <ele>38.8</ele>
      <time>2019-05-31T12:46:51Z</time>
    </trkpt>
    <trkpt lat="50.9558878" lon="6.9736095">
      <ele>42.2</ele>
      <time>2019-05-31T12:47:04Z</time>
    </trkpt>
    <trkpt lat="50.9555136" lon="6.9741397">
      <ele>45.8</ele>
      <time>2019-05-31T12:47:27Z</time>
    </trkpt>
    <trkpt lat="50.9554516" lon="6.9742437">
      <ele>46.6</ele>
      <time>2019-05-31T12:47:36Z</time>
    </trkpt>
    <trkpt lat="50.9552286" lon="6.9745939">
      <ele>46.6</ele>
      <time>2019-05-31T12:47:44Z</time>
    </trkpt>
    <trkpt lat="50.9550405" lon="6.9748805">
      <ele>46.8</ele>
      <time>2019-05-31T12:47:50Z</time>
    </trkpt>
    <trkpt lat="50.9546623" lon="6.9754635">
      <ele>47.2</ele>
      <time>2019-05-31T12:48:02Z</time>
    </trkpt>
    <trkpt lat="50.9542579" lon="6.9761232">
      <ele>47.0</ele>
      <time>2019-05-31T12:48:15Z</time>
    </trkpt>
    <trkpt lat="50.9540091" lon="6.9765254">
      <ele>48.0</ele>
      <time>2019-05-31T12:48:23Z</time>
    </trkpt>
    <trkpt lat="50.9536092" lon="6.9771524">
      <ele>46.8</ele>
      <time>2019-05-31T12:48:35Z</time>
    </trkpt>
    <trkpt lat="50.9533976" lon="6.9774907">
      <ele>46.4</ele>
      <time>2019-05-31T12:48:41Z</time>
    </trkpt>
    <trkpt lat="50.9532667" lon="6.9776963">
      <ele>46.6</ele>
      <time>2019-05-31T12:48:45Z</time>
    </trkpt>
    <trkpt lat="50.9531678" lon="6.9778634">
      <ele>46.4</ele>
      <time>2019-05-31T12:48:48Z</time>
    </trkpt>
    <trkpt lat="50.9528638" lon="6.9783700">
      <ele>45.8</ele>
      <time>2019-05-31T12:48:56Z</time>
    </trkpt>
    <trkpt lat="50.9526737" lon="6.9786811">
      <ele>46.0</ele>
      <time>2019-05-31T12:49:01Z</time>
    </trkpt>
    <trkpt lat="50.9525606" lon="6.9788566">
      <ele>46.0</ele>
      <time>2019-05-31T12:49:04Z</time>
    </trkpt>
    <trkpt lat="50.9524563" lon="6.9790217">
      <ele>45.8</ele>
      <time>2019-05-31T12:49:07Z</time>
    </trkpt>
    <trkpt lat="50.9520491" lon="6.9796627">
      <ele>44.6</ele>
      <time>2019-05-31T12:49:20Z</time>
    </trkpt>
    <trkpt lat="50.9519477" lon="6.9798275">
      <ele>44.4</ele>
      <time>2019-05-31T12:49:23Z</time>
    </trkpt>
    <trkpt lat="50.9518388" lon="6.9799932">
      <ele>44.2</ele>
      <time>2019-05-31T12:49:26Z</time>
    </trkpt>
    <trkpt lat="50.9514501" lon="6.9805990">
      <ele>43.8</ele>
      <time>2019-05-31T12:49:37Z</time>
    </trkpt>
    <trkpt lat="50.9510414" lon="6.9812351">
      <ele>44.6</ele>
      <time>2019-05-31T12:49:49Z</time>
    </trkpt>
    <trkpt lat="50.9508474" lon="6.9815469">
      <ele>45.0</ele>
      <time>2019-05-31T12:49:55Z</time>
    </trkpt>
    <trkpt lat="50.9505432" lon="6.9820341">
      <ele>45.6</ele>
      <time>2019-05-31T12:50:04Z</time>
    </trkpt>
    <trkpt lat="50.9504780" lon="6.9821320">
      <ele>45.6</ele>
      <time>2019-05-31T12:50:06Z</time>
    </trkpt>
    <trkpt lat="50.9503800" lon="6.9822766">
      <ele>45.8</ele>
      <time>2019-05-31T12:50:09Z</time>
    </trkpt>
    <trkpt lat="50.9501802" lon="6.9825716">
      <ele>46.0</ele>
      <time>2019-05-31T12:50:15Z</time>
    </trkpt>
    <trkpt lat="50.9499821" lon="6.9828719">
      <ele>47.0</ele>
      <time>2019-05-31T12:50:21Z</time>
    </trkpt>
    <trkpt lat="50.9495645" lon="6.9834370">
      <ele>48.6</ele>
      <time>2019-05-31T12:50:34Z</time>
    </trkpt>
    <trkpt lat="50.9491198" lon="6.9839750">
      <ele>49.2</ele>
      <time>2019-05-31T12:50:47Z</time>
    </trkpt>
    <trkpt lat="50.9488815" lon="6.9842515">
      <ele>49.2</ele>
      <time>2019-05-31T12:50:54Z</time>
    </trkpt>
    <trkpt lat="50.9487291" lon="6.9844042">
      <ele>49.0</ele>
      <time>2019-05-31T12:50:58Z</time>
    </trkpt>
    <trkpt lat="50.9484855" lon="6.9846338">
      <ele>48.4</ele>
      <time>2019-05-31T12:51:04Z</time>
    </trkpt>
    <trkpt lat="50.9483567" lon="6.9847522">
      <ele>48.0</ele>
      <time>2019-05-31T12:51:07Z</time>
    </trkpt>
    <trkpt lat="50.9480295" lon="6.9850478">
      <ele>46.8</ele>
      <time>2019-05-31T12:51:14Z</time>
    </trkpt>
    <trkpt lat="50.9475684" lon="6.9855250">
      <ele>44.2</ele>
      <time>2019-05-31T12:51:23Z</time>
    </trkpt>
    <trkpt lat="50.9473771" lon="6.9858482">
      <ele>42.6</ele>
      <time>2019-05-31T12:51:28Z</time>
    </trkpt>
    <trkpt lat="50.9472798" lon="6.9861288">
      <ele>40.8</ele>
      <time>2019-05-31T12:51:32Z</time>
    </trkpt>
    <trkpt lat="50.9472318" lon="6.9863727">
      <ele>39.0</ele>
      <time>2019-05-31T12:51:36Z</time>
    </trkpt>
    <trkpt lat="50.9474835" lon="6.9859103">
      <ele>34.6</ele>
      <time>2019-05-31T12:51:49Z</time>
    </trkpt>
    <trkpt lat="50.9475132" lon="6.9859058">
      <ele>34.2</ele>
      <time>2019-05-31T12:51:51Z</time>
    </trkpt>
    <trkpt lat="50.9476141" lon="6.9859451">
      <ele>33.0</ele>
      <time>2019-05-31T12:51:57Z</time>
    </trkpt>
    <trkpt lat="50.9477365" lon="6.9859011">
      <ele>32.2</ele>
      <time>2019-05-31T12:52:01Z</time>
    </trkpt>
    <trkpt lat="50.9478167" lon="6.9859434">
      <ele>32.0</ele>
      <time>2019-05-31T12:52:03Z</time>
    </trkpt>
    <trkpt lat="50.9482935" lon="6.9863625">
      <ele>30.2</ele>
      <time>2019-05-31T12:52:15Z</time>
    </trkpt>
    <trkpt lat="50.9487003" lon="6.9866905">
      <ele>30.0</ele>
      <time>2019-05-31T12:52:25Z</time>
    </trkpt>
    <trkpt lat="50.9492118" lon="6.9871082">
      <ele>30.4</ele>
      <time>2019-05-31T12:52:37Z</time>
    </trkpt>
    <trkpt lat="50.9493253" lon="6.9872147">
      <ele>30.4</ele>
      <time>2019-05-31T12:52:40Z</time>
    </trkpt>
    <trkpt lat="50.9498226" lon="6.9876712">
      <ele>29.6</ele>
      <time>2019-05-31T12:52:52Z</time>
    </trkpt>
    <trkpt lat="50.9499939" lon="6.9878380">
      <ele>29.4</ele>
      <time>2019-05-31T12:52:56Z</time>
    </trkpt>
    <trkpt lat="50.9504103" lon="6.9881896">
      <ele>28.0</ele>
      <time>2019-05-31T12:53:12Z</time>
    </trkpt>
    <trkpt lat="50.9504297" lon="6.9882128">
      <ele>28.0</ele>
      <time>2019-05-31T12:53:15Z</time>
    </trkpt>
    <trkpt lat="50.9504533" lon="6.9882534">
      <ele>28.0</ele>
      <time>2019-05-31T12:53:17Z</time>
    </trkpt>
    <trkpt lat="50.9508529" lon="6.9885818">
      <ele>29.2</ele>
      <time>2019-05-31T12:53:29Z</time>
    </trkpt>
    <trkpt lat="50.9513608" lon="6.9890303">
      <ele>30.2</ele>
      <time>2019-05-31T12:53:40Z</time>
    </trkpt>
    <trkpt lat="50.9517220" lon="6.9893804">
      <ele>31.6</ele>
      <time>2019-05-31T12:53:50Z</time>
    </trkpt>
    <trkpt lat="50.9517173" lon="6.9894656">
      <ele>31.8</ele>
      <time>2019-05-31T12:53:51Z</time>
    </trkpt>
    <trkpt lat="50.9516253" lon="6.9898643">
      <ele>34.0</ele>
      <time>2019-05-31T12:53:59Z</time>
    </trkpt>
    <trkpt lat="50.9516026" lon="6.9899902">
      <ele>34.6</ele>
      <time>2019-05-31T12:54:01Z</time>
    </trkpt>
    <trkpt lat="50.9516268" lon="6.9901070">
      <ele>35.2</ele>
      <time>2019-05-31T12:54:03Z</time>
    </trkpt>
    <trkpt lat="50.9519765" lon="6.9906552">
      <ele>36.4</ele>
      <time>2019-05-31T12:54:16Z</time>
    </trkpt>
    <trkpt lat="50.9519532" lon="6.9909499">
      <ele>36.6</ele>
      <time>2019-05-31T12:54:21Z</time>
    </trkpt>
    <trkpt lat="50.9518628" lon="6.9915150">
      <ele>37.2</ele>
      <time>2019-05-31T12:54:28Z</time>
    </trkpt>
    <trkpt lat="50.9518487" lon="6.9915891">
      <ele>37.4</ele>
      <time>2019-05-31T12:54:29Z</time>
    </trkpt>
    <trkpt lat="50.9518691" lon="6.9917002">
      <ele>38.0</ele>
      <time>2019-05-31T12:54:31Z</time>
    </trkpt>
    <trkpt lat="50.9519267" lon="6.9917612">
      <ele>38.6</ele>
      <time>2019-05-31T12:54:33Z</time>
    </trkpt>
    <trkpt lat="50.9522225" lon="6.9919048">
      <ele>39.2</ele>
      <time>2019-05-31T12:54:40Z</time>
    </trkpt>
    <trkpt lat="50.9525027" lon="6.9921560">
      <ele>38.4</ele>
      <time>2019-05-31T12:54:50Z</time>
    </trkpt>
    <trkpt lat="50.9524795" lon="6.9927110">
      <ele>38.4</ele>
      <time>2019-05-31T12:55:04Z</time>
    </trkpt>
    <trkpt lat="50.9524713" lon="6.9927213">
      <ele>38.6</ele>
      <time>2019-05-31T12:55:05Z</time>
    </trkpt>
    <trkpt lat="50.9522071" lon="6.9925831">
      <ele>39.6</ele>
      <time>2019-05-31T12:55:15Z</time>
    </trkpt>
    <trkpt lat="50.9521145" lon="6.9925201">
      <ele>39.8</ele>
      <time>2019-05-31T12:55:21Z</time>
    </trkpt>
    <trkpt lat="50.9521053" lon="6.9925188">
      <ele>39.8</ele>
      <time>2019-05-31T12:55:24Z</time>
    </trkpt>
  </trkseg></trk>
</gpx>
