<?xml version="1.0" encoding="UTF-8"?>
<gpx version="1.1" creator="Diary FIT converter" xmlns="http://www.topografix.com/GPX/1/1">
  <trk><name>Cycling</name><trkseg>
    <trkpt lat="50.9524327" lon="6.9926331">
      <time>2020-01-26T13:44:58Z</time>
    </trkpt>
    <trkpt lat="50.9524581" lon="6.9925806">
      <time>2020-01-26T13:44:59Z</time>
    </trkpt>
    <trkpt lat="50.9524828" lon="6.9923856">
      <time>2020-01-26T13:45:03Z</time>
    </trkpt>
    <trkpt lat="50.9523849" lon="6.9921832">
      <time>2020-01-26T13:45:08Z</time>
    </trkpt>
    <trkpt lat="50.9522861" lon="6.9921384">
      <time>2020-01-26T13:45:11Z</time>
    </trkpt>
    <trkpt lat="50.9522594" lon="6.9921165">
      <time>2020-01-26T13:45:12Z</time>
    </trkpt>
    <trkpt lat="50.9520804" lon="6.9920335">
      <time>2020-01-26T13:45:16Z</time>
    </trkpt>
    <trkpt lat="50.9519718" lon="6.9919669">
      <time>2020-01-26T13:45:18Z</time>
    </trkpt>
    <trkpt lat="50.9519153" lon="6.9919302">
      <time>2020-01-26T13:45:19Z</time>
    </trkpt>
    <trkpt lat="50.9518618" lon="6.9918988">
      <time>2020-01-26T13:45:20Z</time>
    </trkpt>
    <trkpt lat="50.9517717" lon="6.9918220">
      <time>2020-01-26T13:45:22Z</time>
    </trkpt>
    <trkpt lat="50.9517610" lon="6.9917789">
      <time>2020-01-26T13:45:23Z</time>
    </trkpt>
    <trkpt lat="50.9518200" lon="6.9916743">
      <time>2020-01-26T13:45:25Z</time>
    </trkpt>
    <trkpt lat="50.9518395" lon="6.9916129">
      <time>2020-01-26T13:45:26Z</time>
    </trkpt>
    <trkpt lat="50.9518788" lon="6.9914382">
      <time>2020-01-26T13:45:28Z</time>
    </trkpt>
    <trkpt lat="50.9518967" lon="6.9913325">
      <time>2020-01-26T13:45:29Z</time>
    </trkpt>
    <trkpt lat="50.9519589" lon="6.9910144">
      <time>2020-01-26T13:45:32Z</time>
    </trkpt>
    <trkpt lat="50.9519755" lon="6.9908010">
      <time>2020-01-26T13:45:34Z</time>
    </trkpt>
    <trkpt lat="50.9519226" lon="6.9906327">
      <time>2020-01-26T13:45:36Z</time>
    </trkpt>
    <trkpt lat="50.9518769" lon="6.9905715">
      <time>2020-01-26T13:45:37Z</time>
    </trkpt>
    <trkpt lat="50.9518233" lon="6.9905158">
      <time>2020-01-26T13:45:38Z</time>
    </trkpt>
    <trkpt lat="50.9517133" lon="6.9904060">
      <time>2020-01-26T13:45:40Z</time>
    </trkpt>
    <trkpt lat="50.9516584" lon="6.9903554">
      <time>2020-01-26T13:45:41Z</time>
    </trkpt>
    <trkpt lat="50.9516181" lon="6.9903088">
      <time>2020-01-26T13:45:42Z</time>
    </trkpt>
    <trkpt lat="50.9515745" lon="6.9902046">
      <time>2020-01-26T13:45:44Z</time>
    </trkpt>
    <trkpt lat="50.9515699" lon="6.9901275">
      <time>2020-01-26T13:45:45Z</time>
    </trkpt>
    <trkpt lat="50.9516008" lon="6.9899586">
      <time>2020-01-26T13:45:47Z</time>
    </trkpt>
    <trkpt lat="50.9517522" lon="6.9895261">
      <time>2020-01-26T13:45:53Z</time>
    </trkpt>
    <trkpt lat="50.9517535" lon="6.9893945">
      <time>2020-01-26T13:45:55Z</time>
    </trkpt>
    <trkpt lat="50.9517291" lon="6.9893372">
      <time>2020-01-26T13:45:56Z</time>
    </trkpt>
    <trkpt lat="50.9517008" lon="6.9892897">
      <time>2020-01-26T13:45:57Z</time>
    </trkpt>
    <trkpt lat="50.9515534" lon="6.9891963">
      <time>2020-01-26T13:46:00Z</time>
    </trkpt>
    <trkpt lat="50.9511823" lon="6.9889091">
      <time>2020-01-26T13:46:07Z</time>
    </trkpt>
    <trkpt lat="50.9507427" lon="6.9885191">
      <time>2020-01-26T13:46:16Z</time>
    </trkpt>
    <trkpt lat="50.9506634" lon="6.9884457">
      <time>2020-01-26T13:46:18Z</time>
    </trkpt>
    <trkpt lat="50.9505838" lon="6.9883682">
      <time>2020-01-26T13:46:21Z</time>
    </trkpt>
    <trkpt lat="50.9504033" lon="6.9882276">
      <time>2020-01-26T13:46:26Z</time>
    </trkpt>
    <trkpt lat="50.9502416" lon="6.9881128">
      <time>2020-01-26T13:46:29Z</time>
    </trkpt>
    <trkpt lat="50.9501890" lon="6.9880667">
      <time>2020-01-26T13:46:30Z</time>
    </trkpt>
    <trkpt lat="50.9499102" lon="6.9878361">
      <time>2020-01-26T13:46:35Z</time>
    </trkpt>
    <trkpt lat="50.9497986" lon="6.9877546">
      <time>2020-01-26T13:46:37Z</time>
    </trkpt>
    <trkpt lat="50.9493678" lon="6.9873868">
      <time>2020-01-26T13:46:45Z</time>
    </trkpt>
    <trkpt lat="50.9491476" lon="6.9871942">
      <time>2020-01-26T13:46:49Z</time>
    </trkpt>
    <trkpt lat="50.9490916" lon="6.9871520">
      <time>2020-01-26T13:46:50Z</time>
    </trkpt>
    <trkpt lat="50.9490352" lon="6.9871099">
      <time>2020-01-26T13:46:51Z</time>
    </trkpt>
    <trkpt lat="50.9485632" lon="6.9867189">
      <time>2020-01-26T13:46:59Z</time>
    </trkpt>
    <trkpt lat="50.9483863" lon="6.9865346">
      <time>2020-01-26T13:47:02Z</time>
    </trkpt>
    <trkpt lat="50.9482002" lon="6.9863657">
      <time>2020-01-26T13:47:05Z</time>
    </trkpt>
    <trkpt lat="50.9480769" lon="6.9862473">
      <time>2020-01-26T13:47:07Z</time>
    </trkpt>
    <trkpt lat="50.9477262" lon="6.9859151">
      <time>2020-01-26T13:47:13Z</time>
    </trkpt>
    <trkpt lat="50.9476796" lon="6.9858397">
      <time>2020-01-26T13:47:14Z</time>
    </trkpt>
    <trkpt lat="50.9476342" lon="6.9857675">
      <time>2020-01-26T13:47:15Z</time>
    </trkpt>
    <trkpt lat="50.9475215" lon="6.9856737">
      <time>2020-01-26T13:47:17Z</time>
    </trkpt>
    <trkpt lat="50.9473513" lon="6.9855286">
      <time>2020-01-26T13:47:20Z</time>
    </trkpt>
    <trkpt lat="50.9469324" lon="6.9851686">
      <time>2020-01-26T13:47:28Z</time>
    </trkpt>
    <trkpt lat="50.9464181" lon="6.9847475">
      <time>2020-01-26T13:47:37Z</time>
    </trkpt>
    <trkpt lat="50.9461901" lon="6.9845636">
      <time>2020-01-26T13:47:41Z</time>
    </trkpt>
    <trkpt lat="50.9460728" lon="6.9844691">
      <time>2020-01-26T13:47:43Z</time>
    </trkpt>
    <trkpt lat="50.9460085" lon="6.9844312">
      <time>2020-01-26T13:47:44Z</time>
    </trkpt>
    <trkpt lat="50.9457164" lon="6.9841595">
      <time>2020-01-26T13:47:49Z</time>
    </trkpt>
    <trkpt lat="50.9453629" lon="6.9838627">
      <time>2020-01-26T13:47:55Z</time>
    </trkpt>
    <trkpt lat="50.9451837" lon="6.9837142">
      <time>2020-01-26T13:47:58Z</time>
    </trkpt>
    <trkpt lat="50.9449636" lon="6.9835147">
      <time>2020-01-26T13:48:02Z</time>
    </trkpt>
    <trkpt lat="50.9448691" lon="6.9833929">
      <time>2020-01-26T13:48:04Z</time>
    </trkpt>
    <trkpt lat="50.9446367" lon="6.9830707">
      <time>2020-01-26T13:48:09Z</time>
    </trkpt>
    <trkpt lat="50.9445884" lon="6.9830074">
      <time>2020-01-26T13:48:10Z</time>
    </trkpt>
    <trkpt lat="50.9442290" lon="6.9825592">
      <time>2020-01-26T13:48:17Z</time>
    </trkpt>
    <trkpt lat="50.9441709" lon="6.9825038">
      <time>2020-01-26T13:48:18Z</time>
    </trkpt>
    <trkpt lat="50.9439242" lon="6.9823179">
      <time>2020-01-26T13:48:22Z</time>
    </trkpt>
    <trkpt lat="50.9436808" lon="6.9821260">
      <time>2020-01-26T13:48:26Z</time>
    </trkpt>
    <trkpt lat="50.9435026" lon="6.9819748">
      <time>2020-01-26T13:48:29Z</time>
    </trkpt>
    <trkpt lat="50.9433905" lon="6.9818876">
      <time>2020-01-26T13:48:31Z</time>
    </trkpt>
    <trkpt lat="50.9432411" lon="6.9817647">
      <time>2020-01-26T13:48:34Z</time>
    </trkpt>
    <trkpt lat="50.9431911" lon="6.9817228">
      <time>2020-01-26T13:48:35Z</time>
    </trkpt>
    <trkpt lat="50.9429719" lon="6.9815504">
      <time>2020-01-26T13:48:39Z</time>
    </trkpt>
    <trkpt lat="50.9428625" lon="6.9814539">
      <time>2020-01-26T13:48:41Z</time>
    </trkpt>
    <trkpt lat="50.9426339" lon="6.9812841">
      <time>2020-01-26T13:48:45Z</time>
    </trkpt>
    <trkpt lat="50.9422894" lon="6.9810390">
      <time>2020-01-26T13:48:51Z</time>
    </trkpt>
    <trkpt lat="50.9422298" lon="6.9810080">
      <time>2020-01-26T13:48:52Z</time>
    </trkpt>
    <trkpt lat="50.9420642" lon="6.9808940">
      <time>2020-01-26T13:48:55Z</time>
    </trkpt>
    <trkpt lat="50.9418971" lon="6.9807629">
      <time>2020-01-26T13:48:58Z</time>
    </trkpt>
    <trkpt lat="50.9416102" lon="6.9805405">
      <time>2020-01-26T13:49:04Z</time>
    </trkpt>
    <trkpt lat="50.9415596" lon="6.9805071">
      <time>2020-01-26T13:49:07Z</time>
    </trkpt>
    <trkpt lat="50.9415525" lon="6.9805034">
      <time>2020-01-26T13:49:08Z</time>
    </trkpt>
    <trkpt lat="50.9415245" lon="6.9804684">
      <time>2020-01-26T13:49:13Z</time>
    </trkpt>
    <trkpt lat="50.9414249" lon="6.9804056">
      <time>2020-01-26T13:49:17Z</time>
    </trkpt>
    <trkpt lat="50.9413478" lon="6.9803627">
      <time>2020-01-26T13:49:19Z</time>
    </trkpt>
    <trkpt lat="50.9412295" lon="6.9802526">
      <time>2020-01-26T13:49:22Z</time>
    </trkpt>
    <trkpt lat="50.9410556" lon="6.9800862">
      <time>2020-01-26T13:49:26Z</time>
    </trkpt>
    <trkpt lat="50.9409574" lon="6.9800061">
      <time>2020-01-26T13:49:28Z</time>
    </trkpt>
    <trkpt lat="50.9408040" lon="6.9799025">
      <time>2020-01-26T13:49:31Z</time>
    </trkpt>
    <trkpt lat="50.9407087" lon="6.9798093">
      <time>2020-01-26T13:49:33Z</time>
    </trkpt>
    <trkpt lat="50.9406619" lon="6.9797538">
      <time>2020-01-26T13:49:34Z</time>
    </trkpt>
    <trkpt lat="50.9405933" lon="6.9796074">
      <time>2020-01-26T13:49:36Z</time>
    </trkpt>
    <trkpt lat="50.9405533" lon="6.9795418">
      <time>2020-01-26T13:49:37Z</time>
    </trkpt>
    <trkpt lat="50.9404555" lon="6.9794550">
      <time>2020-01-26T13:49:39Z</time>
    </trkpt>
    <trkpt lat="50.9403097" lon="6.9794073">
      <time>2020-01-26T13:49:41Z</time>
    </trkpt>
    <trkpt lat="50.9401865" lon="6.9793047">
      <time>2020-01-26T13:49:43Z</time>
    </trkpt>
    <trkpt lat="50.9397829" lon="6.9788756">
      <time>2020-01-26T13:49:50Z</time>
    </trkpt>
    <trkpt lat="50.9397279" lon="6.9786952">
      <time>2020-01-26T13:49:52Z</time>
    </trkpt>
    <trkpt lat="50.9396691" lon="6.9784214">
      <time>2020-01-26T13:49:55Z</time>
    </trkpt>
    <trkpt lat="50.9396939" lon="6.9781210">
      <time>2020-01-26T13:49:58Z</time>
    </trkpt>
    <trkpt lat="50.9397405" lon="6.9777034">
      <time>2020-01-26T13:50:02Z</time>
    </trkpt>
    <trkpt lat="50.9397767" lon="6.9772842">
      <time>2020-01-26T13:50:06Z</time>
    </trkpt>
    <trkpt lat="50.9398002" lon="6.9770805">
      <time>2020-01-26T13:50:08Z</time>
    </trkpt>
    <trkpt lat="50.9397991" lon="6.9768620">
      <time>2020-01-26T13:50:10Z</time>
    </trkpt>
    <trkpt lat="50.9398074" lon="6.9766401">
      <time>2020-01-26T13:50:12Z</time>
    </trkpt>
    <trkpt lat="50.9398304" lon="6.9764432">
      <time>2020-01-26T13:50:14Z</time>
    </trkpt>
    <trkpt lat="50.9398737" lon="6.9759109">
      <time>2020-01-26T13:50:20Z</time>
    </trkpt>
    <trkpt lat="50.9399002" lon="6.9754864">
      <time>2020-01-26T13:50:25Z</time>
    </trkpt>
    <trkpt lat="50.9399055" lon="6.9753911">
      <time>2020-01-26T13:50:26Z</time>
    </trkpt>
    <trkpt lat="50.9399080" lon="6.9752879">
      <time>2020-01-26T13:50:27Z</time>
    </trkpt>
    <trkpt lat="50.9399177" lon="6.9751852">
      <time>2020-01-26T13:50:28Z</time>
    </trkpt>
    <trkpt lat="50.9399477" lon="6.9748639">
      <time>2020-01-26T13:50:31Z</time>
    </trkpt>
    <trkpt lat="50.9399564" lon="6.9747516">
      <time>2020-01-26T13:50:32Z</time>
    </trkpt>
    <trkpt lat="50.9399597" lon="6.9743885">
      <time>2020-01-26T13:50:35Z</time>
    </trkpt>
    <trkpt lat="50.9399610" lon="6.9742712">
      <time>2020-01-26T13:50:36Z</time>
    </trkpt>
    <trkpt lat="50.9399712" lon="6.9740559">
      <time>2020-01-26T13:50:38Z</time>
    </trkpt>
    <trkpt lat="50.9399842" lon="6.9738625">
      <time>2020-01-26T13:50:40Z</time>
    </trkpt>
    <trkpt lat="50.9400063" lon="6.9736149">
      <time>2020-01-26T13:50:43Z</time>
    </trkpt>
    <trkpt lat="50.9400143" lon="6.9735428">
      <time>2020-01-26T13:50:44Z</time>
    </trkpt>
    <trkpt lat="50.9400377" lon="6.9731055">
      <time>2020-01-26T13:50:49Z</time>
    </trkpt>
    <trkpt lat="50.9400497" lon="6.9730213">
      <time>2020-01-26T13:50:50Z</time>
    </trkpt>
    <trkpt lat="50.9401353" lon="6.9729408">
      <time>2020-01-26T13:50:52Z</time>
    </trkpt>
    <trkpt lat="50.9402227" lon="6.9728985">
      <time>2020-01-26T13:50:54Z</time>
    </trkpt>
    <trkpt lat="50.9402872" lon="6.9727654">
      <time>2020-01-26T13:50:56Z</time>
    </trkpt>
    <trkpt lat="50.9403638" lon="6.9725463">
      <time>2020-01-26T13:50:59Z</time>
    </trkpt>
    <trkpt lat="50.9404018" lon="6.9725025">
      <time>2020-01-26T13:51:00Z</time>
    </trkpt>
    <trkpt lat="50.9405370" lon="6.9723826">
      <time>2020-01-26T13:51:03Z</time>
    </trkpt>
    <trkpt lat="50.9405672" lon="6.9723096">
      <time>2020-01-26T13:51:04Z</time>
    </trkpt>
    <trkpt lat="50.9406377" lon="6.9720268">
      <time>2020-01-26T13:51:07Z</time>
    </trkpt>
    <trkpt lat="50.9406606" lon="6.9719259">
      <time>2020-01-26T13:51:08Z</time>
    </trkpt>
    <trkpt lat="50.9406943" lon="6.9717718">
      <time>2020-01-26T13:51:10Z</time>
    </trkpt>
    <trkpt lat="50.9406929" lon="6.9717086">
      <time>2020-01-26T13:51:11Z</time>
    </trkpt>
    <trkpt lat="50.9407013" lon="6.9716288">
      <time>2020-01-26T13:51:12Z</time>
    </trkpt>
    <trkpt lat="50.9407257" lon="6.9714501">
      <time>2020-01-26T13:51:14Z</time>
    </trkpt>
    <trkpt lat="50.9408819" lon="6.9711831">
      <time>2020-01-26T13:51:17Z</time>
    </trkpt>
    <trkpt lat="50.9409327" lon="6.9710927">
      <time>2020-01-26T13:51:18Z</time>
    </trkpt>
    <trkpt lat="50.9409725" lon="6.9709462">
      <time>2020-01-26T13:51:19Z</time>
    </trkpt>
    <trkpt lat="50.9410544" lon="6.9705771">
      <time>2020-01-26T13:51:22Z</time>
    </trkpt>
    <trkpt lat="50.9410786" lon="6.9704661">
      <time>2020-01-26T13:51:23Z</time>
    </trkpt>
    <trkpt lat="50.9411220" lon="6.9702343">
      <time>2020-01-26T13:51:25Z</time>
    </trkpt>
    <trkpt lat="50.9411402" lon="6.9701221">
      <time>2020-01-26T13:51:26Z</time>
    </trkpt>
    <trkpt lat="50.9412168" lon="6.9697777">
      <time>2020-01-26T13:51:29Z</time>
    </trkpt>
    <trkpt lat="50.9412568" lon="6.9696857">
      <time>2020-01-26T13:51:30Z</time>
    </trkpt>
    <trkpt lat="50.9412971" lon="6.9695946">
      <time>2020-01-26T13:51:31Z</time>
    </trkpt>
    <trkpt lat="50.9413058" lon="6.9693957">
      <time>2020-01-26T13:51:33Z</time>
    </trkpt>
    <trkpt lat="50.9412944" lon="6.9690018">
      <time>2020-01-26T13:51:37Z</time>
    </trkpt>
    <trkpt lat="50.9412938" lon="6.9688147">
      <time>2020-01-26T13:51:39Z</time>
    </trkpt>
    <trkpt lat="50.9412899" lon="6.9687354">
      <time>2020-01-26T13:51:40Z</time>
    </trkpt>
    <trkpt lat="50.9412894" lon="6.9686206">
      <time>2020-01-26T13:51:42Z</time>
    </trkpt>
    <trkpt lat="50.9412939" lon="6.9684519">
      <time>2020-01-26T13:51:45Z</time>
    </trkpt>
    <trkpt lat="50.9412925" lon="6.9683075">
      <time>2020-01-26T13:51:48Z</time>
    </trkpt>
    <trkpt lat="50.9412956" lon="6.9682569">
      <time>2020-01-26T13:51:50Z</time>
    </trkpt>
    <trkpt lat="50.9412970" lon="6.9682425">
      <time>2020-01-26T13:51:52Z</time>
    </trkpt>
    <trkpt lat="50.9412892" lon="6.9682133">
      <time>2020-01-26T13:51:54Z</time>
    </trkpt>
    <trkpt lat="50.9412648" lon="6.9681696">
      <time>2020-01-26T13:51:58Z</time>
    </trkpt>
    <trkpt lat="50.9412660" lon="6.9680228">
      <time>2020-01-26T13:52:02Z</time>
    </trkpt>
    <trkpt lat="50.9412728" lon="6.9678011">
      <time>2020-01-26T13:52:06Z</time>
    </trkpt>
    <trkpt lat="50.9412748" lon="6.9677505">
      <time>2020-01-26T13:52:07Z</time>
    </trkpt>
    <trkpt lat="50.9412817" lon="6.9676851">
      <time>2020-01-26T13:52:10Z</time>
    </trkpt>
    <trkpt lat="50.9412763" lon="6.9676563">
      <time>2020-01-26T13:52:13Z</time>
    </trkpt>
    <trkpt lat="50.9412588" lon="6.9675834">
      <time>2020-01-26T13:52:16Z</time>
    </trkpt>
    <trkpt lat="50.9412757" lon="6.9674084">
      <time>2020-01-26T13:52:20Z</time>
    </trkpt>
    <trkpt lat="50.9412863" lon="6.9673607">
      <time>2020-01-26T13:52:21Z</time>
    </trkpt>
    <trkpt lat="50.9413092" lon="6.9672727">
      <time>2020-01-26T13:52:23Z</time>
    </trkpt>
    <trkpt lat="50.9413068" lon="6.9671859">
      <time>2020-01-26T13:52:25Z</time>
    </trkpt>
    <trkpt lat="50.9413005" lon="6.9671600">
      <time>2020-01-26T13:52:26Z</time>
    </trkpt>
    <trkpt lat="50.9412876" lon="6.9670677">
      <time>2020-01-26T13:52:29Z</time>
    </trkpt>
    <trkpt lat="50.9412842" lon="6.9669920">
      <time>2020-01-26T13:52:31Z</time>
    </trkpt>
    <trkpt lat="50.9412665" lon="6.9667852">
      <time>2020-01-26T13:52:36Z</time>
    </trkpt>
    <trkpt lat="50.9412697" lon="6.9665029">
      <time>2020-01-26T13:52:40Z</time>
    </trkpt>
    <trkpt lat="50.9412711" lon="6.9662566">
      <time>2020-01-26T13:52:45Z</time>
    </trkpt>
    <trkpt lat="50.9412633" lon="6.9660571">
      <time>2020-01-26T13:52:51Z</time>
    </trkpt>
    <trkpt lat="50.9412636" lon="6.9660429">
      <time>2020-01-26T13:52:52Z</time>
    </trkpt>
    <trkpt lat="50.9412688" lon="6.9660298">
      <time>2020-01-26T13:52:55Z</time>
    </trkpt>
    <trkpt lat="50.9412688" lon="6.9660298">
      <time>2020-01-26T13:52:56Z</time>
    </trkpt>
    <trkpt lat="50.9412707" lon="6.9660170">
      <time>2020-01-26T13:52:59Z</time>
    </trkpt>
    <trkpt lat="50.9412748" lon="6.9660078">
      <time>2020-01-26T13:53:02Z</time>
    </trkpt>
    <trkpt lat="50.9412825" lon="6.9659916">
      <time>2020-01-26T13:53:04Z</time>
    </trkpt>
    <trkpt lat="50.9412837" lon="6.9659667">
      <time>2020-01-26T13:53:05Z</time>
    </trkpt>
    <trkpt lat="50.9412921" lon="6.9659358">
      <time>2020-01-26T13:53:06Z</time>
    </trkpt>
    <trkpt lat="50.9412680" lon="6.9658299">
      <time>2020-01-26T13:53:10Z</time>
    </trkpt>
    <trkpt lat="50.9412516" lon="6.9656500">
      <time>2020-01-26T13:53:14Z</time>
    </trkpt>
    <trkpt lat="50.9412636" lon="6.9653197">
      <time>2020-01-26T13:53:19Z</time>
    </trkpt>
    <trkpt lat="50.9412708" lon="6.9651584">
      <time>2020-01-26T13:53:22Z</time>
    </trkpt>
    <trkpt lat="50.9412626" lon="6.9650937">
      <time>2020-01-26T13:53:23Z</time>
    </trkpt>
    <trkpt lat="50.9412426" lon="6.9648481">
      <time>2020-01-26T13:53:28Z</time>
    </trkpt>
    <trkpt lat="50.9412405" lon="6.9647620">
      <time>2020-01-26T13:53:30Z</time>
    </trkpt>
    <trkpt lat="50.9412309" lon="6.9646650">
      <time>2020-01-26T13:53:33Z</time>
    </trkpt>
    <trkpt lat="50.9412314" lon="6.9646315">
      <time>2020-01-26T13:53:35Z</time>
    </trkpt>
    <trkpt lat="50.9412366" lon="6.9646026">
      <time>2020-01-26T13:53:37Z</time>
    </trkpt>
    <trkpt lat="50.9412345" lon="6.9645749">
      <time>2020-01-26T13:53:39Z</time>
    </trkpt>
    <trkpt lat="50.9412470" lon="6.9645385">
      <time>2020-01-26T13:53:42Z</time>
    </trkpt>
    <trkpt lat="50.9412505" lon="6.9645380">
      <time>2020-01-26T13:53:43Z</time>
    </trkpt>
    <trkpt lat="50.9412434" lon="6.9645223">
      <time>2020-01-26T13:53:44Z</time>
    </trkpt>
    <trkpt lat="50.9412543" lon="6.9644902">
      <time>2020-01-26T13:53:46Z</time>
    </trkpt>
    <trkpt lat="50.9412503" lon="6.9644751">
      <time>2020-01-26T13:53:47Z</time>
    </trkpt>
    <trkpt lat="50.9412484" lon="6.9644393">
      <time>2020-01-26T13:53:49Z</time>
    </trkpt>
    <trkpt lat="50.9412463" lon="6.9644164">
      <time>2020-01-26T13:53:51Z</time>
    </trkpt>
    <trkpt lat="50.9412389" lon="6.9644011">
      <time>2020-01-26T13:53:53Z</time>
    </trkpt>
    <trkpt lat="50.9412401" lon="6.9643487">
      <time>2020-01-26T13:53:55Z</time>
    </trkpt>
    <trkpt lat="50.9412401" lon="6.9642653">
      <time>2020-01-26T13:54:00Z</time>
    </trkpt>
    <trkpt lat="50.9412323" lon="6.9642031">
      <time>2020-01-26T13:54:04Z</time>
    </trkpt>
    <trkpt lat="50.9412391" lon="6.9641610">
      <time>2020-01-26T13:54:06Z</time>
    </trkpt>
    <trkpt lat="50.9412545" lon="6.9640998">
      <time>2020-01-26T13:54:09Z</time>
    </trkpt>
    <trkpt lat="50.9412744" lon="6.9640487">
      <time>2020-01-26T13:54:12Z</time>
    </trkpt>
    <trkpt lat="50.9412717" lon="6.9640028">
      <time>2020-01-26T13:54:15Z</time>
    </trkpt>
    <trkpt lat="50.9412878" lon="6.9639593">
      <time>2020-01-26T13:54:18Z</time>
    </trkpt>
    <trkpt lat="50.9412976" lon="6.9639264">
      <time>2020-01-26T13:54:21Z</time>
    </trkpt>
    <trkpt lat="50.9412982" lon="6.9638863">
      <time>2020-01-26T13:54:23Z</time>
    </trkpt>
    <trkpt lat="50.9413018" lon="6.9638649">
      <time>2020-01-26T13:54:24Z</time>
    </trkpt>
    <trkpt lat="50.9413110" lon="6.9638049">
      <time>2020-01-26T13:54:27Z</time>
    </trkpt>
    <trkpt lat="50.9413018" lon="6.9637802">
      <time>2020-01-26T13:54:28Z</time>
    </trkpt>
    <trkpt lat="50.9413049" lon="6.9637354">
      <time>2020-01-26T13:54:31Z</time>
    </trkpt>
    <trkpt lat="50.9413076" lon="6.9637215">
      <time>2020-01-26T13:54:32Z</time>
    </trkpt>
    <trkpt lat="50.9413111" lon="6.9636249">
      <time>2020-01-26T13:54:36Z</time>
    </trkpt>
    <trkpt lat="50.9412837" lon="6.9635870">
      <time>2020-01-26T13:54:38Z</time>
    </trkpt>
    <trkpt lat="50.9412692" lon="6.9635130">
      <time>2020-01-26T13:54:41Z</time>
    </trkpt>
    <trkpt lat="50.9412615" lon="6.9634545">
      <time>2020-01-26T13:54:43Z</time>
    </trkpt>
    <trkpt lat="50.9412979" lon="6.9632596">
      <time>2020-01-26T13:54:47Z</time>
    </trkpt>
    <trkpt lat="50.9412948" lon="6.9631721">
      <time>2020-01-26T13:54:50Z</time>
    </trkpt>
    <trkpt lat="50.9412964" lon="6.9631589">
      <time>2020-01-26T13:54:51Z</time>
    </trkpt>
    <trkpt lat="50.9412935" lon="6.9630805">
      <time>2020-01-26T13:54:58Z</time>
    </trkpt>
    <trkpt lat="50.9412820" lon="6.9630436">
      <time>2020-01-26T13:55:00Z</time>
    </trkpt>
    <trkpt lat="50.9412907" lon="6.9629777">
      <time>2020-01-26T13:55:03Z</time>
    </trkpt>
    <trkpt lat="50.9413023" lon="6.9629076">
      <time>2020-01-26T13:55:07Z</time>
    </trkpt>
    <trkpt lat="50.9413138" lon="6.9628490">
      <time>2020-01-26T13:55:10Z</time>
    </trkpt>
    <trkpt lat="50.9413097" lon="6.9627210">
      <time>2020-01-26T13:55:17Z</time>
    </trkpt>
    <trkpt lat="50.9413034" lon="6.9627083">
      <time>2020-01-26T13:55:18Z</time>
    </trkpt>
    <trkpt lat="50.9412392" lon="6.9626217">
      <time>2020-01-26T13:55:22Z</time>
    </trkpt>
    <trkpt lat="50.9412169" lon="6.9625938">
      <time>2020-01-26T13:55:23Z</time>
    </trkpt>
    <trkpt lat="50.9411928" lon="6.9625564">
      <time>2020-01-26T13:55:24Z</time>
    </trkpt>
    <trkpt lat="50.9411932" lon="6.9624497">
      <time>2020-01-26T13:55:26Z</time>
    </trkpt>
    <trkpt lat="50.9412437" lon="6.9622264">
      <time>2020-01-26T13:55:30Z</time>
    </trkpt>
    <trkpt lat="50.9412463" lon="6.9621636">
      <time>2020-01-26T13:55:31Z</time>
    </trkpt>
    <trkpt lat="50.9412635" lon="6.9618921">
      <time>2020-01-26T13:55:36Z</time>
    </trkpt>
    <trkpt lat="50.9412748" lon="6.9617964">
      <time>2020-01-26T13:55:41Z</time>
    </trkpt>
    <trkpt lat="50.9412777" lon="6.9617649">
      <time>2020-01-26T13:55:43Z</time>
    </trkpt>
    <trkpt lat="50.9412691" lon="6.9616927">
      <time>2020-01-26T13:55:47Z</time>
    </trkpt>
    <trkpt lat="50.9412739" lon="6.9616669">
      <time>2020-01-26T13:55:49Z</time>
    </trkpt>
    <trkpt lat="50.9412775" lon="6.9615938">
      <time>2020-01-26T13:55:52Z</time>
    </trkpt>
    <trkpt lat="50.9412831" lon="6.9615666">
      <time>2020-01-26T13:55:53Z</time>
    </trkpt>
    <trkpt lat="50.9412924" lon="6.9614506">
      <time>2020-01-26T13:55:59Z</time>
    </trkpt>
    <trkpt lat="50.9412972" lon="6.9614400">
      <time>2020-01-26T13:56:00Z</time>
    </trkpt>
    <trkpt lat="50.9413070" lon="6.9613161">
      <time>2020-01-26T13:56:05Z</time>
    </trkpt>
    <trkpt lat="50.9413014" lon="6.9612810">
      <time>2020-01-26T13:56:06Z</time>
    </trkpt>
    <trkpt lat="50.9412856" lon="6.9612389">
      <time>2020-01-26T13:56:07Z</time>
    </trkpt>
    <trkpt lat="50.9412351" lon="6.9611630">
      <time>2020-01-26T13:56:09Z</time>
    </trkpt>
    <trkpt lat="50.9412178" lon="6.9611074">
      <time>2020-01-26T13:56:10Z</time>
    </trkpt>
    <trkpt lat="50.9412158" lon="6.9609995">
      <time>2020-01-26T13:56:12Z</time>
    </trkpt>
    <trkpt lat="50.9411943" lon="6.9608706">
      <time>2020-01-26T13:56:16Z</time>
    </trkpt>
    <trkpt lat="50.9411862" lon="6.9607912">
      <time>2020-01-26T13:56:19Z</time>
    </trkpt>
    <trkpt lat="50.9411827" lon="6.9606994">
      <time>2020-01-26T13:56:21Z</time>
    </trkpt>
    <trkpt lat="50.9411733" lon="6.9604981">
      <time>2020-01-26T13:56:25Z</time>
    </trkpt>
    <trkpt lat="50.9411759" lon="6.9604633">
      <time>2020-01-26T13:56:26Z</time>
    </trkpt>
    <trkpt lat="50.9411789" lon="6.9603700">
      <time>2020-01-26T13:56:30Z</time>
    </trkpt>
    <trkpt lat="50.9411803" lon="6.9603653">
      <time>2020-01-26T13:56:31Z</time>
    </trkpt>
    <trkpt lat="50.9412007" lon="6.9603080">
      <time>2020-01-26T13:56:35Z</time>
    </trkpt>
    <trkpt lat="50.9412060" lon="6.9602865">
      <time>2020-01-26T13:56:36Z</time>
    </trkpt>
    <trkpt lat="50.9412069" lon="6.9602570">
      <time>2020-01-26T13:56:37Z</time>
    </trkpt>
    <trkpt lat="50.9411925" lon="6.9601285">
      <time>2020-01-26T13:56:41Z</time>
    </trkpt>
    <trkpt lat="50.9412068" lon="6.9600931">
      <time>2020-01-26T13:56:42Z</time>
    </trkpt>
    <trkpt lat="50.9412464" lon="6.9600611">
      <time>2020-01-26T13:56:44Z</time>
    </trkpt>
    <trkpt lat="50.9412575" lon="6.9600570">
      <time>2020-01-26T13:56:45Z</time>
    </trkpt>
    <trkpt lat="50.9412612" lon="6.9600450">
      <time>2020-01-26T13:56:47Z</time>
    </trkpt>
    <trkpt lat="50.9411371" lon="6.9599071">
      <time>2020-01-26T13:56:51Z</time>
    </trkpt>
    <trkpt lat="50.9409885" lon="6.9597519">
      <time>2020-01-26T13:56:53Z</time>
    </trkpt>
    <trkpt lat="50.9409233" lon="6.9597598">
      <time>2020-01-26T13:56:55Z</time>
    </trkpt>
    <trkpt lat="50.9409045" lon="6.9597716">
      <time>2020-01-26T13:56:56Z</time>
    </trkpt>
    <trkpt lat="50.9408727" lon="6.9596959">
      <time>2020-01-26T13:56:58Z</time>
    </trkpt>
    <trkpt lat="50.9409266" lon="6.9593293">
      <time>2020-01-26T13:57:03Z</time>
    </trkpt>
    <trkpt lat="50.9409297" lon="6.9592219">
      <time>2020-01-26T13:57:04Z</time>
    </trkpt>
    <trkpt lat="50.9408374" lon="6.9585326">
      <time>2020-01-26T13:57:08Z</time>
    </trkpt>
    <trkpt lat="50.9408153" lon="6.9583868">
      <time>2020-01-26T13:57:09Z</time>
    </trkpt>
    <trkpt lat="50.9407553" lon="6.9580154">
      <time>2020-01-26T13:57:12Z</time>
    </trkpt>
    <trkpt lat="50.9407497" lon="6.9578093">
      <time>2020-01-26T13:57:15Z</time>
    </trkpt>
    <trkpt lat="50.9407763" lon="6.9577467">
      <time>2020-01-26T13:57:16Z</time>
    </trkpt>
    <trkpt lat="50.9408441" lon="6.9575898">
      <time>2020-01-26T13:57:18Z</time>
    </trkpt>
    <trkpt lat="50.9408724" lon="6.9574513">
      <time>2020-01-26T13:57:20Z</time>
    </trkpt>
    <trkpt lat="50.9408666" lon="6.9572520">
      <time>2020-01-26T13:57:24Z</time>
    </trkpt>
    <trkpt lat="50.9408723" lon="6.9571498">
      <time>2020-01-26T13:57:27Z</time>
    </trkpt>
    <trkpt lat="50.9409042" lon="6.9570281">
      <time>2020-01-26T13:57:29Z</time>
    </trkpt>
    <trkpt lat="50.9409757" lon="6.9569483">
      <time>2020-01-26T13:57:32Z</time>
    </trkpt>
    <trkpt lat="50.9409935" lon="6.9569485">
      <time>2020-01-26T13:57:33Z</time>
    </trkpt>
    <trkpt lat="50.9409967" lon="6.9569526">
      <time>2020-01-26T13:57:35Z</time>
    </trkpt>
    <trkpt lat="50.9409594" lon="6.9569044">
      <time>2020-01-26T13:57:39Z</time>
    </trkpt>
    <trkpt lat="50.9409217" lon="6.9568217">
      <time>2020-01-26T13:57:40Z</time>
    </trkpt>
    <trkpt lat="50.9408729" lon="6.9567143">
      <time>2020-01-26T13:57:42Z</time>
    </trkpt>
    <trkpt lat="50.9408637" lon="6.9566790">
      <time>2020-01-26T13:57:43Z</time>
    </trkpt>
    <trkpt lat="50.9408515" lon="6.9566225">
      <time>2020-01-26T13:57:45Z</time>
    </trkpt>
    <trkpt lat="50.9408610" lon="6.9566009">
      <time>2020-01-26T13:57:46Z</time>
    </trkpt>
    <trkpt lat="50.9408639" lon="6.9565922">
      <time>2020-01-26T13:57:47Z</time>
    </trkpt>
    <trkpt lat="50.9408273" lon="6.9565586">
      <time>2020-01-26T13:57:53Z</time>
    </trkpt>
    <trkpt lat="50.9409099" lon="6.9565989">
      <time>2020-01-26T13:57:57Z</time>
    </trkpt>
    <trkpt lat="50.9409248" lon="6.9565762">
      <time>2020-01-26T13:57:58Z</time>
    </trkpt>
    <trkpt lat="50.9409905" lon="6.9564475">
      <time>2020-01-26T13:58:02Z</time>
    </trkpt>
    <trkpt lat="50.9409623" lon="6.9564383">
      <time>2020-01-26T13:58:03Z</time>
    </trkpt>
    <trkpt lat="50.9409174" lon="6.9564007">
      <time>2020-01-26T13:58:08Z</time>
    </trkpt>
    <trkpt lat="50.9409936" lon="6.9564148">
      <time>2020-01-26T13:58:11Z</time>
    </trkpt>
    <trkpt lat="50.9410171" lon="6.9563895">
      <time>2020-01-26T13:58:12Z</time>
    </trkpt>
    <trkpt lat="50.9410687" lon="6.9563579">
      <time>2020-01-26T13:58:14Z</time>
    </trkpt>
    <trkpt lat="50.9411958" lon="6.9563802">
      <time>2020-01-26T13:58:17Z</time>
    </trkpt>
    <trkpt lat="50.9412687" lon="6.9564522">
      <time>2020-01-26T13:58:19Z</time>
    </trkpt>
    <trkpt lat="50.9413659" lon="6.9563807">
      <time>2020-01-26T13:58:23Z</time>
    </trkpt>
    <trkpt lat="50.9414507" lon="6.9563759">
      <time>2020-01-26T13:58:25Z</time>
    </trkpt>
    <trkpt lat="50.9415004" lon="6.9563714">
      <time>2020-01-26T13:58:26Z</time>
    </trkpt>
    <trkpt lat="50.9415704" lon="6.9563689">
      <time>2020-01-26T13:58:28Z</time>
    </trkpt>
    <trkpt lat="50.9416051" lon="6.9563548">
      <time>2020-01-26T13:58:29Z</time>
    </trkpt>
    <trkpt lat="50.9416859" lon="6.9562578">
      <time>2020-01-26T13:58:33Z</time>
    </trkpt>
    <trkpt lat="50.9417035" lon="6.9562093">
      <time>2020-01-26T13:58:36Z</time>
    </trkpt>
    <trkpt lat="50.9417188" lon="6.9561774">
      <time>2020-01-26T13:58:38Z</time>
    </trkpt>
    <trkpt lat="50.9417313" lon="6.9561407">
      <time>2020-01-26T13:58:39Z</time>
    </trkpt>
    <trkpt lat="50.9417767" lon="6.9560756">
      <time>2020-01-26T13:58:43Z</time>
    </trkpt>
    <trkpt lat="50.9417767" lon="6.9560756">
      <time>2020-01-26T13:58:44Z</time>
    </trkpt>
    <trkpt lat="50.9417768" lon="6.9560756">
      <time>2020-01-26T13:58:47Z</time>
    </trkpt>
    <trkpt lat="50.9418083" lon="6.9559765">
      <time>2020-01-26T13:59:06Z</time>
    </trkpt>
    <trkpt lat="50.9418078" lon="6.9559261">
      <time>2020-01-26T13:59:07Z</time>
    </trkpt>
    <trkpt lat="50.9417693" lon="6.9556508">
      <time>2020-01-26T13:59:11Z</time>
    </trkpt>
    <trkpt lat="50.9417537" lon="6.9553104">
      <time>2020-01-26T13:59:15Z</time>
    </trkpt>
    <trkpt lat="50.9417471" lon="6.9551343">
      <time>2020-01-26T13:59:17Z</time>
    </trkpt>
    <trkpt lat="50.9416755" lon="6.9545646">
      <time>2020-01-26T13:59:23Z</time>
    </trkpt>
    <trkpt lat="50.9416286" lon="6.9540444">
      <time>2020-01-26T13:59:28Z</time>
    </trkpt>
    <trkpt lat="50.9416128" lon="6.9537479">
      <time>2020-01-26T13:59:31Z</time>
    </trkpt>
    <trkpt lat="50.9415919" lon="6.9533317">
      <time>2020-01-26T13:59:36Z</time>
    </trkpt>
    <trkpt lat="50.9415892" lon="6.9532092">
      <time>2020-01-26T13:59:38Z</time>
    </trkpt>
    <trkpt lat="50.9415722" lon="6.9530960">
      <time>2020-01-26T13:59:41Z</time>
    </trkpt>
    <trkpt lat="50.9415707" lon="6.9530714">
      <time>2020-01-26T13:59:45Z</time>
    </trkpt>
    <trkpt lat="50.9415703" lon="6.9530010">
      <time>2020-01-26T14:00:36Z</time>
    </trkpt>
    <trkpt lat="50.9415706" lon="6.9529525">
      <time>2020-01-26T14:00:37Z</time>
    </trkpt>
    <trkpt lat="50.9415717" lon="6.9528913">
      <time>2020-01-26T14:00:38Z</time>
    </trkpt>
    <trkpt lat="50.9415727" lon="6.9527490">
      <time>2020-01-26T14:00:40Z</time>
    </trkpt>
    <trkpt lat="50.9415665" lon="6.9525721">
      <time>2020-01-26T14:00:42Z</time>
    </trkpt>
    <trkpt lat="50.9415611" lon="6.9522647">
      <time>2020-01-26T14:00:45Z</time>
    </trkpt>
    <trkpt lat="50.9415637" lon="6.9520289">
      <time>2020-01-26T14:00:47Z</time>
    </trkpt>
    <trkpt lat="50.9415622" lon="6.9517707">
      <time>2020-01-26T14:00:49Z</time>
    </trkpt>
    <trkpt lat="50.9415565" lon="6.9516324">
      <time>2020-01-26T14:00:50Z</time>
    </trkpt>
    <trkpt lat="50.9415324" lon="6.9513482">
      <time>2020-01-26T14:00:52Z</time>
    </trkpt>
    <trkpt lat="50.9415296" lon="6.9510533">
      <time>2020-01-26T14:00:54Z</time>
    </trkpt>
    <trkpt lat="50.9415544" lon="6.9507277">
      <time>2020-01-26T14:00:56Z</time>
    </trkpt>
    <trkpt lat="50.9415552" lon="6.9506070">
      <time>2020-01-26T14:00:57Z</time>
    </trkpt>
    <trkpt lat="50.9415366" lon="6.9503101">
      <time>2020-01-26T14:00:59Z</time>
    </trkpt>
    <trkpt lat="50.9415154" lon="6.9500108">
      <time>2020-01-26T14:01:01Z</time>
    </trkpt>
    <trkpt lat="50.9414649" lon="6.9497254">
      <time>2020-01-26T14:01:03Z</time>
    </trkpt>
    <trkpt lat="50.9414176" lon="6.9494426">
      <time>2020-01-26T14:01:05Z</time>
    </trkpt>
    <trkpt lat="50.9414051" lon="6.9492743">
      <time>2020-01-26T14:01:06Z</time>
    </trkpt>
    <trkpt lat="50.9413648" lon="6.9487696">
      <time>2020-01-26T14:01:10Z</time>
    </trkpt>
    <trkpt lat="50.9413353" lon="6.9485312">
      <time>2020-01-26T14:01:12Z</time>
    </trkpt>
    <trkpt lat="50.9412733" lon="6.9480162">
      <time>2020-01-26T14:01:16Z</time>
    </trkpt>
    <trkpt lat="50.9412505" lon="6.9478895">
      <time>2020-01-26T14:01:17Z</time>
    </trkpt>
    <trkpt lat="50.9411887" lon="6.9476521">
      <time>2020-01-26T14:01:19Z</time>
    </trkpt>
    <trkpt lat="50.9411485" lon="6.9474225">
      <time>2020-01-26T14:01:21Z</time>
    </trkpt>
    <trkpt lat="50.9411597" lon="6.9471868">
      <time>2020-01-26T14:01:23Z</time>
    </trkpt>
    <trkpt lat="50.9411719" lon="6.9470697">
      <time>2020-01-26T14:01:24Z</time>
    </trkpt>
    <trkpt lat="50.9411742" lon="6.9469504">
      <time>2020-01-26T14:01:25Z</time>
    </trkpt>
    <trkpt lat="50.9411804" lon="6.9467136">
      <time>2020-01-26T14:01:27Z</time>
    </trkpt>
    <trkpt lat="50.9411654" lon="6.9465920">
      <time>2020-01-26T14:01:28Z</time>
    </trkpt>
    <trkpt lat="50.9411418" lon="6.9464727">
      <time>2020-01-26T14:01:29Z</time>
    </trkpt>
    <trkpt lat="50.9410366" lon="6.9461342">
      <time>2020-01-26T14:01:32Z</time>
    </trkpt>
    <trkpt lat="50.9409946" lon="6.9460351">
      <time>2020-01-26T14:01:33Z</time>
    </trkpt>
    <trkpt lat="50.9408921" lon="6.9458502">
      <time>2020-01-26T14:01:35Z</time>
    </trkpt>
    <trkpt lat="50.9406932" lon="6.9455160">
      <time>2020-01-26T14:01:39Z</time>
    </trkpt>
    <trkpt lat="50.9405975" lon="6.9453422">
      <time>2020-01-26T14:01:41Z</time>
    </trkpt>
    <trkpt lat="50.9403780" lon="6.9448486">
      <time>2020-01-26T14:01:46Z</time>
    </trkpt>
    <trkpt lat="50.9403492" lon="6.9447390">
      <time>2020-01-26T14:01:47Z</time>
    </trkpt>
    <trkpt lat="50.9401988" lon="6.9440360">
      <time>2020-01-26T14:01:53Z</time>
    </trkpt>
    <trkpt lat="50.9401605" lon="6.9437952">
      <time>2020-01-26T14:01:55Z</time>
    </trkpt>
    <trkpt lat="50.9401016" lon="6.9432636">
      <time>2020-01-26T14:01:59Z</time>
    </trkpt>
    <trkpt lat="50.9400771" lon="6.9429963">
      <time>2020-01-26T14:02:01Z</time>
    </trkpt>
    <trkpt lat="50.9400861" lon="6.9424322">
      <time>2020-01-26T14:02:05Z</time>
    </trkpt>
    <trkpt lat="50.9401002" lon="6.9422956">
      <time>2020-01-26T14:02:06Z</time>
    </trkpt>
    <trkpt lat="50.9402076" lon="6.9416230">
      <time>2020-01-26T14:02:11Z</time>
    </trkpt>
    <trkpt lat="50.9402277" lon="6.9415194">
      <time>2020-01-26T14:02:12Z</time>
    </trkpt>
    <trkpt lat="50.9402578" lon="6.9413901">
      <time>2020-01-26T14:02:13Z</time>
    </trkpt>
    <trkpt lat="50.9403628" lon="6.9410135">
      <time>2020-01-26T14:02:16Z</time>
    </trkpt>
    <trkpt lat="50.9404545" lon="6.9406953">
      <time>2020-01-26T14:02:19Z</time>
    </trkpt>
    <trkpt lat="50.9404899" lon="6.9405078">
      <time>2020-01-26T14:02:21Z</time>
    </trkpt>
    <trkpt lat="50.9405149" lon="6.9402694">
      <time>2020-01-26T14:02:24Z</time>
    </trkpt>
    <trkpt lat="50.9405149" lon="6.9402362">
      <time>2020-01-26T14:02:25Z</time>
    </trkpt>
    <trkpt lat="50.9405168" lon="6.9402914">
      <time>2020-01-26T14:02:28Z</time>
    </trkpt>
    <trkpt lat="50.9405168" lon="6.9402914">
      <time>2020-01-26T14:02:29Z</time>
    </trkpt>
    <trkpt lat="50.9405234" lon="6.9402548">
      <time>2020-01-26T14:03:23Z</time>
    </trkpt>
    <trkpt lat="50.9405305" lon="6.9402122">
      <time>2020-01-26T14:03:24Z</time>
    </trkpt>
    <trkpt lat="50.9405342" lon="6.9401611">
      <time>2020-01-26T14:03:25Z</time>
    </trkpt>
    <trkpt lat="50.9405580" lon="6.9398303">
      <time>2020-01-26T14:03:30Z</time>
    </trkpt>
    <trkpt lat="50.9405784" lon="6.9396765">
      <time>2020-01-26T14:03:32Z</time>
    </trkpt>
    <trkpt lat="50.9405890" lon="6.9394939">
      <time>2020-01-26T14:03:34Z</time>
    </trkpt>
    <trkpt lat="50.9405995" lon="6.9392919">
      <time>2020-01-26T14:03:36Z</time>
    </trkpt>
    <trkpt lat="50.9406414" lon="6.9390829">
      <time>2020-01-26T14:03:38Z</time>
    </trkpt>
    <trkpt lat="50.9406679" lon="6.9389741">
      <time>2020-01-26T14:03:39Z</time>
    </trkpt>
    <trkpt lat="50.9407531" lon="6.9386370">
      <time>2020-01-26T14:03:42Z</time>
    </trkpt>
    <trkpt lat="50.9408542" lon="6.9383211">
      <time>2020-01-26T14:03:45Z</time>
    </trkpt>
    <trkpt lat="50.9408981" lon="6.9382311">
      <time>2020-01-26T14:03:46Z</time>
    </trkpt>
    <trkpt lat="50.9409882" lon="6.9380701">
      <time>2020-01-26T14:03:48Z</time>
    </trkpt>
    <trkpt lat="50.9410732" lon="6.9379431">
      <time>2020-01-26T14:03:50Z</time>
    </trkpt>
    <trkpt lat="50.9411488" lon="6.9378335">
      <time>2020-01-26T14:03:52Z</time>
    </trkpt>
    <trkpt lat="50.9412568" lon="6.9376435">
      <time>2020-01-26T14:03:55Z</time>
    </trkpt>
    <trkpt lat="50.9413781" lon="6.9374320">
      <time>2020-01-26T14:03:58Z</time>
    </trkpt>
    <trkpt lat="50.9414855" lon="6.9372559">
      <time>2020-01-26T14:04:01Z</time>
    </trkpt>
    <trkpt lat="50.9415693" lon="6.9370029">
      <time>2020-01-26T14:04:04Z</time>
    </trkpt>
    <trkpt lat="50.9416413" lon="6.9368842">
      <time>2020-01-26T14:04:06Z</time>
    </trkpt>
    <trkpt lat="50.9418463" lon="6.9365260">
      <time>2020-01-26T14:04:11Z</time>
    </trkpt>
    <trkpt lat="50.9418884" lon="6.9364368">
      <time>2020-01-26T14:04:12Z</time>
    </trkpt>
    <trkpt lat="50.9419977" lon="6.9362171">
      <time>2020-01-26T14:04:15Z</time>
    </trkpt>
    <trkpt lat="50.9420285" lon="6.9361476">
      <time>2020-01-26T14:04:16Z</time>
    </trkpt>
    <trkpt lat="50.9420637" lon="6.9361014">
      <time>2020-01-26T14:04:17Z</time>
    </trkpt>
    <trkpt lat="50.9421931" lon="6.9358732">
      <time>2020-01-26T14:04:20Z</time>
    </trkpt>
    <trkpt lat="50.9423601" lon="6.9355578">
      <time>2020-01-26T14:04:24Z</time>
    </trkpt>
    <trkpt lat="50.9425830" lon="6.9351788">
      <time>2020-01-26T14:04:29Z</time>
    </trkpt>
    <trkpt lat="50.9427486" lon="6.9348497">
      <time>2020-01-26T14:04:33Z</time>
    </trkpt>
    <trkpt lat="50.9429049" lon="6.9345636">
      <time>2020-01-26T14:04:37Z</time>
    </trkpt>
    <trkpt lat="50.9431225" lon="6.9340996">
      <time>2020-01-26T14:04:43Z</time>
    </trkpt>
    <trkpt lat="50.9433683" lon="6.9336416">
      <time>2020-01-26T14:04:50Z</time>
    </trkpt>
    <trkpt lat="50.9434718" lon="6.9333368">
      <time>2020-01-26T14:04:52Z</time>
    </trkpt>
    <trkpt lat="50.9436639" lon="6.9329686">
      <time>2020-01-26T14:04:57Z</time>
    </trkpt>
    <trkpt lat="50.9437682" lon="6.9327315">
      <time>2020-01-26T14:05:00Z</time>
    </trkpt>
    <trkpt lat="50.9438050" lon="6.9326524">
      <time>2020-01-26T14:05:01Z</time>
    </trkpt>
    <trkpt lat="50.9438713" lon="6.9324944">
      <time>2020-01-26T14:05:03Z</time>
    </trkpt>
    <trkpt lat="50.9438935" lon="6.9324294">
      <time>2020-01-26T14:05:04Z</time>
    </trkpt>
    <trkpt lat="50.9439206" lon="6.9323388">
      <time>2020-01-26T14:05:05Z</time>
    </trkpt>
    <trkpt lat="50.9439663" lon="6.9321875">
      <time>2020-01-26T14:05:07Z</time>
    </trkpt>
    <trkpt lat="50.9439969" lon="6.9321149">
      <time>2020-01-26T14:05:08Z</time>
    </trkpt>
    <trkpt lat="50.9441287" lon="6.9318313">
      <time>2020-01-26T14:05:12Z</time>
    </trkpt>
    <trkpt lat="50.9442083" lon="6.9317339">
      <time>2020-01-26T14:05:14Z</time>
    </trkpt>
    <trkpt lat="50.9442448" lon="6.9316740">
      <time>2020-01-26T14:05:15Z</time>
    </trkpt>
    <trkpt lat="50.9443286" lon="6.9314651">
      <time>2020-01-26T14:05:18Z</time>
    </trkpt>
    <trkpt lat="50.9445217" lon="6.9309273">
      <time>2020-01-26T14:05:25Z</time>
    </trkpt>
    <trkpt lat="50.9446518" lon="6.9305100">
      <time>2020-01-26T14:05:30Z</time>
    </trkpt>
    <trkpt lat="50.9447065" lon="6.9303514">
      <time>2020-01-26T14:05:32Z</time>
    </trkpt>
    <trkpt lat="50.9448085" lon="6.9300548">
      <time>2020-01-26T14:05:36Z</time>
    </trkpt>
    <trkpt lat="50.9449832" lon="6.9293602">
      <time>2020-01-26T14:05:43Z</time>
    </trkpt>
    <trkpt lat="50.9450060" lon="6.9292847">
      <time>2020-01-26T14:05:44Z</time>
    </trkpt>
    <trkpt lat="50.9450637" lon="6.9291305">
      <time>2020-01-26T14:05:47Z</time>
    </trkpt>
    <trkpt lat="50.9451304" lon="6.9289474">
      <time>2020-01-26T14:05:51Z</time>
    </trkpt>
    <trkpt lat="50.9451711" lon="6.9288281">
      <time>2020-01-26T14:05:56Z</time>
    </trkpt>
    <trkpt lat="50.9451711" lon="6.9288281">
      <time>2020-01-26T14:05:57Z</time>
    </trkpt>
    <trkpt lat="50.9451272" lon="6.9286059">
      <time>2020-01-26T14:06:06Z</time>
    </trkpt>
    <trkpt lat="50.9451429" lon="6.9285304">
      <time>2020-01-26T14:06:07Z</time>
    </trkpt>
    <trkpt lat="50.9452211" lon="6.9282297">
      <time>2020-01-26T14:06:11Z</time>
    </trkpt>
    <trkpt lat="50.9452558" lon="6.9281397">
      <time>2020-01-26T14:06:12Z</time>
    </trkpt>
    <trkpt lat="50.9453738" lon="6.9278873">
      <time>2020-01-26T14:06:15Z</time>
    </trkpt>
    <trkpt lat="50.9454377" lon="6.9277156">
      <time>2020-01-26T14:06:17Z</time>
    </trkpt>
    <trkpt lat="50.9455241" lon="6.9273820">
      <time>2020-01-26T14:06:20Z</time>
    </trkpt>
    <trkpt lat="50.9455908" lon="6.9271820">
      <time>2020-01-26T14:06:22Z</time>
    </trkpt>
    <trkpt lat="50.9458003" lon="6.9266645">
      <time>2020-01-26T14:06:27Z</time>
    </trkpt>
    <trkpt lat="50.9459539" lon="6.9262724">
      <time>2020-01-26T14:06:31Z</time>
    </trkpt>
    <trkpt lat="50.9460320" lon="6.9260450">
      <time>2020-01-26T14:06:33Z</time>
    </trkpt>
    <trkpt lat="50.9460674" lon="6.9259518">
      <time>2020-01-26T14:06:34Z</time>
    </trkpt>
    <trkpt lat="50.9461441" lon="6.9257877">
      <time>2020-01-26T14:06:36Z</time>
    </trkpt>
    <trkpt lat="50.9461882" lon="6.9256928">
      <time>2020-01-26T14:06:37Z</time>
    </trkpt>
    <trkpt lat="50.9462639" lon="6.9254944">
      <time>2020-01-26T14:06:39Z</time>
    </trkpt>
    <trkpt lat="50.9463327" lon="6.9252948">
      <time>2020-01-26T14:06:41Z</time>
    </trkpt>
    <trkpt lat="50.9464477" lon="6.9250090">
      <time>2020-01-26T14:06:44Z</time>
    </trkpt>
    <trkpt lat="50.9467470" lon="6.9242844">
      <time>2020-01-26T14:06:51Z</time>
    </trkpt>
    <trkpt lat="50.9469885" lon="6.9237018">
      <time>2020-01-26T14:06:57Z</time>
    </trkpt>
    <trkpt lat="50.9471784" lon="6.9232599">
      <time>2020-01-26T14:07:02Z</time>
    </trkpt>
    <trkpt lat="50.9472101" lon="6.9231681">
      <time>2020-01-26T14:07:03Z</time>
    </trkpt>
    <trkpt lat="50.9473114" lon="6.9229013">
      <time>2020-01-26T14:07:06Z</time>
    </trkpt>
    <trkpt lat="50.9473765" lon="6.9227476">
      <time>2020-01-26T14:07:08Z</time>
    </trkpt>
    <trkpt lat="50.9476242" lon="6.9222205">
      <time>2020-01-26T14:07:14Z</time>
    </trkpt>
    <trkpt lat="50.9478732" lon="6.9216402">
      <time>2020-01-26T14:07:21Z</time>
    </trkpt>
    <trkpt lat="50.9479434" lon="6.9214736">
      <time>2020-01-26T14:07:23Z</time>
    </trkpt>
    <trkpt lat="50.9480610" lon="6.9211555">
      <time>2020-01-26T14:07:27Z</time>
    </trkpt>
    <trkpt lat="50.9481134" lon="6.9210136">
      <time>2020-01-26T14:07:29Z</time>
    </trkpt>
    <trkpt lat="50.9481741" lon="6.9208785">
      <time>2020-01-26T14:07:31Z</time>
    </trkpt>
    <trkpt lat="50.9482037" lon="6.9208097">
      <time>2020-01-26T14:07:32Z</time>
    </trkpt>
    <trkpt lat="50.9483872" lon="6.9203987">
      <time>2020-01-26T14:07:38Z</time>
    </trkpt>
    <trkpt lat="50.9484483" lon="6.9202174">
      <time>2020-01-26T14:07:40Z</time>
    </trkpt>
    <trkpt lat="50.9485411" lon="6.9200400">
      <time>2020-01-26T14:07:42Z</time>
    </trkpt>
    <trkpt lat="50.9487199" lon="6.9196458">
      <time>2020-01-26T14:07:46Z</time>
    </trkpt>
    <trkpt lat="50.9488917" lon="6.9192194">
      <time>2020-01-26T14:07:50Z</time>
    </trkpt>
    <trkpt lat="50.9490538" lon="6.9188214">
      <time>2020-01-26T14:07:54Z</time>
    </trkpt>
    <trkpt lat="50.9492705" lon="6.9183132">
      <time>2020-01-26T14:07:59Z</time>
    </trkpt>
    <trkpt lat="50.9496490" lon="6.9176847">
      <time>2020-01-26T14:08:06Z</time>
    </trkpt>
    <trkpt lat="50.9498687" lon="6.9172805">
      <time>2020-01-26T14:08:11Z</time>
    </trkpt>
    <trkpt lat="50.9499682" lon="6.9171475">
      <time>2020-01-26T14:08:13Z</time>
    </trkpt>
    <trkpt lat="50.9500489" lon="6.9169988">
      <time>2020-01-26T14:08:15Z</time>
    </trkpt>
    <trkpt lat="50.9500806" lon="6.9169542">
      <time>2020-01-26T14:08:16Z</time>
    </trkpt>
    <trkpt lat="50.9501266" lon="6.9168812">
      <time>2020-01-26T14:08:17Z</time>
    </trkpt>
    <trkpt lat="50.9502996" lon="6.9166698">
      <time>2020-01-26T14:08:21Z</time>
    </trkpt>
    <trkpt lat="50.9504532" lon="6.9164976">
      <time>2020-01-26T14:08:24Z</time>
    </trkpt>
    <trkpt lat="50.9506493" lon="6.9161971">
      <time>2020-01-26T14:08:28Z</time>
    </trkpt>
    <trkpt lat="50.9509535" lon="6.9157058">
      <time>2020-01-26T14:08:35Z</time>
    </trkpt>
    <trkpt lat="50.9510852" lon="6.9155273">
      <time>2020-01-26T14:08:38Z</time>
    </trkpt>
    <trkpt lat="50.9511755" lon="6.9154015">
      <time>2020-01-26T14:08:40Z</time>
    </trkpt>
    <trkpt lat="50.9513891" lon="6.9150310">
      <time>2020-01-26T14:08:45Z</time>
    </trkpt>
    <trkpt lat="50.9514332" lon="6.9149267">
      <time>2020-01-26T14:08:46Z</time>
    </trkpt>
    <trkpt lat="50.9516056" lon="6.9146320">
      <time>2020-01-26T14:08:50Z</time>
    </trkpt>
    <trkpt lat="50.9516568" lon="6.9145697">
      <time>2020-01-26T14:08:51Z</time>
    </trkpt>
    <trkpt lat="50.9518102" lon="6.9143779">
      <time>2020-01-26T14:08:54Z</time>
    </trkpt>
    <trkpt lat="50.9519383" lon="6.9141774">
      <time>2020-01-26T14:08:57Z</time>
    </trkpt>
    <trkpt lat="50.9520757" lon="6.9139964">
      <time>2020-01-26T14:09:00Z</time>
    </trkpt>
    <trkpt lat="50.9521543" lon="6.9138821">
      <time>2020-01-26T14:09:02Z</time>
    </trkpt>
    <trkpt lat="50.9523625" lon="6.9135538">
      <time>2020-01-26T14:09:07Z</time>
    </trkpt>
    <trkpt lat="50.9524162" lon="6.9134553">
      <time>2020-01-26T14:09:09Z</time>
    </trkpt>
    <trkpt lat="50.9524548" lon="6.9133845">
      <time>2020-01-26T14:09:12Z</time>
    </trkpt>
    <trkpt lat="50.9524594" lon="6.9133725">
      <time>2020-01-26T14:09:13Z</time>
    </trkpt>
    <trkpt lat="50.9524673" lon="6.9133495">
      <time>2020-01-26T14:09:17Z</time>
    </trkpt>
    <trkpt lat="50.9524767" lon="6.9133275">
      <time>2020-01-26T14:09:18Z</time>
    </trkpt>
    <trkpt lat="50.9525668" lon="6.9132427">
      <time>2020-01-26T14:09:22Z</time>
    </trkpt>
    <trkpt lat="50.9525972" lon="6.9132069">
      <time>2020-01-26T14:09:23Z</time>
    </trkpt>
    <trkpt lat="50.9526741" lon="6.9131267">
      <time>2020-01-26T14:09:25Z</time>
    </trkpt>
    <trkpt lat="50.9527053" lon="6.9130803">
      <time>2020-01-26T14:09:26Z</time>
    </trkpt>
    <trkpt lat="50.9528151" lon="6.9129129">
      <time>2020-01-26T14:09:29Z</time>
    </trkpt>
    <trkpt lat="50.9529633" lon="6.9126654">
      <time>2020-01-26T14:09:33Z</time>
    </trkpt>
    <trkpt lat="50.9530235" lon="6.9125691">
      <time>2020-01-26T14:09:35Z</time>
    </trkpt>
    <trkpt lat="50.9530881" lon="6.9124799">
      <time>2020-01-26T14:09:37Z</time>
    </trkpt>
    <trkpt lat="50.9531451" lon="6.9123882">
      <time>2020-01-26T14:09:39Z</time>
    </trkpt>
    <trkpt lat="50.9531869" lon="6.9123333">
      <time>2020-01-26T14:09:40Z</time>
    </trkpt>
    <trkpt lat="50.9532860" lon="6.9121867">
      <time>2020-01-26T14:09:43Z</time>
    </trkpt>
    <trkpt lat="50.9533982" lon="6.9120055">
      <time>2020-01-26T14:09:47Z</time>
    </trkpt>
    <trkpt lat="50.9534864" lon="6.9118567">
      <time>2020-01-26T14:09:50Z</time>
    </trkpt>
    <trkpt lat="50.9535542" lon="6.9117578">
      <time>2020-01-26T14:09:52Z</time>
    </trkpt>
    <trkpt lat="50.9536294" lon="6.9116609">
      <time>2020-01-26T14:09:54Z</time>
    </trkpt>
    <trkpt lat="50.9539322" lon="6.9112071">
      <time>2020-01-26T14:10:02Z</time>
    </trkpt>
    <trkpt lat="50.9540418" lon="6.9110227">
      <time>2020-01-26T14:10:05Z</time>
    </trkpt>
    <trkpt lat="50.9541448" lon="6.9108637">
      <time>2020-01-26T14:10:08Z</time>
    </trkpt>
    <trkpt lat="50.9541869" lon="6.9107972">
      <time>2020-01-26T14:10:09Z</time>
    </trkpt>
    <trkpt lat="50.9542503" lon="6.9107008">
      <time>2020-01-26T14:10:11Z</time>
    </trkpt>
    <trkpt lat="50.9543132" lon="6.9105887">
      <time>2020-01-26T14:10:13Z</time>
    </trkpt>
    <trkpt lat="50.9544282" lon="6.9103624">
      <time>2020-01-26T14:10:17Z</time>
    </trkpt>
    <trkpt lat="50.9544819" lon="6.9102455">
      <time>2020-01-26T14:10:19Z</time>
    </trkpt>
    <trkpt lat="50.9545048" lon="6.9101788">
      <time>2020-01-26T14:10:20Z</time>
    </trkpt>
    <trkpt lat="50.9545318" lon="6.9101007">
      <time>2020-01-26T14:10:21Z</time>
    </trkpt>
    <trkpt lat="50.9546012" lon="6.9098754">
      <time>2020-01-26T14:10:24Z</time>
    </trkpt>
    <trkpt lat="50.9546274" lon="6.9097936">
      <time>2020-01-26T14:10:25Z</time>
    </trkpt>
    <trkpt lat="50.9548287" lon="6.9092286">
      <time>2020-01-26T14:10:32Z</time>
    </trkpt>
    <trkpt lat="50.9549348" lon="6.9088979">
      <time>2020-01-26T14:10:36Z</time>
    </trkpt>
    <trkpt lat="50.9549845" lon="6.9087315">
      <time>2020-01-26T14:10:38Z</time>
    </trkpt>
    <trkpt lat="50.9550639" lon="6.9084727">
      <time>2020-01-26T14:10:41Z</time>
    </trkpt>
    <trkpt lat="50.9551143" lon="6.9082972">
      <time>2020-01-26T14:10:43Z</time>
    </trkpt>
    <trkpt lat="50.9552679" lon="6.9077542">
      <time>2020-01-26T14:10:49Z</time>
    </trkpt>
    <trkpt lat="50.9552881" lon="6.9076474">
      <time>2020-01-26T14:10:50Z</time>
    </trkpt>
    <trkpt lat="50.9554052" lon="6.9073023">
      <time>2020-01-26T14:10:54Z</time>
    </trkpt>
    <trkpt lat="50.9554321" lon="6.9072121">
      <time>2020-01-26T14:10:55Z</time>
    </trkpt>
    <trkpt lat="50.9556214" lon="6.9066452">
      <time>2020-01-26T14:11:02Z</time>
    </trkpt>
    <trkpt lat="50.9556687" lon="6.9065023">
      <time>2020-01-26T14:11:04Z</time>
    </trkpt>
    <trkpt lat="50.9557491" lon="6.9063015">
      <time>2020-01-26T14:11:07Z</time>
    </trkpt>
    <trkpt lat="50.9558329" lon="6.9060734">
      <time>2020-01-26T14:11:10Z</time>
    </trkpt>
    <trkpt lat="50.9558776" lon="6.9059328">
      <time>2020-01-26T14:11:12Z</time>
    </trkpt>
    <trkpt lat="50.9559457" lon="6.9057882">
      <time>2020-01-26T14:11:14Z</time>
    </trkpt>
    <trkpt lat="50.9559972" lon="6.9056658">
      <time>2020-01-26T14:11:16Z</time>
    </trkpt>
    <trkpt lat="50.9561283" lon="6.9052453">
      <time>2020-01-26T14:11:21Z</time>
    </trkpt>
    <trkpt lat="50.9561565" lon="6.9051624">
      <time>2020-01-26T14:11:22Z</time>
    </trkpt>
    <trkpt lat="50.9562728" lon="6.9048565">
      <time>2020-01-26T14:11:26Z</time>
    </trkpt>
    <trkpt lat="50.9563226" lon="6.9047092">
      <time>2020-01-26T14:11:28Z</time>
    </trkpt>
    <trkpt lat="50.9564227" lon="6.9043676">
      <time>2020-01-26T14:11:32Z</time>
    </trkpt>
    <trkpt lat="50.9565202" lon="6.9041104">
      <time>2020-01-26T14:11:35Z</time>
    </trkpt>
    <trkpt lat="50.9565759" lon="6.9039504">
      <time>2020-01-26T14:11:37Z</time>
    </trkpt>
    <trkpt lat="50.9566666" lon="6.9037418">
      <time>2020-01-26T14:11:40Z</time>
    </trkpt>
    <trkpt lat="50.9567126" lon="6.9036118">
      <time>2020-01-26T14:11:42Z</time>
    </trkpt>
    <trkpt lat="50.9567549" lon="6.9034655">
      <time>2020-01-26T14:11:45Z</time>
    </trkpt>
    <trkpt lat="50.9567636" lon="6.9034387">
      <time>2020-01-26T14:11:46Z</time>
    </trkpt>
    <trkpt lat="50.9567794" lon="6.9033878">
      <time>2020-01-26T14:11:49Z</time>
    </trkpt>
    <trkpt lat="50.9567949" lon="6.9033534">
      <time>2020-01-26T14:11:52Z</time>
    </trkpt>
    <trkpt lat="50.9568099" lon="6.9033267">
      <time>2020-01-26T14:11:55Z</time>
    </trkpt>
    <trkpt lat="50.9568099" lon="6.9033153">
      <time>2020-01-26T14:11:57Z</time>
    </trkpt>
    <trkpt lat="50.9568116" lon="6.9033027">
      <time>2020-01-26T14:11:59Z</time>
    </trkpt>
    <trkpt lat="50.9568140" lon="6.9032991">
      <time>2020-01-26T14:12:02Z</time>
    </trkpt>
    <trkpt lat="50.9568240" lon="6.9032654">
      <time>2020-01-26T14:12:33Z</time>
    </trkpt>
    <trkpt lat="50.9568997" lon="6.9030362">
      <time>2020-01-26T14:12:38Z</time>
    </trkpt>
    <trkpt lat="50.9569172" lon="6.9029715">
      <time>2020-01-26T14:12:39Z</time>
    </trkpt>
    <trkpt lat="50.9569829" lon="6.9026824">
      <time>2020-01-26T14:12:43Z</time>
    </trkpt>
    <trkpt lat="50.9570721" lon="6.9022445">
      <time>2020-01-26T14:12:48Z</time>
    </trkpt>
    <trkpt lat="50.9572726" lon="6.9015915">
      <time>2020-01-26T14:12:56Z</time>
    </trkpt>
    <trkpt lat="50.9573091" lon="6.9015224">
      <time>2020-01-26T14:12:57Z</time>
    </trkpt>
    <trkpt lat="50.9573695" lon="6.9013999">
      <time>2020-01-26T14:12:59Z</time>
    </trkpt>
    <trkpt lat="50.9574746" lon="6.9010990">
      <time>2020-01-26T14:13:03Z</time>
    </trkpt>
    <trkpt lat="50.9575533" lon="6.9008996">
      <time>2020-01-26T14:13:06Z</time>
    </trkpt>
    <trkpt lat="50.9575769" lon="6.9008112">
      <time>2020-01-26T14:13:08Z</time>
    </trkpt>
    <trkpt lat="50.9575909" lon="6.9007718">
      <time>2020-01-26T14:13:10Z</time>
    </trkpt>
    <trkpt lat="50.9575948" lon="6.9007691">
      <time>2020-01-26T14:13:11Z</time>
    </trkpt>
    <trkpt lat="50.9575948" lon="6.9007691">
      <time>2020-01-26T14:13:13Z</time>
    </trkpt>
    <trkpt lat="50.9576330" lon="6.9006934">
      <time>2020-01-26T14:13:21Z</time>
    </trkpt>
    <trkpt lat="50.9576481" lon="6.9006548">
      <time>2020-01-26T14:13:22Z</time>
    </trkpt>
    <trkpt lat="50.9577693" lon="6.9003887">
      <time>2020-01-26T14:13:28Z</time>
    </trkpt>
    <trkpt lat="50.9577962" lon="6.9003293">
      <time>2020-01-26T14:13:29Z</time>
    </trkpt>
    <trkpt lat="50.9578413" lon="6.9001765">
      <time>2020-01-26T14:13:31Z</time>
    </trkpt>
    <trkpt lat="50.9578755" lon="6.9001048">
      <time>2020-01-26T14:13:32Z</time>
    </trkpt>
    <trkpt lat="50.9579911" lon="6.8998841">
      <time>2020-01-26T14:13:35Z</time>
    </trkpt>
    <trkpt lat="50.9581053" lon="6.8996369">
      <time>2020-01-26T14:13:38Z</time>
    </trkpt>
    <trkpt lat="50.9581365" lon="6.8995757">
      <time>2020-01-26T14:13:39Z</time>
    </trkpt>
    <trkpt lat="50.9582523" lon="6.8993143">
      <time>2020-01-26T14:13:42Z</time>
    </trkpt>
    <trkpt lat="50.9584050" lon="6.8989998">
      <time>2020-01-26T14:13:46Z</time>
    </trkpt>
    <trkpt lat="50.9586075" lon="6.8985444">
      <time>2020-01-26T14:13:52Z</time>
    </trkpt>
    <trkpt lat="50.9586650" lon="6.8983928">
      <time>2020-01-26T14:13:54Z</time>
    </trkpt>
    <trkpt lat="50.9587400" lon="6.8982341">
      <time>2020-01-26T14:13:57Z</time>
    </trkpt>
    <trkpt lat="50.9588509" lon="6.8979782">
      <time>2020-01-26T14:14:01Z</time>
    </trkpt>
    <trkpt lat="50.9588865" lon="6.8979018">
      <time>2020-01-26T14:14:02Z</time>
    </trkpt>
    <trkpt lat="50.9590880" lon="6.8974978">
      <time>2020-01-26T14:14:08Z</time>
    </trkpt>
    <trkpt lat="50.9593280" lon="6.8969582">
      <time>2020-01-26T14:14:15Z</time>
    </trkpt>
    <trkpt lat="50.9593635" lon="6.8968896">
      <time>2020-01-26T14:14:16Z</time>
    </trkpt>
    <trkpt lat="50.9595086" lon="6.8965973">
      <time>2020-01-26T14:14:20Z</time>
    </trkpt>
    <trkpt lat="50.9595332" lon="6.8965312">
      <time>2020-01-26T14:14:21Z</time>
    </trkpt>
    <trkpt lat="50.9597923" lon="6.8959672">
      <time>2020-01-26T14:14:28Z</time>
    </trkpt>
    <trkpt lat="50.9598385" lon="6.8958712">
      <time>2020-01-26T14:14:29Z</time>
    </trkpt>
    <trkpt lat="50.9599569" lon="6.8956316">
      <time>2020-01-26T14:14:32Z</time>
    </trkpt>
    <trkpt lat="50.9600698" lon="6.8953952">
      <time>2020-01-26T14:14:35Z</time>
    </trkpt>
    <trkpt lat="50.9601930" lon="6.8951456">
      <time>2020-01-26T14:14:38Z</time>
    </trkpt>
    <trkpt lat="50.9602697" lon="6.8949821">
      <time>2020-01-26T14:14:40Z</time>
    </trkpt>
    <trkpt lat="50.9603967" lon="6.8947279">
      <time>2020-01-26T14:14:43Z</time>
    </trkpt>
    <trkpt lat="50.9605464" lon="6.8944443">
      <time>2020-01-26T14:14:47Z</time>
    </trkpt>
    <trkpt lat="50.9606970" lon="6.8941558">
      <time>2020-01-26T14:14:51Z</time>
    </trkpt>
    <trkpt lat="50.9607635" lon="6.8940297">
      <time>2020-01-26T14:14:53Z</time>
    </trkpt>
    <trkpt lat="50.9607870" lon="6.8939687">
      <time>2020-01-26T14:14:54Z</time>
    </trkpt>
    <trkpt lat="50.9608353" lon="6.8938439">
      <time>2020-01-26T14:14:56Z</time>
    </trkpt>
    <trkpt lat="50.9609038" lon="6.8937204">
      <time>2020-01-26T14:14:58Z</time>
    </trkpt>
    <trkpt lat="50.9609499" lon="6.8936766">
      <time>2020-01-26T14:14:59Z</time>
    </trkpt>
    <trkpt lat="50.9610376" lon="6.8935979">
      <time>2020-01-26T14:15:01Z</time>
    </trkpt>
    <trkpt lat="50.9611173" lon="6.8934967">
      <time>2020-01-26T14:15:03Z</time>
    </trkpt>
    <trkpt lat="50.9611529" lon="6.8934366">
      <time>2020-01-26T14:15:04Z</time>
    </trkpt>
    <trkpt lat="50.9612130" lon="6.8933130">
      <time>2020-01-26T14:15:06Z</time>
    </trkpt>
    <trkpt lat="50.9612955" lon="6.8931550">
      <time>2020-01-26T14:15:09Z</time>
    </trkpt>
    <trkpt lat="50.9613251" lon="6.8930201">
      <time>2020-01-26T14:15:12Z</time>
    </trkpt>
    <trkpt lat="50.9612462" lon="6.8929183">
      <time>2020-01-26T14:15:15Z</time>
    </trkpt>
    <trkpt lat="50.9611718" lon="6.8927832">
      <time>2020-01-26T14:15:18Z</time>
    </trkpt>
    <trkpt lat="50.9611627" lon="6.8927160">
      <time>2020-01-26T14:15:19Z</time>
    </trkpt>
    <trkpt lat="50.9611359" lon="6.8925862">
      <time>2020-01-26T14:15:21Z</time>
    </trkpt>
    <trkpt lat="50.9610840" lon="6.8924435">
      <time>2020-01-26T14:15:23Z</time>
    </trkpt>
    <trkpt lat="50.9608497" lon="6.8919651">
      <time>2020-01-26T14:15:29Z</time>
    </trkpt>
    <trkpt lat="50.9607298" lon="6.8917308">
      <time>2020-01-26T14:15:32Z</time>
    </trkpt>
    <trkpt lat="50.9605915" lon="6.8914338">
      <time>2020-01-26T14:15:36Z</time>
    </trkpt>
    <trkpt lat="50.9604149" lon="6.8910736">
      <time>2020-01-26T14:15:41Z</time>
    </trkpt>
    <trkpt lat="50.9603188" lon="6.8908483">
      <time>2020-01-26T14:15:44Z</time>
    </trkpt>
    <trkpt lat="50.9602875" lon="6.8907702">
      <time>2020-01-26T14:15:45Z</time>
    </trkpt>
    <trkpt lat="50.9602424" lon="6.8905976">
      <time>2020-01-26T14:15:47Z</time>
    </trkpt>
    <trkpt lat="50.9602099" lon="6.8904099">
      <time>2020-01-26T14:15:49Z</time>
    </trkpt>
    <trkpt lat="50.9601974" lon="6.8900103">
      <time>2020-01-26T14:15:53Z</time>
    </trkpt>
    <trkpt lat="50.9602128" lon="6.8899072">
      <time>2020-01-26T14:15:54Z</time>
    </trkpt>
    <trkpt lat="50.9602771" lon="6.8893471">
      <time>2020-01-26T14:16:00Z</time>
    </trkpt>
    <trkpt lat="50.9603744" lon="6.8881611">
      <time>2020-01-26T14:16:12Z</time>
    </trkpt>
    <trkpt lat="50.9603719" lon="6.8880759">
      <time>2020-01-26T14:16:13Z</time>
    </trkpt>
    <trkpt lat="50.9603376" lon="6.8877185">
      <time>2020-01-26T14:16:17Z</time>
    </trkpt>
    <trkpt lat="50.9602985" lon="6.8874588">
      <time>2020-01-26T14:16:20Z</time>
    </trkpt>
    <trkpt lat="50.9602238" lon="6.8869256">
      <time>2020-01-26T14:16:26Z</time>
    </trkpt>
    <trkpt lat="50.9600672" lon="6.8863934">
      <time>2020-01-26T14:16:33Z</time>
    </trkpt>
    <trkpt lat="50.9600013" lon="6.8862100">
      <time>2020-01-26T14:16:36Z</time>
    </trkpt>
    <trkpt lat="50.9599243" lon="6.8860623">
      <time>2020-01-26T14:16:39Z</time>
    </trkpt>
    <trkpt lat="50.9599050" lon="6.8859014">
      <time>2020-01-26T14:16:43Z</time>
    </trkpt>
    <trkpt lat="50.9599661" lon="6.8858604">
      <time>2020-01-26T14:16:46Z</time>
    </trkpt>
    <trkpt lat="50.9599856" lon="6.8858639">
      <time>2020-01-26T14:16:47Z</time>
    </trkpt>
    <trkpt lat="50.9600465" lon="6.8858741">
      <time>2020-01-26T14:16:50Z</time>
    </trkpt>
    <trkpt lat="50.9600900" lon="6.8858576">
      <time>2020-01-26T14:16:52Z</time>
    </trkpt>
    <trkpt lat="50.9601310" lon="6.8858433">
      <time>2020-01-26T14:16:54Z</time>
    </trkpt>
    <trkpt lat="50.9602312" lon="6.8858313">
      <time>2020-01-26T14:16:58Z</time>
    </trkpt>
    <trkpt lat="50.9602930" lon="6.8858125">
      <time>2020-01-26T14:17:00Z</time>
    </trkpt>
    <trkpt lat="50.9603483" lon="6.8858119">
      <time>2020-01-26T14:17:02Z</time>
    </trkpt>
    <trkpt lat="50.9603729" lon="6.8858100">
      <time>2020-01-26T14:17:03Z</time>
    </trkpt>
    <trkpt lat="50.9605686" lon="6.8857756">
      <time>2020-01-26T14:17:09Z</time>
    </trkpt>
    <trkpt lat="50.9606913" lon="6.8857370">
      <time>2020-01-26T14:17:12Z</time>
    </trkpt>
    <trkpt lat="50.9610949" lon="6.8856363">
      <time>2020-01-26T14:17:20Z</time>
    </trkpt>
    <trkpt lat="50.9612784" lon="6.8855404">
      <time>2020-01-26T14:17:24Z</time>
    </trkpt>
    <trkpt lat="50.9614042" lon="6.8854159">
      <time>2020-01-26T14:17:27Z</time>
    </trkpt>
    <trkpt lat="50.9614829" lon="6.8853268">
      <time>2020-01-26T14:17:29Z</time>
    </trkpt>
    <trkpt lat="50.9616079" lon="6.8851791">
      <time>2020-01-26T14:17:32Z</time>
    </trkpt>
    <trkpt lat="50.9616534" lon="6.8851440">
      <time>2020-01-26T14:17:33Z</time>
    </trkpt>
    <trkpt lat="50.9618559" lon="6.8850531">
      <time>2020-01-26T14:17:37Z</time>
    </trkpt>
    <trkpt lat="50.9619044" lon="6.8850285">
      <time>2020-01-26T14:17:38Z</time>
    </trkpt>
    <trkpt lat="50.9619455" lon="6.8849909">
      <time>2020-01-26T14:17:39Z</time>
    </trkpt>
    <trkpt lat="50.9619792" lon="6.8849370">
      <time>2020-01-26T14:17:40Z</time>
    </trkpt>
    <trkpt lat="50.9620074" lon="6.8847999">
      <time>2020-01-26T14:17:42Z</time>
    </trkpt>
    <trkpt lat="50.9620244" lon="6.8846510">
      <time>2020-01-26T14:17:44Z</time>
    </trkpt>
    <trkpt lat="50.9620411" lon="6.8843841">
      <time>2020-01-26T14:17:47Z</time>
    </trkpt>
    <trkpt lat="50.9621214" lon="6.8837270">
      <time>2020-01-26T14:17:54Z</time>
    </trkpt>
    <trkpt lat="50.9622011" lon="6.8831580">
      <time>2020-01-26T14:18:01Z</time>
    </trkpt>
    <trkpt lat="50.9622571" lon="6.8828116">
      <time>2020-01-26T14:18:05Z</time>
    </trkpt>
    <trkpt lat="50.9622919" lon="6.8826402">
      <time>2020-01-26T14:18:07Z</time>
    </trkpt>
    <trkpt lat="50.9623082" lon="6.8825499">
      <time>2020-01-26T14:18:08Z</time>
    </trkpt>
    <trkpt lat="50.9624195" lon="6.8819058">
      <time>2020-01-26T14:18:15Z</time>
    </trkpt>
    <trkpt lat="50.9624700" lon="6.8815546">
      <time>2020-01-26T14:18:19Z</time>
    </trkpt>
    <trkpt lat="50.9625128" lon="6.8812960">
      <time>2020-01-26T14:18:22Z</time>
    </trkpt>
    <trkpt lat="50.9625389" lon="6.8811324">
      <time>2020-01-26T14:18:24Z</time>
    </trkpt>
    <trkpt lat="50.9625717" lon="6.8809595">
      <time>2020-01-26T14:18:26Z</time>
    </trkpt>
    <trkpt lat="50.9626660" lon="6.8803342">
      <time>2020-01-26T14:18:33Z</time>
    </trkpt>
    <trkpt lat="50.9626787" lon="6.8802482">
      <time>2020-01-26T14:18:34Z</time>
    </trkpt>
    <trkpt lat="50.9627108" lon="6.8799929">
      <time>2020-01-26T14:18:37Z</time>
    </trkpt>
    <trkpt lat="50.9627266" lon="6.8798349">
      <time>2020-01-26T14:18:39Z</time>
    </trkpt>
    <trkpt lat="50.9627766" lon="6.8795631">
      <time>2020-01-26T14:18:43Z</time>
    </trkpt>
    <trkpt lat="50.9627886" lon="6.8795041">
      <time>2020-01-26T14:18:44Z</time>
    </trkpt>
    <trkpt lat="50.9628506" lon="6.8791610">
      <time>2020-01-26T14:18:50Z</time>
    </trkpt>
    <trkpt lat="50.9629333" lon="6.8789481">
      <time>2020-01-26T14:18:54Z</time>
    </trkpt>
    <trkpt lat="50.9629496" lon="6.8789203">
      <time>2020-01-26T14:18:55Z</time>
    </trkpt>
    <trkpt lat="50.9630741" lon="6.8787228">
      <time>2020-01-26T14:19:00Z</time>
    </trkpt>
    <trkpt lat="50.9632076" lon="6.8785771">
      <time>2020-01-26T14:19:04Z</time>
    </trkpt>
    <trkpt lat="50.9632452" lon="6.8785278">
      <time>2020-01-26T14:19:05Z</time>
    </trkpt>
    <trkpt lat="50.9632835" lon="6.8784830">
      <time>2020-01-26T14:19:06Z</time>
    </trkpt>
    <trkpt lat="50.9633199" lon="6.8784483">
      <time>2020-01-26T14:19:07Z</time>
    </trkpt>
    <trkpt lat="50.9634394" lon="6.8783503">
      <time>2020-01-26T14:19:10Z</time>
    </trkpt>
    <trkpt lat="50.9634882" lon="6.8783242">
      <time>2020-01-26T14:19:11Z</time>
    </trkpt>
    <trkpt lat="50.9635193" lon="6.8783140">
      <time>2020-01-26T14:19:12Z</time>
    </trkpt>
    <trkpt lat="50.9636146" lon="6.8782462">
      <time>2020-01-26T14:19:15Z</time>
    </trkpt>
    <trkpt lat="50.9636798" lon="6.8781907">
      <time>2020-01-26T14:19:18Z</time>
    </trkpt>
    <trkpt lat="50.9636931" lon="6.8781680">
      <time>2020-01-26T14:19:19Z</time>
    </trkpt>
    <trkpt lat="50.9637522" lon="6.8779453">
      <time>2020-01-26T14:19:25Z</time>
    </trkpt>
    <trkpt lat="50.9637469" lon="6.8779068">
      <time>2020-01-26T14:19:26Z</time>
    </trkpt>
    <trkpt lat="50.9637037" lon="6.8778369">
      <time>2020-01-26T14:19:28Z</time>
    </trkpt>
    <trkpt lat="50.9636197" lon="6.8777015">
      <time>2020-01-26T14:19:31Z</time>
    </trkpt>
    <trkpt lat="50.9635949" lon="6.8776536">
      <time>2020-01-26T14:19:32Z</time>
    </trkpt>
    <trkpt lat="50.9634892" lon="6.8774680">
      <time>2020-01-26T14:19:37Z</time>
    </trkpt>
    <trkpt lat="50.9634414" lon="6.8774052">
      <time>2020-01-26T14:19:39Z</time>
    </trkpt>
    <trkpt lat="50.9634395" lon="6.8773244">
      <time>2020-01-26T14:19:41Z</time>
    </trkpt>
    <trkpt lat="50.9634558" lon="6.8772853">
      <time>2020-01-26T14:19:43Z</time>
    </trkpt>
    <trkpt lat="50.9634607" lon="6.8772817">
      <time>2020-01-26T14:19:44Z</time>
    </trkpt>
    <trkpt lat="50.9634607" lon="6.8772817">
      <time>2020-01-26T14:19:46Z</time>
    </trkpt>
  </trkseg></trk>
</gpx>
