<?xml version="1.0" encoding="UTF-8"?>
<gpx version="1.1" creator="Diary FIT converter" xmlns="http://www.topografix.com/GPX/1/1">
  <trk><name>Cycling</name><trkseg>
    <trkpt lat="50.9626369" lon="6.8805123">
      <time>2020-01-26T16:11:56Z</time>
    </trkpt>
    <trkpt lat="50.9625814" lon="6.8807365">
      <time>2020-01-26T16:12:00Z</time>
    </trkpt>
    <trkpt lat="50.9625275" lon="6.8810750">
      <time>2020-01-26T16:12:05Z</time>
    </trkpt>
    <trkpt lat="50.9624905" lon="6.8813553">
      <time>2020-01-26T16:12:09Z</time>
    </trkpt>
    <trkpt lat="50.9624671" lon="6.8815559">
      <time>2020-01-26T16:12:12Z</time>
    </trkpt>
    <trkpt lat="50.9624521" lon="6.8816899">
      <time>2020-01-26T16:12:14Z</time>
    </trkpt>
    <trkpt lat="50.9624249" lon="6.8818950">
      <time>2020-01-26T16:12:17Z</time>
    </trkpt>
    <trkpt lat="50.9623870" lon="6.8821704">
      <time>2020-01-26T16:12:21Z</time>
    </trkpt>
    <trkpt lat="50.9623246" lon="6.8825592">
      <time>2020-01-26T16:12:27Z</time>
    </trkpt>
    <trkpt lat="50.9623039" lon="6.8826958">
      <time>2020-01-26T16:12:29Z</time>
    </trkpt>
    <trkpt lat="50.9622994" lon="6.8827523">
      <time>2020-01-26T16:12:30Z</time>
    </trkpt>
    <trkpt lat="50.9622947" lon="6.8827976">
      <time>2020-01-26T16:12:31Z</time>
    </trkpt>
    <trkpt lat="50.9622769" lon="6.8829080">
      <time>2020-01-26T16:12:33Z</time>
    </trkpt>
    <trkpt lat="50.9622512" lon="6.8830134">
      <time>2020-01-26T16:12:35Z</time>
    </trkpt>
    <trkpt lat="50.9621647" lon="6.8834838">
      <time>2020-01-26T16:12:43Z</time>
    </trkpt>
    <trkpt lat="50.9621227" lon="6.8837829">
      <time>2020-01-26T16:12:48Z</time>
    </trkpt>
    <trkpt lat="50.9620925" lon="6.8839505">
      <time>2020-01-26T16:12:51Z</time>
    </trkpt>
    <trkpt lat="50.9620846" lon="6.8840727">
      <time>2020-01-26T16:12:53Z</time>
    </trkpt>
    <trkpt lat="50.9620417" lon="6.8843991">
      <time>2020-01-26T16:12:58Z</time>
    </trkpt>
    <trkpt lat="50.9620392" lon="6.8844575">
      <time>2020-01-26T16:12:59Z</time>
    </trkpt>
    <trkpt lat="50.9620181" lon="6.8846403">
      <time>2020-01-26T16:13:03Z</time>
    </trkpt>
    <trkpt lat="50.9619564" lon="6.8848903">
      <time>2020-01-26T16:13:07Z</time>
    </trkpt>
    <trkpt lat="50.9618974" lon="6.8849664">
      <time>2020-01-26T16:13:09Z</time>
    </trkpt>
    <trkpt lat="50.9618113" lon="6.8850135">
      <time>2020-01-26T16:13:11Z</time>
    </trkpt>
    <trkpt lat="50.9615453" lon="6.8851719">
      <time>2020-01-26T16:13:17Z</time>
    </trkpt>
    <trkpt lat="50.9613228" lon="6.8854440">
      <time>2020-01-26T16:13:23Z</time>
    </trkpt>
    <trkpt lat="50.9611551" lon="6.8855559">
      <time>2020-01-26T16:13:27Z</time>
    </trkpt>
    <trkpt lat="50.9610689" lon="6.8855958">
      <time>2020-01-26T16:13:29Z</time>
    </trkpt>
    <trkpt lat="50.9610254" lon="6.8856091">
      <time>2020-01-26T16:13:30Z</time>
    </trkpt>
    <trkpt lat="50.9606321" lon="6.8857060">
      <time>2020-01-26T16:13:39Z</time>
    </trkpt>
    <trkpt lat="50.9605566" lon="6.8857023">
      <time>2020-01-26T16:13:41Z</time>
    </trkpt>
    <trkpt lat="50.9604657" lon="6.8857202">
      <time>2020-01-26T16:13:44Z</time>
    </trkpt>
    <trkpt lat="50.9603589" lon="6.8857371">
      <time>2020-01-26T16:13:48Z</time>
    </trkpt>
    <trkpt lat="50.9601655" lon="6.8857887">
      <time>2020-01-26T16:13:54Z</time>
    </trkpt>
    <trkpt lat="50.9599662" lon="6.8858365">
      <time>2020-01-26T16:14:00Z</time>
    </trkpt>
    <trkpt lat="50.9599182" lon="6.8858671">
      <time>2020-01-26T16:14:03Z</time>
    </trkpt>
    <trkpt lat="50.9598720" lon="6.8859462">
      <time>2020-01-26T16:14:08Z</time>
    </trkpt>
    <trkpt lat="50.9598677" lon="6.8859835">
      <time>2020-01-26T16:14:09Z</time>
    </trkpt>
    <trkpt lat="50.9599305" lon="6.8861713">
      <time>2020-01-26T16:14:14Z</time>
    </trkpt>
    <trkpt lat="50.9600460" lon="6.8865007">
      <time>2020-01-26T16:14:21Z</time>
    </trkpt>
    <trkpt lat="50.9601448" lon="6.8868017">
      <time>2020-01-26T16:14:27Z</time>
    </trkpt>
    <trkpt lat="50.9601932" lon="6.8870393">
      <time>2020-01-26T16:14:31Z</time>
    </trkpt>
    <trkpt lat="50.9602478" lon="6.8874809">
      <time>2020-01-26T16:14:38Z</time>
    </trkpt>
    <trkpt lat="50.9602930" lon="6.8879621">
      <time>2020-01-26T16:14:45Z</time>
    </trkpt>
    <trkpt lat="50.9602895" lon="6.8885409">
      <time>2020-01-26T16:14:53Z</time>
    </trkpt>
    <trkpt lat="50.9601822" lon="6.8897036">
      <time>2020-01-26T16:15:08Z</time>
    </trkpt>
    <trkpt lat="50.9601690" lon="6.8898395">
      <time>2020-01-26T16:15:10Z</time>
    </trkpt>
    <trkpt lat="50.9601660" lon="6.8899799">
      <time>2020-01-26T16:15:12Z</time>
    </trkpt>
    <trkpt lat="50.9601939" lon="6.8902330">
      <time>2020-01-26T16:15:15Z</time>
    </trkpt>
    <trkpt lat="50.9601988" lon="6.8903096">
      <time>2020-01-26T16:15:16Z</time>
    </trkpt>
    <trkpt lat="50.9602216" lon="6.8904680">
      <time>2020-01-26T16:15:18Z</time>
    </trkpt>
    <trkpt lat="50.9602703" lon="6.8907043">
      <time>2020-01-26T16:15:21Z</time>
    </trkpt>
    <trkpt lat="50.9602853" lon="6.8907644">
      <time>2020-01-26T16:15:22Z</time>
    </trkpt>
    <trkpt lat="50.9603426" lon="6.8909222">
      <time>2020-01-26T16:15:24Z</time>
    </trkpt>
    <trkpt lat="50.9604039" lon="6.8910452">
      <time>2020-01-26T16:15:26Z</time>
    </trkpt>
    <trkpt lat="50.9604756" lon="6.8911759">
      <time>2020-01-26T16:15:28Z</time>
    </trkpt>
    <trkpt lat="50.9606049" lon="6.8913629">
      <time>2020-01-26T16:15:31Z</time>
    </trkpt>
    <trkpt lat="50.9606876" lon="6.8914965">
      <time>2020-01-26T16:15:33Z</time>
    </trkpt>
    <trkpt lat="50.9608119" lon="6.8917267">
      <time>2020-01-26T16:15:36Z</time>
    </trkpt>
    <trkpt lat="50.9609941" lon="6.8921021">
      <time>2020-01-26T16:15:41Z</time>
    </trkpt>
    <trkpt lat="50.9610634" lon="6.8922428">
      <time>2020-01-26T16:15:43Z</time>
    </trkpt>
    <trkpt lat="50.9611432" lon="6.8923661">
      <time>2020-01-26T16:15:45Z</time>
    </trkpt>
    <trkpt lat="50.9612607" lon="6.8925194">
      <time>2020-01-26T16:15:48Z</time>
    </trkpt>
    <trkpt lat="50.9612186" lon="6.8926740">
      <time>2020-01-26T16:15:51Z</time>
    </trkpt>
    <trkpt lat="50.9610812" lon="6.8929569">
      <time>2020-01-26T16:15:56Z</time>
    </trkpt>
    <trkpt lat="50.9608846" lon="6.8933727">
      <time>2020-01-26T16:16:02Z</time>
    </trkpt>
    <trkpt lat="50.9606647" lon="6.8937977">
      <time>2020-01-26T16:16:08Z</time>
    </trkpt>
    <trkpt lat="50.9603402" lon="6.8943454">
      <time>2020-01-26T16:16:16Z</time>
    </trkpt>
    <trkpt lat="50.9601538" lon="6.8946870">
      <time>2020-01-26T16:16:21Z</time>
    </trkpt>
    <trkpt lat="50.9600409" lon="6.8948864">
      <time>2020-01-26T16:16:24Z</time>
    </trkpt>
    <trkpt lat="50.9599013" lon="6.8951647">
      <time>2020-01-26T16:16:28Z</time>
    </trkpt>
    <trkpt lat="50.9598295" lon="6.8953074">
      <time>2020-01-26T16:16:30Z</time>
    </trkpt>
    <trkpt lat="50.9595914" lon="6.8958010">
      <time>2020-01-26T16:16:37Z</time>
    </trkpt>
    <trkpt lat="50.9595228" lon="6.8959294">
      <time>2020-01-26T16:16:39Z</time>
    </trkpt>
    <trkpt lat="50.9594576" lon="6.8960562">
      <time>2020-01-26T16:16:41Z</time>
    </trkpt>
    <trkpt lat="50.9593492" lon="6.8963092">
      <time>2020-01-26T16:16:45Z</time>
    </trkpt>
    <trkpt lat="50.9592659" lon="6.8965091">
      <time>2020-01-26T16:16:48Z</time>
    </trkpt>
    <trkpt lat="50.9592001" lon="6.8966458">
      <time>2020-01-26T16:16:50Z</time>
    </trkpt>
    <trkpt lat="50.9591290" lon="6.8967788">
      <time>2020-01-26T16:16:52Z</time>
    </trkpt>
    <trkpt lat="50.9590723" lon="6.8969211">
      <time>2020-01-26T16:16:54Z</time>
    </trkpt>
    <trkpt lat="50.9590163" lon="6.8970701">
      <time>2020-01-26T16:16:56Z</time>
    </trkpt>
    <trkpt lat="50.9587917" lon="6.8975425">
      <time>2020-01-26T16:17:02Z</time>
    </trkpt>
    <trkpt lat="50.9584383" lon="6.8982815">
      <time>2020-01-26T16:17:12Z</time>
    </trkpt>
    <trkpt lat="50.9583324" lon="6.8985043">
      <time>2020-01-26T16:17:15Z</time>
    </trkpt>
    <trkpt lat="50.9581473" lon="6.8988894">
      <time>2020-01-26T16:17:20Z</time>
    </trkpt>
    <trkpt lat="50.9580129" lon="6.8991697">
      <time>2020-01-26T16:17:24Z</time>
    </trkpt>
    <trkpt lat="50.9578725" lon="6.8994452">
      <time>2020-01-26T16:17:28Z</time>
    </trkpt>
    <trkpt lat="50.9577904" lon="6.8996210">
      <time>2020-01-26T16:17:31Z</time>
    </trkpt>
    <trkpt lat="50.9577779" lon="6.8997281">
      <time>2020-01-26T16:17:33Z</time>
    </trkpt>
    <trkpt lat="50.9576958" lon="6.8999279">
      <time>2020-01-26T16:17:37Z</time>
    </trkpt>
    <trkpt lat="50.9576048" lon="6.9001660">
      <time>2020-01-26T16:17:41Z</time>
    </trkpt>
    <trkpt lat="50.9575860" lon="6.9002212">
      <time>2020-01-26T16:17:42Z</time>
    </trkpt>
    <trkpt lat="50.9574202" lon="6.9007651">
      <time>2020-01-26T16:17:49Z</time>
    </trkpt>
    <trkpt lat="50.9573175" lon="6.9010508">
      <time>2020-01-26T16:17:53Z</time>
    </trkpt>
    <trkpt lat="50.9572725" lon="6.9011216">
      <time>2020-01-26T16:17:54Z</time>
    </trkpt>
    <trkpt lat="50.9572097" lon="6.9012930">
      <time>2020-01-26T16:17:56Z</time>
    </trkpt>
    <trkpt lat="50.9571738" lon="6.9014800">
      <time>2020-01-26T16:17:58Z</time>
    </trkpt>
    <trkpt lat="50.9571719" lon="6.9015794">
      <time>2020-01-26T16:17:59Z</time>
    </trkpt>
    <trkpt lat="50.9571560" lon="6.9016699">
      <time>2020-01-26T16:18:00Z</time>
    </trkpt>
    <trkpt lat="50.9570996" lon="6.9018386">
      <time>2020-01-26T16:18:02Z</time>
    </trkpt>
    <trkpt lat="50.9570672" lon="6.9019146">
      <time>2020-01-26T16:18:03Z</time>
    </trkpt>
    <trkpt lat="50.9568739" lon="6.9022994">
      <time>2020-01-26T16:18:08Z</time>
    </trkpt>
    <trkpt lat="50.9567842" lon="6.9024995">
      <time>2020-01-26T16:18:11Z</time>
    </trkpt>
    <trkpt lat="50.9567361" lon="6.9026201">
      <time>2020-01-26T16:18:13Z</time>
    </trkpt>
    <trkpt lat="50.9567156" lon="6.9026807">
      <time>2020-01-26T16:18:14Z</time>
    </trkpt>
    <trkpt lat="50.9566795" lon="6.9028311">
      <time>2020-01-26T16:18:17Z</time>
    </trkpt>
    <trkpt lat="50.9566540" lon="6.9029097">
      <time>2020-01-26T16:18:21Z</time>
    </trkpt>
    <trkpt lat="50.9566540" lon="6.9029097">
      <time>2020-01-26T16:18:23Z</time>
    </trkpt>
    <trkpt lat="50.9566456" lon="6.9029290">
      <time>2020-01-26T16:18:43Z</time>
    </trkpt>
    <trkpt lat="50.9566380" lon="6.9029569">
      <time>2020-01-26T16:18:44Z</time>
    </trkpt>
    <trkpt lat="50.9566007" lon="6.9031944">
      <time>2020-01-26T16:18:49Z</time>
    </trkpt>
    <trkpt lat="50.9565663" lon="6.9034084">
      <time>2020-01-26T16:18:52Z</time>
    </trkpt>
    <trkpt lat="50.9565229" lon="6.9035546">
      <time>2020-01-26T16:18:54Z</time>
    </trkpt>
    <trkpt lat="50.9564790" lon="6.9036996">
      <time>2020-01-26T16:18:56Z</time>
    </trkpt>
    <trkpt lat="50.9563583" lon="6.9039474">
      <time>2020-01-26T16:19:00Z</time>
    </trkpt>
    <trkpt lat="50.9563339" lon="6.9040161">
      <time>2020-01-26T16:19:01Z</time>
    </trkpt>
    <trkpt lat="50.9562660" lon="6.9042342">
      <time>2020-01-26T16:19:04Z</time>
    </trkpt>
    <trkpt lat="50.9562122" lon="6.9043855">
      <time>2020-01-26T16:19:06Z</time>
    </trkpt>
    <trkpt lat="50.9561612" lon="6.9046088">
      <time>2020-01-26T16:19:09Z</time>
    </trkpt>
    <trkpt lat="50.9561542" lon="6.9046932">
      <time>2020-01-26T16:19:10Z</time>
    </trkpt>
    <trkpt lat="50.9561405" lon="6.9048746">
      <time>2020-01-26T16:19:12Z</time>
    </trkpt>
    <trkpt lat="50.9559781" lon="6.9052457">
      <time>2020-01-26T16:19:17Z</time>
    </trkpt>
    <trkpt lat="50.9558518" lon="6.9056282">
      <time>2020-01-26T16:19:22Z</time>
    </trkpt>
    <trkpt lat="50.9558061" lon="6.9057727">
      <time>2020-01-26T16:19:24Z</time>
    </trkpt>
    <trkpt lat="50.9557268" lon="6.9060170">
      <time>2020-01-26T16:19:27Z</time>
    </trkpt>
    <trkpt lat="50.9556489" lon="6.9062911">
      <time>2020-01-26T16:19:30Z</time>
    </trkpt>
    <trkpt lat="50.9554937" lon="6.9067378">
      <time>2020-01-26T16:19:35Z</time>
    </trkpt>
    <trkpt lat="50.9554249" lon="6.9069077">
      <time>2020-01-26T16:19:37Z</time>
    </trkpt>
    <trkpt lat="50.9551868" lon="6.9076129">
      <time>2020-01-26T16:19:45Z</time>
    </trkpt>
    <trkpt lat="50.9549952" lon="6.9082433">
      <time>2020-01-26T16:19:52Z</time>
    </trkpt>
    <trkpt lat="50.9549678" lon="6.9083313">
      <time>2020-01-26T16:19:53Z</time>
    </trkpt>
    <trkpt lat="50.9548351" lon="6.9087425">
      <time>2020-01-26T16:19:58Z</time>
    </trkpt>
    <trkpt lat="50.9547505" lon="6.9089629">
      <time>2020-01-26T16:20:01Z</time>
    </trkpt>
    <trkpt lat="50.9546427" lon="6.9092502">
      <time>2020-01-26T16:20:05Z</time>
    </trkpt>
    <trkpt lat="50.9546167" lon="6.9093196">
      <time>2020-01-26T16:20:06Z</time>
    </trkpt>
    <trkpt lat="50.9544866" lon="6.9096354">
      <time>2020-01-26T16:20:12Z</time>
    </trkpt>
    <trkpt lat="50.9544517" lon="6.9097241">
      <time>2020-01-26T16:20:14Z</time>
    </trkpt>
    <trkpt lat="50.9543957" lon="6.9098857">
      <time>2020-01-26T16:20:17Z</time>
    </trkpt>
    <trkpt lat="50.9543567" lon="6.9099994">
      <time>2020-01-26T16:20:19Z</time>
    </trkpt>
    <trkpt lat="50.9542875" lon="6.9101918">
      <time>2020-01-26T16:20:22Z</time>
    </trkpt>
    <trkpt lat="50.9542372" lon="6.9103281">
      <time>2020-01-26T16:20:24Z</time>
    </trkpt>
    <trkpt lat="50.9542095" lon="6.9103893">
      <time>2020-01-26T16:20:25Z</time>
    </trkpt>
    <trkpt lat="50.9540976" lon="6.9105410">
      <time>2020-01-26T16:20:28Z</time>
    </trkpt>
    <trkpt lat="50.9540542" lon="6.9106004">
      <time>2020-01-26T16:20:29Z</time>
    </trkpt>
    <trkpt lat="50.9538900" lon="6.9108410">
      <time>2020-01-26T16:20:33Z</time>
    </trkpt>
    <trkpt lat="50.9537438" lon="6.9110633">
      <time>2020-01-26T16:20:37Z</time>
    </trkpt>
    <trkpt lat="50.9537089" lon="6.9111299">
      <time>2020-01-26T16:20:38Z</time>
    </trkpt>
    <trkpt lat="50.9536284" lon="6.9112523">
      <time>2020-01-26T16:20:40Z</time>
    </trkpt>
    <trkpt lat="50.9535168" lon="6.9114388">
      <time>2020-01-26T16:20:43Z</time>
    </trkpt>
    <trkpt lat="50.9534803" lon="6.9114993">
      <time>2020-01-26T16:20:44Z</time>
    </trkpt>
    <trkpt lat="50.9531635" lon="6.9119738">
      <time>2020-01-26T16:20:52Z</time>
    </trkpt>
    <trkpt lat="50.9528699" lon="6.9124214">
      <time>2020-01-26T16:20:59Z</time>
    </trkpt>
    <trkpt lat="50.9526892" lon="6.9127186">
      <time>2020-01-26T16:21:04Z</time>
    </trkpt>
    <trkpt lat="50.9526509" lon="6.9127625">
      <time>2020-01-26T16:21:05Z</time>
    </trkpt>
    <trkpt lat="50.9524084" lon="6.9130782">
      <time>2020-01-26T16:21:11Z</time>
    </trkpt>
    <trkpt lat="50.9523645" lon="6.9131390">
      <time>2020-01-26T16:21:12Z</time>
    </trkpt>
    <trkpt lat="50.9522404" lon="6.9133073">
      <time>2020-01-26T16:21:15Z</time>
    </trkpt>
    <trkpt lat="50.9520983" lon="6.9134808">
      <time>2020-01-26T16:21:18Z</time>
    </trkpt>
    <trkpt lat="50.9518252" lon="6.9139448">
      <time>2020-01-26T16:21:25Z</time>
    </trkpt>
    <trkpt lat="50.9517881" lon="6.9140128">
      <time>2020-01-26T16:21:26Z</time>
    </trkpt>
    <trkpt lat="50.9517391" lon="6.9140636">
      <time>2020-01-26T16:21:27Z</time>
    </trkpt>
    <trkpt lat="50.9515760" lon="6.9142953">
      <time>2020-01-26T16:21:31Z</time>
    </trkpt>
    <trkpt lat="50.9515382" lon="6.9143541">
      <time>2020-01-26T16:21:32Z</time>
    </trkpt>
    <trkpt lat="50.9513731" lon="6.9146897">
      <time>2020-01-26T16:21:37Z</time>
    </trkpt>
    <trkpt lat="50.9513438" lon="6.9148316">
      <time>2020-01-26T16:21:39Z</time>
    </trkpt>
    <trkpt lat="50.9510228" lon="6.9152598">
      <time>2020-01-26T16:21:46Z</time>
    </trkpt>
    <trkpt lat="50.9509985" lon="6.9154284">
      <time>2020-01-26T16:21:48Z</time>
    </trkpt>
    <trkpt lat="50.9509434" lon="6.9154393">
      <time>2020-01-26T16:21:49Z</time>
    </trkpt>
    <trkpt lat="50.9508288" lon="6.9155914">
      <time>2020-01-26T16:21:52Z</time>
    </trkpt>
    <trkpt lat="50.9507524" lon="6.9156966">
      <time>2020-01-26T16:21:54Z</time>
    </trkpt>
    <trkpt lat="50.9506883" lon="6.9157952">
      <time>2020-01-26T16:21:56Z</time>
    </trkpt>
    <trkpt lat="50.9505488" lon="6.9160189">
      <time>2020-01-26T16:22:00Z</time>
    </trkpt>
    <trkpt lat="50.9505080" lon="6.9160693">
      <time>2020-01-26T16:22:01Z</time>
    </trkpt>
    <trkpt lat="50.9503458" lon="6.9162411">
      <time>2020-01-26T16:22:06Z</time>
    </trkpt>
    <trkpt lat="50.9502401" lon="6.9164437">
      <time>2020-01-26T16:22:12Z</time>
    </trkpt>
    <trkpt lat="50.9502329" lon="6.9164789">
      <time>2020-01-26T16:22:17Z</time>
    </trkpt>
    <trkpt lat="50.9502168" lon="6.9165311">
      <time>2020-01-26T16:22:50Z</time>
    </trkpt>
    <trkpt lat="50.9501917" lon="6.9165887">
      <time>2020-01-26T16:22:51Z</time>
    </trkpt>
    <trkpt lat="50.9501661" lon="6.9166229">
      <time>2020-01-26T16:22:52Z</time>
    </trkpt>
    <trkpt lat="50.9500655" lon="6.9167328">
      <time>2020-01-26T16:22:55Z</time>
    </trkpt>
    <trkpt lat="50.9500244" lon="6.9167974">
      <time>2020-01-26T16:22:56Z</time>
    </trkpt>
    <trkpt lat="50.9499903" lon="6.9168619">
      <time>2020-01-26T16:22:57Z</time>
    </trkpt>
    <trkpt lat="50.9499020" lon="6.9170036">
      <time>2020-01-26T16:22:59Z</time>
    </trkpt>
    <trkpt lat="50.9498018" lon="6.9171544">
      <time>2020-01-26T16:23:01Z</time>
    </trkpt>
    <trkpt lat="50.9496017" lon="6.9174787">
      <time>2020-01-26T16:23:05Z</time>
    </trkpt>
    <trkpt lat="50.9495433" lon="6.9175658">
      <time>2020-01-26T16:23:06Z</time>
    </trkpt>
    <trkpt lat="50.9494301" lon="6.9177504">
      <time>2020-01-26T16:23:08Z</time>
    </trkpt>
    <trkpt lat="50.9492580" lon="6.9180349">
      <time>2020-01-26T16:23:11Z</time>
    </trkpt>
    <trkpt lat="50.9490860" lon="6.9183384">
      <time>2020-01-26T16:23:14Z</time>
    </trkpt>
    <trkpt lat="50.9490050" lon="6.9185269">
      <time>2020-01-26T16:23:16Z</time>
    </trkpt>
    <trkpt lat="50.9489188" lon="6.9187290">
      <time>2020-01-26T16:23:18Z</time>
    </trkpt>
    <trkpt lat="50.9487976" lon="6.9190415">
      <time>2020-01-26T16:23:21Z</time>
    </trkpt>
    <trkpt lat="50.9486812" lon="6.9193528">
      <time>2020-01-26T16:23:24Z</time>
    </trkpt>
    <trkpt lat="50.9483882" lon="6.9200040">
      <time>2020-01-26T16:23:31Z</time>
    </trkpt>
    <trkpt lat="50.9482304" lon="6.9204626">
      <time>2020-01-26T16:23:36Z</time>
    </trkpt>
    <trkpt lat="50.9481603" lon="6.9206567">
      <time>2020-01-26T16:23:38Z</time>
    </trkpt>
    <trkpt lat="50.9480525" lon="6.9208845">
      <time>2020-01-26T16:23:41Z</time>
    </trkpt>
    <trkpt lat="50.9478038" lon="6.9213845">
      <time>2020-01-26T16:23:47Z</time>
    </trkpt>
    <trkpt lat="50.9475223" lon="6.9220556">
      <time>2020-01-26T16:23:55Z</time>
    </trkpt>
    <trkpt lat="50.9473170" lon="6.9225956">
      <time>2020-01-26T16:24:01Z</time>
    </trkpt>
    <trkpt lat="50.9472484" lon="6.9227748">
      <time>2020-01-26T16:24:03Z</time>
    </trkpt>
    <trkpt lat="50.9470757" lon="6.9231730">
      <time>2020-01-26T16:24:08Z</time>
    </trkpt>
    <trkpt lat="50.9470443" lon="6.9232499">
      <time>2020-01-26T16:24:09Z</time>
    </trkpt>
    <trkpt lat="50.9468243" lon="6.9237549">
      <time>2020-01-26T16:24:15Z</time>
    </trkpt>
    <trkpt lat="50.9465083" lon="6.9245105">
      <time>2020-01-26T16:24:23Z</time>
    </trkpt>
    <trkpt lat="50.9464697" lon="6.9246148">
      <time>2020-01-26T16:24:24Z</time>
    </trkpt>
    <trkpt lat="50.9462483" lon="6.9251134">
      <time>2020-01-26T16:24:29Z</time>
    </trkpt>
    <trkpt lat="50.9460289" lon="6.9255963">
      <time>2020-01-26T16:24:34Z</time>
    </trkpt>
    <trkpt lat="50.9459377" lon="6.9257862">
      <time>2020-01-26T16:24:36Z</time>
    </trkpt>
    <trkpt lat="50.9458299" lon="6.9261098">
      <time>2020-01-26T16:24:39Z</time>
    </trkpt>
    <trkpt lat="50.9456335" lon="6.9265376">
      <time>2020-01-26T16:24:43Z</time>
    </trkpt>
    <trkpt lat="50.9455492" lon="6.9267444">
      <time>2020-01-26T16:24:45Z</time>
    </trkpt>
    <trkpt lat="50.9454655" lon="6.9269309">
      <time>2020-01-26T16:24:47Z</time>
    </trkpt>
    <trkpt lat="50.9453699" lon="6.9272202">
      <time>2020-01-26T16:24:51Z</time>
    </trkpt>
    <trkpt lat="50.9453201" lon="6.9273473">
      <time>2020-01-26T16:24:54Z</time>
    </trkpt>
    <trkpt lat="50.9452973" lon="6.9273955">
      <time>2020-01-26T16:24:55Z</time>
    </trkpt>
    <trkpt lat="50.9452742" lon="6.9274496">
      <time>2020-01-26T16:24:56Z</time>
    </trkpt>
    <trkpt lat="50.9451865" lon="6.9277369">
      <time>2020-01-26T16:25:00Z</time>
    </trkpt>
    <trkpt lat="50.9451639" lon="6.9278047">
      <time>2020-01-26T16:25:01Z</time>
    </trkpt>
    <trkpt lat="50.9450857" lon="6.9280614">
      <time>2020-01-26T16:25:05Z</time>
    </trkpt>
    <trkpt lat="50.9450651" lon="6.9281295">
      <time>2020-01-26T16:25:06Z</time>
    </trkpt>
    <trkpt lat="50.9449731" lon="6.9283286">
      <time>2020-01-26T16:25:09Z</time>
    </trkpt>
    <trkpt lat="50.9449274" lon="6.9283864">
      <time>2020-01-26T16:25:10Z</time>
    </trkpt>
    <trkpt lat="50.9448414" lon="6.9285184">
      <time>2020-01-26T16:25:12Z</time>
    </trkpt>
    <trkpt lat="50.9447590" lon="6.9286638">
      <time>2020-01-26T16:25:14Z</time>
    </trkpt>
    <trkpt lat="50.9447209" lon="6.9287371">
      <time>2020-01-26T16:25:15Z</time>
    </trkpt>
    <trkpt lat="50.9446407" lon="6.9289847">
      <time>2020-01-26T16:25:18Z</time>
    </trkpt>
    <trkpt lat="50.9445096" lon="6.9295299">
      <time>2020-01-26T16:25:23Z</time>
    </trkpt>
    <trkpt lat="50.9443113" lon="6.9301064">
      <time>2020-01-26T16:25:29Z</time>
    </trkpt>
    <trkpt lat="50.9442511" lon="6.9302727">
      <time>2020-01-26T16:25:31Z</time>
    </trkpt>
    <trkpt lat="50.9441860" lon="6.9304397">
      <time>2020-01-26T16:25:33Z</time>
    </trkpt>
    <trkpt lat="50.9441272" lon="6.9306186">
      <time>2020-01-26T16:25:35Z</time>
    </trkpt>
    <trkpt lat="50.9441055" lon="6.9307163">
      <time>2020-01-26T16:25:36Z</time>
    </trkpt>
    <trkpt lat="50.9440143" lon="6.9309807">
      <time>2020-01-26T16:25:39Z</time>
    </trkpt>
    <trkpt lat="50.9439585" lon="6.9311622">
      <time>2020-01-26T16:25:41Z</time>
    </trkpt>
    <trkpt lat="50.9439166" lon="6.9313401">
      <time>2020-01-26T16:25:43Z</time>
    </trkpt>
    <trkpt lat="50.9438315" lon="6.9316682">
      <time>2020-01-26T16:25:47Z</time>
    </trkpt>
    <trkpt lat="50.9437913" lon="6.9318396">
      <time>2020-01-26T16:25:49Z</time>
    </trkpt>
    <trkpt lat="50.9437826" lon="6.9320037">
      <time>2020-01-26T16:25:51Z</time>
    </trkpt>
    <trkpt lat="50.9437846" lon="6.9321789">
      <time>2020-01-26T16:25:53Z</time>
    </trkpt>
    <trkpt lat="50.9437656" lon="6.9322640">
      <time>2020-01-26T16:25:54Z</time>
    </trkpt>
    <trkpt lat="50.9437043" lon="6.9324243">
      <time>2020-01-26T16:25:56Z</time>
    </trkpt>
    <trkpt lat="50.9435150" lon="6.9328154">
      <time>2020-01-26T16:26:01Z</time>
    </trkpt>
    <trkpt lat="50.9434920" lon="6.9328768">
      <time>2020-01-26T16:26:02Z</time>
    </trkpt>
    <trkpt lat="50.9434594" lon="6.9329677">
      <time>2020-01-26T16:26:03Z</time>
    </trkpt>
    <trkpt lat="50.9434092" lon="6.9331011">
      <time>2020-01-26T16:26:05Z</time>
    </trkpt>
    <trkpt lat="50.9433519" lon="6.9332147">
      <time>2020-01-26T16:26:07Z</time>
    </trkpt>
    <trkpt lat="50.9432168" lon="6.9335138">
      <time>2020-01-26T16:26:11Z</time>
    </trkpt>
    <trkpt lat="50.9430490" lon="6.9338244">
      <time>2020-01-26T16:26:15Z</time>
    </trkpt>
    <trkpt lat="50.9429380" lon="6.9340725">
      <time>2020-01-26T16:26:18Z</time>
    </trkpt>
    <trkpt lat="50.9428576" lon="6.9342478">
      <time>2020-01-26T16:26:20Z</time>
    </trkpt>
    <trkpt lat="50.9426240" lon="6.9349216">
      <time>2020-01-26T16:26:27Z</time>
    </trkpt>
    <trkpt lat="50.9422325" lon="6.9355312">
      <time>2020-01-26T16:26:36Z</time>
    </trkpt>
    <trkpt lat="50.9421914" lon="6.9355968">
      <time>2020-01-26T16:26:37Z</time>
    </trkpt>
    <trkpt lat="50.9420383" lon="6.9358517">
      <time>2020-01-26T16:26:41Z</time>
    </trkpt>
    <trkpt lat="50.9419586" lon="6.9359721">
      <time>2020-01-26T16:26:43Z</time>
    </trkpt>
    <trkpt lat="50.9417752" lon="6.9363146">
      <time>2020-01-26T16:26:48Z</time>
    </trkpt>
    <trkpt lat="50.9417081" lon="6.9364430">
      <time>2020-01-26T16:26:50Z</time>
    </trkpt>
    <trkpt lat="50.9416402" lon="6.9365752">
      <time>2020-01-26T16:26:52Z</time>
    </trkpt>
    <trkpt lat="50.9414992" lon="6.9368443">
      <time>2020-01-26T16:26:56Z</time>
    </trkpt>
    <trkpt lat="50.9412448" lon="6.9372888">
      <time>2020-01-26T16:27:02Z</time>
    </trkpt>
    <trkpt lat="50.9410045" lon="6.9376923">
      <time>2020-01-26T16:27:07Z</time>
    </trkpt>
    <trkpt lat="50.9409570" lon="6.9377762">
      <time>2020-01-26T16:27:08Z</time>
    </trkpt>
    <trkpt lat="50.9407854" lon="6.9381105">
      <time>2020-01-26T16:27:12Z</time>
    </trkpt>
    <trkpt lat="50.9407327" lon="6.9383207">
      <time>2020-01-26T16:27:14Z</time>
    </trkpt>
    <trkpt lat="50.9406778" lon="6.9385295">
      <time>2020-01-26T16:27:16Z</time>
    </trkpt>
    <trkpt lat="50.9406302" lon="6.9387495">
      <time>2020-01-26T16:27:18Z</time>
    </trkpt>
    <trkpt lat="50.9406101" lon="6.9388537">
      <time>2020-01-26T16:27:19Z</time>
    </trkpt>
    <trkpt lat="50.9405712" lon="6.9390556">
      <time>2020-01-26T16:27:21Z</time>
    </trkpt>
    <trkpt lat="50.9405343" lon="6.9392397">
      <time>2020-01-26T16:27:23Z</time>
    </trkpt>
    <trkpt lat="50.9405202" lon="6.9393311">
      <time>2020-01-26T16:27:24Z</time>
    </trkpt>
    <trkpt lat="50.9405078" lon="6.9394149">
      <time>2020-01-26T16:27:25Z</time>
    </trkpt>
    <trkpt lat="50.9404882" lon="6.9396225">
      <time>2020-01-26T16:27:28Z</time>
    </trkpt>
    <trkpt lat="50.9405003" lon="6.9396836">
      <time>2020-01-26T16:27:29Z</time>
    </trkpt>
    <trkpt lat="50.9405029" lon="6.9397844">
      <time>2020-01-26T16:27:32Z</time>
    </trkpt>
    <trkpt lat="50.9405115" lon="6.9397966">
      <time>2020-01-26T16:27:33Z</time>
    </trkpt>
    <trkpt lat="50.9405140" lon="6.9398000">
      <time>2020-01-26T16:27:36Z</time>
    </trkpt>
    <trkpt lat="50.9405138" lon="6.9398350">
      <time>2020-01-26T16:28:32Z</time>
    </trkpt>
    <trkpt lat="50.9405148" lon="6.9399646">
      <time>2020-01-26T16:28:34Z</time>
    </trkpt>
    <trkpt lat="50.9405144" lon="6.9402138">
      <time>2020-01-26T16:28:37Z</time>
    </trkpt>
    <trkpt lat="50.9405042" lon="6.9403110">
      <time>2020-01-26T16:28:38Z</time>
    </trkpt>
    <trkpt lat="50.9404521" lon="6.9407139">
      <time>2020-01-26T16:28:42Z</time>
    </trkpt>
    <trkpt lat="50.9403990" lon="6.9409109">
      <time>2020-01-26T16:28:44Z</time>
    </trkpt>
    <trkpt lat="50.9401898" lon="6.9416693">
      <time>2020-01-26T16:28:52Z</time>
    </trkpt>
    <trkpt lat="50.9400939" lon="6.9421367">
      <time>2020-01-26T16:28:57Z</time>
    </trkpt>
    <trkpt lat="50.9400579" lon="6.9425349">
      <time>2020-01-26T16:29:01Z</time>
    </trkpt>
    <trkpt lat="50.9400790" lon="6.9429147">
      <time>2020-01-26T16:29:05Z</time>
    </trkpt>
    <trkpt lat="50.9400827" lon="6.9430043">
      <time>2020-01-26T16:29:06Z</time>
    </trkpt>
    <trkpt lat="50.9401001" lon="6.9433481">
      <time>2020-01-26T16:29:10Z</time>
    </trkpt>
    <trkpt lat="50.9401161" lon="6.9435241">
      <time>2020-01-26T16:29:12Z</time>
    </trkpt>
    <trkpt lat="50.9401314" lon="6.9436125">
      <time>2020-01-26T16:29:13Z</time>
    </trkpt>
    <trkpt lat="50.9401459" lon="6.9437004">
      <time>2020-01-26T16:29:14Z</time>
    </trkpt>
    <trkpt lat="50.9402014" lon="6.9440003">
      <time>2020-01-26T16:29:17Z</time>
    </trkpt>
    <trkpt lat="50.9402793" lon="6.9445489">
      <time>2020-01-26T16:29:22Z</time>
    </trkpt>
    <trkpt lat="50.9404241" lon="6.9449591">
      <time>2020-01-26T16:29:27Z</time>
    </trkpt>
    <trkpt lat="50.9404823" lon="6.9451002">
      <time>2020-01-26T16:29:29Z</time>
    </trkpt>
    <trkpt lat="50.9405434" lon="6.9452279">
      <time>2020-01-26T16:29:31Z</time>
    </trkpt>
    <trkpt lat="50.9405896" lon="6.9452852">
      <time>2020-01-26T16:29:32Z</time>
    </trkpt>
    <trkpt lat="50.9406294" lon="6.9453371">
      <time>2020-01-26T16:29:33Z</time>
    </trkpt>
    <trkpt lat="50.9406868" lon="6.9454425">
      <time>2020-01-26T16:29:35Z</time>
    </trkpt>
    <trkpt lat="50.9407448" lon="6.9455324">
      <time>2020-01-26T16:29:37Z</time>
    </trkpt>
    <trkpt lat="50.9407962" lon="6.9456038">
      <time>2020-01-26T16:29:39Z</time>
    </trkpt>
    <trkpt lat="50.9408158" lon="6.9456368">
      <time>2020-01-26T16:29:40Z</time>
    </trkpt>
    <trkpt lat="50.9409172" lon="6.9456863">
      <time>2020-01-26T16:29:44Z</time>
    </trkpt>
    <trkpt lat="50.9409471" lon="6.9457708">
      <time>2020-01-26T16:29:48Z</time>
    </trkpt>
    <trkpt lat="50.9409471" lon="6.9457708">
      <time>2020-01-26T16:29:50Z</time>
    </trkpt>
    <trkpt lat="50.9409655" lon="6.9458090">
      <time>2020-01-26T16:30:43Z</time>
    </trkpt>
    <trkpt lat="50.9409766" lon="6.9458596">
      <time>2020-01-26T16:30:44Z</time>
    </trkpt>
    <trkpt lat="50.9410223" lon="6.9460870">
      <time>2020-01-26T16:30:48Z</time>
    </trkpt>
    <trkpt lat="50.9410441" lon="6.9461483">
      <time>2020-01-26T16:30:49Z</time>
    </trkpt>
    <trkpt lat="50.9411055" lon="6.9462827">
      <time>2020-01-26T16:30:51Z</time>
    </trkpt>
    <trkpt lat="50.9411475" lon="6.9464100">
      <time>2020-01-26T16:30:53Z</time>
    </trkpt>
    <trkpt lat="50.9411672" lon="6.9466712">
      <time>2020-01-26T16:30:56Z</time>
    </trkpt>
    <trkpt lat="50.9411541" lon="6.9468262">
      <time>2020-01-26T16:30:58Z</time>
    </trkpt>
    <trkpt lat="50.9411488" lon="6.9469061">
      <time>2020-01-26T16:30:59Z</time>
    </trkpt>
    <trkpt lat="50.9411114" lon="6.9472220">
      <time>2020-01-26T16:31:03Z</time>
    </trkpt>
    <trkpt lat="50.9410998" lon="6.9473001">
      <time>2020-01-26T16:31:04Z</time>
    </trkpt>
    <trkpt lat="50.9410156" lon="6.9479203">
      <time>2020-01-26T16:31:12Z</time>
    </trkpt>
    <trkpt lat="50.9410316" lon="6.9484241">
      <time>2020-01-26T16:31:18Z</time>
    </trkpt>
    <trkpt lat="50.9410295" lon="6.9484837">
      <time>2020-01-26T16:31:19Z</time>
    </trkpt>
    <trkpt lat="50.9410427" lon="6.9487848">
      <time>2020-01-26T16:31:23Z</time>
    </trkpt>
    <trkpt lat="50.9410589" lon="6.9490938">
      <time>2020-01-26T16:31:27Z</time>
    </trkpt>
    <trkpt lat="50.9411003" lon="6.9494756">
      <time>2020-01-26T16:31:32Z</time>
    </trkpt>
    <trkpt lat="50.9411642" lon="6.9500408">
      <time>2020-01-26T16:31:39Z</time>
    </trkpt>
    <trkpt lat="50.9411864" lon="6.9502928">
      <time>2020-01-26T16:31:42Z</time>
    </trkpt>
    <trkpt lat="50.9412057" lon="6.9508108">
      <time>2020-01-26T16:31:48Z</time>
    </trkpt>
    <trkpt lat="50.9412331" lon="6.9513819">
      <time>2020-01-26T16:31:54Z</time>
    </trkpt>
    <trkpt lat="50.9412575" lon="6.9519375">
      <time>2020-01-26T16:32:00Z</time>
    </trkpt>
    <trkpt lat="50.9412747" lon="6.9521911">
      <time>2020-01-26T16:32:03Z</time>
    </trkpt>
    <trkpt lat="50.9412867" lon="6.9522679">
      <time>2020-01-26T16:32:04Z</time>
    </trkpt>
    <trkpt lat="50.9413256" lon="6.9524684">
      <time>2020-01-26T16:32:07Z</time>
    </trkpt>
    <trkpt lat="50.9413396" lon="6.9525714">
      <time>2020-01-26T16:32:11Z</time>
    </trkpt>
    <trkpt lat="50.9413396" lon="6.9525714">
      <time>2020-01-26T16:32:12Z</time>
    </trkpt>
    <trkpt lat="50.9413334" lon="6.9526068">
      <time>2020-01-26T16:33:11Z</time>
    </trkpt>
    <trkpt lat="50.9413444" lon="6.9526523">
      <time>2020-01-26T16:33:12Z</time>
    </trkpt>
    <trkpt lat="50.9413579" lon="6.9527036">
      <time>2020-01-26T16:33:13Z</time>
    </trkpt>
    <trkpt lat="50.9414414" lon="6.9529825">
      <time>2020-01-26T16:33:17Z</time>
    </trkpt>
    <trkpt lat="50.9414618" lon="6.9530686">
      <time>2020-01-26T16:33:18Z</time>
    </trkpt>
    <trkpt lat="50.9414999" lon="6.9532612">
      <time>2020-01-26T16:33:20Z</time>
    </trkpt>
    <trkpt lat="50.9415047" lon="6.9533628">
      <time>2020-01-26T16:33:21Z</time>
    </trkpt>
    <trkpt lat="50.9415424" lon="6.9538032">
      <time>2020-01-26T16:33:25Z</time>
    </trkpt>
    <trkpt lat="50.9415597" lon="6.9539199">
      <time>2020-01-26T16:33:26Z</time>
    </trkpt>
    <trkpt lat="50.9415800" lon="6.9540362">
      <time>2020-01-26T16:33:27Z</time>
    </trkpt>
    <trkpt lat="50.9416319" lon="6.9542864">
      <time>2020-01-26T16:33:29Z</time>
    </trkpt>
    <trkpt lat="50.9416659" lon="6.9544154">
      <time>2020-01-26T16:33:30Z</time>
    </trkpt>
    <trkpt lat="50.9417213" lon="6.9548075">
      <time>2020-01-26T16:33:33Z</time>
    </trkpt>
    <trkpt lat="50.9417584" lon="6.9550678">
      <time>2020-01-26T16:33:35Z</time>
    </trkpt>
    <trkpt lat="50.9417726" lon="6.9551966">
      <time>2020-01-26T16:33:36Z</time>
    </trkpt>
    <trkpt lat="50.9418271" lon="6.9555928">
      <time>2020-01-26T16:33:39Z</time>
    </trkpt>
    <trkpt lat="50.9418454" lon="6.9558514">
      <time>2020-01-26T16:33:41Z</time>
    </trkpt>
    <trkpt lat="50.9418412" lon="6.9559714">
      <time>2020-01-26T16:33:42Z</time>
    </trkpt>
    <trkpt lat="50.9418155" lon="6.9562359">
      <time>2020-01-26T16:33:45Z</time>
    </trkpt>
    <trkpt lat="50.9417464" lon="6.9562881">
      <time>2020-01-26T16:33:46Z</time>
    </trkpt>
    <trkpt lat="50.9416282" lon="6.9563010">
      <time>2020-01-26T16:33:48Z</time>
    </trkpt>
    <trkpt lat="50.9415806" lon="6.9562957">
      <time>2020-01-26T16:33:49Z</time>
    </trkpt>
    <trkpt lat="50.9415311" lon="6.9562939">
      <time>2020-01-26T16:33:50Z</time>
    </trkpt>
    <trkpt lat="50.9413702" lon="6.9563158">
      <time>2020-01-26T16:33:53Z</time>
    </trkpt>
    <trkpt lat="50.9412686" lon="6.9561937">
      <time>2020-01-26T16:33:57Z</time>
    </trkpt>
    <trkpt lat="50.9412271" lon="6.9561314">
      <time>2020-01-26T16:34:00Z</time>
    </trkpt>
    <trkpt lat="50.9412060" lon="6.9561212">
      <time>2020-01-26T16:34:01Z</time>
    </trkpt>
    <trkpt lat="50.9410956" lon="6.9561031">
      <time>2020-01-26T16:34:06Z</time>
    </trkpt>
    <trkpt lat="50.9410568" lon="6.9561075">
      <time>2020-01-26T16:34:10Z</time>
    </trkpt>
    <trkpt lat="50.9410162" lon="6.9561035">
      <time>2020-01-26T16:34:12Z</time>
    </trkpt>
    <trkpt lat="50.9409804" lon="6.9561342">
      <time>2020-01-26T16:34:15Z</time>
    </trkpt>
    <trkpt lat="50.9408314" lon="6.9568412">
      <time>2020-01-26T16:34:35Z</time>
    </trkpt>
    <trkpt lat="50.9408571" lon="6.9568710">
      <time>2020-01-26T16:34:36Z</time>
    </trkpt>
    <trkpt lat="50.9407910" lon="6.9569559">
      <time>2020-01-26T16:34:39Z</time>
    </trkpt>
    <trkpt lat="50.9407804" lon="6.9571379">
      <time>2020-01-26T16:34:42Z</time>
    </trkpt>
    <trkpt lat="50.9407803" lon="6.9572204">
      <time>2020-01-26T16:34:43Z</time>
    </trkpt>
    <trkpt lat="50.9408203" lon="6.9573539">
      <time>2020-01-26T16:34:45Z</time>
    </trkpt>
    <trkpt lat="50.9408501" lon="6.9574140">
      <time>2020-01-26T16:34:46Z</time>
    </trkpt>
    <trkpt lat="50.9408710" lon="6.9574638">
      <time>2020-01-26T16:34:47Z</time>
    </trkpt>
    <trkpt lat="50.9408794" lon="6.9576816">
      <time>2020-01-26T16:34:50Z</time>
    </trkpt>
    <trkpt lat="50.9408641" lon="6.9579596">
      <time>2020-01-26T16:34:54Z</time>
    </trkpt>
    <trkpt lat="50.9408225" lon="6.9580876">
      <time>2020-01-26T16:34:56Z</time>
    </trkpt>
    <trkpt lat="50.9408033" lon="6.9582207">
      <time>2020-01-26T16:34:58Z</time>
    </trkpt>
    <trkpt lat="50.9408067" lon="6.9584265">
      <time>2020-01-26T16:35:01Z</time>
    </trkpt>
    <trkpt lat="50.9407961" lon="6.9586183">
      <time>2020-01-26T16:35:04Z</time>
    </trkpt>
    <trkpt lat="50.9408054" lon="6.9587398">
      <time>2020-01-26T16:35:06Z</time>
    </trkpt>
    <trkpt lat="50.9408653" lon="6.9590657">
      <time>2020-01-26T16:35:12Z</time>
    </trkpt>
    <trkpt lat="50.9408775" lon="6.9590824">
      <time>2020-01-26T16:35:13Z</time>
    </trkpt>
    <trkpt lat="50.9409127" lon="6.9590671">
      <time>2020-01-26T16:35:15Z</time>
    </trkpt>
    <trkpt lat="50.9409260" lon="6.9590676">
      <time>2020-01-26T16:35:17Z</time>
    </trkpt>
    <trkpt lat="50.9409455" lon="6.9591345">
      <time>2020-01-26T16:35:20Z</time>
    </trkpt>
    <trkpt lat="50.9410481" lon="6.9592326">
      <time>2020-01-26T16:35:22Z</time>
    </trkpt>
    <trkpt lat="50.9412464" lon="6.9594867">
      <time>2020-01-26T16:35:25Z</time>
    </trkpt>
    <trkpt lat="50.9414108" lon="6.9596770">
      <time>2020-01-26T16:35:28Z</time>
    </trkpt>
    <trkpt lat="50.9413811" lon="6.9597927">
      <time>2020-01-26T16:35:29Z</time>
    </trkpt>
    <trkpt lat="50.9412851" lon="6.9600426">
      <time>2020-01-26T16:35:31Z</time>
    </trkpt>
    <trkpt lat="50.9412002" lon="6.9602688">
      <time>2020-01-26T16:35:33Z</time>
    </trkpt>
    <trkpt lat="50.9411563" lon="6.9604636">
      <time>2020-01-26T16:35:35Z</time>
    </trkpt>
    <trkpt lat="50.9411578" lon="6.9605389">
      <time>2020-01-26T16:35:36Z</time>
    </trkpt>
    <trkpt lat="50.9411641" lon="6.9606067">
      <time>2020-01-26T16:35:37Z</time>
    </trkpt>
    <trkpt lat="50.9411887" lon="6.9607447">
      <time>2020-01-26T16:35:39Z</time>
    </trkpt>
    <trkpt lat="50.9411878" lon="6.9608136">
      <time>2020-01-26T16:35:40Z</time>
    </trkpt>
    <trkpt lat="50.9411532" lon="6.9611247">
      <time>2020-01-26T16:35:45Z</time>
    </trkpt>
    <trkpt lat="50.9411645" lon="6.9611870">
      <time>2020-01-26T16:35:46Z</time>
    </trkpt>
    <trkpt lat="50.9412448" lon="6.9614137">
      <time>2020-01-26T16:35:51Z</time>
    </trkpt>
    <trkpt lat="50.9412381" lon="6.9616176">
      <time>2020-01-26T16:35:56Z</time>
    </trkpt>
    <trkpt lat="50.9412301" lon="6.9617377">
      <time>2020-01-26T16:35:59Z</time>
    </trkpt>
    <trkpt lat="50.9412208" lon="6.9618475">
      <time>2020-01-26T16:36:01Z</time>
    </trkpt>
    <trkpt lat="50.9412112" lon="6.9619578">
      <time>2020-01-26T16:36:03Z</time>
    </trkpt>
    <trkpt lat="50.9412197" lon="6.9620907">
      <time>2020-01-26T16:36:05Z</time>
    </trkpt>
    <trkpt lat="50.9412173" lon="6.9622454">
      <time>2020-01-26T16:36:07Z</time>
    </trkpt>
    <trkpt lat="50.9412227" lon="6.9624774">
      <time>2020-01-26T16:36:10Z</time>
    </trkpt>
    <trkpt lat="50.9412761" lon="6.9627687">
      <time>2020-01-26T16:36:14Z</time>
    </trkpt>
    <trkpt lat="50.9412770" lon="6.9629999">
      <time>2020-01-26T16:36:18Z</time>
    </trkpt>
    <trkpt lat="50.9412694" lon="6.9631917">
      <time>2020-01-26T16:36:23Z</time>
    </trkpt>
    <trkpt lat="50.9412697" lon="6.9632148">
      <time>2020-01-26T16:36:25Z</time>
    </trkpt>
    <trkpt lat="50.9412665" lon="6.9632387">
      <time>2020-01-26T16:36:27Z</time>
    </trkpt>
    <trkpt lat="50.9412910" lon="6.9633813">
      <time>2020-01-26T16:36:33Z</time>
    </trkpt>
    <trkpt lat="50.9412933" lon="6.9634238">
      <time>2020-01-26T16:36:34Z</time>
    </trkpt>
    <trkpt lat="50.9412910" lon="6.9635925">
      <time>2020-01-26T16:36:38Z</time>
    </trkpt>
    <trkpt lat="50.9412940" lon="6.9637339">
      <time>2020-01-26T16:36:43Z</time>
    </trkpt>
    <trkpt lat="50.9412997" lon="6.9639710">
      <time>2020-01-26T16:36:49Z</time>
    </trkpt>
    <trkpt lat="50.9413186" lon="6.9641300">
      <time>2020-01-26T16:36:52Z</time>
    </trkpt>
    <trkpt lat="50.9413599" lon="6.9643163">
      <time>2020-01-26T16:36:55Z</time>
    </trkpt>
    <trkpt lat="50.9413691" lon="6.9644872">
      <time>2020-01-26T16:36:58Z</time>
    </trkpt>
    <trkpt lat="50.9413533" lon="6.9645832">
      <time>2020-01-26T16:37:00Z</time>
    </trkpt>
    <trkpt lat="50.9413248" lon="6.9648757">
      <time>2020-01-26T16:37:06Z</time>
    </trkpt>
    <trkpt lat="50.9413313" lon="6.9649360">
      <time>2020-01-26T16:37:07Z</time>
    </trkpt>
    <trkpt lat="50.9413274" lon="6.9650569">
      <time>2020-01-26T16:37:10Z</time>
    </trkpt>
    <trkpt lat="50.9412677" lon="6.9651922">
      <time>2020-01-26T16:37:15Z</time>
    </trkpt>
    <trkpt lat="50.9412558" lon="6.9654664">
      <time>2020-01-26T16:37:20Z</time>
    </trkpt>
    <trkpt lat="50.9412876" lon="6.9657956">
      <time>2020-01-26T16:37:25Z</time>
    </trkpt>
    <trkpt lat="50.9412709" lon="6.9658716">
      <time>2020-01-26T16:37:27Z</time>
    </trkpt>
    <trkpt lat="50.9412739" lon="6.9659188">
      <time>2020-01-26T16:37:29Z</time>
    </trkpt>
    <trkpt lat="50.9413121" lon="6.9661340">
      <time>2020-01-26T16:37:34Z</time>
    </trkpt>
    <trkpt lat="50.9412951" lon="6.9662086">
      <time>2020-01-26T16:37:39Z</time>
    </trkpt>
    <trkpt lat="50.9412897" lon="6.9664188">
      <time>2020-01-26T16:37:47Z</time>
    </trkpt>
    <trkpt lat="50.9412311" lon="6.9667206">
      <time>2020-01-26T16:37:53Z</time>
    </trkpt>
    <trkpt lat="50.9412241" lon="6.9670288">
      <time>2020-01-26T16:37:58Z</time>
    </trkpt>
    <trkpt lat="50.9412391" lon="6.9673017">
      <time>2020-01-26T16:38:03Z</time>
    </trkpt>
    <trkpt lat="50.9413026" lon="6.9673926">
      <time>2020-01-26T16:38:06Z</time>
    </trkpt>
    <trkpt lat="50.9413071" lon="6.9674207">
      <time>2020-01-26T16:38:07Z</time>
    </trkpt>
    <trkpt lat="50.9412935" lon="6.9676016">
      <time>2020-01-26T16:38:12Z</time>
    </trkpt>
    <trkpt lat="50.9412943" lon="6.9678182">
      <time>2020-01-26T16:38:16Z</time>
    </trkpt>
    <trkpt lat="50.9412899" lon="6.9680737">
      <time>2020-01-26T16:38:20Z</time>
    </trkpt>
    <trkpt lat="50.9412674" lon="6.9683688">
      <time>2020-01-26T16:38:26Z</time>
    </trkpt>
    <trkpt lat="50.9412633" lon="6.9685243">
      <time>2020-01-26T16:38:31Z</time>
    </trkpt>
    <trkpt lat="50.9412786" lon="6.9686482">
      <time>2020-01-26T16:38:36Z</time>
    </trkpt>
    <trkpt lat="50.9412777" lon="6.9686893">
      <time>2020-01-26T16:38:37Z</time>
    </trkpt>
    <trkpt lat="50.9412802" lon="6.9689916">
      <time>2020-01-26T16:38:42Z</time>
    </trkpt>
    <trkpt lat="50.9412839" lon="6.9694924">
      <time>2020-01-26T16:38:48Z</time>
    </trkpt>
    <trkpt lat="50.9412727" lon="6.9695966">
      <time>2020-01-26T16:38:49Z</time>
    </trkpt>
    <trkpt lat="50.9412123" lon="6.9698100">
      <time>2020-01-26T16:38:51Z</time>
    </trkpt>
    <trkpt lat="50.9411563" lon="6.9701891">
      <time>2020-01-26T16:38:54Z</time>
    </trkpt>
    <trkpt lat="50.9410861" lon="6.9705586">
      <time>2020-01-26T16:38:57Z</time>
    </trkpt>
    <trkpt lat="50.9410330" lon="6.9708136">
      <time>2020-01-26T16:38:59Z</time>
    </trkpt>
    <trkpt lat="50.9409902" lon="6.9710675">
      <time>2020-01-26T16:39:01Z</time>
    </trkpt>
    <trkpt lat="50.9409279" lon="6.9713197">
      <time>2020-01-26T16:39:03Z</time>
    </trkpt>
    <trkpt lat="50.9408527" lon="6.9715324">
      <time>2020-01-26T16:39:05Z</time>
    </trkpt>
    <trkpt lat="50.9408126" lon="6.9716204">
      <time>2020-01-26T16:39:06Z</time>
    </trkpt>
    <trkpt lat="50.9407716" lon="6.9717564">
      <time>2020-01-26T16:39:08Z</time>
    </trkpt>
    <trkpt lat="50.9407341" lon="6.9718068">
      <time>2020-01-26T16:39:09Z</time>
    </trkpt>
    <trkpt lat="50.9406246" lon="6.9719340">
      <time>2020-01-26T16:39:11Z</time>
    </trkpt>
    <trkpt lat="50.9405427" lon="6.9721398">
      <time>2020-01-26T16:39:14Z</time>
    </trkpt>
    <trkpt lat="50.9402551" lon="6.9729034">
      <time>2020-01-26T16:39:23Z</time>
    </trkpt>
    <trkpt lat="50.9402234" lon="6.9729661">
      <time>2020-01-26T16:39:24Z</time>
    </trkpt>
    <trkpt lat="50.9401927" lon="6.9730139">
      <time>2020-01-26T16:39:25Z</time>
    </trkpt>
    <trkpt lat="50.9401163" lon="6.9730398">
      <time>2020-01-26T16:39:27Z</time>
    </trkpt>
    <trkpt lat="50.9400438" lon="6.9729938">
      <time>2020-01-26T16:39:29Z</time>
    </trkpt>
    <trkpt lat="50.9400194" lon="6.9729884">
      <time>2020-01-26T16:39:30Z</time>
    </trkpt>
    <trkpt lat="50.9400023" lon="6.9730073">
      <time>2020-01-26T16:39:31Z</time>
    </trkpt>
    <trkpt lat="50.9399956" lon="6.9730746">
      <time>2020-01-26T16:39:33Z</time>
    </trkpt>
    <trkpt lat="50.9399966" lon="6.9731083">
      <time>2020-01-26T16:39:36Z</time>
    </trkpt>
    <trkpt lat="50.9399966" lon="6.9731083">
      <time>2020-01-26T16:39:37Z</time>
    </trkpt>
    <trkpt lat="50.9399933" lon="6.9731789">
      <time>2020-01-26T16:39:41Z</time>
    </trkpt>
    <trkpt lat="50.9400018" lon="6.9732474">
      <time>2020-01-26T16:39:43Z</time>
    </trkpt>
    <trkpt lat="50.9400040" lon="6.9734517">
      <time>2020-01-26T16:39:47Z</time>
    </trkpt>
    <trkpt lat="50.9400050" lon="6.9735212">
      <time>2020-01-26T16:39:48Z</time>
    </trkpt>
    <trkpt lat="50.9399632" lon="6.9741007">
      <time>2020-01-26T16:39:55Z</time>
    </trkpt>
    <trkpt lat="50.9399588" lon="6.9745540">
      <time>2020-01-26T16:40:00Z</time>
    </trkpt>
    <trkpt lat="50.9399500" lon="6.9748488">
      <time>2020-01-26T16:40:03Z</time>
    </trkpt>
    <trkpt lat="50.9399417" lon="6.9751109">
      <time>2020-01-26T16:40:06Z</time>
    </trkpt>
    <trkpt lat="50.9399129" lon="6.9754875">
      <time>2020-01-26T16:40:10Z</time>
    </trkpt>
    <trkpt lat="50.9398607" lon="6.9762826">
      <time>2020-01-26T16:40:19Z</time>
    </trkpt>
    <trkpt lat="50.9398033" lon="6.9769986">
      <time>2020-01-26T16:40:27Z</time>
    </trkpt>
    <trkpt lat="50.9398083" lon="6.9772673">
      <time>2020-01-26T16:40:30Z</time>
    </trkpt>
    <trkpt lat="50.9397782" lon="6.9775315">
      <time>2020-01-26T16:40:33Z</time>
    </trkpt>
    <trkpt lat="50.9397116" lon="6.9782969">
      <time>2020-01-26T16:40:42Z</time>
    </trkpt>
    <trkpt lat="50.9397105" lon="6.9783812">
      <time>2020-01-26T16:40:43Z</time>
    </trkpt>
    <trkpt lat="50.9397375" lon="6.9786987">
      <time>2020-01-26T16:40:47Z</time>
    </trkpt>
    <trkpt lat="50.9397662" lon="6.9788491">
      <time>2020-01-26T16:40:49Z</time>
    </trkpt>
    <trkpt lat="50.9398036" lon="6.9789616">
      <time>2020-01-26T16:40:51Z</time>
    </trkpt>
    <trkpt lat="50.9398232" lon="6.9790433">
      <time>2020-01-26T16:40:53Z</time>
    </trkpt>
    <trkpt lat="50.9398448" lon="6.9790936">
      <time>2020-01-26T16:40:54Z</time>
    </trkpt>
    <trkpt lat="50.9400063" lon="6.9792288">
      <time>2020-01-26T16:40:58Z</time>
    </trkpt>
    <trkpt lat="50.9400788" lon="6.9792935">
      <time>2020-01-26T16:41:00Z</time>
    </trkpt>
    <trkpt lat="50.9401052" lon="6.9793336">
      <time>2020-01-26T16:41:01Z</time>
    </trkpt>
    <trkpt lat="50.9402310" lon="6.9794616">
      <time>2020-01-26T16:41:04Z</time>
    </trkpt>
    <trkpt lat="50.9402570" lon="6.9795019">
      <time>2020-01-26T16:41:05Z</time>
    </trkpt>
    <trkpt lat="50.9403226" lon="6.9795862">
      <time>2020-01-26T16:41:07Z</time>
    </trkpt>
    <trkpt lat="50.9403829" lon="6.9796259">
      <time>2020-01-26T16:41:09Z</time>
    </trkpt>
    <trkpt lat="50.9404481" lon="6.9796915">
      <time>2020-01-26T16:41:11Z</time>
    </trkpt>
    <trkpt lat="50.9405290" lon="6.9797326">
      <time>2020-01-26T16:41:13Z</time>
    </trkpt>
    <trkpt lat="50.9405847" lon="6.9797896">
      <time>2020-01-26T16:41:14Z</time>
    </trkpt>
    <trkpt lat="50.9408420" lon="6.9798473">
      <time>2020-01-26T16:41:17Z</time>
    </trkpt>
    <trkpt lat="50.9411130" lon="6.9798761">
      <time>2020-01-26T16:41:23Z</time>
    </trkpt>
    <trkpt lat="50.9413086" lon="6.9800615">
      <time>2020-01-26T16:41:28Z</time>
    </trkpt>
    <trkpt lat="50.9414550" lon="6.9801301">
      <time>2020-01-26T16:41:34Z</time>
    </trkpt>
    <trkpt lat="50.9414626" lon="6.9801298">
      <time>2020-01-26T16:41:37Z</time>
    </trkpt>
    <trkpt lat="50.9414871" lon="6.9801359">
      <time>2020-01-26T16:42:25Z</time>
    </trkpt>
    <trkpt lat="50.9416660" lon="6.9802383">
      <time>2020-01-26T16:42:31Z</time>
    </trkpt>
    <trkpt lat="50.9417402" lon="6.9803009">
      <time>2020-01-26T16:42:33Z</time>
    </trkpt>
    <trkpt lat="50.9418005" lon="6.9803701">
      <time>2020-01-26T16:42:35Z</time>
    </trkpt>
    <trkpt lat="50.9419532" lon="6.9804994">
      <time>2020-01-26T16:42:39Z</time>
    </trkpt>
    <trkpt lat="50.9420827" lon="6.9805967">
      <time>2020-01-26T16:42:42Z</time>
    </trkpt>
    <trkpt lat="50.9422130" lon="6.9807229">
      <time>2020-01-26T16:42:45Z</time>
    </trkpt>
    <trkpt lat="50.9423417" lon="6.9808196">
      <time>2020-01-26T16:42:48Z</time>
    </trkpt>
    <trkpt lat="50.9426603" lon="6.9810328">
      <time>2020-01-26T16:42:55Z</time>
    </trkpt>
    <trkpt lat="50.9429406" lon="6.9812448">
      <time>2020-01-26T16:43:02Z</time>
    </trkpt>
    <trkpt lat="50.9429771" lon="6.9812825">
      <time>2020-01-26T16:43:03Z</time>
    </trkpt>
    <trkpt lat="50.9430309" lon="6.9813657">
      <time>2020-01-26T16:43:05Z</time>
    </trkpt>
    <trkpt lat="50.9430639" lon="6.9813918">
      <time>2020-01-26T16:43:06Z</time>
    </trkpt>
    <trkpt lat="50.9431713" lon="6.9814534">
      <time>2020-01-26T16:43:09Z</time>
    </trkpt>
    <trkpt lat="50.9433234" lon="6.9815308">
      <time>2020-01-26T16:43:13Z</time>
    </trkpt>
    <trkpt lat="50.9434925" lon="6.9816474">
      <time>2020-01-26T16:43:17Z</time>
    </trkpt>
    <trkpt lat="50.9436175" lon="6.9817977">
      <time>2020-01-26T16:43:20Z</time>
    </trkpt>
    <trkpt lat="50.9437240" lon="6.9819494">
      <time>2020-01-26T16:43:23Z</time>
    </trkpt>
    <trkpt lat="50.9438302" lon="6.9820882">
      <time>2020-01-26T16:43:26Z</time>
    </trkpt>
    <trkpt lat="50.9439135" lon="6.9821713">
      <time>2020-01-26T16:43:28Z</time>
    </trkpt>
    <trkpt lat="50.9441249" lon="6.9823579">
      <time>2020-01-26T16:43:33Z</time>
    </trkpt>
    <trkpt lat="50.9442650" lon="6.9824781">
      <time>2020-01-26T16:43:36Z</time>
    </trkpt>
    <trkpt lat="50.9443121" lon="6.9825228">
      <time>2020-01-26T16:43:37Z</time>
    </trkpt>
    <trkpt lat="50.9445280" lon="6.9827087">
      <time>2020-01-26T16:43:41Z</time>
    </trkpt>
    <trkpt lat="50.9445711" lon="6.9827663">
      <time>2020-01-26T16:43:42Z</time>
    </trkpt>
    <trkpt lat="50.9448806" lon="6.9832261">
      <time>2020-01-26T16:43:50Z</time>
    </trkpt>
    <trkpt lat="50.9449182" lon="6.9832801">
      <time>2020-01-26T16:43:51Z</time>
    </trkpt>
    <trkpt lat="50.9451502" lon="6.9835213">
      <time>2020-01-26T16:43:56Z</time>
    </trkpt>
    <trkpt lat="50.9455556" lon="6.9838661">
      <time>2020-01-26T16:44:04Z</time>
    </trkpt>
    <trkpt lat="50.9459107" lon="6.9841645">
      <time>2020-01-26T16:44:11Z</time>
    </trkpt>
    <trkpt lat="50.9459579" lon="6.9842006">
      <time>2020-01-26T16:44:12Z</time>
    </trkpt>
    <trkpt lat="50.9460487" lon="6.9842734">
      <time>2020-01-26T16:44:14Z</time>
    </trkpt>
    <trkpt lat="50.9460893" lon="6.9843095">
      <time>2020-01-26T16:44:15Z</time>
    </trkpt>
    <trkpt lat="50.9461798" lon="6.9843818">
      <time>2020-01-26T16:44:17Z</time>
    </trkpt>
    <trkpt lat="50.9465365" lon="6.9846107">
      <time>2020-01-26T16:44:24Z</time>
    </trkpt>
    <trkpt lat="50.9468041" lon="6.9847953">
      <time>2020-01-26T16:44:29Z</time>
    </trkpt>
    <trkpt lat="50.9471128" lon="6.9850886">
      <time>2020-01-26T16:44:36Z</time>
    </trkpt>
    <trkpt lat="50.9471849" lon="6.9851515">
      <time>2020-01-26T16:44:38Z</time>
    </trkpt>
    <trkpt lat="50.9472632" lon="6.9851889">
      <time>2020-01-26T16:44:40Z</time>
    </trkpt>
    <trkpt lat="50.9472973" lon="6.9852222">
      <time>2020-01-26T16:44:41Z</time>
    </trkpt>
    <trkpt lat="50.9473252" lon="6.9852675">
      <time>2020-01-26T16:44:42Z</time>
    </trkpt>
    <trkpt lat="50.9473738" lon="6.9853366">
      <time>2020-01-26T16:44:44Z</time>
    </trkpt>
    <trkpt lat="50.9474037" lon="6.9853781">
      <time>2020-01-26T16:44:45Z</time>
    </trkpt>
    <trkpt lat="50.9474375" lon="6.9854098">
      <time>2020-01-26T16:44:46Z</time>
    </trkpt>
    <trkpt lat="50.9476401" lon="6.9856050">
      <time>2020-01-26T16:44:49Z</time>
    </trkpt>
    <trkpt lat="50.9476721" lon="6.9857400">
      <time>2020-01-26T16:44:51Z</time>
    </trkpt>
    <trkpt lat="50.9476723" lon="6.9858597">
      <time>2020-01-26T16:44:52Z</time>
    </trkpt>
    <trkpt lat="50.9476505" lon="6.9858938">
      <time>2020-01-26T16:44:53Z</time>
    </trkpt>
    <trkpt lat="50.9476670" lon="6.9859482">
      <time>2020-01-26T16:44:55Z</time>
    </trkpt>
    <trkpt lat="50.9478008" lon="6.9859854">
      <time>2020-01-26T16:44:58Z</time>
    </trkpt>
    <trkpt lat="50.9480321" lon="6.9861642">
      <time>2020-01-26T16:45:02Z</time>
    </trkpt>
    <trkpt lat="50.9483360" lon="6.9864051">
      <time>2020-01-26T16:45:07Z</time>
    </trkpt>
    <trkpt lat="50.9484597" lon="6.9864885">
      <time>2020-01-26T16:45:09Z</time>
    </trkpt>
    <trkpt lat="50.9488523" lon="6.9868366">
      <time>2020-01-26T16:45:16Z</time>
    </trkpt>
    <trkpt lat="50.9489558" lon="6.9869336">
      <time>2020-01-26T16:45:18Z</time>
    </trkpt>
    <trkpt lat="50.9491011" lon="6.9870797">
      <time>2020-01-26T16:45:21Z</time>
    </trkpt>
    <trkpt lat="50.9494225" lon="6.9873602">
      <time>2020-01-26T16:45:27Z</time>
    </trkpt>
    <trkpt lat="50.9498940" lon="6.9877604">
      <time>2020-01-26T16:45:36Z</time>
    </trkpt>
    <trkpt lat="50.9500008" lon="6.9878519">
      <time>2020-01-26T16:45:38Z</time>
    </trkpt>
    <trkpt lat="50.9501583" lon="6.9879854">
      <time>2020-01-26T16:45:41Z</time>
    </trkpt>
    <trkpt lat="50.9504816" lon="6.9882759">
      <time>2020-01-26T16:45:47Z</time>
    </trkpt>
    <trkpt lat="50.9505364" lon="6.9883247">
      <time>2020-01-26T16:45:48Z</time>
    </trkpt>
    <trkpt lat="50.9510099" lon="6.9887344">
      <time>2020-01-26T16:45:57Z</time>
    </trkpt>
    <trkpt lat="50.9510631" lon="6.9887768">
      <time>2020-01-26T16:45:58Z</time>
    </trkpt>
    <trkpt lat="50.9511971" lon="6.9889071">
      <time>2020-01-26T16:46:01Z</time>
    </trkpt>
    <trkpt lat="50.9512880" lon="6.9889812">
      <time>2020-01-26T16:46:03Z</time>
    </trkpt>
    <trkpt lat="50.9513336" lon="6.9890168">
      <time>2020-01-26T16:46:04Z</time>
    </trkpt>
    <trkpt lat="50.9514571" lon="6.9891173">
      <time>2020-01-26T16:46:07Z</time>
    </trkpt>
    <trkpt lat="50.9515630" lon="6.9892077">
      <time>2020-01-26T16:46:10Z</time>
    </trkpt>
    <trkpt lat="50.9516001" lon="6.9892408">
      <time>2020-01-26T16:46:11Z</time>
    </trkpt>
    <trkpt lat="50.9517397" lon="6.9893527">
      <time>2020-01-26T16:46:15Z</time>
    </trkpt>
    <trkpt lat="50.9517653" lon="6.9893961">
      <time>2020-01-26T16:46:16Z</time>
    </trkpt>
    <trkpt lat="50.9517666" lon="6.9894481">
      <time>2020-01-26T16:46:17Z</time>
    </trkpt>
    <trkpt lat="50.9517556" lon="6.9894996">
      <time>2020-01-26T16:46:18Z</time>
    </trkpt>
    <trkpt lat="50.9516839" lon="6.9897264">
      <time>2020-01-26T16:46:22Z</time>
    </trkpt>
    <trkpt lat="50.9516049" lon="6.9899709">
      <time>2020-01-26T16:46:26Z</time>
    </trkpt>
    <trkpt lat="50.9516006" lon="6.9900353">
      <time>2020-01-26T16:46:27Z</time>
    </trkpt>
    <trkpt lat="50.9516239" lon="6.9901409">
      <time>2020-01-26T16:46:29Z</time>
    </trkpt>
    <trkpt lat="50.9516547" lon="6.9901836">
      <time>2020-01-26T16:46:30Z</time>
    </trkpt>
    <trkpt lat="50.9519158" lon="6.9904261">
      <time>2020-01-26T16:46:37Z</time>
    </trkpt>
    <trkpt lat="50.9519966" lon="6.9904882">
      <time>2020-01-26T16:46:39Z</time>
    </trkpt>
    <trkpt lat="50.9520526" lon="6.9906061">
      <time>2020-01-26T16:46:41Z</time>
    </trkpt>
    <trkpt lat="50.9520189" lon="6.9908193">
      <time>2020-01-26T16:46:44Z</time>
    </trkpt>
    <trkpt lat="50.9519557" lon="6.9910424">
      <time>2020-01-26T16:46:47Z</time>
    </trkpt>
    <trkpt lat="50.9518908" lon="6.9912650">
      <time>2020-01-26T16:46:50Z</time>
    </trkpt>
    <trkpt lat="50.9518369" lon="6.9916131">
      <time>2020-01-26T16:46:55Z</time>
    </trkpt>
    <trkpt lat="50.9518200" lon="6.9916992">
      <time>2020-01-26T16:46:57Z</time>
    </trkpt>
    <trkpt lat="50.9518316" lon="6.9917247">
      <time>2020-01-26T16:46:58Z</time>
    </trkpt>
    <trkpt lat="50.9518863" lon="6.9917742">
      <time>2020-01-26T16:47:00Z</time>
    </trkpt>
    <trkpt lat="50.9520858" lon="6.9918953">
      <time>2020-01-26T16:47:05Z</time>
    </trkpt>
    <trkpt lat="50.9522891" lon="6.9920231">
      <time>2020-01-26T16:47:10Z</time>
    </trkpt>
    <trkpt lat="50.9524856" lon="6.9921986">
      <time>2020-01-26T16:47:15Z</time>
    </trkpt>
    <trkpt lat="50.9525185" lon="6.9923040">
      <time>2020-01-26T16:47:17Z</time>
    </trkpt>
    <trkpt lat="50.9525244" lon="6.9923535">
      <time>2020-01-26T16:47:18Z</time>
    </trkpt>
    <trkpt lat="50.9525226" lon="6.9924523">
      <time>2020-01-26T16:47:20Z</time>
    </trkpt>
    <trkpt lat="50.9525168" lon="6.9924952">
      <time>2020-01-26T16:47:21Z</time>
    </trkpt>
    <trkpt lat="50.9524598" lon="6.9926889">
      <time>2020-01-26T16:47:26Z</time>
    </trkpt>
    <trkpt lat="50.9524443" lon="6.9926948">
      <time>2020-01-26T16:47:27Z</time>
    </trkpt>
  </trkseg></trk>
</gpx>
