<?xml version="1.0" encoding="UTF-8"?>
<gpx version="1.1" creator="Diary FIT converter" xmlns="http://www.topografix.com/GPX/1/1">
  <trk><name>Running</name><trkseg>
    <trkpt lat="50.9524171" lon="6.9935792">
      <time>2022-01-29T10:22:08Z</time>
    </trkpt>
    <trkpt lat="50.9524054" lon="6.9935429">
      <time>2022-01-29T10:22:09Z</time>
    </trkpt>
    <trkpt lat="50.9523248" lon="6.9936135">
      <time>2022-01-29T10:22:12Z</time>
    </trkpt>
    <trkpt lat="50.9523513" lon="6.9937292">
      <time>2022-01-29T10:22:15Z</time>
    </trkpt>
    <trkpt lat="50.9523391" lon="6.9938686">
      <time>2022-01-29T10:22:19Z</time>
    </trkpt>
    <trkpt lat="50.9523338" lon="6.9939038">
      <time>2022-01-29T10:22:20Z</time>
    </trkpt>
    <trkpt lat="50.9523134" lon="6.9941004">
      <time>2022-01-29T10:22:27Z</time>
    </trkpt>
    <trkpt lat="50.9523080" lon="6.9941390">
      <time>2022-01-29T10:22:28Z</time>
    </trkpt>
    <trkpt lat="50.9523191" lon="6.9942514">
      <time>2022-01-29T10:22:31Z</time>
    </trkpt>
    <trkpt lat="50.9523341" lon="6.9943218">
      <time>2022-01-29T10:22:33Z</time>
    </trkpt>
    <trkpt lat="50.9523453" lon="6.9945008">
      <time>2022-01-29T10:22:38Z</time>
    </trkpt>
    <trkpt lat="50.9523371" lon="6.9945231">
      <time>2022-01-29T10:22:39Z</time>
    </trkpt>
    <trkpt lat="50.9523114" lon="6.9946130">
      <time>2022-01-29T10:22:42Z</time>
    </trkpt>
    <trkpt lat="50.9523193" lon="6.9947618">
      <time>2022-01-29T10:22:46Z</time>
    </trkpt>
    <trkpt lat="50.9523298" lon="6.9947969">
      <time>2022-01-29T10:22:47Z</time>
    </trkpt>
    <trkpt lat="50.9523486" lon="6.9948307">
      <time>2022-01-29T10:22:48Z</time>
    </trkpt>
    <trkpt lat="50.9524271" lon="6.9950313">
      <time>2022-01-29T10:22:54Z</time>
    </trkpt>
    <trkpt lat="50.9524867" lon="6.9952658">
      <time>2022-01-29T10:23:01Z</time>
    </trkpt>
    <trkpt lat="50.9525065" lon="6.9955714">
      <time>2022-01-29T10:23:09Z</time>
    </trkpt>
    <trkpt lat="50.9524979" lon="6.9956378">
      <time>2022-01-29T10:23:11Z</time>
    </trkpt>
    <trkpt lat="50.9524912" lon="6.9956967">
      <time>2022-01-29T10:23:13Z</time>
    </trkpt>
    <trkpt lat="50.9525084" lon="6.9958091">
      <time>2022-01-29T10:23:17Z</time>
    </trkpt>
    <trkpt lat="50.9525183" lon="6.9958329">
      <time>2022-01-29T10:23:18Z</time>
    </trkpt>
    <trkpt lat="50.9525567" lon="6.9959101">
      <time>2022-01-29T10:23:21Z</time>
    </trkpt>
    <trkpt lat="50.9525729" lon="6.9959303">
      <time>2022-01-29T10:23:22Z</time>
    </trkpt>
    <trkpt lat="50.9526528" lon="6.9960960">
      <time>2022-01-29T10:23:29Z</time>
    </trkpt>
    <trkpt lat="50.9526875" lon="6.9961701">
      <time>2022-01-29T10:23:32Z</time>
    </trkpt>
    <trkpt lat="50.9527069" lon="6.9962246">
      <time>2022-01-29T10:23:34Z</time>
    </trkpt>
    <trkpt lat="50.9527390" lon="6.9963062">
      <time>2022-01-29T10:23:38Z</time>
    </trkpt>
    <trkpt lat="50.9527750" lon="6.9963611">
      <time>2022-01-29T10:23:40Z</time>
    </trkpt>
    <trkpt lat="50.9528117" lon="6.9964241">
      <time>2022-01-29T10:23:42Z</time>
    </trkpt>
    <trkpt lat="50.9528975" lon="6.9965826">
      <time>2022-01-29T10:23:48Z</time>
    </trkpt>
    <trkpt lat="50.9529954" lon="6.9968091">
      <time>2022-01-29T10:23:54Z</time>
    </trkpt>
    <trkpt lat="50.9530677" lon="6.9969502">
      <time>2022-01-29T10:23:58Z</time>
    </trkpt>
    <trkpt lat="50.9531214" lon="6.9970021">
      <time>2022-01-29T10:24:00Z</time>
    </trkpt>
    <trkpt lat="50.9532123" lon="6.9971844">
      <time>2022-01-29T10:24:07Z</time>
    </trkpt>
    <trkpt lat="50.9532734" lon="6.9972853">
      <time>2022-01-29T10:24:12Z</time>
    </trkpt>
    <trkpt lat="50.9533980" lon="6.9974698">
      <time>2022-01-29T10:24:20Z</time>
    </trkpt>
    <trkpt lat="50.9534165" lon="6.9974956">
      <time>2022-01-29T10:24:21Z</time>
    </trkpt>
    <trkpt lat="50.9534662" lon="6.9975652">
      <time>2022-01-29T10:24:24Z</time>
    </trkpt>
    <trkpt lat="50.9534916" lon="6.9976062">
      <time>2022-01-29T10:24:26Z</time>
    </trkpt>
    <trkpt lat="50.9536366" lon="6.9977695">
      <time>2022-01-29T10:24:33Z</time>
    </trkpt>
    <trkpt lat="50.9537995" lon="6.9979467">
      <time>2022-01-29T10:24:41Z</time>
    </trkpt>
    <trkpt lat="50.9538193" lon="6.9979774">
      <time>2022-01-29T10:24:42Z</time>
    </trkpt>
    <trkpt lat="50.9539204" lon="6.9980880">
      <time>2022-01-29T10:24:47Z</time>
    </trkpt>
    <trkpt lat="50.9540708" lon="6.9982139">
      <time>2022-01-29T10:24:54Z</time>
    </trkpt>
    <trkpt lat="50.9541977" lon="6.9983518">
      <time>2022-01-29T10:25:01Z</time>
    </trkpt>
    <trkpt lat="50.9542519" lon="6.9984720">
      <time>2022-01-29T10:25:05Z</time>
    </trkpt>
    <trkpt lat="50.9542640" lon="6.9985120">
      <time>2022-01-29T10:25:06Z</time>
    </trkpt>
    <trkpt lat="50.9543132" lon="6.9986650">
      <time>2022-01-29T10:25:10Z</time>
    </trkpt>
    <trkpt lat="50.9543272" lon="6.9987395">
      <time>2022-01-29T10:25:12Z</time>
    </trkpt>
    <trkpt lat="50.9543305" lon="6.9989152">
      <time>2022-01-29T10:25:17Z</time>
    </trkpt>
    <trkpt lat="50.9543313" lon="6.9989459">
      <time>2022-01-29T10:25:18Z</time>
    </trkpt>
    <trkpt lat="50.9543276" lon="6.9989824">
      <time>2022-01-29T10:25:19Z</time>
    </trkpt>
    <trkpt lat="50.9543002" lon="6.9991156">
      <time>2022-01-29T10:25:23Z</time>
    </trkpt>
    <trkpt lat="50.9542954" lon="6.9992190">
      <time>2022-01-29T10:25:26Z</time>
    </trkpt>
    <trkpt lat="50.9543168" lon="6.9992702">
      <time>2022-01-29T10:25:28Z</time>
    </trkpt>
    <trkpt lat="50.9543826" lon="6.9993730">
      <time>2022-01-29T10:25:32Z</time>
    </trkpt>
    <trkpt lat="50.9544007" lon="6.9993957">
      <time>2022-01-29T10:25:33Z</time>
    </trkpt>
    <trkpt lat="50.9545319" lon="6.9995006">
      <time>2022-01-29T10:25:39Z</time>
    </trkpt>
    <trkpt lat="50.9545868" lon="6.9995677">
      <time>2022-01-29T10:25:42Z</time>
    </trkpt>
    <trkpt lat="50.9546211" lon="6.9996656">
      <time>2022-01-29T10:25:44Z</time>
    </trkpt>
    <trkpt lat="50.9546737" lon="6.9997797">
      <time>2022-01-29T10:25:48Z</time>
    </trkpt>
    <trkpt lat="50.9546930" lon="6.9997952">
      <time>2022-01-29T10:25:49Z</time>
    </trkpt>
    <trkpt lat="50.9547543" lon="6.9998506">
      <time>2022-01-29T10:25:52Z</time>
    </trkpt>
    <trkpt lat="50.9547993" lon="6.9998602">
      <time>2022-01-29T10:25:54Z</time>
    </trkpt>
    <trkpt lat="50.9548196" lon="6.9998741">
      <time>2022-01-29T10:25:55Z</time>
    </trkpt>
    <trkpt lat="50.9549327" lon="6.9999765">
      <time>2022-01-29T10:25:59Z</time>
    </trkpt>
    <trkpt lat="50.9550695" lon="7.0000689">
      <time>2022-01-29T10:26:05Z</time>
    </trkpt>
    <trkpt lat="50.9551684" lon="7.0001650">
      <time>2022-01-29T10:26:10Z</time>
    </trkpt>
    <trkpt lat="50.9553409" lon="7.0003374">
      <time>2022-01-29T10:26:18Z</time>
    </trkpt>
    <trkpt lat="50.9553585" lon="7.0003566">
      <time>2022-01-29T10:26:19Z</time>
    </trkpt>
    <trkpt lat="50.9554942" lon="7.0004423">
      <time>2022-01-29T10:26:25Z</time>
    </trkpt>
    <trkpt lat="50.9556588" lon="7.0004742">
      <time>2022-01-29T10:26:31Z</time>
    </trkpt>
    <trkpt lat="50.9557802" lon="7.0005890">
      <time>2022-01-29T10:26:38Z</time>
    </trkpt>
    <trkpt lat="50.9558643" lon="7.0006475">
      <time>2022-01-29T10:26:43Z</time>
    </trkpt>
    <trkpt lat="50.9560572" lon="7.0007539">
      <time>2022-01-29T10:26:50Z</time>
    </trkpt>
    <trkpt lat="50.9561435" lon="7.0008816">
      <time>2022-01-29T10:26:57Z</time>
    </trkpt>
    <trkpt lat="50.9562324" lon="7.0009184">
      <time>2022-01-29T10:27:02Z</time>
    </trkpt>
    <trkpt lat="50.9563596" lon="7.0009756">
      <time>2022-01-29T10:27:08Z</time>
    </trkpt>
    <trkpt lat="50.9563832" lon="7.0009952">
      <time>2022-01-29T10:27:09Z</time>
    </trkpt>
    <trkpt lat="50.9565120" lon="7.0010904">
      <time>2022-01-29T10:27:16Z</time>
    </trkpt>
    <trkpt lat="50.9566215" lon="7.0011334">
      <time>2022-01-29T10:27:20Z</time>
    </trkpt>
    <trkpt lat="50.9567958" lon="7.0012653">
      <time>2022-01-29T10:27:27Z</time>
    </trkpt>
    <trkpt lat="50.9568073" lon="7.0013078">
      <time>2022-01-29T10:27:28Z</time>
    </trkpt>
    <trkpt lat="50.9568128" lon="7.0013395">
      <time>2022-01-29T10:27:29Z</time>
    </trkpt>
    <trkpt lat="50.9567632" lon="7.0015073">
      <time>2022-01-29T10:27:37Z</time>
    </trkpt>
    <trkpt lat="50.9567345" lon="7.0016481">
      <time>2022-01-29T10:27:43Z</time>
    </trkpt>
    <trkpt lat="50.9567271" lon="7.0017537">
      <time>2022-01-29T10:27:48Z</time>
    </trkpt>
    <trkpt lat="50.9567245" lon="7.0017712">
      <time>2022-01-29T10:27:49Z</time>
    </trkpt>
    <trkpt lat="50.9567241" lon="7.0018649">
      <time>2022-01-29T10:27:53Z</time>
    </trkpt>
    <trkpt lat="50.9567742" lon="7.0018859">
      <time>2022-01-29T10:27:57Z</time>
    </trkpt>
    <trkpt lat="50.9568680" lon="7.0019487">
      <time>2022-01-29T10:28:03Z</time>
    </trkpt>
    <trkpt lat="50.9569150" lon="7.0019846">
      <time>2022-01-29T10:28:08Z</time>
    </trkpt>
    <trkpt lat="50.9569306" lon="7.0019695">
      <time>2022-01-29T10:28:12Z</time>
    </trkpt>
    <trkpt lat="50.9569279" lon="7.0019245">
      <time>2022-01-29T10:28:15Z</time>
    </trkpt>
    <trkpt lat="50.9569070" lon="7.0019144">
      <time>2022-01-29T10:28:17Z</time>
    </trkpt>
    <trkpt lat="50.9568875" lon="7.0019070">
      <time>2022-01-29T10:28:18Z</time>
    </trkpt>
    <trkpt lat="50.9568387" lon="7.0018309">
      <time>2022-01-29T10:28:23Z</time>
    </trkpt>
    <trkpt lat="50.9568086" lon="7.0017258">
      <time>2022-01-29T10:28:30Z</time>
    </trkpt>
    <trkpt lat="50.9568136" lon="7.0017127">
      <time>2022-01-29T10:28:31Z</time>
    </trkpt>
    <trkpt lat="50.9568391" lon="7.0016574">
      <time>2022-01-29T10:28:37Z</time>
    </trkpt>
    <trkpt lat="50.9568532" lon="7.0016596">
      <time>2022-01-29T10:28:38Z</time>
    </trkpt>
    <trkpt lat="50.9568664" lon="7.0017224">
      <time>2022-01-29T10:28:42Z</time>
    </trkpt>
    <trkpt lat="50.9568418" lon="7.0017435">
      <time>2022-01-29T10:28:47Z</time>
    </trkpt>
    <trkpt lat="50.9568194" lon="7.0017421">
      <time>2022-01-29T10:28:50Z</time>
    </trkpt>
    <trkpt lat="50.9568711" lon="7.0017456">
      <time>2022-01-29T10:31:11Z</time>
    </trkpt>
    <trkpt lat="50.9568359" lon="7.0017833">
      <time>2022-01-29T10:31:15Z</time>
    </trkpt>
    <trkpt lat="50.9568109" lon="7.0017631">
      <time>2022-01-29T10:31:19Z</time>
    </trkpt>
    <trkpt lat="50.9568900" lon="7.0017089">
      <time>2022-01-29T10:33:08Z</time>
    </trkpt>
    <trkpt lat="50.9568815" lon="7.0017085">
      <time>2022-01-29T10:33:09Z</time>
    </trkpt>
    <trkpt lat="50.9568544" lon="7.0017030">
      <time>2022-01-29T10:33:12Z</time>
    </trkpt>
    <trkpt lat="50.9568442" lon="7.0017005">
      <time>2022-01-29T10:33:14Z</time>
    </trkpt>
    <trkpt lat="50.9568389" lon="7.0016942">
      <time>2022-01-29T10:33:15Z</time>
    </trkpt>
    <trkpt lat="50.9568266" lon="7.0016445">
      <time>2022-01-29T10:33:18Z</time>
    </trkpt>
    <trkpt lat="50.9568287" lon="7.0016377">
      <time>2022-01-29T10:33:19Z</time>
    </trkpt>
    <trkpt lat="50.9568551" lon="7.0016690">
      <time>2022-01-29T10:33:22Z</time>
    </trkpt>
    <trkpt lat="50.9568644" lon="7.0016825">
      <time>2022-01-29T10:33:23Z</time>
    </trkpt>
    <trkpt lat="50.9568678" lon="7.0016974">
      <time>2022-01-29T10:33:24Z</time>
    </trkpt>
    <trkpt lat="50.9568533" lon="7.0017342">
      <time>2022-01-29T10:33:27Z</time>
    </trkpt>
    <trkpt lat="50.9568523" lon="7.0017274">
      <time>2022-01-29T10:33:29Z</time>
    </trkpt>
    <trkpt lat="50.9568360" lon="7.0017169">
      <time>2022-01-29T10:33:31Z</time>
    </trkpt>
    <trkpt lat="50.9568290" lon="7.0017066">
      <time>2022-01-29T10:33:32Z</time>
    </trkpt>
    <trkpt lat="50.9568127" lon="7.0016816">
      <time>2022-01-29T10:34:13Z</time>
    </trkpt>
    <trkpt lat="50.9568250" lon="7.0016790">
      <time>2022-01-29T10:34:15Z</time>
    </trkpt>
    <trkpt lat="50.9568307" lon="7.0016758">
      <time>2022-01-29T10:34:16Z</time>
    </trkpt>
    <trkpt lat="50.9569370" lon="7.0016955">
      <time>2022-01-29T10:34:44Z</time>
    </trkpt>
    <trkpt lat="50.9569077" lon="7.0016970">
      <time>2022-01-29T10:34:47Z</time>
    </trkpt>
    <trkpt lat="50.9568761" lon="7.0016960">
      <time>2022-01-29T10:34:50Z</time>
    </trkpt>
    <trkpt lat="50.9568559" lon="7.0017283">
      <time>2022-01-29T10:34:53Z</time>
    </trkpt>
    <trkpt lat="50.9568528" lon="7.0017285">
      <time>2022-01-29T10:34:54Z</time>
    </trkpt>
    <trkpt lat="50.9568745" lon="7.0016831">
      <time>2022-01-29T10:34:57Z</time>
    </trkpt>
    <trkpt lat="50.9568767" lon="7.0016625">
      <time>2022-01-29T10:34:58Z</time>
    </trkpt>
    <trkpt lat="50.9568804" lon="7.0016569">
      <time>2022-01-29T10:35:01Z</time>
    </trkpt>
    <trkpt lat="50.9568964" lon="7.0016683">
      <time>2022-01-29T10:35:05Z</time>
    </trkpt>
    <trkpt lat="50.9569158" lon="7.0017088">
      <time>2022-01-29T10:35:12Z</time>
    </trkpt>
    <trkpt lat="50.9568757" lon="7.0017239">
      <time>2022-01-29T10:35:16Z</time>
    </trkpt>
    <trkpt lat="50.9569157" lon="7.0017033">
      <time>2022-01-29T10:37:30Z</time>
    </trkpt>
    <trkpt lat="50.9569064" lon="7.0016952">
      <time>2022-01-29T10:37:31Z</time>
    </trkpt>
    <trkpt lat="50.9568988" lon="7.0017085">
      <time>2022-01-29T10:37:35Z</time>
    </trkpt>
    <trkpt lat="50.9569157" lon="7.0016269">
      <time>2022-01-29T10:45:15Z</time>
    </trkpt>
    <trkpt lat="50.9569274" lon="7.0016393">
      <time>2022-01-29T10:45:16Z</time>
    </trkpt>
    <trkpt lat="50.9569198" lon="7.0016429">
      <time>2022-01-29T10:45:17Z</time>
    </trkpt>
    <trkpt lat="50.9569022" lon="7.0016377">
      <time>2022-01-29T10:45:18Z</time>
    </trkpt>
    <trkpt lat="50.9568846" lon="7.0016292">
      <time>2022-01-29T10:45:19Z</time>
    </trkpt>
    <trkpt lat="50.9568463" lon="7.0016120">
      <time>2022-01-29T10:45:24Z</time>
    </trkpt>
    <trkpt lat="50.9568453" lon="7.0016320">
      <time>2022-01-29T10:45:26Z</time>
    </trkpt>
    <trkpt lat="50.9568474" lon="7.0016432">
      <time>2022-01-29T10:45:28Z</time>
    </trkpt>
    <trkpt lat="50.9568934" lon="7.0016879">
      <time>2022-01-29T10:48:24Z</time>
    </trkpt>
    <trkpt lat="50.9569057" lon="7.0016852">
      <time>2022-01-29T10:48:27Z</time>
    </trkpt>
    <trkpt lat="50.9569226" lon="7.0016522">
      <time>2022-01-29T10:51:58Z</time>
    </trkpt>
    <trkpt lat="50.9569033" lon="7.0016205">
      <time>2022-01-29T10:52:01Z</time>
    </trkpt>
    <trkpt lat="50.9569046" lon="7.0016135">
      <time>2022-01-29T10:52:02Z</time>
    </trkpt>
    <trkpt lat="50.9569372" lon="7.0016134">
      <time>2022-01-29T10:54:21Z</time>
    </trkpt>
    <trkpt lat="50.9569130" lon="7.0016013">
      <time>2022-01-29T10:54:24Z</time>
    </trkpt>
    <trkpt lat="50.9569085" lon="7.0016047">
      <time>2022-01-29T10:54:26Z</time>
    </trkpt>
    <trkpt lat="50.9568975" lon="7.0016611">
      <time>2022-01-29T10:55:59Z</time>
    </trkpt>
    <trkpt lat="50.9568854" lon="7.0016540">
      <time>2022-01-29T10:56:01Z</time>
    </trkpt>
    <trkpt lat="50.9568779" lon="7.0016523">
      <time>2022-01-29T10:56:02Z</time>
    </trkpt>
    <trkpt lat="50.9568898" lon="7.0015636">
      <time>2022-01-29T10:58:43Z</time>
    </trkpt>
    <trkpt lat="50.9568902" lon="7.0015636">
      <time>2022-01-29T10:58:44Z</time>
    </trkpt>
    <trkpt lat="50.9565632" lon="7.0015662">
      <time>2022-01-29T11:29:31Z</time>
    </trkpt>
    <trkpt lat="50.9565728" lon="7.0015403">
      <time>2022-01-29T11:29:32Z</time>
    </trkpt>
    <trkpt lat="50.9566092" lon="7.0014403">
      <time>2022-01-29T11:29:36Z</time>
    </trkpt>
  </trkseg></trk>
</gpx>
