<?xml version="1.0" encoding="UTF-8"?>
<gpx version="1.1" creator="Diary FIT converter" xmlns="http://www.topografix.com/GPX/1/1">
  <trk><name>Running</name><trkseg>
    <trkpt lat="50.9522681" lon="6.9929655">
      <time>2019-12-22T17:14:02Z</time>
    </trkpt>
    <trkpt lat="50.9523567" lon="6.9929989">
      <time>2019-12-22T17:14:04Z</time>
    </trkpt>
    <trkpt lat="50.9523582" lon="6.9929985">
      <time>2019-12-22T17:14:05Z</time>
    </trkpt>
    <trkpt lat="50.9524074" lon="6.9930398">
      <time>2019-12-22T17:14:12Z</time>
    </trkpt>
    <trkpt lat="50.9524230" lon="6.9930614">
      <time>2019-12-22T17:14:13Z</time>
    </trkpt>
    <trkpt lat="50.9525145" lon="6.9930187">
      <time>2019-12-22T17:14:17Z</time>
    </trkpt>
    <trkpt lat="50.9525255" lon="6.9929784">
      <time>2019-12-22T17:14:18Z</time>
    </trkpt>
    <trkpt lat="50.9525323" lon="6.9929442">
      <time>2019-12-22T17:14:19Z</time>
    </trkpt>
    <trkpt lat="50.9525499" lon="6.9928754">
      <time>2019-12-22T17:14:21Z</time>
    </trkpt>
    <trkpt lat="50.9525457" lon="6.9926981">
      <time>2019-12-22T17:14:26Z</time>
    </trkpt>
    <trkpt lat="50.9525089" lon="6.9926479">
      <time>2019-12-22T17:14:28Z</time>
    </trkpt>
    <trkpt lat="50.9524364" lon="6.9924154">
      <time>2019-12-22T17:14:35Z</time>
    </trkpt>
    <trkpt lat="50.9524227" lon="6.9923899">
      <time>2019-12-22T17:14:36Z</time>
    </trkpt>
    <trkpt lat="50.9523846" lon="6.9923499">
      <time>2019-12-22T17:14:38Z</time>
    </trkpt>
    <trkpt lat="50.9523636" lon="6.9923378">
      <time>2019-12-22T17:14:39Z</time>
    </trkpt>
    <trkpt lat="50.9523211" lon="6.9923200">
      <time>2019-12-22T17:14:41Z</time>
    </trkpt>
    <trkpt lat="50.9522619" lon="6.9922963">
      <time>2019-12-22T17:14:44Z</time>
    </trkpt>
    <trkpt lat="50.9521075" lon="6.9922630">
      <time>2019-12-22T17:14:49Z</time>
    </trkpt>
    <trkpt lat="50.9520470" lon="6.9922197">
      <time>2019-12-22T17:14:52Z</time>
    </trkpt>
    <trkpt lat="50.9520102" lon="6.9921854">
      <time>2019-12-22T17:14:54Z</time>
    </trkpt>
    <trkpt lat="50.9519900" lon="6.9921606">
      <time>2019-12-22T17:14:55Z</time>
    </trkpt>
    <trkpt lat="50.9519515" lon="6.9920614">
      <time>2019-12-22T17:14:58Z</time>
    </trkpt>
    <trkpt lat="50.9519008" lon="6.9920348">
      <time>2019-12-22T17:15:00Z</time>
    </trkpt>
    <trkpt lat="50.9518765" lon="6.9920225">
      <time>2019-12-22T17:15:01Z</time>
    </trkpt>
    <trkpt lat="50.9517705" lon="6.9919587">
      <time>2019-12-22T17:15:05Z</time>
    </trkpt>
    <trkpt lat="50.9517443" lon="6.9919394">
      <time>2019-12-22T17:15:06Z</time>
    </trkpt>
    <trkpt lat="50.9516982" lon="6.9919198">
      <time>2019-12-22T17:15:08Z</time>
    </trkpt>
    <trkpt lat="50.9516423" lon="6.9918418">
      <time>2019-12-22T17:15:11Z</time>
    </trkpt>
    <trkpt lat="50.9516170" lon="6.9916650">
      <time>2019-12-22T17:15:17Z</time>
    </trkpt>
    <trkpt lat="50.9516227" lon="6.9916357">
      <time>2019-12-22T17:15:18Z</time>
    </trkpt>
    <trkpt lat="50.9516510" lon="6.9915181">
      <time>2019-12-22T17:15:22Z</time>
    </trkpt>
    <trkpt lat="50.9516946" lon="6.9913878">
      <time>2019-12-22T17:15:26Z</time>
    </trkpt>
    <trkpt lat="50.9517082" lon="6.9913536">
      <time>2019-12-22T17:15:27Z</time>
    </trkpt>
    <trkpt lat="50.9517344" lon="6.9912748">
      <time>2019-12-22T17:15:29Z</time>
    </trkpt>
    <trkpt lat="50.9517541" lon="6.9912046">
      <time>2019-12-22T17:15:31Z</time>
    </trkpt>
    <trkpt lat="50.9517659" lon="6.9911337">
      <time>2019-12-22T17:15:33Z</time>
    </trkpt>
    <trkpt lat="50.9518028" lon="6.9909957">
      <time>2019-12-22T17:15:37Z</time>
    </trkpt>
    <trkpt lat="50.9518423" lon="6.9908274">
      <time>2019-12-22T17:15:42Z</time>
    </trkpt>
    <trkpt lat="50.9518434" lon="6.9907553">
      <time>2019-12-22T17:15:44Z</time>
    </trkpt>
    <trkpt lat="50.9518189" lon="6.9906604">
      <time>2019-12-22T17:15:48Z</time>
    </trkpt>
    <trkpt lat="50.9517995" lon="6.9906548">
      <time>2019-12-22T17:15:49Z</time>
    </trkpt>
    <trkpt lat="50.9517660" lon="6.9906300">
      <time>2019-12-22T17:15:51Z</time>
    </trkpt>
    <trkpt lat="50.9517478" lon="6.9906150">
      <time>2019-12-22T17:15:52Z</time>
    </trkpt>
    <trkpt lat="50.9517296" lon="6.9905911">
      <time>2019-12-22T17:15:53Z</time>
    </trkpt>
    <trkpt lat="50.9516951" lon="6.9905632">
      <time>2019-12-22T17:15:55Z</time>
    </trkpt>
    <trkpt lat="50.9516563" lon="6.9905013">
      <time>2019-12-22T17:15:58Z</time>
    </trkpt>
    <trkpt lat="50.9516325" lon="6.9904735">
      <time>2019-12-22T17:16:00Z</time>
    </trkpt>
    <trkpt lat="50.9516185" lon="6.9904472">
      <time>2019-12-22T17:16:01Z</time>
    </trkpt>
    <trkpt lat="50.9515854" lon="6.9904033">
      <time>2019-12-22T17:16:03Z</time>
    </trkpt>
    <trkpt lat="50.9515459" lon="6.9903608">
      <time>2019-12-22T17:16:05Z</time>
    </trkpt>
    <trkpt lat="50.9515048" lon="6.9903008">
      <time>2019-12-22T17:16:07Z</time>
    </trkpt>
    <trkpt lat="50.9514736" lon="6.9901947">
      <time>2019-12-22T17:16:11Z</time>
    </trkpt>
    <trkpt lat="50.9514781" lon="6.9901714">
      <time>2019-12-22T17:16:12Z</time>
    </trkpt>
    <trkpt lat="50.9514784" lon="6.9901338">
      <time>2019-12-22T17:16:14Z</time>
    </trkpt>
    <trkpt lat="50.9514767" lon="6.9900891">
      <time>2019-12-22T17:16:16Z</time>
    </trkpt>
    <trkpt lat="50.9514955" lon="6.9900313">
      <time>2019-12-22T17:16:18Z</time>
    </trkpt>
    <trkpt lat="50.9515440" lon="6.9898777">
      <time>2019-12-22T17:16:23Z</time>
    </trkpt>
    <trkpt lat="50.9515849" lon="6.9897639">
      <time>2019-12-22T17:16:27Z</time>
    </trkpt>
    <trkpt lat="50.9515958" lon="6.9897289">
      <time>2019-12-22T17:16:28Z</time>
    </trkpt>
    <trkpt lat="50.9516509" lon="6.9895779">
      <time>2019-12-22T17:16:32Z</time>
    </trkpt>
    <trkpt lat="50.9516667" lon="6.9895598">
      <time>2019-12-22T17:16:33Z</time>
    </trkpt>
    <trkpt lat="50.9516962" lon="6.9895582">
      <time>2019-12-22T17:16:34Z</time>
    </trkpt>
    <trkpt lat="50.9517539" lon="6.9895961">
      <time>2019-12-22T17:16:37Z</time>
    </trkpt>
    <trkpt lat="50.9518381" lon="6.9896624">
      <time>2019-12-22T17:16:43Z</time>
    </trkpt>
    <trkpt lat="50.9518587" lon="6.9896826">
      <time>2019-12-22T17:16:45Z</time>
    </trkpt>
    <trkpt lat="50.9518961" lon="6.9896758">
      <time>2019-12-22T17:16:47Z</time>
    </trkpt>
    <trkpt lat="50.9520096" lon="6.9896572">
      <time>2019-12-22T17:16:52Z</time>
    </trkpt>
    <trkpt lat="50.9520425" lon="6.9896639">
      <time>2019-12-22T17:16:53Z</time>
    </trkpt>
    <trkpt lat="50.9521582" lon="6.9897232">
      <time>2019-12-22T17:16:57Z</time>
    </trkpt>
    <trkpt lat="50.9521873" lon="6.9897155">
      <time>2019-12-22T17:16:58Z</time>
    </trkpt>
    <trkpt lat="50.9522260" lon="6.9896589">
      <time>2019-12-22T17:17:00Z</time>
    </trkpt>
    <trkpt lat="50.9522384" lon="6.9896158">
      <time>2019-12-22T17:17:01Z</time>
    </trkpt>
    <trkpt lat="50.9523494" lon="6.9893495">
      <time>2019-12-22T17:17:07Z</time>
    </trkpt>
    <trkpt lat="50.9523620" lon="6.9893089">
      <time>2019-12-22T17:17:08Z</time>
    </trkpt>
    <trkpt lat="50.9524539" lon="6.9890879">
      <time>2019-12-22T17:17:14Z</time>
    </trkpt>
    <trkpt lat="50.9524908" lon="6.9889927">
      <time>2019-12-22T17:17:17Z</time>
    </trkpt>
    <trkpt lat="50.9525610" lon="6.9887867">
      <time>2019-12-22T17:17:23Z</time>
    </trkpt>
    <trkpt lat="50.9526386" lon="6.9885753">
      <time>2019-12-22T17:17:29Z</time>
    </trkpt>
    <trkpt lat="50.9527231" lon="6.9883476">
      <time>2019-12-22T17:17:36Z</time>
    </trkpt>
    <trkpt lat="50.9527834" lon="6.9881824">
      <time>2019-12-22T17:17:41Z</time>
    </trkpt>
    <trkpt lat="50.9528208" lon="6.9880881">
      <time>2019-12-22T17:17:44Z</time>
    </trkpt>
    <trkpt lat="50.9529150" lon="6.9878250">
      <time>2019-12-22T17:17:52Z</time>
    </trkpt>
    <trkpt lat="50.9529229" lon="6.9877968">
      <time>2019-12-22T17:17:53Z</time>
    </trkpt>
    <trkpt lat="50.9529691" lon="6.9876644">
      <time>2019-12-22T17:17:57Z</time>
    </trkpt>
    <trkpt lat="50.9530073" lon="6.9875596">
      <time>2019-12-22T17:18:00Z</time>
    </trkpt>
    <trkpt lat="50.9530270" lon="6.9874922">
      <time>2019-12-22T17:18:02Z</time>
    </trkpt>
    <trkpt lat="50.9530911" lon="6.9873204">
      <time>2019-12-22T17:18:08Z</time>
    </trkpt>
    <trkpt lat="50.9531352" lon="6.9871918">
      <time>2019-12-22T17:18:13Z</time>
    </trkpt>
    <trkpt lat="50.9531675" lon="6.9870943">
      <time>2019-12-22T17:18:17Z</time>
    </trkpt>
    <trkpt lat="50.9531773" lon="6.9870573">
      <time>2019-12-22T17:18:18Z</time>
    </trkpt>
    <trkpt lat="50.9532425" lon="6.9869072">
      <time>2019-12-22T17:18:24Z</time>
    </trkpt>
    <trkpt lat="50.9532622" lon="6.9868574">
      <time>2019-12-22T17:18:26Z</time>
    </trkpt>
    <trkpt lat="50.9532932" lon="6.9868563">
      <time>2019-12-22T17:19:09Z</time>
    </trkpt>
    <trkpt lat="50.9532929" lon="6.9868581">
      <time>2019-12-22T17:19:10Z</time>
    </trkpt>
    <trkpt lat="50.9532927" lon="6.9868584">
      <time>2019-12-22T17:19:11Z</time>
    </trkpt>
    <trkpt lat="50.9532927" lon="6.9868584">
      <time>2019-12-22T17:19:12Z</time>
    </trkpt>
    <trkpt lat="50.9532875" lon="6.9868672">
      <time>2019-12-22T17:19:13Z</time>
    </trkpt>
    <trkpt lat="50.9532331" lon="6.9869616">
      <time>2019-12-22T17:19:16Z</time>
    </trkpt>
    <trkpt lat="50.9531774" lon="6.9869759">
      <time>2019-12-22T17:19:18Z</time>
    </trkpt>
    <trkpt lat="50.9531345" lon="6.9869616">
      <time>2019-12-22T17:19:20Z</time>
    </trkpt>
    <trkpt lat="50.9529569" lon="6.9868283">
      <time>2019-12-22T17:19:28Z</time>
    </trkpt>
    <trkpt lat="50.9529403" lon="6.9868120">
      <time>2019-12-22T17:19:29Z</time>
    </trkpt>
    <trkpt lat="50.9528989" lon="6.9867454">
      <time>2019-12-22T17:19:32Z</time>
    </trkpt>
    <trkpt lat="50.9529181" lon="6.9866786">
      <time>2019-12-22T17:19:34Z</time>
    </trkpt>
    <trkpt lat="50.9529695" lon="6.9865540">
      <time>2019-12-22T17:19:38Z</time>
    </trkpt>
    <trkpt lat="50.9530013" lon="6.9864503">
      <time>2019-12-22T17:19:41Z</time>
    </trkpt>
    <trkpt lat="50.9530356" lon="6.9863818">
      <time>2019-12-22T17:19:44Z</time>
    </trkpt>
    <trkpt lat="50.9530539" lon="6.9863855">
      <time>2019-12-22T17:19:45Z</time>
    </trkpt>
    <trkpt lat="50.9530769" lon="6.9863973">
      <time>2019-12-22T17:19:46Z</time>
    </trkpt>
    <trkpt lat="50.9530945" lon="6.9864121">
      <time>2019-12-22T17:19:47Z</time>
    </trkpt>
    <trkpt lat="50.9531150" lon="6.9864433">
      <time>2019-12-22T17:19:48Z</time>
    </trkpt>
    <trkpt lat="50.9531699" lon="6.9865117">
      <time>2019-12-22T17:19:51Z</time>
    </trkpt>
    <trkpt lat="50.9532566" lon="6.9865879">
      <time>2019-12-22T17:19:55Z</time>
    </trkpt>
    <trkpt lat="50.9532991" lon="6.9866315">
      <time>2019-12-22T17:19:57Z</time>
    </trkpt>
    <trkpt lat="50.9534190" lon="6.9867710">
      <time>2019-12-22T17:20:04Z</time>
    </trkpt>
    <trkpt lat="50.9535268" lon="6.9869096">
      <time>2019-12-22T17:20:11Z</time>
    </trkpt>
    <trkpt lat="50.9535377" lon="6.9869272">
      <time>2019-12-22T17:20:12Z</time>
    </trkpt>
    <trkpt lat="50.9536046" lon="6.9870148">
      <time>2019-12-22T17:20:17Z</time>
    </trkpt>
    <trkpt lat="50.9536397" lon="6.9870731">
      <time>2019-12-22T17:20:20Z</time>
    </trkpt>
    <trkpt lat="50.9537421" lon="6.9872298">
      <time>2019-12-22T17:20:29Z</time>
    </trkpt>
    <trkpt lat="50.9537553" lon="6.9872510">
      <time>2019-12-22T17:20:30Z</time>
    </trkpt>
    <trkpt lat="50.9538642" lon="6.9873758">
      <time>2019-12-22T17:20:37Z</time>
    </trkpt>
    <trkpt lat="50.9539096" lon="6.9874369">
      <time>2019-12-22T17:20:40Z</time>
    </trkpt>
    <trkpt lat="50.9539947" lon="6.9875723">
      <time>2019-12-22T17:20:47Z</time>
    </trkpt>
    <trkpt lat="50.9541057" lon="6.9877311">
      <time>2019-12-22T17:20:55Z</time>
    </trkpt>
    <trkpt lat="50.9541594" lon="6.9877746">
      <time>2019-12-22T17:20:59Z</time>
    </trkpt>
    <trkpt lat="50.9541889" lon="6.9877476">
      <time>2019-12-22T17:21:01Z</time>
    </trkpt>
    <trkpt lat="50.9542904" lon="6.9877274">
      <time>2019-12-22T17:21:05Z</time>
    </trkpt>
    <trkpt lat="50.9543344" lon="6.9877562">
      <time>2019-12-22T17:21:07Z</time>
    </trkpt>
    <trkpt lat="50.9543981" lon="6.9878320">
      <time>2019-12-22T17:21:11Z</time>
    </trkpt>
    <trkpt lat="50.9544444" lon="6.9879037">
      <time>2019-12-22T17:21:14Z</time>
    </trkpt>
    <trkpt lat="50.9545215" lon="6.9880057">
      <time>2019-12-22T17:21:19Z</time>
    </trkpt>
    <trkpt lat="50.9545633" lon="6.9880824">
      <time>2019-12-22T17:21:22Z</time>
    </trkpt>
    <trkpt lat="50.9546443" lon="6.9882844">
      <time>2019-12-22T17:21:29Z</time>
    </trkpt>
    <trkpt lat="50.9546813" lon="6.9884089">
      <time>2019-12-22T17:21:33Z</time>
    </trkpt>
    <trkpt lat="50.9546898" lon="6.9884386">
      <time>2019-12-22T17:21:34Z</time>
    </trkpt>
    <trkpt lat="50.9547370" lon="6.9885637">
      <time>2019-12-22T17:21:38Z</time>
    </trkpt>
    <trkpt lat="50.9547544" lon="6.9886268">
      <time>2019-12-22T17:21:40Z</time>
    </trkpt>
    <trkpt lat="50.9547623" lon="6.9886572">
      <time>2019-12-22T17:21:41Z</time>
    </trkpt>
    <trkpt lat="50.9548003" lon="6.9888232">
      <time>2019-12-22T17:21:46Z</time>
    </trkpt>
    <trkpt lat="50.9548781" lon="6.9889599">
      <time>2019-12-22T17:21:52Z</time>
    </trkpt>
    <trkpt lat="50.9549744" lon="6.9890659">
      <time>2019-12-22T17:21:58Z</time>
    </trkpt>
    <trkpt lat="50.9550038" lon="6.9891068">
      <time>2019-12-22T17:22:00Z</time>
    </trkpt>
    <trkpt lat="50.9551121" lon="6.9892404">
      <time>2019-12-22T17:22:06Z</time>
    </trkpt>
    <trkpt lat="50.9551328" lon="6.9892695">
      <time>2019-12-22T17:22:07Z</time>
    </trkpt>
    <trkpt lat="50.9552433" lon="6.9893809">
      <time>2019-12-22T17:22:13Z</time>
    </trkpt>
    <trkpt lat="50.9553741" lon="6.9894851">
      <time>2019-12-22T17:22:21Z</time>
    </trkpt>
    <trkpt lat="50.9554124" lon="6.9895264">
      <time>2019-12-22T17:22:24Z</time>
    </trkpt>
    <trkpt lat="50.9554482" lon="6.9895752">
      <time>2019-12-22T17:22:27Z</time>
    </trkpt>
    <trkpt lat="50.9554639" lon="6.9895909">
      <time>2019-12-22T17:22:28Z</time>
    </trkpt>
    <trkpt lat="50.9555712" lon="6.9897191">
      <time>2019-12-22T17:22:36Z</time>
    </trkpt>
    <trkpt lat="50.9557405" lon="6.9898704">
      <time>2019-12-22T17:22:44Z</time>
    </trkpt>
    <trkpt lat="50.9557688" lon="6.9898834">
      <time>2019-12-22T17:22:45Z</time>
    </trkpt>
    <trkpt lat="50.9559418" lon="6.9900037">
      <time>2019-12-22T17:22:52Z</time>
    </trkpt>
    <trkpt lat="50.9559928" lon="6.9900405">
      <time>2019-12-22T17:22:54Z</time>
    </trkpt>
    <trkpt lat="50.9560943" lon="6.9901046">
      <time>2019-12-22T17:22:58Z</time>
    </trkpt>
    <trkpt lat="50.9561691" lon="6.9901684">
      <time>2019-12-22T17:23:01Z</time>
    </trkpt>
    <trkpt lat="50.9563013" lon="6.9902590">
      <time>2019-12-22T17:23:06Z</time>
    </trkpt>
    <trkpt lat="50.9563497" lon="6.9902908">
      <time>2019-12-22T17:23:08Z</time>
    </trkpt>
    <trkpt lat="50.9565298" lon="6.9903893">
      <time>2019-12-22T17:23:14Z</time>
    </trkpt>
    <trkpt lat="50.9565658" lon="6.9904091">
      <time>2019-12-22T17:23:15Z</time>
    </trkpt>
    <trkpt lat="50.9566664" lon="6.9904725">
      <time>2019-12-22T17:23:18Z</time>
    </trkpt>
    <trkpt lat="50.9567499" lon="6.9905594">
      <time>2019-12-22T17:23:21Z</time>
    </trkpt>
    <trkpt lat="50.9567919" lon="6.9906218">
      <time>2019-12-22T17:23:23Z</time>
    </trkpt>
    <trkpt lat="50.9568496" lon="6.9906810">
      <time>2019-12-22T17:23:25Z</time>
    </trkpt>
    <trkpt lat="50.9569678" lon="6.9908504">
      <time>2019-12-22T17:23:31Z</time>
    </trkpt>
    <trkpt lat="50.9570473" lon="6.9909386">
      <time>2019-12-22T17:23:36Z</time>
    </trkpt>
    <trkpt lat="50.9571897" lon="6.9910895">
      <time>2019-12-22T17:23:45Z</time>
    </trkpt>
    <trkpt lat="50.9572439" lon="6.9911609">
      <time>2019-12-22T17:23:49Z</time>
    </trkpt>
    <trkpt lat="50.9572892" lon="6.9912141">
      <time>2019-12-22T17:23:52Z</time>
    </trkpt>
    <trkpt lat="50.9573075" lon="6.9912326">
      <time>2019-12-22T17:23:53Z</time>
    </trkpt>
    <trkpt lat="50.9574320" lon="6.9913904">
      <time>2019-12-22T17:24:02Z</time>
    </trkpt>
    <trkpt lat="50.9574866" lon="6.9914622">
      <time>2019-12-22T17:24:06Z</time>
    </trkpt>
    <trkpt lat="50.9575575" lon="6.9915370">
      <time>2019-12-22T17:24:11Z</time>
    </trkpt>
    <trkpt lat="50.9576131" lon="6.9915964">
      <time>2019-12-22T17:24:15Z</time>
    </trkpt>
    <trkpt lat="50.9576730" lon="6.9916567">
      <time>2019-12-22T17:24:19Z</time>
    </trkpt>
    <trkpt lat="50.9577116" lon="6.9917094">
      <time>2019-12-22T17:24:23Z</time>
    </trkpt>
    <trkpt lat="50.9577944" lon="6.9918050">
      <time>2019-12-22T17:24:28Z</time>
    </trkpt>
    <trkpt lat="50.9578816" lon="6.9918930">
      <time>2019-12-22T17:24:34Z</time>
    </trkpt>
    <trkpt lat="50.9579216" lon="6.9919470">
      <time>2019-12-22T17:24:37Z</time>
    </trkpt>
    <trkpt lat="50.9580111" lon="6.9920485">
      <time>2019-12-22T17:24:43Z</time>
    </trkpt>
    <trkpt lat="50.9580378" lon="6.9920858">
      <time>2019-12-22T17:24:45Z</time>
    </trkpt>
    <trkpt lat="50.9581019" lon="6.9921804">
      <time>2019-12-22T17:24:50Z</time>
    </trkpt>
    <trkpt lat="50.9581335" lon="6.9922139">
      <time>2019-12-22T17:24:52Z</time>
    </trkpt>
    <trkpt lat="50.9581926" lon="6.9922924">
      <time>2019-12-22T17:24:56Z</time>
    </trkpt>
    <trkpt lat="50.9582442" lon="6.9923480">
      <time>2019-12-22T17:24:59Z</time>
    </trkpt>
    <trkpt lat="50.9582753" lon="6.9923870">
      <time>2019-12-22T17:25:01Z</time>
    </trkpt>
    <trkpt lat="50.9584083" lon="6.9925267">
      <time>2019-12-22T17:25:10Z</time>
    </trkpt>
    <trkpt lat="50.9585078" lon="6.9926482">
      <time>2019-12-22T17:25:17Z</time>
    </trkpt>
    <trkpt lat="50.9586570" lon="6.9928335">
      <time>2019-12-22T17:25:27Z</time>
    </trkpt>
    <trkpt lat="50.9587333" lon="6.9929600">
      <time>2019-12-22T17:25:33Z</time>
    </trkpt>
    <trkpt lat="50.9587481" lon="6.9929792">
      <time>2019-12-22T17:25:34Z</time>
    </trkpt>
    <trkpt lat="50.9588780" lon="6.9931664">
      <time>2019-12-22T17:25:43Z</time>
    </trkpt>
    <trkpt lat="50.9590034" lon="6.9933208">
      <time>2019-12-22T17:25:51Z</time>
    </trkpt>
    <trkpt lat="50.9591190" lon="6.9934713">
      <time>2019-12-22T17:25:59Z</time>
    </trkpt>
    <trkpt lat="50.9592356" lon="6.9936179">
      <time>2019-12-22T17:26:07Z</time>
    </trkpt>
    <trkpt lat="50.9592790" lon="6.9936713">
      <time>2019-12-22T17:26:10Z</time>
    </trkpt>
    <trkpt lat="50.9594269" lon="6.9938403">
      <time>2019-12-22T17:26:20Z</time>
    </trkpt>
    <trkpt lat="50.9595410" lon="6.9939115">
      <time>2019-12-22T17:26:27Z</time>
    </trkpt>
    <trkpt lat="50.9596813" lon="6.9941141">
      <time>2019-12-22T17:26:37Z</time>
    </trkpt>
    <trkpt lat="50.9597532" lon="6.9942112">
      <time>2019-12-22T17:26:42Z</time>
    </trkpt>
    <trkpt lat="50.9597992" lon="6.9942605">
      <time>2019-12-22T17:26:45Z</time>
    </trkpt>
    <trkpt lat="50.9598911" lon="6.9943752">
      <time>2019-12-22T17:26:51Z</time>
    </trkpt>
    <trkpt lat="50.9599353" lon="6.9944361">
      <time>2019-12-22T17:26:54Z</time>
    </trkpt>
    <trkpt lat="50.9600278" lon="6.9945548">
      <time>2019-12-22T17:27:01Z</time>
    </trkpt>
    <trkpt lat="50.9601510" lon="6.9947062">
      <time>2019-12-22T17:27:10Z</time>
    </trkpt>
    <trkpt lat="50.9602900" lon="6.9948782">
      <time>2019-12-22T17:27:21Z</time>
    </trkpt>
    <trkpt lat="50.9604230" lon="6.9950237">
      <time>2019-12-22T17:27:30Z</time>
    </trkpt>
    <trkpt lat="50.9605106" lon="6.9951192">
      <time>2019-12-22T17:27:36Z</time>
    </trkpt>
    <trkpt lat="50.9605687" lon="6.9951895">
      <time>2019-12-22T17:27:40Z</time>
    </trkpt>
    <trkpt lat="50.9606951" lon="6.9953175">
      <time>2019-12-22T17:27:48Z</time>
    </trkpt>
    <trkpt lat="50.9607928" lon="6.9954194">
      <time>2019-12-22T17:27:55Z</time>
    </trkpt>
    <trkpt lat="50.9608303" lon="6.9954626">
      <time>2019-12-22T17:27:58Z</time>
    </trkpt>
    <trkpt lat="50.9609098" lon="6.9955491">
      <time>2019-12-22T17:28:04Z</time>
    </trkpt>
    <trkpt lat="50.9609694" lon="6.9956003">
      <time>2019-12-22T17:28:08Z</time>
    </trkpt>
    <trkpt lat="50.9610591" lon="6.9956827">
      <time>2019-12-22T17:28:14Z</time>
    </trkpt>
    <trkpt lat="50.9611064" lon="6.9957228">
      <time>2019-12-22T17:28:17Z</time>
    </trkpt>
    <trkpt lat="50.9611362" lon="6.9957503">
      <time>2019-12-22T17:28:19Z</time>
    </trkpt>
    <trkpt lat="50.9611841" lon="6.9957933">
      <time>2019-12-22T17:28:22Z</time>
    </trkpt>
    <trkpt lat="50.9612630" lon="6.9958588">
      <time>2019-12-22T17:28:27Z</time>
    </trkpt>
    <trkpt lat="50.9613801" lon="6.9959517">
      <time>2019-12-22T17:28:34Z</time>
    </trkpt>
    <trkpt lat="50.9614225" lon="6.9959983">
      <time>2019-12-22T17:28:37Z</time>
    </trkpt>
    <trkpt lat="50.9615166" lon="6.9960945">
      <time>2019-12-22T17:28:43Z</time>
    </trkpt>
    <trkpt lat="50.9616366" lon="6.9961874">
      <time>2019-12-22T17:28:50Z</time>
    </trkpt>
    <trkpt lat="50.9617750" lon="6.9962753">
      <time>2019-12-22T17:28:58Z</time>
    </trkpt>
    <trkpt lat="50.9617919" lon="6.9962864">
      <time>2019-12-22T17:28:59Z</time>
    </trkpt>
    <trkpt lat="50.9619756" lon="6.9963892">
      <time>2019-12-22T17:29:09Z</time>
    </trkpt>
    <trkpt lat="50.9620967" lon="6.9964793">
      <time>2019-12-22T17:29:16Z</time>
    </trkpt>
    <trkpt lat="50.9621497" lon="6.9965192">
      <time>2019-12-22T17:29:19Z</time>
    </trkpt>
    <trkpt lat="50.9622679" lon="6.9966093">
      <time>2019-12-22T17:29:26Z</time>
    </trkpt>
    <trkpt lat="50.9623873" lon="6.9966858">
      <time>2019-12-22T17:29:33Z</time>
    </trkpt>
    <trkpt lat="50.9625390" lon="6.9968054">
      <time>2019-12-22T17:29:42Z</time>
    </trkpt>
    <trkpt lat="50.9626100" lon="6.9969240">
      <time>2019-12-22T17:29:48Z</time>
    </trkpt>
    <trkpt lat="50.9626769" lon="6.9969816">
      <time>2019-12-22T17:29:52Z</time>
    </trkpt>
    <trkpt lat="50.9627128" lon="6.9969727">
      <time>2019-12-22T17:29:54Z</time>
    </trkpt>
    <trkpt lat="50.9628453" lon="6.9969343">
      <time>2019-12-22T17:30:01Z</time>
    </trkpt>
    <trkpt lat="50.9628667" lon="6.9969328">
      <time>2019-12-22T17:30:02Z</time>
    </trkpt>
    <trkpt lat="50.9629888" lon="6.9969866">
      <time>2019-12-22T17:30:09Z</time>
    </trkpt>
    <trkpt lat="50.9630909" lon="6.9970834">
      <time>2019-12-22T17:30:15Z</time>
    </trkpt>
    <trkpt lat="50.9631360" lon="6.9971354">
      <time>2019-12-22T17:30:18Z</time>
    </trkpt>
    <trkpt lat="50.9632269" lon="6.9973180">
      <time>2019-12-22T17:30:25Z</time>
    </trkpt>
    <trkpt lat="50.9632403" lon="6.9973351">
      <time>2019-12-22T17:30:26Z</time>
    </trkpt>
    <trkpt lat="50.9633290" lon="6.9974320">
      <time>2019-12-22T17:30:33Z</time>
    </trkpt>
    <trkpt lat="50.9633545" lon="6.9974765">
      <time>2019-12-22T17:30:36Z</time>
    </trkpt>
    <trkpt lat="50.9634043" lon="6.9975009">
      <time>2019-12-22T17:30:39Z</time>
    </trkpt>
    <trkpt lat="50.9635418" lon="6.9976013">
      <time>2019-12-22T17:30:47Z</time>
    </trkpt>
    <trkpt lat="50.9635590" lon="6.9976150">
      <time>2019-12-22T17:30:48Z</time>
    </trkpt>
    <trkpt lat="50.9636383" lon="6.9976780">
      <time>2019-12-22T17:30:52Z</time>
    </trkpt>
    <trkpt lat="50.9637754" lon="6.9977247">
      <time>2019-12-22T17:30:58Z</time>
    </trkpt>
    <trkpt lat="50.9638345" lon="6.9977281">
      <time>2019-12-22T17:31:01Z</time>
    </trkpt>
    <trkpt lat="50.9640136" lon="6.9977720">
      <time>2019-12-22T17:31:10Z</time>
    </trkpt>
    <trkpt lat="50.9641240" lon="6.9978333">
      <time>2019-12-22T17:31:16Z</time>
    </trkpt>
    <trkpt lat="50.9642379" lon="6.9979075">
      <time>2019-12-22T17:31:22Z</time>
    </trkpt>
    <trkpt lat="50.9643025" lon="6.9979516">
      <time>2019-12-22T17:31:26Z</time>
    </trkpt>
    <trkpt lat="50.9644597" lon="6.9980677">
      <time>2019-12-22T17:31:35Z</time>
    </trkpt>
    <trkpt lat="50.9644938" lon="6.9980915">
      <time>2019-12-22T17:31:37Z</time>
    </trkpt>
    <trkpt lat="50.9646069" lon="6.9981701">
      <time>2019-12-22T17:31:44Z</time>
    </trkpt>
    <trkpt lat="50.9646541" lon="6.9982074">
      <time>2019-12-22T17:31:47Z</time>
    </trkpt>
    <trkpt lat="50.9647363" lon="6.9982553">
      <time>2019-12-22T17:31:52Z</time>
    </trkpt>
    <trkpt lat="50.9648144" lon="6.9983213">
      <time>2019-12-22T17:31:57Z</time>
    </trkpt>
    <trkpt lat="50.9648907" lon="6.9983644">
      <time>2019-12-22T17:32:02Z</time>
    </trkpt>
    <trkpt lat="50.9649990" lon="6.9984260">
      <time>2019-12-22T17:32:09Z</time>
    </trkpt>
    <trkpt lat="50.9651207" lon="6.9984862">
      <time>2019-12-22T17:32:16Z</time>
    </trkpt>
    <trkpt lat="50.9652173" lon="6.9985571">
      <time>2019-12-22T17:32:22Z</time>
    </trkpt>
    <trkpt lat="50.9652762" lon="6.9985877">
      <time>2019-12-22T17:32:25Z</time>
    </trkpt>
    <trkpt lat="50.9653858" lon="6.9986695">
      <time>2019-12-22T17:32:33Z</time>
    </trkpt>
    <trkpt lat="50.9655379" lon="6.9987727">
      <time>2019-12-22T17:32:42Z</time>
    </trkpt>
    <trkpt lat="50.9656971" lon="6.9988799">
      <time>2019-12-22T17:32:51Z</time>
    </trkpt>
    <trkpt lat="50.9658633" lon="6.9989798">
      <time>2019-12-22T17:33:00Z</time>
    </trkpt>
    <trkpt lat="50.9659373" lon="6.9990251">
      <time>2019-12-22T17:33:04Z</time>
    </trkpt>
    <trkpt lat="50.9660083" lon="6.9990850">
      <time>2019-12-22T17:33:08Z</time>
    </trkpt>
    <trkpt lat="50.9661223" lon="6.9992531">
      <time>2019-12-22T17:33:16Z</time>
    </trkpt>
    <trkpt lat="50.9661404" lon="6.9992720">
      <time>2019-12-22T17:33:17Z</time>
    </trkpt>
    <trkpt lat="50.9662324" lon="6.9993478">
      <time>2019-12-22T17:33:22Z</time>
    </trkpt>
    <trkpt lat="50.9663052" lon="6.9993944">
      <time>2019-12-22T17:33:26Z</time>
    </trkpt>
    <trkpt lat="50.9663765" lon="6.9994174">
      <time>2019-12-22T17:33:30Z</time>
    </trkpt>
    <trkpt lat="50.9665025" lon="6.9994354">
      <time>2019-12-22T17:33:37Z</time>
    </trkpt>
    <trkpt lat="50.9665433" lon="6.9994372">
      <time>2019-12-22T17:33:39Z</time>
    </trkpt>
    <trkpt lat="50.9666462" lon="6.9994325">
      <time>2019-12-22T17:33:46Z</time>
    </trkpt>
    <trkpt lat="50.9666459" lon="6.9994153">
      <time>2019-12-22T17:33:47Z</time>
    </trkpt>
    <trkpt lat="50.9665932" lon="6.9993717">
      <time>2019-12-22T17:33:51Z</time>
    </trkpt>
    <trkpt lat="50.9664175" lon="6.9992655">
      <time>2019-12-22T17:34:02Z</time>
    </trkpt>
    <trkpt lat="50.9663351" lon="6.9992262">
      <time>2019-12-22T17:34:07Z</time>
    </trkpt>
    <trkpt lat="50.9662878" lon="6.9992001">
      <time>2019-12-22T17:34:10Z</time>
    </trkpt>
    <trkpt lat="50.9662508" lon="6.9991798">
      <time>2019-12-22T17:34:12Z</time>
    </trkpt>
    <trkpt lat="50.9661176" lon="6.9990966">
      <time>2019-12-22T17:34:20Z</time>
    </trkpt>
    <trkpt lat="50.9659907" lon="6.9990196">
      <time>2019-12-22T17:34:28Z</time>
    </trkpt>
    <trkpt lat="50.9658427" lon="6.9989546">
      <time>2019-12-22T17:34:37Z</time>
    </trkpt>
    <trkpt lat="50.9657410" lon="6.9988954">
      <time>2019-12-22T17:34:43Z</time>
    </trkpt>
    <trkpt lat="50.9656909" lon="6.9988527">
      <time>2019-12-22T17:34:46Z</time>
    </trkpt>
    <trkpt lat="50.9655112" lon="6.9987335">
      <time>2019-12-22T17:34:57Z</time>
    </trkpt>
    <trkpt lat="50.9653763" lon="6.9986469">
      <time>2019-12-22T17:35:05Z</time>
    </trkpt>
    <trkpt lat="50.9652598" lon="6.9985766">
      <time>2019-12-22T17:35:12Z</time>
    </trkpt>
    <trkpt lat="50.9652439" lon="6.9985651">
      <time>2019-12-22T17:35:13Z</time>
    </trkpt>
    <trkpt lat="50.9650750" lon="6.9984676">
      <time>2019-12-22T17:35:23Z</time>
    </trkpt>
    <trkpt lat="50.9649888" lon="6.9984104">
      <time>2019-12-22T17:35:28Z</time>
    </trkpt>
    <trkpt lat="50.9649479" lon="6.9983874">
      <time>2019-12-22T17:35:30Z</time>
    </trkpt>
    <trkpt lat="50.9647930" lon="6.9982831">
      <time>2019-12-22T17:35:39Z</time>
    </trkpt>
    <trkpt lat="50.9646413" lon="6.9981955">
      <time>2019-12-22T17:35:48Z</time>
    </trkpt>
    <trkpt lat="50.9645486" lon="6.9981290">
      <time>2019-12-22T17:35:54Z</time>
    </trkpt>
    <trkpt lat="50.9644968" lon="6.9980944">
      <time>2019-12-22T17:35:57Z</time>
    </trkpt>
    <trkpt lat="50.9643445" lon="6.9979758">
      <time>2019-12-22T17:36:07Z</time>
    </trkpt>
    <trkpt lat="50.9641590" lon="6.9978709">
      <time>2019-12-22T17:36:18Z</time>
    </trkpt>
    <trkpt lat="50.9641227" lon="6.9978585">
      <time>2019-12-22T17:36:20Z</time>
    </trkpt>
    <trkpt lat="50.9639932" lon="6.9977776">
      <time>2019-12-22T17:36:28Z</time>
    </trkpt>
    <trkpt lat="50.9639262" lon="6.9977085">
      <time>2019-12-22T17:36:33Z</time>
    </trkpt>
    <trkpt lat="50.9638213" lon="6.9976842">
      <time>2019-12-22T17:36:39Z</time>
    </trkpt>
    <trkpt lat="50.9638052" lon="6.9976766">
      <time>2019-12-22T17:36:40Z</time>
    </trkpt>
    <trkpt lat="50.9636638" lon="6.9975862">
      <time>2019-12-22T17:36:49Z</time>
    </trkpt>
    <trkpt lat="50.9635344" lon="6.9975354">
      <time>2019-12-22T17:36:56Z</time>
    </trkpt>
    <trkpt lat="50.9634479" lon="6.9975028">
      <time>2019-12-22T17:37:00Z</time>
    </trkpt>
    <trkpt lat="50.9633572" lon="6.9974376">
      <time>2019-12-22T17:37:04Z</time>
    </trkpt>
    <trkpt lat="50.9632011" lon="6.9973595">
      <time>2019-12-22T17:37:11Z</time>
    </trkpt>
    <trkpt lat="50.9631672" lon="6.9973377">
      <time>2019-12-22T17:37:13Z</time>
    </trkpt>
    <trkpt lat="50.9630359" lon="6.9972705">
      <time>2019-12-22T17:37:20Z</time>
    </trkpt>
    <trkpt lat="50.9629998" lon="6.9972460">
      <time>2019-12-22T17:37:22Z</time>
    </trkpt>
    <trkpt lat="50.9629145" lon="6.9971880">
      <time>2019-12-22T17:37:27Z</time>
    </trkpt>
    <trkpt lat="50.9628831" lon="6.9971619">
      <time>2019-12-22T17:37:29Z</time>
    </trkpt>
    <trkpt lat="50.9628453" lon="6.9971139">
      <time>2019-12-22T17:37:32Z</time>
    </trkpt>
    <trkpt lat="50.9627904" lon="6.9970482">
      <time>2019-12-22T17:37:37Z</time>
    </trkpt>
    <trkpt lat="50.9626521" lon="6.9970434">
      <time>2019-12-22T17:37:45Z</time>
    </trkpt>
    <trkpt lat="50.9625423" lon="6.9969815">
      <time>2019-12-22T17:37:53Z</time>
    </trkpt>
    <trkpt lat="50.9624923" lon="6.9969115">
      <time>2019-12-22T17:37:57Z</time>
    </trkpt>
    <trkpt lat="50.9623931" lon="6.9968005">
      <time>2019-12-22T17:38:04Z</time>
    </trkpt>
    <trkpt lat="50.9622509" lon="6.9966751">
      <time>2019-12-22T17:38:13Z</time>
    </trkpt>
    <trkpt lat="50.9621837" lon="6.9966234">
      <time>2019-12-22T17:38:17Z</time>
    </trkpt>
    <trkpt lat="50.9620954" lon="6.9965602">
      <time>2019-12-22T17:38:22Z</time>
    </trkpt>
    <trkpt lat="50.9619709" lon="6.9964602">
      <time>2019-12-22T17:38:30Z</time>
    </trkpt>
    <trkpt lat="50.9619444" lon="6.9964292">
      <time>2019-12-22T17:38:32Z</time>
    </trkpt>
    <trkpt lat="50.9618393" lon="6.9963330">
      <time>2019-12-22T17:38:39Z</time>
    </trkpt>
    <trkpt lat="50.9617458" lon="6.9962454">
      <time>2019-12-22T17:38:45Z</time>
    </trkpt>
    <trkpt lat="50.9616201" lon="6.9961430">
      <time>2019-12-22T17:38:53Z</time>
    </trkpt>
    <trkpt lat="50.9614507" lon="6.9960351">
      <time>2019-12-22T17:39:03Z</time>
    </trkpt>
    <trkpt lat="50.9614301" lon="6.9960263">
      <time>2019-12-22T17:39:04Z</time>
    </trkpt>
    <trkpt lat="50.9613138" lon="6.9958697">
      <time>2019-12-22T17:39:14Z</time>
    </trkpt>
    <trkpt lat="50.9611719" lon="6.9957696">
      <time>2019-12-22T17:39:23Z</time>
    </trkpt>
    <trkpt lat="50.9610074" lon="6.9956432">
      <time>2019-12-22T17:39:33Z</time>
    </trkpt>
    <trkpt lat="50.9609064" lon="6.9955261">
      <time>2019-12-22T17:39:40Z</time>
    </trkpt>
    <trkpt lat="50.9608526" lon="6.9955058">
      <time>2019-12-22T17:39:43Z</time>
    </trkpt>
    <trkpt lat="50.9607052" lon="6.9953596">
      <time>2019-12-22T17:39:53Z</time>
    </trkpt>
    <trkpt lat="50.9605499" lon="6.9952434">
      <time>2019-12-22T17:40:02Z</time>
    </trkpt>
    <trkpt lat="50.9604801" lon="6.9951962">
      <time>2019-12-22T17:40:06Z</time>
    </trkpt>
    <trkpt lat="50.9604009" lon="6.9950718">
      <time>2019-12-22T17:40:12Z</time>
    </trkpt>
    <trkpt lat="50.9603641" lon="6.9950396">
      <time>2019-12-22T17:40:14Z</time>
    </trkpt>
    <trkpt lat="50.9602196" lon="6.9948711">
      <time>2019-12-22T17:40:23Z</time>
    </trkpt>
    <trkpt lat="50.9601282" lon="6.9947461">
      <time>2019-12-22T17:40:29Z</time>
    </trkpt>
    <trkpt lat="50.9600554" lon="6.9946477">
      <time>2019-12-22T17:40:34Z</time>
    </trkpt>
    <trkpt lat="50.9599061" lon="6.9944435">
      <time>2019-12-22T17:40:44Z</time>
    </trkpt>
    <trkpt lat="50.9598079" lon="6.9943022">
      <time>2019-12-22T17:40:51Z</time>
    </trkpt>
    <trkpt lat="50.9597441" lon="6.9942313">
      <time>2019-12-22T17:40:55Z</time>
    </trkpt>
    <trkpt lat="50.9595802" lon="6.9940856">
      <time>2019-12-22T17:41:04Z</time>
    </trkpt>
    <trkpt lat="50.9595642" lon="6.9940696">
      <time>2019-12-22T17:41:05Z</time>
    </trkpt>
    <trkpt lat="50.9594719" lon="6.9939732">
      <time>2019-12-22T17:41:11Z</time>
    </trkpt>
    <trkpt lat="50.9594052" lon="6.9939117">
      <time>2019-12-22T17:41:15Z</time>
    </trkpt>
    <trkpt lat="50.9592527" lon="6.9937606">
      <time>2019-12-22T17:41:24Z</time>
    </trkpt>
    <trkpt lat="50.9592252" lon="6.9937218">
      <time>2019-12-22T17:41:26Z</time>
    </trkpt>
    <trkpt lat="50.9591310" lon="6.9937244">
      <time>2019-12-22T17:41:32Z</time>
    </trkpt>
    <trkpt lat="50.9590745" lon="6.9938982">
      <time>2019-12-22T17:41:40Z</time>
    </trkpt>
    <trkpt lat="50.9590271" lon="6.9940166">
      <time>2019-12-22T17:41:45Z</time>
    </trkpt>
    <trkpt lat="50.9589882" lon="6.9940859">
      <time>2019-12-22T17:41:48Z</time>
    </trkpt>
    <trkpt lat="50.9589402" lon="6.9940964">
      <time>2019-12-22T17:41:51Z</time>
    </trkpt>
    <trkpt lat="50.9589067" lon="6.9940623">
      <time>2019-12-22T17:41:53Z</time>
    </trkpt>
    <trkpt lat="50.9588089" lon="6.9939495">
      <time>2019-12-22T17:41:59Z</time>
    </trkpt>
    <trkpt lat="50.9587597" lon="6.9938918">
      <time>2019-12-22T17:42:02Z</time>
    </trkpt>
    <trkpt lat="50.9586025" lon="6.9937028">
      <time>2019-12-22T17:42:12Z</time>
    </trkpt>
    <trkpt lat="50.9585832" lon="6.9936862">
      <time>2019-12-22T17:42:13Z</time>
    </trkpt>
    <trkpt lat="50.9584810" lon="6.9935611">
      <time>2019-12-22T17:42:19Z</time>
    </trkpt>
    <trkpt lat="50.9584535" lon="6.9934856">
      <time>2019-12-22T17:42:22Z</time>
    </trkpt>
    <trkpt lat="50.9583127" lon="6.9933123">
      <time>2019-12-22T17:42:31Z</time>
    </trkpt>
    <trkpt lat="50.9582749" lon="6.9931604">
      <time>2019-12-22T17:42:36Z</time>
    </trkpt>
    <trkpt lat="50.9582760" lon="6.9930579">
      <time>2019-12-22T17:42:39Z</time>
    </trkpt>
    <trkpt lat="50.9583022" lon="6.9929295">
      <time>2019-12-22T17:42:43Z</time>
    </trkpt>
    <trkpt lat="50.9583483" lon="6.9928453">
      <time>2019-12-22T17:42:46Z</time>
    </trkpt>
    <trkpt lat="50.9584194" lon="6.9927068">
      <time>2019-12-22T17:42:51Z</time>
    </trkpt>
    <trkpt lat="50.9584783" lon="6.9926062">
      <time>2019-12-22T17:42:55Z</time>
    </trkpt>
    <trkpt lat="50.9585771" lon="6.9923971">
      <time>2019-12-22T17:43:03Z</time>
    </trkpt>
    <trkpt lat="50.9585995" lon="6.9923511">
      <time>2019-12-22T17:43:05Z</time>
    </trkpt>
    <trkpt lat="50.9586911" lon="6.9921613">
      <time>2019-12-22T17:43:14Z</time>
    </trkpt>
    <trkpt lat="50.9587749" lon="6.9920023">
      <time>2019-12-22T17:43:21Z</time>
    </trkpt>
    <trkpt lat="50.9588187" lon="6.9919110">
      <time>2019-12-22T17:43:25Z</time>
    </trkpt>
    <trkpt lat="50.9588993" lon="6.9917450">
      <time>2019-12-22T17:43:32Z</time>
    </trkpt>
    <trkpt lat="50.9589867" lon="6.9915754">
      <time>2019-12-22T17:43:40Z</time>
    </trkpt>
    <trkpt lat="50.9590043" lon="6.9915303">
      <time>2019-12-22T17:43:42Z</time>
    </trkpt>
    <trkpt lat="50.9590063" lon="6.9914671">
      <time>2019-12-22T17:43:45Z</time>
    </trkpt>
    <trkpt lat="50.9589900" lon="6.9914395">
      <time>2019-12-22T17:43:47Z</time>
    </trkpt>
    <trkpt lat="50.9589408" lon="6.9914427">
      <time>2019-12-22T17:43:50Z</time>
    </trkpt>
    <trkpt lat="50.9589112" lon="6.9914484">
      <time>2019-12-22T17:43:52Z</time>
    </trkpt>
    <trkpt lat="50.9588911" lon="6.9914535">
      <time>2019-12-22T17:43:53Z</time>
    </trkpt>
    <trkpt lat="50.9587626" lon="6.9914449">
      <time>2019-12-22T17:44:00Z</time>
    </trkpt>
    <trkpt lat="50.9586666" lon="6.9912531">
      <time>2019-12-22T17:44:08Z</time>
    </trkpt>
    <trkpt lat="50.9585310" lon="6.9910301">
      <time>2019-12-22T17:44:20Z</time>
    </trkpt>
    <trkpt lat="50.9584298" lon="6.9908570">
      <time>2019-12-22T17:44:29Z</time>
    </trkpt>
    <trkpt lat="50.9584065" lon="6.9908120">
      <time>2019-12-22T17:44:31Z</time>
    </trkpt>
    <trkpt lat="50.9582977" lon="6.9905905">
      <time>2019-12-22T17:44:41Z</time>
    </trkpt>
    <trkpt lat="50.9582116" lon="6.9903977">
      <time>2019-12-22T17:44:50Z</time>
    </trkpt>
    <trkpt lat="50.9581080" lon="6.9902238">
      <time>2019-12-22T17:44:58Z</time>
    </trkpt>
    <trkpt lat="50.9580012" lon="6.9900741">
      <time>2019-12-22T17:45:06Z</time>
    </trkpt>
    <trkpt lat="50.9579024" lon="6.9898207">
      <time>2019-12-22T17:45:16Z</time>
    </trkpt>
    <trkpt lat="50.9578147" lon="6.9896138">
      <time>2019-12-22T17:45:25Z</time>
    </trkpt>
    <trkpt lat="50.9577055" lon="6.9893723">
      <time>2019-12-22T17:45:36Z</time>
    </trkpt>
    <trkpt lat="50.9576492" lon="6.9892459">
      <time>2019-12-22T17:45:42Z</time>
    </trkpt>
    <trkpt lat="50.9576372" lon="6.9892263">
      <time>2019-12-22T17:45:43Z</time>
    </trkpt>
    <trkpt lat="50.9576015" lon="6.9891670">
      <time>2019-12-22T17:45:46Z</time>
    </trkpt>
    <trkpt lat="50.9574976" lon="6.9889014">
      <time>2019-12-22T17:45:56Z</time>
    </trkpt>
    <trkpt lat="50.9574749" lon="6.9888528">
      <time>2019-12-22T17:45:58Z</time>
    </trkpt>
    <trkpt lat="50.9574249" lon="6.9887214">
      <time>2019-12-22T17:46:05Z</time>
    </trkpt>
    <trkpt lat="50.9573853" lon="6.9886058">
      <time>2019-12-22T17:46:10Z</time>
    </trkpt>
    <trkpt lat="50.9573499" lon="6.9884831">
      <time>2019-12-22T17:46:15Z</time>
    </trkpt>
    <trkpt lat="50.9573157" lon="6.9884167">
      <time>2019-12-22T17:46:18Z</time>
    </trkpt>
    <trkpt lat="50.9572366" lon="6.9882368">
      <time>2019-12-22T17:46:25Z</time>
    </trkpt>
    <trkpt lat="50.9571550" lon="6.9880290">
      <time>2019-12-22T17:46:34Z</time>
    </trkpt>
    <trkpt lat="50.9570853" lon="6.9878544">
      <time>2019-12-22T17:46:42Z</time>
    </trkpt>
    <trkpt lat="50.9570764" lon="6.9878334">
      <time>2019-12-22T17:46:43Z</time>
    </trkpt>
    <trkpt lat="50.9569805" lon="6.9876258">
      <time>2019-12-22T17:46:53Z</time>
    </trkpt>
    <trkpt lat="50.9568776" lon="6.9874131">
      <time>2019-12-22T17:47:03Z</time>
    </trkpt>
    <trkpt lat="50.9568182" lon="6.9872016">
      <time>2019-12-22T17:47:11Z</time>
    </trkpt>
    <trkpt lat="50.9567124" lon="6.9869474">
      <time>2019-12-22T17:47:21Z</time>
    </trkpt>
    <trkpt lat="50.9566567" lon="6.9868254">
      <time>2019-12-22T17:47:26Z</time>
    </trkpt>
    <trkpt lat="50.9565942" lon="6.9866927">
      <time>2019-12-22T17:47:32Z</time>
    </trkpt>
    <trkpt lat="50.9564948" lon="6.9864905">
      <time>2019-12-22T17:47:41Z</time>
    </trkpt>
    <trkpt lat="50.9564115" lon="6.9862695">
      <time>2019-12-22T17:47:50Z</time>
    </trkpt>
    <trkpt lat="50.9563022" lon="6.9860061">
      <time>2019-12-22T17:48:00Z</time>
    </trkpt>
    <trkpt lat="50.9561797" lon="6.9857783">
      <time>2019-12-22T17:48:09Z</time>
    </trkpt>
    <trkpt lat="50.9561410" lon="6.9856744">
      <time>2019-12-22T17:48:13Z</time>
    </trkpt>
    <trkpt lat="50.9560457" lon="6.9854578">
      <time>2019-12-22T17:48:22Z</time>
    </trkpt>
    <trkpt lat="50.9560083" lon="6.9853625">
      <time>2019-12-22T17:48:26Z</time>
    </trkpt>
    <trkpt lat="50.9559077" lon="6.9851285">
      <time>2019-12-22T17:48:36Z</time>
    </trkpt>
    <trkpt lat="50.9558952" lon="6.9851071">
      <time>2019-12-22T17:48:37Z</time>
    </trkpt>
    <trkpt lat="50.9558323" lon="6.9849956">
      <time>2019-12-22T17:48:42Z</time>
    </trkpt>
    <trkpt lat="50.9557952" lon="6.9848957">
      <time>2019-12-22T17:48:46Z</time>
    </trkpt>
    <trkpt lat="50.9557302" lon="6.9847249">
      <time>2019-12-22T17:48:54Z</time>
    </trkpt>
    <trkpt lat="50.9556001" lon="6.9845084">
      <time>2019-12-22T17:49:03Z</time>
    </trkpt>
    <trkpt lat="50.9555783" lon="6.9844596">
      <time>2019-12-22T17:49:05Z</time>
    </trkpt>
    <trkpt lat="50.9554978" lon="6.9842652">
      <time>2019-12-22T17:49:13Z</time>
    </trkpt>
    <trkpt lat="50.9554098" lon="6.9840645">
      <time>2019-12-22T17:49:21Z</time>
    </trkpt>
    <trkpt lat="50.9553853" lon="6.9840194">
      <time>2019-12-22T17:49:23Z</time>
    </trkpt>
    <trkpt lat="50.9553280" lon="6.9837921">
      <time>2019-12-22T17:49:32Z</time>
    </trkpt>
    <trkpt lat="50.9552370" lon="6.9836100">
      <time>2019-12-22T17:49:41Z</time>
    </trkpt>
    <trkpt lat="50.9552156" lon="6.9835562">
      <time>2019-12-22T17:49:43Z</time>
    </trkpt>
    <trkpt lat="50.9551335" lon="6.9833725">
      <time>2019-12-22T17:49:51Z</time>
    </trkpt>
    <trkpt lat="50.9550685" lon="6.9831608">
      <time>2019-12-22T17:50:00Z</time>
    </trkpt>
    <trkpt lat="50.9549902" lon="6.9829470">
      <time>2019-12-22T17:50:09Z</time>
    </trkpt>
    <trkpt lat="50.9549537" lon="6.9828772">
      <time>2019-12-22T17:50:12Z</time>
    </trkpt>
    <trkpt lat="50.9548536" lon="6.9826301">
      <time>2019-12-22T17:50:22Z</time>
    </trkpt>
    <trkpt lat="50.9548291" lon="6.9825802">
      <time>2019-12-22T17:50:24Z</time>
    </trkpt>
    <trkpt lat="50.9547802" lon="6.9824873">
      <time>2019-12-22T17:50:28Z</time>
    </trkpt>
    <trkpt lat="50.9547224" lon="6.9823595">
      <time>2019-12-22T17:50:33Z</time>
    </trkpt>
    <trkpt lat="50.9546514" lon="6.9822021">
      <time>2019-12-22T17:50:39Z</time>
    </trkpt>
    <trkpt lat="50.9545893" lon="6.9820956">
      <time>2019-12-22T17:50:43Z</time>
    </trkpt>
    <trkpt lat="50.9545521" lon="6.9820333">
      <time>2019-12-22T17:50:45Z</time>
    </trkpt>
    <trkpt lat="50.9544555" lon="6.9818556">
      <time>2019-12-22T17:50:52Z</time>
    </trkpt>
    <trkpt lat="50.9544371" lon="6.9818050">
      <time>2019-12-22T17:50:54Z</time>
    </trkpt>
    <trkpt lat="50.9543045" lon="6.9816057">
      <time>2019-12-22T17:51:04Z</time>
    </trkpt>
    <trkpt lat="50.9541988" lon="6.9814426">
      <time>2019-12-22T17:51:12Z</time>
    </trkpt>
    <trkpt lat="50.9541796" lon="6.9814063">
      <time>2019-12-22T17:51:14Z</time>
    </trkpt>
    <trkpt lat="50.9540727" lon="6.9812585">
      <time>2019-12-22T17:51:22Z</time>
    </trkpt>
    <trkpt lat="50.9539101" lon="6.9810770">
      <time>2019-12-22T17:51:32Z</time>
    </trkpt>
    <trkpt lat="50.9538884" lon="6.9810567">
      <time>2019-12-22T17:51:33Z</time>
    </trkpt>
    <trkpt lat="50.9537574" lon="6.9808596">
      <time>2019-12-22T17:51:43Z</time>
    </trkpt>
    <trkpt lat="50.9536373" lon="6.9806939">
      <time>2019-12-22T17:51:52Z</time>
    </trkpt>
    <trkpt lat="50.9534807" lon="6.9805356">
      <time>2019-12-22T17:52:02Z</time>
    </trkpt>
    <trkpt lat="50.9533511" lon="6.9804159">
      <time>2019-12-22T17:52:10Z</time>
    </trkpt>
    <trkpt lat="50.9532802" lon="6.9803330">
      <time>2019-12-22T17:52:16Z</time>
    </trkpt>
    <trkpt lat="50.9532439" lon="6.9802871">
      <time>2019-12-22T17:52:19Z</time>
    </trkpt>
    <trkpt lat="50.9531729" lon="6.9802066">
      <time>2019-12-22T17:52:24Z</time>
    </trkpt>
    <trkpt lat="50.9530803" lon="6.9800949">
      <time>2019-12-22T17:52:31Z</time>
    </trkpt>
    <trkpt lat="50.9529793" lon="6.9799709">
      <time>2019-12-22T17:52:38Z</time>
    </trkpt>
    <trkpt lat="50.9529277" lon="6.9799093">
      <time>2019-12-22T17:52:42Z</time>
    </trkpt>
    <trkpt lat="50.9528607" lon="6.9798385">
      <time>2019-12-22T17:52:47Z</time>
    </trkpt>
    <trkpt lat="50.9528159" lon="6.9797898">
      <time>2019-12-22T17:52:50Z</time>
    </trkpt>
    <trkpt lat="50.9527737" lon="6.9797554">
      <time>2019-12-22T17:52:52Z</time>
    </trkpt>
    <trkpt lat="50.9526648" lon="6.9796881">
      <time>2019-12-22T17:52:57Z</time>
    </trkpt>
    <trkpt lat="50.9525836" lon="6.9796481">
      <time>2019-12-22T17:53:01Z</time>
    </trkpt>
    <trkpt lat="50.9524297" lon="6.9795187">
      <time>2019-12-22T17:53:10Z</time>
    </trkpt>
    <trkpt lat="50.9523789" lon="6.9793768">
      <time>2019-12-22T17:53:16Z</time>
    </trkpt>
    <trkpt lat="50.9523073" lon="6.9792947">
      <time>2019-12-22T17:53:22Z</time>
    </trkpt>
    <trkpt lat="50.9522615" lon="6.9792825">
      <time>2019-12-22T17:53:24Z</time>
    </trkpt>
    <trkpt lat="50.9522170" lon="6.9792299">
      <time>2019-12-22T17:53:27Z</time>
    </trkpt>
    <trkpt lat="50.9521124" lon="6.9791135">
      <time>2019-12-22T17:53:34Z</time>
    </trkpt>
    <trkpt lat="50.9520199" lon="6.9789856">
      <time>2019-12-22T17:53:40Z</time>
    </trkpt>
    <trkpt lat="50.9519532" lon="6.9788239">
      <time>2019-12-22T17:53:45Z</time>
    </trkpt>
    <trkpt lat="50.9519208" lon="6.9787899">
      <time>2019-12-22T17:53:47Z</time>
    </trkpt>
    <trkpt lat="50.9519052" lon="6.9787755">
      <time>2019-12-22T17:53:48Z</time>
    </trkpt>
    <trkpt lat="50.9518315" lon="6.9787103">
      <time>2019-12-22T17:53:52Z</time>
    </trkpt>
    <trkpt lat="50.9517665" lon="6.9785856">
      <time>2019-12-22T17:53:57Z</time>
    </trkpt>
    <trkpt lat="50.9516794" lon="6.9784703">
      <time>2019-12-22T17:54:03Z</time>
    </trkpt>
    <trkpt lat="50.9515811" lon="6.9784096">
      <time>2019-12-22T17:54:10Z</time>
    </trkpt>
    <trkpt lat="50.9514656" lon="6.9783585">
      <time>2019-12-22T17:54:18Z</time>
    </trkpt>
    <trkpt lat="50.9513547" lon="6.9783985">
      <time>2019-12-22T17:54:24Z</time>
    </trkpt>
    <trkpt lat="50.9512287" lon="6.9784025">
      <time>2019-12-22T17:54:32Z</time>
    </trkpt>
    <trkpt lat="50.9511314" lon="6.9782541">
      <time>2019-12-22T17:54:39Z</time>
    </trkpt>
    <trkpt lat="50.9510995" lon="6.9782094">
      <time>2019-12-22T17:54:41Z</time>
    </trkpt>
    <trkpt lat="50.9510508" lon="6.9781511">
      <time>2019-12-22T17:54:44Z</time>
    </trkpt>
    <trkpt lat="50.9509653" lon="6.9780166">
      <time>2019-12-22T17:54:50Z</time>
    </trkpt>
    <trkpt lat="50.9508588" lon="6.9778445">
      <time>2019-12-22T17:54:58Z</time>
    </trkpt>
    <trkpt lat="50.9507270" lon="6.9776450">
      <time>2019-12-22T17:55:06Z</time>
    </trkpt>
    <trkpt lat="50.9507164" lon="6.9776217">
      <time>2019-12-22T17:55:07Z</time>
    </trkpt>
    <trkpt lat="50.9506015" lon="6.9774120">
      <time>2019-12-22T17:55:16Z</time>
    </trkpt>
    <trkpt lat="50.9505505" lon="6.9772928">
      <time>2019-12-22T17:55:20Z</time>
    </trkpt>
    <trkpt lat="50.9505144" lon="6.9772200">
      <time>2019-12-22T17:55:23Z</time>
    </trkpt>
    <trkpt lat="50.9503898" lon="6.9769875">
      <time>2019-12-22T17:55:32Z</time>
    </trkpt>
    <trkpt lat="50.9503791" lon="6.9769614">
      <time>2019-12-22T17:55:33Z</time>
    </trkpt>
    <trkpt lat="50.9502713" lon="6.9767131">
      <time>2019-12-22T17:55:42Z</time>
    </trkpt>
    <trkpt lat="50.9502607" lon="6.9766862">
      <time>2019-12-22T17:55:43Z</time>
    </trkpt>
    <trkpt lat="50.9502337" lon="6.9765375">
      <time>2019-12-22T17:55:49Z</time>
    </trkpt>
    <trkpt lat="50.9501926" lon="6.9765411">
      <time>2019-12-22T17:55:52Z</time>
    </trkpt>
    <trkpt lat="50.9501632" lon="6.9765440">
      <time>2019-12-22T17:55:54Z</time>
    </trkpt>
    <trkpt lat="50.9500856" lon="6.9765695">
      <time>2019-12-22T17:55:58Z</time>
    </trkpt>
    <trkpt lat="50.9499966" lon="6.9766157">
      <time>2019-12-22T17:56:04Z</time>
    </trkpt>
    <trkpt lat="50.9498798" lon="6.9766011">
      <time>2019-12-22T17:56:12Z</time>
    </trkpt>
    <trkpt lat="50.9497092" lon="6.9765192">
      <time>2019-12-22T17:56:23Z</time>
    </trkpt>
    <trkpt lat="50.9495807" lon="6.9764275">
      <time>2019-12-22T17:56:31Z</time>
    </trkpt>
    <trkpt lat="50.9495106" lon="6.9763784">
      <time>2019-12-22T17:56:35Z</time>
    </trkpt>
    <trkpt lat="50.9494310" lon="6.9762952">
      <time>2019-12-22T17:56:40Z</time>
    </trkpt>
    <trkpt lat="50.9493197" lon="6.9760864">
      <time>2019-12-22T17:56:50Z</time>
    </trkpt>
    <trkpt lat="50.9492236" lon="6.9758538">
      <time>2019-12-22T17:56:59Z</time>
    </trkpt>
    <trkpt lat="50.9491590" lon="6.9756452">
      <time>2019-12-22T17:57:08Z</time>
    </trkpt>
    <trkpt lat="50.9491120" lon="6.9754151">
      <time>2019-12-22T17:57:17Z</time>
    </trkpt>
    <trkpt lat="50.9491041" lon="6.9753312">
      <time>2019-12-22T17:57:20Z</time>
    </trkpt>
    <trkpt lat="50.9490832" lon="6.9752239">
      <time>2019-12-22T17:57:24Z</time>
    </trkpt>
    <trkpt lat="50.9490666" lon="6.9750690">
      <time>2019-12-22T17:57:29Z</time>
    </trkpt>
    <trkpt lat="50.9490587" lon="6.9749721">
      <time>2019-12-22T17:57:32Z</time>
    </trkpt>
    <trkpt lat="50.9490898" lon="6.9747123">
      <time>2019-12-22T17:57:40Z</time>
    </trkpt>
    <trkpt lat="50.9490833" lon="6.9744742">
      <time>2019-12-22T17:57:48Z</time>
    </trkpt>
    <trkpt lat="50.9490507" lon="6.9742730">
      <time>2019-12-22T17:57:56Z</time>
    </trkpt>
    <trkpt lat="50.9490122" lon="6.9740725">
      <time>2019-12-22T17:58:03Z</time>
    </trkpt>
    <trkpt lat="50.9489513" lon="6.9738845">
      <time>2019-12-22T17:58:11Z</time>
    </trkpt>
    <trkpt lat="50.9489298" lon="6.9738340">
      <time>2019-12-22T17:58:13Z</time>
    </trkpt>
    <trkpt lat="50.9488391" lon="6.9736455">
      <time>2019-12-22T17:58:21Z</time>
    </trkpt>
    <trkpt lat="50.9487055" lon="6.9734324">
      <time>2019-12-22T17:58:31Z</time>
    </trkpt>
    <trkpt lat="50.9486971" lon="6.9734155">
      <time>2019-12-22T17:58:32Z</time>
    </trkpt>
    <trkpt lat="50.9485959" lon="6.9733066">
      <time>2019-12-22T17:58:38Z</time>
    </trkpt>
    <trkpt lat="50.9485821" lon="6.9732855">
      <time>2019-12-22T17:58:39Z</time>
    </trkpt>
    <trkpt lat="50.9484962" lon="6.9731000">
      <time>2019-12-22T17:58:47Z</time>
    </trkpt>
    <trkpt lat="50.9485370" lon="6.9728753">
      <time>2019-12-22T17:58:54Z</time>
    </trkpt>
    <trkpt lat="50.9486207" lon="6.9726613">
      <time>2019-12-22T17:59:03Z</time>
    </trkpt>
    <trkpt lat="50.9486398" lon="6.9726070">
      <time>2019-12-22T17:59:05Z</time>
    </trkpt>
    <trkpt lat="50.9487249" lon="6.9724142">
      <time>2019-12-22T17:59:13Z</time>
    </trkpt>
    <trkpt lat="50.9488202" lon="6.9722454">
      <time>2019-12-22T17:59:21Z</time>
    </trkpt>
    <trkpt lat="50.9489251" lon="6.9722982">
      <time>2019-12-22T17:59:26Z</time>
    </trkpt>
    <trkpt lat="50.9490508" lon="6.9725185">
      <time>2019-12-22T17:59:36Z</time>
    </trkpt>
    <trkpt lat="50.9491839" lon="6.9726961">
      <time>2019-12-22T17:59:46Z</time>
    </trkpt>
    <trkpt lat="50.9493176" lon="6.9728388">
      <time>2019-12-22T17:59:55Z</time>
    </trkpt>
    <trkpt lat="50.9494013" lon="6.9729508">
      <time>2019-12-22T18:00:01Z</time>
    </trkpt>
    <trkpt lat="50.9494402" lon="6.9729989">
      <time>2019-12-22T18:00:04Z</time>
    </trkpt>
    <trkpt lat="50.9494910" lon="6.9730603">
      <time>2019-12-22T18:00:07Z</time>
    </trkpt>
    <trkpt lat="50.9495670" lon="6.9731582">
      <time>2019-12-22T18:00:12Z</time>
    </trkpt>
    <trkpt lat="50.9496538" lon="6.9732836">
      <time>2019-12-22T18:00:19Z</time>
    </trkpt>
    <trkpt lat="50.9498018" lon="6.9734374">
      <time>2019-12-22T18:00:29Z</time>
    </trkpt>
    <trkpt lat="50.9498237" lon="6.9734705">
      <time>2019-12-22T18:00:31Z</time>
    </trkpt>
    <trkpt lat="50.9499793" lon="6.9736562">
      <time>2019-12-22T18:00:41Z</time>
    </trkpt>
    <trkpt lat="50.9500952" lon="6.9737864">
      <time>2019-12-22T18:00:49Z</time>
    </trkpt>
    <trkpt lat="50.9501949" lon="6.9738501">
      <time>2019-12-22T18:00:54Z</time>
    </trkpt>
    <trkpt lat="50.9502310" lon="6.9738858">
      <time>2019-12-22T18:00:56Z</time>
    </trkpt>
    <trkpt lat="50.9503540" lon="6.9740351">
      <time>2019-12-22T18:01:04Z</time>
    </trkpt>
    <trkpt lat="50.9505014" lon="6.9741863">
      <time>2019-12-22T18:01:12Z</time>
    </trkpt>
    <trkpt lat="50.9505304" lon="6.9742152">
      <time>2019-12-22T18:01:14Z</time>
    </trkpt>
    <trkpt lat="50.9505967" lon="6.9743090">
      <time>2019-12-22T18:01:19Z</time>
    </trkpt>
    <trkpt lat="50.9506293" lon="6.9743811">
      <time>2019-12-22T18:01:23Z</time>
    </trkpt>
    <trkpt lat="50.9506937" lon="6.9744415">
      <time>2019-12-22T18:01:27Z</time>
    </trkpt>
    <trkpt lat="50.9507556" lon="6.9745100">
      <time>2019-12-22T18:01:31Z</time>
    </trkpt>
    <trkpt lat="50.9508877" lon="6.9746509">
      <time>2019-12-22T18:01:39Z</time>
    </trkpt>
    <trkpt lat="50.9510132" lon="6.9747842">
      <time>2019-12-22T18:01:47Z</time>
    </trkpt>
    <trkpt lat="50.9511321" lon="6.9749529">
      <time>2019-12-22T18:01:56Z</time>
    </trkpt>
    <trkpt lat="50.9511483" lon="6.9749721">
      <time>2019-12-22T18:01:57Z</time>
    </trkpt>
    <trkpt lat="50.9512398" lon="6.9750819">
      <time>2019-12-22T18:02:04Z</time>
    </trkpt>
    <trkpt lat="50.9513501" lon="6.9751917">
      <time>2019-12-22T18:02:11Z</time>
    </trkpt>
    <trkpt lat="50.9514196" lon="6.9752602">
      <time>2019-12-22T18:02:15Z</time>
    </trkpt>
    <trkpt lat="50.9514914" lon="6.9753477">
      <time>2019-12-22T18:02:20Z</time>
    </trkpt>
    <trkpt lat="50.9516326" lon="6.9755310">
      <time>2019-12-22T18:02:29Z</time>
    </trkpt>
    <trkpt lat="50.9517189" lon="6.9757015">
      <time>2019-12-22T18:02:37Z</time>
    </trkpt>
    <trkpt lat="50.9518651" lon="6.9759113">
      <time>2019-12-22T18:02:47Z</time>
    </trkpt>
    <trkpt lat="50.9518798" lon="6.9759281">
      <time>2019-12-22T18:02:48Z</time>
    </trkpt>
    <trkpt lat="50.9520090" lon="6.9761591">
      <time>2019-12-22T18:02:58Z</time>
    </trkpt>
    <trkpt lat="50.9520200" lon="6.9761777">
      <time>2019-12-22T18:02:59Z</time>
    </trkpt>
    <trkpt lat="50.9521339" lon="6.9763807">
      <time>2019-12-22T18:03:07Z</time>
    </trkpt>
    <trkpt lat="50.9521681" lon="6.9764682">
      <time>2019-12-22T18:03:10Z</time>
    </trkpt>
    <trkpt lat="50.9522346" lon="6.9766137">
      <time>2019-12-22T18:03:16Z</time>
    </trkpt>
    <trkpt lat="50.9522963" lon="6.9766989">
      <time>2019-12-22T18:03:19Z</time>
    </trkpt>
    <trkpt lat="50.9524041" lon="6.9768913">
      <time>2019-12-22T18:03:26Z</time>
    </trkpt>
    <trkpt lat="50.9524525" lon="6.9770130">
      <time>2019-12-22T18:03:31Z</time>
    </trkpt>
    <trkpt lat="50.9524655" lon="6.9770348">
      <time>2019-12-22T18:03:32Z</time>
    </trkpt>
    <trkpt lat="50.9525469" lon="6.9772468">
      <time>2019-12-22T18:03:40Z</time>
    </trkpt>
    <trkpt lat="50.9526109" lon="6.9774115">
      <time>2019-12-22T18:03:47Z</time>
    </trkpt>
    <trkpt lat="50.9526830" lon="6.9775110">
      <time>2019-12-22T18:03:53Z</time>
    </trkpt>
    <trkpt lat="50.9527456" lon="6.9776031">
      <time>2019-12-22T18:03:58Z</time>
    </trkpt>
    <trkpt lat="50.9527569" lon="6.9776436">
      <time>2019-12-22T18:04:00Z</time>
    </trkpt>
    <trkpt lat="50.9527697" lon="6.9776937">
      <time>2019-12-22T18:04:03Z</time>
    </trkpt>
    <trkpt lat="50.9528201" lon="6.9777990">
      <time>2019-12-22T18:04:08Z</time>
    </trkpt>
    <trkpt lat="50.9528532" lon="6.9778417">
      <time>2019-12-22T18:04:11Z</time>
    </trkpt>
    <trkpt lat="50.9528722" lon="6.9778963">
      <time>2019-12-22T18:04:14Z</time>
    </trkpt>
    <trkpt lat="50.9529191" lon="6.9780480">
      <time>2019-12-22T18:04:20Z</time>
    </trkpt>
    <trkpt lat="50.9529348" lon="6.9780817">
      <time>2019-12-22T18:04:22Z</time>
    </trkpt>
    <trkpt lat="50.9529572" lon="6.9781133">
      <time>2019-12-22T18:04:24Z</time>
    </trkpt>
    <trkpt lat="50.9530115" lon="6.9782186">
      <time>2019-12-22T18:04:29Z</time>
    </trkpt>
    <trkpt lat="50.9530782" lon="6.9783939">
      <time>2019-12-22T18:04:35Z</time>
    </trkpt>
    <trkpt lat="50.9530903" lon="6.9784248">
      <time>2019-12-22T18:04:36Z</time>
    </trkpt>
    <trkpt lat="50.9531535" lon="6.9786306">
      <time>2019-12-22T18:04:42Z</time>
    </trkpt>
    <trkpt lat="50.9531379" lon="6.9787617">
      <time>2019-12-22T18:04:47Z</time>
    </trkpt>
    <trkpt lat="50.9531130" lon="6.9789196">
      <time>2019-12-22T18:04:52Z</time>
    </trkpt>
    <trkpt lat="50.9530982" lon="6.9789662">
      <time>2019-12-22T18:04:54Z</time>
    </trkpt>
    <trkpt lat="50.9530788" lon="6.9790502">
      <time>2019-12-22T18:04:57Z</time>
    </trkpt>
    <trkpt lat="50.9530296" lon="6.9792396">
      <time>2019-12-22T18:05:04Z</time>
    </trkpt>
    <trkpt lat="50.9529517" lon="6.9793969">
      <time>2019-12-22T18:05:11Z</time>
    </trkpt>
    <trkpt lat="50.9529105" lon="6.9795063">
      <time>2019-12-22T18:05:15Z</time>
    </trkpt>
    <trkpt lat="50.9528625" lon="6.9795674">
      <time>2019-12-22T18:05:18Z</time>
    </trkpt>
    <trkpt lat="50.9528332" lon="6.9795959">
      <time>2019-12-22T18:05:20Z</time>
    </trkpt>
    <trkpt lat="50.9527710" lon="6.9796156">
      <time>2019-12-22T18:05:23Z</time>
    </trkpt>
    <trkpt lat="50.9527462" lon="6.9796291">
      <time>2019-12-22T18:05:24Z</time>
    </trkpt>
    <trkpt lat="50.9526296" lon="6.9797845">
      <time>2019-12-22T18:05:31Z</time>
    </trkpt>
    <trkpt lat="50.9525773" lon="6.9798752">
      <time>2019-12-22T18:05:34Z</time>
    </trkpt>
    <trkpt lat="50.9525063" lon="6.9800337">
      <time>2019-12-22T18:05:39Z</time>
    </trkpt>
    <trkpt lat="50.9524452" lon="6.9801947">
      <time>2019-12-22T18:05:44Z</time>
    </trkpt>
    <trkpt lat="50.9523324" lon="6.9803751">
      <time>2019-12-22T18:05:50Z</time>
    </trkpt>
    <trkpt lat="50.9523129" lon="6.9804436">
      <time>2019-12-22T18:05:52Z</time>
    </trkpt>
    <trkpt lat="50.9522948" lon="6.9805050">
      <time>2019-12-22T18:05:54Z</time>
    </trkpt>
    <trkpt lat="50.9522803" lon="6.9805319">
      <time>2019-12-22T18:05:55Z</time>
    </trkpt>
    <trkpt lat="50.9522458" lon="6.9805741">
      <time>2019-12-22T18:05:57Z</time>
    </trkpt>
    <trkpt lat="50.9522111" lon="6.9805685">
      <time>2019-12-22T18:05:59Z</time>
    </trkpt>
    <trkpt lat="50.9520945" lon="6.9804508">
      <time>2019-12-22T18:06:05Z</time>
    </trkpt>
    <trkpt lat="50.9520154" lon="6.9803483">
      <time>2019-12-22T18:06:09Z</time>
    </trkpt>
    <trkpt lat="50.9518786" lon="6.9801527">
      <time>2019-12-22T18:06:18Z</time>
    </trkpt>
    <trkpt lat="50.9517547" lon="6.9800583">
      <time>2019-12-22T18:06:24Z</time>
    </trkpt>
    <trkpt lat="50.9516178" lon="6.9799595">
      <time>2019-12-22T18:06:30Z</time>
    </trkpt>
    <trkpt lat="50.9516032" lon="6.9799338">
      <time>2019-12-22T18:06:31Z</time>
    </trkpt>
    <trkpt lat="50.9515489" lon="6.9798837">
      <time>2019-12-22T18:06:34Z</time>
    </trkpt>
    <trkpt lat="50.9514483" lon="6.9798900">
      <time>2019-12-22T18:06:40Z</time>
    </trkpt>
    <trkpt lat="50.9513309" lon="6.9800172">
      <time>2019-12-22T18:06:48Z</time>
    </trkpt>
    <trkpt lat="50.9512591" lon="6.9800957">
      <time>2019-12-22T18:06:52Z</time>
    </trkpt>
    <trkpt lat="50.9512086" lon="6.9801553">
      <time>2019-12-22T18:06:55Z</time>
    </trkpt>
    <trkpt lat="50.9511627" lon="6.9801879">
      <time>2019-12-22T18:06:58Z</time>
    </trkpt>
    <trkpt lat="50.9511424" lon="6.9802273">
      <time>2019-12-22T18:07:00Z</time>
    </trkpt>
    <trkpt lat="50.9510414" lon="6.9804040">
      <time>2019-12-22T18:07:07Z</time>
    </trkpt>
    <trkpt lat="50.9509606" lon="6.9805075">
      <time>2019-12-22T18:07:12Z</time>
    </trkpt>
    <trkpt lat="50.9509448" lon="6.9805371">
      <time>2019-12-22T18:07:13Z</time>
    </trkpt>
    <trkpt lat="50.9509298" lon="6.9805588">
      <time>2019-12-22T18:07:14Z</time>
    </trkpt>
    <trkpt lat="50.9508627" lon="6.9806685">
      <time>2019-12-22T18:07:19Z</time>
    </trkpt>
    <trkpt lat="50.9508441" lon="6.9806925">
      <time>2019-12-22T18:07:20Z</time>
    </trkpt>
    <trkpt lat="50.9507478" lon="6.9808372">
      <time>2019-12-22T18:07:25Z</time>
    </trkpt>
    <trkpt lat="50.9506249" lon="6.9809612">
      <time>2019-12-22T18:07:31Z</time>
    </trkpt>
    <trkpt lat="50.9504960" lon="6.9811774">
      <time>2019-12-22T18:07:38Z</time>
    </trkpt>
    <trkpt lat="50.9504775" lon="6.9812020">
      <time>2019-12-22T18:07:39Z</time>
    </trkpt>
    <trkpt lat="50.9504187" lon="6.9812528">
      <time>2019-12-22T18:07:42Z</time>
    </trkpt>
    <trkpt lat="50.9503409" lon="6.9813213">
      <time>2019-12-22T18:07:46Z</time>
    </trkpt>
    <trkpt lat="50.9502385" lon="6.9814145">
      <time>2019-12-22T18:07:52Z</time>
    </trkpt>
    <trkpt lat="50.9502266" lon="6.9815530">
      <time>2019-12-22T18:07:58Z</time>
    </trkpt>
    <trkpt lat="50.9502278" lon="6.9815860">
      <time>2019-12-22T18:08:00Z</time>
    </trkpt>
    <trkpt lat="50.9502709" lon="6.9816599">
      <time>2019-12-22T18:08:03Z</time>
    </trkpt>
    <trkpt lat="50.9503618" lon="6.9818529">
      <time>2019-12-22T18:08:10Z</time>
    </trkpt>
    <trkpt lat="50.9503796" lon="6.9818767">
      <time>2019-12-22T18:08:11Z</time>
    </trkpt>
    <trkpt lat="50.9504100" lon="6.9819600">
      <time>2019-12-22T18:08:14Z</time>
    </trkpt>
    <trkpt lat="50.9504364" lon="6.9822405">
      <time>2019-12-22T18:08:21Z</time>
    </trkpt>
    <trkpt lat="50.9505191" lon="6.9824556">
      <time>2019-12-22T18:08:27Z</time>
    </trkpt>
    <trkpt lat="50.9505346" lon="6.9825378">
      <time>2019-12-22T18:08:29Z</time>
    </trkpt>
    <trkpt lat="50.9505848" lon="6.9828158">
      <time>2019-12-22T18:08:37Z</time>
    </trkpt>
    <trkpt lat="50.9506000" lon="6.9828803">
      <time>2019-12-22T18:08:39Z</time>
    </trkpt>
    <trkpt lat="50.9506840" lon="6.9830642">
      <time>2019-12-22T18:08:46Z</time>
    </trkpt>
    <trkpt lat="50.9507287" lon="6.9832310">
      <time>2019-12-22T18:08:52Z</time>
    </trkpt>
    <trkpt lat="50.9507441" lon="6.9832820">
      <time>2019-12-22T18:08:54Z</time>
    </trkpt>
    <trkpt lat="50.9507900" lon="6.9833374">
      <time>2019-12-22T18:08:57Z</time>
    </trkpt>
    <trkpt lat="50.9509128" lon="6.9835280">
      <time>2019-12-22T18:09:05Z</time>
    </trkpt>
    <trkpt lat="50.9510299" lon="6.9836964">
      <time>2019-12-22T18:09:12Z</time>
    </trkpt>
    <trkpt lat="50.9511396" lon="6.9838369">
      <time>2019-12-22T18:09:18Z</time>
    </trkpt>
    <trkpt lat="50.9511934" lon="6.9839047">
      <time>2019-12-22T18:09:21Z</time>
    </trkpt>
    <trkpt lat="50.9513489" lon="6.9841005">
      <time>2019-12-22T18:09:30Z</time>
    </trkpt>
    <trkpt lat="50.9513615" lon="6.9841179">
      <time>2019-12-22T18:09:31Z</time>
    </trkpt>
    <trkpt lat="50.9515131" lon="6.9843228">
      <time>2019-12-22T18:09:40Z</time>
    </trkpt>
    <trkpt lat="50.9515338" lon="6.9843496">
      <time>2019-12-22T18:09:41Z</time>
    </trkpt>
    <trkpt lat="50.9516877" lon="6.9845556">
      <time>2019-12-22T18:09:50Z</time>
    </trkpt>
    <trkpt lat="50.9518435" lon="6.9847537">
      <time>2019-12-22T18:09:59Z</time>
    </trkpt>
    <trkpt lat="50.9518943" lon="6.9848191">
      <time>2019-12-22T18:10:02Z</time>
    </trkpt>
    <trkpt lat="50.9520205" lon="6.9850144">
      <time>2019-12-22T18:10:11Z</time>
    </trkpt>
    <trkpt lat="50.9521735" lon="6.9852157">
      <time>2019-12-22T18:10:20Z</time>
    </trkpt>
    <trkpt lat="50.9522283" lon="6.9852784">
      <time>2019-12-22T18:10:23Z</time>
    </trkpt>
    <trkpt lat="50.9523747" lon="6.9854782">
      <time>2019-12-22T18:10:32Z</time>
    </trkpt>
    <trkpt lat="50.9523894" lon="6.9855004">
      <time>2019-12-22T18:10:33Z</time>
    </trkpt>
    <trkpt lat="50.9525496" lon="6.9856830">
      <time>2019-12-22T18:10:41Z</time>
    </trkpt>
    <trkpt lat="50.9526991" lon="6.9858624">
      <time>2019-12-22T18:10:48Z</time>
    </trkpt>
    <trkpt lat="50.9527493" lon="6.9859037">
      <time>2019-12-22T18:10:50Z</time>
    </trkpt>
    <trkpt lat="50.9529106" lon="6.9860978">
      <time>2019-12-22T18:10:57Z</time>
    </trkpt>
    <trkpt lat="50.9529513" lon="6.9861600">
      <time>2019-12-22T18:10:59Z</time>
    </trkpt>
    <trkpt lat="50.9530969" lon="6.9863471">
      <time>2019-12-22T18:11:06Z</time>
    </trkpt>
    <trkpt lat="50.9531283" lon="6.9863861">
      <time>2019-12-22T18:11:08Z</time>
    </trkpt>
    <trkpt lat="50.9532295" lon="6.9864916">
      <time>2019-12-22T18:11:13Z</time>
    </trkpt>
    <trkpt lat="50.9532688" lon="6.9865377">
      <time>2019-12-22T18:11:15Z</time>
    </trkpt>
    <trkpt lat="50.9533979" lon="6.9867028">
      <time>2019-12-22T18:11:22Z</time>
    </trkpt>
    <trkpt lat="50.9535289" lon="6.9869117">
      <time>2019-12-22T18:11:30Z</time>
    </trkpt>
    <trkpt lat="50.9535524" lon="6.9869376">
      <time>2019-12-22T18:11:31Z</time>
    </trkpt>
    <trkpt lat="50.9536857" lon="6.9871257">
      <time>2019-12-22T18:11:39Z</time>
    </trkpt>
    <trkpt lat="50.9537068" lon="6.9871455">
      <time>2019-12-22T18:11:40Z</time>
    </trkpt>
    <trkpt lat="50.9538346" lon="6.9873077">
      <time>2019-12-22T18:11:47Z</time>
    </trkpt>
    <trkpt lat="50.9538987" lon="6.9873962">
      <time>2019-12-22T18:11:51Z</time>
    </trkpt>
    <trkpt lat="50.9539958" lon="6.9875080">
      <time>2019-12-22T18:11:56Z</time>
    </trkpt>
    <trkpt lat="50.9541025" lon="6.9876380">
      <time>2019-12-22T18:12:02Z</time>
    </trkpt>
    <trkpt lat="50.9541596" lon="6.9877025">
      <time>2019-12-22T18:12:05Z</time>
    </trkpt>
    <trkpt lat="50.9542139" lon="6.9877731">
      <time>2019-12-22T18:12:08Z</time>
    </trkpt>
    <trkpt lat="50.9543030" lon="6.9878868">
      <time>2019-12-22T18:12:13Z</time>
    </trkpt>
    <trkpt lat="50.9543804" lon="6.9879726">
      <time>2019-12-22T18:12:17Z</time>
    </trkpt>
    <trkpt lat="50.9543924" lon="6.9879966">
      <time>2019-12-22T18:12:18Z</time>
    </trkpt>
    <trkpt lat="50.9544042" lon="6.9880218">
      <time>2019-12-22T18:12:19Z</time>
    </trkpt>
    <trkpt lat="50.9545451" lon="6.9882223">
      <time>2019-12-22T18:12:27Z</time>
    </trkpt>
    <trkpt lat="50.9546385" lon="6.9884292">
      <time>2019-12-22T18:12:34Z</time>
    </trkpt>
    <trkpt lat="50.9547348" lon="6.9887141">
      <time>2019-12-22T18:12:42Z</time>
    </trkpt>
    <trkpt lat="50.9548133" lon="6.9889784">
      <time>2019-12-22T18:12:50Z</time>
    </trkpt>
    <trkpt lat="50.9548275" lon="6.9890078">
      <time>2019-12-22T18:12:51Z</time>
    </trkpt>
    <trkpt lat="50.9549042" lon="6.9892246">
      <time>2019-12-22T18:12:58Z</time>
    </trkpt>
    <trkpt lat="50.9549351" lon="6.9893534">
      <time>2019-12-22T18:13:02Z</time>
    </trkpt>
    <trkpt lat="50.9549754" lon="6.9895208">
      <time>2019-12-22T18:13:07Z</time>
    </trkpt>
    <trkpt lat="50.9550480" lon="6.9897743">
      <time>2019-12-22T18:13:15Z</time>
    </trkpt>
    <trkpt lat="50.9551174" lon="6.9900487">
      <time>2019-12-22T18:13:24Z</time>
    </trkpt>
    <trkpt lat="50.9551251" lon="6.9900799">
      <time>2019-12-22T18:13:25Z</time>
    </trkpt>
    <trkpt lat="50.9552000" lon="6.9903565">
      <time>2019-12-22T18:13:34Z</time>
    </trkpt>
    <trkpt lat="50.9552085" lon="6.9903856">
      <time>2019-12-22T18:13:35Z</time>
    </trkpt>
    <trkpt lat="50.9552741" lon="6.9906279">
      <time>2019-12-22T18:13:43Z</time>
    </trkpt>
    <trkpt lat="50.9553187" lon="6.9908322">
      <time>2019-12-22T18:13:50Z</time>
    </trkpt>
    <trkpt lat="50.9553236" lon="6.9908611">
      <time>2019-12-22T18:13:51Z</time>
    </trkpt>
    <trkpt lat="50.9553551" lon="6.9911278">
      <time>2019-12-22T18:14:00Z</time>
    </trkpt>
    <trkpt lat="50.9553668" lon="6.9913624">
      <time>2019-12-22T18:14:08Z</time>
    </trkpt>
    <trkpt lat="50.9553300" lon="6.9915876">
      <time>2019-12-22T18:14:16Z</time>
    </trkpt>
    <trkpt lat="50.9553324" lon="6.9917715">
      <time>2019-12-22T18:14:23Z</time>
    </trkpt>
    <trkpt lat="50.9552904" lon="6.9919353">
      <time>2019-12-22T18:14:29Z</time>
    </trkpt>
    <trkpt lat="50.9552977" lon="6.9919671">
      <time>2019-12-22T18:14:30Z</time>
    </trkpt>
    <trkpt lat="50.9553680" lon="6.9921079">
      <time>2019-12-22T18:14:35Z</time>
    </trkpt>
    <trkpt lat="50.9554953" lon="6.9922645">
      <time>2019-12-22T18:14:42Z</time>
    </trkpt>
    <trkpt lat="50.9555569" lon="6.9923166">
      <time>2019-12-22T18:14:45Z</time>
    </trkpt>
    <trkpt lat="50.9556864" lon="6.9924146">
      <time>2019-12-22T18:14:51Z</time>
    </trkpt>
    <trkpt lat="50.9558390" lon="6.9925616">
      <time>2019-12-22T18:14:58Z</time>
    </trkpt>
    <trkpt lat="50.9559226" lon="6.9926391">
      <time>2019-12-22T18:15:03Z</time>
    </trkpt>
    <trkpt lat="50.9560287" lon="6.9927160">
      <time>2019-12-22T18:15:08Z</time>
    </trkpt>
    <trkpt lat="50.9560839" lon="6.9927774">
      <time>2019-12-22T18:15:10Z</time>
    </trkpt>
    <trkpt lat="50.9561528" lon="6.9928326">
      <time>2019-12-22T18:15:13Z</time>
    </trkpt>
    <trkpt lat="50.9563267" lon="6.9929408">
      <time>2019-12-22T18:15:20Z</time>
    </trkpt>
    <trkpt lat="50.9564412" lon="6.9930164">
      <time>2019-12-22T18:15:25Z</time>
    </trkpt>
    <trkpt lat="50.9565051" lon="6.9930833">
      <time>2019-12-22T18:15:28Z</time>
    </trkpt>
    <trkpt lat="50.9566348" lon="6.9932343">
      <time>2019-12-22T18:15:36Z</time>
    </trkpt>
    <trkpt lat="50.9566610" lon="6.9933095">
      <time>2019-12-22T18:15:39Z</time>
    </trkpt>
    <trkpt lat="50.9566684" lon="6.9933768">
      <time>2019-12-22T18:15:41Z</time>
    </trkpt>
    <trkpt lat="50.9567279" lon="6.9935402">
      <time>2019-12-22T18:15:46Z</time>
    </trkpt>
    <trkpt lat="50.9568301" lon="6.9936652">
      <time>2019-12-22T18:15:53Z</time>
    </trkpt>
    <trkpt lat="50.9569372" lon="6.9937792">
      <time>2019-12-22T18:16:00Z</time>
    </trkpt>
    <trkpt lat="50.9569909" lon="6.9938231">
      <time>2019-12-22T18:16:03Z</time>
    </trkpt>
    <trkpt lat="50.9571623" lon="6.9939688">
      <time>2019-12-22T18:16:12Z</time>
    </trkpt>
    <trkpt lat="50.9572488" lon="6.9941354">
      <time>2019-12-22T18:16:19Z</time>
    </trkpt>
    <trkpt lat="50.9572468" lon="6.9942881">
      <time>2019-12-22T18:16:24Z</time>
    </trkpt>
    <trkpt lat="50.9572467" lon="6.9943475">
      <time>2019-12-22T18:16:26Z</time>
    </trkpt>
    <trkpt lat="50.9572205" lon="6.9945793">
      <time>2019-12-22T18:16:34Z</time>
    </trkpt>
    <trkpt lat="50.9571633" lon="6.9948670">
      <time>2019-12-22T18:16:44Z</time>
    </trkpt>
    <trkpt lat="50.9571581" lon="6.9949212">
      <time>2019-12-22T18:16:46Z</time>
    </trkpt>
    <trkpt lat="50.9571253" lon="6.9952040">
      <time>2019-12-22T18:16:54Z</time>
    </trkpt>
    <trkpt lat="50.9571632" lon="6.9954619">
      <time>2019-12-22T18:17:02Z</time>
    </trkpt>
    <trkpt lat="50.9572527" lon="6.9957168">
      <time>2019-12-22T18:17:11Z</time>
    </trkpt>
    <trkpt lat="50.9572639" lon="6.9957464">
      <time>2019-12-22T18:17:12Z</time>
    </trkpt>
    <trkpt lat="50.9573341" lon="6.9959284">
      <time>2019-12-22T18:17:19Z</time>
    </trkpt>
    <trkpt lat="50.9574358" lon="6.9961803">
      <time>2019-12-22T18:17:28Z</time>
    </trkpt>
    <trkpt lat="50.9574516" lon="6.9962058">
      <time>2019-12-22T18:17:29Z</time>
    </trkpt>
    <trkpt lat="50.9575403" lon="6.9964199">
      <time>2019-12-22T18:17:37Z</time>
    </trkpt>
    <trkpt lat="50.9575465" lon="6.9964441">
      <time>2019-12-22T18:17:38Z</time>
    </trkpt>
    <trkpt lat="50.9575789" lon="6.9966393">
      <time>2019-12-22T18:17:45Z</time>
    </trkpt>
    <trkpt lat="50.9576326" lon="6.9968078">
      <time>2019-12-22T18:17:51Z</time>
    </trkpt>
    <trkpt lat="50.9576950" lon="6.9969531">
      <time>2019-12-22T18:17:56Z</time>
    </trkpt>
    <trkpt lat="50.9577176" lon="6.9970098">
      <time>2019-12-22T18:17:58Z</time>
    </trkpt>
    <trkpt lat="50.9577955" lon="6.9971186">
      <time>2019-12-22T18:18:04Z</time>
    </trkpt>
    <trkpt lat="50.9578747" lon="6.9972887">
      <time>2019-12-22T18:18:10Z</time>
    </trkpt>
    <trkpt lat="50.9578585" lon="6.9973344">
      <time>2019-12-22T18:18:12Z</time>
    </trkpt>
    <trkpt lat="50.9578039" lon="6.9975270">
      <time>2019-12-22T18:18:18Z</time>
    </trkpt>
    <trkpt lat="50.9576688" lon="6.9975956">
      <time>2019-12-22T18:18:23Z</time>
    </trkpt>
    <trkpt lat="50.9576186" lon="6.9976385">
      <time>2019-12-22T18:18:25Z</time>
    </trkpt>
    <trkpt lat="50.9576043" lon="6.9976727">
      <time>2019-12-22T18:18:26Z</time>
    </trkpt>
    <trkpt lat="50.9575866" lon="6.9978919">
      <time>2019-12-22T18:18:32Z</time>
    </trkpt>
    <trkpt lat="50.9575702" lon="6.9981214">
      <time>2019-12-22T18:18:38Z</time>
    </trkpt>
    <trkpt lat="50.9575471" lon="6.9982621">
      <time>2019-12-22T18:18:42Z</time>
    </trkpt>
    <trkpt lat="50.9575407" lon="6.9983333">
      <time>2019-12-22T18:18:44Z</time>
    </trkpt>
    <trkpt lat="50.9575276" lon="6.9986146">
      <time>2019-12-22T18:18:52Z</time>
    </trkpt>
    <trkpt lat="50.9574607" lon="6.9987283">
      <time>2019-12-22T18:18:57Z</time>
    </trkpt>
    <trkpt lat="50.9574578" lon="6.9988104">
      <time>2019-12-22T18:19:00Z</time>
    </trkpt>
    <trkpt lat="50.9574043" lon="6.9990404">
      <time>2019-12-22T18:19:08Z</time>
    </trkpt>
    <trkpt lat="50.9573850" lon="6.9991362">
      <time>2019-12-22T18:19:11Z</time>
    </trkpt>
    <trkpt lat="50.9573737" lon="6.9991616">
      <time>2019-12-22T18:19:12Z</time>
    </trkpt>
    <trkpt lat="50.9573632" lon="6.9991918">
      <time>2019-12-22T18:19:13Z</time>
    </trkpt>
    <trkpt lat="50.9573425" lon="6.9992509">
      <time>2019-12-22T18:19:15Z</time>
    </trkpt>
    <trkpt lat="50.9572974" lon="6.9993789">
      <time>2019-12-22T18:19:19Z</time>
    </trkpt>
    <trkpt lat="50.9572809" lon="6.9994353">
      <time>2019-12-22T18:19:21Z</time>
    </trkpt>
    <trkpt lat="50.9572306" lon="6.9995335">
      <time>2019-12-22T18:19:26Z</time>
    </trkpt>
    <trkpt lat="50.9572070" lon="6.9995237">
      <time>2019-12-22T18:19:28Z</time>
    </trkpt>
    <trkpt lat="50.9571563" lon="6.9995198">
      <time>2019-12-22T18:19:31Z</time>
    </trkpt>
    <trkpt lat="50.9570659" lon="6.9995277">
      <time>2019-12-22T18:19:36Z</time>
    </trkpt>
    <trkpt lat="50.9570505" lon="6.9995203">
      <time>2019-12-22T18:19:37Z</time>
    </trkpt>
    <trkpt lat="50.9570206" lon="6.9994982">
      <time>2019-12-22T18:19:39Z</time>
    </trkpt>
    <trkpt lat="50.9570058" lon="6.9994973">
      <time>2019-12-22T18:19:40Z</time>
    </trkpt>
    <trkpt lat="50.9569876" lon="6.9995024">
      <time>2019-12-22T18:19:41Z</time>
    </trkpt>
    <trkpt lat="50.9569214" lon="6.9994999">
      <time>2019-12-22T18:19:45Z</time>
    </trkpt>
    <trkpt lat="50.9567615" lon="6.9995070">
      <time>2019-12-22T18:19:52Z</time>
    </trkpt>
    <trkpt lat="50.9566130" lon="6.9994709">
      <time>2019-12-22T18:19:57Z</time>
    </trkpt>
    <trkpt lat="50.9565020" lon="6.9994983">
      <time>2019-12-22T18:20:02Z</time>
    </trkpt>
    <trkpt lat="50.9564402" lon="6.9996059">
      <time>2019-12-22T18:20:07Z</time>
    </trkpt>
    <trkpt lat="50.9564215" lon="6.9998086">
      <time>2019-12-22T18:20:13Z</time>
    </trkpt>
    <trkpt lat="50.9564021" lon="6.9999049">
      <time>2019-12-22T18:20:16Z</time>
    </trkpt>
    <trkpt lat="50.9563755" lon="6.9999599">
      <time>2019-12-22T18:20:18Z</time>
    </trkpt>
    <trkpt lat="50.9563572" lon="7.0000163">
      <time>2019-12-22T18:20:20Z</time>
    </trkpt>
    <trkpt lat="50.9563537" lon="7.0001224">
      <time>2019-12-22T18:20:23Z</time>
    </trkpt>
    <trkpt lat="50.9563057" lon="7.0002539">
      <time>2019-12-22T18:20:28Z</time>
    </trkpt>
    <trkpt lat="50.9561795" lon="7.0002336">
      <time>2019-12-22T18:20:34Z</time>
    </trkpt>
    <trkpt lat="50.9559900" lon="7.0001282">
      <time>2019-12-22T18:20:44Z</time>
    </trkpt>
    <trkpt lat="50.9558006" lon="7.0000337">
      <time>2019-12-22T18:20:53Z</time>
    </trkpt>
    <trkpt lat="50.9556203" lon="6.9999492">
      <time>2019-12-22T18:21:01Z</time>
    </trkpt>
    <trkpt lat="50.9555993" lon="6.9999341">
      <time>2019-12-22T18:21:02Z</time>
    </trkpt>
    <trkpt lat="50.9554187" lon="6.9998385">
      <time>2019-12-22T18:21:10Z</time>
    </trkpt>
    <trkpt lat="50.9553975" lon="6.9998316">
      <time>2019-12-22T18:21:11Z</time>
    </trkpt>
    <trkpt lat="50.9552667" lon="6.9997938">
      <time>2019-12-22T18:21:17Z</time>
    </trkpt>
    <trkpt lat="50.9551194" lon="6.9996965">
      <time>2019-12-22T18:21:25Z</time>
    </trkpt>
    <trkpt lat="50.9549736" lon="6.9995989">
      <time>2019-12-22T18:21:32Z</time>
    </trkpt>
    <trkpt lat="50.9548440" lon="6.9995474">
      <time>2019-12-22T18:21:39Z</time>
    </trkpt>
    <trkpt lat="50.9547390" lon="6.9994872">
      <time>2019-12-22T18:21:45Z</time>
    </trkpt>
    <trkpt lat="50.9545889" lon="6.9994222">
      <time>2019-12-22T18:21:52Z</time>
    </trkpt>
    <trkpt lat="50.9544589" lon="6.9993381">
      <time>2019-12-22T18:21:59Z</time>
    </trkpt>
    <trkpt lat="50.9542966" lon="6.9992036">
      <time>2019-12-22T18:22:08Z</time>
    </trkpt>
    <trkpt lat="50.9542828" lon="6.9991854">
      <time>2019-12-22T18:22:09Z</time>
    </trkpt>
    <trkpt lat="50.9541156" lon="6.9990474">
      <time>2019-12-22T18:22:17Z</time>
    </trkpt>
    <trkpt lat="50.9540962" lon="6.9990359">
      <time>2019-12-22T18:22:18Z</time>
    </trkpt>
    <trkpt lat="50.9539234" lon="6.9989158">
      <time>2019-12-22T18:22:27Z</time>
    </trkpt>
    <trkpt lat="50.9537607" lon="6.9988136">
      <time>2019-12-22T18:22:35Z</time>
    </trkpt>
    <trkpt lat="50.9536201" lon="6.9986892">
      <time>2019-12-22T18:22:42Z</time>
    </trkpt>
    <trkpt lat="50.9534618" lon="6.9984991">
      <time>2019-12-22T18:22:51Z</time>
    </trkpt>
    <trkpt lat="50.9533521" lon="6.9983649">
      <time>2019-12-22T18:22:57Z</time>
    </trkpt>
    <trkpt lat="50.9532027" lon="6.9981619">
      <time>2019-12-22T18:23:06Z</time>
    </trkpt>
    <trkpt lat="50.9531565" lon="6.9980883">
      <time>2019-12-22T18:23:09Z</time>
    </trkpt>
    <trkpt lat="50.9530476" lon="6.9979210">
      <time>2019-12-22T18:23:16Z</time>
    </trkpt>
    <trkpt lat="50.9529086" lon="6.9976877">
      <time>2019-12-22T18:23:25Z</time>
    </trkpt>
    <trkpt lat="50.9528789" lon="6.9976393">
      <time>2019-12-22T18:23:27Z</time>
    </trkpt>
    <trkpt lat="50.9527742" lon="6.9974476">
      <time>2019-12-22T18:23:35Z</time>
    </trkpt>
    <trkpt lat="50.9526210" lon="6.9972356">
      <time>2019-12-22T18:23:44Z</time>
    </trkpt>
    <trkpt lat="50.9525990" lon="6.9972148">
      <time>2019-12-22T18:23:45Z</time>
    </trkpt>
    <trkpt lat="50.9524632" lon="6.9969960">
      <time>2019-12-22T18:23:54Z</time>
    </trkpt>
    <trkpt lat="50.9524110" lon="6.9969239">
      <time>2019-12-22T18:23:57Z</time>
    </trkpt>
    <trkpt lat="50.9523095" lon="6.9967825">
      <time>2019-12-22T18:24:03Z</time>
    </trkpt>
    <trkpt lat="50.9521695" lon="6.9965669">
      <time>2019-12-22T18:24:13Z</time>
    </trkpt>
    <trkpt lat="50.9520764" lon="6.9964099">
      <time>2019-12-22T18:24:20Z</time>
    </trkpt>
    <trkpt lat="50.9520339" lon="6.9963460">
      <time>2019-12-22T18:24:23Z</time>
    </trkpt>
    <trkpt lat="50.9518983" lon="6.9961725">
      <time>2019-12-22T18:24:31Z</time>
    </trkpt>
    <trkpt lat="50.9517495" lon="6.9960087">
      <time>2019-12-22T18:24:39Z</time>
    </trkpt>
    <trkpt lat="50.9516133" lon="6.9958592">
      <time>2019-12-22T18:24:47Z</time>
    </trkpt>
    <trkpt lat="50.9514538" lon="6.9957017">
      <time>2019-12-22T18:24:56Z</time>
    </trkpt>
    <trkpt lat="50.9512904" lon="6.9955451">
      <time>2019-12-22T18:25:05Z</time>
    </trkpt>
    <trkpt lat="50.9512543" lon="6.9955125">
      <time>2019-12-22T18:25:07Z</time>
    </trkpt>
    <trkpt lat="50.9510988" lon="6.9953722">
      <time>2019-12-22T18:25:16Z</time>
    </trkpt>
    <trkpt lat="50.9509226" lon="6.9952335">
      <time>2019-12-22T18:25:26Z</time>
    </trkpt>
    <trkpt lat="50.9508925" lon="6.9952247">
      <time>2019-12-22T18:25:27Z</time>
    </trkpt>
    <trkpt lat="50.9507366" lon="6.9951256">
      <time>2019-12-22T18:25:34Z</time>
    </trkpt>
    <trkpt lat="50.9505830" lon="6.9949663">
      <time>2019-12-22T18:25:42Z</time>
    </trkpt>
    <trkpt lat="50.9505482" lon="6.9949393">
      <time>2019-12-22T18:25:44Z</time>
    </trkpt>
    <trkpt lat="50.9503758" lon="6.9948237">
      <time>2019-12-22T18:25:52Z</time>
    </trkpt>
    <trkpt lat="50.9503344" lon="6.9947931">
      <time>2019-12-22T18:25:54Z</time>
    </trkpt>
    <trkpt lat="50.9501719" lon="6.9946839">
      <time>2019-12-22T18:26:02Z</time>
    </trkpt>
    <trkpt lat="50.9500120" lon="6.9945417">
      <time>2019-12-22T18:26:10Z</time>
    </trkpt>
    <trkpt lat="50.9498497" lon="6.9943716">
      <time>2019-12-22T18:26:18Z</time>
    </trkpt>
    <trkpt lat="50.9498105" lon="6.9943416">
      <time>2019-12-22T18:26:20Z</time>
    </trkpt>
    <trkpt lat="50.9496426" lon="6.9942141">
      <time>2019-12-22T18:26:28Z</time>
    </trkpt>
    <trkpt lat="50.9495062" lon="6.9940126">
      <time>2019-12-22T18:26:37Z</time>
    </trkpt>
    <trkpt lat="50.9495175" lon="6.9938793">
      <time>2019-12-22T18:26:41Z</time>
    </trkpt>
    <trkpt lat="50.9495311" lon="6.9938562">
      <time>2019-12-22T18:26:42Z</time>
    </trkpt>
    <trkpt lat="50.9495406" lon="6.9938288">
      <time>2019-12-22T18:26:43Z</time>
    </trkpt>
    <trkpt lat="50.9495846" lon="6.9936627">
      <time>2019-12-22T18:26:48Z</time>
    </trkpt>
    <trkpt lat="50.9496569" lon="6.9934396">
      <time>2019-12-22T18:26:55Z</time>
    </trkpt>
    <trkpt lat="50.9497350" lon="6.9932265">
      <time>2019-12-22T18:27:01Z</time>
    </trkpt>
    <trkpt lat="50.9498065" lon="6.9931714">
      <time>2019-12-22T18:27:06Z</time>
    </trkpt>
    <trkpt lat="50.9498252" lon="6.9931820">
      <time>2019-12-22T18:27:07Z</time>
    </trkpt>
    <trkpt lat="50.9498466" lon="6.9932216">
      <time>2019-12-22T18:27:09Z</time>
    </trkpt>
    <trkpt lat="50.9498992" lon="6.9932709">
      <time>2019-12-22T18:27:12Z</time>
    </trkpt>
    <trkpt lat="50.9499404" lon="6.9932952">
      <time>2019-12-22T18:27:14Z</time>
    </trkpt>
    <trkpt lat="50.9500503" lon="6.9933941">
      <time>2019-12-22T18:27:19Z</time>
    </trkpt>
    <trkpt lat="50.9500858" lon="6.9934241">
      <time>2019-12-22T18:27:21Z</time>
    </trkpt>
    <trkpt lat="50.9501358" lon="6.9934350">
      <time>2019-12-22T18:27:23Z</time>
    </trkpt>
    <trkpt lat="50.9501608" lon="6.9934433">
      <time>2019-12-22T18:27:24Z</time>
    </trkpt>
    <trkpt lat="50.9502755" lon="6.9935171">
      <time>2019-12-22T18:27:30Z</time>
    </trkpt>
    <trkpt lat="50.9503044" lon="6.9935518">
      <time>2019-12-22T18:27:32Z</time>
    </trkpt>
    <trkpt lat="50.9504058" lon="6.9936955">
      <time>2019-12-22T18:27:38Z</time>
    </trkpt>
    <trkpt lat="50.9504911" lon="6.9938408">
      <time>2019-12-22T18:27:45Z</time>
    </trkpt>
    <trkpt lat="50.9506143" lon="6.9939504">
      <time>2019-12-22T18:27:52Z</time>
    </trkpt>
    <trkpt lat="50.9506346" lon="6.9939656">
      <time>2019-12-22T18:27:53Z</time>
    </trkpt>
    <trkpt lat="50.9507351" lon="6.9940679">
      <time>2019-12-22T18:28:00Z</time>
    </trkpt>
    <trkpt lat="50.9508544" lon="6.9941514">
      <time>2019-12-22T18:28:06Z</time>
    </trkpt>
    <trkpt lat="50.9509859" lon="6.9942063">
      <time>2019-12-22T18:28:11Z</time>
    </trkpt>
    <trkpt lat="50.9510030" lon="6.9942167">
      <time>2019-12-22T18:28:12Z</time>
    </trkpt>
    <trkpt lat="50.9511053" lon="6.9942869">
      <time>2019-12-22T18:28:18Z</time>
    </trkpt>
    <trkpt lat="50.9511338" lon="6.9943103">
      <time>2019-12-22T18:28:20Z</time>
    </trkpt>
    <trkpt lat="50.9512314" lon="6.9944009">
      <time>2019-12-22T18:28:26Z</time>
    </trkpt>
    <trkpt lat="50.9512507" lon="6.9944166">
      <time>2019-12-22T18:28:27Z</time>
    </trkpt>
    <trkpt lat="50.9513574" lon="6.9945379">
      <time>2019-12-22T18:28:33Z</time>
    </trkpt>
    <trkpt lat="50.9514606" lon="6.9946344">
      <time>2019-12-22T18:28:39Z</time>
    </trkpt>
    <trkpt lat="50.9516028" lon="6.9947664">
      <time>2019-12-22T18:28:47Z</time>
    </trkpt>
    <trkpt lat="50.9517563" lon="6.9948587">
      <time>2019-12-22T18:28:54Z</time>
    </trkpt>
    <trkpt lat="50.9518982" lon="6.9950113">
      <time>2019-12-22T18:29:03Z</time>
    </trkpt>
    <trkpt lat="50.9520500" lon="6.9951356">
      <time>2019-12-22T18:29:12Z</time>
    </trkpt>
    <trkpt lat="50.9522118" lon="6.9952579">
      <time>2019-12-22T18:29:20Z</time>
    </trkpt>
    <trkpt lat="50.9523476" lon="6.9953628">
      <time>2019-12-22T18:29:27Z</time>
    </trkpt>
    <trkpt lat="50.9523737" lon="6.9953005">
      <time>2019-12-22T18:29:30Z</time>
    </trkpt>
    <trkpt lat="50.9523707" lon="6.9952688">
      <time>2019-12-22T18:29:31Z</time>
    </trkpt>
    <trkpt lat="50.9523222" lon="6.9951326">
      <time>2019-12-22T18:29:36Z</time>
    </trkpt>
    <trkpt lat="50.9522431" lon="6.9948503">
      <time>2019-12-22T18:29:44Z</time>
    </trkpt>
    <trkpt lat="50.9522024" lon="6.9946817">
      <time>2019-12-22T18:29:50Z</time>
    </trkpt>
    <trkpt lat="50.9522143" lon="6.9944484">
      <time>2019-12-22T18:29:57Z</time>
    </trkpt>
    <trkpt lat="50.9522376" lon="6.9942945">
      <time>2019-12-22T18:30:02Z</time>
    </trkpt>
    <trkpt lat="50.9522567" lon="6.9942251">
      <time>2019-12-22T18:30:04Z</time>
    </trkpt>
    <trkpt lat="50.9522703" lon="6.9940093">
      <time>2019-12-22T18:30:10Z</time>
    </trkpt>
    <trkpt lat="50.9522743" lon="6.9939758">
      <time>2019-12-22T18:30:11Z</time>
    </trkpt>
    <trkpt lat="50.9523270" lon="6.9937934">
      <time>2019-12-22T18:30:16Z</time>
    </trkpt>
    <trkpt lat="50.9523914" lon="6.9935110">
      <time>2019-12-22T18:30:24Z</time>
    </trkpt>
    <trkpt lat="50.9524687" lon="6.9932225">
      <time>2019-12-22T18:30:31Z</time>
    </trkpt>
    <trkpt lat="50.9524712" lon="6.9930123">
      <time>2019-12-22T18:30:36Z</time>
    </trkpt>
    <trkpt lat="50.9525281" lon="6.9927199">
      <time>2019-12-22T18:30:43Z</time>
    </trkpt>
    <trkpt lat="50.9525265" lon="6.9926782">
      <time>2019-12-22T18:30:44Z</time>
    </trkpt>
    <trkpt lat="50.9525198" lon="6.9926659">
      <time>2019-12-22T18:30:45Z</time>
    </trkpt>
    <trkpt lat="50.9525048" lon="6.9926442">
      <time>2019-12-22T18:30:47Z</time>
    </trkpt>
    <trkpt lat="50.9523707" lon="6.9926085">
      <time>2019-12-22T18:30:53Z</time>
    </trkpt>
    <trkpt lat="50.9522710" lon="6.9925797">
      <time>2019-12-22T18:30:57Z</time>
    </trkpt>
    <trkpt lat="50.9522551" lon="6.9925748">
      <time>2019-12-22T18:30:58Z</time>
    </trkpt>
  </trkseg></trk>
</gpx>
