<?xml version="1.0" encoding="UTF-8"?>
<gpx version="1.1" creator="Diary FIT converter" xmlns="http://www.topografix.com/GPX/1/1">
  <trk><name>Running</name><trkseg>
    <trkpt lat="50.9632245" lon="6.8769248">
      <time>2021-02-01T16:07:47Z</time>
    </trkpt>
    <trkpt lat="50.9632842" lon="6.8771190">
      <time>2021-02-01T16:07:52Z</time>
    </trkpt>
    <trkpt lat="50.9632828" lon="6.8772468">
      <time>2021-02-01T16:07:56Z</time>
    </trkpt>
    <trkpt lat="50.9632991" lon="6.8772875">
      <time>2021-02-01T16:07:58Z</time>
    </trkpt>
    <trkpt lat="50.9633643" lon="6.8774836">
      <time>2021-02-01T16:08:04Z</time>
    </trkpt>
    <trkpt lat="50.9633764" lon="6.8775069">
      <time>2021-02-01T16:08:05Z</time>
    </trkpt>
    <trkpt lat="50.9633975" lon="6.8775251">
      <time>2021-02-01T16:08:06Z</time>
    </trkpt>
    <trkpt lat="50.9634861" lon="6.8775863">
      <time>2021-02-01T16:08:10Z</time>
    </trkpt>
    <trkpt lat="50.9635176" lon="6.8776965">
      <time>2021-02-01T16:08:14Z</time>
    </trkpt>
    <trkpt lat="50.9635447" lon="6.8777426">
      <time>2021-02-01T16:08:16Z</time>
    </trkpt>
    <trkpt lat="50.9635588" lon="6.8777789">
      <time>2021-02-01T16:08:17Z</time>
    </trkpt>
    <trkpt lat="50.9635823" lon="6.8778719">
      <time>2021-02-01T16:08:20Z</time>
    </trkpt>
    <trkpt lat="50.9636013" lon="6.8779937">
      <time>2021-02-01T16:08:24Z</time>
    </trkpt>
    <trkpt lat="50.9636126" lon="6.8780155">
      <time>2021-02-01T16:08:25Z</time>
    </trkpt>
    <trkpt lat="50.9637320" lon="6.8781110">
      <time>2021-02-01T16:08:30Z</time>
    </trkpt>
    <trkpt lat="50.9638379" lon="6.8781831">
      <time>2021-02-01T16:08:34Z</time>
    </trkpt>
    <trkpt lat="50.9638693" lon="6.8782314">
      <time>2021-02-01T16:08:36Z</time>
    </trkpt>
    <trkpt lat="50.9639803" lon="6.8783559">
      <time>2021-02-01T16:08:42Z</time>
    </trkpt>
    <trkpt lat="50.9640712" lon="6.8785034">
      <time>2021-02-01T16:08:47Z</time>
    </trkpt>
    <trkpt lat="50.9641182" lon="6.8785824">
      <time>2021-02-01T16:08:50Z</time>
    </trkpt>
    <trkpt lat="50.9642025" lon="6.8787414">
      <time>2021-02-01T16:08:56Z</time>
    </trkpt>
    <trkpt lat="50.9642942" lon="6.8789115">
      <time>2021-02-01T16:09:02Z</time>
    </trkpt>
    <trkpt lat="50.9644586" lon="6.8791040">
      <time>2021-02-01T16:09:10Z</time>
    </trkpt>
    <trkpt lat="50.9644807" lon="6.8791242">
      <time>2021-02-01T16:09:11Z</time>
    </trkpt>
    <trkpt lat="50.9646185" lon="6.8792817">
      <time>2021-02-01T16:09:18Z</time>
    </trkpt>
    <trkpt lat="50.9647615" lon="6.8794573">
      <time>2021-02-01T16:09:26Z</time>
    </trkpt>
    <trkpt lat="50.9647823" lon="6.8794652">
      <time>2021-02-01T16:09:27Z</time>
    </trkpt>
    <trkpt lat="50.9648236" lon="6.8795029">
      <time>2021-02-01T16:09:29Z</time>
    </trkpt>
    <trkpt lat="50.9649631" lon="6.8796561">
      <time>2021-02-01T16:09:36Z</time>
    </trkpt>
    <trkpt lat="50.9650560" lon="6.8798095">
      <time>2021-02-01T16:09:42Z</time>
    </trkpt>
    <trkpt lat="50.9651583" lon="6.8799349">
      <time>2021-02-01T16:09:48Z</time>
    </trkpt>
    <trkpt lat="50.9652250" lon="6.8800258">
      <time>2021-02-01T16:09:52Z</time>
    </trkpt>
    <trkpt lat="50.9652641" lon="6.8800877">
      <time>2021-02-01T16:09:55Z</time>
    </trkpt>
    <trkpt lat="50.9653131" lon="6.8801468">
      <time>2021-02-01T16:09:58Z</time>
    </trkpt>
    <trkpt lat="50.9654263" lon="6.8802599">
      <time>2021-02-01T16:10:04Z</time>
    </trkpt>
    <trkpt lat="50.9655110" lon="6.8803691">
      <time>2021-02-01T16:10:09Z</time>
    </trkpt>
    <trkpt lat="50.9655500" lon="6.8804133">
      <time>2021-02-01T16:10:11Z</time>
    </trkpt>
    <trkpt lat="50.9657136" lon="6.8805654">
      <time>2021-02-01T16:10:19Z</time>
    </trkpt>
    <trkpt lat="50.9657550" lon="6.8806046">
      <time>2021-02-01T16:10:21Z</time>
    </trkpt>
    <trkpt lat="50.9659157" lon="6.8807558">
      <time>2021-02-01T16:10:29Z</time>
    </trkpt>
    <trkpt lat="50.9659361" lon="6.8807808">
      <time>2021-02-01T16:10:30Z</time>
    </trkpt>
    <trkpt lat="50.9660897" lon="6.8809492">
      <time>2021-02-01T16:10:38Z</time>
    </trkpt>
    <trkpt lat="50.9661090" lon="6.8809714">
      <time>2021-02-01T16:10:39Z</time>
    </trkpt>
    <trkpt lat="50.9661990" lon="6.8810786">
      <time>2021-02-01T16:10:44Z</time>
    </trkpt>
    <trkpt lat="50.9662642" lon="6.8811290">
      <time>2021-02-01T16:10:47Z</time>
    </trkpt>
    <trkpt lat="50.9663547" lon="6.8812947">
      <time>2021-02-01T16:10:53Z</time>
    </trkpt>
    <trkpt lat="50.9663363" lon="6.8815072">
      <time>2021-02-01T16:10:59Z</time>
    </trkpt>
    <trkpt lat="50.9662962" lon="6.8818138">
      <time>2021-02-01T16:11:07Z</time>
    </trkpt>
    <trkpt lat="50.9662823" lon="6.8818789">
      <time>2021-02-01T16:11:09Z</time>
    </trkpt>
    <trkpt lat="50.9662660" lon="6.8819391">
      <time>2021-02-01T16:11:11Z</time>
    </trkpt>
    <trkpt lat="50.9661844" lon="6.8821751">
      <time>2021-02-01T16:11:19Z</time>
    </trkpt>
    <trkpt lat="50.9661019" lon="6.8823960">
      <time>2021-02-01T16:11:27Z</time>
    </trkpt>
    <trkpt lat="50.9659788" lon="6.8825971">
      <time>2021-02-01T16:11:35Z</time>
    </trkpt>
    <trkpt lat="50.9658646" lon="6.8828166">
      <time>2021-02-01T16:11:43Z</time>
    </trkpt>
    <trkpt lat="50.9658554" lon="6.8828358">
      <time>2021-02-01T16:11:44Z</time>
    </trkpt>
    <trkpt lat="50.9657944" lon="6.8829435">
      <time>2021-02-01T16:11:49Z</time>
    </trkpt>
    <trkpt lat="50.9657246" lon="6.8830716">
      <time>2021-02-01T16:11:54Z</time>
    </trkpt>
    <trkpt lat="50.9656110" lon="6.8833434">
      <time>2021-02-01T16:12:03Z</time>
    </trkpt>
    <trkpt lat="50.9655013" lon="6.8835615">
      <time>2021-02-01T16:12:10Z</time>
    </trkpt>
    <trkpt lat="50.9653986" lon="6.8837345">
      <time>2021-02-01T16:12:16Z</time>
    </trkpt>
    <trkpt lat="50.9653101" lon="6.8838843">
      <time>2021-02-01T16:12:22Z</time>
    </trkpt>
    <trkpt lat="50.9651965" lon="6.8841209">
      <time>2021-02-01T16:12:30Z</time>
    </trkpt>
    <trkpt lat="50.9650668" lon="6.8843644">
      <time>2021-02-01T16:12:38Z</time>
    </trkpt>
    <trkpt lat="50.9650503" lon="6.8843908">
      <time>2021-02-01T16:12:39Z</time>
    </trkpt>
    <trkpt lat="50.9649354" lon="6.8846206">
      <time>2021-02-01T16:12:47Z</time>
    </trkpt>
    <trkpt lat="50.9649221" lon="6.8846536">
      <time>2021-02-01T16:12:48Z</time>
    </trkpt>
    <trkpt lat="50.9648223" lon="6.8848715">
      <time>2021-02-01T16:12:55Z</time>
    </trkpt>
    <trkpt lat="50.9647538" lon="6.8850735">
      <time>2021-02-01T16:13:01Z</time>
    </trkpt>
    <trkpt lat="50.9646905" lon="6.8852547">
      <time>2021-02-01T16:13:07Z</time>
    </trkpt>
    <trkpt lat="50.9645719" lon="6.8854847">
      <time>2021-02-01T16:13:15Z</time>
    </trkpt>
    <trkpt lat="50.9645607" lon="6.8855140">
      <time>2021-02-01T16:13:16Z</time>
    </trkpt>
    <trkpt lat="50.9644774" lon="6.8857040">
      <time>2021-02-01T16:13:22Z</time>
    </trkpt>
    <trkpt lat="50.9643566" lon="6.8859562">
      <time>2021-02-01T16:13:31Z</time>
    </trkpt>
    <trkpt lat="50.9643378" lon="6.8859883">
      <time>2021-02-01T16:13:32Z</time>
    </trkpt>
    <trkpt lat="50.9642642" lon="6.8861471">
      <time>2021-02-01T16:13:37Z</time>
    </trkpt>
    <trkpt lat="50.9642134" lon="6.8862367">
      <time>2021-02-01T16:13:40Z</time>
    </trkpt>
    <trkpt lat="50.9641171" lon="6.8864742">
      <time>2021-02-01T16:13:48Z</time>
    </trkpt>
    <trkpt lat="50.9640223" lon="6.8867185">
      <time>2021-02-01T16:13:56Z</time>
    </trkpt>
    <trkpt lat="50.9640085" lon="6.8867470">
      <time>2021-02-01T16:13:57Z</time>
    </trkpt>
    <trkpt lat="50.9638818" lon="6.8869889">
      <time>2021-02-01T16:14:06Z</time>
    </trkpt>
    <trkpt lat="50.9637535" lon="6.8871658">
      <time>2021-02-01T16:14:14Z</time>
    </trkpt>
    <trkpt lat="50.9637250" lon="6.8873073">
      <time>2021-02-01T16:14:19Z</time>
    </trkpt>
    <trkpt lat="50.9637135" lon="6.8873686">
      <time>2021-02-01T16:14:21Z</time>
    </trkpt>
    <trkpt lat="50.9636593" lon="6.8874715">
      <time>2021-02-01T16:14:25Z</time>
    </trkpt>
    <trkpt lat="50.9635182" lon="6.8876921">
      <time>2021-02-01T16:14:34Z</time>
    </trkpt>
    <trkpt lat="50.9635025" lon="6.8877473">
      <time>2021-02-01T16:14:36Z</time>
    </trkpt>
    <trkpt lat="50.9634972" lon="6.8878060">
      <time>2021-02-01T16:14:38Z</time>
    </trkpt>
    <trkpt lat="50.9634904" lon="6.8879231">
      <time>2021-02-01T16:14:42Z</time>
    </trkpt>
    <trkpt lat="50.9634734" lon="6.8879531">
      <time>2021-02-01T16:14:43Z</time>
    </trkpt>
    <trkpt lat="50.9634634" lon="6.8879869">
      <time>2021-02-01T16:14:44Z</time>
    </trkpt>
    <trkpt lat="50.9634307" lon="6.8881009">
      <time>2021-02-01T16:14:47Z</time>
    </trkpt>
    <trkpt lat="50.9632929" lon="6.8883217">
      <time>2021-02-01T16:14:56Z</time>
    </trkpt>
    <trkpt lat="50.9631823" lon="6.8885386">
      <time>2021-02-01T16:15:04Z</time>
    </trkpt>
    <trkpt lat="50.9631090" lon="6.8886267">
      <time>2021-02-01T16:15:08Z</time>
    </trkpt>
    <trkpt lat="50.9630514" lon="6.8887001">
      <time>2021-02-01T16:15:11Z</time>
    </trkpt>
    <trkpt lat="50.9630391" lon="6.8887270">
      <time>2021-02-01T16:15:12Z</time>
    </trkpt>
    <trkpt lat="50.9630230" lon="6.8887868">
      <time>2021-02-01T16:15:14Z</time>
    </trkpt>
    <trkpt lat="50.9629964" lon="6.8888296">
      <time>2021-02-01T16:15:16Z</time>
    </trkpt>
    <trkpt lat="50.9629530" lon="6.8889629">
      <time>2021-02-01T16:15:21Z</time>
    </trkpt>
    <trkpt lat="50.9629455" lon="6.8889923">
      <time>2021-02-01T16:15:22Z</time>
    </trkpt>
    <trkpt lat="50.9629173" lon="6.8890741">
      <time>2021-02-01T16:15:25Z</time>
    </trkpt>
    <trkpt lat="50.9628946" lon="6.8891236">
      <time>2021-02-01T16:15:27Z</time>
    </trkpt>
    <trkpt lat="50.9628122" lon="6.8893191">
      <time>2021-02-01T16:15:34Z</time>
    </trkpt>
    <trkpt lat="50.9627096" lon="6.8894949">
      <time>2021-02-01T16:15:41Z</time>
    </trkpt>
    <trkpt lat="50.9626372" lon="6.8895968">
      <time>2021-02-01T16:15:45Z</time>
    </trkpt>
    <trkpt lat="50.9625673" lon="6.8896892">
      <time>2021-02-01T16:15:48Z</time>
    </trkpt>
    <trkpt lat="50.9624312" lon="6.8899215">
      <time>2021-02-01T16:15:54Z</time>
    </trkpt>
    <trkpt lat="50.9624204" lon="6.8899396">
      <time>2021-02-01T16:15:55Z</time>
    </trkpt>
    <trkpt lat="50.9623818" lon="6.8900345">
      <time>2021-02-01T16:16:00Z</time>
    </trkpt>
    <trkpt lat="50.9623812" lon="6.8900519">
      <time>2021-02-01T16:16:01Z</time>
    </trkpt>
    <trkpt lat="50.9623688" lon="6.8900805">
      <time>2021-02-01T16:16:03Z</time>
    </trkpt>
    <trkpt lat="50.9623053" lon="6.8901626">
      <time>2021-02-01T16:16:08Z</time>
    </trkpt>
    <trkpt lat="50.9622427" lon="6.8903220">
      <time>2021-02-01T16:16:15Z</time>
    </trkpt>
    <trkpt lat="50.9621624" lon="6.8904640">
      <time>2021-02-01T16:16:21Z</time>
    </trkpt>
    <trkpt lat="50.9621465" lon="6.8905332">
      <time>2021-02-01T16:16:24Z</time>
    </trkpt>
    <trkpt lat="50.9621688" lon="6.8905955">
      <time>2021-02-01T16:16:26Z</time>
    </trkpt>
    <trkpt lat="50.9621887" lon="6.8907131">
      <time>2021-02-01T16:16:30Z</time>
    </trkpt>
    <trkpt lat="50.9621985" lon="6.8907706">
      <time>2021-02-01T16:16:32Z</time>
    </trkpt>
    <trkpt lat="50.9622010" lon="6.8908254">
      <time>2021-02-01T16:16:34Z</time>
    </trkpt>
    <trkpt lat="50.9622009" lon="6.8908516">
      <time>2021-02-01T16:16:35Z</time>
    </trkpt>
    <trkpt lat="50.9621906" lon="6.8908752">
      <time>2021-02-01T16:16:36Z</time>
    </trkpt>
    <trkpt lat="50.9621075" lon="6.8909690">
      <time>2021-02-01T16:16:40Z</time>
    </trkpt>
    <trkpt lat="50.9620530" lon="6.8911235">
      <time>2021-02-01T16:16:46Z</time>
    </trkpt>
    <trkpt lat="50.9620216" lon="6.8911894">
      <time>2021-02-01T16:16:49Z</time>
    </trkpt>
    <trkpt lat="50.9619989" lon="6.8912563">
      <time>2021-02-01T16:16:52Z</time>
    </trkpt>
    <trkpt lat="50.9619813" lon="6.8913304">
      <time>2021-02-01T16:16:55Z</time>
    </trkpt>
    <trkpt lat="50.9619293" lon="6.8914768">
      <time>2021-02-01T16:17:01Z</time>
    </trkpt>
    <trkpt lat="50.9619204" lon="6.8915222">
      <time>2021-02-01T16:17:03Z</time>
    </trkpt>
    <trkpt lat="50.9619088" lon="6.8915721">
      <time>2021-02-01T16:17:05Z</time>
    </trkpt>
    <trkpt lat="50.9618863" lon="6.8916771">
      <time>2021-02-01T16:17:09Z</time>
    </trkpt>
    <trkpt lat="50.9618440" lon="6.8917240">
      <time>2021-02-01T16:17:11Z</time>
    </trkpt>
    <trkpt lat="50.9618072" lon="6.8917605">
      <time>2021-02-01T16:17:13Z</time>
    </trkpt>
    <trkpt lat="50.9618011" lon="6.8918149">
      <time>2021-02-01T16:17:15Z</time>
    </trkpt>
    <trkpt lat="50.9618024" lon="6.8918463">
      <time>2021-02-01T16:17:16Z</time>
    </trkpt>
    <trkpt lat="50.9617476" lon="6.8920228">
      <time>2021-02-01T16:17:23Z</time>
    </trkpt>
    <trkpt lat="50.9617226" lon="6.8920687">
      <time>2021-02-01T16:17:25Z</time>
    </trkpt>
    <trkpt lat="50.9616917" lon="6.8921154">
      <time>2021-02-01T16:17:27Z</time>
    </trkpt>
    <trkpt lat="50.9616544" lon="6.8921897">
      <time>2021-02-01T16:17:30Z</time>
    </trkpt>
    <trkpt lat="50.9616254" lon="6.8922413">
      <time>2021-02-01T16:17:32Z</time>
    </trkpt>
    <trkpt lat="50.9615446" lon="6.8923617">
      <time>2021-02-01T16:17:37Z</time>
    </trkpt>
    <trkpt lat="50.9614740" lon="6.8924840">
      <time>2021-02-01T16:17:43Z</time>
    </trkpt>
    <trkpt lat="50.9613237" lon="6.8924458">
      <time>2021-02-01T16:17:48Z</time>
    </trkpt>
    <trkpt lat="50.9611966" lon="6.8923104">
      <time>2021-02-01T16:17:55Z</time>
    </trkpt>
    <trkpt lat="50.9611836" lon="6.8922828">
      <time>2021-02-01T16:17:56Z</time>
    </trkpt>
    <trkpt lat="50.9610596" lon="6.8921729">
      <time>2021-02-01T16:18:01Z</time>
    </trkpt>
    <trkpt lat="50.9610391" lon="6.8921433">
      <time>2021-02-01T16:18:02Z</time>
    </trkpt>
    <trkpt lat="50.9610009" lon="6.8920836">
      <time>2021-02-01T16:18:04Z</time>
    </trkpt>
    <trkpt lat="50.9609372" lon="6.8919757">
      <time>2021-02-01T16:18:08Z</time>
    </trkpt>
    <trkpt lat="50.9609147" lon="6.8919537">
      <time>2021-02-01T16:18:09Z</time>
    </trkpt>
    <trkpt lat="50.9608671" lon="6.8919097">
      <time>2021-02-01T16:18:11Z</time>
    </trkpt>
    <trkpt lat="50.9607942" lon="6.8918517">
      <time>2021-02-01T16:18:14Z</time>
    </trkpt>
    <trkpt lat="50.9607330" lon="6.8918232">
      <time>2021-02-01T16:18:16Z</time>
    </trkpt>
    <trkpt lat="50.9606812" lon="6.8917740">
      <time>2021-02-01T16:18:18Z</time>
    </trkpt>
    <trkpt lat="50.9606659" lon="6.8917501">
      <time>2021-02-01T16:18:19Z</time>
    </trkpt>
    <trkpt lat="50.9606402" lon="6.8917367">
      <time>2021-02-01T16:18:20Z</time>
    </trkpt>
    <trkpt lat="50.9605863" lon="6.8916906">
      <time>2021-02-01T16:18:23Z</time>
    </trkpt>
    <trkpt lat="50.9604761" lon="6.8915491">
      <time>2021-02-01T16:18:30Z</time>
    </trkpt>
    <trkpt lat="50.9604498" lon="6.8915057">
      <time>2021-02-01T16:18:32Z</time>
    </trkpt>
    <trkpt lat="50.9604205" lon="6.8914521">
      <time>2021-02-01T16:18:35Z</time>
    </trkpt>
    <trkpt lat="50.9604245" lon="6.8914136">
      <time>2021-02-01T16:18:36Z</time>
    </trkpt>
    <trkpt lat="50.9604372" lon="6.8912936">
      <time>2021-02-01T16:18:39Z</time>
    </trkpt>
    <trkpt lat="50.9603832" lon="6.8911323">
      <time>2021-02-01T16:18:45Z</time>
    </trkpt>
    <trkpt lat="50.9603628" lon="6.8910906">
      <time>2021-02-01T16:18:47Z</time>
    </trkpt>
    <trkpt lat="50.9603303" lon="6.8910199">
      <time>2021-02-01T16:18:50Z</time>
    </trkpt>
    <trkpt lat="50.9602695" lon="6.8909266">
      <time>2021-02-01T16:18:54Z</time>
    </trkpt>
    <trkpt lat="50.9602361" lon="6.8908809">
      <time>2021-02-01T16:18:56Z</time>
    </trkpt>
    <trkpt lat="50.9601952" lon="6.8907610">
      <time>2021-02-01T16:19:01Z</time>
    </trkpt>
    <trkpt lat="50.9601858" lon="6.8907377">
      <time>2021-02-01T16:19:02Z</time>
    </trkpt>
    <trkpt lat="50.9601416" lon="6.8905418">
      <time>2021-02-01T16:19:08Z</time>
    </trkpt>
    <trkpt lat="50.9601294" lon="6.8904960">
      <time>2021-02-01T16:19:10Z</time>
    </trkpt>
    <trkpt lat="50.9600999" lon="6.8904059">
      <time>2021-02-01T16:19:13Z</time>
    </trkpt>
    <trkpt lat="50.9600982" lon="6.8903654">
      <time>2021-02-01T16:19:14Z</time>
    </trkpt>
    <trkpt lat="50.9600933" lon="6.8902485">
      <time>2021-02-01T16:19:17Z</time>
    </trkpt>
    <trkpt lat="50.9601440" lon="6.8899702">
      <time>2021-02-01T16:19:24Z</time>
    </trkpt>
    <trkpt lat="50.9602020" lon="6.8897131">
      <time>2021-02-01T16:19:31Z</time>
    </trkpt>
    <trkpt lat="50.9602485" lon="6.8895792">
      <time>2021-02-01T16:19:37Z</time>
    </trkpt>
    <trkpt lat="50.9602670" lon="6.8895848">
      <time>2021-02-01T16:19:39Z</time>
    </trkpt>
    <trkpt lat="50.9604267" lon="6.8882748">
      <time>2021-02-01T16:20:14Z</time>
    </trkpt>
    <trkpt lat="50.9604803" lon="6.8882609">
      <time>2021-02-01T16:20:15Z</time>
    </trkpt>
    <trkpt lat="50.9604250" lon="6.8879770">
      <time>2021-02-01T16:20:23Z</time>
    </trkpt>
    <trkpt lat="50.9604299" lon="6.8878451">
      <time>2021-02-01T16:20:28Z</time>
    </trkpt>
    <trkpt lat="50.9604219" lon="6.8878178">
      <time>2021-02-01T16:20:29Z</time>
    </trkpt>
    <trkpt lat="50.9603922" lon="6.8876321">
      <time>2021-02-01T16:20:36Z</time>
    </trkpt>
    <trkpt lat="50.9603848" lon="6.8875035">
      <time>2021-02-01T16:20:41Z</time>
    </trkpt>
    <trkpt lat="50.9603855" lon="6.8874238">
      <time>2021-02-01T16:20:44Z</time>
    </trkpt>
    <trkpt lat="50.9603758" lon="6.8873471">
      <time>2021-02-01T16:20:47Z</time>
    </trkpt>
    <trkpt lat="50.9603522" lon="6.8873331">
      <time>2021-02-01T16:20:49Z</time>
    </trkpt>
    <trkpt lat="50.9603375" lon="6.8873323">
      <time>2021-02-01T16:20:50Z</time>
    </trkpt>
    <trkpt lat="50.9603027" lon="6.8873169">
      <time>2021-02-01T16:20:52Z</time>
    </trkpt>
    <trkpt lat="50.9602924" lon="6.8872887">
      <time>2021-02-01T16:20:53Z</time>
    </trkpt>
    <trkpt lat="50.9602702" lon="6.8870523">
      <time>2021-02-01T16:21:00Z</time>
    </trkpt>
    <trkpt lat="50.9602418" lon="6.8868335">
      <time>2021-02-01T16:21:07Z</time>
    </trkpt>
    <trkpt lat="50.9602496" lon="6.8866670">
      <time>2021-02-01T16:21:13Z</time>
    </trkpt>
    <trkpt lat="50.9601797" lon="6.8865862">
      <time>2021-02-01T16:21:17Z</time>
    </trkpt>
    <trkpt lat="50.9601506" lon="6.8865381">
      <time>2021-02-01T16:21:19Z</time>
    </trkpt>
    <trkpt lat="50.9601263" lon="6.8864519">
      <time>2021-02-01T16:21:22Z</time>
    </trkpt>
    <trkpt lat="50.9600870" lon="6.8862140">
      <time>2021-02-01T16:21:29Z</time>
    </trkpt>
    <trkpt lat="50.9599893" lon="6.8860764">
      <time>2021-02-01T16:21:36Z</time>
    </trkpt>
    <trkpt lat="50.9599781" lon="6.8860556">
      <time>2021-02-01T16:21:37Z</time>
    </trkpt>
    <trkpt lat="50.9599493" lon="6.8859768">
      <time>2021-02-01T16:21:41Z</time>
    </trkpt>
    <trkpt lat="50.9599706" lon="6.8859530">
      <time>2021-02-01T16:21:42Z</time>
    </trkpt>
    <trkpt lat="50.9600527" lon="6.8859039">
      <time>2021-02-01T16:21:46Z</time>
    </trkpt>
    <trkpt lat="50.9601067" lon="6.8858752">
      <time>2021-02-01T16:21:49Z</time>
    </trkpt>
    <trkpt lat="50.9602684" lon="6.8858227">
      <time>2021-02-01T16:21:58Z</time>
    </trkpt>
    <trkpt lat="50.9603640" lon="6.8858261">
      <time>2021-02-01T16:22:04Z</time>
    </trkpt>
    <trkpt lat="50.9603946" lon="6.8858110">
      <time>2021-02-01T16:22:06Z</time>
    </trkpt>
    <trkpt lat="50.9605672" lon="6.8856838">
      <time>2021-02-01T16:22:15Z</time>
    </trkpt>
    <trkpt lat="50.9607122" lon="6.8856576">
      <time>2021-02-01T16:22:22Z</time>
    </trkpt>
    <trkpt lat="50.9608015" lon="6.8856468">
      <time>2021-02-01T16:22:26Z</time>
    </trkpt>
    <trkpt lat="50.9608807" lon="6.8856392">
      <time>2021-02-01T16:22:29Z</time>
    </trkpt>
    <trkpt lat="50.9610627" lon="6.8855949">
      <time>2021-02-01T16:22:37Z</time>
    </trkpt>
    <trkpt lat="50.9611064" lon="6.8855831">
      <time>2021-02-01T16:22:39Z</time>
    </trkpt>
    <trkpt lat="50.9612862" lon="6.8854998">
      <time>2021-02-01T16:22:48Z</time>
    </trkpt>
    <trkpt lat="50.9613053" lon="6.8854884">
      <time>2021-02-01T16:22:49Z</time>
    </trkpt>
    <trkpt lat="50.9614091" lon="6.8853560">
      <time>2021-02-01T16:22:55Z</time>
    </trkpt>
    <trkpt lat="50.9615789" lon="6.8852007">
      <time>2021-02-01T16:23:06Z</time>
    </trkpt>
    <trkpt lat="50.9616453" lon="6.8851495">
      <time>2021-02-01T16:23:10Z</time>
    </trkpt>
    <trkpt lat="50.9617149" lon="6.8850575">
      <time>2021-02-01T16:23:15Z</time>
    </trkpt>
    <trkpt lat="50.9618829" lon="6.8849895">
      <time>2021-02-01T16:23:24Z</time>
    </trkpt>
    <trkpt lat="50.9620023" lon="6.8848851">
      <time>2021-02-01T16:23:32Z</time>
    </trkpt>
    <trkpt lat="50.9619978" lon="6.8848670">
      <time>2021-02-01T16:23:33Z</time>
    </trkpt>
    <trkpt lat="50.9620044" lon="6.8848145">
      <time>2021-02-01T16:23:37Z</time>
    </trkpt>
    <trkpt lat="50.9620004" lon="6.8846528">
      <time>2021-02-01T16:23:42Z</time>
    </trkpt>
    <trkpt lat="50.9620051" lon="6.8844871">
      <time>2021-02-01T16:23:48Z</time>
    </trkpt>
    <trkpt lat="50.9620200" lon="6.8844255">
      <time>2021-02-01T16:23:50Z</time>
    </trkpt>
    <trkpt lat="50.9619975" lon="6.8842305">
      <time>2021-02-01T16:23:57Z</time>
    </trkpt>
    <trkpt lat="50.9619535" lon="6.8840732">
      <time>2021-02-01T16:24:04Z</time>
    </trkpt>
    <trkpt lat="50.9619123" lon="6.8839032">
      <time>2021-02-01T16:24:10Z</time>
    </trkpt>
    <trkpt lat="50.9618827" lon="6.8837644">
      <time>2021-02-01T16:24:15Z</time>
    </trkpt>
    <trkpt lat="50.9618343" lon="6.8835850">
      <time>2021-02-01T16:24:22Z</time>
    </trkpt>
    <trkpt lat="50.9617513" lon="6.8833015">
      <time>2021-02-01T16:24:33Z</time>
    </trkpt>
    <trkpt lat="50.9616627" lon="6.8830374">
      <time>2021-02-01T16:24:44Z</time>
    </trkpt>
    <trkpt lat="50.9616233" lon="6.8828615">
      <time>2021-02-01T16:24:51Z</time>
    </trkpt>
    <trkpt lat="50.9616222" lon="6.8828362">
      <time>2021-02-01T16:24:52Z</time>
    </trkpt>
    <trkpt lat="50.9615731" lon="6.8826452">
      <time>2021-02-01T16:25:00Z</time>
    </trkpt>
    <trkpt lat="50.9615361" lon="6.8824927">
      <time>2021-02-01T16:25:06Z</time>
    </trkpt>
    <trkpt lat="50.9614997" lon="6.8822956">
      <time>2021-02-01T16:25:13Z</time>
    </trkpt>
    <trkpt lat="50.9614303" lon="6.8820550">
      <time>2021-02-01T16:25:23Z</time>
    </trkpt>
    <trkpt lat="50.9613538" lon="6.8818144">
      <time>2021-02-01T16:25:33Z</time>
    </trkpt>
    <trkpt lat="50.9612950" lon="6.8815919">
      <time>2021-02-01T16:25:42Z</time>
    </trkpt>
    <trkpt lat="50.9612290" lon="6.8813807">
      <time>2021-02-01T16:25:51Z</time>
    </trkpt>
    <trkpt lat="50.9611789" lon="6.8812122">
      <time>2021-02-01T16:25:58Z</time>
    </trkpt>
    <trkpt lat="50.9611341" lon="6.8810168">
      <time>2021-02-01T16:26:05Z</time>
    </trkpt>
    <trkpt lat="50.9610803" lon="6.8807676">
      <time>2021-02-01T16:26:14Z</time>
    </trkpt>
    <trkpt lat="50.9610268" lon="6.8805790">
      <time>2021-02-01T16:26:21Z</time>
    </trkpt>
    <trkpt lat="50.9609546" lon="6.8803265">
      <time>2021-02-01T16:26:30Z</time>
    </trkpt>
    <trkpt lat="50.9608840" lon="6.8800764">
      <time>2021-02-01T16:26:39Z</time>
    </trkpt>
    <trkpt lat="50.9608497" lon="6.8799425">
      <time>2021-02-01T16:26:44Z</time>
    </trkpt>
    <trkpt lat="50.9608386" lon="6.8798908">
      <time>2021-02-01T16:26:46Z</time>
    </trkpt>
    <trkpt lat="50.9607990" lon="6.8796425">
      <time>2021-02-01T16:26:55Z</time>
    </trkpt>
    <trkpt lat="50.9607804" lon="6.8794158">
      <time>2021-02-01T16:27:03Z</time>
    </trkpt>
    <trkpt lat="50.9607946" lon="6.8791993">
      <time>2021-02-01T16:27:10Z</time>
    </trkpt>
    <trkpt lat="50.9608190" lon="6.8790791">
      <time>2021-02-01T16:27:14Z</time>
    </trkpt>
    <trkpt lat="50.9608923" lon="6.8789042">
      <time>2021-02-01T16:27:21Z</time>
    </trkpt>
    <trkpt lat="50.9609600" lon="6.8787258">
      <time>2021-02-01T16:27:28Z</time>
    </trkpt>
    <trkpt lat="50.9610698" lon="6.8785712">
      <time>2021-02-01T16:27:36Z</time>
    </trkpt>
    <trkpt lat="50.9611206" lon="6.8784708">
      <time>2021-02-01T16:27:42Z</time>
    </trkpt>
    <trkpt lat="50.9612668" lon="6.8784026">
      <time>2021-02-01T16:27:50Z</time>
    </trkpt>
    <trkpt lat="50.9614136" lon="6.8784554">
      <time>2021-02-01T16:27:57Z</time>
    </trkpt>
    <trkpt lat="50.9615426" lon="6.8784987">
      <time>2021-02-01T16:28:05Z</time>
    </trkpt>
    <trkpt lat="50.9616830" lon="6.8785309">
      <time>2021-02-01T16:28:12Z</time>
    </trkpt>
    <trkpt lat="50.9618077" lon="6.8785938">
      <time>2021-02-01T16:28:19Z</time>
    </trkpt>
    <trkpt lat="50.9619856" lon="6.8786717">
      <time>2021-02-01T16:28:28Z</time>
    </trkpt>
    <trkpt lat="50.9621644" lon="6.8787418">
      <time>2021-02-01T16:28:38Z</time>
    </trkpt>
    <trkpt lat="50.9623316" lon="6.8788063">
      <time>2021-02-01T16:28:47Z</time>
    </trkpt>
    <trkpt lat="50.9624794" lon="6.8788828">
      <time>2021-02-01T16:28:55Z</time>
    </trkpt>
    <trkpt lat="50.9626139" lon="6.8789480">
      <time>2021-02-01T16:29:02Z</time>
    </trkpt>
    <trkpt lat="50.9626320" lon="6.8789564">
      <time>2021-02-01T16:29:03Z</time>
    </trkpt>
    <trkpt lat="50.9627345" lon="6.8789982">
      <time>2021-02-01T16:29:08Z</time>
    </trkpt>
    <trkpt lat="50.9628210" lon="6.8791163">
      <time>2021-02-01T16:29:14Z</time>
    </trkpt>
    <trkpt lat="50.9628294" lon="6.8791769">
      <time>2021-02-01T16:29:16Z</time>
    </trkpt>
    <trkpt lat="50.9628161" lon="6.8792894">
      <time>2021-02-01T16:29:20Z</time>
    </trkpt>
    <trkpt lat="50.9627827" lon="6.8794552">
      <time>2021-02-01T16:29:25Z</time>
    </trkpt>
    <trkpt lat="50.9627839" lon="6.8794800">
      <time>2021-02-01T16:29:26Z</time>
    </trkpt>
    <trkpt lat="50.9627790" lon="6.8795062">
      <time>2021-02-01T16:29:27Z</time>
    </trkpt>
    <trkpt lat="50.9627616" lon="6.8796203">
      <time>2021-02-01T16:29:31Z</time>
    </trkpt>
    <trkpt lat="50.9627398" lon="6.8797904">
      <time>2021-02-01T16:29:37Z</time>
    </trkpt>
    <trkpt lat="50.9627047" lon="6.8799654">
      <time>2021-02-01T16:29:43Z</time>
    </trkpt>
    <trkpt lat="50.9627069" lon="6.8801713">
      <time>2021-02-01T16:29:50Z</time>
    </trkpt>
    <trkpt lat="50.9626909" lon="6.8803933">
      <time>2021-02-01T16:29:58Z</time>
    </trkpt>
    <trkpt lat="50.9626540" lon="6.8806467">
      <time>2021-02-01T16:30:07Z</time>
    </trkpt>
    <trkpt lat="50.9626178" lon="6.8808582">
      <time>2021-02-01T16:30:14Z</time>
    </trkpt>
    <trkpt lat="50.9625863" lon="6.8810253">
      <time>2021-02-01T16:30:20Z</time>
    </trkpt>
    <trkpt lat="50.9625847" lon="6.8810514">
      <time>2021-02-01T16:30:21Z</time>
    </trkpt>
    <trkpt lat="50.9625841" lon="6.8812367">
      <time>2021-02-01T16:30:27Z</time>
    </trkpt>
    <trkpt lat="50.9625690" lon="6.8814786">
      <time>2021-02-01T16:30:36Z</time>
    </trkpt>
    <trkpt lat="50.9625516" lon="6.8816351">
      <time>2021-02-01T16:30:42Z</time>
    </trkpt>
    <trkpt lat="50.9625050" lon="6.8818380">
      <time>2021-02-01T16:30:50Z</time>
    </trkpt>
    <trkpt lat="50.9624584" lon="6.8820737">
      <time>2021-02-01T16:30:58Z</time>
    </trkpt>
    <trkpt lat="50.9624248" lon="6.8822840">
      <time>2021-02-01T16:31:06Z</time>
    </trkpt>
    <trkpt lat="50.9623904" lon="6.8825411">
      <time>2021-02-01T16:31:16Z</time>
    </trkpt>
    <trkpt lat="50.9623673" lon="6.8826923">
      <time>2021-02-01T16:31:22Z</time>
    </trkpt>
    <trkpt lat="50.9623620" lon="6.8827169">
      <time>2021-02-01T16:31:23Z</time>
    </trkpt>
    <trkpt lat="50.9623307" lon="6.8828301">
      <time>2021-02-01T16:31:28Z</time>
    </trkpt>
    <trkpt lat="50.9622653" lon="6.8830409">
      <time>2021-02-01T16:31:36Z</time>
    </trkpt>
    <trkpt lat="50.9622121" lon="6.8832544">
      <time>2021-02-01T16:31:43Z</time>
    </trkpt>
    <trkpt lat="50.9622031" lon="6.8834155">
      <time>2021-02-01T16:31:49Z</time>
    </trkpt>
    <trkpt lat="50.9621938" lon="6.8834497">
      <time>2021-02-01T16:31:50Z</time>
    </trkpt>
    <trkpt lat="50.9621722" lon="6.8836418">
      <time>2021-02-01T16:31:57Z</time>
    </trkpt>
    <trkpt lat="50.9621653" lon="6.8837234">
      <time>2021-02-01T16:32:00Z</time>
    </trkpt>
    <trkpt lat="50.9621605" lon="6.8837738">
      <time>2021-02-01T16:32:02Z</time>
    </trkpt>
    <trkpt lat="50.9621303" lon="6.8839619">
      <time>2021-02-01T16:32:09Z</time>
    </trkpt>
    <trkpt lat="50.9620657" lon="6.8842070">
      <time>2021-02-01T16:32:17Z</time>
    </trkpt>
    <trkpt lat="50.9620511" lon="6.8843246">
      <time>2021-02-01T16:32:23Z</time>
    </trkpt>
    <trkpt lat="50.9620259" lon="6.8843168">
      <time>2021-02-01T16:32:24Z</time>
    </trkpt>
    <trkpt lat="50.9620068" lon="6.8842953">
      <time>2021-02-01T16:32:25Z</time>
    </trkpt>
    <trkpt lat="50.9619778" lon="6.8842235">
      <time>2021-02-01T16:32:28Z</time>
    </trkpt>
    <trkpt lat="50.9619058" lon="6.8839966">
      <time>2021-02-01T16:32:37Z</time>
    </trkpt>
    <trkpt lat="50.9618547" lon="6.8836842">
      <time>2021-02-01T16:32:46Z</time>
    </trkpt>
    <trkpt lat="50.9618505" lon="6.8836599">
      <time>2021-02-01T16:32:47Z</time>
    </trkpt>
    <trkpt lat="50.9617806" lon="6.8833952">
      <time>2021-02-01T16:32:57Z</time>
    </trkpt>
    <trkpt lat="50.9617714" lon="6.8833688">
      <time>2021-02-01T16:32:58Z</time>
    </trkpt>
    <trkpt lat="50.9617026" lon="6.8831393">
      <time>2021-02-01T16:33:07Z</time>
    </trkpt>
    <trkpt lat="50.9616436" lon="6.8828534">
      <time>2021-02-01T16:33:17Z</time>
    </trkpt>
    <trkpt lat="50.9616363" lon="6.8828289">
      <time>2021-02-01T16:33:18Z</time>
    </trkpt>
    <trkpt lat="50.9615763" lon="6.8826491">
      <time>2021-02-01T16:33:25Z</time>
    </trkpt>
    <trkpt lat="50.9615010" lon="6.8824572">
      <time>2021-02-01T16:33:33Z</time>
    </trkpt>
    <trkpt lat="50.9614659" lon="6.8822523">
      <time>2021-02-01T16:33:40Z</time>
    </trkpt>
    <trkpt lat="50.9614301" lon="6.8820416">
      <time>2021-02-01T16:33:47Z</time>
    </trkpt>
    <trkpt lat="50.9614141" lon="6.8819865">
      <time>2021-02-01T16:33:49Z</time>
    </trkpt>
    <trkpt lat="50.9613674" lon="6.8818235">
      <time>2021-02-01T16:33:55Z</time>
    </trkpt>
    <trkpt lat="50.9613275" lon="6.8816138">
      <time>2021-02-01T16:34:02Z</time>
    </trkpt>
    <trkpt lat="50.9612655" lon="6.8813908">
      <time>2021-02-01T16:34:10Z</time>
    </trkpt>
    <trkpt lat="50.9611801" lon="6.8811100">
      <time>2021-02-01T16:34:20Z</time>
    </trkpt>
    <trkpt lat="50.9611700" lon="6.8810788">
      <time>2021-02-01T16:34:21Z</time>
    </trkpt>
    <trkpt lat="50.9611007" lon="6.8808305">
      <time>2021-02-01T16:34:30Z</time>
    </trkpt>
    <trkpt lat="50.9610387" lon="6.8805951">
      <time>2021-02-01T16:34:39Z</time>
    </trkpt>
    <trkpt lat="50.9610305" lon="6.8805675">
      <time>2021-02-01T16:34:40Z</time>
    </trkpt>
    <trkpt lat="50.9609931" lon="6.8804583">
      <time>2021-02-01T16:34:44Z</time>
    </trkpt>
    <trkpt lat="50.9609424" lon="6.8803004">
      <time>2021-02-01T16:34:50Z</time>
    </trkpt>
    <trkpt lat="50.9608878" lon="6.8800736">
      <time>2021-02-01T16:34:58Z</time>
    </trkpt>
    <trkpt lat="50.9608139" lon="6.8798082">
      <time>2021-02-01T16:35:07Z</time>
    </trkpt>
    <trkpt lat="50.9607692" lon="6.8795768">
      <time>2021-02-01T16:35:15Z</time>
    </trkpt>
    <trkpt lat="50.9607449" lon="6.8793308">
      <time>2021-02-01T16:35:23Z</time>
    </trkpt>
    <trkpt lat="50.9607823" lon="6.8790853">
      <time>2021-02-01T16:35:31Z</time>
    </trkpt>
    <trkpt lat="50.9608593" lon="6.8788548">
      <time>2021-02-01T16:35:40Z</time>
    </trkpt>
    <trkpt lat="50.9609311" lon="6.8787221">
      <time>2021-02-01T16:35:47Z</time>
    </trkpt>
    <trkpt lat="50.9610121" lon="6.8785913">
      <time>2021-02-01T16:35:54Z</time>
    </trkpt>
    <trkpt lat="50.9610214" lon="6.8785718">
      <time>2021-02-01T16:35:55Z</time>
    </trkpt>
    <trkpt lat="50.9610866" lon="6.8784824">
      <time>2021-02-01T16:36:01Z</time>
    </trkpt>
    <trkpt lat="50.9612411" lon="6.8783782">
      <time>2021-02-01T16:36:09Z</time>
    </trkpt>
    <trkpt lat="50.9613720" lon="6.8784228">
      <time>2021-02-01T16:36:16Z</time>
    </trkpt>
    <trkpt lat="50.9614764" lon="6.8784649">
      <time>2021-02-01T16:36:21Z</time>
    </trkpt>
    <trkpt lat="50.9615537" lon="6.8784904">
      <time>2021-02-01T16:36:25Z</time>
    </trkpt>
    <trkpt lat="50.9617185" lon="6.8785554">
      <time>2021-02-01T16:36:34Z</time>
    </trkpt>
    <trkpt lat="50.9617987" lon="6.8785849">
      <time>2021-02-01T16:36:39Z</time>
    </trkpt>
    <trkpt lat="50.9618418" lon="6.8785967">
      <time>2021-02-01T16:36:41Z</time>
    </trkpt>
    <trkpt lat="50.9619701" lon="6.8786601">
      <time>2021-02-01T16:36:49Z</time>
    </trkpt>
    <trkpt lat="50.9619935" lon="6.8786713">
      <time>2021-02-01T16:36:50Z</time>
    </trkpt>
    <trkpt lat="50.9621167" lon="6.8787144">
      <time>2021-02-01T16:36:56Z</time>
    </trkpt>
    <trkpt lat="50.9621570" lon="6.8787319">
      <time>2021-02-01T16:36:58Z</time>
    </trkpt>
    <trkpt lat="50.9622981" lon="6.8787954">
      <time>2021-02-01T16:37:06Z</time>
    </trkpt>
    <trkpt lat="50.9623227" lon="6.8787988">
      <time>2021-02-01T16:37:07Z</time>
    </trkpt>
    <trkpt lat="50.9624334" lon="6.8788485">
      <time>2021-02-01T16:37:13Z</time>
    </trkpt>
    <trkpt lat="50.9625398" lon="6.8788895">
      <time>2021-02-01T16:37:18Z</time>
    </trkpt>
    <trkpt lat="50.9625817" lon="6.8789063">
      <time>2021-02-01T16:37:20Z</time>
    </trkpt>
    <trkpt lat="50.9627505" lon="6.8790048">
      <time>2021-02-01T16:37:28Z</time>
    </trkpt>
    <trkpt lat="50.9627666" lon="6.8790162">
      <time>2021-02-01T16:37:29Z</time>
    </trkpt>
    <trkpt lat="50.9628090" lon="6.8790787">
      <time>2021-02-01T16:37:32Z</time>
    </trkpt>
    <trkpt lat="50.9628333" lon="6.8791705">
      <time>2021-02-01T16:37:35Z</time>
    </trkpt>
    <trkpt lat="50.9628324" lon="6.8792470">
      <time>2021-02-01T16:37:38Z</time>
    </trkpt>
    <trkpt lat="50.9628241" lon="6.8793044">
      <time>2021-02-01T16:37:40Z</time>
    </trkpt>
    <trkpt lat="50.9628002" lon="6.8795503">
      <time>2021-02-01T16:37:48Z</time>
    </trkpt>
    <trkpt lat="50.9627557" lon="6.8797220">
      <time>2021-02-01T16:37:54Z</time>
    </trkpt>
    <trkpt lat="50.9627396" lon="6.8799599">
      <time>2021-02-01T16:38:02Z</time>
    </trkpt>
    <trkpt lat="50.9627039" lon="6.8802425">
      <time>2021-02-01T16:38:11Z</time>
    </trkpt>
    <trkpt lat="50.9626971" lon="6.8802731">
      <time>2021-02-01T16:38:12Z</time>
    </trkpt>
    <trkpt lat="50.9626525" lon="6.8805710">
      <time>2021-02-01T16:38:22Z</time>
    </trkpt>
    <trkpt lat="50.9626472" lon="6.8806309">
      <time>2021-02-01T16:38:24Z</time>
    </trkpt>
    <trkpt lat="50.9626433" lon="6.8808031">
      <time>2021-02-01T16:38:30Z</time>
    </trkpt>
    <trkpt lat="50.9626061" lon="6.8810407">
      <time>2021-02-01T16:38:38Z</time>
    </trkpt>
    <trkpt lat="50.9625892" lon="6.8812319">
      <time>2021-02-01T16:38:45Z</time>
    </trkpt>
    <trkpt lat="50.9625594" lon="6.8814500">
      <time>2021-02-01T16:38:53Z</time>
    </trkpt>
    <trkpt lat="50.9625161" lon="6.8816233">
      <time>2021-02-01T16:39:00Z</time>
    </trkpt>
    <trkpt lat="50.9624657" lon="6.8818349">
      <time>2021-02-01T16:39:08Z</time>
    </trkpt>
    <trkpt lat="50.9624288" lon="6.8820215">
      <time>2021-02-01T16:39:15Z</time>
    </trkpt>
    <trkpt lat="50.9624152" lon="6.8822068">
      <time>2021-02-01T16:39:22Z</time>
    </trkpt>
    <trkpt lat="50.9623778" lon="6.8824193">
      <time>2021-02-01T16:39:30Z</time>
    </trkpt>
    <trkpt lat="50.9623392" lon="6.8826062">
      <time>2021-02-01T16:39:38Z</time>
    </trkpt>
    <trkpt lat="50.9623302" lon="6.8826274">
      <time>2021-02-01T16:39:39Z</time>
    </trkpt>
    <trkpt lat="50.9623035" lon="6.8827456">
      <time>2021-02-01T16:39:44Z</time>
    </trkpt>
    <trkpt lat="50.9622737" lon="6.8828934">
      <time>2021-02-01T16:39:50Z</time>
    </trkpt>
    <trkpt lat="50.9622344" lon="6.8830583">
      <time>2021-02-01T16:39:57Z</time>
    </trkpt>
    <trkpt lat="50.9621939" lon="6.8832980">
      <time>2021-02-01T16:40:04Z</time>
    </trkpt>
    <trkpt lat="50.9621792" lon="6.8835311">
      <time>2021-02-01T16:40:11Z</time>
    </trkpt>
    <trkpt lat="50.9621548" lon="6.8836411">
      <time>2021-02-01T16:40:15Z</time>
    </trkpt>
    <trkpt lat="50.9621518" lon="6.8836949">
      <time>2021-02-01T16:40:17Z</time>
    </trkpt>
    <trkpt lat="50.9621131" lon="6.8839505">
      <time>2021-02-01T16:40:26Z</time>
    </trkpt>
    <trkpt lat="50.9620754" lon="6.8840893">
      <time>2021-02-01T16:40:31Z</time>
    </trkpt>
    <trkpt lat="50.9620770" lon="6.8841117">
      <time>2021-02-01T16:40:32Z</time>
    </trkpt>
    <trkpt lat="50.9620676" lon="6.8842221">
      <time>2021-02-01T16:40:37Z</time>
    </trkpt>
    <trkpt lat="50.9620613" lon="6.8842226">
      <time>2021-02-01T16:40:38Z</time>
    </trkpt>
    <trkpt lat="50.9620460" lon="6.8841915">
      <time>2021-02-01T16:40:40Z</time>
    </trkpt>
    <trkpt lat="50.9620094" lon="6.8840872">
      <time>2021-02-01T16:40:44Z</time>
    </trkpt>
    <trkpt lat="50.9619279" lon="6.8838274">
      <time>2021-02-01T16:40:53Z</time>
    </trkpt>
    <trkpt lat="50.9618418" lon="6.8835759">
      <time>2021-02-01T16:41:01Z</time>
    </trkpt>
    <trkpt lat="50.9617626" lon="6.8833310">
      <time>2021-02-01T16:41:10Z</time>
    </trkpt>
    <trkpt lat="50.9616798" lon="6.8830891">
      <time>2021-02-01T16:41:19Z</time>
    </trkpt>
    <trkpt lat="50.9616042" lon="6.8828129">
      <time>2021-02-01T16:41:29Z</time>
    </trkpt>
    <trkpt lat="50.9615741" lon="6.8827481">
      <time>2021-02-01T16:41:32Z</time>
    </trkpt>
    <trkpt lat="50.9615236" lon="6.8825490">
      <time>2021-02-01T16:41:39Z</time>
    </trkpt>
    <trkpt lat="50.9614654" lon="6.8822711">
      <time>2021-02-01T16:41:48Z</time>
    </trkpt>
    <trkpt lat="50.9614122" lon="6.8819995">
      <time>2021-02-01T16:41:57Z</time>
    </trkpt>
    <trkpt lat="50.9613968" lon="6.8819406">
      <time>2021-02-01T16:41:59Z</time>
    </trkpt>
    <trkpt lat="50.9613326" lon="6.8817258">
      <time>2021-02-01T16:42:07Z</time>
    </trkpt>
    <trkpt lat="50.9613078" lon="6.8816118">
      <time>2021-02-01T16:42:11Z</time>
    </trkpt>
    <trkpt lat="50.9612722" lon="6.8815121">
      <time>2021-02-01T16:42:15Z</time>
    </trkpt>
    <trkpt lat="50.9612182" lon="6.8812486">
      <time>2021-02-01T16:42:24Z</time>
    </trkpt>
    <trkpt lat="50.9611435" lon="6.8809720">
      <time>2021-02-01T16:42:34Z</time>
    </trkpt>
    <trkpt lat="50.9611220" lon="6.8808947">
      <time>2021-02-01T16:42:37Z</time>
    </trkpt>
    <trkpt lat="50.9610458" lon="6.8806302">
      <time>2021-02-01T16:42:46Z</time>
    </trkpt>
    <trkpt lat="50.9610364" lon="6.8806015">
      <time>2021-02-01T16:42:47Z</time>
    </trkpt>
    <trkpt lat="50.9609793" lon="6.8803734">
      <time>2021-02-01T16:42:55Z</time>
    </trkpt>
    <trkpt lat="50.9609014" lon="6.8800941">
      <time>2021-02-01T16:43:05Z</time>
    </trkpt>
    <trkpt lat="50.9608876" lon="6.8800475">
      <time>2021-02-01T16:43:07Z</time>
    </trkpt>
    <trkpt lat="50.9608170" lon="6.8797622">
      <time>2021-02-01T16:43:17Z</time>
    </trkpt>
    <trkpt lat="50.9608112" lon="6.8797340">
      <time>2021-02-01T16:43:18Z</time>
    </trkpt>
    <trkpt lat="50.9607824" lon="6.8795143">
      <time>2021-02-01T16:43:26Z</time>
    </trkpt>
    <trkpt lat="50.9607790" lon="6.8794781">
      <time>2021-02-01T16:43:27Z</time>
    </trkpt>
    <trkpt lat="50.9607656" lon="6.8792921">
      <time>2021-02-01T16:43:33Z</time>
    </trkpt>
    <trkpt lat="50.9607679" lon="6.8792717">
      <time>2021-02-01T16:43:34Z</time>
    </trkpt>
    <trkpt lat="50.9607967" lon="6.8790449">
      <time>2021-02-01T16:43:42Z</time>
    </trkpt>
    <trkpt lat="50.9608685" lon="6.8788824">
      <time>2021-02-01T16:43:49Z</time>
    </trkpt>
    <trkpt lat="50.9609047" lon="6.8787403">
      <time>2021-02-01T16:43:55Z</time>
    </trkpt>
    <trkpt lat="50.9609457" lon="6.8786751">
      <time>2021-02-01T16:43:59Z</time>
    </trkpt>
    <trkpt lat="50.9609732" lon="6.8786376">
      <time>2021-02-01T16:44:01Z</time>
    </trkpt>
    <trkpt lat="50.9611343" lon="6.8784687">
      <time>2021-02-01T16:44:11Z</time>
    </trkpt>
    <trkpt lat="50.9612913" lon="6.8783829">
      <time>2021-02-01T16:44:19Z</time>
    </trkpt>
    <trkpt lat="50.9614691" lon="6.8784438">
      <time>2021-02-01T16:44:27Z</time>
    </trkpt>
    <trkpt lat="50.9614897" lon="6.8784592">
      <time>2021-02-01T16:44:28Z</time>
    </trkpt>
    <trkpt lat="50.9616522" lon="6.8785124">
      <time>2021-02-01T16:44:36Z</time>
    </trkpt>
    <trkpt lat="50.9617146" lon="6.8785322">
      <time>2021-02-01T16:44:40Z</time>
    </trkpt>
    <trkpt lat="50.9617872" lon="6.8785483">
      <time>2021-02-01T16:44:44Z</time>
    </trkpt>
    <trkpt lat="50.9618069" lon="6.8785579">
      <time>2021-02-01T16:44:45Z</time>
    </trkpt>
    <trkpt lat="50.9618226" lon="6.8785662">
      <time>2021-02-01T16:44:46Z</time>
    </trkpt>
    <trkpt lat="50.9618868" lon="6.8785931">
      <time>2021-02-01T16:44:49Z</time>
    </trkpt>
    <trkpt lat="50.9620330" lon="6.8786704">
      <time>2021-02-01T16:44:57Z</time>
    </trkpt>
    <trkpt lat="50.9621496" lon="6.8787503">
      <time>2021-02-01T16:45:03Z</time>
    </trkpt>
    <trkpt lat="50.9621756" lon="6.8787604">
      <time>2021-02-01T16:45:04Z</time>
    </trkpt>
    <trkpt lat="50.9623522" lon="6.8788279">
      <time>2021-02-01T16:45:12Z</time>
    </trkpt>
    <trkpt lat="50.9625081" lon="6.8788757">
      <time>2021-02-01T16:45:20Z</time>
    </trkpt>
    <trkpt lat="50.9626242" lon="6.8789422">
      <time>2021-02-01T16:45:26Z</time>
    </trkpt>
    <trkpt lat="50.9627746" lon="6.8790271">
      <time>2021-02-01T16:45:34Z</time>
    </trkpt>
    <trkpt lat="50.9628459" lon="6.8791508">
      <time>2021-02-01T16:45:40Z</time>
    </trkpt>
    <trkpt lat="50.9628467" lon="6.8792316">
      <time>2021-02-01T16:45:43Z</time>
    </trkpt>
    <trkpt lat="50.9628340" lon="6.8792883">
      <time>2021-02-01T16:45:45Z</time>
    </trkpt>
    <trkpt lat="50.9628111" lon="6.8793520">
      <time>2021-02-01T16:45:47Z</time>
    </trkpt>
    <trkpt lat="50.9628156" lon="6.8794474">
      <time>2021-02-01T16:45:50Z</time>
    </trkpt>
    <trkpt lat="50.9628132" lon="6.8794697">
      <time>2021-02-01T16:45:51Z</time>
    </trkpt>
    <trkpt lat="50.9628109" lon="6.8795231">
      <time>2021-02-01T16:45:53Z</time>
    </trkpt>
    <trkpt lat="50.9628087" lon="6.8795514">
      <time>2021-02-01T16:45:54Z</time>
    </trkpt>
    <trkpt lat="50.9627952" lon="6.8796164">
      <time>2021-02-01T16:45:56Z</time>
    </trkpt>
    <trkpt lat="50.9627889" lon="6.8797298">
      <time>2021-02-01T16:46:00Z</time>
    </trkpt>
    <trkpt lat="50.9627475" lon="6.8799462">
      <time>2021-02-01T16:46:07Z</time>
    </trkpt>
    <trkpt lat="50.9627143" lon="6.8802147">
      <time>2021-02-01T16:46:16Z</time>
    </trkpt>
    <trkpt lat="50.9626961" lon="6.8804272">
      <time>2021-02-01T16:46:23Z</time>
    </trkpt>
    <trkpt lat="50.9626664" lon="6.8807143">
      <time>2021-02-01T16:46:33Z</time>
    </trkpt>
    <trkpt lat="50.9626581" lon="6.8807731">
      <time>2021-02-01T16:46:35Z</time>
    </trkpt>
    <trkpt lat="50.9626046" lon="6.8810405">
      <time>2021-02-01T16:46:44Z</time>
    </trkpt>
    <trkpt lat="50.9625742" lon="6.8812294">
      <time>2021-02-01T16:46:50Z</time>
    </trkpt>
    <trkpt lat="50.9625619" lon="6.8812807">
      <time>2021-02-01T16:46:52Z</time>
    </trkpt>
    <trkpt lat="50.9625562" lon="6.8813127">
      <time>2021-02-01T16:46:53Z</time>
    </trkpt>
    <trkpt lat="50.9625147" lon="6.8815231">
      <time>2021-02-01T16:47:01Z</time>
    </trkpt>
    <trkpt lat="50.9625009" lon="6.8816425">
      <time>2021-02-01T16:47:05Z</time>
    </trkpt>
    <trkpt lat="50.9624957" lon="6.8816737">
      <time>2021-02-01T16:47:06Z</time>
    </trkpt>
    <trkpt lat="50.9624895" lon="6.8817306">
      <time>2021-02-01T16:47:08Z</time>
    </trkpt>
    <trkpt lat="50.9624801" lon="6.8817780">
      <time>2021-02-01T16:47:10Z</time>
    </trkpt>
    <trkpt lat="50.9624540" lon="6.8819528">
      <time>2021-02-01T16:47:16Z</time>
    </trkpt>
    <trkpt lat="50.9624147" lon="6.8821642">
      <time>2021-02-01T16:47:24Z</time>
    </trkpt>
    <trkpt lat="50.9623993" lon="6.8823303">
      <time>2021-02-01T16:47:30Z</time>
    </trkpt>
    <trkpt lat="50.9623720" lon="6.8824793">
      <time>2021-02-01T16:47:36Z</time>
    </trkpt>
    <trkpt lat="50.9623392" lon="6.8826745">
      <time>2021-02-01T16:47:43Z</time>
    </trkpt>
    <trkpt lat="50.9623073" lon="6.8827800">
      <time>2021-02-01T16:47:47Z</time>
    </trkpt>
    <trkpt lat="50.9622809" lon="6.8828425">
      <time>2021-02-01T16:47:49Z</time>
    </trkpt>
    <trkpt lat="50.9622303" lon="6.8829837">
      <time>2021-02-01T16:47:54Z</time>
    </trkpt>
    <trkpt lat="50.9622107" lon="6.8831453">
      <time>2021-02-01T16:48:00Z</time>
    </trkpt>
    <trkpt lat="50.9621903" lon="6.8833760">
      <time>2021-02-01T16:48:09Z</time>
    </trkpt>
    <trkpt lat="50.9621642" lon="6.8835806">
      <time>2021-02-01T16:48:16Z</time>
    </trkpt>
    <trkpt lat="50.9621583" lon="6.8836154">
      <time>2021-02-01T16:48:17Z</time>
    </trkpt>
    <trkpt lat="50.9621468" lon="6.8837047">
      <time>2021-02-01T16:48:20Z</time>
    </trkpt>
    <trkpt lat="50.9621438" lon="6.8837604">
      <time>2021-02-01T16:48:22Z</time>
    </trkpt>
    <trkpt lat="50.9621175" lon="6.8839453">
      <time>2021-02-01T16:48:29Z</time>
    </trkpt>
    <trkpt lat="50.9621134" lon="6.8840043">
      <time>2021-02-01T16:48:31Z</time>
    </trkpt>
    <trkpt lat="50.9621129" lon="6.8840683">
      <time>2021-02-01T16:48:33Z</time>
    </trkpt>
    <trkpt lat="50.9621188" lon="6.8840968">
      <time>2021-02-01T16:48:34Z</time>
    </trkpt>
    <trkpt lat="50.9620845" lon="6.8842148">
      <time>2021-02-01T16:48:39Z</time>
    </trkpt>
    <trkpt lat="50.9620702" lon="6.8842010">
      <time>2021-02-01T16:48:40Z</time>
    </trkpt>
    <trkpt lat="50.9620228" lon="6.8840766">
      <time>2021-02-01T16:48:45Z</time>
    </trkpt>
    <trkpt lat="50.9619573" lon="6.8839085">
      <time>2021-02-01T16:48:51Z</time>
    </trkpt>
    <trkpt lat="50.9619448" lon="6.8838810">
      <time>2021-02-01T16:48:52Z</time>
    </trkpt>
    <trkpt lat="50.9618842" lon="6.8837176">
      <time>2021-02-01T16:48:58Z</time>
    </trkpt>
    <trkpt lat="50.9618078" lon="6.8834698">
      <time>2021-02-01T16:49:07Z</time>
    </trkpt>
    <trkpt lat="50.9617730" lon="6.8833169">
      <time>2021-02-01T16:49:13Z</time>
    </trkpt>
    <trkpt lat="50.9617240" lon="6.8831305">
      <time>2021-02-01T16:49:20Z</time>
    </trkpt>
    <trkpt lat="50.9616799" lon="6.8829706">
      <time>2021-02-01T16:49:26Z</time>
    </trkpt>
    <trkpt lat="50.9616197" lon="6.8827957">
      <time>2021-02-01T16:49:33Z</time>
    </trkpt>
    <trkpt lat="50.9615792" lon="6.8826399">
      <time>2021-02-01T16:49:39Z</time>
    </trkpt>
    <trkpt lat="50.9615135" lon="6.8824913">
      <time>2021-02-01T16:49:46Z</time>
    </trkpt>
    <trkpt lat="50.9614619" lon="6.8822892">
      <time>2021-02-01T16:49:54Z</time>
    </trkpt>
    <trkpt lat="50.9614541" lon="6.8822286">
      <time>2021-02-01T16:49:56Z</time>
    </trkpt>
    <trkpt lat="50.9613857" lon="6.8819730">
      <time>2021-02-01T16:50:05Z</time>
    </trkpt>
    <trkpt lat="50.9613421" lon="6.8817214">
      <time>2021-02-01T16:50:16Z</time>
    </trkpt>
    <trkpt lat="50.9612850" lon="6.8814419">
      <time>2021-02-01T16:50:27Z</time>
    </trkpt>
    <trkpt lat="50.9612773" lon="6.8814144">
      <time>2021-02-01T16:50:28Z</time>
    </trkpt>
    <trkpt lat="50.9612117" lon="6.8811401">
      <time>2021-02-01T16:50:39Z</time>
    </trkpt>
    <trkpt lat="50.9612041" lon="6.8811145">
      <time>2021-02-01T16:50:40Z</time>
    </trkpt>
    <trkpt lat="50.9611388" lon="6.8808337">
      <time>2021-02-01T16:50:51Z</time>
    </trkpt>
    <trkpt lat="50.9610857" lon="6.8806169">
      <time>2021-02-01T16:50:59Z</time>
    </trkpt>
    <trkpt lat="50.9610277" lon="6.8804102">
      <time>2021-02-01T16:51:07Z</time>
    </trkpt>
    <trkpt lat="50.9609593" lon="6.8801545">
      <time>2021-02-01T16:51:16Z</time>
    </trkpt>
    <trkpt lat="50.9608712" lon="6.8798967">
      <time>2021-02-01T16:51:25Z</time>
    </trkpt>
    <trkpt lat="50.9608634" lon="6.8798680">
      <time>2021-02-01T16:51:26Z</time>
    </trkpt>
    <trkpt lat="50.9607952" lon="6.8796029">
      <time>2021-02-01T16:51:35Z</time>
    </trkpt>
    <trkpt lat="50.9607463" lon="6.8793280">
      <time>2021-02-01T16:51:44Z</time>
    </trkpt>
    <trkpt lat="50.9607436" lon="6.8790883">
      <time>2021-02-01T16:51:52Z</time>
    </trkpt>
    <trkpt lat="50.9608106" lon="6.8788760">
      <time>2021-02-01T16:52:00Z</time>
    </trkpt>
    <trkpt lat="50.9608700" lon="6.8787530">
      <time>2021-02-01T16:52:06Z</time>
    </trkpt>
    <trkpt lat="50.9609795" lon="6.8785958">
      <time>2021-02-01T16:52:14Z</time>
    </trkpt>
    <trkpt lat="50.9610198" lon="6.8785165">
      <time>2021-02-01T16:52:18Z</time>
    </trkpt>
    <trkpt lat="50.9610285" lon="6.8784984">
      <time>2021-02-01T16:52:19Z</time>
    </trkpt>
    <trkpt lat="50.9610568" lon="6.8784637">
      <time>2021-02-01T16:52:21Z</time>
    </trkpt>
    <trkpt lat="50.9610730" lon="6.8784453">
      <time>2021-02-01T16:52:22Z</time>
    </trkpt>
    <trkpt lat="50.9610872" lon="6.8784294">
      <time>2021-02-01T16:52:23Z</time>
    </trkpt>
    <trkpt lat="50.9611097" lon="6.8783972">
      <time>2021-02-01T16:52:25Z</time>
    </trkpt>
    <trkpt lat="50.9611651" lon="6.8783441">
      <time>2021-02-01T16:52:29Z</time>
    </trkpt>
    <trkpt lat="50.9612499" lon="6.8783405">
      <time>2021-02-01T16:52:32Z</time>
    </trkpt>
    <trkpt lat="50.9614171" lon="6.8783846">
      <time>2021-02-01T16:52:39Z</time>
    </trkpt>
    <trkpt lat="50.9616063" lon="6.8784341">
      <time>2021-02-01T16:52:47Z</time>
    </trkpt>
    <trkpt lat="50.9616248" lon="6.8784435">
      <time>2021-02-01T16:52:48Z</time>
    </trkpt>
    <trkpt lat="50.9617946" lon="6.8785001">
      <time>2021-02-01T16:52:57Z</time>
    </trkpt>
    <trkpt lat="50.9619001" lon="6.8785544">
      <time>2021-02-01T16:53:04Z</time>
    </trkpt>
    <trkpt lat="50.9619166" lon="6.8785616">
      <time>2021-02-01T16:53:05Z</time>
    </trkpt>
    <trkpt lat="50.9619871" lon="6.8786414">
      <time>2021-02-01T16:53:10Z</time>
    </trkpt>
    <trkpt lat="50.9620219" lon="6.8786435">
      <time>2021-02-01T16:53:12Z</time>
    </trkpt>
    <trkpt lat="50.9620409" lon="6.8786346">
      <time>2021-02-01T16:53:13Z</time>
    </trkpt>
    <trkpt lat="50.9620766" lon="6.8785697">
      <time>2021-02-01T16:53:16Z</time>
    </trkpt>
    <trkpt lat="50.9620927" lon="6.8783840">
      <time>2021-02-01T16:53:22Z</time>
    </trkpt>
    <trkpt lat="50.9621074" lon="6.8782847">
      <time>2021-02-01T16:53:27Z</time>
    </trkpt>
    <trkpt lat="50.9620890" lon="6.8780439">
      <time>2021-02-01T16:53:34Z</time>
    </trkpt>
    <trkpt lat="50.9620640" lon="6.8779110">
      <time>2021-02-01T16:53:38Z</time>
    </trkpt>
    <trkpt lat="50.9620580" lon="6.8778234">
      <time>2021-02-01T16:53:41Z</time>
    </trkpt>
    <trkpt lat="50.9620495" lon="6.8776266">
      <time>2021-02-01T16:53:48Z</time>
    </trkpt>
    <trkpt lat="50.9620333" lon="6.8774668">
      <time>2021-02-01T16:53:53Z</time>
    </trkpt>
    <trkpt lat="50.9620373" lon="6.8774379">
      <time>2021-02-01T16:53:54Z</time>
    </trkpt>
    <trkpt lat="50.9620389" lon="6.8773257">
      <time>2021-02-01T16:53:57Z</time>
    </trkpt>
    <trkpt lat="50.9620121" lon="6.8772059">
      <time>2021-02-01T16:54:00Z</time>
    </trkpt>
    <trkpt lat="50.9620179" lon="6.8771569">
      <time>2021-02-01T16:54:02Z</time>
    </trkpt>
    <trkpt lat="50.9620121" lon="6.8770781">
      <time>2021-02-01T16:54:05Z</time>
    </trkpt>
    <trkpt lat="50.9620065" lon="6.8769939">
      <time>2021-02-01T16:54:08Z</time>
    </trkpt>
    <trkpt lat="50.9620173" lon="6.8769074">
      <time>2021-02-01T16:54:11Z</time>
    </trkpt>
    <trkpt lat="50.9620133" lon="6.8767243">
      <time>2021-02-01T16:54:17Z</time>
    </trkpt>
    <trkpt lat="50.9620010" lon="6.8766031">
      <time>2021-02-01T16:54:21Z</time>
    </trkpt>
    <trkpt lat="50.9620308" lon="6.8765221">
      <time>2021-02-01T16:54:24Z</time>
    </trkpt>
    <trkpt lat="50.9620440" lon="6.8764653">
      <time>2021-02-01T16:54:26Z</time>
    </trkpt>
    <trkpt lat="50.9620405" lon="6.8764164">
      <time>2021-02-01T16:54:28Z</time>
    </trkpt>
    <trkpt lat="50.9620482" lon="6.8763834">
      <time>2021-02-01T16:54:29Z</time>
    </trkpt>
    <trkpt lat="50.9621102" lon="6.8762684">
      <time>2021-02-01T16:54:35Z</time>
    </trkpt>
    <trkpt lat="50.9621222" lon="6.8762693">
      <time>2021-02-01T16:54:36Z</time>
    </trkpt>
    <trkpt lat="50.9621626" lon="6.8763243">
      <time>2021-02-01T16:54:40Z</time>
    </trkpt>
    <trkpt lat="50.9622268" lon="6.8763979">
      <time>2021-02-01T16:54:44Z</time>
    </trkpt>
    <trkpt lat="50.9622539" lon="6.8764077">
      <time>2021-02-01T16:54:46Z</time>
    </trkpt>
    <trkpt lat="50.9622740" lon="6.8764072">
      <time>2021-02-01T16:54:47Z</time>
    </trkpt>
    <trkpt lat="50.9623616" lon="6.8764192">
      <time>2021-02-01T16:54:51Z</time>
    </trkpt>
    <trkpt lat="50.9623872" lon="6.8764272">
      <time>2021-02-01T16:54:52Z</time>
    </trkpt>
    <trkpt lat="50.9624295" lon="6.8764366">
      <time>2021-02-01T16:54:54Z</time>
    </trkpt>
    <trkpt lat="50.9624519" lon="6.8764412">
      <time>2021-02-01T16:54:56Z</time>
    </trkpt>
    <trkpt lat="50.9624719" lon="6.8764437">
      <time>2021-02-01T16:54:57Z</time>
    </trkpt>
    <trkpt lat="50.9625911" lon="6.8764482">
      <time>2021-02-01T16:55:02Z</time>
    </trkpt>
    <trkpt lat="50.9626967" lon="6.8764775">
      <time>2021-02-01T16:55:06Z</time>
    </trkpt>
    <trkpt lat="50.9627191" lon="6.8764873">
      <time>2021-02-01T16:55:07Z</time>
    </trkpt>
    <trkpt lat="50.9627532" lon="6.8764832">
      <time>2021-02-01T16:55:09Z</time>
    </trkpt>
    <trkpt lat="50.9627830" lon="6.8764103">
      <time>2021-02-01T16:55:12Z</time>
    </trkpt>
    <trkpt lat="50.9628187" lon="6.8763394">
      <time>2021-02-01T16:55:15Z</time>
    </trkpt>
    <trkpt lat="50.9628602" lon="6.8762368">
      <time>2021-02-01T16:55:19Z</time>
    </trkpt>
    <trkpt lat="50.9629051" lon="6.8762217">
      <time>2021-02-01T16:55:21Z</time>
    </trkpt>
    <trkpt lat="50.9629238" lon="6.8762271">
      <time>2021-02-01T16:55:22Z</time>
    </trkpt>
    <trkpt lat="50.9629621" lon="6.8762599">
      <time>2021-02-01T16:55:25Z</time>
    </trkpt>
    <trkpt lat="50.9629868" lon="6.8762829">
      <time>2021-02-01T16:55:27Z</time>
    </trkpt>
    <trkpt lat="50.9630351" lon="6.8762799">
      <time>2021-02-01T16:55:30Z</time>
    </trkpt>
    <trkpt lat="50.9631567" lon="6.8762374">
      <time>2021-02-01T16:55:35Z</time>
    </trkpt>
    <trkpt lat="50.9631766" lon="6.8761923">
      <time>2021-02-01T16:55:37Z</time>
    </trkpt>
    <trkpt lat="50.9631985" lon="6.8761001">
      <time>2021-02-01T16:55:40Z</time>
    </trkpt>
    <trkpt lat="50.9632350" lon="6.8760681">
      <time>2021-02-01T16:55:42Z</time>
    </trkpt>
    <trkpt lat="50.9633192" lon="6.8760064">
      <time>2021-02-01T16:55:46Z</time>
    </trkpt>
    <trkpt lat="50.9633742" lon="6.8759001">
      <time>2021-02-01T16:55:51Z</time>
    </trkpt>
    <trkpt lat="50.9634193" lon="6.8758809">
      <time>2021-02-01T16:55:54Z</time>
    </trkpt>
    <trkpt lat="50.9634776" lon="6.8758871">
      <time>2021-02-01T16:55:58Z</time>
    </trkpt>
    <trkpt lat="50.9634773" lon="6.8758913">
      <time>2021-02-01T16:55:59Z</time>
    </trkpt>
    <trkpt lat="50.9634770" lon="6.8758974">
      <time>2021-02-01T16:56:00Z</time>
    </trkpt>
    <trkpt lat="50.9634729" lon="6.8759078">
      <time>2021-02-01T16:56:01Z</time>
    </trkpt>
  </trkseg></trk>
</gpx>
