<?xml version="1.0" encoding="UTF-8"?>
<gpx version="1.1" creator="Diary FIT converter" xmlns="http://www.topografix.com/GPX/1/1">
  <trk><name>Cycling</name><trkseg>
    <trkpt lat="50.9632383" lon="6.8763824">
      <time>2023-10-31T14:34:36Z</time>
    </trkpt>
    <trkpt lat="50.9632513" lon="6.8763937">
      <time>2023-10-31T14:34:37Z</time>
    </trkpt>
    <trkpt lat="50.9630945" lon="6.8766776">
      <time>2023-10-31T14:34:41Z</time>
    </trkpt>
    <trkpt lat="50.9630731" lon="6.8767560">
      <time>2023-10-31T14:34:42Z</time>
    </trkpt>
    <trkpt lat="50.9630699" lon="6.8768246">
      <time>2023-10-31T14:34:43Z</time>
    </trkpt>
    <trkpt lat="50.9630926" lon="6.8768817">
      <time>2023-10-31T14:34:44Z</time>
    </trkpt>
    <trkpt lat="50.9631566" lon="6.8770066">
      <time>2023-10-31T14:34:46Z</time>
    </trkpt>
    <trkpt lat="50.9632879" lon="6.8772433">
      <time>2023-10-31T14:34:50Z</time>
    </trkpt>
    <trkpt lat="50.9633233" lon="6.8773001">
      <time>2023-10-31T14:34:51Z</time>
    </trkpt>
    <trkpt lat="50.9634126" lon="6.8774111">
      <time>2023-10-31T14:34:53Z</time>
    </trkpt>
    <trkpt lat="50.9634973" lon="6.8775168">
      <time>2023-10-31T14:34:55Z</time>
    </trkpt>
    <trkpt lat="50.9637981" lon="6.8778551">
      <time>2023-10-31T14:35:01Z</time>
    </trkpt>
    <trkpt lat="50.9641818" lon="6.8782465">
      <time>2023-10-31T14:35:08Z</time>
    </trkpt>
    <trkpt lat="50.9642707" lon="6.8783896">
      <time>2023-10-31T14:35:10Z</time>
    </trkpt>
    <trkpt lat="50.9645931" lon="6.8788860">
      <time>2023-10-31T14:35:18Z</time>
    </trkpt>
    <trkpt lat="50.9647505" lon="6.8791234">
      <time>2023-10-31T14:35:22Z</time>
    </trkpt>
    <trkpt lat="50.9648786" lon="6.8793064">
      <time>2023-10-31T14:35:25Z</time>
    </trkpt>
    <trkpt lat="50.9650201" lon="6.8795238">
      <time>2023-10-31T14:35:29Z</time>
    </trkpt>
    <trkpt lat="50.9651133" lon="6.8796408">
      <time>2023-10-31T14:35:31Z</time>
    </trkpt>
    <trkpt lat="50.9651604" lon="6.8796936">
      <time>2023-10-31T14:35:32Z</time>
    </trkpt>
    <trkpt lat="50.9654860" lon="6.8800536">
      <time>2023-10-31T14:35:39Z</time>
    </trkpt>
    <trkpt lat="50.9656217" lon="6.8802024">
      <time>2023-10-31T14:35:42Z</time>
    </trkpt>
    <trkpt lat="50.9658861" lon="6.8804859">
      <time>2023-10-31T14:35:48Z</time>
    </trkpt>
    <trkpt lat="50.9659341" lon="6.8805441">
      <time>2023-10-31T14:35:49Z</time>
    </trkpt>
    <trkpt lat="50.9663797" lon="6.8810339">
      <time>2023-10-31T14:35:59Z</time>
    </trkpt>
    <trkpt lat="50.9664210" lon="6.8810836">
      <time>2023-10-31T14:36:00Z</time>
    </trkpt>
    <trkpt lat="50.9664891" lon="6.8812264">
      <time>2023-10-31T14:36:02Z</time>
    </trkpt>
    <trkpt lat="50.9664906" lon="6.8812944">
      <time>2023-10-31T14:36:03Z</time>
    </trkpt>
    <trkpt lat="50.9664796" lon="6.8813436">
      <time>2023-10-31T14:36:04Z</time>
    </trkpt>
    <trkpt lat="50.9664642" lon="6.8814033">
      <time>2023-10-31T14:36:06Z</time>
    </trkpt>
    <trkpt lat="50.9663813" lon="6.8816199">
      <time>2023-10-31T14:36:12Z</time>
    </trkpt>
    <trkpt lat="50.9662756" lon="6.8819151">
      <time>2023-10-31T14:36:17Z</time>
    </trkpt>
    <trkpt lat="50.9661236" lon="6.8823168">
      <time>2023-10-31T14:36:23Z</time>
    </trkpt>
    <trkpt lat="50.9660789" lon="6.8824038">
      <time>2023-10-31T14:36:24Z</time>
    </trkpt>
    <trkpt lat="50.9659216" lon="6.8827150">
      <time>2023-10-31T14:36:28Z</time>
    </trkpt>
    <trkpt lat="50.9658815" lon="6.8827613">
      <time>2023-10-31T14:36:29Z</time>
    </trkpt>
    <trkpt lat="50.9657636" lon="6.8829616">
      <time>2023-10-31T14:36:32Z</time>
    </trkpt>
    <trkpt lat="50.9656559" lon="6.8831677">
      <time>2023-10-31T14:36:35Z</time>
    </trkpt>
    <trkpt lat="50.9654505" lon="6.8836143">
      <time>2023-10-31T14:36:42Z</time>
    </trkpt>
    <trkpt lat="50.9653311" lon="6.8838556">
      <time>2023-10-31T14:36:46Z</time>
    </trkpt>
    <trkpt lat="50.9653057" lon="6.8839091">
      <time>2023-10-31T14:36:47Z</time>
    </trkpt>
    <trkpt lat="50.9652336" lon="6.8840520">
      <time>2023-10-31T14:36:49Z</time>
    </trkpt>
    <trkpt lat="50.9652065" lon="6.8841043">
      <time>2023-10-31T14:36:50Z</time>
    </trkpt>
    <trkpt lat="50.9650389" lon="6.8844601">
      <time>2023-10-31T14:36:55Z</time>
    </trkpt>
    <trkpt lat="50.9649749" lon="6.8845700">
      <time>2023-10-31T14:36:57Z</time>
    </trkpt>
    <trkpt lat="50.9646976" lon="6.8851324">
      <time>2023-10-31T14:37:05Z</time>
    </trkpt>
    <trkpt lat="50.9644284" lon="6.8856437">
      <time>2023-10-31T14:37:13Z</time>
    </trkpt>
    <trkpt lat="50.9641811" lon="6.8861904">
      <time>2023-10-31T14:37:21Z</time>
    </trkpt>
    <trkpt lat="50.9639150" lon="6.8867633">
      <time>2023-10-31T14:37:30Z</time>
    </trkpt>
    <trkpt lat="50.9637902" lon="6.8870373">
      <time>2023-10-31T14:37:34Z</time>
    </trkpt>
    <trkpt lat="50.9636892" lon="6.8872450">
      <time>2023-10-31T14:37:37Z</time>
    </trkpt>
    <trkpt lat="50.9634756" lon="6.8876439">
      <time>2023-10-31T14:37:43Z</time>
    </trkpt>
    <trkpt lat="50.9633589" lon="6.8879263">
      <time>2023-10-31T14:37:47Z</time>
    </trkpt>
    <trkpt lat="50.9631225" lon="6.8884313">
      <time>2023-10-31T14:37:54Z</time>
    </trkpt>
    <trkpt lat="50.9630203" lon="6.8886643">
      <time>2023-10-31T14:37:57Z</time>
    </trkpt>
    <trkpt lat="50.9629382" lon="6.8889249">
      <time>2023-10-31T14:38:00Z</time>
    </trkpt>
    <trkpt lat="50.9628071" lon="6.8892804">
      <time>2023-10-31T14:38:04Z</time>
    </trkpt>
    <trkpt lat="50.9627355" lon="6.8894464">
      <time>2023-10-31T14:38:06Z</time>
    </trkpt>
    <trkpt lat="50.9626941" lon="6.8895256">
      <time>2023-10-31T14:38:07Z</time>
    </trkpt>
    <trkpt lat="50.9625911" lon="6.8897195">
      <time>2023-10-31T14:38:10Z</time>
    </trkpt>
    <trkpt lat="50.9625247" lon="6.8898318">
      <time>2023-10-31T14:38:12Z</time>
    </trkpt>
    <trkpt lat="50.9624472" lon="6.8899774">
      <time>2023-10-31T14:38:14Z</time>
    </trkpt>
    <trkpt lat="50.9622119" lon="6.8903811">
      <time>2023-10-31T14:38:20Z</time>
    </trkpt>
    <trkpt lat="50.9621769" lon="6.8904567">
      <time>2023-10-31T14:38:21Z</time>
    </trkpt>
    <trkpt lat="50.9620942" lon="6.8906002">
      <time>2023-10-31T14:38:23Z</time>
    </trkpt>
    <trkpt lat="50.9619303" lon="6.8909638">
      <time>2023-10-31T14:38:28Z</time>
    </trkpt>
    <trkpt lat="50.9616686" lon="6.8915709">
      <time>2023-10-31T14:38:37Z</time>
    </trkpt>
    <trkpt lat="50.9616339" lon="6.8916362">
      <time>2023-10-31T14:38:38Z</time>
    </trkpt>
    <trkpt lat="50.9615037" lon="6.8918793">
      <time>2023-10-31T14:38:42Z</time>
    </trkpt>
    <trkpt lat="50.9613799" lon="6.8921291">
      <time>2023-10-31T14:38:46Z</time>
    </trkpt>
    <trkpt lat="50.9612597" lon="6.8924037">
      <time>2023-10-31T14:38:50Z</time>
    </trkpt>
    <trkpt lat="50.9610582" lon="6.8928553">
      <time>2023-10-31T14:38:57Z</time>
    </trkpt>
    <trkpt lat="50.9610323" lon="6.8929230">
      <time>2023-10-31T14:38:58Z</time>
    </trkpt>
    <trkpt lat="50.9608126" lon="6.8934210">
      <time>2023-10-31T14:39:05Z</time>
    </trkpt>
    <trkpt lat="50.9607928" lon="6.8934985">
      <time>2023-10-31T14:39:06Z</time>
    </trkpt>
    <trkpt lat="50.9604849" lon="6.8941361">
      <time>2023-10-31T14:39:15Z</time>
    </trkpt>
    <trkpt lat="50.9601588" lon="6.8947148">
      <time>2023-10-31T14:39:24Z</time>
    </trkpt>
    <trkpt lat="50.9598773" lon="6.8952983">
      <time>2023-10-31T14:39:32Z</time>
    </trkpt>
    <trkpt lat="50.9595516" lon="6.8959444">
      <time>2023-10-31T14:39:41Z</time>
    </trkpt>
    <trkpt lat="50.9595195" lon="6.8960091">
      <time>2023-10-31T14:39:42Z</time>
    </trkpt>
    <trkpt lat="50.9593672" lon="6.8963529">
      <time>2023-10-31T14:39:47Z</time>
    </trkpt>
    <trkpt lat="50.9592174" lon="6.8966826">
      <time>2023-10-31T14:39:52Z</time>
    </trkpt>
    <trkpt lat="50.9591608" lon="6.8967987">
      <time>2023-10-31T14:39:54Z</time>
    </trkpt>
    <trkpt lat="50.9590069" lon="6.8971535">
      <time>2023-10-31T14:39:59Z</time>
    </trkpt>
    <trkpt lat="50.9589328" lon="6.8973015">
      <time>2023-10-31T14:40:01Z</time>
    </trkpt>
    <trkpt lat="50.9588031" lon="6.8975994">
      <time>2023-10-31T14:40:05Z</time>
    </trkpt>
    <trkpt lat="50.9584770" lon="6.8983169">
      <time>2023-10-31T14:40:15Z</time>
    </trkpt>
    <trkpt lat="50.9581121" lon="6.8990294">
      <time>2023-10-31T14:40:25Z</time>
    </trkpt>
    <trkpt lat="50.9579330" lon="6.8994147">
      <time>2023-10-31T14:40:30Z</time>
    </trkpt>
    <trkpt lat="50.9578585" lon="6.8995549">
      <time>2023-10-31T14:40:32Z</time>
    </trkpt>
    <trkpt lat="50.9578355" lon="6.8996345">
      <time>2023-10-31T14:40:33Z</time>
    </trkpt>
    <trkpt lat="50.9578087" lon="6.8997871">
      <time>2023-10-31T14:40:35Z</time>
    </trkpt>
    <trkpt lat="50.9577516" lon="6.8999094">
      <time>2023-10-31T14:40:39Z</time>
    </trkpt>
    <trkpt lat="50.9577401" lon="6.8999321">
      <time>2023-10-31T14:40:41Z</time>
    </trkpt>
    <trkpt lat="50.9577363" lon="6.8999319">
      <time>2023-10-31T14:40:43Z</time>
    </trkpt>
    <trkpt lat="50.9577363" lon="6.8999319">
      <time>2023-10-31T14:40:44Z</time>
    </trkpt>
    <trkpt lat="50.9576999" lon="6.9000388">
      <time>2023-10-31T14:40:57Z</time>
    </trkpt>
    <trkpt lat="50.9576860" lon="6.9000875">
      <time>2023-10-31T14:40:58Z</time>
    </trkpt>
    <trkpt lat="50.9576150" lon="6.9003583">
      <time>2023-10-31T14:41:02Z</time>
    </trkpt>
    <trkpt lat="50.9575793" lon="6.9005337">
      <time>2023-10-31T14:41:04Z</time>
    </trkpt>
    <trkpt lat="50.9575243" lon="6.9007111">
      <time>2023-10-31T14:41:06Z</time>
    </trkpt>
    <trkpt lat="50.9574944" lon="6.9008014">
      <time>2023-10-31T14:41:07Z</time>
    </trkpt>
    <trkpt lat="50.9573723" lon="6.9010388">
      <time>2023-10-31T14:41:10Z</time>
    </trkpt>
    <trkpt lat="50.9573305" lon="6.9011298">
      <time>2023-10-31T14:41:11Z</time>
    </trkpt>
    <trkpt lat="50.9572667" lon="6.9013519">
      <time>2023-10-31T14:41:14Z</time>
    </trkpt>
    <trkpt lat="50.9572246" lon="6.9015938">
      <time>2023-10-31T14:41:17Z</time>
    </trkpt>
    <trkpt lat="50.9572083" lon="6.9016600">
      <time>2023-10-31T14:41:18Z</time>
    </trkpt>
    <trkpt lat="50.9570935" lon="6.9019270">
      <time>2023-10-31T14:41:23Z</time>
    </trkpt>
    <trkpt lat="50.9570692" lon="6.9019785">
      <time>2023-10-31T14:41:24Z</time>
    </trkpt>
    <trkpt lat="50.9569462" lon="6.9022627">
      <time>2023-10-31T14:41:29Z</time>
    </trkpt>
    <trkpt lat="50.9568882" lon="6.9024210">
      <time>2023-10-31T14:41:31Z</time>
    </trkpt>
    <trkpt lat="50.9567222" lon="6.9029679">
      <time>2023-10-31T14:41:37Z</time>
    </trkpt>
    <trkpt lat="50.9566333" lon="6.9030925">
      <time>2023-10-31T14:41:39Z</time>
    </trkpt>
    <trkpt lat="50.9566056" lon="6.9032592">
      <time>2023-10-31T14:41:41Z</time>
    </trkpt>
    <trkpt lat="50.9565799" lon="6.9034347">
      <time>2023-10-31T14:41:43Z</time>
    </trkpt>
    <trkpt lat="50.9565372" lon="6.9036022">
      <time>2023-10-31T14:41:45Z</time>
    </trkpt>
    <trkpt lat="50.9565078" lon="6.9036836">
      <time>2023-10-31T14:41:46Z</time>
    </trkpt>
    <trkpt lat="50.9564750" lon="6.9037645">
      <time>2023-10-31T14:41:47Z</time>
    </trkpt>
    <trkpt lat="50.9563251" lon="6.9041461">
      <time>2023-10-31T14:41:52Z</time>
    </trkpt>
    <trkpt lat="50.9561703" lon="6.9046318">
      <time>2023-10-31T14:41:58Z</time>
    </trkpt>
    <trkpt lat="50.9561281" lon="6.9047881">
      <time>2023-10-31T14:42:00Z</time>
    </trkpt>
    <trkpt lat="50.9560266" lon="6.9050958">
      <time>2023-10-31T14:42:04Z</time>
    </trkpt>
    <trkpt lat="50.9559464" lon="6.9053268">
      <time>2023-10-31T14:42:07Z</time>
    </trkpt>
    <trkpt lat="50.9559203" lon="6.9054059">
      <time>2023-10-31T14:42:08Z</time>
    </trkpt>
    <trkpt lat="50.9558949" lon="6.9054800">
      <time>2023-10-31T14:42:09Z</time>
    </trkpt>
    <trkpt lat="50.9557587" lon="6.9059249">
      <time>2023-10-31T14:42:15Z</time>
    </trkpt>
    <trkpt lat="50.9557041" lon="6.9060696">
      <time>2023-10-31T14:42:17Z</time>
    </trkpt>
    <trkpt lat="50.9556552" lon="6.9062254">
      <time>2023-10-31T14:42:19Z</time>
    </trkpt>
    <trkpt lat="50.9555471" lon="6.9065258">
      <time>2023-10-31T14:42:23Z</time>
    </trkpt>
    <trkpt lat="50.9554968" lon="6.9066562">
      <time>2023-10-31T14:42:25Z</time>
    </trkpt>
    <trkpt lat="50.9554390" lon="6.9068288">
      <time>2023-10-31T14:42:28Z</time>
    </trkpt>
    <trkpt lat="50.9553678" lon="6.9070183">
      <time>2023-10-31T14:42:32Z</time>
    </trkpt>
    <trkpt lat="50.9553508" lon="6.9070675">
      <time>2023-10-31T14:42:33Z</time>
    </trkpt>
    <trkpt lat="50.9553154" lon="6.9071687">
      <time>2023-10-31T14:42:35Z</time>
    </trkpt>
    <trkpt lat="50.9552286" lon="6.9073961">
      <time>2023-10-31T14:42:39Z</time>
    </trkpt>
    <trkpt lat="50.9551940" lon="6.9074786">
      <time>2023-10-31T14:42:40Z</time>
    </trkpt>
    <trkpt lat="50.9551523" lon="6.9076191">
      <time>2023-10-31T14:42:42Z</time>
    </trkpt>
    <trkpt lat="50.9550980" lon="6.9078721">
      <time>2023-10-31T14:42:45Z</time>
    </trkpt>
    <trkpt lat="50.9550819" lon="6.9079526">
      <time>2023-10-31T14:42:46Z</time>
    </trkpt>
    <trkpt lat="50.9550260" lon="6.9081856">
      <time>2023-10-31T14:42:49Z</time>
    </trkpt>
    <trkpt lat="50.9550017" lon="6.9082644">
      <time>2023-10-31T14:42:50Z</time>
    </trkpt>
    <trkpt lat="50.9549490" lon="6.9084234">
      <time>2023-10-31T14:42:52Z</time>
    </trkpt>
    <trkpt lat="50.9548998" lon="6.9085831">
      <time>2023-10-31T14:42:54Z</time>
    </trkpt>
    <trkpt lat="50.9548390" lon="6.9087345">
      <time>2023-10-31T14:42:56Z</time>
    </trkpt>
    <trkpt lat="50.9547145" lon="6.9090360">
      <time>2023-10-31T14:43:00Z</time>
    </trkpt>
    <trkpt lat="50.9545978" lon="6.9093281">
      <time>2023-10-31T14:43:05Z</time>
    </trkpt>
    <trkpt lat="50.9545018" lon="6.9095982">
      <time>2023-10-31T14:43:11Z</time>
    </trkpt>
    <trkpt lat="50.9544488" lon="6.9097612">
      <time>2023-10-31T14:43:15Z</time>
    </trkpt>
    <trkpt lat="50.9544406" lon="6.9097841">
      <time>2023-10-31T14:43:16Z</time>
    </trkpt>
    <trkpt lat="50.9544383" lon="6.9097909">
      <time>2023-10-31T14:43:17Z</time>
    </trkpt>
    <trkpt lat="50.9544383" lon="6.9097909">
      <time>2023-10-31T14:43:20Z</time>
    </trkpt>
    <trkpt lat="50.9544163" lon="6.9098619">
      <time>2023-10-31T14:43:28Z</time>
    </trkpt>
    <trkpt lat="50.9543890" lon="6.9099632">
      <time>2023-10-31T14:43:30Z</time>
    </trkpt>
    <trkpt lat="50.9543554" lon="6.9100878">
      <time>2023-10-31T14:43:32Z</time>
    </trkpt>
    <trkpt lat="50.9543107" lon="6.9102275">
      <time>2023-10-31T14:43:34Z</time>
    </trkpt>
    <trkpt lat="50.9542441" lon="6.9103756">
      <time>2023-10-31T14:43:36Z</time>
    </trkpt>
    <trkpt lat="50.9541580" lon="6.9105135">
      <time>2023-10-31T14:43:38Z</time>
    </trkpt>
    <trkpt lat="50.9540242" lon="6.9107135">
      <time>2023-10-31T14:43:41Z</time>
    </trkpt>
    <trkpt lat="50.9539123" lon="6.9108857">
      <time>2023-10-31T14:43:44Z</time>
    </trkpt>
    <trkpt lat="50.9537741" lon="6.9111207">
      <time>2023-10-31T14:43:49Z</time>
    </trkpt>
    <trkpt lat="50.9536242" lon="6.9113635">
      <time>2023-10-31T14:43:53Z</time>
    </trkpt>
    <trkpt lat="50.9535849" lon="6.9114307">
      <time>2023-10-31T14:43:54Z</time>
    </trkpt>
    <trkpt lat="50.9533081" lon="6.9118748">
      <time>2023-10-31T14:44:01Z</time>
    </trkpt>
    <trkpt lat="50.9530385" lon="6.9122867">
      <time>2023-10-31T14:44:08Z</time>
    </trkpt>
    <trkpt lat="50.9529732" lon="6.9123931">
      <time>2023-10-31T14:44:10Z</time>
    </trkpt>
    <trkpt lat="50.9528898" lon="6.9125189">
      <time>2023-10-31T14:44:12Z</time>
    </trkpt>
    <trkpt lat="50.9528509" lon="6.9125750">
      <time>2023-10-31T14:44:13Z</time>
    </trkpt>
    <trkpt lat="50.9528198" lon="6.9126197">
      <time>2023-10-31T14:44:14Z</time>
    </trkpt>
    <trkpt lat="50.9527769" lon="6.9126954">
      <time>2023-10-31T14:44:15Z</time>
    </trkpt>
    <trkpt lat="50.9527425" lon="6.9127684">
      <time>2023-10-31T14:44:16Z</time>
    </trkpt>
    <trkpt lat="50.9527125" lon="6.9128202">
      <time>2023-10-31T14:44:17Z</time>
    </trkpt>
    <trkpt lat="50.9525049" lon="6.9131199">
      <time>2023-10-31T14:44:22Z</time>
    </trkpt>
    <trkpt lat="50.9524262" lon="6.9132282">
      <time>2023-10-31T14:44:24Z</time>
    </trkpt>
    <trkpt lat="50.9522680" lon="6.9134634">
      <time>2023-10-31T14:44:28Z</time>
    </trkpt>
    <trkpt lat="50.9520921" lon="6.9137261">
      <time>2023-10-31T14:44:32Z</time>
    </trkpt>
    <trkpt lat="50.9520160" lon="6.9138447">
      <time>2023-10-31T14:44:34Z</time>
    </trkpt>
    <trkpt lat="50.9519275" lon="6.9139744">
      <time>2023-10-31T14:44:36Z</time>
    </trkpt>
    <trkpt lat="50.9517977" lon="6.9141730">
      <time>2023-10-31T14:44:39Z</time>
    </trkpt>
    <trkpt lat="50.9515993" lon="6.9144890">
      <time>2023-10-31T14:44:44Z</time>
    </trkpt>
    <trkpt lat="50.9514403" lon="6.9147337">
      <time>2023-10-31T14:44:48Z</time>
    </trkpt>
    <trkpt lat="50.9514249" lon="6.9147773">
      <time>2023-10-31T14:44:49Z</time>
    </trkpt>
    <trkpt lat="50.9512440" lon="6.9151030">
      <time>2023-10-31T14:44:55Z</time>
    </trkpt>
    <trkpt lat="50.9510943" lon="6.9153050">
      <time>2023-10-31T14:44:57Z</time>
    </trkpt>
    <trkpt lat="50.9508634" lon="6.9156648">
      <time>2023-10-31T14:45:03Z</time>
    </trkpt>
    <trkpt lat="50.9508239" lon="6.9157282">
      <time>2023-10-31T14:45:04Z</time>
    </trkpt>
    <trkpt lat="50.9506871" lon="6.9160043">
      <time>2023-10-31T14:45:08Z</time>
    </trkpt>
    <trkpt lat="50.9506073" lon="6.9161350">
      <time>2023-10-31T14:45:10Z</time>
    </trkpt>
    <trkpt lat="50.9505690" lon="6.9161944">
      <time>2023-10-31T14:45:11Z</time>
    </trkpt>
    <trkpt lat="50.9504247" lon="6.9164238">
      <time>2023-10-31T14:45:15Z</time>
    </trkpt>
    <trkpt lat="50.9503993" lon="6.9164568">
      <time>2023-10-31T14:45:16Z</time>
    </trkpt>
    <trkpt lat="50.9503183" lon="6.9165441">
      <time>2023-10-31T14:45:20Z</time>
    </trkpt>
    <trkpt lat="50.9503008" lon="6.9165447">
      <time>2023-10-31T14:45:24Z</time>
    </trkpt>
    <trkpt lat="50.9502608" lon="6.9165952">
      <time>2023-10-31T14:46:33Z</time>
    </trkpt>
    <trkpt lat="50.9502422" lon="6.9166324">
      <time>2023-10-31T14:46:34Z</time>
    </trkpt>
    <trkpt lat="50.9501448" lon="6.9167553">
      <time>2023-10-31T14:46:37Z</time>
    </trkpt>
    <trkpt lat="50.9501017" lon="6.9168007">
      <time>2023-10-31T14:46:38Z</time>
    </trkpt>
    <trkpt lat="50.9500132" lon="6.9169104">
      <time>2023-10-31T14:46:40Z</time>
    </trkpt>
    <trkpt lat="50.9499686" lon="6.9169798">
      <time>2023-10-31T14:46:41Z</time>
    </trkpt>
    <trkpt lat="50.9497268" lon="6.9174177">
      <time>2023-10-31T14:46:46Z</time>
    </trkpt>
    <trkpt lat="50.9495683" lon="6.9176740">
      <time>2023-10-31T14:46:49Z</time>
    </trkpt>
    <trkpt lat="50.9493513" lon="6.9179927">
      <time>2023-10-31T14:46:53Z</time>
    </trkpt>
    <trkpt lat="50.9490811" lon="6.9185324">
      <time>2023-10-31T14:46:59Z</time>
    </trkpt>
    <trkpt lat="50.9490462" lon="6.9186126">
      <time>2023-10-31T14:47:00Z</time>
    </trkpt>
    <trkpt lat="50.9489241" lon="6.9188729">
      <time>2023-10-31T14:47:04Z</time>
    </trkpt>
    <trkpt lat="50.9488615" lon="6.9190382">
      <time>2023-10-31T14:47:06Z</time>
    </trkpt>
    <trkpt lat="50.9486804" lon="6.9195201">
      <time>2023-10-31T14:47:12Z</time>
    </trkpt>
    <trkpt lat="50.9484991" lon="6.9199221">
      <time>2023-10-31T14:47:17Z</time>
    </trkpt>
    <trkpt lat="50.9484586" lon="6.9200012">
      <time>2023-10-31T14:47:18Z</time>
    </trkpt>
    <trkpt lat="50.9484237" lon="6.9200797">
      <time>2023-10-31T14:47:19Z</time>
    </trkpt>
    <trkpt lat="50.9483952" lon="6.9201527">
      <time>2023-10-31T14:47:20Z</time>
    </trkpt>
    <trkpt lat="50.9483791" lon="6.9202034">
      <time>2023-10-31T14:47:21Z</time>
    </trkpt>
    <trkpt lat="50.9483662" lon="6.9202516">
      <time>2023-10-31T14:47:22Z</time>
    </trkpt>
    <trkpt lat="50.9482757" lon="6.9205384">
      <time>2023-10-31T14:47:27Z</time>
    </trkpt>
    <trkpt lat="50.9482193" lon="6.9206728">
      <time>2023-10-31T14:47:29Z</time>
    </trkpt>
    <trkpt lat="50.9481386" lon="6.9208037">
      <time>2023-10-31T14:47:31Z</time>
    </trkpt>
    <trkpt lat="50.9480615" lon="6.9209457">
      <time>2023-10-31T14:47:33Z</time>
    </trkpt>
    <trkpt lat="50.9480303" lon="6.9210247">
      <time>2023-10-31T14:47:34Z</time>
    </trkpt>
    <trkpt lat="50.9479875" lon="6.9211130">
      <time>2023-10-31T14:47:35Z</time>
    </trkpt>
    <trkpt lat="50.9479058" lon="6.9212850">
      <time>2023-10-31T14:47:37Z</time>
    </trkpt>
    <trkpt lat="50.9477870" lon="6.9215486">
      <time>2023-10-31T14:47:40Z</time>
    </trkpt>
    <trkpt lat="50.9477536" lon="6.9216269">
      <time>2023-10-31T14:47:41Z</time>
    </trkpt>
    <trkpt lat="50.9477073" lon="6.9217049">
      <time>2023-10-31T14:47:42Z</time>
    </trkpt>
    <trkpt lat="50.9476442" lon="6.9218733">
      <time>2023-10-31T14:47:44Z</time>
    </trkpt>
    <trkpt lat="50.9476122" lon="6.9219582">
      <time>2023-10-31T14:47:45Z</time>
    </trkpt>
    <trkpt lat="50.9474032" lon="6.9224420">
      <time>2023-10-31T14:47:51Z</time>
    </trkpt>
    <trkpt lat="50.9473760" lon="6.9225297">
      <time>2023-10-31T14:47:52Z</time>
    </trkpt>
    <trkpt lat="50.9471812" lon="6.9230076">
      <time>2023-10-31T14:47:58Z</time>
    </trkpt>
    <trkpt lat="50.9471483" lon="6.9230867">
      <time>2023-10-31T14:47:59Z</time>
    </trkpt>
    <trkpt lat="50.9470471" lon="6.9233355">
      <time>2023-10-31T14:48:02Z</time>
    </trkpt>
    <trkpt lat="50.9469486" lon="6.9235611">
      <time>2023-10-31T14:48:05Z</time>
    </trkpt>
    <trkpt lat="50.9469098" lon="6.9236458">
      <time>2023-10-31T14:48:06Z</time>
    </trkpt>
    <trkpt lat="50.9466362" lon="6.9243195">
      <time>2023-10-31T14:48:14Z</time>
    </trkpt>
    <trkpt lat="50.9465636" lon="6.9244837">
      <time>2023-10-31T14:48:16Z</time>
    </trkpt>
    <trkpt lat="50.9464469" lon="6.9247965">
      <time>2023-10-31T14:48:20Z</time>
    </trkpt>
    <trkpt lat="50.9462272" lon="6.9252529">
      <time>2023-10-31T14:48:26Z</time>
    </trkpt>
    <trkpt lat="50.9461970" lon="6.9253148">
      <time>2023-10-31T14:48:27Z</time>
    </trkpt>
    <trkpt lat="50.9460188" lon="6.9256681">
      <time>2023-10-31T14:48:33Z</time>
    </trkpt>
    <trkpt lat="50.9459774" lon="6.9258029">
      <time>2023-10-31T14:48:35Z</time>
    </trkpt>
    <trkpt lat="50.9459188" lon="6.9260616">
      <time>2023-10-31T14:48:38Z</time>
    </trkpt>
    <trkpt lat="50.9458225" lon="6.9262992">
      <time>2023-10-31T14:48:41Z</time>
    </trkpt>
    <trkpt lat="50.9457414" lon="6.9264413">
      <time>2023-10-31T14:48:43Z</time>
    </trkpt>
    <trkpt lat="50.9456165" lon="6.9266878">
      <time>2023-10-31T14:48:46Z</time>
    </trkpt>
    <trkpt lat="50.9455820" lon="6.9267494">
      <time>2023-10-31T14:48:47Z</time>
    </trkpt>
    <trkpt lat="50.9455010" lon="6.9268979">
      <time>2023-10-31T14:48:49Z</time>
    </trkpt>
    <trkpt lat="50.9453543" lon="6.9273302">
      <time>2023-10-31T14:48:54Z</time>
    </trkpt>
    <trkpt lat="50.9452962" lon="6.9275157">
      <time>2023-10-31T14:48:56Z</time>
    </trkpt>
    <trkpt lat="50.9451032" lon="6.9280932">
      <time>2023-10-31T14:49:02Z</time>
    </trkpt>
    <trkpt lat="50.9450294" lon="6.9282849">
      <time>2023-10-31T14:49:04Z</time>
    </trkpt>
    <trkpt lat="50.9449239" lon="6.9284334">
      <time>2023-10-31T14:49:06Z</time>
    </trkpt>
    <trkpt lat="50.9448296" lon="6.9285697">
      <time>2023-10-31T14:49:08Z</time>
    </trkpt>
    <trkpt lat="50.9447635" lon="6.9287316">
      <time>2023-10-31T14:49:10Z</time>
    </trkpt>
    <trkpt lat="50.9447360" lon="6.9288198">
      <time>2023-10-31T14:49:11Z</time>
    </trkpt>
    <trkpt lat="50.9446947" lon="6.9290015">
      <time>2023-10-31T14:49:13Z</time>
    </trkpt>
    <trkpt lat="50.9446691" lon="6.9290935">
      <time>2023-10-31T14:49:14Z</time>
    </trkpt>
    <trkpt lat="50.9445418" lon="6.9295373">
      <time>2023-10-31T14:49:19Z</time>
    </trkpt>
    <trkpt lat="50.9444828" lon="6.9297083">
      <time>2023-10-31T14:49:21Z</time>
    </trkpt>
    <trkpt lat="50.9444363" lon="6.9298705">
      <time>2023-10-31T14:49:23Z</time>
    </trkpt>
    <trkpt lat="50.9444120" lon="6.9300125">
      <time>2023-10-31T14:49:25Z</time>
    </trkpt>
    <trkpt lat="50.9443855" lon="6.9300798">
      <time>2023-10-31T14:49:26Z</time>
    </trkpt>
    <trkpt lat="50.9442526" lon="6.9306103">
      <time>2023-10-31T14:49:33Z</time>
    </trkpt>
    <trkpt lat="50.9441314" lon="6.9310159">
      <time>2023-10-31T14:49:38Z</time>
    </trkpt>
    <trkpt lat="50.9441111" lon="6.9310859">
      <time>2023-10-31T14:49:39Z</time>
    </trkpt>
    <trkpt lat="50.9440812" lon="6.9311629">
      <time>2023-10-31T14:49:40Z</time>
    </trkpt>
    <trkpt lat="50.9440213" lon="6.9313206">
      <time>2023-10-31T14:49:42Z</time>
    </trkpt>
    <trkpt lat="50.9439949" lon="6.9314034">
      <time>2023-10-31T14:49:43Z</time>
    </trkpt>
    <trkpt lat="50.9439791" lon="6.9314784">
      <time>2023-10-31T14:49:44Z</time>
    </trkpt>
    <trkpt lat="50.9439697" lon="6.9316181">
      <time>2023-10-31T14:49:46Z</time>
    </trkpt>
    <trkpt lat="50.9439628" lon="6.9316630">
      <time>2023-10-31T14:49:47Z</time>
    </trkpt>
    <trkpt lat="50.9439674" lon="6.9316886">
      <time>2023-10-31T14:49:48Z</time>
    </trkpt>
    <trkpt lat="50.9440107" lon="6.9317371">
      <time>2023-10-31T14:49:50Z</time>
    </trkpt>
    <trkpt lat="50.9441855" lon="6.9318473">
      <time>2023-10-31T14:49:58Z</time>
    </trkpt>
    <trkpt lat="50.9443239" lon="6.9318308">
      <time>2023-10-31T14:50:03Z</time>
    </trkpt>
    <trkpt lat="50.9444969" lon="6.9317749">
      <time>2023-10-31T14:50:07Z</time>
    </trkpt>
    <trkpt lat="50.9445400" lon="6.9317708">
      <time>2023-10-31T14:50:08Z</time>
    </trkpt>
    <trkpt lat="50.9445764" lon="6.9317751">
      <time>2023-10-31T14:50:09Z</time>
    </trkpt>
    <trkpt lat="50.9446932" lon="6.9318721">
      <time>2023-10-31T14:50:12Z</time>
    </trkpt>
    <trkpt lat="50.9449852" lon="6.9321684">
      <time>2023-10-31T14:50:19Z</time>
    </trkpt>
    <trkpt lat="50.9450227" lon="6.9322092">
      <time>2023-10-31T14:50:20Z</time>
    </trkpt>
    <trkpt lat="50.9450649" lon="6.9322391">
      <time>2023-10-31T14:50:21Z</time>
    </trkpt>
    <trkpt lat="50.9452913" lon="6.9323787">
      <time>2023-10-31T14:50:26Z</time>
    </trkpt>
    <trkpt lat="50.9453712" lon="6.9324536">
      <time>2023-10-31T14:50:28Z</time>
    </trkpt>
    <trkpt lat="50.9454412" lon="6.9325752">
      <time>2023-10-31T14:50:30Z</time>
    </trkpt>
    <trkpt lat="50.9454552" lon="6.9328280">
      <time>2023-10-31T14:50:33Z</time>
    </trkpt>
    <trkpt lat="50.9454527" lon="6.9329983">
      <time>2023-10-31T14:50:35Z</time>
    </trkpt>
    <trkpt lat="50.9455040" lon="6.9331525">
      <time>2023-10-31T14:50:37Z</time>
    </trkpt>
    <trkpt lat="50.9457240" lon="6.9334054">
      <time>2023-10-31T14:50:42Z</time>
    </trkpt>
    <trkpt lat="50.9459841" lon="6.9336605">
      <time>2023-10-31T14:50:48Z</time>
    </trkpt>
    <trkpt lat="50.9461323" lon="6.9337911">
      <time>2023-10-31T14:50:51Z</time>
    </trkpt>
    <trkpt lat="50.9465133" lon="6.9340991">
      <time>2023-10-31T14:50:59Z</time>
    </trkpt>
    <trkpt lat="50.9466725" lon="6.9342113">
      <time>2023-10-31T14:51:03Z</time>
    </trkpt>
    <trkpt lat="50.9467163" lon="6.9342259">
      <time>2023-10-31T14:51:04Z</time>
    </trkpt>
    <trkpt lat="50.9467613" lon="6.9342319">
      <time>2023-10-31T14:51:05Z</time>
    </trkpt>
    <trkpt lat="50.9468694" lon="6.9342472">
      <time>2023-10-31T14:51:08Z</time>
    </trkpt>
    <trkpt lat="50.9468805" lon="6.9342736">
      <time>2023-10-31T14:51:09Z</time>
    </trkpt>
    <trkpt lat="50.9468686" lon="6.9343477">
      <time>2023-10-31T14:51:11Z</time>
    </trkpt>
    <trkpt lat="50.9468503" lon="6.9344656">
      <time>2023-10-31T14:51:14Z</time>
    </trkpt>
    <trkpt lat="50.9468892" lon="6.9345657">
      <time>2023-10-31T14:51:16Z</time>
    </trkpt>
    <trkpt lat="50.9469839" lon="6.9347474">
      <time>2023-10-31T14:51:20Z</time>
    </trkpt>
    <trkpt lat="50.9470150" lon="6.9347916">
      <time>2023-10-31T14:51:21Z</time>
    </trkpt>
    <trkpt lat="50.9471385" lon="6.9349703">
      <time>2023-10-31T14:51:25Z</time>
    </trkpt>
    <trkpt lat="50.9471763" lon="6.9350155">
      <time>2023-10-31T14:51:26Z</time>
    </trkpt>
    <trkpt lat="50.9472107" lon="6.9350608">
      <time>2023-10-31T14:51:27Z</time>
    </trkpt>
    <trkpt lat="50.9473281" lon="6.9352254">
      <time>2023-10-31T14:51:31Z</time>
    </trkpt>
    <trkpt lat="50.9473627" lon="6.9353323">
      <time>2023-10-31T14:51:33Z</time>
    </trkpt>
    <trkpt lat="50.9473865" lon="6.9355171">
      <time>2023-10-31T14:51:37Z</time>
    </trkpt>
    <trkpt lat="50.9473717" lon="6.9355629">
      <time>2023-10-31T14:51:38Z</time>
    </trkpt>
    <trkpt lat="50.9473055" lon="6.9356947">
      <time>2023-10-31T14:51:41Z</time>
    </trkpt>
    <trkpt lat="50.9472703" lon="6.9357948">
      <time>2023-10-31T14:51:43Z</time>
    </trkpt>
    <trkpt lat="50.9472502" lon="6.9358502">
      <time>2023-10-31T14:51:44Z</time>
    </trkpt>
    <trkpt lat="50.9471500" lon="6.9361235">
      <time>2023-10-31T14:51:50Z</time>
    </trkpt>
    <trkpt lat="50.9471214" lon="6.9361757">
      <time>2023-10-31T14:51:55Z</time>
    </trkpt>
    <trkpt lat="50.9471596" lon="6.9360696">
      <time>2023-10-31T14:52:14Z</time>
    </trkpt>
    <trkpt lat="50.9471951" lon="6.9359960">
      <time>2023-10-31T14:52:16Z</time>
    </trkpt>
    <trkpt lat="50.9473057" lon="6.9357078">
      <time>2023-10-31T14:52:23Z</time>
    </trkpt>
    <trkpt lat="50.9473960" lon="6.9355500">
      <time>2023-10-31T14:52:28Z</time>
    </trkpt>
    <trkpt lat="50.9474845" lon="6.9355058">
      <time>2023-10-31T14:52:33Z</time>
    </trkpt>
    <trkpt lat="50.9474845" lon="6.9355058">
      <time>2023-10-31T14:52:37Z</time>
    </trkpt>
    <trkpt lat="50.9475502" lon="6.9355034">
      <time>2023-10-31T14:53:28Z</time>
    </trkpt>
    <trkpt lat="50.9475744" lon="6.9354942">
      <time>2023-10-31T14:53:29Z</time>
    </trkpt>
    <trkpt lat="50.9476644" lon="6.9354842">
      <time>2023-10-31T14:53:33Z</time>
    </trkpt>
    <trkpt lat="50.9476777" lon="6.9354879">
      <time>2023-10-31T14:53:34Z</time>
    </trkpt>
    <trkpt lat="50.9476817" lon="6.9354912">
      <time>2023-10-31T14:53:37Z</time>
    </trkpt>
    <trkpt lat="50.9477029" lon="6.9355569">
      <time>2023-10-31T14:53:56Z</time>
    </trkpt>
    <trkpt lat="50.9477062" lon="6.9355864">
      <time>2023-10-31T14:53:57Z</time>
    </trkpt>
    <trkpt lat="50.9477139" lon="6.9356155">
      <time>2023-10-31T14:53:58Z</time>
    </trkpt>
    <trkpt lat="50.9477559" lon="6.9356640">
      <time>2023-10-31T14:54:00Z</time>
    </trkpt>
    <trkpt lat="50.9477854" lon="6.9356797">
      <time>2023-10-31T14:54:01Z</time>
    </trkpt>
    <trkpt lat="50.9479056" lon="6.9357509">
      <time>2023-10-31T14:54:04Z</time>
    </trkpt>
    <trkpt lat="50.9479960" lon="6.9358137">
      <time>2023-10-31T14:54:06Z</time>
    </trkpt>
    <trkpt lat="50.9482085" lon="6.9358869">
      <time>2023-10-31T14:54:10Z</time>
    </trkpt>
    <trkpt lat="50.9482637" lon="6.9359255">
      <time>2023-10-31T14:54:11Z</time>
    </trkpt>
    <trkpt lat="50.9484138" lon="6.9360005">
      <time>2023-10-31T14:54:14Z</time>
    </trkpt>
    <trkpt lat="50.9484716" lon="6.9360287">
      <time>2023-10-31T14:54:15Z</time>
    </trkpt>
    <trkpt lat="50.9486738" lon="6.9361828">
      <time>2023-10-31T14:54:19Z</time>
    </trkpt>
    <trkpt lat="50.9487812" lon="6.9362585">
      <time>2023-10-31T14:54:21Z</time>
    </trkpt>
    <trkpt lat="50.9491432" lon="6.9364322">
      <time>2023-10-31T14:54:27Z</time>
    </trkpt>
    <trkpt lat="50.9492062" lon="6.9364435">
      <time>2023-10-31T14:54:28Z</time>
    </trkpt>
    <trkpt lat="50.9495299" lon="6.9364070">
      <time>2023-10-31T14:54:33Z</time>
    </trkpt>
    <trkpt lat="50.9496570" lon="6.9363902">
      <time>2023-10-31T14:54:35Z</time>
    </trkpt>
    <trkpt lat="50.9498100" lon="6.9363675">
      <time>2023-10-31T14:54:38Z</time>
    </trkpt>
    <trkpt lat="50.9498484" lon="6.9363725">
      <time>2023-10-31T14:54:39Z</time>
    </trkpt>
    <trkpt lat="50.9499279" lon="6.9364568">
      <time>2023-10-31T14:54:41Z</time>
    </trkpt>
    <trkpt lat="50.9500305" lon="6.9366920">
      <time>2023-10-31T14:54:44Z</time>
    </trkpt>
    <trkpt lat="50.9500587" lon="6.9367818">
      <time>2023-10-31T14:54:45Z</time>
    </trkpt>
    <trkpt lat="50.9501440" lon="6.9370481">
      <time>2023-10-31T14:54:48Z</time>
    </trkpt>
    <trkpt lat="50.9502335" lon="6.9372144">
      <time>2023-10-31T14:54:50Z</time>
    </trkpt>
    <trkpt lat="50.9504480" lon="6.9375535">
      <time>2023-10-31T14:54:54Z</time>
    </trkpt>
    <trkpt lat="50.9505835" lon="6.9376680">
      <time>2023-10-31T14:54:56Z</time>
    </trkpt>
    <trkpt lat="50.9507284" lon="6.9377459">
      <time>2023-10-31T14:54:58Z</time>
    </trkpt>
    <trkpt lat="50.9509559" lon="6.9378562">
      <time>2023-10-31T14:55:01Z</time>
    </trkpt>
    <trkpt lat="50.9511819" lon="6.9380022">
      <time>2023-10-31T14:55:04Z</time>
    </trkpt>
    <trkpt lat="50.9513647" lon="6.9381441">
      <time>2023-10-31T14:55:07Z</time>
    </trkpt>
    <trkpt lat="50.9514810" lon="6.9382638">
      <time>2023-10-31T14:55:09Z</time>
    </trkpt>
    <trkpt lat="50.9515382" lon="6.9383440">
      <time>2023-10-31T14:55:10Z</time>
    </trkpt>
    <trkpt lat="50.9516439" lon="6.9384842">
      <time>2023-10-31T14:55:12Z</time>
    </trkpt>
    <trkpt lat="50.9519521" lon="6.9387378">
      <time>2023-10-31T14:55:17Z</time>
    </trkpt>
    <trkpt lat="50.9520189" lon="6.9387732">
      <time>2023-10-31T14:55:18Z</time>
    </trkpt>
    <trkpt lat="50.9522254" lon="6.9388327">
      <time>2023-10-31T14:55:21Z</time>
    </trkpt>
    <trkpt lat="50.9523795" lon="6.9388436">
      <time>2023-10-31T14:55:23Z</time>
    </trkpt>
    <trkpt lat="50.9525850" lon="6.9388595">
      <time>2023-10-31T14:55:26Z</time>
    </trkpt>
    <trkpt lat="50.9527267" lon="6.9389006">
      <time>2023-10-31T14:55:28Z</time>
    </trkpt>
    <trkpt lat="50.9527956" lon="6.9389162">
      <time>2023-10-31T14:55:29Z</time>
    </trkpt>
    <trkpt lat="50.9529627" lon="6.9389472">
      <time>2023-10-31T14:55:32Z</time>
    </trkpt>
    <trkpt lat="50.9530092" lon="6.9389511">
      <time>2023-10-31T14:55:33Z</time>
    </trkpt>
    <trkpt lat="50.9530897" lon="6.9389360">
      <time>2023-10-31T14:55:35Z</time>
    </trkpt>
    <trkpt lat="50.9531191" lon="6.9389181">
      <time>2023-10-31T14:55:36Z</time>
    </trkpt>
    <trkpt lat="50.9531694" lon="6.9388403">
      <time>2023-10-31T14:55:40Z</time>
    </trkpt>
    <trkpt lat="50.9531792" lon="6.9388370">
      <time>2023-10-31T14:55:44Z</time>
    </trkpt>
    <trkpt lat="50.9532137" lon="6.9388747">
      <time>2023-10-31T14:56:01Z</time>
    </trkpt>
    <trkpt lat="50.9532482" lon="6.9389411">
      <time>2023-10-31T14:56:03Z</time>
    </trkpt>
    <trkpt lat="50.9533886" lon="6.9391781">
      <time>2023-10-31T14:56:08Z</time>
    </trkpt>
    <trkpt lat="50.9534562" lon="6.9393126">
      <time>2023-10-31T14:56:10Z</time>
    </trkpt>
    <trkpt lat="50.9535366" lon="6.9395507">
      <time>2023-10-31T14:56:13Z</time>
    </trkpt>
    <trkpt lat="50.9536371" lon="6.9398842">
      <time>2023-10-31T14:56:17Z</time>
    </trkpt>
    <trkpt lat="50.9536527" lon="6.9399753">
      <time>2023-10-31T14:56:18Z</time>
    </trkpt>
    <trkpt lat="50.9537123" lon="6.9405848">
      <time>2023-10-31T14:56:25Z</time>
    </trkpt>
    <trkpt lat="50.9537126" lon="6.9407810">
      <time>2023-10-31T14:56:28Z</time>
    </trkpt>
    <trkpt lat="50.9537038" lon="6.9408756">
      <time>2023-10-31T14:56:30Z</time>
    </trkpt>
    <trkpt lat="50.9537601" lon="6.9411652">
      <time>2023-10-31T14:56:35Z</time>
    </trkpt>
    <trkpt lat="50.9537788" lon="6.9412796">
      <time>2023-10-31T14:56:39Z</time>
    </trkpt>
    <trkpt lat="50.9538093" lon="6.9412830">
      <time>2023-10-31T14:56:41Z</time>
    </trkpt>
    <trkpt lat="50.9538130" lon="6.9412817">
      <time>2023-10-31T14:56:43Z</time>
    </trkpt>
    <trkpt lat="50.9538130" lon="6.9412817">
      <time>2023-10-31T14:56:47Z</time>
    </trkpt>
    <trkpt lat="50.9538417" lon="6.9413023">
      <time>2023-10-31T14:57:42Z</time>
    </trkpt>
    <trkpt lat="50.9538444" lon="6.9413143">
      <time>2023-10-31T14:57:43Z</time>
    </trkpt>
    <trkpt lat="50.9539034" lon="6.9414517">
      <time>2023-10-31T14:57:47Z</time>
    </trkpt>
    <trkpt lat="50.9539080" lon="6.9414810">
      <time>2023-10-31T14:57:48Z</time>
    </trkpt>
    <trkpt lat="50.9538857" lon="6.9415434">
      <time>2023-10-31T14:57:50Z</time>
    </trkpt>
    <trkpt lat="50.9539024" lon="6.9416005">
      <time>2023-10-31T14:57:51Z</time>
    </trkpt>
    <trkpt lat="50.9539197" lon="6.9417719">
      <time>2023-10-31T14:57:53Z</time>
    </trkpt>
    <trkpt lat="50.9539266" lon="6.9419412">
      <time>2023-10-31T14:57:55Z</time>
    </trkpt>
    <trkpt lat="50.9539262" lon="6.9421992">
      <time>2023-10-31T14:57:58Z</time>
    </trkpt>
    <trkpt lat="50.9539205" lon="6.9422909">
      <time>2023-10-31T14:57:59Z</time>
    </trkpt>
    <trkpt lat="50.9539242" lon="6.9424795">
      <time>2023-10-31T14:58:01Z</time>
    </trkpt>
    <trkpt lat="50.9539406" lon="6.9426461">
      <time>2023-10-31T14:58:03Z</time>
    </trkpt>
    <trkpt lat="50.9539402" lon="6.9427360">
      <time>2023-10-31T14:58:04Z</time>
    </trkpt>
    <trkpt lat="50.9539244" lon="6.9429220">
      <time>2023-10-31T14:58:06Z</time>
    </trkpt>
    <trkpt lat="50.9539335" lon="6.9430844">
      <time>2023-10-31T14:58:08Z</time>
    </trkpt>
    <trkpt lat="50.9539383" lon="6.9431632">
      <time>2023-10-31T14:58:09Z</time>
    </trkpt>
    <trkpt lat="50.9539401" lon="6.9433248">
      <time>2023-10-31T14:58:11Z</time>
    </trkpt>
    <trkpt lat="50.9539526" lon="6.9436517">
      <time>2023-10-31T14:58:15Z</time>
    </trkpt>
    <trkpt lat="50.9539734" lon="6.9443903">
      <time>2023-10-31T14:58:24Z</time>
    </trkpt>
    <trkpt lat="50.9539715" lon="6.9449762">
      <time>2023-10-31T14:58:31Z</time>
    </trkpt>
    <trkpt lat="50.9539710" lon="6.9455382">
      <time>2023-10-31T14:58:38Z</time>
    </trkpt>
    <trkpt lat="50.9539696" lon="6.9456788">
      <time>2023-10-31T14:58:40Z</time>
    </trkpt>
    <trkpt lat="50.9540112" lon="6.9459177">
      <time>2023-10-31T14:58:43Z</time>
    </trkpt>
    <trkpt lat="50.9540286" lon="6.9460739">
      <time>2023-10-31T14:58:45Z</time>
    </trkpt>
    <trkpt lat="50.9541331" lon="6.9466291">
      <time>2023-10-31T14:58:52Z</time>
    </trkpt>
    <trkpt lat="50.9541733" lon="6.9467865">
      <time>2023-10-31T14:58:54Z</time>
    </trkpt>
    <trkpt lat="50.9541936" lon="6.9468629">
      <time>2023-10-31T14:58:55Z</time>
    </trkpt>
    <trkpt lat="50.9542424" lon="6.9470102">
      <time>2023-10-31T14:58:57Z</time>
    </trkpt>
    <trkpt lat="50.9542946" lon="6.9471399">
      <time>2023-10-31T14:58:59Z</time>
    </trkpt>
    <trkpt lat="50.9544960" lon="6.9475305">
      <time>2023-10-31T14:59:05Z</time>
    </trkpt>
    <trkpt lat="50.9545350" lon="6.9476029">
      <time>2023-10-31T14:59:06Z</time>
    </trkpt>
    <trkpt lat="50.9545899" lon="6.9477359">
      <time>2023-10-31T14:59:08Z</time>
    </trkpt>
    <trkpt lat="50.9546090" lon="6.9478142">
      <time>2023-10-31T14:59:09Z</time>
    </trkpt>
    <trkpt lat="50.9546338" lon="6.9478742">
      <time>2023-10-31T14:59:10Z</time>
    </trkpt>
    <trkpt lat="50.9547446" lon="6.9481032">
      <time>2023-10-31T14:59:13Z</time>
    </trkpt>
    <trkpt lat="50.9548359" lon="6.9483135">
      <time>2023-10-31T14:59:16Z</time>
    </trkpt>
    <trkpt lat="50.9549555" lon="6.9485420">
      <time>2023-10-31T14:59:19Z</time>
    </trkpt>
    <trkpt lat="50.9550757" lon="6.9487767">
      <time>2023-10-31T14:59:22Z</time>
    </trkpt>
    <trkpt lat="50.9552231" lon="6.9491853">
      <time>2023-10-31T14:59:27Z</time>
    </trkpt>
    <trkpt lat="50.9553479" lon="6.9497803">
      <time>2023-10-31T14:59:34Z</time>
    </trkpt>
    <trkpt lat="50.9553589" lon="6.9498445">
      <time>2023-10-31T14:59:35Z</time>
    </trkpt>
    <trkpt lat="50.9553865" lon="6.9500168">
      <time>2023-10-31T14:59:37Z</time>
    </trkpt>
    <trkpt lat="50.9554045" lon="6.9500748">
      <time>2023-10-31T14:59:38Z</time>
    </trkpt>
    <trkpt lat="50.9554358" lon="6.9501519">
      <time>2023-10-31T14:59:39Z</time>
    </trkpt>
    <trkpt lat="50.9555063" lon="6.9503273">
      <time>2023-10-31T14:59:42Z</time>
    </trkpt>
    <trkpt lat="50.9555255" lon="6.9503860">
      <time>2023-10-31T14:59:43Z</time>
    </trkpt>
    <trkpt lat="50.9555842" lon="6.9505904">
      <time>2023-10-31T14:59:46Z</time>
    </trkpt>
    <trkpt lat="50.9556399" lon="6.9508199">
      <time>2023-10-31T14:59:49Z</time>
    </trkpt>
    <trkpt lat="50.9557509" lon="6.9512481">
      <time>2023-10-31T14:59:54Z</time>
    </trkpt>
    <trkpt lat="50.9558208" lon="6.9515125">
      <time>2023-10-31T14:59:57Z</time>
    </trkpt>
    <trkpt lat="50.9558585" lon="6.9516787">
      <time>2023-10-31T14:59:59Z</time>
    </trkpt>
    <trkpt lat="50.9558778" lon="6.9517911">
      <time>2023-10-31T15:00:00Z</time>
    </trkpt>
    <trkpt lat="50.9559127" lon="6.9519714">
      <time>2023-10-31T15:00:02Z</time>
    </trkpt>
    <trkpt lat="50.9559636" lon="6.9521385">
      <time>2023-10-31T15:00:04Z</time>
    </trkpt>
    <trkpt lat="50.9560145" lon="6.9522874">
      <time>2023-10-31T15:00:06Z</time>
    </trkpt>
    <trkpt lat="50.9560922" lon="6.9525642">
      <time>2023-10-31T15:00:09Z</time>
    </trkpt>
    <trkpt lat="50.9561173" lon="6.9526529">
      <time>2023-10-31T15:00:10Z</time>
    </trkpt>
    <trkpt lat="50.9561968" lon="6.9529217">
      <time>2023-10-31T15:00:13Z</time>
    </trkpt>
    <trkpt lat="50.9562834" lon="6.9531846">
      <time>2023-10-31T15:00:16Z</time>
    </trkpt>
    <trkpt lat="50.9563069" lon="6.9532736">
      <time>2023-10-31T15:00:17Z</time>
    </trkpt>
    <trkpt lat="50.9563290" lon="6.9534499">
      <time>2023-10-31T15:00:19Z</time>
    </trkpt>
    <trkpt lat="50.9563868" lon="6.9536125">
      <time>2023-10-31T15:00:21Z</time>
    </trkpt>
    <trkpt lat="50.9565434" lon="6.9540015">
      <time>2023-10-31T15:00:26Z</time>
    </trkpt>
    <trkpt lat="50.9566366" lon="6.9542488">
      <time>2023-10-31T15:00:29Z</time>
    </trkpt>
    <trkpt lat="50.9566624" lon="6.9543315">
      <time>2023-10-31T15:00:30Z</time>
    </trkpt>
    <trkpt lat="50.9567909" lon="6.9547272">
      <time>2023-10-31T15:00:35Z</time>
    </trkpt>
    <trkpt lat="50.9568199" lon="6.9548105">
      <time>2023-10-31T15:00:36Z</time>
    </trkpt>
    <trkpt lat="50.9569288" lon="6.9551960">
      <time>2023-10-31T15:00:41Z</time>
    </trkpt>
    <trkpt lat="50.9570159" lon="6.9554882">
      <time>2023-10-31T15:00:45Z</time>
    </trkpt>
    <trkpt lat="50.9570132" lon="6.9556442">
      <time>2023-10-31T15:00:47Z</time>
    </trkpt>
    <trkpt lat="50.9570068" lon="6.9557907">
      <time>2023-10-31T15:00:49Z</time>
    </trkpt>
    <trkpt lat="50.9570001" lon="6.9558435">
      <time>2023-10-31T15:00:50Z</time>
    </trkpt>
    <trkpt lat="50.9570170" lon="6.9559155">
      <time>2023-10-31T15:00:52Z</time>
    </trkpt>
    <trkpt lat="50.9570229" lon="6.9559419">
      <time>2023-10-31T15:00:53Z</time>
    </trkpt>
    <trkpt lat="50.9570382" lon="6.9559575">
      <time>2023-10-31T15:00:54Z</time>
    </trkpt>
    <trkpt lat="50.9570957" lon="6.9559740">
      <time>2023-10-31T15:00:56Z</time>
    </trkpt>
    <trkpt lat="50.9571225" lon="6.9560058">
      <time>2023-10-31T15:00:57Z</time>
    </trkpt>
    <trkpt lat="50.9571870" lon="6.9561397">
      <time>2023-10-31T15:00:59Z</time>
    </trkpt>
    <trkpt lat="50.9573006" lon="6.9565159">
      <time>2023-10-31T15:01:04Z</time>
    </trkpt>
    <trkpt lat="50.9573229" lon="6.9565910">
      <time>2023-10-31T15:01:05Z</time>
    </trkpt>
    <trkpt lat="50.9573724" lon="6.9567433">
      <time>2023-10-31T15:01:07Z</time>
    </trkpt>
    <trkpt lat="50.9574119" lon="6.9568756">
      <time>2023-10-31T15:01:09Z</time>
    </trkpt>
    <trkpt lat="50.9574583" lon="6.9571021">
      <time>2023-10-31T15:01:12Z</time>
    </trkpt>
    <trkpt lat="50.9574709" lon="6.9571667">
      <time>2023-10-31T15:01:13Z</time>
    </trkpt>
    <trkpt lat="50.9574915" lon="6.9572770">
      <time>2023-10-31T15:01:15Z</time>
    </trkpt>
    <trkpt lat="50.9575110" lon="6.9574011">
      <time>2023-10-31T15:01:18Z</time>
    </trkpt>
    <trkpt lat="50.9575197" lon="6.9575074">
      <time>2023-10-31T15:01:23Z</time>
    </trkpt>
    <trkpt lat="50.9575164" lon="6.9575090">
      <time>2023-10-31T15:01:27Z</time>
    </trkpt>
    <trkpt lat="50.9575368" lon="6.9575799">
      <time>2023-10-31T15:01:52Z</time>
    </trkpt>
    <trkpt lat="50.9575455" lon="6.9576177">
      <time>2023-10-31T15:01:53Z</time>
    </trkpt>
    <trkpt lat="50.9575580" lon="6.9576612">
      <time>2023-10-31T15:01:54Z</time>
    </trkpt>
    <trkpt lat="50.9576445" lon="6.9579081">
      <time>2023-10-31T15:01:59Z</time>
    </trkpt>
    <trkpt lat="50.9576635" lon="6.9579676">
      <time>2023-10-31T15:02:00Z</time>
    </trkpt>
    <trkpt lat="50.9578440" lon="6.9584029">
      <time>2023-10-31T15:02:07Z</time>
    </trkpt>
    <trkpt lat="50.9579962" lon="6.9587077">
      <time>2023-10-31T15:02:12Z</time>
    </trkpt>
    <trkpt lat="50.9580736" lon="6.9588251">
      <time>2023-10-31T15:02:14Z</time>
    </trkpt>
    <trkpt lat="50.9581483" lon="6.9589538">
      <time>2023-10-31T15:02:16Z</time>
    </trkpt>
    <trkpt lat="50.9582582" lon="6.9591486">
      <time>2023-10-31T15:02:19Z</time>
    </trkpt>
    <trkpt lat="50.9583048" lon="6.9592252">
      <time>2023-10-31T15:02:20Z</time>
    </trkpt>
    <trkpt lat="50.9583498" lon="6.9592909">
      <time>2023-10-31T15:02:21Z</time>
    </trkpt>
    <trkpt lat="50.9583889" lon="6.9593572">
      <time>2023-10-31T15:02:22Z</time>
    </trkpt>
    <trkpt lat="50.9587325" lon="6.9599693">
      <time>2023-10-31T15:02:31Z</time>
    </trkpt>
    <trkpt lat="50.9589352" lon="6.9603204">
      <time>2023-10-31T15:02:36Z</time>
    </trkpt>
    <trkpt lat="50.9590319" lon="6.9605576">
      <time>2023-10-31T15:02:39Z</time>
    </trkpt>
    <trkpt lat="50.9590611" lon="6.9606405">
      <time>2023-10-31T15:02:40Z</time>
    </trkpt>
    <trkpt lat="50.9591722" lon="6.9610823">
      <time>2023-10-31T15:02:45Z</time>
    </trkpt>
    <trkpt lat="50.9592035" lon="6.9616404">
      <time>2023-10-31T15:02:51Z</time>
    </trkpt>
    <trkpt lat="50.9591902" lon="6.9625790">
      <time>2023-10-31T15:03:01Z</time>
    </trkpt>
    <trkpt lat="50.9591838" lon="6.9626724">
      <time>2023-10-31T15:03:02Z</time>
    </trkpt>
    <trkpt lat="50.9591843" lon="6.9632953">
      <time>2023-10-31T15:03:09Z</time>
    </trkpt>
    <trkpt lat="50.9591746" lon="6.9633661">
      <time>2023-10-31T15:03:10Z</time>
    </trkpt>
    <trkpt lat="50.9591302" lon="6.9634857">
      <time>2023-10-31T15:03:12Z</time>
    </trkpt>
    <trkpt lat="50.9591003" lon="6.9635225">
      <time>2023-10-31T15:03:13Z</time>
    </trkpt>
    <trkpt lat="50.9590631" lon="6.9635436">
      <time>2023-10-31T15:03:14Z</time>
    </trkpt>
    <trkpt lat="50.9589694" lon="6.9635514">
      <time>2023-10-31T15:03:16Z</time>
    </trkpt>
    <trkpt lat="50.9589222" lon="6.9635458">
      <time>2023-10-31T15:03:17Z</time>
    </trkpt>
    <trkpt lat="50.9587836" lon="6.9635371">
      <time>2023-10-31T15:03:20Z</time>
    </trkpt>
    <trkpt lat="50.9585894" lon="6.9635533">
      <time>2023-10-31T15:03:24Z</time>
    </trkpt>
    <trkpt lat="50.9584689" lon="6.9635708">
      <time>2023-10-31T15:03:29Z</time>
    </trkpt>
    <trkpt lat="50.9584689" lon="6.9635708">
      <time>2023-10-31T15:03:30Z</time>
    </trkpt>
    <trkpt lat="50.9583836" lon="6.9637279">
      <time>2023-10-31T15:03:44Z</time>
    </trkpt>
    <trkpt lat="50.9583774" lon="6.9637396">
      <time>2023-10-31T15:03:45Z</time>
    </trkpt>
    <trkpt lat="50.9583714" lon="6.9637584">
      <time>2023-10-31T15:03:46Z</time>
    </trkpt>
    <trkpt lat="50.9583584" lon="6.9637996">
      <time>2023-10-31T15:03:48Z</time>
    </trkpt>
    <trkpt lat="50.9583580" lon="6.9638145">
      <time>2023-10-31T15:03:51Z</time>
    </trkpt>
    <trkpt lat="50.9583580" lon="6.9638145">
      <time>2023-10-31T15:03:52Z</time>
    </trkpt>
  </trkseg></trk>
</gpx>
