<?xml version="1.0" encoding="UTF-8"?>
<gpx version="1.1" creator="Diary FIT converter" xmlns="http://www.topografix.com/GPX/1/1">
  <trk><name>Cycling</name><trkseg>
    <trkpt lat="50.8061654" lon="7.0929117">
      <time>2023-02-26T14:21:52Z</time>
    </trkpt>
    <trkpt lat="50.8060877" lon="7.0930528">
      <time>2023-02-26T14:21:56Z</time>
    </trkpt>
    <trkpt lat="50.8060419" lon="7.0931079">
      <time>2023-02-26T14:21:58Z</time>
    </trkpt>
    <trkpt lat="50.8058914" lon="7.0932277">
      <time>2023-02-26T14:22:03Z</time>
    </trkpt>
    <trkpt lat="50.8057028" lon="7.0933392">
      <time>2023-02-26T14:22:09Z</time>
    </trkpt>
    <trkpt lat="50.8054773" lon="7.0935543">
      <time>2023-02-26T14:22:16Z</time>
    </trkpt>
    <trkpt lat="50.8053085" lon="7.0937311">
      <time>2023-02-26T14:22:21Z</time>
    </trkpt>
    <trkpt lat="50.8051662" lon="7.0939217">
      <time>2023-02-26T14:22:26Z</time>
    </trkpt>
    <trkpt lat="50.8050882" lon="7.0940420">
      <time>2023-02-26T14:22:29Z</time>
    </trkpt>
    <trkpt lat="50.8049856" lon="7.0941960">
      <time>2023-02-26T14:22:33Z</time>
    </trkpt>
    <trkpt lat="50.8048554" lon="7.0943778">
      <time>2023-02-26T14:22:38Z</time>
    </trkpt>
    <trkpt lat="50.8047223" lon="7.0945741">
      <time>2023-02-26T14:22:44Z</time>
    </trkpt>
    <trkpt lat="50.8045809" lon="7.0948009">
      <time>2023-02-26T14:22:50Z</time>
    </trkpt>
    <trkpt lat="50.8044667" lon="7.0949841">
      <time>2023-02-26T14:22:55Z</time>
    </trkpt>
    <trkpt lat="50.8043414" lon="7.0951737">
      <time>2023-02-26T14:23:00Z</time>
    </trkpt>
    <trkpt lat="50.8042182" lon="7.0953753">
      <time>2023-02-26T14:23:05Z</time>
    </trkpt>
    <trkpt lat="50.8041001" lon="7.0955652">
      <time>2023-02-26T14:23:10Z</time>
    </trkpt>
    <trkpt lat="50.8039601" lon="7.0957653">
      <time>2023-02-26T14:23:15Z</time>
    </trkpt>
    <trkpt lat="50.8038105" lon="7.0960009">
      <time>2023-02-26T14:23:21Z</time>
    </trkpt>
    <trkpt lat="50.8036908" lon="7.0962016">
      <time>2023-02-26T14:23:26Z</time>
    </trkpt>
    <trkpt lat="50.8035904" lon="7.0963634">
      <time>2023-02-26T14:23:30Z</time>
    </trkpt>
    <trkpt lat="50.8034933" lon="7.0965138">
      <time>2023-02-26T14:23:34Z</time>
    </trkpt>
    <trkpt lat="50.8033983" lon="7.0966727">
      <time>2023-02-26T14:23:38Z</time>
    </trkpt>
    <trkpt lat="50.8032619" lon="7.0968919">
      <time>2023-02-26T14:23:44Z</time>
    </trkpt>
    <trkpt lat="50.8031696" lon="7.0970308">
      <time>2023-02-26T14:23:48Z</time>
    </trkpt>
    <trkpt lat="50.8029822" lon="7.0973515">
      <time>2023-02-26T14:23:57Z</time>
    </trkpt>
    <trkpt lat="50.8028982" lon="7.0974783">
      <time>2023-02-26T14:24:01Z</time>
    </trkpt>
    <trkpt lat="50.8028086" lon="7.0976073">
      <time>2023-02-26T14:24:05Z</time>
    </trkpt>
    <trkpt lat="50.8026833" lon="7.0978037">
      <time>2023-02-26T14:24:11Z</time>
    </trkpt>
    <trkpt lat="50.8025364" lon="7.0980270">
      <time>2023-02-26T14:24:17Z</time>
    </trkpt>
    <trkpt lat="50.8024911" lon="7.0980957">
      <time>2023-02-26T14:24:19Z</time>
    </trkpt>
    <trkpt lat="50.8024419" lon="7.0981397">
      <time>2023-02-26T14:24:21Z</time>
    </trkpt>
    <trkpt lat="50.8024187" lon="7.0981483">
      <time>2023-02-26T14:24:22Z</time>
    </trkpt>
    <trkpt lat="50.8023872" lon="7.0981302">
      <time>2023-02-26T14:24:24Z</time>
    </trkpt>
    <trkpt lat="50.8023365" lon="7.0980512">
      <time>2023-02-26T14:24:30Z</time>
    </trkpt>
    <trkpt lat="50.8023281" lon="7.0980383">
      <time>2023-02-26T14:24:33Z</time>
    </trkpt>
    <trkpt lat="50.8022788" lon="7.0979495">
      <time>2023-02-26T14:25:15Z</time>
    </trkpt>
    <trkpt lat="50.8022578" lon="7.0979159">
      <time>2023-02-26T14:25:16Z</time>
    </trkpt>
    <trkpt lat="50.8020975" lon="7.0976324">
      <time>2023-02-26T14:25:22Z</time>
    </trkpt>
    <trkpt lat="50.8019183" lon="7.0973810">
      <time>2023-02-26T14:25:28Z</time>
    </trkpt>
    <trkpt lat="50.8017239" lon="7.0971213">
      <time>2023-02-26T14:25:34Z</time>
    </trkpt>
    <trkpt lat="50.8016654" lon="7.0970259">
      <time>2023-02-26T14:25:36Z</time>
    </trkpt>
    <trkpt lat="50.8016156" lon="7.0969305">
      <time>2023-02-26T14:25:38Z</time>
    </trkpt>
    <trkpt lat="50.8015542" lon="7.0968354">
      <time>2023-02-26T14:25:40Z</time>
    </trkpt>
    <trkpt lat="50.8013169" lon="7.0964754">
      <time>2023-02-26T14:25:48Z</time>
    </trkpt>
    <trkpt lat="50.8011521" lon="7.0961954">
      <time>2023-02-26T14:25:54Z</time>
    </trkpt>
    <trkpt lat="50.8009972" lon="7.0959508">
      <time>2023-02-26T14:25:59Z</time>
    </trkpt>
    <trkpt lat="50.8008289" lon="7.0957018">
      <time>2023-02-26T14:26:04Z</time>
    </trkpt>
    <trkpt lat="50.8007720" lon="7.0956228">
      <time>2023-02-26T14:26:06Z</time>
    </trkpt>
    <trkpt lat="50.8007046" lon="7.0955220">
      <time>2023-02-26T14:26:08Z</time>
    </trkpt>
    <trkpt lat="50.8006537" lon="7.0954200">
      <time>2023-02-26T14:26:10Z</time>
    </trkpt>
    <trkpt lat="50.8005212" lon="7.0951788">
      <time>2023-02-26T14:26:15Z</time>
    </trkpt>
    <trkpt lat="50.8003360" lon="7.0948846">
      <time>2023-02-26T14:26:21Z</time>
    </trkpt>
    <trkpt lat="50.8002257" lon="7.0947495">
      <time>2023-02-26T14:26:24Z</time>
    </trkpt>
    <trkpt lat="50.8001908" lon="7.0946986">
      <time>2023-02-26T14:26:25Z</time>
    </trkpt>
    <trkpt lat="50.8000841" lon="7.0945426">
      <time>2023-02-26T14:26:28Z</time>
    </trkpt>
    <trkpt lat="50.8000515" lon="7.0944923">
      <time>2023-02-26T14:26:29Z</time>
    </trkpt>
    <trkpt lat="50.7999101" lon="7.0942672">
      <time>2023-02-26T14:26:34Z</time>
    </trkpt>
    <trkpt lat="50.7998802" lon="7.0942225">
      <time>2023-02-26T14:26:35Z</time>
    </trkpt>
    <trkpt lat="50.7998469" lon="7.0941243">
      <time>2023-02-26T14:26:37Z</time>
    </trkpt>
    <trkpt lat="50.7998518" lon="7.0940713">
      <time>2023-02-26T14:26:38Z</time>
    </trkpt>
    <trkpt lat="50.7999315" lon="7.0938944">
      <time>2023-02-26T14:26:42Z</time>
    </trkpt>
    <trkpt lat="50.7999848" lon="7.0938086">
      <time>2023-02-26T14:26:44Z</time>
    </trkpt>
    <trkpt lat="50.8000965" lon="7.0936320">
      <time>2023-02-26T14:26:47Z</time>
    </trkpt>
    <trkpt lat="50.8002036" lon="7.0934481">
      <time>2023-02-26T14:26:50Z</time>
    </trkpt>
    <trkpt lat="50.8002639" lon="7.0933273">
      <time>2023-02-26T14:26:52Z</time>
    </trkpt>
    <trkpt lat="50.8004960" lon="7.0928836">
      <time>2023-02-26T14:27:00Z</time>
    </trkpt>
    <trkpt lat="50.8005605" lon="7.0927862">
      <time>2023-02-26T14:27:02Z</time>
    </trkpt>
    <trkpt lat="50.8006553" lon="7.0926390">
      <time>2023-02-26T14:27:05Z</time>
    </trkpt>
    <trkpt lat="50.8006826" lon="7.0925894">
      <time>2023-02-26T14:27:06Z</time>
    </trkpt>
    <trkpt lat="50.8008066" lon="7.0924194">
      <time>2023-02-26T14:27:10Z</time>
    </trkpt>
    <trkpt lat="50.8008718" lon="7.0923409">
      <time>2023-02-26T14:27:12Z</time>
    </trkpt>
    <trkpt lat="50.8009365" lon="7.0922566">
      <time>2023-02-26T14:27:14Z</time>
    </trkpt>
    <trkpt lat="50.8011112" lon="7.0920403">
      <time>2023-02-26T14:27:19Z</time>
    </trkpt>
    <trkpt lat="50.8011848" lon="7.0919636">
      <time>2023-02-26T14:27:21Z</time>
    </trkpt>
    <trkpt lat="50.8012488" lon="7.0918853">
      <time>2023-02-26T14:27:23Z</time>
    </trkpt>
    <trkpt lat="50.8014562" lon="7.0916378">
      <time>2023-02-26T14:27:30Z</time>
    </trkpt>
    <trkpt lat="50.8016537" lon="7.0913741">
      <time>2023-02-26T14:27:37Z</time>
    </trkpt>
    <trkpt lat="50.8019164" lon="7.0910963">
      <time>2023-02-26T14:27:45Z</time>
    </trkpt>
    <trkpt lat="50.8020821" lon="7.0909092">
      <time>2023-02-26T14:27:50Z</time>
    </trkpt>
    <trkpt lat="50.8022496" lon="7.0906885">
      <time>2023-02-26T14:27:56Z</time>
    </trkpt>
    <trkpt lat="50.8022760" lon="7.0905940">
      <time>2023-02-26T14:27:58Z</time>
    </trkpt>
    <trkpt lat="50.8022571" lon="7.0905018">
      <time>2023-02-26T14:28:00Z</time>
    </trkpt>
    <trkpt lat="50.8021047" lon="7.0902397">
      <time>2023-02-26T14:28:06Z</time>
    </trkpt>
    <trkpt lat="50.8019804" lon="7.0900356">
      <time>2023-02-26T14:28:10Z</time>
    </trkpt>
    <trkpt lat="50.8019271" lon="7.0899408">
      <time>2023-02-26T14:28:12Z</time>
    </trkpt>
    <trkpt lat="50.8018204" lon="7.0897827">
      <time>2023-02-26T14:28:15Z</time>
    </trkpt>
    <trkpt lat="50.8017532" lon="7.0896782">
      <time>2023-02-26T14:28:17Z</time>
    </trkpt>
    <trkpt lat="50.8016426" lon="7.0895031">
      <time>2023-02-26T14:28:20Z</time>
    </trkpt>
    <trkpt lat="50.8015362" lon="7.0893446">
      <time>2023-02-26T14:28:23Z</time>
    </trkpt>
    <trkpt lat="50.8014673" lon="7.0892325">
      <time>2023-02-26T14:28:25Z</time>
    </trkpt>
    <trkpt lat="50.8014044" lon="7.0891536">
      <time>2023-02-26T14:28:27Z</time>
    </trkpt>
    <trkpt lat="50.8013752" lon="7.0891131">
      <time>2023-02-26T14:28:28Z</time>
    </trkpt>
    <trkpt lat="50.8013168" lon="7.0890126">
      <time>2023-02-26T14:28:30Z</time>
    </trkpt>
    <trkpt lat="50.8012877" lon="7.0889599">
      <time>2023-02-26T14:28:31Z</time>
    </trkpt>
    <trkpt lat="50.8012178" lon="7.0888566">
      <time>2023-02-26T14:28:33Z</time>
    </trkpt>
    <trkpt lat="50.8011658" lon="7.0887560">
      <time>2023-02-26T14:28:35Z</time>
    </trkpt>
    <trkpt lat="50.8011410" lon="7.0887013">
      <time>2023-02-26T14:28:36Z</time>
    </trkpt>
    <trkpt lat="50.8009419" lon="7.0883292">
      <time>2023-02-26T14:28:43Z</time>
    </trkpt>
    <trkpt lat="50.8009126" lon="7.0882695">
      <time>2023-02-26T14:28:44Z</time>
    </trkpt>
    <trkpt lat="50.8007932" lon="7.0880605">
      <time>2023-02-26T14:28:48Z</time>
    </trkpt>
    <trkpt lat="50.8006771" lon="7.0878825">
      <time>2023-02-26T14:28:52Z</time>
    </trkpt>
    <trkpt lat="50.8004710" lon="7.0875619">
      <time>2023-02-26T14:28:59Z</time>
    </trkpt>
    <trkpt lat="50.8003388" lon="7.0873162">
      <time>2023-02-26T14:29:04Z</time>
    </trkpt>
    <trkpt lat="50.8003110" lon="7.0872663">
      <time>2023-02-26T14:29:05Z</time>
    </trkpt>
    <trkpt lat="50.8001814" lon="7.0870677">
      <time>2023-02-26T14:29:09Z</time>
    </trkpt>
    <trkpt lat="50.8001263" lon="7.0869727">
      <time>2023-02-26T14:29:11Z</time>
    </trkpt>
    <trkpt lat="50.8000327" lon="7.0868200">
      <time>2023-02-26T14:29:14Z</time>
    </trkpt>
    <trkpt lat="50.7998478" lon="7.0865081">
      <time>2023-02-26T14:29:21Z</time>
    </trkpt>
    <trkpt lat="50.7996967" lon="7.0862333">
      <time>2023-02-26T14:29:27Z</time>
    </trkpt>
    <trkpt lat="50.7995678" lon="7.0860126">
      <time>2023-02-26T14:29:32Z</time>
    </trkpt>
    <trkpt lat="50.7994292" lon="7.0857889">
      <time>2023-02-26T14:29:37Z</time>
    </trkpt>
    <trkpt lat="50.7993981" lon="7.0857371">
      <time>2023-02-26T14:29:38Z</time>
    </trkpt>
    <trkpt lat="50.7993700" lon="7.0856862">
      <time>2023-02-26T14:29:39Z</time>
    </trkpt>
    <trkpt lat="50.7992253" lon="7.0854610">
      <time>2023-02-26T14:29:44Z</time>
    </trkpt>
    <trkpt lat="50.7991992" lon="7.0854212">
      <time>2023-02-26T14:29:45Z</time>
    </trkpt>
    <trkpt lat="50.7990345" lon="7.0851541">
      <time>2023-02-26T14:29:51Z</time>
    </trkpt>
    <trkpt lat="50.7988434" lon="7.0848352">
      <time>2023-02-26T14:29:58Z</time>
    </trkpt>
    <trkpt lat="50.7987066" lon="7.0845887">
      <time>2023-02-26T14:30:04Z</time>
    </trkpt>
    <trkpt lat="50.7985139" lon="7.0842746">
      <time>2023-02-26T14:30:11Z</time>
    </trkpt>
    <trkpt lat="50.7983672" lon="7.0840365">
      <time>2023-02-26T14:30:16Z</time>
    </trkpt>
    <trkpt lat="50.7982290" lon="7.0838000">
      <time>2023-02-26T14:30:21Z</time>
    </trkpt>
    <trkpt lat="50.7980981" lon="7.0835778">
      <time>2023-02-26T14:30:26Z</time>
    </trkpt>
    <trkpt lat="50.7979650" lon="7.0833399">
      <time>2023-02-26T14:30:31Z</time>
    </trkpt>
    <trkpt lat="50.7979356" lon="7.0832962">
      <time>2023-02-26T14:30:32Z</time>
    </trkpt>
    <trkpt lat="50.7978793" lon="7.0832108">
      <time>2023-02-26T14:30:34Z</time>
    </trkpt>
    <trkpt lat="50.7978249" lon="7.0831262">
      <time>2023-02-26T14:30:36Z</time>
    </trkpt>
    <trkpt lat="50.7977682" lon="7.0830417">
      <time>2023-02-26T14:30:38Z</time>
    </trkpt>
    <trkpt lat="50.7976699" lon="7.0828601">
      <time>2023-02-26T14:30:42Z</time>
    </trkpt>
    <trkpt lat="50.7974995" lon="7.0825788">
      <time>2023-02-26T14:30:48Z</time>
    </trkpt>
    <trkpt lat="50.7973477" lon="7.0823332">
      <time>2023-02-26T14:30:53Z</time>
    </trkpt>
    <trkpt lat="50.7973189" lon="7.0822836">
      <time>2023-02-26T14:30:54Z</time>
    </trkpt>
    <trkpt lat="50.7972882" lon="7.0822325">
      <time>2023-02-26T14:30:55Z</time>
    </trkpt>
    <trkpt lat="50.7971968" lon="7.0820810">
      <time>2023-02-26T14:30:58Z</time>
    </trkpt>
    <trkpt lat="50.7971687" lon="7.0820323">
      <time>2023-02-26T14:30:59Z</time>
    </trkpt>
    <trkpt lat="50.7970790" lon="7.0818953">
      <time>2023-02-26T14:31:02Z</time>
    </trkpt>
    <trkpt lat="50.7969856" lon="7.0817500">
      <time>2023-02-26T14:31:05Z</time>
    </trkpt>
    <trkpt lat="50.7969578" lon="7.0817039">
      <time>2023-02-26T14:31:06Z</time>
    </trkpt>
    <trkpt lat="50.7968747" lon="7.0815646">
      <time>2023-02-26T14:31:09Z</time>
    </trkpt>
    <trkpt lat="50.7968537" lon="7.0815266">
      <time>2023-02-26T14:31:10Z</time>
    </trkpt>
    <trkpt lat="50.7966952" lon="7.0812274">
      <time>2023-02-26T14:31:16Z</time>
    </trkpt>
    <trkpt lat="50.7965441" lon="7.0809917">
      <time>2023-02-26T14:31:21Z</time>
    </trkpt>
    <trkpt lat="50.7964444" lon="7.0808335">
      <time>2023-02-26T14:31:24Z</time>
    </trkpt>
    <trkpt lat="50.7963810" lon="7.0807301">
      <time>2023-02-26T14:31:26Z</time>
    </trkpt>
    <trkpt lat="50.7963479" lon="7.0806741">
      <time>2023-02-26T14:31:27Z</time>
    </trkpt>
    <trkpt lat="50.7962876" lon="7.0805590">
      <time>2023-02-26T14:31:29Z</time>
    </trkpt>
    <trkpt lat="50.7962363" lon="7.0804639">
      <time>2023-02-26T14:31:31Z</time>
    </trkpt>
    <trkpt lat="50.7961285" lon="7.0802540">
      <time>2023-02-26T14:31:36Z</time>
    </trkpt>
    <trkpt lat="50.7960154" lon="7.0799961">
      <time>2023-02-26T14:31:42Z</time>
    </trkpt>
    <trkpt lat="50.7958744" lon="7.0796810">
      <time>2023-02-26T14:31:48Z</time>
    </trkpt>
    <trkpt lat="50.7958004" lon="7.0795188">
      <time>2023-02-26T14:31:51Z</time>
    </trkpt>
    <trkpt lat="50.7957522" lon="7.0794041">
      <time>2023-02-26T14:31:53Z</time>
    </trkpt>
    <trkpt lat="50.7957001" lon="7.0792960">
      <time>2023-02-26T14:31:55Z</time>
    </trkpt>
    <trkpt lat="50.7955955" lon="7.0790672">
      <time>2023-02-26T14:31:59Z</time>
    </trkpt>
    <trkpt lat="50.7954272" lon="7.0787186">
      <time>2023-02-26T14:32:05Z</time>
    </trkpt>
    <trkpt lat="50.7952850" lon="7.0784085">
      <time>2023-02-26T14:32:10Z</time>
    </trkpt>
    <trkpt lat="50.7952554" lon="7.0783490">
      <time>2023-02-26T14:32:11Z</time>
    </trkpt>
    <trkpt lat="50.7951401" lon="7.0781260">
      <time>2023-02-26T14:32:15Z</time>
    </trkpt>
    <trkpt lat="50.7950640" lon="7.0779580">
      <time>2023-02-26T14:32:18Z</time>
    </trkpt>
    <trkpt lat="50.7949019" lon="7.0776277">
      <time>2023-02-26T14:32:24Z</time>
    </trkpt>
    <trkpt lat="50.7948762" lon="7.0775706">
      <time>2023-02-26T14:32:25Z</time>
    </trkpt>
    <trkpt lat="50.7948506" lon="7.0775156">
      <time>2023-02-26T14:32:26Z</time>
    </trkpt>
    <trkpt lat="50.7947266" lon="7.0772394">
      <time>2023-02-26T14:32:31Z</time>
    </trkpt>
    <trkpt lat="50.7945599" lon="7.0768947">
      <time>2023-02-26T14:32:38Z</time>
    </trkpt>
    <trkpt lat="50.7944450" lon="7.0766595">
      <time>2023-02-26T14:32:42Z</time>
    </trkpt>
    <trkpt lat="50.7943619" lon="7.0764891">
      <time>2023-02-26T14:32:45Z</time>
    </trkpt>
    <trkpt lat="50.7943329" lon="7.0764308">
      <time>2023-02-26T14:32:46Z</time>
    </trkpt>
    <trkpt lat="50.7942682" lon="7.0763156">
      <time>2023-02-26T14:32:48Z</time>
    </trkpt>
    <trkpt lat="50.7942121" lon="7.0761823">
      <time>2023-02-26T14:32:50Z</time>
    </trkpt>
    <trkpt lat="50.7940033" lon="7.0757287">
      <time>2023-02-26T14:32:57Z</time>
    </trkpt>
    <trkpt lat="50.7939710" lon="7.0756590">
      <time>2023-02-26T14:32:58Z</time>
    </trkpt>
    <trkpt lat="50.7937500" lon="7.0751964">
      <time>2023-02-26T14:33:05Z</time>
    </trkpt>
    <trkpt lat="50.7936197" lon="7.0749030">
      <time>2023-02-26T14:33:10Z</time>
    </trkpt>
    <trkpt lat="50.7935064" lon="7.0746463">
      <time>2023-02-26T14:33:15Z</time>
    </trkpt>
    <trkpt lat="50.7934816" lon="7.0745926">
      <time>2023-02-26T14:33:16Z</time>
    </trkpt>
    <trkpt lat="50.7934028" lon="7.0744383">
      <time>2023-02-26T14:33:19Z</time>
    </trkpt>
    <trkpt lat="50.7933514" lon="7.0743251">
      <time>2023-02-26T14:33:21Z</time>
    </trkpt>
    <trkpt lat="50.7932781" lon="7.0741677">
      <time>2023-02-26T14:33:24Z</time>
    </trkpt>
    <trkpt lat="50.7932093" lon="7.0740159">
      <time>2023-02-26T14:33:27Z</time>
    </trkpt>
    <trkpt lat="50.7931883" lon="7.0739631">
      <time>2023-02-26T14:33:28Z</time>
    </trkpt>
    <trkpt lat="50.7930193" lon="7.0736234">
      <time>2023-02-26T14:33:34Z</time>
    </trkpt>
    <trkpt lat="50.7929319" lon="7.0734458">
      <time>2023-02-26T14:33:37Z</time>
    </trkpt>
    <trkpt lat="50.7928745" lon="7.0733338">
      <time>2023-02-26T14:33:39Z</time>
    </trkpt>
    <trkpt lat="50.7928218" lon="7.0732169">
      <time>2023-02-26T14:33:41Z</time>
    </trkpt>
    <trkpt lat="50.7927715" lon="7.0731066">
      <time>2023-02-26T14:33:43Z</time>
    </trkpt>
    <trkpt lat="50.7927508" lon="7.0730606">
      <time>2023-02-26T14:33:44Z</time>
    </trkpt>
    <trkpt lat="50.7927202" lon="7.0729964">
      <time>2023-02-26T14:33:45Z</time>
    </trkpt>
    <trkpt lat="50.7926683" lon="7.0728910">
      <time>2023-02-26T14:33:47Z</time>
    </trkpt>
    <trkpt lat="50.7926159" lon="7.0727900">
      <time>2023-02-26T14:33:49Z</time>
    </trkpt>
    <trkpt lat="50.7925687" lon="7.0726886">
      <time>2023-02-26T14:33:51Z</time>
    </trkpt>
    <trkpt lat="50.7924818" lon="7.0724849">
      <time>2023-02-26T14:33:55Z</time>
    </trkpt>
    <trkpt lat="50.7923512" lon="7.0722359">
      <time>2023-02-26T14:34:00Z</time>
    </trkpt>
    <trkpt lat="50.7921745" lon="7.0718638">
      <time>2023-02-26T14:34:08Z</time>
    </trkpt>
    <trkpt lat="50.7920457" lon="7.0715977">
      <time>2023-02-26T14:34:14Z</time>
    </trkpt>
    <trkpt lat="50.7920034" lon="7.0714857">
      <time>2023-02-26T14:34:16Z</time>
    </trkpt>
    <trkpt lat="50.7919995" lon="7.0713656">
      <time>2023-02-26T14:34:18Z</time>
    </trkpt>
    <trkpt lat="50.7920170" lon="7.0713132">
      <time>2023-02-26T14:34:19Z</time>
    </trkpt>
    <trkpt lat="50.7920727" lon="7.0712280">
      <time>2023-02-26T14:34:21Z</time>
    </trkpt>
    <trkpt lat="50.7922242" lon="7.0710873">
      <time>2023-02-26T14:34:26Z</time>
    </trkpt>
    <trkpt lat="50.7923659" lon="7.0709339">
      <time>2023-02-26T14:34:31Z</time>
    </trkpt>
    <trkpt lat="50.7926625" lon="7.0706027">
      <time>2023-02-26T14:34:41Z</time>
    </trkpt>
    <trkpt lat="50.7928541" lon="7.0704014">
      <time>2023-02-26T14:34:47Z</time>
    </trkpt>
    <trkpt lat="50.7930291" lon="7.0701813">
      <time>2023-02-26T14:34:53Z</time>
    </trkpt>
    <trkpt lat="50.7932439" lon="7.0699407">
      <time>2023-02-26T14:35:00Z</time>
    </trkpt>
    <trkpt lat="50.7934133" lon="7.0697304">
      <time>2023-02-26T14:35:06Z</time>
    </trkpt>
    <trkpt lat="50.7936261" lon="7.0694960">
      <time>2023-02-26T14:35:13Z</time>
    </trkpt>
    <trkpt lat="50.7937897" lon="7.0692947">
      <time>2023-02-26T14:35:19Z</time>
    </trkpt>
    <trkpt lat="50.7939647" lon="7.0690924">
      <time>2023-02-26T14:35:26Z</time>
    </trkpt>
    <trkpt lat="50.7941356" lon="7.0688926">
      <time>2023-02-26T14:35:33Z</time>
    </trkpt>
    <trkpt lat="50.7943341" lon="7.0686588">
      <time>2023-02-26T14:35:39Z</time>
    </trkpt>
    <trkpt lat="50.7945258" lon="7.0684284">
      <time>2023-02-26T14:35:45Z</time>
    </trkpt>
    <trkpt lat="50.7946583" lon="7.0682604">
      <time>2023-02-26T14:35:49Z</time>
    </trkpt>
    <trkpt lat="50.7947544" lon="7.0681436">
      <time>2023-02-26T14:35:52Z</time>
    </trkpt>
    <trkpt lat="50.7947852" lon="7.0681042">
      <time>2023-02-26T14:35:53Z</time>
    </trkpt>
    <trkpt lat="50.7949129" lon="7.0679570">
      <time>2023-02-26T14:35:57Z</time>
    </trkpt>
    <trkpt lat="50.7951235" lon="7.0677062">
      <time>2023-02-26T14:36:05Z</time>
    </trkpt>
    <trkpt lat="50.7952606" lon="7.0675388">
      <time>2023-02-26T14:36:10Z</time>
    </trkpt>
    <trkpt lat="50.7954995" lon="7.0672709">
      <time>2023-02-26T14:36:18Z</time>
    </trkpt>
    <trkpt lat="50.7957548" lon="7.0669664">
      <time>2023-02-26T14:36:27Z</time>
    </trkpt>
    <trkpt lat="50.7959050" lon="7.0667819">
      <time>2023-02-26T14:36:32Z</time>
    </trkpt>
    <trkpt lat="50.7960156" lon="7.0666407">
      <time>2023-02-26T14:36:36Z</time>
    </trkpt>
    <trkpt lat="50.7961766" lon="7.0664459">
      <time>2023-02-26T14:36:42Z</time>
    </trkpt>
    <trkpt lat="50.7963488" lon="7.0662526">
      <time>2023-02-26T14:36:48Z</time>
    </trkpt>
    <trkpt lat="50.7964991" lon="7.0660828">
      <time>2023-02-26T14:36:53Z</time>
    </trkpt>
    <trkpt lat="50.7966643" lon="7.0658957">
      <time>2023-02-26T14:36:59Z</time>
    </trkpt>
    <trkpt lat="50.7968272" lon="7.0656772">
      <time>2023-02-26T14:37:05Z</time>
    </trkpt>
    <trkpt lat="50.7968702" lon="7.0655916">
      <time>2023-02-26T14:37:07Z</time>
    </trkpt>
    <trkpt lat="50.7968729" lon="7.0654888">
      <time>2023-02-26T14:37:09Z</time>
    </trkpt>
    <trkpt lat="50.7967437" lon="7.0652230">
      <time>2023-02-26T14:37:15Z</time>
    </trkpt>
    <trkpt lat="50.7966066" lon="7.0649448">
      <time>2023-02-26T14:37:21Z</time>
    </trkpt>
    <trkpt lat="50.7964818" lon="7.0646632">
      <time>2023-02-26T14:37:27Z</time>
    </trkpt>
    <trkpt lat="50.7963568" lon="7.0644108">
      <time>2023-02-26T14:37:32Z</time>
    </trkpt>
    <trkpt lat="50.7963290" lon="7.0643573">
      <time>2023-02-26T14:37:33Z</time>
    </trkpt>
    <trkpt lat="50.7962608" lon="7.0642589">
      <time>2023-02-26T14:37:35Z</time>
    </trkpt>
    <trkpt lat="50.7962019" lon="7.0641422">
      <time>2023-02-26T14:37:37Z</time>
    </trkpt>
    <trkpt lat="50.7961687" lon="7.0640957">
      <time>2023-02-26T14:37:38Z</time>
    </trkpt>
    <trkpt lat="50.7961366" lon="7.0640551">
      <time>2023-02-26T14:37:39Z</time>
    </trkpt>
    <trkpt lat="50.7960789" lon="7.0639729">
      <time>2023-02-26T14:37:41Z</time>
    </trkpt>
    <trkpt lat="50.7960518" lon="7.0639351">
      <time>2023-02-26T14:37:42Z</time>
    </trkpt>
    <trkpt lat="50.7959393" lon="7.0638111">
      <time>2023-02-26T14:37:46Z</time>
    </trkpt>
    <trkpt lat="50.7958208" lon="7.0636535">
      <time>2023-02-26T14:37:51Z</time>
    </trkpt>
    <trkpt lat="50.7956991" lon="7.0634937">
      <time>2023-02-26T14:37:56Z</time>
    </trkpt>
    <trkpt lat="50.7956093" lon="7.0633536">
      <time>2023-02-26T14:38:01Z</time>
    </trkpt>
    <trkpt lat="50.7955463" lon="7.0632293">
      <time>2023-02-26T14:38:06Z</time>
    </trkpt>
    <trkpt lat="50.7955376" lon="7.0632016">
      <time>2023-02-26T14:38:07Z</time>
    </trkpt>
    <trkpt lat="50.7954350" lon="7.0629799">
      <time>2023-02-26T14:38:14Z</time>
    </trkpt>
    <trkpt lat="50.7953170" lon="7.0626668">
      <time>2023-02-26T14:38:19Z</time>
    </trkpt>
    <trkpt lat="50.7951380" lon="7.0622017">
      <time>2023-02-26T14:38:25Z</time>
    </trkpt>
    <trkpt lat="50.7950241" lon="7.0618382">
      <time>2023-02-26T14:38:29Z</time>
    </trkpt>
    <trkpt lat="50.7950020" lon="7.0617539">
      <time>2023-02-26T14:38:30Z</time>
    </trkpt>
    <trkpt lat="50.7949615" lon="7.0615271">
      <time>2023-02-26T14:38:33Z</time>
    </trkpt>
    <trkpt lat="50.7949146" lon="7.0614031">
      <time>2023-02-26T14:38:35Z</time>
    </trkpt>
    <trkpt lat="50.7947444" lon="7.0610650">
      <time>2023-02-26T14:38:42Z</time>
    </trkpt>
    <trkpt lat="50.7946294" lon="7.0608072">
      <time>2023-02-26T14:38:48Z</time>
    </trkpt>
    <trkpt lat="50.7945577" lon="7.0606054">
      <time>2023-02-26T14:38:54Z</time>
    </trkpt>
    <trkpt lat="50.7945491" lon="7.0605857">
      <time>2023-02-26T14:38:55Z</time>
    </trkpt>
    <trkpt lat="50.7945449" lon="7.0605861">
      <time>2023-02-26T14:38:57Z</time>
    </trkpt>
    <trkpt lat="50.7945628" lon="7.0606406">
      <time>2023-02-26T14:38:59Z</time>
    </trkpt>
    <trkpt lat="50.7946128" lon="7.0607337">
      <time>2023-02-26T14:39:02Z</time>
    </trkpt>
    <trkpt lat="50.7947084" lon="7.0609314">
      <time>2023-02-26T14:39:06Z</time>
    </trkpt>
    <trkpt lat="50.7948419" lon="7.0611807">
      <time>2023-02-26T14:39:11Z</time>
    </trkpt>
    <trkpt lat="50.7950174" lon="7.0615638">
      <time>2023-02-26T14:39:18Z</time>
    </trkpt>
    <trkpt lat="50.7950417" lon="7.0616953">
      <time>2023-02-26T14:39:20Z</time>
    </trkpt>
    <trkpt lat="50.7950570" lon="7.0617993">
      <time>2023-02-26T14:39:22Z</time>
    </trkpt>
    <trkpt lat="50.7951816" lon="7.0622656">
      <time>2023-02-26T14:39:30Z</time>
    </trkpt>
    <trkpt lat="50.7952456" lon="7.0624535">
      <time>2023-02-26T14:39:34Z</time>
    </trkpt>
    <trkpt lat="50.7952980" lon="7.0626198">
      <time>2023-02-26T14:39:38Z</time>
    </trkpt>
    <trkpt lat="50.7953953" lon="7.0628372">
      <time>2023-02-26T14:39:44Z</time>
    </trkpt>
    <trkpt lat="50.7954680" lon="7.0630371">
      <time>2023-02-26T14:39:49Z</time>
    </trkpt>
    <trkpt lat="50.7955259" lon="7.0631941">
      <time>2023-02-26T14:39:54Z</time>
    </trkpt>
    <trkpt lat="50.7955770" lon="7.0633041">
      <time>2023-02-26T14:39:59Z</time>
    </trkpt>
    <trkpt lat="50.7956344" lon="7.0634500">
      <time>2023-02-26T14:40:04Z</time>
    </trkpt>
    <trkpt lat="50.7957352" lon="7.0636145">
      <time>2023-02-26T14:40:09Z</time>
    </trkpt>
    <trkpt lat="50.7959069" lon="7.0638662">
      <time>2023-02-26T14:40:15Z</time>
    </trkpt>
    <trkpt lat="50.7961656" lon="7.0641824">
      <time>2023-02-26T14:40:22Z</time>
    </trkpt>
    <trkpt lat="50.7963307" lon="7.0644057">
      <time>2023-02-26T14:40:27Z</time>
    </trkpt>
    <trkpt lat="50.7963839" lon="7.0644914">
      <time>2023-02-26T14:40:29Z</time>
    </trkpt>
    <trkpt lat="50.7964811" lon="7.0646810">
      <time>2023-02-26T14:40:34Z</time>
    </trkpt>
    <trkpt lat="50.7965791" lon="7.0648769">
      <time>2023-02-26T14:40:39Z</time>
    </trkpt>
    <trkpt lat="50.7966933" lon="7.0651217">
      <time>2023-02-26T14:40:45Z</time>
    </trkpt>
    <trkpt lat="50.7967686" lon="7.0652933">
      <time>2023-02-26T14:40:49Z</time>
    </trkpt>
    <trkpt lat="50.7968569" lon="7.0654855">
      <time>2023-02-26T14:40:54Z</time>
    </trkpt>
    <trkpt lat="50.7968682" lon="7.0655498">
      <time>2023-02-26T14:40:56Z</time>
    </trkpt>
    <trkpt lat="50.7968628" lon="7.0656135">
      <time>2023-02-26T14:40:58Z</time>
    </trkpt>
    <trkpt lat="50.7968633" lon="7.0656390">
      <time>2023-02-26T14:40:59Z</time>
    </trkpt>
    <trkpt lat="50.7968837" lon="7.0656318">
      <time>2023-02-26T14:41:01Z</time>
    </trkpt>
    <trkpt lat="50.7968829" lon="7.0656120">
      <time>2023-02-26T14:41:02Z</time>
    </trkpt>
    <trkpt lat="50.7968770" lon="7.0655768">
      <time>2023-02-26T14:41:05Z</time>
    </trkpt>
    <trkpt lat="50.7968737" lon="7.0655303">
      <time>2023-02-26T14:41:08Z</time>
    </trkpt>
    <trkpt lat="50.7968484" lon="7.0654684">
      <time>2023-02-26T14:41:10Z</time>
    </trkpt>
    <trkpt lat="50.7968051" lon="7.0654027">
      <time>2023-02-26T14:41:13Z</time>
    </trkpt>
    <trkpt lat="50.7967903" lon="7.0653681">
      <time>2023-02-26T14:41:14Z</time>
    </trkpt>
    <trkpt lat="50.7966985" lon="7.0651707">
      <time>2023-02-26T14:41:19Z</time>
    </trkpt>
    <trkpt lat="50.7966016" lon="7.0649678">
      <time>2023-02-26T14:41:24Z</time>
    </trkpt>
    <trkpt lat="50.7964755" lon="7.0646801">
      <time>2023-02-26T14:41:30Z</time>
    </trkpt>
    <trkpt lat="50.7963548" lon="7.0644259">
      <time>2023-02-26T14:41:35Z</time>
    </trkpt>
    <trkpt lat="50.7960964" lon="7.0640244">
      <time>2023-02-26T14:41:44Z</time>
    </trkpt>
    <trkpt lat="50.7959384" lon="7.0638576">
      <time>2023-02-26T14:41:49Z</time>
    </trkpt>
    <trkpt lat="50.7957887" lon="7.0636590">
      <time>2023-02-26T14:41:55Z</time>
    </trkpt>
    <trkpt lat="50.7957275" lon="7.0635569">
      <time>2023-02-26T14:41:58Z</time>
    </trkpt>
    <trkpt lat="50.7956938" lon="7.0634686">
      <time>2023-02-26T14:42:00Z</time>
    </trkpt>
    <trkpt lat="50.7956119" lon="7.0633186">
      <time>2023-02-26T14:42:05Z</time>
    </trkpt>
    <trkpt lat="50.7955291" lon="7.0631706">
      <time>2023-02-26T14:42:11Z</time>
    </trkpt>
    <trkpt lat="50.7954458" lon="7.0629981">
      <time>2023-02-26T14:42:17Z</time>
    </trkpt>
    <trkpt lat="50.7953427" lon="7.0627054">
      <time>2023-02-26T14:42:22Z</time>
    </trkpt>
    <trkpt lat="50.7951713" lon="7.0622210">
      <time>2023-02-26T14:42:28Z</time>
    </trkpt>
    <trkpt lat="50.7950305" lon="7.0616703">
      <time>2023-02-26T14:42:34Z</time>
    </trkpt>
    <trkpt lat="50.7950071" lon="7.0615909">
      <time>2023-02-26T14:42:35Z</time>
    </trkpt>
    <trkpt lat="50.7949262" lon="7.0613907">
      <time>2023-02-26T14:42:38Z</time>
    </trkpt>
    <trkpt lat="50.7947245" lon="7.0609858">
      <time>2023-02-26T14:42:46Z</time>
    </trkpt>
    <trkpt lat="50.7946148" lon="7.0607332">
      <time>2023-02-26T14:42:51Z</time>
    </trkpt>
    <trkpt lat="50.7945164" lon="7.0604701">
      <time>2023-02-26T14:42:56Z</time>
    </trkpt>
    <trkpt lat="50.7944009" lon="7.0601604">
      <time>2023-02-26T14:43:02Z</time>
    </trkpt>
    <trkpt lat="50.7942980" lon="7.0598714">
      <time>2023-02-26T14:43:08Z</time>
    </trkpt>
    <trkpt lat="50.7941871" lon="7.0595364">
      <time>2023-02-26T14:43:15Z</time>
    </trkpt>
    <trkpt lat="50.7940535" lon="7.0590930">
      <time>2023-02-26T14:43:23Z</time>
    </trkpt>
    <trkpt lat="50.7939319" lon="7.0587128">
      <time>2023-02-26T14:43:30Z</time>
    </trkpt>
    <trkpt lat="50.7938156" lon="7.0584493">
      <time>2023-02-26T14:43:36Z</time>
    </trkpt>
    <trkpt lat="50.7937213" lon="7.0582552">
      <time>2023-02-26T14:43:41Z</time>
    </trkpt>
    <trkpt lat="50.7935809" lon="7.0579765">
      <time>2023-02-26T14:43:48Z</time>
    </trkpt>
    <trkpt lat="50.7934921" lon="7.0577546">
      <time>2023-02-26T14:43:54Z</time>
    </trkpt>
    <trkpt lat="50.7934609" lon="7.0576805">
      <time>2023-02-26T14:43:57Z</time>
    </trkpt>
    <trkpt lat="50.7934475" lon="7.0576789">
      <time>2023-02-26T14:43:59Z</time>
    </trkpt>
    <trkpt lat="50.7934374" lon="7.0577026">
      <time>2023-02-26T14:44:00Z</time>
    </trkpt>
    <trkpt lat="50.7934587" lon="7.0577310">
      <time>2023-02-26T14:44:02Z</time>
    </trkpt>
    <trkpt lat="50.7935414" lon="7.0579005">
      <time>2023-02-26T14:44:07Z</time>
    </trkpt>
    <trkpt lat="50.7936175" lon="7.0581204">
      <time>2023-02-26T14:44:12Z</time>
    </trkpt>
    <trkpt lat="50.7936393" lon="7.0581582">
      <time>2023-02-26T14:44:13Z</time>
    </trkpt>
    <trkpt lat="50.7937642" lon="7.0584283">
      <time>2023-02-26T14:44:19Z</time>
    </trkpt>
    <trkpt lat="50.7938125" lon="7.0585445">
      <time>2023-02-26T14:44:21Z</time>
    </trkpt>
    <trkpt lat="50.7938758" lon="7.0586746">
      <time>2023-02-26T14:44:23Z</time>
    </trkpt>
    <trkpt lat="50.7938960" lon="7.0587260">
      <time>2023-02-26T14:44:24Z</time>
    </trkpt>
    <trkpt lat="50.7939837" lon="7.0589793">
      <time>2023-02-26T14:44:28Z</time>
    </trkpt>
    <trkpt lat="50.7940295" lon="7.0591148">
      <time>2023-02-26T14:44:30Z</time>
    </trkpt>
    <trkpt lat="50.7940916" lon="7.0593026">
      <time>2023-02-26T14:44:33Z</time>
    </trkpt>
    <trkpt lat="50.7941392" lon="7.0594077">
      <time>2023-02-26T14:44:35Z</time>
    </trkpt>
    <trkpt lat="50.7941932" lon="7.0595586">
      <time>2023-02-26T14:44:38Z</time>
    </trkpt>
    <trkpt lat="50.7942616" lon="7.0597729">
      <time>2023-02-26T14:44:42Z</time>
    </trkpt>
    <trkpt lat="50.7943595" lon="7.0600371">
      <time>2023-02-26T14:44:47Z</time>
    </trkpt>
    <trkpt lat="50.7944361" lon="7.0602339">
      <time>2023-02-26T14:44:51Z</time>
    </trkpt>
    <trkpt lat="50.7945268" lon="7.0604722">
      <time>2023-02-26T14:44:56Z</time>
    </trkpt>
    <trkpt lat="50.7946242" lon="7.0607450">
      <time>2023-02-26T14:45:02Z</time>
    </trkpt>
    <trkpt lat="50.7947001" lon="7.0609664">
      <time>2023-02-26T14:45:07Z</time>
    </trkpt>
    <trkpt lat="50.7948658" lon="7.0612345">
      <time>2023-02-26T14:45:14Z</time>
    </trkpt>
    <trkpt lat="50.7949386" lon="7.0614228">
      <time>2023-02-26T14:45:18Z</time>
    </trkpt>
    <trkpt lat="50.7950231" lon="7.0617286">
      <time>2023-02-26T14:45:25Z</time>
    </trkpt>
    <trkpt lat="50.7950286" lon="7.0618226">
      <time>2023-02-26T14:45:27Z</time>
    </trkpt>
    <trkpt lat="50.7950627" lon="7.0619245">
      <time>2023-02-26T14:45:29Z</time>
    </trkpt>
    <trkpt lat="50.7951275" lon="7.0620832">
      <time>2023-02-26T14:45:33Z</time>
    </trkpt>
    <trkpt lat="50.7952264" lon="7.0623671">
      <time>2023-02-26T14:45:39Z</time>
    </trkpt>
    <trkpt lat="50.7952924" lon="7.0625843">
      <time>2023-02-26T14:45:44Z</time>
    </trkpt>
    <trkpt lat="50.7953655" lon="7.0628132">
      <time>2023-02-26T14:45:49Z</time>
    </trkpt>
    <trkpt lat="50.7953872" lon="7.0628452">
      <time>2023-02-26T14:45:50Z</time>
    </trkpt>
    <trkpt lat="50.7954709" lon="7.0631037">
      <time>2023-02-26T14:45:56Z</time>
    </trkpt>
    <trkpt lat="50.7955172" lon="7.0632342">
      <time>2023-02-26T14:46:01Z</time>
    </trkpt>
    <trkpt lat="50.7955671" lon="7.0633509">
      <time>2023-02-26T14:46:06Z</time>
    </trkpt>
    <trkpt lat="50.7956788" lon="7.0635207">
      <time>2023-02-26T14:46:14Z</time>
    </trkpt>
    <trkpt lat="50.7958126" lon="7.0637123">
      <time>2023-02-26T14:46:19Z</time>
    </trkpt>
    <trkpt lat="50.7958363" lon="7.0637524">
      <time>2023-02-26T14:46:20Z</time>
    </trkpt>
    <trkpt lat="50.7959803" lon="7.0639499">
      <time>2023-02-26T14:46:24Z</time>
    </trkpt>
    <trkpt lat="50.7962908" lon="7.0643554">
      <time>2023-02-26T14:46:32Z</time>
    </trkpt>
    <trkpt lat="50.7963540" lon="7.0644587">
      <time>2023-02-26T14:46:34Z</time>
    </trkpt>
    <trkpt lat="50.7964346" lon="7.0645904">
      <time>2023-02-26T14:46:37Z</time>
    </trkpt>
    <trkpt lat="50.7965410" lon="7.0648075">
      <time>2023-02-26T14:46:42Z</time>
    </trkpt>
    <trkpt lat="50.7966796" lon="7.0650660">
      <time>2023-02-26T14:46:49Z</time>
    </trkpt>
    <trkpt lat="50.7967541" lon="7.0652286">
      <time>2023-02-26T14:46:53Z</time>
    </trkpt>
    <trkpt lat="50.7968421" lon="7.0654175">
      <time>2023-02-26T14:46:58Z</time>
    </trkpt>
    <trkpt lat="50.7968925" lon="7.0655863">
      <time>2023-02-26T14:47:03Z</time>
    </trkpt>
    <trkpt lat="50.7969044" lon="7.0656033">
      <time>2023-02-26T14:47:04Z</time>
    </trkpt>
    <trkpt lat="50.7969198" lon="7.0655869">
      <time>2023-02-26T14:47:06Z</time>
    </trkpt>
    <trkpt lat="50.7969076" lon="7.0655346">
      <time>2023-02-26T14:47:08Z</time>
    </trkpt>
    <trkpt lat="50.7968568" lon="7.0654314">
      <time>2023-02-26T14:47:11Z</time>
    </trkpt>
    <trkpt lat="50.7967313" lon="7.0651929">
      <time>2023-02-26T14:47:17Z</time>
    </trkpt>
    <trkpt lat="50.7965594" lon="7.0648320">
      <time>2023-02-26T14:47:25Z</time>
    </trkpt>
    <trkpt lat="50.7964305" lon="7.0645637">
      <time>2023-02-26T14:47:31Z</time>
    </trkpt>
    <trkpt lat="50.7962290" lon="7.0642096">
      <time>2023-02-26T14:47:39Z</time>
    </trkpt>
    <trkpt lat="50.7960915" lon="7.0640419">
      <time>2023-02-26T14:47:44Z</time>
    </trkpt>
    <trkpt lat="50.7959305" lon="7.0638546">
      <time>2023-02-26T14:47:50Z</time>
    </trkpt>
    <trkpt lat="50.7957583" lon="7.0635951">
      <time>2023-02-26T14:47:57Z</time>
    </trkpt>
    <trkpt lat="50.7956614" lon="7.0634197">
      <time>2023-02-26T14:48:02Z</time>
    </trkpt>
    <trkpt lat="50.7956438" lon="7.0634125">
      <time>2023-02-26T14:48:03Z</time>
    </trkpt>
    <trkpt lat="50.7956307" lon="7.0634135">
      <time>2023-02-26T14:48:04Z</time>
    </trkpt>
    <trkpt lat="50.7956276" lon="7.0634158">
      <time>2023-02-26T14:48:07Z</time>
    </trkpt>
    <trkpt lat="50.7956511" lon="7.0634898">
      <time>2023-02-26T14:48:18Z</time>
    </trkpt>
    <trkpt lat="50.7956776" lon="7.0635523">
      <time>2023-02-26T14:48:20Z</time>
    </trkpt>
    <trkpt lat="50.7957718" lon="7.0636860">
      <time>2023-02-26T14:48:24Z</time>
    </trkpt>
    <trkpt lat="50.7958975" lon="7.0638508">
      <time>2023-02-26T14:48:28Z</time>
    </trkpt>
    <trkpt lat="50.7959726" lon="7.0639354">
      <time>2023-02-26T14:48:30Z</time>
    </trkpt>
    <trkpt lat="50.7960870" lon="7.0640720">
      <time>2023-02-26T14:48:33Z</time>
    </trkpt>
    <trkpt lat="50.7963389" lon="7.0644299">
      <time>2023-02-26T14:48:40Z</time>
    </trkpt>
    <trkpt lat="50.7964559" lon="7.0646555">
      <time>2023-02-26T14:48:45Z</time>
    </trkpt>
    <trkpt lat="50.7965545" lon="7.0648089">
      <time>2023-02-26T14:48:49Z</time>
    </trkpt>
    <trkpt lat="50.7966681" lon="7.0650198">
      <time>2023-02-26T14:48:54Z</time>
    </trkpt>
    <trkpt lat="50.7967442" lon="7.0652055">
      <time>2023-02-26T14:48:58Z</time>
    </trkpt>
    <trkpt lat="50.7968369" lon="7.0653931">
      <time>2023-02-26T14:49:03Z</time>
    </trkpt>
    <trkpt lat="50.7968649" lon="7.0655893">
      <time>2023-02-26T14:49:08Z</time>
    </trkpt>
    <trkpt lat="50.7968675" lon="7.0656021">
      <time>2023-02-26T14:49:09Z</time>
    </trkpt>
    <trkpt lat="50.7968984" lon="7.0655808">
      <time>2023-02-26T14:49:11Z</time>
    </trkpt>
    <trkpt lat="50.7969088" lon="7.0655554">
      <time>2023-02-26T14:49:12Z</time>
    </trkpt>
    <trkpt lat="50.7968912" lon="7.0654859">
      <time>2023-02-26T14:49:14Z</time>
    </trkpt>
    <trkpt lat="50.7968093" lon="7.0653281">
      <time>2023-02-26T14:49:18Z</time>
    </trkpt>
    <trkpt lat="50.7966610" lon="7.0650193">
      <time>2023-02-26T14:49:24Z</time>
    </trkpt>
    <trkpt lat="50.7966045" lon="7.0649033">
      <time>2023-02-26T14:49:26Z</time>
    </trkpt>
    <trkpt lat="50.7965521" lon="7.0648059">
      <time>2023-02-26T14:49:28Z</time>
    </trkpt>
    <trkpt lat="50.7965282" lon="7.0647631">
      <time>2023-02-26T14:49:29Z</time>
    </trkpt>
    <trkpt lat="50.7965038" lon="7.0647151">
      <time>2023-02-26T14:49:30Z</time>
    </trkpt>
    <trkpt lat="50.7964341" lon="7.0645590">
      <time>2023-02-26T14:49:33Z</time>
    </trkpt>
    <trkpt lat="50.7964087" lon="7.0645041">
      <time>2023-02-26T14:49:34Z</time>
    </trkpt>
    <trkpt lat="50.7963825" lon="7.0644469">
      <time>2023-02-26T14:49:35Z</time>
    </trkpt>
    <trkpt lat="50.7963212" lon="7.0643294">
      <time>2023-02-26T14:49:37Z</time>
    </trkpt>
    <trkpt lat="50.7962265" lon="7.0641853">
      <time>2023-02-26T14:49:40Z</time>
    </trkpt>
    <trkpt lat="50.7961985" lon="7.0641333">
      <time>2023-02-26T14:49:41Z</time>
    </trkpt>
    <trkpt lat="50.7961452" lon="7.0640356">
      <time>2023-02-26T14:49:43Z</time>
    </trkpt>
    <trkpt lat="50.7960804" lon="7.0639630">
      <time>2023-02-26T14:49:45Z</time>
    </trkpt>
    <trkpt lat="50.7959732" lon="7.0638574">
      <time>2023-02-26T14:49:48Z</time>
    </trkpt>
    <trkpt lat="50.7958501" lon="7.0637174">
      <time>2023-02-26T14:49:52Z</time>
    </trkpt>
    <trkpt lat="50.7956653" lon="7.0634349">
      <time>2023-02-26T14:49:59Z</time>
    </trkpt>
    <trkpt lat="50.7956265" lon="7.0633933">
      <time>2023-02-26T14:50:01Z</time>
    </trkpt>
    <trkpt lat="50.7956135" lon="7.0633989">
      <time>2023-02-26T14:50:02Z</time>
    </trkpt>
    <trkpt lat="50.7956087" lon="7.0634031">
      <time>2023-02-26T14:50:05Z</time>
    </trkpt>
    <trkpt lat="50.7956384" lon="7.0634795">
      <time>2023-02-26T14:50:14Z</time>
    </trkpt>
    <trkpt lat="50.7956518" lon="7.0635096">
      <time>2023-02-26T14:50:15Z</time>
    </trkpt>
    <trkpt lat="50.7957650" lon="7.0636802">
      <time>2023-02-26T14:50:20Z</time>
    </trkpt>
    <trkpt lat="50.7958975" lon="7.0638368">
      <time>2023-02-26T14:50:24Z</time>
    </trkpt>
    <trkpt lat="50.7959690" lon="7.0639277">
      <time>2023-02-26T14:50:26Z</time>
    </trkpt>
    <trkpt lat="50.7962441" lon="7.0642798">
      <time>2023-02-26T14:50:33Z</time>
    </trkpt>
    <trkpt lat="50.7963181" lon="7.0643890">
      <time>2023-02-26T14:50:35Z</time>
    </trkpt>
    <trkpt lat="50.7964276" lon="7.0645993">
      <time>2023-02-26T14:50:39Z</time>
    </trkpt>
    <trkpt lat="50.7965688" lon="7.0649106">
      <time>2023-02-26T14:50:45Z</time>
    </trkpt>
    <trkpt lat="50.7966954" lon="7.0651880">
      <time>2023-02-26T14:50:51Z</time>
    </trkpt>
    <trkpt lat="50.7968035" lon="7.0654176">
      <time>2023-02-26T14:50:56Z</time>
    </trkpt>
    <trkpt lat="50.7968596" lon="7.0656446">
      <time>2023-02-26T14:51:01Z</time>
    </trkpt>
    <trkpt lat="50.7967542" lon="7.0657828">
      <time>2023-02-26T14:51:05Z</time>
    </trkpt>
    <trkpt lat="50.7965563" lon="7.0659507">
      <time>2023-02-26T14:51:11Z</time>
    </trkpt>
    <trkpt lat="50.7963646" lon="7.0661905">
      <time>2023-02-26T14:51:18Z</time>
    </trkpt>
    <trkpt lat="50.7962090" lon="7.0663537">
      <time>2023-02-26T14:51:23Z</time>
    </trkpt>
    <trkpt lat="50.7959944" lon="7.0665957">
      <time>2023-02-26T14:51:30Z</time>
    </trkpt>
    <trkpt lat="50.7958494" lon="7.0667620">
      <time>2023-02-26T14:51:35Z</time>
    </trkpt>
    <trkpt lat="50.7957144" lon="7.0669251">
      <time>2023-02-26T14:51:40Z</time>
    </trkpt>
    <trkpt lat="50.7954845" lon="7.0672001">
      <time>2023-02-26T14:51:48Z</time>
    </trkpt>
    <trkpt lat="50.7953612" lon="7.0673497">
      <time>2023-02-26T14:51:53Z</time>
    </trkpt>
    <trkpt lat="50.7951832" lon="7.0675628">
      <time>2023-02-26T14:51:59Z</time>
    </trkpt>
    <trkpt lat="50.7950210" lon="7.0677373">
      <time>2023-02-26T14:52:04Z</time>
    </trkpt>
    <trkpt lat="50.7949008" lon="7.0678743">
      <time>2023-02-26T14:52:08Z</time>
    </trkpt>
    <trkpt lat="50.7948676" lon="7.0679109">
      <time>2023-02-26T14:52:09Z</time>
    </trkpt>
    <trkpt lat="50.7948324" lon="7.0679553">
      <time>2023-02-26T14:52:10Z</time>
    </trkpt>
    <trkpt lat="50.7946554" lon="7.0681791">
      <time>2023-02-26T14:52:15Z</time>
    </trkpt>
    <trkpt lat="50.7945856" lon="7.0682714">
      <time>2023-02-26T14:52:17Z</time>
    </trkpt>
    <trkpt lat="50.7945170" lon="7.0683640">
      <time>2023-02-26T14:52:19Z</time>
    </trkpt>
    <trkpt lat="50.7944112" lon="7.0684802">
      <time>2023-02-26T14:52:22Z</time>
    </trkpt>
    <trkpt lat="50.7942520" lon="7.0686613">
      <time>2023-02-26T14:52:27Z</time>
    </trkpt>
    <trkpt lat="50.7941039" lon="7.0688219">
      <time>2023-02-26T14:52:32Z</time>
    </trkpt>
    <trkpt lat="50.7939518" lon="7.0690199">
      <time>2023-02-26T14:52:38Z</time>
    </trkpt>
    <trkpt lat="50.7937541" lon="7.0692438">
      <time>2023-02-26T14:52:44Z</time>
    </trkpt>
    <trkpt lat="50.7936304" lon="7.0694115">
      <time>2023-02-26T14:52:48Z</time>
    </trkpt>
    <trkpt lat="50.7935023" lon="7.0695697">
      <time>2023-02-26T14:52:52Z</time>
    </trkpt>
    <trkpt lat="50.7934685" lon="7.0696081">
      <time>2023-02-26T14:52:53Z</time>
    </trkpt>
    <trkpt lat="50.7934329" lon="7.0696462">
      <time>2023-02-26T14:52:54Z</time>
    </trkpt>
    <trkpt lat="50.7933713" lon="7.0697107">
      <time>2023-02-26T14:52:56Z</time>
    </trkpt>
    <trkpt lat="50.7933133" lon="7.0697876">
      <time>2023-02-26T14:52:58Z</time>
    </trkpt>
    <trkpt lat="50.7932318" lon="7.0698647">
      <time>2023-02-26T14:53:00Z</time>
    </trkpt>
    <trkpt lat="50.7931726" lon="7.0699231">
      <time>2023-02-26T14:53:02Z</time>
    </trkpt>
    <trkpt lat="50.7931411" lon="7.0699608">
      <time>2023-02-26T14:53:03Z</time>
    </trkpt>
    <trkpt lat="50.7931073" lon="7.0699997">
      <time>2023-02-26T14:53:04Z</time>
    </trkpt>
    <trkpt lat="50.7929677" lon="7.0701734">
      <time>2023-02-26T14:53:08Z</time>
    </trkpt>
    <trkpt lat="50.7928781" lon="7.0702971">
      <time>2023-02-26T14:53:11Z</time>
    </trkpt>
    <trkpt lat="50.7928147" lon="7.0703627">
      <time>2023-02-26T14:53:13Z</time>
    </trkpt>
    <trkpt lat="50.7927802" lon="7.0703946">
      <time>2023-02-26T14:53:14Z</time>
    </trkpt>
    <trkpt lat="50.7926205" lon="7.0705778">
      <time>2023-02-26T14:53:19Z</time>
    </trkpt>
    <trkpt lat="50.7924121" lon="7.0708359">
      <time>2023-02-26T14:53:26Z</time>
    </trkpt>
    <trkpt lat="50.7922777" lon="7.0709868">
      <time>2023-02-26T14:53:30Z</time>
    </trkpt>
    <trkpt lat="50.7920621" lon="7.0712487">
      <time>2023-02-26T14:53:36Z</time>
    </trkpt>
    <trkpt lat="50.7920287" lon="7.0712905">
      <time>2023-02-26T14:53:37Z</time>
    </trkpt>
    <trkpt lat="50.7919772" lon="7.0713959">
      <time>2023-02-26T14:53:39Z</time>
    </trkpt>
    <trkpt lat="50.7919639" lon="7.0714593">
      <time>2023-02-26T14:53:40Z</time>
    </trkpt>
    <trkpt lat="50.7919676" lon="7.0715197">
      <time>2023-02-26T14:53:41Z</time>
    </trkpt>
    <trkpt lat="50.7920006" lon="7.0716364">
      <time>2023-02-26T14:53:43Z</time>
    </trkpt>
    <trkpt lat="50.7920833" lon="7.0717997">
      <time>2023-02-26T14:53:47Z</time>
    </trkpt>
    <trkpt lat="50.7922217" lon="7.0720810">
      <time>2023-02-26T14:53:54Z</time>
    </trkpt>
    <trkpt lat="50.7923454" lon="7.0723337">
      <time>2023-02-26T14:54:00Z</time>
    </trkpt>
    <trkpt lat="50.7925146" lon="7.0725974">
      <time>2023-02-26T14:54:07Z</time>
    </trkpt>
    <trkpt lat="50.7925378" lon="7.0726524">
      <time>2023-02-26T14:54:08Z</time>
    </trkpt>
    <trkpt lat="50.7925832" lon="7.0727730">
      <time>2023-02-26T14:54:10Z</time>
    </trkpt>
    <trkpt lat="50.7926099" lon="7.0728196">
      <time>2023-02-26T14:54:11Z</time>
    </trkpt>
    <trkpt lat="50.7926563" lon="7.0729159">
      <time>2023-02-26T14:54:13Z</time>
    </trkpt>
    <trkpt lat="50.7926995" lon="7.0730116">
      <time>2023-02-26T14:54:15Z</time>
    </trkpt>
    <trkpt lat="50.7927242" lon="7.0730638">
      <time>2023-02-26T14:54:16Z</time>
    </trkpt>
    <trkpt lat="50.7927511" lon="7.0731065">
      <time>2023-02-26T14:54:17Z</time>
    </trkpt>
    <trkpt lat="50.7928352" lon="7.0733211">
      <time>2023-02-26T14:54:21Z</time>
    </trkpt>
    <trkpt lat="50.7929587" lon="7.0736222">
      <time>2023-02-26T14:54:27Z</time>
    </trkpt>
    <trkpt lat="50.7930309" lon="7.0738004">
      <time>2023-02-26T14:54:31Z</time>
    </trkpt>
    <trkpt lat="50.7931490" lon="7.0740193">
      <time>2023-02-26T14:54:36Z</time>
    </trkpt>
    <trkpt lat="50.7932675" lon="7.0742931">
      <time>2023-02-26T14:54:42Z</time>
    </trkpt>
    <trkpt lat="50.7933937" lon="7.0744992">
      <time>2023-02-26T14:54:47Z</time>
    </trkpt>
    <trkpt lat="50.7935281" lon="7.0747536">
      <time>2023-02-26T14:54:53Z</time>
    </trkpt>
    <trkpt lat="50.7936685" lon="7.0750237">
      <time>2023-02-26T14:54:59Z</time>
    </trkpt>
    <trkpt lat="50.7937850" lon="7.0753117">
      <time>2023-02-26T14:55:05Z</time>
    </trkpt>
    <trkpt lat="50.7939283" lon="7.0756178">
      <time>2023-02-26T14:55:11Z</time>
    </trkpt>
    <trkpt lat="50.7940388" lon="7.0758233">
      <time>2023-02-26T14:55:16Z</time>
    </trkpt>
    <trkpt lat="50.7941132" lon="7.0759975">
      <time>2023-02-26T14:55:20Z</time>
    </trkpt>
    <trkpt lat="50.7941553" lon="7.0760752">
      <time>2023-02-26T14:55:22Z</time>
    </trkpt>
    <trkpt lat="50.7941943" lon="7.0761612">
      <time>2023-02-26T14:55:24Z</time>
    </trkpt>
    <trkpt lat="50.7943061" lon="7.0763608">
      <time>2023-02-26T14:55:29Z</time>
    </trkpt>
    <trkpt lat="50.7943808" lon="7.0765515">
      <time>2023-02-26T14:55:33Z</time>
    </trkpt>
    <trkpt lat="50.7945024" lon="7.0768231">
      <time>2023-02-26T14:55:39Z</time>
    </trkpt>
    <trkpt lat="50.7946095" lon="7.0770398">
      <time>2023-02-26T14:55:44Z</time>
    </trkpt>
    <trkpt lat="50.7947350" lon="7.0773232">
      <time>2023-02-26T14:55:50Z</time>
    </trkpt>
    <trkpt lat="50.7948224" lon="7.0774984">
      <time>2023-02-26T14:55:54Z</time>
    </trkpt>
    <trkpt lat="50.7949662" lon="7.0778016">
      <time>2023-02-26T14:56:01Z</time>
    </trkpt>
    <trkpt lat="50.7950293" lon="7.0779167">
      <time>2023-02-26T14:56:04Z</time>
    </trkpt>
    <trkpt lat="50.7950467" lon="7.0779624">
      <time>2023-02-26T14:56:05Z</time>
    </trkpt>
    <trkpt lat="50.7951577" lon="7.0782081">
      <time>2023-02-26T14:56:11Z</time>
    </trkpt>
    <trkpt lat="50.7952350" lon="7.0783794">
      <time>2023-02-26T14:56:15Z</time>
    </trkpt>
    <trkpt lat="50.7953679" lon="7.0786598">
      <time>2023-02-26T14:56:22Z</time>
    </trkpt>
    <trkpt lat="50.7954774" lon="7.0788873">
      <time>2023-02-26T14:56:28Z</time>
    </trkpt>
    <trkpt lat="50.7955907" lon="7.0791379">
      <time>2023-02-26T14:56:34Z</time>
    </trkpt>
    <trkpt lat="50.7956624" lon="7.0792921">
      <time>2023-02-26T14:56:38Z</time>
    </trkpt>
    <trkpt lat="50.7957705" lon="7.0795587">
      <time>2023-02-26T14:56:44Z</time>
    </trkpt>
    <trkpt lat="50.7958696" lon="7.0797474">
      <time>2023-02-26T14:56:49Z</time>
    </trkpt>
    <trkpt lat="50.7959786" lon="7.0799966">
      <time>2023-02-26T14:56:55Z</time>
    </trkpt>
    <trkpt lat="50.7961212" lon="7.0802973">
      <time>2023-02-26T14:57:02Z</time>
    </trkpt>
    <trkpt lat="50.7961756" lon="7.0803935">
      <time>2023-02-26T14:57:05Z</time>
    </trkpt>
    <trkpt lat="50.7961750" lon="7.0804844">
      <time>2023-02-26T14:57:07Z</time>
    </trkpt>
    <trkpt lat="50.7960635" lon="7.0806139">
      <time>2023-02-26T14:57:12Z</time>
    </trkpt>
    <trkpt lat="50.7959231" lon="7.0807399">
      <time>2023-02-26T14:57:17Z</time>
    </trkpt>
    <trkpt lat="50.7957887" lon="7.0809021">
      <time>2023-02-26T14:57:22Z</time>
    </trkpt>
    <trkpt lat="50.7956246" lon="7.0810503">
      <time>2023-02-26T14:57:27Z</time>
    </trkpt>
    <trkpt lat="50.7954924" lon="7.0812089">
      <time>2023-02-26T14:57:32Z</time>
    </trkpt>
    <trkpt lat="50.7952567" lon="7.0814828">
      <time>2023-02-26T14:57:40Z</time>
    </trkpt>
    <trkpt lat="50.7951287" lon="7.0816326">
      <time>2023-02-26T14:57:45Z</time>
    </trkpt>
    <trkpt lat="50.7950044" lon="7.0817867">
      <time>2023-02-26T14:57:50Z</time>
    </trkpt>
    <trkpt lat="50.7948293" lon="7.0819680">
      <time>2023-02-26T14:57:56Z</time>
    </trkpt>
    <trkpt lat="50.7946562" lon="7.0822422">
      <time>2023-02-26T14:58:03Z</time>
    </trkpt>
    <trkpt lat="50.7945045" lon="7.0824648">
      <time>2023-02-26T14:58:09Z</time>
    </trkpt>
    <trkpt lat="50.7943445" lon="7.0827774">
      <time>2023-02-26T14:58:17Z</time>
    </trkpt>
    <trkpt lat="50.7942145" lon="7.0830194">
      <time>2023-02-26T14:58:23Z</time>
    </trkpt>
    <trkpt lat="50.7941074" lon="7.0831783">
      <time>2023-02-26T14:58:27Z</time>
    </trkpt>
    <trkpt lat="50.7940113" lon="7.0833359">
      <time>2023-02-26T14:58:31Z</time>
    </trkpt>
    <trkpt lat="50.7938407" lon="7.0836473">
      <time>2023-02-26T14:58:38Z</time>
    </trkpt>
    <trkpt lat="50.7937411" lon="7.0838125">
      <time>2023-02-26T14:58:42Z</time>
    </trkpt>
    <trkpt lat="50.7935933" lon="7.0840380">
      <time>2023-02-26T14:58:48Z</time>
    </trkpt>
    <trkpt lat="50.7934173" lon="7.0842401">
      <time>2023-02-26T14:58:54Z</time>
    </trkpt>
    <trkpt lat="50.7933141" lon="7.0843915">
      <time>2023-02-26T14:58:58Z</time>
    </trkpt>
    <trkpt lat="50.7931558" lon="7.0846105">
      <time>2023-02-26T14:59:04Z</time>
    </trkpt>
    <trkpt lat="50.7929796" lon="7.0848648">
      <time>2023-02-26T14:59:11Z</time>
    </trkpt>
    <trkpt lat="50.7927989" lon="7.0851060">
      <time>2023-02-26T14:59:17Z</time>
    </trkpt>
    <trkpt lat="50.7926210" lon="7.0853441">
      <time>2023-02-26T14:59:23Z</time>
    </trkpt>
    <trkpt lat="50.7924892" lon="7.0855080">
      <time>2023-02-26T14:59:27Z</time>
    </trkpt>
    <trkpt lat="50.7923146" lon="7.0857538">
      <time>2023-02-26T14:59:33Z</time>
    </trkpt>
    <trkpt lat="50.7921724" lon="7.0859471">
      <time>2023-02-26T14:59:38Z</time>
    </trkpt>
    <trkpt lat="50.7919727" lon="7.0862130">
      <time>2023-02-26T14:59:45Z</time>
    </trkpt>
    <trkpt lat="50.7918281" lon="7.0863805">
      <time>2023-02-26T14:59:50Z</time>
    </trkpt>
    <trkpt lat="50.7916514" lon="7.0866431">
      <time>2023-02-26T14:59:57Z</time>
    </trkpt>
    <trkpt lat="50.7914959" lon="7.0868921">
      <time>2023-02-26T15:00:03Z</time>
    </trkpt>
    <trkpt lat="50.7913182" lon="7.0871409">
      <time>2023-02-26T15:00:09Z</time>
    </trkpt>
    <trkpt lat="50.7911749" lon="7.0873532">
      <time>2023-02-26T15:00:14Z</time>
    </trkpt>
    <trkpt lat="50.7910328" lon="7.0875279">
      <time>2023-02-26T15:00:19Z</time>
    </trkpt>
    <trkpt lat="50.7908915" lon="7.0877172">
      <time>2023-02-26T15:00:24Z</time>
    </trkpt>
    <trkpt lat="50.7906968" lon="7.0879743">
      <time>2023-02-26T15:00:30Z</time>
    </trkpt>
    <trkpt lat="50.7906366" lon="7.0880402">
      <time>2023-02-26T15:00:32Z</time>
    </trkpt>
    <trkpt lat="50.7905778" lon="7.0881152">
      <time>2023-02-26T15:00:34Z</time>
    </trkpt>
    <trkpt lat="50.7905064" lon="7.0882304">
      <time>2023-02-26T15:00:37Z</time>
    </trkpt>
    <trkpt lat="50.7904258" lon="7.0883449">
      <time>2023-02-26T15:00:40Z</time>
    </trkpt>
    <trkpt lat="50.7903095" lon="7.0885071">
      <time>2023-02-26T15:00:45Z</time>
    </trkpt>
    <trkpt lat="50.7902479" lon="7.0886314">
      <time>2023-02-26T15:00:48Z</time>
    </trkpt>
    <trkpt lat="50.7902242" lon="7.0886677">
      <time>2023-02-26T15:00:49Z</time>
    </trkpt>
    <trkpt lat="50.7901157" lon="7.0887841">
      <time>2023-02-26T15:00:53Z</time>
    </trkpt>
    <trkpt lat="50.7899968" lon="7.0889654">
      <time>2023-02-26T15:00:58Z</time>
    </trkpt>
    <trkpt lat="50.7898441" lon="7.0891505">
      <time>2023-02-26T15:01:04Z</time>
    </trkpt>
    <trkpt lat="50.7896425" lon="7.0893633">
      <time>2023-02-26T15:01:11Z</time>
    </trkpt>
    <trkpt lat="50.7895033" lon="7.0895245">
      <time>2023-02-26T15:01:16Z</time>
    </trkpt>
    <trkpt lat="50.7893256" lon="7.0897180">
      <time>2023-02-26T15:01:22Z</time>
    </trkpt>
    <trkpt lat="50.7891604" lon="7.0899127">
      <time>2023-02-26T15:01:28Z</time>
    </trkpt>
    <trkpt lat="50.7890123" lon="7.0900651">
      <time>2023-02-26T15:01:33Z</time>
    </trkpt>
    <trkpt lat="50.7888395" lon="7.0902567">
      <time>2023-02-26T15:01:39Z</time>
    </trkpt>
    <trkpt lat="50.7886875" lon="7.0904247">
      <time>2023-02-26T15:01:44Z</time>
    </trkpt>
    <trkpt lat="50.7884342" lon="7.0906821">
      <time>2023-02-26T15:01:52Z</time>
    </trkpt>
    <trkpt lat="50.7882276" lon="7.0909197">
      <time>2023-02-26T15:01:58Z</time>
    </trkpt>
    <trkpt lat="50.7880969" lon="7.0910666">
      <time>2023-02-26T15:02:02Z</time>
    </trkpt>
    <trkpt lat="50.7880322" lon="7.0911301">
      <time>2023-02-26T15:02:04Z</time>
    </trkpt>
    <trkpt lat="50.7878606" lon="7.0913484">
      <time>2023-02-26T15:02:10Z</time>
    </trkpt>
    <trkpt lat="50.7876833" lon="7.0915316">
      <time>2023-02-26T15:02:15Z</time>
    </trkpt>
    <trkpt lat="50.7876435" lon="7.0915767">
      <time>2023-02-26T15:02:16Z</time>
    </trkpt>
    <trkpt lat="50.7875829" lon="7.0916448">
      <time>2023-02-26T15:02:18Z</time>
    </trkpt>
    <trkpt lat="50.7875492" lon="7.0916860">
      <time>2023-02-26T15:02:19Z</time>
    </trkpt>
    <trkpt lat="50.7874160" lon="7.0918372">
      <time>2023-02-26T15:02:23Z</time>
    </trkpt>
    <trkpt lat="50.7873019" lon="7.0919566">
      <time>2023-02-26T15:02:26Z</time>
    </trkpt>
    <trkpt lat="50.7870749" lon="7.0921847">
      <time>2023-02-26T15:02:32Z</time>
    </trkpt>
    <trkpt lat="50.7870410" lon="7.0922246">
      <time>2023-02-26T15:02:33Z</time>
    </trkpt>
    <trkpt lat="50.7868964" lon="7.0924055">
      <time>2023-02-26T15:02:37Z</time>
    </trkpt>
    <trkpt lat="50.7868264" lon="7.0924937">
      <time>2023-02-26T15:02:39Z</time>
    </trkpt>
    <trkpt lat="50.7865935" lon="7.0927651">
      <time>2023-02-26T15:02:46Z</time>
    </trkpt>
    <trkpt lat="50.7865230" lon="7.0928314">
      <time>2023-02-26T15:02:48Z</time>
    </trkpt>
    <trkpt lat="50.7864510" lon="7.0929063">
      <time>2023-02-26T15:02:50Z</time>
    </trkpt>
    <trkpt lat="50.7863828" lon="7.0929915">
      <time>2023-02-26T15:02:52Z</time>
    </trkpt>
    <trkpt lat="50.7863148" lon="7.0930642">
      <time>2023-02-26T15:02:54Z</time>
    </trkpt>
    <trkpt lat="50.7862821" lon="7.0931003">
      <time>2023-02-26T15:02:55Z</time>
    </trkpt>
    <trkpt lat="50.7861317" lon="7.0932560">
      <time>2023-02-26T15:03:00Z</time>
    </trkpt>
    <trkpt lat="50.7861128" lon="7.0932936">
      <time>2023-02-26T15:03:01Z</time>
    </trkpt>
    <trkpt lat="50.7861139" lon="7.0933768">
      <time>2023-02-26T15:03:03Z</time>
    </trkpt>
    <trkpt lat="50.7861262" lon="7.0934217">
      <time>2023-02-26T15:03:04Z</time>
    </trkpt>
    <trkpt lat="50.7861555" lon="7.0934909">
      <time>2023-02-26T15:03:06Z</time>
    </trkpt>
    <trkpt lat="50.7862374" lon="7.0936210">
      <time>2023-02-26T15:03:10Z</time>
    </trkpt>
    <trkpt lat="50.7863158" lon="7.0937538">
      <time>2023-02-26T15:03:14Z</time>
    </trkpt>
    <trkpt lat="50.7864697" lon="7.0940025">
      <time>2023-02-26T15:03:21Z</time>
    </trkpt>
    <trkpt lat="50.7865889" lon="7.0941838">
      <time>2023-02-26T15:03:26Z</time>
    </trkpt>
    <trkpt lat="50.7867255" lon="7.0944029">
      <time>2023-02-26T15:03:32Z</time>
    </trkpt>
    <trkpt lat="50.7868535" lon="7.0946057">
      <time>2023-02-26T15:03:38Z</time>
    </trkpt>
    <trkpt lat="50.7869820" lon="7.0948005">
      <time>2023-02-26T15:03:43Z</time>
    </trkpt>
    <trkpt lat="50.7871320" lon="7.0950778">
      <time>2023-02-26T15:03:50Z</time>
    </trkpt>
    <trkpt lat="50.7872379" lon="7.0952700">
      <time>2023-02-26T15:03:55Z</time>
    </trkpt>
    <trkpt lat="50.7873804" lon="7.0954913">
      <time>2023-02-26T15:04:01Z</time>
    </trkpt>
    <trkpt lat="50.7874710" lon="7.0956628">
      <time>2023-02-26T15:04:05Z</time>
    </trkpt>
    <trkpt lat="50.7875777" lon="7.0958987">
      <time>2023-02-26T15:04:10Z</time>
    </trkpt>
    <trkpt lat="50.7877098" lon="7.0961320">
      <time>2023-02-26T15:04:16Z</time>
    </trkpt>
    <trkpt lat="50.7877767" lon="7.0962330">
      <time>2023-02-26T15:04:19Z</time>
    </trkpt>
    <trkpt lat="50.7878071" lon="7.0962916">
      <time>2023-02-26T15:04:21Z</time>
    </trkpt>
    <trkpt lat="50.7878963" lon="7.0964273">
      <time>2023-02-26T15:04:26Z</time>
    </trkpt>
    <trkpt lat="50.7879815" lon="7.0965729">
      <time>2023-02-26T15:04:31Z</time>
    </trkpt>
    <trkpt lat="50.7880873" lon="7.0967571">
      <time>2023-02-26T15:04:37Z</time>
    </trkpt>
    <trkpt lat="50.7882161" lon="7.0969428">
      <time>2023-02-26T15:04:43Z</time>
    </trkpt>
    <trkpt lat="50.7883566" lon="7.0971378">
      <time>2023-02-26T15:04:49Z</time>
    </trkpt>
    <trkpt lat="50.7884517" lon="7.0973407">
      <time>2023-02-26T15:04:54Z</time>
    </trkpt>
    <trkpt lat="50.7885717" lon="7.0975520">
      <time>2023-02-26T15:05:00Z</time>
    </trkpt>
    <trkpt lat="50.7887049" lon="7.0977736">
      <time>2023-02-26T15:05:06Z</time>
    </trkpt>
    <trkpt lat="50.7888051" lon="7.0979627">
      <time>2023-02-26T15:05:11Z</time>
    </trkpt>
    <trkpt lat="50.7888836" lon="7.0981207">
      <time>2023-02-26T15:05:15Z</time>
    </trkpt>
    <trkpt lat="50.7888991" lon="7.0981432">
      <time>2023-02-26T15:05:16Z</time>
    </trkpt>
    <trkpt lat="50.7890468" lon="7.0983887">
      <time>2023-02-26T15:05:23Z</time>
    </trkpt>
    <trkpt lat="50.7891104" lon="7.0984935">
      <time>2023-02-26T15:05:27Z</time>
    </trkpt>
    <trkpt lat="50.7891905" lon="7.0986439">
      <time>2023-02-26T15:05:33Z</time>
    </trkpt>
    <trkpt lat="50.7892983" lon="7.0987845">
      <time>2023-02-26T15:05:39Z</time>
    </trkpt>
    <trkpt lat="50.7893836" lon="7.0989407">
      <time>2023-02-26T15:05:45Z</time>
    </trkpt>
    <trkpt lat="50.7894574" lon="7.0990791">
      <time>2023-02-26T15:05:49Z</time>
    </trkpt>
    <trkpt lat="50.7894735" lon="7.0991208">
      <time>2023-02-26T15:05:50Z</time>
    </trkpt>
    <trkpt lat="50.7895787" lon="7.0992755">
      <time>2023-02-26T15:05:55Z</time>
    </trkpt>
    <trkpt lat="50.7897025" lon="7.0994909">
      <time>2023-02-26T15:06:02Z</time>
    </trkpt>
    <trkpt lat="50.7898673" lon="7.0997786">
      <time>2023-02-26T15:06:10Z</time>
    </trkpt>
    <trkpt lat="50.7899936" lon="7.1000000">
      <time>2023-02-26T15:06:16Z</time>
    </trkpt>
    <trkpt lat="50.7901129" lon="7.1002320">
      <time>2023-02-26T15:06:22Z</time>
    </trkpt>
    <trkpt lat="50.7902495" lon="7.1004560">
      <time>2023-02-26T15:06:28Z</time>
    </trkpt>
    <trkpt lat="50.7903784" lon="7.1006691">
      <time>2023-02-26T15:06:34Z</time>
    </trkpt>
    <trkpt lat="50.7904922" lon="7.1008636">
      <time>2023-02-26T15:06:39Z</time>
    </trkpt>
    <trkpt lat="50.7906547" lon="7.1011350">
      <time>2023-02-26T15:06:46Z</time>
    </trkpt>
    <trkpt lat="50.7907690" lon="7.1013366">
      <time>2023-02-26T15:06:51Z</time>
    </trkpt>
    <trkpt lat="50.7909289" lon="7.1015986">
      <time>2023-02-26T15:06:58Z</time>
    </trkpt>
    <trkpt lat="50.7911121" lon="7.1018126">
      <time>2023-02-26T15:07:05Z</time>
    </trkpt>
    <trkpt lat="50.7913119" lon="7.1018481">
      <time>2023-02-26T15:07:11Z</time>
    </trkpt>
    <trkpt lat="50.7915205" lon="7.1018328">
      <time>2023-02-26T15:07:17Z</time>
    </trkpt>
    <trkpt lat="50.7917185" lon="7.1018040">
      <time>2023-02-26T15:07:23Z</time>
    </trkpt>
    <trkpt lat="50.7919264" lon="7.1017573">
      <time>2023-02-26T15:07:29Z</time>
    </trkpt>
    <trkpt lat="50.7921382" lon="7.1016880">
      <time>2023-02-26T15:07:36Z</time>
    </trkpt>
    <trkpt lat="50.7923116" lon="7.1016195">
      <time>2023-02-26T15:07:42Z</time>
    </trkpt>
    <trkpt lat="50.7925186" lon="7.1015381">
      <time>2023-02-26T15:07:49Z</time>
    </trkpt>
    <trkpt lat="50.7927179" lon="7.1014719">
      <time>2023-02-26T15:07:55Z</time>
    </trkpt>
    <trkpt lat="50.7929776" lon="7.1013764">
      <time>2023-02-26T15:08:03Z</time>
    </trkpt>
    <trkpt lat="50.7931712" lon="7.1013156">
      <time>2023-02-26T15:08:09Z</time>
    </trkpt>
    <trkpt lat="50.7934900" lon="7.1012541">
      <time>2023-02-26T15:08:19Z</time>
    </trkpt>
    <trkpt lat="50.7937691" lon="7.1012555">
      <time>2023-02-26T15:08:27Z</time>
    </trkpt>
    <trkpt lat="50.7939687" lon="7.1012602">
      <time>2023-02-26T15:08:33Z</time>
    </trkpt>
    <trkpt lat="50.7941146" lon="7.1012819">
      <time>2023-02-26T15:08:38Z</time>
    </trkpt>
    <trkpt lat="50.7943102" lon="7.1013217">
      <time>2023-02-26T15:08:44Z</time>
    </trkpt>
    <trkpt lat="50.7945717" lon="7.1013947">
      <time>2023-02-26T15:08:52Z</time>
    </trkpt>
    <trkpt lat="50.7947842" lon="7.1014885">
      <time>2023-02-26T15:08:58Z</time>
    </trkpt>
    <trkpt lat="50.7949894" lon="7.1015690">
      <time>2023-02-26T15:09:05Z</time>
    </trkpt>
    <trkpt lat="50.7951746" lon="7.1015610">
      <time>2023-02-26T15:09:11Z</time>
    </trkpt>
    <trkpt lat="50.7953222" lon="7.1014075">
      <time>2023-02-26T15:09:16Z</time>
    </trkpt>
    <trkpt lat="50.7954842" lon="7.1011846">
      <time>2023-02-26T15:09:22Z</time>
    </trkpt>
    <trkpt lat="50.7956336" lon="7.1009376">
      <time>2023-02-26T15:09:29Z</time>
    </trkpt>
    <trkpt lat="50.7958089" lon="7.1006898">
      <time>2023-02-26T15:09:36Z</time>
    </trkpt>
    <trkpt lat="50.7959493" lon="7.1004776">
      <time>2023-02-26T15:09:42Z</time>
    </trkpt>
    <trkpt lat="50.7960648" lon="7.1002987">
      <time>2023-02-26T15:09:47Z</time>
    </trkpt>
    <trkpt lat="50.7961803" lon="7.1001263">
      <time>2023-02-26T15:09:52Z</time>
    </trkpt>
    <trkpt lat="50.7963719" lon="7.0998682">
      <time>2023-02-26T15:10:00Z</time>
    </trkpt>
    <trkpt lat="50.7965186" lon="7.0996397">
      <time>2023-02-26T15:10:06Z</time>
    </trkpt>
    <trkpt lat="50.7966269" lon="7.0994390">
      <time>2023-02-26T15:10:12Z</time>
    </trkpt>
    <trkpt lat="50.7967144" lon="7.0992474">
      <time>2023-02-26T15:10:17Z</time>
    </trkpt>
    <trkpt lat="50.7968231" lon="7.0990240">
      <time>2023-02-26T15:10:23Z</time>
    </trkpt>
    <trkpt lat="50.7969563" lon="7.0987616">
      <time>2023-02-26T15:10:30Z</time>
    </trkpt>
    <trkpt lat="50.7970662" lon="7.0985621">
      <time>2023-02-26T15:10:36Z</time>
    </trkpt>
    <trkpt lat="50.7972037" lon="7.0983065">
      <time>2023-02-26T15:10:43Z</time>
    </trkpt>
    <trkpt lat="50.7973070" lon="7.0981300">
      <time>2023-02-26T15:10:48Z</time>
    </trkpt>
    <trkpt lat="50.7974261" lon="7.0979394">
      <time>2023-02-26T15:10:54Z</time>
    </trkpt>
    <trkpt lat="50.7975202" lon="7.0977775">
      <time>2023-02-26T15:10:59Z</time>
    </trkpt>
    <trkpt lat="50.7976434" lon="7.0975856">
      <time>2023-02-26T15:11:05Z</time>
    </trkpt>
    <trkpt lat="50.7977384" lon="7.0974359">
      <time>2023-02-26T15:11:10Z</time>
    </trkpt>
    <trkpt lat="50.7978809" lon="7.0971885">
      <time>2023-02-26T15:11:17Z</time>
    </trkpt>
    <trkpt lat="50.7980541" lon="7.0969144">
      <time>2023-02-26T15:11:24Z</time>
    </trkpt>
    <trkpt lat="50.7981549" lon="7.0967420">
      <time>2023-02-26T15:11:28Z</time>
    </trkpt>
    <trkpt lat="50.7982833" lon="7.0965615">
      <time>2023-02-26T15:11:33Z</time>
    </trkpt>
    <trkpt lat="50.7984115" lon="7.0963653">
      <time>2023-02-26T15:11:39Z</time>
    </trkpt>
    <trkpt lat="50.7985209" lon="7.0962049">
      <time>2023-02-26T15:11:44Z</time>
    </trkpt>
    <trkpt lat="50.7986359" lon="7.0960165">
      <time>2023-02-26T15:11:49Z</time>
    </trkpt>
    <trkpt lat="50.7987573" lon="7.0958744">
      <time>2023-02-26T15:11:54Z</time>
    </trkpt>
    <trkpt lat="50.7988551" lon="7.0957068">
      <time>2023-02-26T15:11:59Z</time>
    </trkpt>
    <trkpt lat="50.7989336" lon="7.0955895">
      <time>2023-02-26T15:12:03Z</time>
    </trkpt>
    <trkpt lat="50.7990573" lon="7.0953555">
      <time>2023-02-26T15:12:09Z</time>
    </trkpt>
    <trkpt lat="50.7992004" lon="7.0951299">
      <time>2023-02-26T15:12:15Z</time>
    </trkpt>
    <trkpt lat="50.7993028" lon="7.0949582">
      <time>2023-02-26T15:12:20Z</time>
    </trkpt>
    <trkpt lat="50.7994032" lon="7.0947668">
      <time>2023-02-26T15:12:25Z</time>
    </trkpt>
    <trkpt lat="50.7995896" lon="7.0944686">
      <time>2023-02-26T15:12:33Z</time>
    </trkpt>
    <trkpt lat="50.7997237" lon="7.0942674">
      <time>2023-02-26T15:12:39Z</time>
    </trkpt>
    <trkpt lat="50.7998695" lon="7.0942106">
      <time>2023-02-26T15:12:44Z</time>
    </trkpt>
    <trkpt lat="50.7999651" lon="7.0943522">
      <time>2023-02-26T15:12:48Z</time>
    </trkpt>
    <trkpt lat="50.8001277" lon="7.0946158">
      <time>2023-02-26T15:12:55Z</time>
    </trkpt>
    <trkpt lat="50.8002344" lon="7.0948066">
      <time>2023-02-26T15:13:00Z</time>
    </trkpt>
    <trkpt lat="50.8003454" lon="7.0949774">
      <time>2023-02-26T15:13:05Z</time>
    </trkpt>
    <trkpt lat="50.8004887" lon="7.0951838">
      <time>2023-02-26T15:13:11Z</time>
    </trkpt>
    <trkpt lat="50.8005462" lon="7.0952916">
      <time>2023-02-26T15:13:14Z</time>
    </trkpt>
    <trkpt lat="50.8006407" lon="7.0954653">
      <time>2023-02-26T15:13:19Z</time>
    </trkpt>
    <trkpt lat="50.8007626" lon="7.0956683">
      <time>2023-02-26T15:13:25Z</time>
    </trkpt>
    <trkpt lat="50.8008901" lon="7.0958662">
      <time>2023-02-26T15:13:31Z</time>
    </trkpt>
    <trkpt lat="50.8010568" lon="7.0961258">
      <time>2023-02-26T15:13:39Z</time>
    </trkpt>
    <trkpt lat="50.8012433" lon="7.0963744">
      <time>2023-02-26T15:13:47Z</time>
    </trkpt>
    <trkpt lat="50.8013759" lon="7.0965915">
      <time>2023-02-26T15:13:53Z</time>
    </trkpt>
    <trkpt lat="50.8015046" lon="7.0968160">
      <time>2023-02-26T15:13:59Z</time>
    </trkpt>
    <trkpt lat="50.8015932" lon="7.0969662">
      <time>2023-02-26T15:14:03Z</time>
    </trkpt>
    <trkpt lat="50.8017459" lon="7.0971950">
      <time>2023-02-26T15:14:10Z</time>
    </trkpt>
    <trkpt lat="50.8018436" lon="7.0973856">
      <time>2023-02-26T15:14:15Z</time>
    </trkpt>
    <trkpt lat="50.8020155" lon="7.0976411">
      <time>2023-02-26T15:14:23Z</time>
    </trkpt>
    <trkpt lat="50.8021369" lon="7.0978415">
      <time>2023-02-26T15:14:29Z</time>
    </trkpt>
    <trkpt lat="50.8022871" lon="7.0980799">
      <time>2023-02-26T15:14:36Z</time>
    </trkpt>
    <trkpt lat="50.8024415" lon="7.0981658">
      <time>2023-02-26T15:14:42Z</time>
    </trkpt>
    <trkpt lat="50.8026109" lon="7.0978998">
      <time>2023-02-26T15:14:49Z</time>
    </trkpt>
    <trkpt lat="50.8027596" lon="7.0976768">
      <time>2023-02-26T15:14:55Z</time>
    </trkpt>
    <trkpt lat="50.8029084" lon="7.0974219">
      <time>2023-02-26T15:15:01Z</time>
    </trkpt>
    <trkpt lat="50.8030305" lon="7.0972050">
      <time>2023-02-26T15:15:06Z</time>
    </trkpt>
    <trkpt lat="50.8032135" lon="7.0969129">
      <time>2023-02-26T15:15:13Z</time>
    </trkpt>
    <trkpt lat="50.8033743" lon="7.0966677">
      <time>2023-02-26T15:15:19Z</time>
    </trkpt>
    <trkpt lat="50.8035308" lon="7.0964182">
      <time>2023-02-26T15:15:25Z</time>
    </trkpt>
    <trkpt lat="50.8036326" lon="7.0962495">
      <time>2023-02-26T15:15:29Z</time>
    </trkpt>
    <trkpt lat="50.8037602" lon="7.0960476">
      <time>2023-02-26T15:15:34Z</time>
    </trkpt>
    <trkpt lat="50.8038817" lon="7.0958314">
      <time>2023-02-26T15:15:39Z</time>
    </trkpt>
    <trkpt lat="50.8040314" lon="7.0956163">
      <time>2023-02-26T15:15:45Z</time>
    </trkpt>
    <trkpt lat="50.8041414" lon="7.0954524">
      <time>2023-02-26T15:15:50Z</time>
    </trkpt>
    <trkpt lat="50.8042714" lon="7.0952364">
      <time>2023-02-26T15:15:56Z</time>
    </trkpt>
    <trkpt lat="50.8043879" lon="7.0950409">
      <time>2023-02-26T15:16:01Z</time>
    </trkpt>
    <trkpt lat="50.8045036" lon="7.0948465">
      <time>2023-02-26T15:16:06Z</time>
    </trkpt>
    <trkpt lat="50.8046687" lon="7.0945993">
      <time>2023-02-26T15:16:13Z</time>
    </trkpt>
    <trkpt lat="50.8047912" lon="7.0944047">
      <time>2023-02-26T15:16:19Z</time>
    </trkpt>
    <trkpt lat="50.8049673" lon="7.0941349">
      <time>2023-02-26T15:16:26Z</time>
    </trkpt>
    <trkpt lat="50.8050966" lon="7.0939495">
      <time>2023-02-26T15:16:31Z</time>
    </trkpt>
    <trkpt lat="50.8052150" lon="7.0937469">
      <time>2023-02-26T15:16:36Z</time>
    </trkpt>
    <trkpt lat="50.8053146" lon="7.0935955">
      <time>2023-02-26T15:16:40Z</time>
    </trkpt>
    <trkpt lat="50.8054558" lon="7.0933680">
      <time>2023-02-26T15:16:46Z</time>
    </trkpt>
    <trkpt lat="50.8056587" lon="7.0930529">
      <time>2023-02-26T15:16:54Z</time>
    </trkpt>
    <trkpt lat="50.8057831" lon="7.0928347">
      <time>2023-02-26T15:17:00Z</time>
    </trkpt>
    <trkpt lat="50.8059187" lon="7.0926157">
      <time>2023-02-26T15:17:06Z</time>
    </trkpt>
    <trkpt lat="50.8060452" lon="7.0924070">
      <time>2023-02-26T15:17:12Z</time>
    </trkpt>
    <trkpt lat="50.8061483" lon="7.0922486">
      <time>2023-02-26T15:17:18Z</time>
    </trkpt>
    <trkpt lat="50.8062174" lon="7.0921578">
      <time>2023-02-26T15:17:24Z</time>
    </trkpt>
    <trkpt lat="50.8062387" lon="7.0921277">
      <time>2023-02-26T15:17:30Z</time>
    </trkpt>
    <trkpt lat="50.8062387" lon="7.0921277">
      <time>2023-02-26T15:17:43Z</time>
    </trkpt>
    <trkpt lat="50.8062387" lon="7.0921277">
      <time>2023-02-26T15:17:44Z</time>
    </trkpt>
  </trkseg></trk>
</gpx>
