<?xml version="1.0" encoding="UTF-8"?>
<gpx version="1.1" creator="Diary FIT converter" xmlns="http://www.topografix.com/GPX/1/1">
  <trk><name>Running</name><trkseg>
    <trkpt lat="50.9631397" lon="6.8763177">
      <time>2020-10-30T17:51:39Z</time>
    </trkpt>
    <trkpt lat="50.9633784" lon="6.8762603">
      <time>2020-10-30T17:51:42Z</time>
    </trkpt>
    <trkpt lat="50.9633398" lon="6.8762886">
      <time>2020-10-30T17:51:46Z</time>
    </trkpt>
    <trkpt lat="50.9633170" lon="6.8762947">
      <time>2020-10-30T17:51:47Z</time>
    </trkpt>
    <trkpt lat="50.9632671" lon="6.8763422">
      <time>2020-10-30T17:51:50Z</time>
    </trkpt>
    <trkpt lat="50.9632494" lon="6.8763644">
      <time>2020-10-30T17:51:51Z</time>
    </trkpt>
    <trkpt lat="50.9632339" lon="6.8763924">
      <time>2020-10-30T17:51:52Z</time>
    </trkpt>
    <trkpt lat="50.9632236" lon="6.8764181">
      <time>2020-10-30T17:51:53Z</time>
    </trkpt>
    <trkpt lat="50.9632100" lon="6.8764842">
      <time>2020-10-30T17:51:55Z</time>
    </trkpt>
    <trkpt lat="50.9631703" lon="6.8766137">
      <time>2020-10-30T17:51:59Z</time>
    </trkpt>
    <trkpt lat="50.9631339" lon="6.8766369">
      <time>2020-10-30T17:52:00Z</time>
    </trkpt>
    <trkpt lat="50.9630751" lon="6.8766497">
      <time>2020-10-30T17:52:02Z</time>
    </trkpt>
    <trkpt lat="50.9630093" lon="6.8766241">
      <time>2020-10-30T17:52:04Z</time>
    </trkpt>
    <trkpt lat="50.9629276" lon="6.8765900">
      <time>2020-10-30T17:52:07Z</time>
    </trkpt>
    <trkpt lat="50.9628254" lon="6.8765680">
      <time>2020-10-30T17:52:10Z</time>
    </trkpt>
    <trkpt lat="50.9627288" lon="6.8765115">
      <time>2020-10-30T17:52:14Z</time>
    </trkpt>
    <trkpt lat="50.9626908" lon="6.8765000">
      <time>2020-10-30T17:52:16Z</time>
    </trkpt>
    <trkpt lat="50.9625454" lon="6.8764632">
      <time>2020-10-30T17:52:22Z</time>
    </trkpt>
    <trkpt lat="50.9624786" lon="6.8764569">
      <time>2020-10-30T17:52:25Z</time>
    </trkpt>
    <trkpt lat="50.9624277" lon="6.8764784">
      <time>2020-10-30T17:52:27Z</time>
    </trkpt>
    <trkpt lat="50.9622423" lon="6.8765056">
      <time>2020-10-30T17:52:33Z</time>
    </trkpt>
    <trkpt lat="50.9621368" lon="6.8764701">
      <time>2020-10-30T17:52:37Z</time>
    </trkpt>
    <trkpt lat="50.9621033" lon="6.8764770">
      <time>2020-10-30T17:52:40Z</time>
    </trkpt>
    <trkpt lat="50.9620732" lon="6.8765061">
      <time>2020-10-30T17:52:42Z</time>
    </trkpt>
    <trkpt lat="50.9620705" lon="6.8765584">
      <time>2020-10-30T17:52:44Z</time>
    </trkpt>
    <trkpt lat="50.9620774" lon="6.8765963">
      <time>2020-10-30T17:52:45Z</time>
    </trkpt>
    <trkpt lat="50.9620736" lon="6.8767317">
      <time>2020-10-30T17:52:49Z</time>
    </trkpt>
    <trkpt lat="50.9620642" lon="6.8767885">
      <time>2020-10-30T17:52:51Z</time>
    </trkpt>
    <trkpt lat="50.9620207" lon="6.8768544">
      <time>2020-10-30T17:52:54Z</time>
    </trkpt>
    <trkpt lat="50.9619593" lon="6.8768829">
      <time>2020-10-30T17:52:57Z</time>
    </trkpt>
    <trkpt lat="50.9618143" lon="6.8769495">
      <time>2020-10-30T17:53:03Z</time>
    </trkpt>
    <trkpt lat="50.9616816" lon="6.8770378">
      <time>2020-10-30T17:53:08Z</time>
    </trkpt>
    <trkpt lat="50.9614944" lon="6.8771746">
      <time>2020-10-30T17:53:15Z</time>
    </trkpt>
    <trkpt lat="50.9613814" lon="6.8772562">
      <time>2020-10-30T17:53:19Z</time>
    </trkpt>
    <trkpt lat="50.9612111" lon="6.8773477">
      <time>2020-10-30T17:53:26Z</time>
    </trkpt>
    <trkpt lat="50.9610474" lon="6.8774168">
      <time>2020-10-30T17:53:33Z</time>
    </trkpt>
    <trkpt lat="50.9609067" lon="6.8774568">
      <time>2020-10-30T17:53:39Z</time>
    </trkpt>
    <trkpt lat="50.9607650" lon="6.8775234">
      <time>2020-10-30T17:53:45Z</time>
    </trkpt>
    <trkpt lat="50.9606163" lon="6.8775994">
      <time>2020-10-30T17:53:51Z</time>
    </trkpt>
    <trkpt lat="50.9604231" lon="6.8776227">
      <time>2020-10-30T17:53:59Z</time>
    </trkpt>
    <trkpt lat="50.9604027" lon="6.8776291">
      <time>2020-10-30T17:54:00Z</time>
    </trkpt>
    <trkpt lat="50.9602255" lon="6.8776566">
      <time>2020-10-30T17:54:07Z</time>
    </trkpt>
    <trkpt lat="50.9601452" lon="6.8775974">
      <time>2020-10-30T17:54:11Z</time>
    </trkpt>
    <trkpt lat="50.9599735" lon="6.8774722">
      <time>2020-10-30T17:54:19Z</time>
    </trkpt>
    <trkpt lat="50.9599564" lon="6.8774570">
      <time>2020-10-30T17:54:20Z</time>
    </trkpt>
    <trkpt lat="50.9598295" lon="6.8772309">
      <time>2020-10-30T17:54:28Z</time>
    </trkpt>
    <trkpt lat="50.9598153" lon="6.8770687">
      <time>2020-10-30T17:54:33Z</time>
    </trkpt>
    <trkpt lat="50.9598056" lon="6.8768617">
      <time>2020-10-30T17:54:38Z</time>
    </trkpt>
    <trkpt lat="50.9598205" lon="6.8766175">
      <time>2020-10-30T17:54:45Z</time>
    </trkpt>
    <trkpt lat="50.9598114" lon="6.8765774">
      <time>2020-10-30T17:54:46Z</time>
    </trkpt>
    <trkpt lat="50.9597741" lon="6.8764496">
      <time>2020-10-30T17:54:49Z</time>
    </trkpt>
    <trkpt lat="50.9597356" lon="6.8762971">
      <time>2020-10-30T17:54:53Z</time>
    </trkpt>
    <trkpt lat="50.9597198" lon="6.8760477">
      <time>2020-10-30T17:55:01Z</time>
    </trkpt>
    <trkpt lat="50.9596972" lon="6.8758461">
      <time>2020-10-30T17:55:06Z</time>
    </trkpt>
    <trkpt lat="50.9597228" lon="6.8756298">
      <time>2020-10-30T17:55:12Z</time>
    </trkpt>
    <trkpt lat="50.9597220" lon="6.8753995">
      <time>2020-10-30T17:55:18Z</time>
    </trkpt>
    <trkpt lat="50.9597354" lon="6.8751734">
      <time>2020-10-30T17:55:24Z</time>
    </trkpt>
    <trkpt lat="50.9597141" lon="6.8748987">
      <time>2020-10-30T17:55:30Z</time>
    </trkpt>
    <trkpt lat="50.9597121" lon="6.8746785">
      <time>2020-10-30T17:55:35Z</time>
    </trkpt>
    <trkpt lat="50.9596934" lon="6.8744530">
      <time>2020-10-30T17:55:40Z</time>
    </trkpt>
    <trkpt lat="50.9597107" lon="6.8742603">
      <time>2020-10-30T17:55:45Z</time>
    </trkpt>
    <trkpt lat="50.9597248" lon="6.8741093">
      <time>2020-10-30T17:55:49Z</time>
    </trkpt>
    <trkpt lat="50.9597356" lon="6.8738564">
      <time>2020-10-30T17:55:56Z</time>
    </trkpt>
    <trkpt lat="50.9597684" lon="6.8736271">
      <time>2020-10-30T17:56:03Z</time>
    </trkpt>
    <trkpt lat="50.9597604" lon="6.8735306">
      <time>2020-10-30T17:56:06Z</time>
    </trkpt>
    <trkpt lat="50.9597645" lon="6.8734688">
      <time>2020-10-30T17:56:08Z</time>
    </trkpt>
    <trkpt lat="50.9597706" lon="6.8734383">
      <time>2020-10-30T17:56:09Z</time>
    </trkpt>
    <trkpt lat="50.9598064" lon="6.8733250">
      <time>2020-10-30T17:56:13Z</time>
    </trkpt>
    <trkpt lat="50.9598134" lon="6.8732666">
      <time>2020-10-30T17:56:15Z</time>
    </trkpt>
    <trkpt lat="50.9598029" lon="6.8732287">
      <time>2020-10-30T17:56:16Z</time>
    </trkpt>
    <trkpt lat="50.9598118" lon="6.8731650">
      <time>2020-10-30T17:56:18Z</time>
    </trkpt>
    <trkpt lat="50.9598285" lon="6.8731423">
      <time>2020-10-30T17:56:19Z</time>
    </trkpt>
    <trkpt lat="50.9598351" lon="6.8731176">
      <time>2020-10-30T17:56:20Z</time>
    </trkpt>
    <trkpt lat="50.9598196" lon="6.8730594">
      <time>2020-10-30T17:56:22Z</time>
    </trkpt>
    <trkpt lat="50.9597559" lon="6.8728609">
      <time>2020-10-30T17:56:27Z</time>
    </trkpt>
    <trkpt lat="50.9596606" lon="6.8726017">
      <time>2020-10-30T17:56:32Z</time>
    </trkpt>
    <trkpt lat="50.9596258" lon="6.8724575">
      <time>2020-10-30T17:56:35Z</time>
    </trkpt>
    <trkpt lat="50.9595974" lon="6.8723186">
      <time>2020-10-30T17:56:38Z</time>
    </trkpt>
    <trkpt lat="50.9595686" lon="6.8721469">
      <time>2020-10-30T17:56:42Z</time>
    </trkpt>
    <trkpt lat="50.9595249" lon="6.8719109">
      <time>2020-10-30T17:56:48Z</time>
    </trkpt>
    <trkpt lat="50.9594513" lon="6.8716743">
      <time>2020-10-30T17:56:54Z</time>
    </trkpt>
    <trkpt lat="50.9593975" lon="6.8714691">
      <time>2020-10-30T17:57:00Z</time>
    </trkpt>
    <trkpt lat="50.9593344" lon="6.8711950">
      <time>2020-10-30T17:57:08Z</time>
    </trkpt>
    <trkpt lat="50.9593273" lon="6.8710847">
      <time>2020-10-30T17:57:11Z</time>
    </trkpt>
    <trkpt lat="50.9593086" lon="6.8710210">
      <time>2020-10-30T17:57:13Z</time>
    </trkpt>
    <trkpt lat="50.9592864" lon="6.8709156">
      <time>2020-10-30T17:57:16Z</time>
    </trkpt>
    <trkpt lat="50.9592944" lon="6.8708457">
      <time>2020-10-30T17:57:18Z</time>
    </trkpt>
    <trkpt lat="50.9592999" lon="6.8708062">
      <time>2020-10-30T17:57:19Z</time>
    </trkpt>
    <trkpt lat="50.9593214" lon="6.8707397">
      <time>2020-10-30T17:57:21Z</time>
    </trkpt>
    <trkpt lat="50.9593555" lon="6.8706769">
      <time>2020-10-30T17:57:23Z</time>
    </trkpt>
    <trkpt lat="50.9594607" lon="6.8705919">
      <time>2020-10-30T17:57:28Z</time>
    </trkpt>
    <trkpt lat="50.9595757" lon="6.8704506">
      <time>2020-10-30T17:57:34Z</time>
    </trkpt>
    <trkpt lat="50.9596782" lon="6.8704079">
      <time>2020-10-30T17:57:39Z</time>
    </trkpt>
    <trkpt lat="50.9597001" lon="6.8704068">
      <time>2020-10-30T17:57:40Z</time>
    </trkpt>
    <trkpt lat="50.9598440" lon="6.8703403">
      <time>2020-10-30T17:57:46Z</time>
    </trkpt>
    <trkpt lat="50.9600346" lon="6.8703065">
      <time>2020-10-30T17:57:54Z</time>
    </trkpt>
    <trkpt lat="50.9602202" lon="6.8703168">
      <time>2020-10-30T17:58:02Z</time>
    </trkpt>
    <trkpt lat="50.9603451" lon="6.8702766">
      <time>2020-10-30T17:58:09Z</time>
    </trkpt>
    <trkpt lat="50.9604482" lon="6.8702521">
      <time>2020-10-30T17:58:15Z</time>
    </trkpt>
    <trkpt lat="50.9605097" lon="6.8702124">
      <time>2020-10-30T17:58:19Z</time>
    </trkpt>
    <trkpt lat="50.9605702" lon="6.8701915">
      <time>2020-10-30T17:58:22Z</time>
    </trkpt>
    <trkpt lat="50.9607293" lon="6.8701207">
      <time>2020-10-30T17:58:29Z</time>
    </trkpt>
    <trkpt lat="50.9607461" lon="6.8701087">
      <time>2020-10-30T17:58:30Z</time>
    </trkpt>
    <trkpt lat="50.9608225" lon="6.8700698">
      <time>2020-10-30T17:58:33Z</time>
    </trkpt>
    <trkpt lat="50.9609173" lon="6.8700322">
      <time>2020-10-30T17:58:37Z</time>
    </trkpt>
    <trkpt lat="50.9609565" lon="6.8700034">
      <time>2020-10-30T17:58:39Z</time>
    </trkpt>
    <trkpt lat="50.9610786" lon="6.8699544">
      <time>2020-10-30T17:58:44Z</time>
    </trkpt>
    <trkpt lat="50.9611916" lon="6.8699238">
      <time>2020-10-30T17:58:50Z</time>
    </trkpt>
    <trkpt lat="50.9612177" lon="6.8699221">
      <time>2020-10-30T17:58:51Z</time>
    </trkpt>
    <trkpt lat="50.9614078" lon="6.8698803">
      <time>2020-10-30T17:58:59Z</time>
    </trkpt>
    <trkpt lat="50.9614384" lon="6.8698764">
      <time>2020-10-30T17:59:00Z</time>
    </trkpt>
    <trkpt lat="50.9615963" lon="6.8698280">
      <time>2020-10-30T17:59:07Z</time>
    </trkpt>
    <trkpt lat="50.9617561" lon="6.8697848">
      <time>2020-10-30T17:59:13Z</time>
    </trkpt>
    <trkpt lat="50.9619501" lon="6.8697347">
      <time>2020-10-30T17:59:20Z</time>
    </trkpt>
    <trkpt lat="50.9619736" lon="6.8697347">
      <time>2020-10-30T17:59:21Z</time>
    </trkpt>
    <trkpt lat="50.9621349" lon="6.8696954">
      <time>2020-10-30T17:59:29Z</time>
    </trkpt>
    <trkpt lat="50.9622456" lon="6.8696877">
      <time>2020-10-30T17:59:34Z</time>
    </trkpt>
    <trkpt lat="50.9622838" lon="6.8696769">
      <time>2020-10-30T17:59:36Z</time>
    </trkpt>
    <trkpt lat="50.9624771" lon="6.8696376">
      <time>2020-10-30T17:59:42Z</time>
    </trkpt>
    <trkpt lat="50.9625604" lon="6.8696269">
      <time>2020-10-30T17:59:45Z</time>
    </trkpt>
    <trkpt lat="50.9626908" lon="6.8696441">
      <time>2020-10-30T17:59:50Z</time>
    </trkpt>
    <trkpt lat="50.9628552" lon="6.8696197">
      <time>2020-10-30T17:59:56Z</time>
    </trkpt>
    <trkpt lat="50.9630060" lon="6.8695913">
      <time>2020-10-30T18:00:02Z</time>
    </trkpt>
    <trkpt lat="50.9631885" lon="6.8695837">
      <time>2020-10-30T18:00:10Z</time>
    </trkpt>
    <trkpt lat="50.9631885" lon="6.8695837">
      <time>2020-10-30T18:00:11Z</time>
    </trkpt>
    <trkpt lat="50.9632301" lon="6.8695881">
      <time>2020-10-30T18:00:12Z</time>
    </trkpt>
    <trkpt lat="50.9633561" lon="6.8696048">
      <time>2020-10-30T18:00:17Z</time>
    </trkpt>
    <trkpt lat="50.9635575" lon="6.8695881">
      <time>2020-10-30T18:00:24Z</time>
    </trkpt>
    <trkpt lat="50.9637418" lon="6.8696244">
      <time>2020-10-30T18:00:31Z</time>
    </trkpt>
    <trkpt lat="50.9637678" lon="6.8696285">
      <time>2020-10-30T18:00:32Z</time>
    </trkpt>
    <trkpt lat="50.9639487" lon="6.8696647">
      <time>2020-10-30T18:00:40Z</time>
    </trkpt>
    <trkpt lat="50.9639872" lon="6.8696800">
      <time>2020-10-30T18:00:42Z</time>
    </trkpt>
    <trkpt lat="50.9640224" lon="6.8696684">
      <time>2020-10-30T18:00:44Z</time>
    </trkpt>
    <trkpt lat="50.9640299" lon="6.8696546">
      <time>2020-10-30T18:00:45Z</time>
    </trkpt>
    <trkpt lat="50.9640345" lon="6.8696324">
      <time>2020-10-30T18:00:46Z</time>
    </trkpt>
    <trkpt lat="50.9640492" lon="6.8695807">
      <time>2020-10-30T18:00:48Z</time>
    </trkpt>
    <trkpt lat="50.9640544" lon="6.8695484">
      <time>2020-10-30T18:00:49Z</time>
    </trkpt>
    <trkpt lat="50.9641072" lon="6.8693018">
      <time>2020-10-30T18:00:57Z</time>
    </trkpt>
    <trkpt lat="50.9641139" lon="6.8692430">
      <time>2020-10-30T18:00:59Z</time>
    </trkpt>
    <trkpt lat="50.9641424" lon="6.8691338">
      <time>2020-10-30T18:01:03Z</time>
    </trkpt>
    <trkpt lat="50.9641607" lon="6.8690578">
      <time>2020-10-30T18:01:05Z</time>
    </trkpt>
    <trkpt lat="50.9641993" lon="6.8688717">
      <time>2020-10-30T18:01:10Z</time>
    </trkpt>
    <trkpt lat="50.9641979" lon="6.8688307">
      <time>2020-10-30T18:01:11Z</time>
    </trkpt>
    <trkpt lat="50.9642289" lon="6.8685491">
      <time>2020-10-30T18:01:18Z</time>
    </trkpt>
    <trkpt lat="50.9642236" lon="6.8685073">
      <time>2020-10-30T18:01:19Z</time>
    </trkpt>
    <trkpt lat="50.9642282" lon="6.8684156">
      <time>2020-10-30T18:01:21Z</time>
    </trkpt>
    <trkpt lat="50.9642322" lon="6.8683693">
      <time>2020-10-30T18:01:22Z</time>
    </trkpt>
    <trkpt lat="50.9642471" lon="6.8682351">
      <time>2020-10-30T18:01:26Z</time>
    </trkpt>
    <trkpt lat="50.9642525" lon="6.8682102">
      <time>2020-10-30T18:01:27Z</time>
    </trkpt>
    <trkpt lat="50.9642630" lon="6.8681502">
      <time>2020-10-30T18:01:29Z</time>
    </trkpt>
    <trkpt lat="50.9642535" lon="6.8680103">
      <time>2020-10-30T18:01:33Z</time>
    </trkpt>
    <trkpt lat="50.9642762" lon="6.8679485">
      <time>2020-10-30T18:01:35Z</time>
    </trkpt>
    <trkpt lat="50.9643122" lon="6.8679256">
      <time>2020-10-30T18:01:37Z</time>
    </trkpt>
    <trkpt lat="50.9643411" lon="6.8679256">
      <time>2020-10-30T18:01:38Z</time>
    </trkpt>
    <trkpt lat="50.9645310" lon="6.8679756">
      <time>2020-10-30T18:01:45Z</time>
    </trkpt>
    <trkpt lat="50.9645511" lon="6.8679766">
      <time>2020-10-30T18:01:46Z</time>
    </trkpt>
    <trkpt lat="50.9647356" lon="6.8680481">
      <time>2020-10-30T18:01:53Z</time>
    </trkpt>
    <trkpt lat="50.9648704" lon="6.8681466">
      <time>2020-10-30T18:01:59Z</time>
    </trkpt>
    <trkpt lat="50.9649197" lon="6.8681636">
      <time>2020-10-30T18:02:01Z</time>
    </trkpt>
    <trkpt lat="50.9651132" lon="6.8682257">
      <time>2020-10-30T18:02:08Z</time>
    </trkpt>
    <trkpt lat="50.9651558" lon="6.8682386">
      <time>2020-10-30T18:02:10Z</time>
    </trkpt>
    <trkpt lat="50.9653300" lon="6.8683144">
      <time>2020-10-30T18:02:19Z</time>
    </trkpt>
    <trkpt lat="50.9653536" lon="6.8683237">
      <time>2020-10-30T18:02:20Z</time>
    </trkpt>
    <trkpt lat="50.9655337" lon="6.8684134">
      <time>2020-10-30T18:02:29Z</time>
    </trkpt>
    <trkpt lat="50.9656736" lon="6.8684643">
      <time>2020-10-30T18:02:36Z</time>
    </trkpt>
    <trkpt lat="50.9658396" lon="6.8685247">
      <time>2020-10-30T18:02:43Z</time>
    </trkpt>
    <trkpt lat="50.9659957" lon="6.8685865">
      <time>2020-10-30T18:02:50Z</time>
    </trkpt>
    <trkpt lat="50.9660829" lon="6.8686605">
      <time>2020-10-30T18:02:54Z</time>
    </trkpt>
    <trkpt lat="50.9661079" lon="6.8687071">
      <time>2020-10-30T18:02:56Z</time>
    </trkpt>
    <trkpt lat="50.9661692" lon="6.8689308">
      <time>2020-10-30T18:03:02Z</time>
    </trkpt>
    <trkpt lat="50.9661883" lon="6.8691858">
      <time>2020-10-30T18:03:09Z</time>
    </trkpt>
    <trkpt lat="50.9662062" lon="6.8694180">
      <time>2020-10-30T18:03:16Z</time>
    </trkpt>
    <trkpt lat="50.9661663" lon="6.8696443">
      <time>2020-10-30T18:03:23Z</time>
    </trkpt>
    <trkpt lat="50.9660513" lon="6.8698936">
      <time>2020-10-30T18:03:31Z</time>
    </trkpt>
    <trkpt lat="50.9660319" lon="6.8699323">
      <time>2020-10-30T18:03:32Z</time>
    </trkpt>
    <trkpt lat="50.9659160" lon="6.8701783">
      <time>2020-10-30T18:03:40Z</time>
    </trkpt>
    <trkpt lat="50.9659024" lon="6.8702088">
      <time>2020-10-30T18:03:41Z</time>
    </trkpt>
    <trkpt lat="50.9657974" lon="6.8704518">
      <time>2020-10-30T18:03:49Z</time>
    </trkpt>
    <trkpt lat="50.9657826" lon="6.8704852">
      <time>2020-10-30T18:03:50Z</time>
    </trkpt>
    <trkpt lat="50.9656976" lon="6.8707048">
      <time>2020-10-30T18:03:57Z</time>
    </trkpt>
    <trkpt lat="50.9656340" lon="6.8709782">
      <time>2020-10-30T18:04:05Z</time>
    </trkpt>
    <trkpt lat="50.9655829" lon="6.8711556">
      <time>2020-10-30T18:04:11Z</time>
    </trkpt>
    <trkpt lat="50.9655452" lon="6.8713768">
      <time>2020-10-30T18:04:17Z</time>
    </trkpt>
    <trkpt lat="50.9654493" lon="6.8716415">
      <time>2020-10-30T18:04:26Z</time>
    </trkpt>
    <trkpt lat="50.9653991" lon="6.8717904">
      <time>2020-10-30T18:04:31Z</time>
    </trkpt>
    <trkpt lat="50.9653058" lon="6.8720469">
      <time>2020-10-30T18:04:38Z</time>
    </trkpt>
    <trkpt lat="50.9653230" lon="6.8721750">
      <time>2020-10-30T18:04:43Z</time>
    </trkpt>
    <trkpt lat="50.9653396" lon="6.8721873">
      <time>2020-10-30T18:04:44Z</time>
    </trkpt>
    <trkpt lat="50.9655340" lon="6.8722497">
      <time>2020-10-30T18:04:50Z</time>
    </trkpt>
    <trkpt lat="50.9655691" lon="6.8722599">
      <time>2020-10-30T18:04:51Z</time>
    </trkpt>
    <trkpt lat="50.9655895" lon="6.8722859">
      <time>2020-10-30T18:04:52Z</time>
    </trkpt>
    <trkpt lat="50.9656045" lon="6.8724036">
      <time>2020-10-30T18:04:55Z</time>
    </trkpt>
    <trkpt lat="50.9655591" lon="6.8726883">
      <time>2020-10-30T18:05:02Z</time>
    </trkpt>
    <trkpt lat="50.9655411" lon="6.8727252">
      <time>2020-10-30T18:05:03Z</time>
    </trkpt>
    <trkpt lat="50.9654290" lon="6.8729821">
      <time>2020-10-30T18:05:10Z</time>
    </trkpt>
    <trkpt lat="50.9654057" lon="6.8730273">
      <time>2020-10-30T18:05:11Z</time>
    </trkpt>
    <trkpt lat="50.9652765" lon="6.8732355">
      <time>2020-10-30T18:05:19Z</time>
    </trkpt>
    <trkpt lat="50.9651819" lon="6.8733696">
      <time>2020-10-30T18:05:24Z</time>
    </trkpt>
    <trkpt lat="50.9651499" lon="6.8734307">
      <time>2020-10-30T18:05:26Z</time>
    </trkpt>
    <trkpt lat="50.9650122" lon="6.8736574">
      <time>2020-10-30T18:05:34Z</time>
    </trkpt>
    <trkpt lat="50.9649935" lon="6.8736811">
      <time>2020-10-30T18:05:35Z</time>
    </trkpt>
    <trkpt lat="50.9648629" lon="6.8738309">
      <time>2020-10-30T18:05:41Z</time>
    </trkpt>
    <trkpt lat="50.9648032" lon="6.8739569">
      <time>2020-10-30T18:05:45Z</time>
    </trkpt>
    <trkpt lat="50.9647674" lon="6.8740159">
      <time>2020-10-30T18:05:47Z</time>
    </trkpt>
    <trkpt lat="50.9646925" lon="6.8742713">
      <time>2020-10-30T18:05:54Z</time>
    </trkpt>
    <trkpt lat="50.9646115" lon="6.8745667">
      <time>2020-10-30T18:06:02Z</time>
    </trkpt>
    <trkpt lat="50.9646028" lon="6.8745968">
      <time>2020-10-30T18:06:03Z</time>
    </trkpt>
    <trkpt lat="50.9645605" lon="6.8747543">
      <time>2020-10-30T18:06:07Z</time>
    </trkpt>
    <trkpt lat="50.9645255" lon="6.8749098">
      <time>2020-10-30T18:06:11Z</time>
    </trkpt>
    <trkpt lat="50.9644880" lon="6.8751756">
      <time>2020-10-30T18:06:18Z</time>
    </trkpt>
    <trkpt lat="50.9644276" lon="6.8754618">
      <time>2020-10-30T18:06:25Z</time>
    </trkpt>
    <trkpt lat="50.9643860" lon="6.8756250">
      <time>2020-10-30T18:06:29Z</time>
    </trkpt>
    <trkpt lat="50.9643227" lon="6.8759165">
      <time>2020-10-30T18:06:37Z</time>
    </trkpt>
    <trkpt lat="50.9643155" lon="6.8759550">
      <time>2020-10-30T18:06:38Z</time>
    </trkpt>
    <trkpt lat="50.9642730" lon="6.8761926">
      <time>2020-10-30T18:06:45Z</time>
    </trkpt>
    <trkpt lat="50.9642564" lon="6.8762153">
      <time>2020-10-30T18:06:46Z</time>
    </trkpt>
    <trkpt lat="50.9642059" lon="6.8762312">
      <time>2020-10-30T18:06:48Z</time>
    </trkpt>
    <trkpt lat="50.9640224" lon="6.8761969">
      <time>2020-10-30T18:06:56Z</time>
    </trkpt>
    <trkpt lat="50.9639384" lon="6.8761886">
      <time>2020-10-30T18:07:00Z</time>
    </trkpt>
    <trkpt lat="50.9638574" lon="6.8761524">
      <time>2020-10-30T18:07:04Z</time>
    </trkpt>
    <trkpt lat="50.9637479" lon="6.8761314">
      <time>2020-10-30T18:07:08Z</time>
    </trkpt>
    <trkpt lat="50.9636196" lon="6.8761114">
      <time>2020-10-30T18:07:14Z</time>
    </trkpt>
    <trkpt lat="50.9635151" lon="6.8760712">
      <time>2020-10-30T18:07:18Z</time>
    </trkpt>
    <trkpt lat="50.9634794" lon="6.8760602">
      <time>2020-10-30T18:07:19Z</time>
    </trkpt>
    <trkpt lat="50.9632932" lon="6.8760792">
      <time>2020-10-30T18:07:25Z</time>
    </trkpt>
    <trkpt lat="50.9632244" lon="6.8761938">
      <time>2020-10-30T18:07:30Z</time>
    </trkpt>
    <trkpt lat="50.9631291" lon="6.8763455">
      <time>2020-10-30T18:07:36Z</time>
    </trkpt>
    <trkpt lat="50.9631004" lon="6.8765615">
      <time>2020-10-30T18:07:41Z</time>
    </trkpt>
    <trkpt lat="50.9630160" lon="6.8766456">
      <time>2020-10-30T18:07:45Z</time>
    </trkpt>
    <trkpt lat="50.9628807" lon="6.8765981">
      <time>2020-10-30T18:07:50Z</time>
    </trkpt>
    <trkpt lat="50.9627202" lon="6.8765324">
      <time>2020-10-30T18:07:56Z</time>
    </trkpt>
    <trkpt lat="50.9625870" lon="6.8764744">
      <time>2020-10-30T18:08:02Z</time>
    </trkpt>
    <trkpt lat="50.9624945" lon="6.8764970">
      <time>2020-10-30T18:08:06Z</time>
    </trkpt>
    <trkpt lat="50.9624746" lon="6.8764972">
      <time>2020-10-30T18:08:07Z</time>
    </trkpt>
    <trkpt lat="50.9623474" lon="6.8764924">
      <time>2020-10-30T18:08:12Z</time>
    </trkpt>
    <trkpt lat="50.9622327" lon="6.8765010">
      <time>2020-10-30T18:08:17Z</time>
    </trkpt>
    <trkpt lat="50.9621002" lon="6.8764745">
      <time>2020-10-30T18:08:25Z</time>
    </trkpt>
    <trkpt lat="50.9620797" lon="6.8765022">
      <time>2020-10-30T18:08:27Z</time>
    </trkpt>
    <trkpt lat="50.9620547" lon="6.8766403">
      <time>2020-10-30T18:08:31Z</time>
    </trkpt>
    <trkpt lat="50.9620176" lon="6.8768721">
      <time>2020-10-30T18:08:38Z</time>
    </trkpt>
    <trkpt lat="50.9618409" lon="6.8770253">
      <time>2020-10-30T18:08:46Z</time>
    </trkpt>
    <trkpt lat="50.9616686" lon="6.8771623">
      <time>2020-10-30T18:08:52Z</time>
    </trkpt>
    <trkpt lat="50.9615227" lon="6.8772283">
      <time>2020-10-30T18:08:58Z</time>
    </trkpt>
    <trkpt lat="50.9613360" lon="6.8773002">
      <time>2020-10-30T18:09:05Z</time>
    </trkpt>
    <trkpt lat="50.9613146" lon="6.8773014">
      <time>2020-10-30T18:09:06Z</time>
    </trkpt>
    <trkpt lat="50.9611969" lon="6.8773524">
      <time>2020-10-30T18:09:12Z</time>
    </trkpt>
    <trkpt lat="50.9610503" lon="6.8774370">
      <time>2020-10-30T18:09:19Z</time>
    </trkpt>
    <trkpt lat="50.9609095" lon="6.8775028">
      <time>2020-10-30T18:09:25Z</time>
    </trkpt>
    <trkpt lat="50.9608663" lon="6.8775191">
      <time>2020-10-30T18:09:27Z</time>
    </trkpt>
    <trkpt lat="50.9606757" lon="6.8776105">
      <time>2020-10-30T18:09:35Z</time>
    </trkpt>
    <trkpt lat="50.9606540" lon="6.8776164">
      <time>2020-10-30T18:09:36Z</time>
    </trkpt>
    <trkpt lat="50.9605297" lon="6.8776487">
      <time>2020-10-30T18:09:41Z</time>
    </trkpt>
    <trkpt lat="50.9604734" lon="6.8776682">
      <time>2020-10-30T18:09:43Z</time>
    </trkpt>
    <trkpt lat="50.9602910" lon="6.8777473">
      <time>2020-10-30T18:09:50Z</time>
    </trkpt>
    <trkpt lat="50.9601774" lon="6.8776982">
      <time>2020-10-30T18:09:55Z</time>
    </trkpt>
    <trkpt lat="50.9600082" lon="6.8775613">
      <time>2020-10-30T18:10:02Z</time>
    </trkpt>
    <trkpt lat="50.9599534" lon="6.8775296">
      <time>2020-10-30T18:10:04Z</time>
    </trkpt>
    <trkpt lat="50.9598472" lon="6.8773631">
      <time>2020-10-30T18:10:10Z</time>
    </trkpt>
    <trkpt lat="50.9598090" lon="6.8772754">
      <time>2020-10-30T18:10:13Z</time>
    </trkpt>
    <trkpt lat="50.9598107" lon="6.8771655">
      <time>2020-10-30T18:10:16Z</time>
    </trkpt>
    <trkpt lat="50.9598149" lon="6.8771311">
      <time>2020-10-30T18:10:17Z</time>
    </trkpt>
    <trkpt lat="50.9598446" lon="6.8769238">
      <time>2020-10-30T18:10:23Z</time>
    </trkpt>
    <trkpt lat="50.9598279" lon="6.8766453">
      <time>2020-10-30T18:10:30Z</time>
    </trkpt>
    <trkpt lat="50.9597682" lon="6.8763546">
      <time>2020-10-30T18:10:37Z</time>
    </trkpt>
    <trkpt lat="50.9597596" lon="6.8763173">
      <time>2020-10-30T18:10:38Z</time>
    </trkpt>
    <trkpt lat="50.9597145" lon="6.8760217">
      <time>2020-10-30T18:10:45Z</time>
    </trkpt>
    <trkpt lat="50.9596853" lon="6.8757322">
      <time>2020-10-30T18:10:53Z</time>
    </trkpt>
    <trkpt lat="50.9596847" lon="6.8754924">
      <time>2020-10-30T18:10:59Z</time>
    </trkpt>
    <trkpt lat="50.9596849" lon="6.8751811">
      <time>2020-10-30T18:11:07Z</time>
    </trkpt>
    <trkpt lat="50.9596995" lon="6.8749648">
      <time>2020-10-30T18:11:13Z</time>
    </trkpt>
    <trkpt lat="50.9597198" lon="6.8746788">
      <time>2020-10-30T18:11:21Z</time>
    </trkpt>
    <trkpt lat="50.9597223" lon="6.8746455">
      <time>2020-10-30T18:11:22Z</time>
    </trkpt>
    <trkpt lat="50.9597358" lon="6.8744341">
      <time>2020-10-30T18:11:28Z</time>
    </trkpt>
    <trkpt lat="50.9597460" lon="6.8743567">
      <time>2020-10-30T18:11:30Z</time>
    </trkpt>
    <trkpt lat="50.9597402" lon="6.8740565">
      <time>2020-10-30T18:11:37Z</time>
    </trkpt>
    <trkpt lat="50.9597618" lon="6.8737726">
      <time>2020-10-30T18:11:45Z</time>
    </trkpt>
    <trkpt lat="50.9597558" lon="6.8734883">
      <time>2020-10-30T18:11:53Z</time>
    </trkpt>
    <trkpt lat="50.9597167" lon="6.8732051">
      <time>2020-10-30T18:12:01Z</time>
    </trkpt>
    <trkpt lat="50.9596747" lon="6.8728988">
      <time>2020-10-30T18:12:09Z</time>
    </trkpt>
    <trkpt lat="50.9596125" lon="6.8726425">
      <time>2020-10-30T18:12:16Z</time>
    </trkpt>
    <trkpt lat="50.9596047" lon="6.8725454">
      <time>2020-10-30T18:12:19Z</time>
    </trkpt>
    <trkpt lat="50.9596018" lon="6.8724387">
      <time>2020-10-30T18:12:22Z</time>
    </trkpt>
    <trkpt lat="50.9595492" lon="6.8721321">
      <time>2020-10-30T18:12:30Z</time>
    </trkpt>
    <trkpt lat="50.9595330" lon="6.8719966">
      <time>2020-10-30T18:12:34Z</time>
    </trkpt>
    <trkpt lat="50.9595187" lon="6.8719287">
      <time>2020-10-30T18:12:36Z</time>
    </trkpt>
    <trkpt lat="50.9594590" lon="6.8717230">
      <time>2020-10-30T18:12:42Z</time>
    </trkpt>
    <trkpt lat="50.9594502" lon="6.8716603">
      <time>2020-10-30T18:12:44Z</time>
    </trkpt>
    <trkpt lat="50.9593809" lon="6.8713800">
      <time>2020-10-30T18:12:53Z</time>
    </trkpt>
    <trkpt lat="50.9592964" lon="6.8711292">
      <time>2020-10-30T18:13:00Z</time>
    </trkpt>
    <trkpt lat="50.9592545" lon="6.8709168">
      <time>2020-10-30T18:13:07Z</time>
    </trkpt>
    <trkpt lat="50.9592555" lon="6.8708883">
      <time>2020-10-30T18:13:08Z</time>
    </trkpt>
    <trkpt lat="50.9592558" lon="6.8708604">
      <time>2020-10-30T18:13:09Z</time>
    </trkpt>
    <trkpt lat="50.9592563" lon="6.8708007">
      <time>2020-10-30T18:13:11Z</time>
    </trkpt>
    <trkpt lat="50.9592922" lon="6.8706212">
      <time>2020-10-30T18:13:17Z</time>
    </trkpt>
    <trkpt lat="50.9593280" lon="6.8705905">
      <time>2020-10-30T18:13:19Z</time>
    </trkpt>
    <trkpt lat="50.9594206" lon="6.8705148">
      <time>2020-10-30T18:13:24Z</time>
    </trkpt>
    <trkpt lat="50.9594638" lon="6.8704671">
      <time>2020-10-30T18:13:26Z</time>
    </trkpt>
    <trkpt lat="50.9595235" lon="6.8704113">
      <time>2020-10-30T18:13:29Z</time>
    </trkpt>
    <trkpt lat="50.9597114" lon="6.8703529">
      <time>2020-10-30T18:13:37Z</time>
    </trkpt>
    <trkpt lat="50.9598780" lon="6.8703314">
      <time>2020-10-30T18:13:45Z</time>
    </trkpt>
    <trkpt lat="50.9600643" lon="6.8703096">
      <time>2020-10-30T18:13:54Z</time>
    </trkpt>
    <trkpt lat="50.9600889" lon="6.8703060">
      <time>2020-10-30T18:13:55Z</time>
    </trkpt>
    <trkpt lat="50.9602853" lon="6.8702672">
      <time>2020-10-30T18:14:04Z</time>
    </trkpt>
    <trkpt lat="50.9604686" lon="6.8702424">
      <time>2020-10-30T18:14:12Z</time>
    </trkpt>
    <trkpt lat="50.9605360" lon="6.8702271">
      <time>2020-10-30T18:14:15Z</time>
    </trkpt>
    <trkpt lat="50.9606573" lon="6.8701627">
      <time>2020-10-30T18:14:21Z</time>
    </trkpt>
    <trkpt lat="50.9608563" lon="6.8700948">
      <time>2020-10-30T18:14:28Z</time>
    </trkpt>
    <trkpt lat="50.9609095" lon="6.8700692">
      <time>2020-10-30T18:14:31Z</time>
    </trkpt>
    <trkpt lat="50.9610036" lon="6.8700149">
      <time>2020-10-30T18:14:37Z</time>
    </trkpt>
    <trkpt lat="50.9611905" lon="6.8699367">
      <time>2020-10-30T18:14:46Z</time>
    </trkpt>
    <trkpt lat="50.9612628" lon="6.8699084">
      <time>2020-10-30T18:14:50Z</time>
    </trkpt>
    <trkpt lat="50.9613017" lon="6.8698953">
      <time>2020-10-30T18:14:52Z</time>
    </trkpt>
    <trkpt lat="50.9614862" lon="6.8698455">
      <time>2020-10-30T18:15:00Z</time>
    </trkpt>
    <trkpt lat="50.9615090" lon="6.8698382">
      <time>2020-10-30T18:15:01Z</time>
    </trkpt>
    <trkpt lat="50.9616897" lon="6.8698099">
      <time>2020-10-30T18:15:08Z</time>
    </trkpt>
    <trkpt lat="50.9617170" lon="6.8698065">
      <time>2020-10-30T18:15:09Z</time>
    </trkpt>
    <trkpt lat="50.9619052" lon="6.8697641">
      <time>2020-10-30T18:15:17Z</time>
    </trkpt>
    <trkpt lat="50.9619583" lon="6.8697275">
      <time>2020-10-30T18:15:19Z</time>
    </trkpt>
    <trkpt lat="50.9621108" lon="6.8696891">
      <time>2020-10-30T18:15:25Z</time>
    </trkpt>
    <trkpt lat="50.9621263" lon="6.8696813">
      <time>2020-10-30T18:15:26Z</time>
    </trkpt>
    <trkpt lat="50.9622956" lon="6.8696735">
      <time>2020-10-30T18:15:34Z</time>
    </trkpt>
    <trkpt lat="50.9624918" lon="6.8696515">
      <time>2020-10-30T18:15:43Z</time>
    </trkpt>
    <trkpt lat="50.9625127" lon="6.8696519">
      <time>2020-10-30T18:15:44Z</time>
    </trkpt>
    <trkpt lat="50.9626956" lon="6.8696509">
      <time>2020-10-30T18:15:52Z</time>
    </trkpt>
    <trkpt lat="50.9627180" lon="6.8696486">
      <time>2020-10-30T18:15:53Z</time>
    </trkpt>
    <trkpt lat="50.9628968" lon="6.8696092">
      <time>2020-10-30T18:16:01Z</time>
    </trkpt>
    <trkpt lat="50.9629435" lon="6.8695991">
      <time>2020-10-30T18:16:03Z</time>
    </trkpt>
    <trkpt lat="50.9631293" lon="6.8695776">
      <time>2020-10-30T18:16:11Z</time>
    </trkpt>
    <trkpt lat="50.9631536" lon="6.8695740">
      <time>2020-10-30T18:16:12Z</time>
    </trkpt>
    <trkpt lat="50.9633309" lon="6.8696052">
      <time>2020-10-30T18:16:19Z</time>
    </trkpt>
    <trkpt lat="50.9635156" lon="6.8696182">
      <time>2020-10-30T18:16:26Z</time>
    </trkpt>
    <trkpt lat="50.9636112" lon="6.8696337">
      <time>2020-10-30T18:16:32Z</time>
    </trkpt>
    <trkpt lat="50.9637065" lon="6.8696572">
      <time>2020-10-30T18:16:37Z</time>
    </trkpt>
    <trkpt lat="50.9638963" lon="6.8696985">
      <time>2020-10-30T18:16:46Z</time>
    </trkpt>
    <trkpt lat="50.9639600" lon="6.8697141">
      <time>2020-10-30T18:16:49Z</time>
    </trkpt>
    <trkpt lat="50.9639818" lon="6.8697148">
      <time>2020-10-30T18:16:50Z</time>
    </trkpt>
    <trkpt lat="50.9640125" lon="6.8696796">
      <time>2020-10-30T18:16:52Z</time>
    </trkpt>
    <trkpt lat="50.9640833" lon="6.8694353">
      <time>2020-10-30T18:16:59Z</time>
    </trkpt>
    <trkpt lat="50.9641225" lon="6.8692537">
      <time>2020-10-30T18:17:05Z</time>
    </trkpt>
    <trkpt lat="50.9641515" lon="6.8690589">
      <time>2020-10-30T18:17:11Z</time>
    </trkpt>
    <trkpt lat="50.9641967" lon="6.8687588">
      <time>2020-10-30T18:17:19Z</time>
    </trkpt>
    <trkpt lat="50.9641989" lon="6.8687218">
      <time>2020-10-30T18:17:20Z</time>
    </trkpt>
    <trkpt lat="50.9642169" lon="6.8684931">
      <time>2020-10-30T18:17:27Z</time>
    </trkpt>
    <trkpt lat="50.9642332" lon="6.8683664">
      <time>2020-10-30T18:17:31Z</time>
    </trkpt>
    <trkpt lat="50.9642466" lon="6.8683047">
      <time>2020-10-30T18:17:33Z</time>
    </trkpt>
    <trkpt lat="50.9642458" lon="6.8681180">
      <time>2020-10-30T18:17:39Z</time>
    </trkpt>
    <trkpt lat="50.9642560" lon="6.8679087">
      <time>2020-10-30T18:17:45Z</time>
    </trkpt>
    <trkpt lat="50.9642770" lon="6.8678920">
      <time>2020-10-30T18:17:46Z</time>
    </trkpt>
    <trkpt lat="50.9643014" lon="6.8678892">
      <time>2020-10-30T18:17:47Z</time>
    </trkpt>
    <trkpt lat="50.9644045" lon="6.8678964">
      <time>2020-10-30T18:17:51Z</time>
    </trkpt>
    <trkpt lat="50.9646032" lon="6.8679623">
      <time>2020-10-30T18:17:59Z</time>
    </trkpt>
    <trkpt lat="50.9646630" lon="6.8680128">
      <time>2020-10-30T18:18:01Z</time>
    </trkpt>
    <trkpt lat="50.9648310" lon="6.8681478">
      <time>2020-10-30T18:18:08Z</time>
    </trkpt>
    <trkpt lat="50.9650203" lon="6.8682009">
      <time>2020-10-30T18:18:16Z</time>
    </trkpt>
    <trkpt lat="50.9652179" lon="6.8682611">
      <time>2020-10-30T18:18:25Z</time>
    </trkpt>
    <trkpt lat="50.9653986" lon="6.8683404">
      <time>2020-10-30T18:18:34Z</time>
    </trkpt>
    <trkpt lat="50.9654170" lon="6.8683530">
      <time>2020-10-30T18:18:35Z</time>
    </trkpt>
    <trkpt lat="50.9656127" lon="6.8684213">
      <time>2020-10-30T18:18:43Z</time>
    </trkpt>
    <trkpt lat="50.9657099" lon="6.8684739">
      <time>2020-10-30T18:18:47Z</time>
    </trkpt>
    <trkpt lat="50.9658940" lon="6.8685515">
      <time>2020-10-30T18:18:55Z</time>
    </trkpt>
    <trkpt lat="50.9659412" lon="6.8685665">
      <time>2020-10-30T18:18:57Z</time>
    </trkpt>
    <trkpt lat="50.9660818" lon="6.8686033">
      <time>2020-10-30T18:19:04Z</time>
    </trkpt>
    <trkpt lat="50.9662155" lon="6.8686390">
      <time>2020-10-30T18:19:10Z</time>
    </trkpt>
    <trkpt lat="50.9662209" lon="6.8686688">
      <time>2020-10-30T18:19:11Z</time>
    </trkpt>
    <trkpt lat="50.9661701" lon="6.8688133">
      <time>2020-10-30T18:19:15Z</time>
    </trkpt>
    <trkpt lat="50.9660995" lon="6.8690810">
      <time>2020-10-30T18:19:23Z</time>
    </trkpt>
    <trkpt lat="50.9660940" lon="6.8691183">
      <time>2020-10-30T18:19:24Z</time>
    </trkpt>
    <trkpt lat="50.9661177" lon="6.8693317">
      <time>2020-10-30T18:19:31Z</time>
    </trkpt>
    <trkpt lat="50.9661894" lon="6.8693597">
      <time>2020-10-30T18:19:36Z</time>
    </trkpt>
    <trkpt lat="50.9661981" lon="6.8693359">
      <time>2020-10-30T18:19:37Z</time>
    </trkpt>
    <trkpt lat="50.9662134" lon="6.8692012">
      <time>2020-10-30T18:19:41Z</time>
    </trkpt>
    <trkpt lat="50.9662542" lon="6.8690419">
      <time>2020-10-30T18:19:46Z</time>
    </trkpt>
    <trkpt lat="50.9662689" lon="6.8688385">
      <time>2020-10-30T18:19:52Z</time>
    </trkpt>
    <trkpt lat="50.9662354" lon="6.8685581">
      <time>2020-10-30T18:20:00Z</time>
    </trkpt>
    <trkpt lat="50.9661616" lon="6.8684521">
      <time>2020-10-30T18:20:05Z</time>
    </trkpt>
    <trkpt lat="50.9659783" lon="6.8684001">
      <time>2020-10-30T18:20:13Z</time>
    </trkpt>
    <trkpt lat="50.9659555" lon="6.8683968">
      <time>2020-10-30T18:20:14Z</time>
    </trkpt>
    <trkpt lat="50.9657599" lon="6.8683443">
      <time>2020-10-30T18:20:23Z</time>
    </trkpt>
    <trkpt lat="50.9657406" lon="6.8683369">
      <time>2020-10-30T18:20:24Z</time>
    </trkpt>
    <trkpt lat="50.9655514" lon="6.8682719">
      <time>2020-10-30T18:20:33Z</time>
    </trkpt>
    <trkpt lat="50.9653932" lon="6.8682257">
      <time>2020-10-30T18:20:40Z</time>
    </trkpt>
    <trkpt lat="50.9652098" lon="6.8681852">
      <time>2020-10-30T18:20:49Z</time>
    </trkpt>
    <trkpt lat="50.9650167" lon="6.8681113">
      <time>2020-10-30T18:20:58Z</time>
    </trkpt>
    <trkpt lat="50.9648323" lon="6.8680388">
      <time>2020-10-30T18:21:06Z</time>
    </trkpt>
    <trkpt lat="50.9647450" lon="6.8680685">
      <time>2020-10-30T18:21:12Z</time>
    </trkpt>
    <trkpt lat="50.9647549" lon="6.8681154">
      <time>2020-10-30T18:21:14Z</time>
    </trkpt>
    <trkpt lat="50.9647950" lon="6.8681805">
      <time>2020-10-30T18:21:16Z</time>
    </trkpt>
    <trkpt lat="50.9649516" lon="6.8683419">
      <time>2020-10-30T18:21:23Z</time>
    </trkpt>
    <trkpt lat="50.9649717" lon="6.8683536">
      <time>2020-10-30T18:21:24Z</time>
    </trkpt>
    <trkpt lat="50.9651567" lon="6.8683966">
      <time>2020-10-30T18:21:32Z</time>
    </trkpt>
    <trkpt lat="50.9651816" lon="6.8683923">
      <time>2020-10-30T18:21:33Z</time>
    </trkpt>
    <trkpt lat="50.9653350" lon="6.8684634">
      <time>2020-10-30T18:21:42Z</time>
    </trkpt>
    <trkpt lat="50.9655369" lon="6.8685427">
      <time>2020-10-30T18:21:51Z</time>
    </trkpt>
    <trkpt lat="50.9656729" lon="6.8685991">
      <time>2020-10-30T18:21:58Z</time>
    </trkpt>
    <trkpt lat="50.9658091" lon="6.8686205">
      <time>2020-10-30T18:22:05Z</time>
    </trkpt>
    <trkpt lat="50.9659162" lon="6.8686817">
      <time>2020-10-30T18:22:12Z</time>
    </trkpt>
    <trkpt lat="50.9660482" lon="6.8687780">
      <time>2020-10-30T18:22:19Z</time>
    </trkpt>
    <trkpt lat="50.9660694" lon="6.8687959">
      <time>2020-10-30T18:22:20Z</time>
    </trkpt>
    <trkpt lat="50.9660783" lon="6.8688564">
      <time>2020-10-30T18:22:22Z</time>
    </trkpt>
    <trkpt lat="50.9660745" lon="6.8688866">
      <time>2020-10-30T18:22:23Z</time>
    </trkpt>
    <trkpt lat="50.9660650" lon="6.8691732">
      <time>2020-10-30T18:22:32Z</time>
    </trkpt>
    <trkpt lat="50.9660668" lon="6.8692494">
      <time>2020-10-30T18:22:34Z</time>
    </trkpt>
    <trkpt lat="50.9661243" lon="6.8694444">
      <time>2020-10-30T18:22:40Z</time>
    </trkpt>
    <trkpt lat="50.9661264" lon="6.8694810">
      <time>2020-10-30T18:22:41Z</time>
    </trkpt>
    <trkpt lat="50.9660991" lon="6.8695860">
      <time>2020-10-30T18:22:44Z</time>
    </trkpt>
    <trkpt lat="50.9660146" lon="6.8698421">
      <time>2020-10-30T18:22:52Z</time>
    </trkpt>
    <trkpt lat="50.9659985" lon="6.8698716">
      <time>2020-10-30T18:22:53Z</time>
    </trkpt>
    <trkpt lat="50.9659059" lon="6.8700856">
      <time>2020-10-30T18:23:00Z</time>
    </trkpt>
    <trkpt lat="50.9658044" lon="6.8703227">
      <time>2020-10-30T18:23:08Z</time>
    </trkpt>
    <trkpt lat="50.9657899" lon="6.8703460">
      <time>2020-10-30T18:23:09Z</time>
    </trkpt>
    <trkpt lat="50.9657269" lon="6.8705045">
      <time>2020-10-30T18:23:15Z</time>
    </trkpt>
    <trkpt lat="50.9657056" lon="6.8705516">
      <time>2020-10-30T18:23:17Z</time>
    </trkpt>
    <trkpt lat="50.9656778" lon="6.8706154">
      <time>2020-10-30T18:23:19Z</time>
    </trkpt>
    <trkpt lat="50.9656418" lon="6.8707950">
      <time>2020-10-30T18:23:25Z</time>
    </trkpt>
    <trkpt lat="50.9656738" lon="6.8710116">
      <time>2020-10-30T18:23:32Z</time>
    </trkpt>
    <trkpt lat="50.9656864" lon="6.8712396">
      <time>2020-10-30T18:23:39Z</time>
    </trkpt>
    <trkpt lat="50.9656887" lon="6.8713192">
      <time>2020-10-30T18:23:41Z</time>
    </trkpt>
    <trkpt lat="50.9656510" lon="6.8716060">
      <time>2020-10-30T18:23:49Z</time>
    </trkpt>
    <trkpt lat="50.9656512" lon="6.8716464">
      <time>2020-10-30T18:23:50Z</time>
    </trkpt>
    <trkpt lat="50.9656513" lon="6.8719644">
      <time>2020-10-30T18:23:59Z</time>
    </trkpt>
    <trkpt lat="50.9656535" lon="6.8720386">
      <time>2020-10-30T18:24:01Z</time>
    </trkpt>
    <trkpt lat="50.9656441" lon="6.8722769">
      <time>2020-10-30T18:24:08Z</time>
    </trkpt>
    <trkpt lat="50.9656027" lon="6.8724938">
      <time>2020-10-30T18:24:15Z</time>
    </trkpt>
    <trkpt lat="50.9655218" lon="6.8727674">
      <time>2020-10-30T18:24:23Z</time>
    </trkpt>
    <trkpt lat="50.9654252" lon="6.8729431">
      <time>2020-10-30T18:24:29Z</time>
    </trkpt>
    <trkpt lat="50.9653984" lon="6.8729951">
      <time>2020-10-30T18:24:31Z</time>
    </trkpt>
    <trkpt lat="50.9653047" lon="6.8731507">
      <time>2020-10-30T18:24:37Z</time>
    </trkpt>
    <trkpt lat="50.9652522" lon="6.8732283">
      <time>2020-10-30T18:24:40Z</time>
    </trkpt>
    <trkpt lat="50.9651317" lon="6.8734558">
      <time>2020-10-30T18:24:48Z</time>
    </trkpt>
    <trkpt lat="50.9650878" lon="6.8735087">
      <time>2020-10-30T18:24:50Z</time>
    </trkpt>
    <trkpt lat="50.9649698" lon="6.8737049">
      <time>2020-10-30T18:24:58Z</time>
    </trkpt>
    <trkpt lat="50.9648760" lon="6.8738206">
      <time>2020-10-30T18:25:03Z</time>
    </trkpt>
    <trkpt lat="50.9648131" lon="6.8740044">
      <time>2020-10-30T18:25:09Z</time>
    </trkpt>
    <trkpt lat="50.9647110" lon="6.8742331">
      <time>2020-10-30T18:25:17Z</time>
    </trkpt>
    <trkpt lat="50.9646272" lon="6.8744989">
      <time>2020-10-30T18:25:25Z</time>
    </trkpt>
    <trkpt lat="50.9645377" lon="6.8747818">
      <time>2020-10-30T18:25:33Z</time>
    </trkpt>
    <trkpt lat="50.9645289" lon="6.8748164">
      <time>2020-10-30T18:25:34Z</time>
    </trkpt>
    <trkpt lat="50.9644872" lon="6.8750863">
      <time>2020-10-30T18:25:41Z</time>
    </trkpt>
    <trkpt lat="50.9644244" lon="6.8753206">
      <time>2020-10-30T18:25:48Z</time>
    </trkpt>
    <trkpt lat="50.9643728" lon="6.8755977">
      <time>2020-10-30T18:25:55Z</time>
    </trkpt>
    <trkpt lat="50.9643204" lon="6.8758763">
      <time>2020-10-30T18:26:02Z</time>
    </trkpt>
    <trkpt lat="50.9643142" lon="6.8759184">
      <time>2020-10-30T18:26:03Z</time>
    </trkpt>
    <trkpt lat="50.9642631" lon="6.8761741">
      <time>2020-10-30T18:26:10Z</time>
    </trkpt>
    <trkpt lat="50.9642227" lon="6.8762130">
      <time>2020-10-30T18:26:12Z</time>
    </trkpt>
    <trkpt lat="50.9641762" lon="6.8762130">
      <time>2020-10-30T18:26:14Z</time>
    </trkpt>
    <trkpt lat="50.9639824" lon="6.8761664">
      <time>2020-10-30T18:26:23Z</time>
    </trkpt>
    <trkpt lat="50.9638321" lon="6.8760638">
      <time>2020-10-30T18:26:29Z</time>
    </trkpt>
    <trkpt lat="50.9636897" lon="6.8760332">
      <time>2020-10-30T18:26:36Z</time>
    </trkpt>
    <trkpt lat="50.9634742" lon="6.8759868">
      <time>2020-10-30T18:26:44Z</time>
    </trkpt>
    <trkpt lat="50.9632877" lon="6.8760211">
      <time>2020-10-30T18:26:50Z</time>
    </trkpt>
    <trkpt lat="50.9632691" lon="6.8760355">
      <time>2020-10-30T18:26:51Z</time>
    </trkpt>
    <trkpt lat="50.9631699" lon="6.8761813">
      <time>2020-10-30T18:26:57Z</time>
    </trkpt>
    <trkpt lat="50.9631007" lon="6.8762824">
      <time>2020-10-30T18:27:01Z</time>
    </trkpt>
    <trkpt lat="50.9630857" lon="6.8763638">
      <time>2020-10-30T18:27:03Z</time>
    </trkpt>
    <trkpt lat="50.9629839" lon="6.8766166">
      <time>2020-10-30T18:27:10Z</time>
    </trkpt>
    <trkpt lat="50.9629341" lon="6.8766159">
      <time>2020-10-30T18:27:12Z</time>
    </trkpt>
    <trkpt lat="50.9628596" lon="6.8765891">
      <time>2020-10-30T18:27:15Z</time>
    </trkpt>
    <trkpt lat="50.9627015" lon="6.8765154">
      <time>2020-10-30T18:27:22Z</time>
    </trkpt>
    <trkpt lat="50.9625452" lon="6.8764386">
      <time>2020-10-30T18:27:30Z</time>
    </trkpt>
    <trkpt lat="50.9625278" lon="6.8764436">
      <time>2020-10-30T18:27:31Z</time>
    </trkpt>
    <trkpt lat="50.9624915" lon="6.8764411">
      <time>2020-10-30T18:27:33Z</time>
    </trkpt>
    <trkpt lat="50.9624760" lon="6.8764430">
      <time>2020-10-30T18:27:34Z</time>
    </trkpt>
    <trkpt lat="50.9623376" lon="6.8764326">
      <time>2020-10-30T18:27:40Z</time>
    </trkpt>
    <trkpt lat="50.9622149" lon="6.8764266">
      <time>2020-10-30T18:27:46Z</time>
    </trkpt>
    <trkpt lat="50.9621115" lon="6.8763856">
      <time>2020-10-30T18:27:52Z</time>
    </trkpt>
    <trkpt lat="50.9620271" lon="6.8764658">
      <time>2020-10-30T18:27:58Z</time>
    </trkpt>
    <trkpt lat="50.9620113" lon="6.8766634">
      <time>2020-10-30T18:28:04Z</time>
    </trkpt>
    <trkpt lat="50.9619624" lon="6.8768600">
      <time>2020-10-30T18:28:10Z</time>
    </trkpt>
    <trkpt lat="50.9618439" lon="6.8769486">
      <time>2020-10-30T18:28:16Z</time>
    </trkpt>
    <trkpt lat="50.9616671" lon="6.8770723">
      <time>2020-10-30T18:28:23Z</time>
    </trkpt>
    <trkpt lat="50.9616487" lon="6.8770786">
      <time>2020-10-30T18:28:24Z</time>
    </trkpt>
    <trkpt lat="50.9615125" lon="6.8771837">
      <time>2020-10-30T18:28:30Z</time>
    </trkpt>
    <trkpt lat="50.9613893" lon="6.8772767">
      <time>2020-10-30T18:28:36Z</time>
    </trkpt>
    <trkpt lat="50.9612126" lon="6.8773624">
      <time>2020-10-30T18:28:45Z</time>
    </trkpt>
    <trkpt lat="50.9611905" lon="6.8773730">
      <time>2020-10-30T18:28:46Z</time>
    </trkpt>
    <trkpt lat="50.9610563" lon="6.8774100">
      <time>2020-10-30T18:28:53Z</time>
    </trkpt>
    <trkpt lat="50.9608610" lon="6.8774717">
      <time>2020-10-30T18:29:02Z</time>
    </trkpt>
    <trkpt lat="50.9606737" lon="6.8775614">
      <time>2020-10-30T18:29:10Z</time>
    </trkpt>
    <trkpt lat="50.9604996" lon="6.8776458">
      <time>2020-10-30T18:29:18Z</time>
    </trkpt>
    <trkpt lat="50.9604777" lon="6.8776519">
      <time>2020-10-30T18:29:19Z</time>
    </trkpt>
    <trkpt lat="50.9603244" lon="6.8777128">
      <time>2020-10-30T18:29:26Z</time>
    </trkpt>
    <trkpt lat="50.9601688" lon="6.8776888">
      <time>2020-10-30T18:29:33Z</time>
    </trkpt>
    <trkpt lat="50.9600444" lon="6.8775856">
      <time>2020-10-30T18:29:39Z</time>
    </trkpt>
    <trkpt lat="50.9599377" lon="6.8775080">
      <time>2020-10-30T18:29:44Z</time>
    </trkpt>
    <trkpt lat="50.9598164" lon="6.8773003">
      <time>2020-10-30T18:29:52Z</time>
    </trkpt>
    <trkpt lat="50.9597928" lon="6.8770895">
      <time>2020-10-30T18:29:58Z</time>
    </trkpt>
    <trkpt lat="50.9598271" lon="6.8768137">
      <time>2020-10-30T18:30:07Z</time>
    </trkpt>
    <trkpt lat="50.9598216" lon="6.8767384">
      <time>2020-10-30T18:30:09Z</time>
    </trkpt>
    <trkpt lat="50.9598053" lon="6.8765329">
      <time>2020-10-30T18:30:15Z</time>
    </trkpt>
    <trkpt lat="50.9597892" lon="6.8764422">
      <time>2020-10-30T18:30:18Z</time>
    </trkpt>
    <trkpt lat="50.9597609" lon="6.8762662">
      <time>2020-10-30T18:30:23Z</time>
    </trkpt>
    <trkpt lat="50.9597327" lon="6.8760332">
      <time>2020-10-30T18:30:30Z</time>
    </trkpt>
    <trkpt lat="50.9597129" lon="6.8757912">
      <time>2020-10-30T18:30:38Z</time>
    </trkpt>
    <trkpt lat="50.9597033" lon="6.8754920">
      <time>2020-10-30T18:30:47Z</time>
    </trkpt>
    <trkpt lat="50.9597151" lon="6.8752340">
      <time>2020-10-30T18:30:55Z</time>
    </trkpt>
    <trkpt lat="50.9597373" lon="6.8749621">
      <time>2020-10-30T18:31:03Z</time>
    </trkpt>
    <trkpt lat="50.9597495" lon="6.8746641">
      <time>2020-10-30T18:31:12Z</time>
    </trkpt>
    <trkpt lat="50.9597508" lon="6.8746344">
      <time>2020-10-30T18:31:13Z</time>
    </trkpt>
    <trkpt lat="50.9597718" lon="6.8744195">
      <time>2020-10-30T18:31:20Z</time>
    </trkpt>
    <trkpt lat="50.9597801" lon="6.8740981">
      <time>2020-10-30T18:31:29Z</time>
    </trkpt>
    <trkpt lat="50.9598012" lon="6.8738503">
      <time>2020-10-30T18:31:37Z</time>
    </trkpt>
    <trkpt lat="50.9597760" lon="6.8735515">
      <time>2020-10-30T18:31:46Z</time>
    </trkpt>
    <trkpt lat="50.9597471" lon="6.8733201">
      <time>2020-10-30T18:31:53Z</time>
    </trkpt>
    <trkpt lat="50.9597278" lon="6.8730411">
      <time>2020-10-30T18:32:02Z</time>
    </trkpt>
    <trkpt lat="50.9596756" lon="6.8727867">
      <time>2020-10-30T18:32:10Z</time>
    </trkpt>
    <trkpt lat="50.9596192" lon="6.8724812">
      <time>2020-10-30T18:32:19Z</time>
    </trkpt>
    <trkpt lat="50.9596150" lon="6.8724488">
      <time>2020-10-30T18:32:20Z</time>
    </trkpt>
    <trkpt lat="50.9595978" lon="6.8722948">
      <time>2020-10-30T18:32:25Z</time>
    </trkpt>
    <trkpt lat="50.9595732" lon="6.8720663">
      <time>2020-10-30T18:32:32Z</time>
    </trkpt>
    <trkpt lat="50.9595145" lon="6.8717754">
      <time>2020-10-30T18:32:40Z</time>
    </trkpt>
    <trkpt lat="50.9595088" lon="6.8717423">
      <time>2020-10-30T18:32:41Z</time>
    </trkpt>
    <trkpt lat="50.9594835" lon="6.8716022">
      <time>2020-10-30T18:32:45Z</time>
    </trkpt>
    <trkpt lat="50.9594355" lon="6.8714319">
      <time>2020-10-30T18:32:50Z</time>
    </trkpt>
    <trkpt lat="50.9593174" lon="6.8711733">
      <time>2020-10-30T18:32:58Z</time>
    </trkpt>
    <trkpt lat="50.9592918" lon="6.8710748">
      <time>2020-10-30T18:33:01Z</time>
    </trkpt>
    <trkpt lat="50.9592700" lon="6.8708638">
      <time>2020-10-30T18:33:07Z</time>
    </trkpt>
    <trkpt lat="50.9592859" lon="6.8706676">
      <time>2020-10-30T18:33:13Z</time>
    </trkpt>
    <trkpt lat="50.9594122" lon="6.8705595">
      <time>2020-10-30T18:33:19Z</time>
    </trkpt>
    <trkpt lat="50.9595597" lon="6.8704228">
      <time>2020-10-30T18:33:28Z</time>
    </trkpt>
    <trkpt lat="50.9597291" lon="6.8703347">
      <time>2020-10-30T18:33:36Z</time>
    </trkpt>
    <trkpt lat="50.9599143" lon="6.8703093">
      <time>2020-10-30T18:33:45Z</time>
    </trkpt>
    <trkpt lat="50.9599315" lon="6.8703092">
      <time>2020-10-30T18:33:46Z</time>
    </trkpt>
    <trkpt lat="50.9600739" lon="6.8702826">
      <time>2020-10-30T18:33:54Z</time>
    </trkpt>
    <trkpt lat="50.9602160" lon="6.8702559">
      <time>2020-10-30T18:34:02Z</time>
    </trkpt>
    <trkpt lat="50.9604003" lon="6.8702120">
      <time>2020-10-30T18:34:10Z</time>
    </trkpt>
    <trkpt lat="50.9604423" lon="6.8702010">
      <time>2020-10-30T18:34:12Z</time>
    </trkpt>
    <trkpt lat="50.9605718" lon="6.8701728">
      <time>2020-10-30T18:34:19Z</time>
    </trkpt>
    <trkpt lat="50.9607272" lon="6.8701455">
      <time>2020-10-30T18:34:28Z</time>
    </trkpt>
    <trkpt lat="50.9608874" lon="6.8700634">
      <time>2020-10-30T18:34:36Z</time>
    </trkpt>
    <trkpt lat="50.9610509" lon="6.8699771">
      <time>2020-10-30T18:34:45Z</time>
    </trkpt>
    <trkpt lat="50.9612293" lon="6.8698943">
      <time>2020-10-30T18:34:56Z</time>
    </trkpt>
    <trkpt lat="50.9614046" lon="6.8698393">
      <time>2020-10-30T18:35:05Z</time>
    </trkpt>
    <trkpt lat="50.9615986" lon="6.8698164">
      <time>2020-10-30T18:35:14Z</time>
    </trkpt>
    <trkpt lat="50.9618123" lon="6.8697622">
      <time>2020-10-30T18:35:23Z</time>
    </trkpt>
    <trkpt lat="50.9620009" lon="6.8697183">
      <time>2020-10-30T18:35:30Z</time>
    </trkpt>
    <trkpt lat="50.9620409" lon="6.8697085">
      <time>2020-10-30T18:35:32Z</time>
    </trkpt>
    <trkpt lat="50.9622206" lon="6.8696540">
      <time>2020-10-30T18:35:41Z</time>
    </trkpt>
    <trkpt lat="50.9623422" lon="6.8696556">
      <time>2020-10-30T18:35:48Z</time>
    </trkpt>
    <trkpt lat="50.9625164" lon="6.8696440">
      <time>2020-10-30T18:35:58Z</time>
    </trkpt>
    <trkpt lat="50.9626547" lon="6.8696343">
      <time>2020-10-30T18:36:05Z</time>
    </trkpt>
    <trkpt lat="50.9628165" lon="6.8695984">
      <time>2020-10-30T18:36:13Z</time>
    </trkpt>
    <trkpt lat="50.9629467" lon="6.8695726">
      <time>2020-10-30T18:36:20Z</time>
    </trkpt>
    <trkpt lat="50.9631102" lon="6.8695395">
      <time>2020-10-30T18:36:29Z</time>
    </trkpt>
    <trkpt lat="50.9632960" lon="6.8695736">
      <time>2020-10-30T18:36:37Z</time>
    </trkpt>
    <trkpt lat="50.9633172" lon="6.8695739">
      <time>2020-10-30T18:36:38Z</time>
    </trkpt>
    <trkpt lat="50.9633514" lon="6.8695705">
      <time>2020-10-30T18:36:40Z</time>
    </trkpt>
    <trkpt lat="50.9634232" lon="6.8695584">
      <time>2020-10-30T18:36:44Z</time>
    </trkpt>
    <trkpt lat="50.9635896" lon="6.8695752">
      <time>2020-10-30T18:36:53Z</time>
    </trkpt>
    <trkpt lat="50.9637799" lon="6.8695793">
      <time>2020-10-30T18:37:01Z</time>
    </trkpt>
    <trkpt lat="50.9637953" lon="6.8695843">
      <time>2020-10-30T18:37:02Z</time>
    </trkpt>
    <trkpt lat="50.9638961" lon="6.8696148">
      <time>2020-10-30T18:37:09Z</time>
    </trkpt>
    <trkpt lat="50.9640103" lon="6.8695892">
      <time>2020-10-30T18:37:16Z</time>
    </trkpt>
    <trkpt lat="50.9640678" lon="6.8694059">
      <time>2020-10-30T18:37:22Z</time>
    </trkpt>
    <trkpt lat="50.9640940" lon="6.8692928">
      <time>2020-10-30T18:37:25Z</time>
    </trkpt>
    <trkpt lat="50.9641091" lon="6.8692081">
      <time>2020-10-30T18:37:27Z</time>
    </trkpt>
    <trkpt lat="50.9641162" lon="6.8691628">
      <time>2020-10-30T18:37:28Z</time>
    </trkpt>
    <trkpt lat="50.9641799" lon="6.8688888">
      <time>2020-10-30T18:37:35Z</time>
    </trkpt>
    <trkpt lat="50.9642197" lon="6.8686554">
      <time>2020-10-30T18:37:42Z</time>
    </trkpt>
    <trkpt lat="50.9642258" lon="6.8685918">
      <time>2020-10-30T18:37:44Z</time>
    </trkpt>
    <trkpt lat="50.9642455" lon="6.8685009">
      <time>2020-10-30T18:37:47Z</time>
    </trkpt>
    <trkpt lat="50.9642614" lon="6.8683387">
      <time>2020-10-30T18:37:52Z</time>
    </trkpt>
    <trkpt lat="50.9642556" lon="6.8682892">
      <time>2020-10-30T18:37:53Z</time>
    </trkpt>
    <trkpt lat="50.9642402" lon="6.8680098">
      <time>2020-10-30T18:38:02Z</time>
    </trkpt>
    <trkpt lat="50.9642440" lon="6.8678780">
      <time>2020-10-30T18:38:06Z</time>
    </trkpt>
    <trkpt lat="50.9642782" lon="6.8678330">
      <time>2020-10-30T18:38:08Z</time>
    </trkpt>
    <trkpt lat="50.9644051" lon="6.8678471">
      <time>2020-10-30T18:38:14Z</time>
    </trkpt>
    <trkpt lat="50.9645920" lon="6.8679162">
      <time>2020-10-30T18:38:23Z</time>
    </trkpt>
    <trkpt lat="50.9646153" lon="6.8679248">
      <time>2020-10-30T18:38:24Z</time>
    </trkpt>
    <trkpt lat="50.9647417" lon="6.8680685">
      <time>2020-10-30T18:38:32Z</time>
    </trkpt>
    <trkpt lat="50.9648525" lon="6.8681624">
      <time>2020-10-30T18:38:38Z</time>
    </trkpt>
    <trkpt lat="50.9650054" lon="6.8682135">
      <time>2020-10-30T18:38:46Z</time>
    </trkpt>
    <trkpt lat="50.9651872" lon="6.8683281">
      <time>2020-10-30T18:38:56Z</time>
    </trkpt>
    <trkpt lat="50.9653201" lon="6.8684190">
      <time>2020-10-30T18:39:04Z</time>
    </trkpt>
    <trkpt lat="50.9654121" lon="6.8684683">
      <time>2020-10-30T18:39:10Z</time>
    </trkpt>
    <trkpt lat="50.9655908" lon="6.8685087">
      <time>2020-10-30T18:39:18Z</time>
    </trkpt>
    <trkpt lat="50.9656186" lon="6.8685222">
      <time>2020-10-30T18:39:19Z</time>
    </trkpt>
    <trkpt lat="50.9657899" lon="6.8686151">
      <time>2020-10-30T18:39:26Z</time>
    </trkpt>
    <trkpt lat="50.9658085" lon="6.8686267">
      <time>2020-10-30T18:39:27Z</time>
    </trkpt>
    <trkpt lat="50.9659399" lon="6.8687037">
      <time>2020-10-30T18:39:34Z</time>
    </trkpt>
    <trkpt lat="50.9659840" lon="6.8687167">
      <time>2020-10-30T18:39:36Z</time>
    </trkpt>
    <trkpt lat="50.9660331" lon="6.8687272">
      <time>2020-10-30T18:39:38Z</time>
    </trkpt>
    <trkpt lat="50.9660683" lon="6.8688827">
      <time>2020-10-30T18:39:42Z</time>
    </trkpt>
    <trkpt lat="50.9660993" lon="6.8691825">
      <time>2020-10-30T18:39:50Z</time>
    </trkpt>
    <trkpt lat="50.9661025" lon="6.8692198">
      <time>2020-10-30T18:39:51Z</time>
    </trkpt>
    <trkpt lat="50.9660897" lon="6.8695252">
      <time>2020-10-30T18:39:59Z</time>
    </trkpt>
    <trkpt lat="50.9660807" lon="6.8695607">
      <time>2020-10-30T18:40:00Z</time>
    </trkpt>
    <trkpt lat="50.9660353" lon="6.8697779">
      <time>2020-10-30T18:40:07Z</time>
    </trkpt>
    <trkpt lat="50.9659310" lon="6.8700134">
      <time>2020-10-30T18:40:15Z</time>
    </trkpt>
    <trkpt lat="50.9659182" lon="6.8700397">
      <time>2020-10-30T18:40:16Z</time>
    </trkpt>
    <trkpt lat="50.9658701" lon="6.8701631">
      <time>2020-10-30T18:40:20Z</time>
    </trkpt>
    <trkpt lat="50.9658107" lon="6.8703268">
      <time>2020-10-30T18:40:26Z</time>
    </trkpt>
    <trkpt lat="50.9657545" lon="6.8705087">
      <time>2020-10-30T18:40:33Z</time>
    </trkpt>
    <trkpt lat="50.9656520" lon="6.8707020">
      <time>2020-10-30T18:40:40Z</time>
    </trkpt>
    <trkpt lat="50.9656405" lon="6.8707949">
      <time>2020-10-30T18:40:43Z</time>
    </trkpt>
    <trkpt lat="50.9656597" lon="6.8708635">
      <time>2020-10-30T18:40:45Z</time>
    </trkpt>
    <trkpt lat="50.9656804" lon="6.8711225">
      <time>2020-10-30T18:40:52Z</time>
    </trkpt>
    <trkpt lat="50.9656726" lon="6.8714169">
      <time>2020-10-30T18:41:01Z</time>
    </trkpt>
    <trkpt lat="50.9656712" lon="6.8714483">
      <time>2020-10-30T18:41:02Z</time>
    </trkpt>
    <trkpt lat="50.9656825" lon="6.8717444">
      <time>2020-10-30T18:41:09Z</time>
    </trkpt>
    <trkpt lat="50.9656779" lon="6.8717866">
      <time>2020-10-30T18:41:10Z</time>
    </trkpt>
    <trkpt lat="50.9656710" lon="6.8720946">
      <time>2020-10-30T18:41:17Z</time>
    </trkpt>
    <trkpt lat="50.9655919" lon="6.8723356">
      <time>2020-10-30T18:41:24Z</time>
    </trkpt>
    <trkpt lat="50.9655716" lon="6.8725666">
      <time>2020-10-30T18:41:30Z</time>
    </trkpt>
    <trkpt lat="50.9655017" lon="6.8727606">
      <time>2020-10-30T18:41:36Z</time>
    </trkpt>
    <trkpt lat="50.9653841" lon="6.8730273">
      <time>2020-10-30T18:41:44Z</time>
    </trkpt>
    <trkpt lat="50.9653711" lon="6.8730568">
      <time>2020-10-30T18:41:45Z</time>
    </trkpt>
    <trkpt lat="50.9652531" lon="6.8732674">
      <time>2020-10-30T18:41:52Z</time>
    </trkpt>
    <trkpt lat="50.9651117" lon="6.8734660">
      <time>2020-10-30T18:42:00Z</time>
    </trkpt>
    <trkpt lat="50.9650951" lon="6.8734930">
      <time>2020-10-30T18:42:01Z</time>
    </trkpt>
    <trkpt lat="50.9649754" lon="6.8737124">
      <time>2020-10-30T18:42:09Z</time>
    </trkpt>
    <trkpt lat="50.9649577" lon="6.8737411">
      <time>2020-10-30T18:42:10Z</time>
    </trkpt>
    <trkpt lat="50.9648446" lon="6.8739624">
      <time>2020-10-30T18:42:18Z</time>
    </trkpt>
    <trkpt lat="50.9647388" lon="6.8741974">
      <time>2020-10-30T18:42:26Z</time>
    </trkpt>
    <trkpt lat="50.9647021" lon="6.8742967">
      <time>2020-10-30T18:42:29Z</time>
    </trkpt>
    <trkpt lat="50.9646127" lon="6.8745787">
      <time>2020-10-30T18:42:38Z</time>
    </trkpt>
    <trkpt lat="50.9646010" lon="6.8746112">
      <time>2020-10-30T18:42:39Z</time>
    </trkpt>
    <trkpt lat="50.9645269" lon="6.8749015">
      <time>2020-10-30T18:42:47Z</time>
    </trkpt>
    <trkpt lat="50.9645183" lon="6.8749362">
      <time>2020-10-30T18:42:48Z</time>
    </trkpt>
    <trkpt lat="50.9644693" lon="6.8751742">
      <time>2020-10-30T18:42:55Z</time>
    </trkpt>
    <trkpt lat="50.9644004" lon="6.8754810">
      <time>2020-10-30T18:43:03Z</time>
    </trkpt>
    <trkpt lat="50.9643369" lon="6.8757696">
      <time>2020-10-30T18:43:11Z</time>
    </trkpt>
    <trkpt lat="50.9642846" lon="6.8760661">
      <time>2020-10-30T18:43:20Z</time>
    </trkpt>
    <trkpt lat="50.9642756" lon="6.8761010">
      <time>2020-10-30T18:43:21Z</time>
    </trkpt>
    <trkpt lat="50.9642455" lon="6.8762484">
      <time>2020-10-30T18:43:26Z</time>
    </trkpt>
    <trkpt lat="50.9641884" lon="6.8765608">
      <time>2020-10-30T18:43:34Z</time>
    </trkpt>
    <trkpt lat="50.9641820" lon="6.8765991">
      <time>2020-10-30T18:43:35Z</time>
    </trkpt>
    <trkpt lat="50.9641355" lon="6.8768911">
      <time>2020-10-30T18:43:43Z</time>
    </trkpt>
    <trkpt lat="50.9641186" lon="6.8769998">
      <time>2020-10-30T18:43:46Z</time>
    </trkpt>
    <trkpt lat="50.9640406" lon="6.8772774">
      <time>2020-10-30T18:43:54Z</time>
    </trkpt>
    <trkpt lat="50.9639573" lon="6.8775537">
      <time>2020-10-30T18:44:02Z</time>
    </trkpt>
    <trkpt lat="50.9639284" lon="6.8776063">
      <time>2020-10-30T18:44:04Z</time>
    </trkpt>
    <trkpt lat="50.9638260" lon="6.8778577">
      <time>2020-10-30T18:44:12Z</time>
    </trkpt>
    <trkpt lat="50.9638068" lon="6.8778846">
      <time>2020-10-30T18:44:13Z</time>
    </trkpt>
    <trkpt lat="50.9637853" lon="6.8778893">
      <time>2020-10-30T18:44:14Z</time>
    </trkpt>
    <trkpt lat="50.9637300" lon="6.8778466">
      <time>2020-10-30T18:44:17Z</time>
    </trkpt>
    <trkpt lat="50.9636144" lon="6.8777083">
      <time>2020-10-30T18:44:23Z</time>
    </trkpt>
    <trkpt lat="50.9634893" lon="6.8774712">
      <time>2020-10-30T18:44:30Z</time>
    </trkpt>
    <trkpt lat="50.9634488" lon="6.8773669">
      <time>2020-10-30T18:44:34Z</time>
    </trkpt>
    <trkpt lat="50.9634313" lon="6.8773399">
      <time>2020-10-30T18:44:35Z</time>
    </trkpt>
    <trkpt lat="50.9633823" lon="6.8772793">
      <time>2020-10-30T18:44:38Z</time>
    </trkpt>
    <trkpt lat="50.9633489" lon="6.8772347">
      <time>2020-10-30T18:44:40Z</time>
    </trkpt>
    <trkpt lat="50.9632183" lon="6.8770881">
      <time>2020-10-30T18:44:47Z</time>
    </trkpt>
    <trkpt lat="50.9631359" lon="6.8767983">
      <time>2020-10-30T18:44:55Z</time>
    </trkpt>
    <trkpt lat="50.9631621" lon="6.8765449">
      <time>2020-10-30T18:45:01Z</time>
    </trkpt>
    <trkpt lat="50.9632104" lon="6.8762536">
      <time>2020-10-30T18:45:09Z</time>
    </trkpt>
    <trkpt lat="50.9632141" lon="6.8762137">
      <time>2020-10-30T18:45:10Z</time>
    </trkpt>
    <trkpt lat="50.9632774" lon="6.8760058">
      <time>2020-10-30T18:45:16Z</time>
    </trkpt>
    <trkpt lat="50.9633441" lon="6.8758615">
      <time>2020-10-30T18:45:22Z</time>
    </trkpt>
    <trkpt lat="50.9633618" lon="6.8758673">
      <time>2020-10-30T18:45:23Z</time>
    </trkpt>
    <trkpt lat="50.9633771" lon="6.8758861">
      <time>2020-10-30T18:45:25Z</time>
    </trkpt>
    <trkpt lat="50.9634709" lon="6.8761306">
      <time>2020-10-30T18:47:38Z</time>
    </trkpt>
    <trkpt lat="50.9634543" lon="6.8761293">
      <time>2020-10-30T18:47:39Z</time>
    </trkpt>
    <trkpt lat="50.9634389" lon="6.8761147">
      <time>2020-10-30T18:47:40Z</time>
    </trkpt>
    <trkpt lat="50.9634013" lon="6.8760871">
      <time>2020-10-30T18:47:42Z</time>
    </trkpt>
    <trkpt lat="50.9633410" lon="6.8760738">
      <time>2020-10-30T18:47:45Z</time>
    </trkpt>
    <trkpt lat="50.9633188" lon="6.8760819">
      <time>2020-10-30T18:47:46Z</time>
    </trkpt>
    <trkpt lat="50.9632722" lon="6.8761242">
      <time>2020-10-30T18:47:49Z</time>
    </trkpt>
    <trkpt lat="50.9632599" lon="6.8761516">
      <time>2020-10-30T18:47:50Z</time>
    </trkpt>
    <trkpt lat="50.9632100" lon="6.8763387">
      <time>2020-10-30T18:47:57Z</time>
    </trkpt>
    <trkpt lat="50.9631913" lon="6.8765107">
      <time>2020-10-30T18:48:03Z</time>
    </trkpt>
    <trkpt lat="50.9631711" lon="6.8765957">
      <time>2020-10-30T18:48:07Z</time>
    </trkpt>
    <trkpt lat="50.9631660" lon="6.8766615">
      <time>2020-10-30T18:48:09Z</time>
    </trkpt>
    <trkpt lat="50.9631950" lon="6.8768153">
      <time>2020-10-30T18:48:15Z</time>
    </trkpt>
    <trkpt lat="50.9633042" lon="6.8769418">
      <time>2020-10-30T18:48:21Z</time>
    </trkpt>
    <trkpt lat="50.9633286" lon="6.8770441">
      <time>2020-10-30T18:48:25Z</time>
    </trkpt>
    <trkpt lat="50.9633239" lon="6.8770730">
      <time>2020-10-30T18:48:26Z</time>
    </trkpt>
    <trkpt lat="50.9633302" lon="6.8770905">
      <time>2020-10-30T18:48:27Z</time>
    </trkpt>
    <trkpt lat="50.9633830" lon="6.8771773">
      <time>2020-10-30T18:48:30Z</time>
    </trkpt>
    <trkpt lat="50.9634299" lon="6.8773355">
      <time>2020-10-30T18:48:35Z</time>
    </trkpt>
    <trkpt lat="50.9635433" lon="6.8775308">
      <time>2020-10-30T18:48:42Z</time>
    </trkpt>
    <trkpt lat="50.9636799" lon="6.8777029">
      <time>2020-10-30T18:48:49Z</time>
    </trkpt>
    <trkpt lat="50.9637526" lon="6.8778503">
      <time>2020-10-30T18:48:55Z</time>
    </trkpt>
    <trkpt lat="50.9637380" lon="6.8779254">
      <time>2020-10-30T18:48:58Z</time>
    </trkpt>
    <trkpt lat="50.9637187" lon="6.8779516">
      <time>2020-10-30T18:48:59Z</time>
    </trkpt>
    <trkpt lat="50.9636067" lon="6.8780680">
      <time>2020-10-30T18:49:05Z</time>
    </trkpt>
    <trkpt lat="50.9635268" lon="6.8781576">
      <time>2020-10-30T18:49:10Z</time>
    </trkpt>
    <trkpt lat="50.9634970" lon="6.8781836">
      <time>2020-10-30T18:49:12Z</time>
    </trkpt>
    <trkpt lat="50.9633685" lon="6.8782512">
      <time>2020-10-30T18:49:19Z</time>
    </trkpt>
    <trkpt lat="50.9633465" lon="6.8782709">
      <time>2020-10-30T18:49:20Z</time>
    </trkpt>
    <trkpt lat="50.9632096" lon="6.8783632">
      <time>2020-10-30T18:49:28Z</time>
    </trkpt>
    <trkpt lat="50.9631689" lon="6.8784026">
      <time>2020-10-30T18:49:31Z</time>
    </trkpt>
    <trkpt lat="50.9631033" lon="6.8784862">
      <time>2020-10-30T18:49:34Z</time>
    </trkpt>
    <trkpt lat="50.9629830" lon="6.8786937">
      <time>2020-10-30T18:49:42Z</time>
    </trkpt>
    <trkpt lat="50.9628883" lon="6.8789077">
      <time>2020-10-30T18:49:49Z</time>
    </trkpt>
    <trkpt lat="50.9628363" lon="6.8791693">
      <time>2020-10-30T18:49:57Z</time>
    </trkpt>
    <trkpt lat="50.9627904" lon="6.8793953">
      <time>2020-10-30T18:50:04Z</time>
    </trkpt>
    <trkpt lat="50.9627522" lon="6.8796412">
      <time>2020-10-30T18:50:11Z</time>
    </trkpt>
    <trkpt lat="50.9627096" lon="6.8799232">
      <time>2020-10-30T18:50:19Z</time>
    </trkpt>
    <trkpt lat="50.9627008" lon="6.8799592">
      <time>2020-10-30T18:50:20Z</time>
    </trkpt>
    <trkpt lat="50.9626896" lon="6.8799939">
      <time>2020-10-30T18:50:21Z</time>
    </trkpt>
    <trkpt lat="50.9626550" lon="6.8802358">
      <time>2020-10-30T18:50:28Z</time>
    </trkpt>
    <trkpt lat="50.9626104" lon="6.8804874">
      <time>2020-10-30T18:50:35Z</time>
    </trkpt>
    <trkpt lat="50.9625651" lon="6.8807328">
      <time>2020-10-30T18:50:42Z</time>
    </trkpt>
    <trkpt lat="50.9625539" lon="6.8808026">
      <time>2020-10-30T18:50:44Z</time>
    </trkpt>
    <trkpt lat="50.9625226" lon="6.8811009">
      <time>2020-10-30T18:50:52Z</time>
    </trkpt>
    <trkpt lat="50.9625097" lon="6.8811999">
      <time>2020-10-30T18:50:55Z</time>
    </trkpt>
    <trkpt lat="50.9624542" lon="6.8814810">
      <time>2020-10-30T18:51:03Z</time>
    </trkpt>
    <trkpt lat="50.9623952" lon="6.8817565">
      <time>2020-10-30T18:51:11Z</time>
    </trkpt>
    <trkpt lat="50.9623900" lon="6.8817893">
      <time>2020-10-30T18:51:12Z</time>
    </trkpt>
    <trkpt lat="50.9623389" lon="6.8820857">
      <time>2020-10-30T18:51:21Z</time>
    </trkpt>
    <trkpt lat="50.9622986" lon="6.8823411">
      <time>2020-10-30T18:51:28Z</time>
    </trkpt>
    <trkpt lat="50.9622568" lon="6.8826215">
      <time>2020-10-30T18:51:36Z</time>
    </trkpt>
    <trkpt lat="50.9621998" lon="6.8829168">
      <time>2020-10-30T18:51:44Z</time>
    </trkpt>
    <trkpt lat="50.9621633" lon="6.8831548">
      <time>2020-10-30T18:51:51Z</time>
    </trkpt>
    <trkpt lat="50.9621453" lon="6.8833479">
      <time>2020-10-30T18:51:56Z</time>
    </trkpt>
    <trkpt lat="50.9621268" lon="6.8834355">
      <time>2020-10-30T18:51:58Z</time>
    </trkpt>
    <trkpt lat="50.9620757" lon="6.8837163">
      <time>2020-10-30T18:52:07Z</time>
    </trkpt>
    <trkpt lat="50.9620710" lon="6.8839179">
      <time>2020-10-30T18:52:13Z</time>
    </trkpt>
    <trkpt lat="50.9620147" lon="6.8842286">
      <time>2020-10-30T18:52:21Z</time>
    </trkpt>
    <trkpt lat="50.9620050" lon="6.8842639">
      <time>2020-10-30T18:52:22Z</time>
    </trkpt>
    <trkpt lat="50.9619951" lon="6.8844697">
      <time>2020-10-30T18:52:28Z</time>
    </trkpt>
    <trkpt lat="50.9619961" lon="6.8845644">
      <time>2020-10-30T18:52:31Z</time>
    </trkpt>
    <trkpt lat="50.9620077" lon="6.8846301">
      <time>2020-10-30T18:52:33Z</time>
    </trkpt>
    <trkpt lat="50.9620086" lon="6.8846634">
      <time>2020-10-30T18:52:34Z</time>
    </trkpt>
    <trkpt lat="50.9620251" lon="6.8847816">
      <time>2020-10-30T18:52:38Z</time>
    </trkpt>
    <trkpt lat="50.9621102" lon="6.8849543">
      <time>2020-10-30T18:52:45Z</time>
    </trkpt>
    <trkpt lat="50.9622478" lon="6.8850668">
      <time>2020-10-30T18:52:51Z</time>
    </trkpt>
    <trkpt lat="50.9624030" lon="6.8851393">
      <time>2020-10-30T18:52:58Z</time>
    </trkpt>
    <trkpt lat="50.9624895" lon="6.8852113">
      <time>2020-10-30T18:53:03Z</time>
    </trkpt>
    <trkpt lat="50.9625762" lon="6.8852337">
      <time>2020-10-30T18:53:08Z</time>
    </trkpt>
    <trkpt lat="50.9627140" lon="6.8852654">
      <time>2020-10-30T18:53:14Z</time>
    </trkpt>
    <trkpt lat="50.9628080" lon="6.8853080">
      <time>2020-10-30T18:53:18Z</time>
    </trkpt>
    <trkpt lat="50.9629891" lon="6.8854083">
      <time>2020-10-30T18:53:26Z</time>
    </trkpt>
    <trkpt lat="50.9631510" lon="6.8855294">
      <time>2020-10-30T18:53:33Z</time>
    </trkpt>
    <trkpt lat="50.9633314" lon="6.8856235">
      <time>2020-10-30T18:53:39Z</time>
    </trkpt>
    <trkpt lat="50.9634063" lon="6.8856774">
      <time>2020-10-30T18:53:42Z</time>
    </trkpt>
    <trkpt lat="50.9635042" lon="6.8857447">
      <time>2020-10-30T18:53:47Z</time>
    </trkpt>
    <trkpt lat="50.9635167" lon="6.8857461">
      <time>2020-10-30T18:53:48Z</time>
    </trkpt>
    <trkpt lat="50.9635987" lon="6.8856980">
      <time>2020-10-30T18:53:52Z</time>
    </trkpt>
    <trkpt lat="50.9637976" lon="6.8856320">
      <time>2020-10-30T18:54:00Z</time>
    </trkpt>
    <trkpt lat="50.9639436" lon="6.8855636">
      <time>2020-10-30T18:54:06Z</time>
    </trkpt>
    <trkpt lat="50.9641455" lon="6.8853775">
      <time>2020-10-30T19:02:30Z</time>
    </trkpt>
    <trkpt lat="50.9641455" lon="6.8854187">
      <time>2020-10-30T19:02:31Z</time>
    </trkpt>
    <trkpt lat="50.9639357" lon="6.8856526">
      <time>2020-10-30T19:02:45Z</time>
    </trkpt>
    <trkpt lat="50.9638975" lon="6.8856854">
      <time>2020-10-30T19:02:47Z</time>
    </trkpt>
    <trkpt lat="50.9638322" lon="6.8857152">
      <time>2020-10-30T19:02:50Z</time>
    </trkpt>
    <trkpt lat="50.9637166" lon="6.8857449">
      <time>2020-10-30T19:02:55Z</time>
    </trkpt>
    <trkpt lat="50.9636736" lon="6.8857499">
      <time>2020-10-30T19:02:57Z</time>
    </trkpt>
    <trkpt lat="50.9635993" lon="6.8857853">
      <time>2020-10-30T19:03:01Z</time>
    </trkpt>
    <trkpt lat="50.9635400" lon="6.8858381">
      <time>2020-10-30T19:03:04Z</time>
    </trkpt>
    <trkpt lat="50.9635215" lon="6.8858552">
      <time>2020-10-30T19:03:05Z</time>
    </trkpt>
    <trkpt lat="50.9633941" lon="6.8858697">
      <time>2020-10-30T19:03:10Z</time>
    </trkpt>
    <trkpt lat="50.9633688" lon="6.8858594">
      <time>2020-10-30T19:03:11Z</time>
    </trkpt>
    <trkpt lat="50.9632032" lon="6.8857319">
      <time>2020-10-30T19:03:19Z</time>
    </trkpt>
    <trkpt lat="50.9630489" lon="6.8855898">
      <time>2020-10-30T19:03:26Z</time>
    </trkpt>
    <trkpt lat="50.9628797" lon="6.8854534">
      <time>2020-10-30T19:03:34Z</time>
    </trkpt>
    <trkpt lat="50.9627268" lon="6.8853852">
      <time>2020-10-30T19:03:41Z</time>
    </trkpt>
    <trkpt lat="50.9627028" lon="6.8853785">
      <time>2020-10-30T19:03:42Z</time>
    </trkpt>
    <trkpt lat="50.9625572" lon="6.8853423">
      <time>2020-10-30T19:03:48Z</time>
    </trkpt>
    <trkpt lat="50.9625123" lon="6.8853413">
      <time>2020-10-30T19:03:50Z</time>
    </trkpt>
    <trkpt lat="50.9623491" lon="6.8852820">
      <time>2020-10-30T19:03:57Z</time>
    </trkpt>
    <trkpt lat="50.9622448" lon="6.8852019">
      <time>2020-10-30T19:04:01Z</time>
    </trkpt>
    <trkpt lat="50.9622129" lon="6.8851686">
      <time>2020-10-30T19:04:03Z</time>
    </trkpt>
    <trkpt lat="50.9621145" lon="6.8851000">
      <time>2020-10-30T19:04:08Z</time>
    </trkpt>
    <trkpt lat="50.9620824" lon="6.8850686">
      <time>2020-10-30T19:04:10Z</time>
    </trkpt>
    <trkpt lat="50.9620244" lon="6.8850175">
      <time>2020-10-30T19:04:13Z</time>
    </trkpt>
    <trkpt lat="50.9619989" lon="6.8849717">
      <time>2020-10-30T19:04:15Z</time>
    </trkpt>
    <trkpt lat="50.9619915" lon="6.8849492">
      <time>2020-10-30T19:04:16Z</time>
    </trkpt>
    <trkpt lat="50.9619647" lon="6.8847187">
      <time>2020-10-30T19:04:23Z</time>
    </trkpt>
    <trkpt lat="50.9619611" lon="6.8844297">
      <time>2020-10-30T19:04:31Z</time>
    </trkpt>
    <trkpt lat="50.9620053" lon="6.8842342">
      <time>2020-10-30T19:04:37Z</time>
    </trkpt>
    <trkpt lat="50.9620244" lon="6.8840275">
      <time>2020-10-30T19:04:43Z</time>
    </trkpt>
    <trkpt lat="50.9620382" lon="6.8838449">
      <time>2020-10-30T19:04:48Z</time>
    </trkpt>
    <trkpt lat="50.9620464" lon="6.8838090">
      <time>2020-10-30T19:04:49Z</time>
    </trkpt>
    <trkpt lat="50.9620797" lon="6.8835185">
      <time>2020-10-30T19:04:57Z</time>
    </trkpt>
    <trkpt lat="50.9620866" lon="6.8834853">
      <time>2020-10-30T19:04:58Z</time>
    </trkpt>
    <trkpt lat="50.9621114" lon="6.8832884">
      <time>2020-10-30T19:05:04Z</time>
    </trkpt>
    <trkpt lat="50.9621373" lon="6.8831030">
      <time>2020-10-30T19:05:10Z</time>
    </trkpt>
    <trkpt lat="50.9621764" lon="6.8829229">
      <time>2020-10-30T19:05:16Z</time>
    </trkpt>
    <trkpt lat="50.9622166" lon="6.8826380">
      <time>2020-10-30T19:05:24Z</time>
    </trkpt>
    <trkpt lat="50.9622541" lon="6.8823928">
      <time>2020-10-30T19:05:31Z</time>
    </trkpt>
    <trkpt lat="50.9623070" lon="6.8821461">
      <time>2020-10-30T19:05:38Z</time>
    </trkpt>
    <trkpt lat="50.9623499" lon="6.8819124">
      <time>2020-10-30T19:05:45Z</time>
    </trkpt>
    <trkpt lat="50.9623818" lon="6.8816618">
      <time>2020-10-30T19:05:52Z</time>
    </trkpt>
    <trkpt lat="50.9624242" lon="6.8813751">
      <time>2020-10-30T19:06:00Z</time>
    </trkpt>
    <trkpt lat="50.9624295" lon="6.8813408">
      <time>2020-10-30T19:06:01Z</time>
    </trkpt>
    <trkpt lat="50.9624862" lon="6.8810484">
      <time>2020-10-30T19:06:09Z</time>
    </trkpt>
    <trkpt lat="50.9624922" lon="6.8810195">
      <time>2020-10-30T19:06:10Z</time>
    </trkpt>
    <trkpt lat="50.9625369" lon="6.8807300">
      <time>2020-10-30T19:06:18Z</time>
    </trkpt>
    <trkpt lat="50.9625449" lon="6.8806999">
      <time>2020-10-30T19:06:19Z</time>
    </trkpt>
    <trkpt lat="50.9625485" lon="6.8806736">
      <time>2020-10-30T19:06:20Z</time>
    </trkpt>
    <trkpt lat="50.9625912" lon="6.8803959">
      <time>2020-10-30T19:06:28Z</time>
    </trkpt>
    <trkpt lat="50.9626055" lon="6.8803352">
      <time>2020-10-30T19:06:30Z</time>
    </trkpt>
    <trkpt lat="50.9626526" lon="6.8800472">
      <time>2020-10-30T19:06:39Z</time>
    </trkpt>
    <trkpt lat="50.9626651" lon="6.8799834">
      <time>2020-10-30T19:06:41Z</time>
    </trkpt>
    <trkpt lat="50.9627105" lon="6.8796994">
      <time>2020-10-30T19:06:50Z</time>
    </trkpt>
    <trkpt lat="50.9627501" lon="6.8794058">
      <time>2020-10-30T19:06:59Z</time>
    </trkpt>
    <trkpt lat="50.9627814" lon="6.8791247">
      <time>2020-10-30T19:07:07Z</time>
    </trkpt>
    <trkpt lat="50.9627890" lon="6.8790929">
      <time>2020-10-30T19:07:08Z</time>
    </trkpt>
    <trkpt lat="50.9628647" lon="6.8788772">
      <time>2020-10-30T19:07:16Z</time>
    </trkpt>
    <trkpt lat="50.9629355" lon="6.8787424">
      <time>2020-10-30T19:07:22Z</time>
    </trkpt>
    <trkpt lat="50.9630661" lon="6.8785833">
      <time>2020-10-30T19:07:30Z</time>
    </trkpt>
    <trkpt lat="50.9631556" lon="6.8784515">
      <time>2020-10-30T19:07:36Z</time>
    </trkpt>
    <trkpt lat="50.9631808" lon="6.8784306">
      <time>2020-10-30T19:07:38Z</time>
    </trkpt>
    <trkpt lat="50.9632770" lon="6.8783323">
      <time>2020-10-30T19:07:44Z</time>
    </trkpt>
    <trkpt lat="50.9634539" lon="6.8782605">
      <time>2020-10-30T19:07:52Z</time>
    </trkpt>
    <trkpt lat="50.9635866" lon="6.8781851">
      <time>2020-10-30T19:07:59Z</time>
    </trkpt>
    <trkpt lat="50.9635952" lon="6.8781690">
      <time>2020-10-30T19:08:00Z</time>
    </trkpt>
    <trkpt lat="50.9636057" lon="6.8781349">
      <time>2020-10-30T19:08:02Z</time>
    </trkpt>
    <trkpt lat="50.9636107" lon="6.8780934">
      <time>2020-10-30T19:08:04Z</time>
    </trkpt>
    <trkpt lat="50.9636130" lon="6.8780760">
      <time>2020-10-30T19:08:05Z</time>
    </trkpt>
    <trkpt lat="50.9636308" lon="6.8780092">
      <time>2020-10-30T19:08:08Z</time>
    </trkpt>
    <trkpt lat="50.9637324" lon="6.8778422">
      <time>2020-10-30T19:08:14Z</time>
    </trkpt>
    <trkpt lat="50.9638586" lon="6.8776136">
      <time>2020-10-30T19:08:21Z</time>
    </trkpt>
    <trkpt lat="50.9638694" lon="6.8775801">
      <time>2020-10-30T19:08:22Z</time>
    </trkpt>
    <trkpt lat="50.9638892" lon="6.8775124">
      <time>2020-10-30T19:08:24Z</time>
    </trkpt>
    <trkpt lat="50.9639284" lon="6.8774041">
      <time>2020-10-30T19:08:27Z</time>
    </trkpt>
    <trkpt lat="50.9639409" lon="6.8773718">
      <time>2020-10-30T19:08:28Z</time>
    </trkpt>
    <trkpt lat="50.9639807" lon="6.8772500">
      <time>2020-10-30T19:08:32Z</time>
    </trkpt>
    <trkpt lat="50.9640487" lon="6.8769749">
      <time>2020-10-30T19:08:39Z</time>
    </trkpt>
    <trkpt lat="50.9641049" lon="6.8767241">
      <time>2020-10-30T19:08:46Z</time>
    </trkpt>
    <trkpt lat="50.9641354" lon="6.8765063">
      <time>2020-10-30T19:08:52Z</time>
    </trkpt>
    <trkpt lat="50.9641308" lon="6.8764689">
      <time>2020-10-30T19:08:53Z</time>
    </trkpt>
    <trkpt lat="50.9640672" lon="6.8762693">
      <time>2020-10-30T19:08:59Z</time>
    </trkpt>
    <trkpt lat="50.9640523" lon="6.8762073">
      <time>2020-10-30T19:09:01Z</time>
    </trkpt>
    <trkpt lat="50.9640052" lon="6.8761733">
      <time>2020-10-30T19:09:04Z</time>
    </trkpt>
    <trkpt lat="50.9638187" lon="6.8761205">
      <time>2020-10-30T19:09:11Z</time>
    </trkpt>
    <trkpt lat="50.9637870" lon="6.8760925">
      <time>2020-10-30T19:09:12Z</time>
    </trkpt>
    <trkpt lat="50.9636117" lon="6.8760107">
      <time>2020-10-30T19:09:19Z</time>
    </trkpt>
    <trkpt lat="50.9634209" lon="6.8760310">
      <time>2020-10-30T19:09:26Z</time>
    </trkpt>
    <trkpt lat="50.9633552" lon="6.8760247">
      <time>2020-10-30T19:09:29Z</time>
    </trkpt>
  </trkseg></trk>
</gpx>
