<?xml version="1.0" encoding="UTF-8"?>
<gpx version="1.1" creator="Diary FIT converter" xmlns="http://www.topografix.com/GPX/1/1">
  <trk><name>Cycling</name><trkseg>
    <trkpt lat="50.9518752" lon="6.9916237">
      <ele>36.6</ele>
      <time>2019-01-19T09:06:50Z</time>
    </trkpt>
    <trkpt lat="50.9518831" lon="6.9916282">
      <ele>35.4</ele>
      <time>2019-01-19T09:06:51Z</time>
    </trkpt>
    <trkpt lat="50.9518521" lon="6.9915745">
      <ele>37.4</ele>
      <time>2019-01-19T09:06:56Z</time>
    </trkpt>
    <trkpt lat="50.9519683" lon="6.9907369">
      <ele>31.8</ele>
      <time>2019-01-19T09:07:08Z</time>
    </trkpt>
    <trkpt lat="50.9519639" lon="6.9905641">
      <ele>31.6</ele>
      <time>2019-01-19T09:07:10Z</time>
    </trkpt>
    <trkpt lat="50.9519082" lon="6.9904419">
      <ele>32.6</ele>
      <time>2019-01-19T09:07:12Z</time>
    </trkpt>
    <trkpt lat="50.9518256" lon="6.9903083">
      <ele>35.8</ele>
      <time>2019-01-19T09:07:14Z</time>
    </trkpt>
    <trkpt lat="50.9517023" lon="6.9901333">
      <ele>40.0</ele>
      <time>2019-01-19T09:07:17Z</time>
    </trkpt>
    <trkpt lat="50.9516631" lon="6.9900881">
      <ele>41.2</ele>
      <time>2019-01-19T09:07:18Z</time>
    </trkpt>
    <trkpt lat="50.9516325" lon="6.9900364">
      <ele>42.4</ele>
      <time>2019-01-19T09:07:19Z</time>
    </trkpt>
    <trkpt lat="50.9516091" lon="6.9899806">
      <ele>43.4</ele>
      <time>2019-01-19T09:07:20Z</time>
    </trkpt>
    <trkpt lat="50.9515991" lon="6.9899220">
      <ele>43.8</ele>
      <time>2019-01-19T09:07:21Z</time>
    </trkpt>
    <trkpt lat="50.9516096" lon="6.9898631">
      <ele>44.6</ele>
      <time>2019-01-19T09:07:22Z</time>
    </trkpt>
    <trkpt lat="50.9516925" lon="6.9896435">
      <ele>44.8</ele>
      <time>2019-01-19T09:07:26Z</time>
    </trkpt>
    <trkpt lat="50.9517586" lon="6.9895141">
      <ele>44.8</ele>
      <time>2019-01-19T09:07:29Z</time>
    </trkpt>
    <trkpt lat="50.9517889" lon="6.9894278">
      <ele>45.0</ele>
      <time>2019-01-19T09:07:31Z</time>
    </trkpt>
    <trkpt lat="50.9518275" lon="6.9893945">
      <ele>45.2</ele>
      <time>2019-01-19T09:07:33Z</time>
    </trkpt>
    <trkpt lat="50.9518510" lon="6.9894020">
      <ele>45.4</ele>
      <time>2019-01-19T09:07:34Z</time>
    </trkpt>
    <trkpt lat="50.9518794" lon="6.9894157">
      <ele>45.6</ele>
      <time>2019-01-19T09:07:35Z</time>
    </trkpt>
    <trkpt lat="50.9519598" lon="6.9894945">
      <ele>45.8</ele>
      <time>2019-01-19T09:07:38Z</time>
    </trkpt>
    <trkpt lat="50.9522862" lon="6.9898051">
      <ele>46.0</ele>
      <time>2019-01-19T09:07:47Z</time>
    </trkpt>
    <trkpt lat="50.9527624" lon="6.9902467">
      <ele>43.6</ele>
      <time>2019-01-19T09:07:57Z</time>
    </trkpt>
    <trkpt lat="50.9529366" lon="6.9903766">
      <ele>44.0</ele>
      <time>2019-01-19T09:08:00Z</time>
    </trkpt>
    <trkpt lat="50.9532865" lon="6.9906637">
      <ele>41.4</ele>
      <time>2019-01-19T09:08:06Z</time>
    </trkpt>
    <trkpt lat="50.9536660" lon="6.9909674">
      <ele>41.0</ele>
      <time>2019-01-19T09:08:13Z</time>
    </trkpt>
    <trkpt lat="50.9539235" lon="6.9911388">
      <ele>41.8</ele>
      <time>2019-01-19T09:08:18Z</time>
    </trkpt>
    <trkpt lat="50.9543127" lon="6.9914575">
      <ele>44.6</ele>
      <time>2019-01-19T09:08:26Z</time>
    </trkpt>
    <trkpt lat="50.9547924" lon="6.9918846">
      <ele>46.0</ele>
      <time>2019-01-19T09:08:36Z</time>
    </trkpt>
    <trkpt lat="50.9550736" lon="6.9921545">
      <ele>46.0</ele>
      <time>2019-01-19T09:08:43Z</time>
    </trkpt>
    <trkpt lat="50.9552229" lon="6.9923067">
      <ele>46.8</ele>
      <time>2019-01-19T09:08:48Z</time>
    </trkpt>
    <trkpt lat="50.9553024" lon="6.9923600">
      <ele>46.6</ele>
      <time>2019-01-19T09:08:50Z</time>
    </trkpt>
    <trkpt lat="50.9553447" lon="6.9923958">
      <ele>46.6</ele>
      <time>2019-01-19T09:08:51Z</time>
    </trkpt>
    <trkpt lat="50.9553885" lon="6.9924337">
      <ele>46.4</ele>
      <time>2019-01-19T09:08:52Z</time>
    </trkpt>
    <trkpt lat="50.9555301" lon="6.9925603">
      <ele>46.0</ele>
      <time>2019-01-19T09:08:55Z</time>
    </trkpt>
    <trkpt lat="50.9555811" lon="6.9926076">
      <ele>46.0</ele>
      <time>2019-01-19T09:08:56Z</time>
    </trkpt>
    <trkpt lat="50.9558325" lon="6.9928321">
      <ele>45.8</ele>
      <time>2019-01-19T09:09:01Z</time>
    </trkpt>
    <trkpt lat="50.9558871" lon="6.9928773">
      <ele>45.6</ele>
      <time>2019-01-19T09:09:02Z</time>
    </trkpt>
    <trkpt lat="50.9559408" lon="6.9929207">
      <ele>45.6</ele>
      <time>2019-01-19T09:09:03Z</time>
    </trkpt>
    <trkpt lat="50.9560498" lon="6.9930059">
      <ele>45.6</ele>
      <time>2019-01-19T09:09:05Z</time>
    </trkpt>
    <trkpt lat="50.9561049" lon="6.9930486">
      <ele>45.6</ele>
      <time>2019-01-19T09:09:06Z</time>
    </trkpt>
    <trkpt lat="50.9561605" lon="6.9930955">
      <ele>45.8</ele>
      <time>2019-01-19T09:09:07Z</time>
    </trkpt>
    <trkpt lat="50.9562166" lon="6.9931434">
      <ele>45.6</ele>
      <time>2019-01-19T09:09:08Z</time>
    </trkpt>
    <trkpt lat="50.9563854" lon="6.9932875">
      <ele>45.6</ele>
      <time>2019-01-19T09:09:11Z</time>
    </trkpt>
    <trkpt lat="50.9564945" lon="6.9933817">
      <ele>45.4</ele>
      <time>2019-01-19T09:09:13Z</time>
    </trkpt>
    <trkpt lat="50.9565497" lon="6.9934303">
      <ele>45.2</ele>
      <time>2019-01-19T09:09:14Z</time>
    </trkpt>
    <trkpt lat="50.9566580" lon="6.9935252">
      <ele>45.2</ele>
      <time>2019-01-19T09:09:16Z</time>
    </trkpt>
    <trkpt lat="50.9567107" lon="6.9935723">
      <ele>45.0</ele>
      <time>2019-01-19T09:09:17Z</time>
    </trkpt>
    <trkpt lat="50.9568157" lon="6.9936646">
      <ele>44.6</ele>
      <time>2019-01-19T09:09:19Z</time>
    </trkpt>
    <trkpt lat="50.9568662" lon="6.9937154">
      <ele>44.2</ele>
      <time>2019-01-19T09:09:20Z</time>
    </trkpt>
    <trkpt lat="50.9569181" lon="6.9937644">
      <ele>44.0</ele>
      <time>2019-01-19T09:09:21Z</time>
    </trkpt>
    <trkpt lat="50.9570731" lon="6.9939012">
      <ele>43.6</ele>
      <time>2019-01-19T09:09:24Z</time>
    </trkpt>
    <trkpt lat="50.9571704" lon="6.9940090">
      <ele>43.4</ele>
      <time>2019-01-19T09:09:26Z</time>
    </trkpt>
    <trkpt lat="50.9572308" lon="6.9941780">
      <ele>44.2</ele>
      <time>2019-01-19T09:09:28Z</time>
    </trkpt>
    <trkpt lat="50.9572253" lon="6.9944594">
      <ele>44.2</ele>
      <time>2019-01-19T09:09:30Z</time>
    </trkpt>
    <trkpt lat="50.9571062" lon="6.9951081">
      <ele>43.8</ele>
      <time>2019-01-19T09:09:38Z</time>
    </trkpt>
    <trkpt lat="50.9571116" lon="6.9952900">
      <ele>43.6</ele>
      <time>2019-01-19T09:09:40Z</time>
    </trkpt>
    <trkpt lat="50.9571514" lon="6.9954662">
      <ele>43.8</ele>
      <time>2019-01-19T09:09:42Z</time>
    </trkpt>
    <trkpt lat="50.9573201" lon="6.9959099">
      <ele>44.2</ele>
      <time>2019-01-19T09:09:47Z</time>
    </trkpt>
    <trkpt lat="50.9576281" lon="6.9966616">
      <ele>45.0</ele>
      <time>2019-01-19T09:10:00Z</time>
    </trkpt>
    <trkpt lat="50.9579370" lon="6.9973744">
      <ele>44.8</ele>
      <time>2019-01-19T09:10:09Z</time>
    </trkpt>
    <trkpt lat="50.9582776" lon="6.9981290">
      <ele>43.0</ele>
      <time>2019-01-19T09:10:18Z</time>
    </trkpt>
    <trkpt lat="50.9585382" lon="6.9987856">
      <ele>42.0</ele>
      <time>2019-01-19T09:10:26Z</time>
    </trkpt>
    <trkpt lat="50.9587101" lon="6.9992466">
      <ele>40.6</ele>
      <time>2019-01-19T09:10:32Z</time>
    </trkpt>
    <trkpt lat="50.9587335" lon="6.9993035">
      <ele>40.2</ele>
      <time>2019-01-19T09:10:33Z</time>
    </trkpt>
    <trkpt lat="50.9587830" lon="6.9994324">
      <ele>39.6</ele>
      <time>2019-01-19T09:10:36Z</time>
    </trkpt>
    <trkpt lat="50.9588650" lon="6.9996496">
      <ele>38.4</ele>
      <time>2019-01-19T09:10:40Z</time>
    </trkpt>
    <trkpt lat="50.9591854" lon="7.0004154">
      <ele>35.6</ele>
      <time>2019-01-19T09:10:51Z</time>
    </trkpt>
    <trkpt lat="50.9595135" lon="7.0011900">
      <ele>35.6</ele>
      <time>2019-01-19T09:11:02Z</time>
    </trkpt>
    <trkpt lat="50.9597596" lon="7.0017483">
      <ele>33.2</ele>
      <time>2019-01-19T09:11:11Z</time>
    </trkpt>
    <trkpt lat="50.9598427" lon="7.0019869">
      <ele>33.6</ele>
      <time>2019-01-19T09:11:16Z</time>
    </trkpt>
    <trkpt lat="50.9598790" lon="7.0021007">
      <ele>34.0</ele>
      <time>2019-01-19T09:11:19Z</time>
    </trkpt>
    <trkpt lat="50.9598996" lon="7.0021834">
      <ele>34.6</ele>
      <time>2019-01-19T09:11:22Z</time>
    </trkpt>
    <trkpt lat="50.9599942" lon="7.0022275">
      <ele>35.0</ele>
      <time>2019-01-19T09:11:25Z</time>
    </trkpt>
    <trkpt lat="50.9600702" lon="7.0023101">
      <ele>35.2</ele>
      <time>2019-01-19T09:11:27Z</time>
    </trkpt>
    <trkpt lat="50.9601758" lon="7.0024622">
      <ele>35.6</ele>
      <time>2019-01-19T09:11:30Z</time>
    </trkpt>
    <trkpt lat="50.9602968" lon="7.0025862">
      <ele>36.0</ele>
      <time>2019-01-19T09:11:33Z</time>
    </trkpt>
    <trkpt lat="50.9604143" lon="7.0027142">
      <ele>36.4</ele>
      <time>2019-01-19T09:11:36Z</time>
    </trkpt>
    <trkpt lat="50.9606310" lon="7.0029695">
      <ele>37.0</ele>
      <time>2019-01-19T09:11:42Z</time>
    </trkpt>
    <trkpt lat="50.9608614" lon="7.0031323">
      <ele>36.8</ele>
      <time>2019-01-19T09:11:47Z</time>
    </trkpt>
    <trkpt lat="50.9611716" lon="7.0033632">
      <ele>38.4</ele>
      <time>2019-01-19T09:11:54Z</time>
    </trkpt>
    <trkpt lat="50.9617049" lon="7.0035778">
      <ele>41.8</ele>
      <time>2019-01-19T09:12:07Z</time>
    </trkpt>
    <trkpt lat="50.9617413" lon="7.0036001">
      <ele>41.8</ele>
      <time>2019-01-19T09:12:08Z</time>
    </trkpt>
    <trkpt lat="50.9620728" lon="7.0038568">
      <ele>42.6</ele>
      <time>2019-01-19T09:12:18Z</time>
    </trkpt>
    <trkpt lat="50.9621434" lon="7.0039361">
      <ele>42.0</ele>
      <time>2019-01-19T09:12:20Z</time>
    </trkpt>
    <trkpt lat="50.9622159" lon="7.0040379">
      <ele>42.0</ele>
      <time>2019-01-19T09:12:22Z</time>
    </trkpt>
    <trkpt lat="50.9622559" lon="7.0040890">
      <ele>42.0</ele>
      <time>2019-01-19T09:12:23Z</time>
    </trkpt>
    <trkpt lat="50.9622983" lon="7.0041351">
      <ele>42.0</ele>
      <time>2019-01-19T09:12:24Z</time>
    </trkpt>
    <trkpt lat="50.9623397" lon="7.0041817">
      <ele>41.8</ele>
      <time>2019-01-19T09:12:25Z</time>
    </trkpt>
    <trkpt lat="50.9623843" lon="7.0042231">
      <ele>41.8</ele>
      <time>2019-01-19T09:12:26Z</time>
    </trkpt>
    <trkpt lat="50.9627087" lon="7.0045227">
      <ele>44.4</ele>
      <time>2019-01-19T09:12:34Z</time>
    </trkpt>
    <trkpt lat="50.9629480" lon="7.0047618">
      <ele>46.6</ele>
      <time>2019-01-19T09:12:42Z</time>
    </trkpt>
    <trkpt lat="50.9629901" lon="7.0048719">
      <ele>49.0</ele>
      <time>2019-01-19T09:12:46Z</time>
    </trkpt>
    <trkpt lat="50.9629855" lon="7.0048981">
      <ele>50.0</ele>
      <time>2019-01-19T09:12:47Z</time>
    </trkpt>
    <trkpt lat="50.9629777" lon="7.0049229">
      <ele>50.4</ele>
      <time>2019-01-19T09:12:48Z</time>
    </trkpt>
    <trkpt lat="50.9629700" lon="7.0049670">
      <ele>52.6</ele>
      <time>2019-01-19T09:12:51Z</time>
    </trkpt>
    <trkpt lat="50.9629626" lon="7.0050097">
      <ele>53.2</ele>
      <time>2019-01-19T09:12:53Z</time>
    </trkpt>
    <trkpt lat="50.9629627" lon="7.0050269">
      <ele>53.8</ele>
      <time>2019-01-19T09:12:55Z</time>
    </trkpt>
    <trkpt lat="50.9629581" lon="7.0050442">
      <ele>54.4</ele>
      <time>2019-01-19T09:12:58Z</time>
    </trkpt>
    <trkpt lat="50.9629587" lon="7.0050794">
      <ele>56.4</ele>
      <time>2019-01-19T09:13:20Z</time>
    </trkpt>
    <trkpt lat="50.9630401" lon="7.0051497">
      <ele>61.6</ele>
      <time>2019-01-19T09:13:41Z</time>
    </trkpt>
    <trkpt lat="50.9630798" lon="7.0052426">
      <ele>57.4</ele>
      <time>2019-01-19T09:18:26Z</time>
    </trkpt>
    <trkpt lat="50.9630365" lon="7.0051542">
      <ele>54.4</ele>
      <time>2019-01-19T09:18:27Z</time>
    </trkpt>
    <trkpt lat="50.9629802" lon="7.0052373">
      <ele>48.2</ele>
      <time>2019-01-19T09:18:30Z</time>
    </trkpt>
    <trkpt lat="50.9629713" lon="7.0052445">
      <ele>47.6</ele>
      <time>2019-01-19T09:18:31Z</time>
    </trkpt>
    <trkpt lat="50.9629481" lon="7.0052565">
      <ele>48.0</ele>
      <time>2019-01-19T09:18:33Z</time>
    </trkpt>
    <trkpt lat="50.9629173" lon="7.0052565">
      <ele>50.0</ele>
      <time>2019-01-19T09:18:39Z</time>
    </trkpt>
    <trkpt lat="50.9629153" lon="7.0052590">
      <ele>51.0</ele>
      <time>2019-01-19T09:18:41Z</time>
    </trkpt>
    <trkpt lat="50.9629140" lon="7.0052608">
      <ele>51.4</ele>
      <time>2019-01-19T09:18:42Z</time>
    </trkpt>
    <trkpt lat="50.9629101" lon="7.0052733">
      <ele>52.8</ele>
      <time>2019-01-19T09:18:44Z</time>
    </trkpt>
    <trkpt lat="50.9628992" lon="7.0052790">
      <ele>54.4</ele>
      <time>2019-01-19T09:18:49Z</time>
    </trkpt>
    <trkpt lat="50.9628934" lon="7.0052744">
      <ele>55.0</ele>
      <time>2019-01-19T09:18:51Z</time>
    </trkpt>
    <trkpt lat="50.9628926" lon="7.0052744">
      <ele>55.2</ele>
      <time>2019-01-19T09:18:52Z</time>
    </trkpt>
    <trkpt lat="50.9628914" lon="7.0052751">
      <ele>55.2</ele>
      <time>2019-01-19T09:18:53Z</time>
    </trkpt>
    <trkpt lat="50.9628909" lon="7.0052731">
      <ele>56.4</ele>
      <time>2019-01-19T09:19:03Z</time>
    </trkpt>
    <trkpt lat="50.9628465" lon="7.0052326">
      <ele>56.4</ele>
      <time>2019-01-19T09:19:10Z</time>
    </trkpt>
    <trkpt lat="50.9628085" lon="7.0051975">
      <ele>56.6</ele>
      <time>2019-01-19T09:19:12Z</time>
    </trkpt>
    <trkpt lat="50.9627546" lon="7.0051414">
      <ele>56.6</ele>
      <time>2019-01-19T09:19:14Z</time>
    </trkpt>
    <trkpt lat="50.9624007" lon="7.0048733">
      <ele>54.6</ele>
      <time>2019-01-19T09:19:26Z</time>
    </trkpt>
    <trkpt lat="50.9623693" lon="7.0048522">
      <ele>54.4</ele>
      <time>2019-01-19T09:19:27Z</time>
    </trkpt>
    <trkpt lat="50.9622977" lon="7.0048011">
      <ele>54.4</ele>
      <time>2019-01-19T09:19:29Z</time>
    </trkpt>
    <trkpt lat="50.9622580" lon="7.0047618">
      <ele>54.8</ele>
      <time>2019-01-19T09:19:30Z</time>
    </trkpt>
    <trkpt lat="50.9621849" lon="7.0046613">
      <ele>56.4</ele>
      <time>2019-01-19T09:19:32Z</time>
    </trkpt>
    <trkpt lat="50.9621486" lon="7.0046165">
      <ele>56.6</ele>
      <time>2019-01-19T09:19:33Z</time>
    </trkpt>
    <trkpt lat="50.9621128" lon="7.0045674">
      <ele>56.8</ele>
      <time>2019-01-19T09:19:34Z</time>
    </trkpt>
    <trkpt lat="50.9620775" lon="7.0045141">
      <ele>56.8</ele>
      <time>2019-01-19T09:19:35Z</time>
    </trkpt>
    <trkpt lat="50.9619481" lon="7.0043009">
      <ele>57.8</ele>
      <time>2019-01-19T09:19:39Z</time>
    </trkpt>
    <trkpt lat="50.9618998" lon="7.0042042">
      <ele>59.4</ele>
      <time>2019-01-19T09:19:41Z</time>
    </trkpt>
    <trkpt lat="50.9618889" lon="7.0041468">
      <ele>59.0</ele>
      <time>2019-01-19T09:19:42Z</time>
    </trkpt>
    <trkpt lat="50.9618762" lon="7.0040528">
      <ele>57.2</ele>
      <time>2019-01-19T09:19:44Z</time>
    </trkpt>
    <trkpt lat="50.9618720" lon="7.0039568">
      <ele>55.8</ele>
      <time>2019-01-19T09:19:48Z</time>
    </trkpt>
    <trkpt lat="50.9618790" lon="7.0039325">
      <ele>54.6</ele>
      <time>2019-01-19T09:19:50Z</time>
    </trkpt>
    <trkpt lat="50.9618824" lon="7.0039226">
      <ele>54.2</ele>
      <time>2019-01-19T09:19:51Z</time>
    </trkpt>
    <trkpt lat="50.9618840" lon="7.0039202">
      <ele>54.0</ele>
      <time>2019-01-19T09:19:54Z</time>
    </trkpt>
    <trkpt lat="50.9618842" lon="7.0039169">
      <ele>54.0</ele>
      <time>2019-01-19T09:20:08Z</time>
    </trkpt>
    <trkpt lat="50.9618844" lon="7.0039161">
      <ele>54.0</ele>
      <time>2019-01-19T09:20:12Z</time>
    </trkpt>
    <trkpt lat="50.9618803" lon="7.0039063">
      <ele>54.2</ele>
      <time>2019-01-19T09:20:15Z</time>
    </trkpt>
    <trkpt lat="50.9618730" lon="7.0038931">
      <ele>54.2</ele>
      <time>2019-01-19T09:20:16Z</time>
    </trkpt>
    <trkpt lat="50.9617285" lon="7.0037507">
      <ele>54.2</ele>
      <time>2019-01-19T09:20:22Z</time>
    </trkpt>
    <trkpt lat="50.9616229" lon="7.0036616">
      <ele>54.0</ele>
      <time>2019-01-19T09:20:25Z</time>
    </trkpt>
    <trkpt lat="50.9615384" lon="7.0036528">
      <ele>54.0</ele>
      <time>2019-01-19T09:20:27Z</time>
    </trkpt>
    <trkpt lat="50.9613734" lon="7.0035654">
      <ele>53.4</ele>
      <time>2019-01-19T09:20:31Z</time>
    </trkpt>
    <trkpt lat="50.9612863" lon="7.0035120">
      <ele>52.8</ele>
      <time>2019-01-19T09:20:33Z</time>
    </trkpt>
    <trkpt lat="50.9611927" lon="7.0034648">
      <ele>52.6</ele>
      <time>2019-01-19T09:20:35Z</time>
    </trkpt>
    <trkpt lat="50.9610535" lon="7.0033711">
      <ele>52.0</ele>
      <time>2019-01-19T09:20:38Z</time>
    </trkpt>
    <trkpt lat="50.9608500" lon="7.0032415">
      <ele>51.0</ele>
      <time>2019-01-19T09:20:42Z</time>
    </trkpt>
    <trkpt lat="50.9604167" lon="7.0029256">
      <ele>49.2</ele>
      <time>2019-01-19T09:20:50Z</time>
    </trkpt>
    <trkpt lat="50.9603039" lon="7.0028288">
      <ele>48.8</ele>
      <time>2019-01-19T09:20:52Z</time>
    </trkpt>
    <trkpt lat="50.9602061" lon="7.0027037">
      <ele>48.6</ele>
      <time>2019-01-19T09:20:54Z</time>
    </trkpt>
    <trkpt lat="50.9598312" lon="7.0019965">
      <ele>48.0</ele>
      <time>2019-01-19T09:21:04Z</time>
    </trkpt>
    <trkpt lat="50.9594934" lon="7.0012692">
      <ele>48.0</ele>
      <time>2019-01-19T09:21:14Z</time>
    </trkpt>
    <trkpt lat="50.9592307" lon="7.0005113">
      <ele>49.8</ele>
      <time>2019-01-19T09:21:24Z</time>
    </trkpt>
    <trkpt lat="50.9589144" lon="6.9999184">
      <ele>60.6</ele>
      <time>2019-01-19T09:21:42Z</time>
    </trkpt>
    <trkpt lat="50.9589142" lon="6.9999128">
      <ele>62.0</ele>
      <time>2019-01-19T09:21:49Z</time>
    </trkpt>
    <trkpt lat="50.9589202" lon="6.9999006">
      <ele>62.8</ele>
      <time>2019-01-19T09:21:57Z</time>
    </trkpt>
    <trkpt lat="50.9588951" lon="6.9998483">
      <ele>64.0</ele>
      <time>2019-01-19T09:22:07Z</time>
    </trkpt>
    <trkpt lat="50.9587453" lon="6.9994750">
      <ele>63.6</ele>
      <time>2019-01-19T09:22:15Z</time>
    </trkpt>
    <trkpt lat="50.9587010" lon="6.9993629">
      <ele>63.2</ele>
      <time>2019-01-19T09:22:17Z</time>
    </trkpt>
    <trkpt lat="50.9585847" lon="6.9990015">
      <ele>62.6</ele>
      <time>2019-01-19T09:22:23Z</time>
    </trkpt>
    <trkpt lat="50.9583273" lon="6.9982478">
      <ele>58.4</ele>
      <time>2019-01-19T09:22:34Z</time>
    </trkpt>
    <trkpt lat="50.9582468" lon="6.9980497">
      <ele>56.4</ele>
      <time>2019-01-19T09:22:37Z</time>
    </trkpt>
    <trkpt lat="50.9580816" lon="6.9976709">
      <ele>52.0</ele>
      <time>2019-01-19T09:22:43Z</time>
    </trkpt>
    <trkpt lat="50.9580548" lon="6.9976071">
      <ele>51.6</ele>
      <time>2019-01-19T09:22:44Z</time>
    </trkpt>
    <trkpt lat="50.9579980" lon="6.9974837">
      <ele>50.4</ele>
      <time>2019-01-19T09:22:46Z</time>
    </trkpt>
    <trkpt lat="50.9579390" lon="6.9973600">
      <ele>49.4</ele>
      <time>2019-01-19T09:22:48Z</time>
    </trkpt>
    <trkpt lat="50.9577723" lon="6.9970914">
      <ele>50.4</ele>
      <time>2019-01-19T09:22:53Z</time>
    </trkpt>
    <trkpt lat="50.9576948" lon="6.9970054">
      <ele>52.2</ele>
      <time>2019-01-19T09:22:55Z</time>
    </trkpt>
    <trkpt lat="50.9575875" lon="6.9966666">
      <ele>49.6</ele>
      <time>2019-01-19T09:23:01Z</time>
    </trkpt>
    <trkpt lat="50.9575827" lon="6.9966259">
      <ele>48.8</ele>
      <time>2019-01-19T09:23:02Z</time>
    </trkpt>
    <trkpt lat="50.9575916" lon="6.9964690">
      <ele>48.0</ele>
      <time>2019-01-19T09:23:22Z</time>
    </trkpt>
    <trkpt lat="50.9574732" lon="6.9961550">
      <ele>47.8</ele>
      <time>2019-01-19T09:23:28Z</time>
    </trkpt>
    <trkpt lat="50.9572995" lon="6.9957979">
      <ele>47.8</ele>
      <time>2019-01-19T09:23:34Z</time>
    </trkpt>
    <trkpt lat="50.9571203" lon="6.9954111">
      <ele>46.8</ele>
      <time>2019-01-19T09:23:39Z</time>
    </trkpt>
    <trkpt lat="50.9571118" lon="6.9953201">
      <ele>46.4</ele>
      <time>2019-01-19T09:23:41Z</time>
    </trkpt>
    <trkpt lat="50.9571185" lon="6.9951420">
      <ele>46.6</ele>
      <time>2019-01-19T09:23:43Z</time>
    </trkpt>
    <trkpt lat="50.9571694" lon="6.9949632">
      <ele>46.4</ele>
      <time>2019-01-19T09:23:45Z</time>
    </trkpt>
    <trkpt lat="50.9573627" lon="6.9943555">
      <ele>49.4</ele>
      <time>2019-01-19T09:23:56Z</time>
    </trkpt>
    <trkpt lat="50.9573723" lon="6.9943374">
      <ele>51.6</ele>
      <time>2019-01-19T09:24:00Z</time>
    </trkpt>
    <trkpt lat="50.9573908" lon="6.9942848">
      <ele>51.4</ele>
      <time>2019-01-19T09:24:02Z</time>
    </trkpt>
    <trkpt lat="50.9574251" lon="6.9941408">
      <ele>52.4</ele>
      <time>2019-01-19T09:24:05Z</time>
    </trkpt>
    <trkpt lat="50.9574187" lon="6.9940879">
      <ele>51.8</ele>
      <time>2019-01-19T09:24:06Z</time>
    </trkpt>
    <trkpt lat="50.9572918" lon="6.9939307">
      <ele>49.4</ele>
      <time>2019-01-19T09:24:09Z</time>
    </trkpt>
    <trkpt lat="50.9570454" lon="6.9937125">
      <ele>44.2</ele>
      <time>2019-01-19T09:24:16Z</time>
    </trkpt>
    <trkpt lat="50.9565398" lon="6.9932849">
      <ele>43.0</ele>
      <time>2019-01-19T09:24:27Z</time>
    </trkpt>
    <trkpt lat="50.9563017" lon="6.9931097">
      <ele>43.4</ele>
      <time>2019-01-19T09:24:32Z</time>
    </trkpt>
    <trkpt lat="50.9560832" lon="6.9929116">
      <ele>42.8</ele>
      <time>2019-01-19T09:24:37Z</time>
    </trkpt>
    <trkpt lat="50.9560392" lon="6.9928711">
      <ele>42.6</ele>
      <time>2019-01-19T09:24:38Z</time>
    </trkpt>
    <trkpt lat="50.9556295" lon="6.9925415">
      <ele>42.6</ele>
      <time>2019-01-19T09:24:47Z</time>
    </trkpt>
    <trkpt lat="50.9554513" lon="6.9923871">
      <ele>42.0</ele>
      <time>2019-01-19T09:24:51Z</time>
    </trkpt>
    <trkpt lat="50.9554083" lon="6.9923473">
      <ele>41.6</ele>
      <time>2019-01-19T09:24:52Z</time>
    </trkpt>
    <trkpt lat="50.9552262" lon="6.9922049">
      <ele>39.8</ele>
      <time>2019-01-19T09:24:56Z</time>
    </trkpt>
    <trkpt lat="50.9550880" lon="6.9920991">
      <ele>37.8</ele>
      <time>2019-01-19T09:24:59Z</time>
    </trkpt>
    <trkpt lat="50.9550431" lon="6.9920655">
      <ele>37.4</ele>
      <time>2019-01-19T09:25:00Z</time>
    </trkpt>
    <trkpt lat="50.9549964" lon="6.9920299">
      <ele>37.0</ele>
      <time>2019-01-19T09:25:01Z</time>
    </trkpt>
    <trkpt lat="50.9549508" lon="6.9919934">
      <ele>36.6</ele>
      <time>2019-01-19T09:25:02Z</time>
    </trkpt>
    <trkpt lat="50.9548608" lon="6.9919207">
      <ele>36.8</ele>
      <time>2019-01-19T09:25:04Z</time>
    </trkpt>
    <trkpt lat="50.9548146" lon="6.9918851">
      <ele>36.6</ele>
      <time>2019-01-19T09:25:05Z</time>
    </trkpt>
    <trkpt lat="50.9547209" lon="6.9918139">
      <ele>36.6</ele>
      <time>2019-01-19T09:25:07Z</time>
    </trkpt>
    <trkpt lat="50.9545333" lon="6.9916658">
      <ele>37.2</ele>
      <time>2019-01-19T09:25:11Z</time>
    </trkpt>
    <trkpt lat="50.9543954" lon="6.9915526">
      <ele>37.4</ele>
      <time>2019-01-19T09:25:14Z</time>
    </trkpt>
    <trkpt lat="50.9543486" lon="6.9915151">
      <ele>37.6</ele>
      <time>2019-01-19T09:25:15Z</time>
    </trkpt>
    <trkpt lat="50.9541023" lon="6.9913436">
      <ele>38.4</ele>
      <time>2019-01-19T09:25:20Z</time>
    </trkpt>
    <trkpt lat="50.9538786" lon="6.9911540">
      <ele>37.8</ele>
      <time>2019-01-19T09:25:25Z</time>
    </trkpt>
    <trkpt lat="50.9535276" lon="6.9908535">
      <ele>41.0</ele>
      <time>2019-01-19T09:25:33Z</time>
    </trkpt>
    <trkpt lat="50.9531774" lon="6.9905519">
      <ele>40.2</ele>
      <time>2019-01-19T09:25:41Z</time>
    </trkpt>
    <trkpt lat="50.9530452" lon="6.9904427">
      <ele>39.8</ele>
      <time>2019-01-19T09:25:44Z</time>
    </trkpt>
    <trkpt lat="50.9528707" lon="6.9902984">
      <ele>40.4</ele>
      <time>2019-01-19T09:25:48Z</time>
    </trkpt>
    <trkpt lat="50.9528291" lon="6.9902607">
      <ele>40.4</ele>
      <time>2019-01-19T09:25:49Z</time>
    </trkpt>
    <trkpt lat="50.9524870" lon="6.9899327">
      <ele>41.0</ele>
      <time>2019-01-19T09:25:57Z</time>
    </trkpt>
    <trkpt lat="50.9524028" lon="6.9898559">
      <ele>41.4</ele>
      <time>2019-01-19T09:25:59Z</time>
    </trkpt>
    <trkpt lat="50.9522796" lon="6.9897369">
      <ele>42.2</ele>
      <time>2019-01-19T09:26:02Z</time>
    </trkpt>
    <trkpt lat="50.9519138" lon="6.9894330">
      <ele>42.4</ele>
      <time>2019-01-19T09:26:10Z</time>
    </trkpt>
    <trkpt lat="50.9518387" lon="6.9893890">
      <ele>42.4</ele>
      <time>2019-01-19T09:26:13Z</time>
    </trkpt>
    <trkpt lat="50.9517440" lon="6.9894308">
      <ele>43.2</ele>
      <time>2019-01-19T09:26:16Z</time>
    </trkpt>
    <trkpt lat="50.9516630" lon="6.9901836">
      <ele>51.4</ele>
      <time>2019-01-19T09:26:30Z</time>
    </trkpt>
    <trkpt lat="50.9519901" lon="6.9908237">
      <ele>51.4</ele>
      <time>2019-01-19T09:26:44Z</time>
    </trkpt>
    <trkpt lat="50.9518828" lon="6.9916978">
      <ele>51.0</ele>
      <time>2019-01-19T09:26:57Z</time>
    </trkpt>
    <trkpt lat="50.9519775" lon="6.9918084">
      <ele>50.2</ele>
      <time>2019-01-19T09:27:00Z</time>
    </trkpt>
    <trkpt lat="50.9521389" lon="6.9919447">
      <ele>49.4</ele>
      <time>2019-01-19T09:27:04Z</time>
    </trkpt>
    <trkpt lat="50.9524482" lon="6.9921846">
      <ele>51.6</ele>
      <time>2019-01-19T09:27:13Z</time>
    </trkpt>
    <trkpt lat="50.9525214" lon="6.9923447">
      <ele>49.0</ele>
      <time>2019-01-19T09:27:17Z</time>
    </trkpt>
    <trkpt lat="50.9525273" lon="6.9925244">
      <ele>48.2</ele>
      <time>2019-01-19T09:27:21Z</time>
    </trkpt>
    <trkpt lat="50.9525115" lon="6.9926394">
      <ele>47.6</ele>
      <time>2019-01-19T09:27:24Z</time>
    </trkpt>
    <trkpt lat="50.9524865" lon="6.9927141">
      <ele>49.0</ele>
      <time>2019-01-19T09:27:27Z</time>
    </trkpt>
    <trkpt lat="50.9522528" lon="6.9926403">
      <ele>46.8</ele>
      <time>2019-01-19T09:27:36Z</time>
    </trkpt>
    <trkpt lat="50.9521591" lon="6.9926051">
      <ele>46.2</ele>
      <time>2019-01-19T09:27:41Z</time>
    </trkpt>
    <trkpt lat="50.9520821" lon="6.9926830">
      <ele>48.6</ele>
      <time>2019-01-19T09:27:45Z</time>
    </trkpt>
    <trkpt lat="50.9520588" lon="6.9927235">
      <ele>49.8</ele>
      <time>2019-01-19T09:27:49Z</time>
    </trkpt>
    <trkpt lat="50.9520271" lon="6.9927750">
      <ele>51.4</ele>
      <time>2019-01-19T09:27:53Z</time>
    </trkpt>
  </trkseg></trk>
</gpx>
