<?xml version="1.0" encoding="UTF-8"?>
<gpx version="1.1" creator="Diary FIT converter" xmlns="http://www.topografix.com/GPX/1/1">
  <trk><name>Cycling</name><trkseg>
    <trkpt lat="50.9502819" lon="6.9877351">
      <time>2024-07-28T14:11:04Z</time>
    </trkpt>
    <trkpt lat="50.9500073" lon="6.9877743">
      <time>2024-07-28T14:11:06Z</time>
    </trkpt>
    <trkpt lat="50.9500194" lon="6.9876507">
      <time>2024-07-28T14:11:07Z</time>
    </trkpt>
    <trkpt lat="50.9497687" lon="6.9874541">
      <time>2024-07-28T14:11:12Z</time>
    </trkpt>
    <trkpt lat="50.9495403" lon="6.9872664">
      <time>2024-07-28T14:11:16Z</time>
    </trkpt>
    <trkpt lat="50.9492613" lon="6.9870878">
      <time>2024-07-28T14:11:20Z</time>
    </trkpt>
    <trkpt lat="50.9492077" lon="6.9870443">
      <time>2024-07-28T14:11:21Z</time>
    </trkpt>
    <trkpt lat="50.9490023" lon="6.9868490">
      <time>2024-07-28T14:11:25Z</time>
    </trkpt>
    <trkpt lat="50.9488558" lon="6.9866876">
      <time>2024-07-28T14:11:28Z</time>
    </trkpt>
    <trkpt lat="50.9487463" lon="6.9866025">
      <time>2024-07-28T14:11:30Z</time>
    </trkpt>
    <trkpt lat="50.9485748" lon="6.9864726">
      <time>2024-07-28T14:11:33Z</time>
    </trkpt>
    <trkpt lat="50.9483488" lon="6.9862966">
      <time>2024-07-28T14:11:37Z</time>
    </trkpt>
    <trkpt lat="50.9482524" lon="6.9861865">
      <time>2024-07-28T14:11:39Z</time>
    </trkpt>
    <trkpt lat="50.9481544" lon="6.9860803">
      <time>2024-07-28T14:11:41Z</time>
    </trkpt>
    <trkpt lat="50.9480482" lon="6.9860036">
      <time>2024-07-28T14:11:43Z</time>
    </trkpt>
    <trkpt lat="50.9480017" lon="6.9859474">
      <time>2024-07-28T14:11:44Z</time>
    </trkpt>
    <trkpt lat="50.9478627" lon="6.9858104">
      <time>2024-07-28T14:11:47Z</time>
    </trkpt>
    <trkpt lat="50.9478282" lon="6.9857493">
      <time>2024-07-28T14:11:48Z</time>
    </trkpt>
    <trkpt lat="50.9477876" lon="6.9856850">
      <time>2024-07-28T14:11:49Z</time>
    </trkpt>
    <trkpt lat="50.9477342" lon="6.9856239">
      <time>2024-07-28T14:11:50Z</time>
    </trkpt>
    <trkpt lat="50.9476313" lon="6.9855420">
      <time>2024-07-28T14:11:52Z</time>
    </trkpt>
    <trkpt lat="50.9472265" lon="6.9853613">
      <time>2024-07-28T14:11:59Z</time>
    </trkpt>
    <trkpt lat="50.9471728" lon="6.9852985">
      <time>2024-07-28T14:12:00Z</time>
    </trkpt>
    <trkpt lat="50.9470318" lon="6.9850819">
      <time>2024-07-28T14:12:03Z</time>
    </trkpt>
    <trkpt lat="50.9468590" lon="6.9849277">
      <time>2024-07-28T14:12:06Z</time>
    </trkpt>
    <trkpt lat="50.9468088" lon="6.9848774">
      <time>2024-07-28T14:12:07Z</time>
    </trkpt>
    <trkpt lat="50.9467573" lon="6.9848286">
      <time>2024-07-28T14:12:08Z</time>
    </trkpt>
    <trkpt lat="50.9463908" lon="6.9844910">
      <time>2024-07-28T14:12:15Z</time>
    </trkpt>
    <trkpt lat="50.9462714" lon="6.9844092">
      <time>2024-07-28T14:12:17Z</time>
    </trkpt>
    <trkpt lat="50.9461544" lon="6.9843358">
      <time>2024-07-28T14:12:19Z</time>
    </trkpt>
    <trkpt lat="50.9460942" lon="6.9842882">
      <time>2024-07-28T14:12:20Z</time>
    </trkpt>
    <trkpt lat="50.9460403" lon="6.9842383">
      <time>2024-07-28T14:12:21Z</time>
    </trkpt>
    <trkpt lat="50.9458605" lon="6.9840993">
      <time>2024-07-28T14:12:24Z</time>
    </trkpt>
    <trkpt lat="50.9458071" lon="6.9840543">
      <time>2024-07-28T14:12:25Z</time>
    </trkpt>
    <trkpt lat="50.9457528" lon="6.9840134">
      <time>2024-07-28T14:12:26Z</time>
    </trkpt>
    <trkpt lat="50.9455443" lon="6.9838382">
      <time>2024-07-28T14:12:30Z</time>
    </trkpt>
    <trkpt lat="50.9452019" lon="6.9835682">
      <time>2024-07-28T14:12:36Z</time>
    </trkpt>
    <trkpt lat="50.9449934" lon="6.9833426">
      <time>2024-07-28T14:12:40Z</time>
    </trkpt>
    <trkpt lat="50.9449334" lon="6.9832951">
      <time>2024-07-28T14:12:41Z</time>
    </trkpt>
    <trkpt lat="50.9448045" lon="6.9831803">
      <time>2024-07-28T14:12:43Z</time>
    </trkpt>
    <trkpt lat="50.9446912" lon="6.9830559">
      <time>2024-07-28T14:12:45Z</time>
    </trkpt>
    <trkpt lat="50.9445155" lon="6.9827746">
      <time>2024-07-28T14:12:49Z</time>
    </trkpt>
    <trkpt lat="50.9442110" lon="6.9823945">
      <time>2024-07-28T14:12:55Z</time>
    </trkpt>
    <trkpt lat="50.9439185" lon="6.9821652">
      <time>2024-07-28T14:13:00Z</time>
    </trkpt>
    <trkpt lat="50.9435776" lon="6.9818424">
      <time>2024-07-28T14:13:06Z</time>
    </trkpt>
    <trkpt lat="50.9435174" lon="6.9817932">
      <time>2024-07-28T14:13:07Z</time>
    </trkpt>
    <trkpt lat="50.9434042" lon="6.9816975">
      <time>2024-07-28T14:13:09Z</time>
    </trkpt>
    <trkpt lat="50.9432345" lon="6.9815347">
      <time>2024-07-28T14:13:12Z</time>
    </trkpt>
    <trkpt lat="50.9428828" lon="6.9811798">
      <time>2024-07-28T14:13:18Z</time>
    </trkpt>
    <trkpt lat="50.9426896" lon="6.9810558">
      <time>2024-07-28T14:13:21Z</time>
    </trkpt>
    <trkpt lat="50.9425593" lon="6.9809743">
      <time>2024-07-28T14:13:23Z</time>
    </trkpt>
    <trkpt lat="50.9424233" lon="6.9808990">
      <time>2024-07-28T14:13:25Z</time>
    </trkpt>
    <trkpt lat="50.9422918" lon="6.9808261">
      <time>2024-07-28T14:13:27Z</time>
    </trkpt>
    <trkpt lat="50.9421764" lon="6.9807360">
      <time>2024-07-28T14:13:29Z</time>
    </trkpt>
    <trkpt lat="50.9419712" lon="6.9805321">
      <time>2024-07-28T14:13:33Z</time>
    </trkpt>
    <trkpt lat="50.9418646" lon="6.9804400">
      <time>2024-07-28T14:13:35Z</time>
    </trkpt>
    <trkpt lat="50.9417676" lon="6.9803957">
      <time>2024-07-28T14:13:37Z</time>
    </trkpt>
    <trkpt lat="50.9416809" lon="6.9803857">
      <time>2024-07-28T14:13:39Z</time>
    </trkpt>
    <trkpt lat="50.9416054" lon="6.9803165">
      <time>2024-07-28T14:13:41Z</time>
    </trkpt>
    <trkpt lat="50.9414709" lon="6.9802159">
      <time>2024-07-28T14:13:44Z</time>
    </trkpt>
    <trkpt lat="50.9413076" lon="6.9801578">
      <time>2024-07-28T14:13:47Z</time>
    </trkpt>
    <trkpt lat="50.9412545" lon="6.9801229">
      <time>2024-07-28T14:13:48Z</time>
    </trkpt>
    <trkpt lat="50.9411416" lon="6.9800419">
      <time>2024-07-28T14:13:50Z</time>
    </trkpt>
    <trkpt lat="50.9409718" lon="6.9799569">
      <time>2024-07-28T14:13:53Z</time>
    </trkpt>
    <trkpt lat="50.9409289" lon="6.9799141">
      <time>2024-07-28T14:13:54Z</time>
    </trkpt>
    <trkpt lat="50.9408324" lon="6.9798640">
      <time>2024-07-28T14:13:56Z</time>
    </trkpt>
    <trkpt lat="50.9407099" lon="6.9797248">
      <time>2024-07-28T14:13:59Z</time>
    </trkpt>
    <trkpt lat="50.9406711" lon="6.9796408">
      <time>2024-07-28T14:14:00Z</time>
    </trkpt>
    <trkpt lat="50.9405973" lon="6.9795596">
      <time>2024-07-28T14:14:02Z</time>
    </trkpt>
    <trkpt lat="50.9405360" lon="6.9795825">
      <time>2024-07-28T14:14:03Z</time>
    </trkpt>
    <trkpt lat="50.9405082" lon="6.9799724">
      <time>2024-07-28T14:14:04Z</time>
    </trkpt>
    <trkpt lat="50.9404561" lon="6.9801903">
      <time>2024-07-28T14:14:05Z</time>
    </trkpt>
    <trkpt lat="50.9403487" lon="6.9802183">
      <time>2024-07-28T14:14:06Z</time>
    </trkpt>
    <trkpt lat="50.9402819" lon="6.9797487">
      <time>2024-07-28T14:14:07Z</time>
    </trkpt>
    <trkpt lat="50.9401908" lon="6.9794990">
      <time>2024-07-28T14:14:09Z</time>
    </trkpt>
    <trkpt lat="50.9400383" lon="6.9794576">
      <time>2024-07-28T14:14:10Z</time>
    </trkpt>
    <trkpt lat="50.9399063" lon="6.9793261">
      <time>2024-07-28T14:14:12Z</time>
    </trkpt>
    <trkpt lat="50.9398631" lon="6.9792615">
      <time>2024-07-28T14:14:13Z</time>
    </trkpt>
    <trkpt lat="50.9398448" lon="6.9791650">
      <time>2024-07-28T14:14:14Z</time>
    </trkpt>
    <trkpt lat="50.9398571" lon="6.9789407">
      <time>2024-07-28T14:14:16Z</time>
    </trkpt>
    <trkpt lat="50.9397761" lon="6.9786373">
      <time>2024-07-28T14:14:19Z</time>
    </trkpt>
    <trkpt lat="50.9397601" lon="6.9785268">
      <time>2024-07-28T14:14:20Z</time>
    </trkpt>
    <trkpt lat="50.9397602" lon="6.9784255">
      <time>2024-07-28T14:14:21Z</time>
    </trkpt>
    <trkpt lat="50.9397963" lon="6.9781003">
      <time>2024-07-28T14:14:24Z</time>
    </trkpt>
    <trkpt lat="50.9398048" lon="6.9779890">
      <time>2024-07-28T14:14:25Z</time>
    </trkpt>
    <trkpt lat="50.9398363" lon="6.9774253">
      <time>2024-07-28T14:14:30Z</time>
    </trkpt>
    <trkpt lat="50.9398473" lon="6.9773163">
      <time>2024-07-28T14:14:31Z</time>
    </trkpt>
    <trkpt lat="50.9398797" lon="6.9770970">
      <time>2024-07-28T14:14:33Z</time>
    </trkpt>
    <trkpt lat="50.9398825" lon="6.9770001">
      <time>2024-07-28T14:14:34Z</time>
    </trkpt>
    <trkpt lat="50.9398752" lon="6.9767999">
      <time>2024-07-28T14:14:36Z</time>
    </trkpt>
    <trkpt lat="50.9398747" lon="6.9765969">
      <time>2024-07-28T14:14:38Z</time>
    </trkpt>
    <trkpt lat="50.9399351" lon="6.9759911">
      <time>2024-07-28T14:14:44Z</time>
    </trkpt>
    <trkpt lat="50.9399559" lon="6.9752526">
      <time>2024-07-28T14:14:52Z</time>
    </trkpt>
    <trkpt lat="50.9399341" lon="6.9748013">
      <time>2024-07-28T14:14:57Z</time>
    </trkpt>
    <trkpt lat="50.9399308" lon="6.9747174">
      <time>2024-07-28T14:14:58Z</time>
    </trkpt>
    <trkpt lat="50.9399533" lon="6.9741927">
      <time>2024-07-28T14:15:04Z</time>
    </trkpt>
    <trkpt lat="50.9399457" lon="6.9738422">
      <time>2024-07-28T14:15:08Z</time>
    </trkpt>
    <trkpt lat="50.9399511" lon="6.9736355">
      <time>2024-07-28T14:15:11Z</time>
    </trkpt>
    <trkpt lat="50.9399684" lon="6.9735737">
      <time>2024-07-28T14:15:14Z</time>
    </trkpt>
    <trkpt lat="50.9399872" lon="6.9735812">
      <time>2024-07-28T14:15:17Z</time>
    </trkpt>
    <trkpt lat="50.9399972" lon="6.9735724">
      <time>2024-07-28T14:15:18Z</time>
    </trkpt>
    <trkpt lat="50.9400041" lon="6.9735613">
      <time>2024-07-28T14:15:19Z</time>
    </trkpt>
    <trkpt lat="50.9400043" lon="6.9735558">
      <time>2024-07-28T14:15:21Z</time>
    </trkpt>
    <trkpt lat="50.9400019" lon="6.9735565">
      <time>2024-07-28T14:15:22Z</time>
    </trkpt>
    <trkpt lat="50.9400019" lon="6.9735565">
      <time>2024-07-28T14:15:25Z</time>
    </trkpt>
    <trkpt lat="50.9400364" lon="6.9734284">
      <time>2024-07-28T14:15:59Z</time>
    </trkpt>
    <trkpt lat="50.9400403" lon="6.9733626">
      <time>2024-07-28T14:16:00Z</time>
    </trkpt>
    <trkpt lat="50.9400638" lon="6.9732262">
      <time>2024-07-28T14:16:02Z</time>
    </trkpt>
    <trkpt lat="50.9401221" lon="6.9731057">
      <time>2024-07-28T14:16:04Z</time>
    </trkpt>
    <trkpt lat="50.9402033" lon="6.9729892">
      <time>2024-07-28T14:16:06Z</time>
    </trkpt>
    <trkpt lat="50.9402705" lon="6.9728226">
      <time>2024-07-28T14:16:08Z</time>
    </trkpt>
    <trkpt lat="50.9403684" lon="6.9725746">
      <time>2024-07-28T14:16:11Z</time>
    </trkpt>
    <trkpt lat="50.9404383" lon="6.9724071">
      <time>2024-07-28T14:16:13Z</time>
    </trkpt>
    <trkpt lat="50.9405108" lon="6.9722522">
      <time>2024-07-28T14:16:15Z</time>
    </trkpt>
    <trkpt lat="50.9405363" lon="6.9721315">
      <time>2024-07-28T14:16:17Z</time>
    </trkpt>
    <trkpt lat="50.9405580" lon="6.9720671">
      <time>2024-07-28T14:16:18Z</time>
    </trkpt>
    <trkpt lat="50.9405772" lon="6.9719690">
      <time>2024-07-28T14:16:20Z</time>
    </trkpt>
    <trkpt lat="50.9405899" lon="6.9718400">
      <time>2024-07-28T14:16:22Z</time>
    </trkpt>
    <trkpt lat="50.9406377" lon="6.9717487">
      <time>2024-07-28T14:16:23Z</time>
    </trkpt>
    <trkpt lat="50.9408890" lon="6.9712374">
      <time>2024-07-28T14:16:28Z</time>
    </trkpt>
    <trkpt lat="50.9409305" lon="6.9711257">
      <time>2024-07-28T14:16:29Z</time>
    </trkpt>
    <trkpt lat="50.9410086" lon="6.9708817">
      <time>2024-07-28T14:16:31Z</time>
    </trkpt>
    <trkpt lat="50.9410662" lon="6.9707721">
      <time>2024-07-28T14:16:32Z</time>
    </trkpt>
    <trkpt lat="50.9411127" lon="6.9706726">
      <time>2024-07-28T14:16:33Z</time>
    </trkpt>
    <trkpt lat="50.9411402" lon="6.9704430">
      <time>2024-07-28T14:16:35Z</time>
    </trkpt>
    <trkpt lat="50.9411924" lon="6.9698711">
      <time>2024-07-28T14:16:41Z</time>
    </trkpt>
    <trkpt lat="50.9412089" lon="6.9697842">
      <time>2024-07-28T14:16:42Z</time>
    </trkpt>
    <trkpt lat="50.9412328" lon="6.9696948">
      <time>2024-07-28T14:16:43Z</time>
    </trkpt>
    <trkpt lat="50.9412899" lon="6.9694621">
      <time>2024-07-28T14:16:46Z</time>
    </trkpt>
    <trkpt lat="50.9412992" lon="6.9693580">
      <time>2024-07-28T14:16:47Z</time>
    </trkpt>
    <trkpt lat="50.9413044" lon="6.9688052">
      <time>2024-07-28T14:16:54Z</time>
    </trkpt>
    <trkpt lat="50.9413023" lon="6.9685482">
      <time>2024-07-28T14:16:59Z</time>
    </trkpt>
    <trkpt lat="50.9412636" lon="6.9683468">
      <time>2024-07-28T14:17:04Z</time>
    </trkpt>
    <trkpt lat="50.9412417" lon="6.9682025">
      <time>2024-07-28T14:17:09Z</time>
    </trkpt>
    <trkpt lat="50.9412428" lon="6.9681478">
      <time>2024-07-28T14:17:11Z</time>
    </trkpt>
    <trkpt lat="50.9412390" lon="6.9681171">
      <time>2024-07-28T14:17:13Z</time>
    </trkpt>
    <trkpt lat="50.9412422" lon="6.9680912">
      <time>2024-07-28T14:17:15Z</time>
    </trkpt>
    <trkpt lat="50.9412429" lon="6.9680660">
      <time>2024-07-28T14:17:17Z</time>
    </trkpt>
    <trkpt lat="50.9412360" lon="6.9679649">
      <time>2024-07-28T14:17:21Z</time>
    </trkpt>
    <trkpt lat="50.9412499" lon="6.9677465">
      <time>2024-07-28T14:17:26Z</time>
    </trkpt>
    <trkpt lat="50.9412555" lon="6.9677069">
      <time>2024-07-28T14:17:30Z</time>
    </trkpt>
    <trkpt lat="50.9412511" lon="6.9676695">
      <time>2024-07-28T14:17:32Z</time>
    </trkpt>
    <trkpt lat="50.9412308" lon="6.9675687">
      <time>2024-07-28T14:17:34Z</time>
    </trkpt>
    <trkpt lat="50.9412265" lon="6.9675003">
      <time>2024-07-28T14:17:35Z</time>
    </trkpt>
    <trkpt lat="50.9412469" lon="6.9672461">
      <time>2024-07-28T14:17:39Z</time>
    </trkpt>
    <trkpt lat="50.9412565" lon="6.9671891">
      <time>2024-07-28T14:17:40Z</time>
    </trkpt>
    <trkpt lat="50.9412495" lon="6.9669780">
      <time>2024-07-28T14:17:44Z</time>
    </trkpt>
    <trkpt lat="50.9412381" lon="6.9668408">
      <time>2024-07-28T14:17:47Z</time>
    </trkpt>
    <trkpt lat="50.9412422" lon="6.9667389">
      <time>2024-07-28T14:17:49Z</time>
    </trkpt>
    <trkpt lat="50.9412502" lon="6.9664968">
      <time>2024-07-28T14:17:54Z</time>
    </trkpt>
    <trkpt lat="50.9412433" lon="6.9664199">
      <time>2024-07-28T14:17:58Z</time>
    </trkpt>
    <trkpt lat="50.9412380" lon="6.9663674">
      <time>2024-07-28T14:18:01Z</time>
    </trkpt>
    <trkpt lat="50.9412294" lon="6.9662762">
      <time>2024-07-28T14:18:06Z</time>
    </trkpt>
    <trkpt lat="50.9412272" lon="6.9661494">
      <time>2024-07-28T14:18:15Z</time>
    </trkpt>
    <trkpt lat="50.9412127" lon="6.9660555">
      <time>2024-07-28T14:18:19Z</time>
    </trkpt>
    <trkpt lat="50.9412088" lon="6.9659945">
      <time>2024-07-28T14:18:21Z</time>
    </trkpt>
    <trkpt lat="50.9412368" lon="6.9656869">
      <time>2024-07-28T14:18:29Z</time>
    </trkpt>
    <trkpt lat="50.9412490" lon="6.9655654">
      <time>2024-07-28T14:18:33Z</time>
    </trkpt>
    <trkpt lat="50.9412556" lon="6.9655451">
      <time>2024-07-28T14:18:34Z</time>
    </trkpt>
    <trkpt lat="50.9412702" lon="6.9654801">
      <time>2024-07-28T14:18:38Z</time>
    </trkpt>
    <trkpt lat="50.9412726" lon="6.9654621">
      <time>2024-07-28T14:18:39Z</time>
    </trkpt>
    <trkpt lat="50.9412766" lon="6.9654345">
      <time>2024-07-28T14:18:41Z</time>
    </trkpt>
    <trkpt lat="50.9412859" lon="6.9653780">
      <time>2024-07-28T14:18:45Z</time>
    </trkpt>
    <trkpt lat="50.9412795" lon="6.9652573">
      <time>2024-07-28T14:18:53Z</time>
    </trkpt>
    <trkpt lat="50.9412729" lon="6.9652271">
      <time>2024-07-28T14:18:55Z</time>
    </trkpt>
    <trkpt lat="50.9412637" lon="6.9651888">
      <time>2024-07-28T14:18:58Z</time>
    </trkpt>
    <trkpt lat="50.9412663" lon="6.9651762">
      <time>2024-07-28T14:18:59Z</time>
    </trkpt>
    <trkpt lat="50.9412568" lon="6.9650573">
      <time>2024-07-28T14:19:07Z</time>
    </trkpt>
    <trkpt lat="50.9412553" lon="6.9649580">
      <time>2024-07-28T14:19:13Z</time>
    </trkpt>
    <trkpt lat="50.9412474" lon="6.9649235">
      <time>2024-07-28T14:19:14Z</time>
    </trkpt>
    <trkpt lat="50.9412705" lon="6.9647290">
      <time>2024-07-28T14:19:18Z</time>
    </trkpt>
    <trkpt lat="50.9412589" lon="6.9646668">
      <time>2024-07-28T14:19:21Z</time>
    </trkpt>
    <trkpt lat="50.9412485" lon="6.9646407">
      <time>2024-07-28T14:19:22Z</time>
    </trkpt>
    <trkpt lat="50.9412481" lon="6.9646105">
      <time>2024-07-28T14:19:23Z</time>
    </trkpt>
    <trkpt lat="50.9412595" lon="6.9645373">
      <time>2024-07-28T14:19:26Z</time>
    </trkpt>
    <trkpt lat="50.9412608" lon="6.9643214">
      <time>2024-07-28T14:19:30Z</time>
    </trkpt>
    <trkpt lat="50.9412644" lon="6.9642396">
      <time>2024-07-28T14:19:31Z</time>
    </trkpt>
    <trkpt lat="50.9412758" lon="6.9640716">
      <time>2024-07-28T14:19:33Z</time>
    </trkpt>
    <trkpt lat="50.9412821" lon="6.9640048">
      <time>2024-07-28T14:19:34Z</time>
    </trkpt>
    <trkpt lat="50.9412904" lon="6.9638404">
      <time>2024-07-28T14:19:37Z</time>
    </trkpt>
    <trkpt lat="50.9412883" lon="6.9637579">
      <time>2024-07-28T14:19:39Z</time>
    </trkpt>
    <trkpt lat="50.9412911" lon="6.9637303">
      <time>2024-07-28T14:19:40Z</time>
    </trkpt>
    <trkpt lat="50.9413001" lon="6.9636664">
      <time>2024-07-28T14:19:43Z</time>
    </trkpt>
    <trkpt lat="50.9412859" lon="6.9635225">
      <time>2024-07-28T14:19:47Z</time>
    </trkpt>
    <trkpt lat="50.9412915" lon="6.9634715">
      <time>2024-07-28T14:19:48Z</time>
    </trkpt>
    <trkpt lat="50.9412889" lon="6.9633350">
      <time>2024-07-28T14:19:52Z</time>
    </trkpt>
    <trkpt lat="50.9412873" lon="6.9632337">
      <time>2024-07-28T14:19:56Z</time>
    </trkpt>
    <trkpt lat="50.9412855" lon="6.9632215">
      <time>2024-07-28T14:19:57Z</time>
    </trkpt>
    <trkpt lat="50.9412844" lon="6.9631951">
      <time>2024-07-28T14:19:59Z</time>
    </trkpt>
    <trkpt lat="50.9412846" lon="6.9631858">
      <time>2024-07-28T14:20:01Z</time>
    </trkpt>
    <trkpt lat="50.9412956" lon="6.9631373">
      <time>2024-07-28T14:20:05Z</time>
    </trkpt>
    <trkpt lat="50.9412955" lon="6.9631252">
      <time>2024-07-28T14:20:08Z</time>
    </trkpt>
    <trkpt lat="50.9412911" lon="6.9630290">
      <time>2024-07-28T14:20:16Z</time>
    </trkpt>
    <trkpt lat="50.9412884" lon="6.9629538">
      <time>2024-07-28T14:20:23Z</time>
    </trkpt>
    <trkpt lat="50.9412920" lon="6.9628501">
      <time>2024-07-28T14:20:34Z</time>
    </trkpt>
    <trkpt lat="50.9412856" lon="6.9627709">
      <time>2024-07-28T14:20:39Z</time>
    </trkpt>
    <trkpt lat="50.9412673" lon="6.9627539">
      <time>2024-07-28T14:20:40Z</time>
    </trkpt>
    <trkpt lat="50.9412256" lon="6.9626615">
      <time>2024-07-28T14:20:42Z</time>
    </trkpt>
    <trkpt lat="50.9412315" lon="6.9625825">
      <time>2024-07-28T14:20:43Z</time>
    </trkpt>
    <trkpt lat="50.9412594" lon="6.9624111">
      <time>2024-07-28T14:20:45Z</time>
    </trkpt>
    <trkpt lat="50.9412611" lon="6.9622285">
      <time>2024-07-28T14:20:47Z</time>
    </trkpt>
    <trkpt lat="50.9412575" lon="6.9619260">
      <time>2024-07-28T14:20:51Z</time>
    </trkpt>
    <trkpt lat="50.9412575" lon="6.9618802">
      <time>2024-07-28T14:20:52Z</time>
    </trkpt>
    <trkpt lat="50.9412485" lon="6.9616722">
      <time>2024-07-28T14:20:58Z</time>
    </trkpt>
    <trkpt lat="50.9412581" lon="6.9615844">
      <time>2024-07-28T14:21:03Z</time>
    </trkpt>
    <trkpt lat="50.9412581" lon="6.9615300">
      <time>2024-07-28T14:21:06Z</time>
    </trkpt>
    <trkpt lat="50.9412516" lon="6.9614986">
      <time>2024-07-28T14:21:08Z</time>
    </trkpt>
    <trkpt lat="50.9412535" lon="6.9614835">
      <time>2024-07-28T14:21:09Z</time>
    </trkpt>
    <trkpt lat="50.9412583" lon="6.9613754">
      <time>2024-07-28T14:21:16Z</time>
    </trkpt>
    <trkpt lat="50.9412353" lon="6.9612491">
      <time>2024-07-28T14:21:20Z</time>
    </trkpt>
    <trkpt lat="50.9412314" lon="6.9612141">
      <time>2024-07-28T14:21:22Z</time>
    </trkpt>
    <trkpt lat="50.9412303" lon="6.9612060">
      <time>2024-07-28T14:21:26Z</time>
    </trkpt>
    <trkpt lat="50.9411828" lon="6.9611973">
      <time>2024-07-28T14:21:30Z</time>
    </trkpt>
    <trkpt lat="50.9411671" lon="6.9611649">
      <time>2024-07-28T14:21:31Z</time>
    </trkpt>
    <trkpt lat="50.9411625" lon="6.9610168">
      <time>2024-07-28T14:21:35Z</time>
    </trkpt>
    <trkpt lat="50.9411630" lon="6.9609915">
      <time>2024-07-28T14:21:36Z</time>
    </trkpt>
    <trkpt lat="50.9411724" lon="6.9609268">
      <time>2024-07-28T14:21:38Z</time>
    </trkpt>
    <trkpt lat="50.9411826" lon="6.9608858">
      <time>2024-07-28T14:21:39Z</time>
    </trkpt>
    <trkpt lat="50.9412103" lon="6.9606425">
      <time>2024-07-28T14:21:45Z</time>
    </trkpt>
    <trkpt lat="50.9411952" lon="6.9605362">
      <time>2024-07-28T14:21:48Z</time>
    </trkpt>
    <trkpt lat="50.9411911" lon="6.9605169">
      <time>2024-07-28T14:21:51Z</time>
    </trkpt>
    <trkpt lat="50.9411911" lon="6.9605169">
      <time>2024-07-28T14:21:52Z</time>
    </trkpt>
    <trkpt lat="50.9411754" lon="6.9604340">
      <time>2024-07-28T14:21:55Z</time>
    </trkpt>
    <trkpt lat="50.9411506" lon="6.9603245">
      <time>2024-07-28T14:21:58Z</time>
    </trkpt>
    <trkpt lat="50.9411292" lon="6.9602385">
      <time>2024-07-28T14:22:01Z</time>
    </trkpt>
    <trkpt lat="50.9411257" lon="6.9602097">
      <time>2024-07-28T14:22:02Z</time>
    </trkpt>
    <trkpt lat="50.9411293" lon="6.9601732">
      <time>2024-07-28T14:22:03Z</time>
    </trkpt>
    <trkpt lat="50.9411458" lon="6.9599588">
      <time>2024-07-28T14:22:07Z</time>
    </trkpt>
    <trkpt lat="50.9411420" lon="6.9599018">
      <time>2024-07-28T14:22:08Z</time>
    </trkpt>
    <trkpt lat="50.9411421" lon="6.9597468">
      <time>2024-07-28T14:22:11Z</time>
    </trkpt>
    <trkpt lat="50.9411086" lon="6.9594910">
      <time>2024-07-28T14:22:16Z</time>
    </trkpt>
    <trkpt lat="50.9410882" lon="6.9594520">
      <time>2024-07-28T14:22:17Z</time>
    </trkpt>
    <trkpt lat="50.9410636" lon="6.9594284">
      <time>2024-07-28T14:22:18Z</time>
    </trkpt>
    <trkpt lat="50.9408722" lon="6.9594205">
      <time>2024-07-28T14:22:21Z</time>
    </trkpt>
    <trkpt lat="50.9406419" lon="6.9594669">
      <time>2024-07-28T14:22:27Z</time>
    </trkpt>
    <trkpt lat="50.9406186" lon="6.9594747">
      <time>2024-07-28T14:22:29Z</time>
    </trkpt>
    <trkpt lat="50.9405788" lon="6.9594897">
      <time>2024-07-28T14:22:32Z</time>
    </trkpt>
    <trkpt lat="50.9405548" lon="6.9595293">
      <time>2024-07-28T14:22:36Z</time>
    </trkpt>
    <trkpt lat="50.9405286" lon="6.9595265">
      <time>2024-07-28T14:22:37Z</time>
    </trkpt>
    <trkpt lat="50.9403790" lon="6.9594882">
      <time>2024-07-28T14:22:42Z</time>
    </trkpt>
    <trkpt lat="50.9403554" lon="6.9594826">
      <time>2024-07-28T14:22:43Z</time>
    </trkpt>
    <trkpt lat="50.9403437" lon="6.9594684">
      <time>2024-07-28T14:22:44Z</time>
    </trkpt>
    <trkpt lat="50.9403430" lon="6.9593937">
      <time>2024-07-28T14:22:46Z</time>
    </trkpt>
    <trkpt lat="50.9403371" lon="6.9590961">
      <time>2024-07-28T14:22:52Z</time>
    </trkpt>
    <trkpt lat="50.9403305" lon="6.9590391">
      <time>2024-07-28T14:22:53Z</time>
    </trkpt>
    <trkpt lat="50.9403121" lon="6.9589068">
      <time>2024-07-28T14:22:56Z</time>
    </trkpt>
    <trkpt lat="50.9403163" lon="6.9588411">
      <time>2024-07-28T14:22:59Z</time>
    </trkpt>
    <trkpt lat="50.9403148" lon="6.9588200">
      <time>2024-07-28T14:23:00Z</time>
    </trkpt>
    <trkpt lat="50.9402912" lon="6.9587228">
      <time>2024-07-28T14:23:04Z</time>
    </trkpt>
    <trkpt lat="50.9402875" lon="6.9586926">
      <time>2024-07-28T14:23:05Z</time>
    </trkpt>
    <trkpt lat="50.9402736" lon="6.9586428">
      <time>2024-07-28T14:23:08Z</time>
    </trkpt>
    <trkpt lat="50.9402909" lon="6.9585803">
      <time>2024-07-28T14:23:11Z</time>
    </trkpt>
    <trkpt lat="50.9403285" lon="6.9585470">
      <time>2024-07-28T14:23:12Z</time>
    </trkpt>
    <trkpt lat="50.9404393" lon="6.9584710">
      <time>2024-07-28T14:23:15Z</time>
    </trkpt>
    <trkpt lat="50.9404578" lon="6.9584263">
      <time>2024-07-28T14:23:16Z</time>
    </trkpt>
    <trkpt lat="50.9404844" lon="6.9583248">
      <time>2024-07-28T14:23:18Z</time>
    </trkpt>
    <trkpt lat="50.9404805" lon="6.9581297">
      <time>2024-07-28T14:23:22Z</time>
    </trkpt>
    <trkpt lat="50.9404870" lon="6.9579449">
      <time>2024-07-28T14:23:27Z</time>
    </trkpt>
    <trkpt lat="50.9405942" lon="6.9578803">
      <time>2024-07-28T14:23:31Z</time>
    </trkpt>
    <trkpt lat="50.9407185" lon="6.9578767">
      <time>2024-07-28T14:23:36Z</time>
    </trkpt>
    <trkpt lat="50.9408797" lon="6.9578471">
      <time>2024-07-28T14:23:41Z</time>
    </trkpt>
    <trkpt lat="50.9409266" lon="6.9577818">
      <time>2024-07-28T14:23:43Z</time>
    </trkpt>
    <trkpt lat="50.9409373" lon="6.9577229">
      <time>2024-07-28T14:23:44Z</time>
    </trkpt>
    <trkpt lat="50.9409367" lon="6.9576803">
      <time>2024-07-28T14:23:45Z</time>
    </trkpt>
    <trkpt lat="50.9409196" lon="6.9576211">
      <time>2024-07-28T14:23:47Z</time>
    </trkpt>
    <trkpt lat="50.9408866" lon="6.9574405">
      <time>2024-07-28T14:23:54Z</time>
    </trkpt>
    <trkpt lat="50.9408745" lon="6.9572236">
      <time>2024-07-28T14:24:00Z</time>
    </trkpt>
    <trkpt lat="50.9408655" lon="6.9571290">
      <time>2024-07-28T14:24:02Z</time>
    </trkpt>
    <trkpt lat="50.9408838" lon="6.9569790">
      <time>2024-07-28T14:24:05Z</time>
    </trkpt>
    <trkpt lat="50.9408709" lon="6.9566752">
      <time>2024-07-28T14:24:12Z</time>
    </trkpt>
    <trkpt lat="50.9408524" lon="6.9566337">
      <time>2024-07-28T14:24:13Z</time>
    </trkpt>
    <trkpt lat="50.9407879" lon="6.9564898">
      <time>2024-07-28T14:24:16Z</time>
    </trkpt>
    <trkpt lat="50.9407541" lon="6.9564322">
      <time>2024-07-28T14:24:17Z</time>
    </trkpt>
    <trkpt lat="50.9406972" lon="6.9563191">
      <time>2024-07-28T14:24:19Z</time>
    </trkpt>
    <trkpt lat="50.9406493" lon="6.9562454">
      <time>2024-07-28T14:24:22Z</time>
    </trkpt>
    <trkpt lat="50.9406654" lon="6.9562460">
      <time>2024-07-28T14:24:23Z</time>
    </trkpt>
    <trkpt lat="50.9407522" lon="6.9562340">
      <time>2024-07-28T14:24:25Z</time>
    </trkpt>
    <trkpt lat="50.9410509" lon="6.9562549">
      <time>2024-07-28T14:24:30Z</time>
    </trkpt>
    <trkpt lat="50.9413054" lon="6.9563712">
      <time>2024-07-28T14:24:36Z</time>
    </trkpt>
    <trkpt lat="50.9415056" lon="6.9563736">
      <time>2024-07-28T14:24:42Z</time>
    </trkpt>
    <trkpt lat="50.9416628" lon="6.9562732">
      <time>2024-07-28T14:24:45Z</time>
    </trkpt>
    <trkpt lat="50.9416924" lon="6.9562025">
      <time>2024-07-28T14:24:46Z</time>
    </trkpt>
    <trkpt lat="50.9417017" lon="6.9561160">
      <time>2024-07-28T14:24:47Z</time>
    </trkpt>
    <trkpt lat="50.9416916" lon="6.9559303">
      <time>2024-07-28T14:24:49Z</time>
    </trkpt>
    <trkpt lat="50.9416808" lon="6.9553696">
      <time>2024-07-28T14:24:54Z</time>
    </trkpt>
    <trkpt lat="50.9416473" lon="6.9550431">
      <time>2024-07-28T14:24:57Z</time>
    </trkpt>
    <trkpt lat="50.9416323" lon="6.9548199">
      <time>2024-07-28T14:24:59Z</time>
    </trkpt>
    <trkpt lat="50.9416221" lon="6.9547122">
      <time>2024-07-28T14:25:00Z</time>
    </trkpt>
    <trkpt lat="50.9415981" lon="6.9545013">
      <time>2024-07-28T14:25:02Z</time>
    </trkpt>
    <trkpt lat="50.9415480" lon="6.9541167">
      <time>2024-07-28T14:25:06Z</time>
    </trkpt>
    <trkpt lat="50.9415403" lon="6.9539274">
      <time>2024-07-28T14:25:08Z</time>
    </trkpt>
    <trkpt lat="50.9415076" lon="6.9534055">
      <time>2024-07-28T14:25:14Z</time>
    </trkpt>
    <trkpt lat="50.9415067" lon="6.9532597">
      <time>2024-07-28T14:25:16Z</time>
    </trkpt>
    <trkpt lat="50.9415031" lon="6.9531626">
      <time>2024-07-28T14:25:19Z</time>
    </trkpt>
    <trkpt lat="50.9415148" lon="6.9531432">
      <time>2024-07-28T14:25:24Z</time>
    </trkpt>
    <trkpt lat="50.9415148" lon="6.9531432">
      <time>2024-07-28T14:25:27Z</time>
    </trkpt>
    <trkpt lat="50.9415395" lon="6.9530332">
      <time>2024-07-28T14:26:04Z</time>
    </trkpt>
    <trkpt lat="50.9415408" lon="6.9529810">
      <time>2024-07-28T14:26:05Z</time>
    </trkpt>
    <trkpt lat="50.9415452" lon="6.9528365">
      <time>2024-07-28T14:26:07Z</time>
    </trkpt>
    <trkpt lat="50.9415420" lon="6.9526355">
      <time>2024-07-28T14:26:09Z</time>
    </trkpt>
    <trkpt lat="50.9415276" lon="6.9524630">
      <time>2024-07-28T14:26:11Z</time>
    </trkpt>
    <trkpt lat="50.9415197" lon="6.9522645">
      <time>2024-07-28T14:26:13Z</time>
    </trkpt>
    <trkpt lat="50.9415275" lon="6.9520380">
      <time>2024-07-28T14:26:15Z</time>
    </trkpt>
    <trkpt lat="50.9415235" lon="6.9519370">
      <time>2024-07-28T14:26:16Z</time>
    </trkpt>
    <trkpt lat="50.9415219" lon="6.9518313">
      <time>2024-07-28T14:26:17Z</time>
    </trkpt>
    <trkpt lat="50.9414921" lon="6.9516516">
      <time>2024-07-28T14:26:19Z</time>
    </trkpt>
    <trkpt lat="50.9414085" lon="6.9510172">
      <time>2024-07-28T14:26:25Z</time>
    </trkpt>
    <trkpt lat="50.9414386" lon="6.9507488">
      <time>2024-07-28T14:26:27Z</time>
    </trkpt>
    <trkpt lat="50.9414711" lon="6.9506149">
      <time>2024-07-28T14:26:28Z</time>
    </trkpt>
    <trkpt lat="50.9415097" lon="6.9504570">
      <time>2024-07-28T14:26:29Z</time>
    </trkpt>
    <trkpt lat="50.9414910" lon="6.9501571">
      <time>2024-07-28T14:26:32Z</time>
    </trkpt>
    <trkpt lat="50.9414755" lon="6.9499832">
      <time>2024-07-28T14:26:34Z</time>
    </trkpt>
    <trkpt lat="50.9414372" lon="6.9497064">
      <time>2024-07-28T14:26:37Z</time>
    </trkpt>
    <trkpt lat="50.9414258" lon="6.9496084">
      <time>2024-07-28T14:26:38Z</time>
    </trkpt>
    <trkpt lat="50.9413635" lon="6.9491563">
      <time>2024-07-28T14:26:43Z</time>
    </trkpt>
    <trkpt lat="50.9413396" lon="6.9490668">
      <time>2024-07-28T14:26:44Z</time>
    </trkpt>
    <trkpt lat="50.9412959" lon="6.9487956">
      <time>2024-07-28T14:26:47Z</time>
    </trkpt>
    <trkpt lat="50.9412915" lon="6.9487057">
      <time>2024-07-28T14:26:48Z</time>
    </trkpt>
    <trkpt lat="50.9412468" lon="6.9483158">
      <time>2024-07-28T14:26:53Z</time>
    </trkpt>
    <trkpt lat="50.9412370" lon="6.9482526">
      <time>2024-07-28T14:26:54Z</time>
    </trkpt>
    <trkpt lat="50.9411899" lon="6.9480741">
      <time>2024-07-28T14:26:58Z</time>
    </trkpt>
    <trkpt lat="50.9411628" lon="6.9479747">
      <time>2024-07-28T14:27:02Z</time>
    </trkpt>
    <trkpt lat="50.9411558" lon="6.9479507">
      <time>2024-07-28T14:27:03Z</time>
    </trkpt>
    <trkpt lat="50.9411583" lon="6.9479154">
      <time>2024-07-28T14:27:05Z</time>
    </trkpt>
    <trkpt lat="50.9411532" lon="6.9478890">
      <time>2024-07-28T14:27:06Z</time>
    </trkpt>
    <trkpt lat="50.9411329" lon="6.9478034">
      <time>2024-07-28T14:27:08Z</time>
    </trkpt>
    <trkpt lat="50.9410737" lon="6.9475425">
      <time>2024-07-28T14:27:12Z</time>
    </trkpt>
    <trkpt lat="50.9410475" lon="6.9473168">
      <time>2024-07-28T14:27:15Z</time>
    </trkpt>
    <trkpt lat="50.9410545" lon="6.9471462">
      <time>2024-07-28T14:27:17Z</time>
    </trkpt>
    <trkpt lat="50.9410549" lon="6.9469716">
      <time>2024-07-28T14:27:19Z</time>
    </trkpt>
    <trkpt lat="50.9410349" lon="6.9466922">
      <time>2024-07-28T14:27:22Z</time>
    </trkpt>
    <trkpt lat="50.9410201" lon="6.9466125">
      <time>2024-07-28T14:27:23Z</time>
    </trkpt>
    <trkpt lat="50.9409619" lon="6.9463943">
      <time>2024-07-28T14:27:26Z</time>
    </trkpt>
    <trkpt lat="50.9409403" lon="6.9463299">
      <time>2024-07-28T14:27:27Z</time>
    </trkpt>
    <trkpt lat="50.9408546" lon="6.9461028">
      <time>2024-07-28T14:27:32Z</time>
    </trkpt>
    <trkpt lat="50.9406931" lon="6.9457344">
      <time>2024-07-28T14:27:38Z</time>
    </trkpt>
    <trkpt lat="50.9405406" lon="6.9454978">
      <time>2024-07-28T14:27:42Z</time>
    </trkpt>
    <trkpt lat="50.9404818" lon="6.9453806">
      <time>2024-07-28T14:27:44Z</time>
    </trkpt>
    <trkpt lat="50.9404861" lon="6.9452596">
      <time>2024-07-28T14:27:46Z</time>
    </trkpt>
    <trkpt lat="50.9404540" lon="6.9451345">
      <time>2024-07-28T14:27:48Z</time>
    </trkpt>
    <trkpt lat="50.9403263" lon="6.9449163">
      <time>2024-07-28T14:27:51Z</time>
    </trkpt>
    <trkpt lat="50.9402547" lon="6.9447572">
      <time>2024-07-28T14:27:53Z</time>
    </trkpt>
    <trkpt lat="50.9402545" lon="6.9445853">
      <time>2024-07-28T14:27:55Z</time>
    </trkpt>
    <trkpt lat="50.9402632" lon="6.9444142">
      <time>2024-07-28T14:27:57Z</time>
    </trkpt>
    <trkpt lat="50.9402143" lon="6.9442836">
      <time>2024-07-28T14:27:59Z</time>
    </trkpt>
    <trkpt lat="50.9401745" lon="6.9441262">
      <time>2024-07-28T14:28:01Z</time>
    </trkpt>
    <trkpt lat="50.9401561" lon="6.9440603">
      <time>2024-07-28T14:28:02Z</time>
    </trkpt>
    <trkpt lat="50.9401389" lon="6.9439910">
      <time>2024-07-28T14:28:03Z</time>
    </trkpt>
    <trkpt lat="50.9400850" lon="6.9438340">
      <time>2024-07-28T14:28:05Z</time>
    </trkpt>
    <trkpt lat="50.9400662" lon="6.9437158">
      <time>2024-07-28T14:28:07Z</time>
    </trkpt>
    <trkpt lat="50.9400498" lon="6.9435446">
      <time>2024-07-28T14:28:09Z</time>
    </trkpt>
    <trkpt lat="50.9400163" lon="6.9433657">
      <time>2024-07-28T14:28:11Z</time>
    </trkpt>
    <trkpt lat="50.9399916" lon="6.9431940">
      <time>2024-07-28T14:28:13Z</time>
    </trkpt>
    <trkpt lat="50.9400074" lon="6.9429480">
      <time>2024-07-28T14:28:16Z</time>
    </trkpt>
    <trkpt lat="50.9400250" lon="6.9425339">
      <time>2024-07-28T14:28:20Z</time>
    </trkpt>
    <trkpt lat="50.9400423" lon="6.9423426">
      <time>2024-07-28T14:28:22Z</time>
    </trkpt>
    <trkpt lat="50.9400942" lon="6.9420679">
      <time>2024-07-28T14:28:25Z</time>
    </trkpt>
    <trkpt lat="50.9401375" lon="6.9418733">
      <time>2024-07-28T14:28:27Z</time>
    </trkpt>
    <trkpt lat="50.9402145" lon="6.9416073">
      <time>2024-07-28T14:28:30Z</time>
    </trkpt>
    <trkpt lat="50.9403120" lon="6.9413227">
      <time>2024-07-28T14:28:33Z</time>
    </trkpt>
    <trkpt lat="50.9404232" lon="6.9408824">
      <time>2024-07-28T14:28:38Z</time>
    </trkpt>
    <trkpt lat="50.9404678" lon="6.9407140">
      <time>2024-07-28T14:28:40Z</time>
    </trkpt>
    <trkpt lat="50.9404896" lon="6.9406190">
      <time>2024-07-28T14:28:41Z</time>
    </trkpt>
    <trkpt lat="50.9405168" lon="6.9404400">
      <time>2024-07-28T14:28:43Z</time>
    </trkpt>
    <trkpt lat="50.9405334" lon="6.9403538">
      <time>2024-07-28T14:28:44Z</time>
    </trkpt>
    <trkpt lat="50.9405525" lon="6.9402638">
      <time>2024-07-28T14:28:45Z</time>
    </trkpt>
    <trkpt lat="50.9405738" lon="6.9399667">
      <time>2024-07-28T14:28:48Z</time>
    </trkpt>
    <trkpt lat="50.9405733" lon="6.9398620">
      <time>2024-07-28T14:28:49Z</time>
    </trkpt>
    <trkpt lat="50.9406143" lon="6.9393042">
      <time>2024-07-28T14:28:54Z</time>
    </trkpt>
    <trkpt lat="50.9406980" lon="6.9388641">
      <time>2024-07-28T14:28:58Z</time>
    </trkpt>
    <trkpt lat="50.9407201" lon="6.9386648">
      <time>2024-07-28T14:29:00Z</time>
    </trkpt>
    <trkpt lat="50.9408473" lon="6.9382494">
      <time>2024-07-28T14:29:04Z</time>
    </trkpt>
    <trkpt lat="50.9408786" lon="6.9381586">
      <time>2024-07-28T14:29:05Z</time>
    </trkpt>
    <trkpt lat="50.9409558" lon="6.9380029">
      <time>2024-07-28T14:29:07Z</time>
    </trkpt>
    <trkpt lat="50.9410415" lon="6.9378582">
      <time>2024-07-28T14:29:09Z</time>
    </trkpt>
    <trkpt lat="50.9412091" lon="6.9375915">
      <time>2024-07-28T14:29:13Z</time>
    </trkpt>
    <trkpt lat="50.9412865" lon="6.9374545">
      <time>2024-07-28T14:29:15Z</time>
    </trkpt>
    <trkpt lat="50.9413337" lon="6.9373933">
      <time>2024-07-28T14:29:16Z</time>
    </trkpt>
    <trkpt lat="50.9413823" lon="6.9373270">
      <time>2024-07-28T14:29:17Z</time>
    </trkpt>
    <trkpt lat="50.9415124" lon="6.9370952">
      <time>2024-07-28T14:29:20Z</time>
    </trkpt>
    <trkpt lat="50.9416059" lon="6.9369369">
      <time>2024-07-28T14:29:22Z</time>
    </trkpt>
    <trkpt lat="50.9416545" lon="6.9368653">
      <time>2024-07-28T14:29:23Z</time>
    </trkpt>
    <trkpt lat="50.9418403" lon="6.9365763">
      <time>2024-07-28T14:29:27Z</time>
    </trkpt>
    <trkpt lat="50.9418988" lon="6.9363634">
      <time>2024-07-28T14:29:29Z</time>
    </trkpt>
    <trkpt lat="50.9419466" lon="6.9362628">
      <time>2024-07-28T14:29:30Z</time>
    </trkpt>
    <trkpt lat="50.9420005" lon="6.9361706">
      <time>2024-07-28T14:29:31Z</time>
    </trkpt>
    <trkpt lat="50.9421741" lon="6.9358440">
      <time>2024-07-28T14:29:35Z</time>
    </trkpt>
    <trkpt lat="50.9422291" lon="6.9357214">
      <time>2024-07-28T14:29:38Z</time>
    </trkpt>
    <trkpt lat="50.9422330" lon="6.9357161">
      <time>2024-07-28T14:29:41Z</time>
    </trkpt>
    <trkpt lat="50.9422761" lon="6.9356598">
      <time>2024-07-28T14:29:55Z</time>
    </trkpt>
    <trkpt lat="50.9422860" lon="6.9356448">
      <time>2024-07-28T14:29:56Z</time>
    </trkpt>
    <trkpt lat="50.9422915" lon="6.9356393">
      <time>2024-07-28T14:29:58Z</time>
    </trkpt>
    <trkpt lat="50.9423010" lon="6.9356204">
      <time>2024-07-28T14:29:59Z</time>
    </trkpt>
    <trkpt lat="50.9423539" lon="6.9355185">
      <time>2024-07-28T14:30:02Z</time>
    </trkpt>
    <trkpt lat="50.9424676" lon="6.9354152">
      <time>2024-07-28T14:30:05Z</time>
    </trkpt>
    <trkpt lat="50.9425046" lon="6.9353441">
      <time>2024-07-28T14:30:06Z</time>
    </trkpt>
    <trkpt lat="50.9427633" lon="6.9348401">
      <time>2024-07-28T14:30:13Z</time>
    </trkpt>
    <trkpt lat="50.9429301" lon="6.9344771">
      <time>2024-07-28T14:30:18Z</time>
    </trkpt>
    <trkpt lat="50.9429528" lon="6.9343861">
      <time>2024-07-28T14:30:19Z</time>
    </trkpt>
    <trkpt lat="50.9429829" lon="6.9342928">
      <time>2024-07-28T14:30:20Z</time>
    </trkpt>
    <trkpt lat="50.9430836" lon="6.9341000">
      <time>2024-07-28T14:30:24Z</time>
    </trkpt>
    <trkpt lat="50.9431274" lon="6.9340115">
      <time>2024-07-28T14:30:26Z</time>
    </trkpt>
    <trkpt lat="50.9434503" lon="6.9334349">
      <time>2024-07-28T14:30:38Z</time>
    </trkpt>
    <trkpt lat="50.9434547" lon="6.9334338">
      <time>2024-07-28T14:30:41Z</time>
    </trkpt>
    <trkpt lat="50.9434610" lon="6.9333428">
      <time>2024-07-28T14:30:53Z</time>
    </trkpt>
    <trkpt lat="50.9435116" lon="6.9332916">
      <time>2024-07-28T14:30:54Z</time>
    </trkpt>
    <trkpt lat="50.9436441" lon="6.9331588">
      <time>2024-07-28T14:30:57Z</time>
    </trkpt>
    <trkpt lat="50.9436745" lon="6.9330851">
      <time>2024-07-28T14:30:58Z</time>
    </trkpt>
    <trkpt lat="50.9437246" lon="6.9329217">
      <time>2024-07-28T14:31:00Z</time>
    </trkpt>
    <trkpt lat="50.9437827" lon="6.9327755">
      <time>2024-07-28T14:31:02Z</time>
    </trkpt>
    <trkpt lat="50.9438368" lon="6.9326304">
      <time>2024-07-28T14:31:04Z</time>
    </trkpt>
    <trkpt lat="50.9438701" lon="6.9325715">
      <time>2024-07-28T14:31:05Z</time>
    </trkpt>
    <trkpt lat="50.9439030" lon="6.9325178">
      <time>2024-07-28T14:31:06Z</time>
    </trkpt>
    <trkpt lat="50.9439280" lon="6.9324468">
      <time>2024-07-28T14:31:07Z</time>
    </trkpt>
    <trkpt lat="50.9440007" lon="6.9322658">
      <time>2024-07-28T14:31:10Z</time>
    </trkpt>
    <trkpt lat="50.9440234" lon="6.9322063">
      <time>2024-07-28T14:31:11Z</time>
    </trkpt>
    <trkpt lat="50.9440447" lon="6.9321359">
      <time>2024-07-28T14:31:12Z</time>
    </trkpt>
    <trkpt lat="50.9441001" lon="6.9319794">
      <time>2024-07-28T14:31:14Z</time>
    </trkpt>
    <trkpt lat="50.9441248" lon="6.9319257">
      <time>2024-07-28T14:31:15Z</time>
    </trkpt>
    <trkpt lat="50.9442811" lon="6.9315878">
      <time>2024-07-28T14:31:19Z</time>
    </trkpt>
    <trkpt lat="50.9443233" lon="6.9314934">
      <time>2024-07-28T14:31:20Z</time>
    </trkpt>
    <trkpt lat="50.9443822" lon="6.9313124">
      <time>2024-07-28T14:31:22Z</time>
    </trkpt>
    <trkpt lat="50.9444250" lon="6.9311330">
      <time>2024-07-28T14:31:24Z</time>
    </trkpt>
    <trkpt lat="50.9444901" lon="6.9309346">
      <time>2024-07-28T14:31:26Z</time>
    </trkpt>
    <trkpt lat="50.9446513" lon="6.9305472">
      <time>2024-07-28T14:31:30Z</time>
    </trkpt>
    <trkpt lat="50.9447146" lon="6.9303840">
      <time>2024-07-28T14:31:32Z</time>
    </trkpt>
    <trkpt lat="50.9448435" lon="6.9300435">
      <time>2024-07-28T14:31:36Z</time>
    </trkpt>
    <trkpt lat="50.9448590" lon="6.9299459">
      <time>2024-07-28T14:31:37Z</time>
    </trkpt>
    <trkpt lat="50.9449261" lon="6.9295612">
      <time>2024-07-28T14:31:41Z</time>
    </trkpt>
    <trkpt lat="50.9449497" lon="6.9293401">
      <time>2024-07-28T14:31:43Z</time>
    </trkpt>
    <trkpt lat="50.9450757" lon="6.9291174">
      <time>2024-07-28T14:31:46Z</time>
    </trkpt>
    <trkpt lat="50.9451133" lon="6.9290764">
      <time>2024-07-28T14:31:47Z</time>
    </trkpt>
    <trkpt lat="50.9451378" lon="6.9290306">
      <time>2024-07-28T14:31:48Z</time>
    </trkpt>
    <trkpt lat="50.9451644" lon="6.9289189">
      <time>2024-07-28T14:31:51Z</time>
    </trkpt>
    <trkpt lat="50.9451392" lon="6.9288712">
      <time>2024-07-28T14:31:55Z</time>
    </trkpt>
    <trkpt lat="50.9451357" lon="6.9288038">
      <time>2024-07-28T14:32:00Z</time>
    </trkpt>
    <trkpt lat="50.9451357" lon="6.9288038">
      <time>2024-07-28T14:32:01Z</time>
    </trkpt>
    <trkpt lat="50.9451563" lon="6.9286967">
      <time>2024-07-28T14:32:07Z</time>
    </trkpt>
    <trkpt lat="50.9451689" lon="6.9285967">
      <time>2024-07-28T14:32:09Z</time>
    </trkpt>
    <trkpt lat="50.9452994" lon="6.9282139">
      <time>2024-07-28T14:32:14Z</time>
    </trkpt>
    <trkpt lat="50.9453741" lon="6.9280365">
      <time>2024-07-28T14:32:16Z</time>
    </trkpt>
    <trkpt lat="50.9454645" lon="6.9277166">
      <time>2024-07-28T14:32:19Z</time>
    </trkpt>
    <trkpt lat="50.9455398" lon="6.9273704">
      <time>2024-07-28T14:32:22Z</time>
    </trkpt>
    <trkpt lat="50.9455610" lon="6.9272951">
      <time>2024-07-28T14:32:23Z</time>
    </trkpt>
    <trkpt lat="50.9455884" lon="6.9272040">
      <time>2024-07-28T14:32:24Z</time>
    </trkpt>
    <trkpt lat="50.9456328" lon="6.9271008">
      <time>2024-07-28T14:32:25Z</time>
    </trkpt>
    <trkpt lat="50.9457541" lon="6.9267918">
      <time>2024-07-28T14:32:28Z</time>
    </trkpt>
    <trkpt lat="50.9459572" lon="6.9262516">
      <time>2024-07-28T14:32:33Z</time>
    </trkpt>
    <trkpt lat="50.9460287" lon="6.9260584">
      <time>2024-07-28T14:32:35Z</time>
    </trkpt>
    <trkpt lat="50.9460800" lon="6.9258503">
      <time>2024-07-28T14:32:37Z</time>
    </trkpt>
    <trkpt lat="50.9460818" lon="6.9257402">
      <time>2024-07-28T14:32:38Z</time>
    </trkpt>
    <trkpt lat="50.9461101" lon="6.9255905">
      <time>2024-07-28T14:32:40Z</time>
    </trkpt>
    <trkpt lat="50.9461286" lon="6.9255334">
      <time>2024-07-28T14:32:41Z</time>
    </trkpt>
    <trkpt lat="50.9462203" lon="6.9254393">
      <time>2024-07-28T14:32:45Z</time>
    </trkpt>
    <trkpt lat="50.9463115" lon="6.9252605">
      <time>2024-07-28T14:32:49Z</time>
    </trkpt>
    <trkpt lat="50.9463674" lon="6.9251390">
      <time>2024-07-28T14:32:51Z</time>
    </trkpt>
    <trkpt lat="50.9464249" lon="6.9249898">
      <time>2024-07-28T14:32:53Z</time>
    </trkpt>
    <trkpt lat="50.9464954" lon="6.9248153">
      <time>2024-07-28T14:32:55Z</time>
    </trkpt>
    <trkpt lat="50.9465782" lon="6.9246232">
      <time>2024-07-28T14:32:57Z</time>
    </trkpt>
    <trkpt lat="50.9468544" lon="6.9239448">
      <time>2024-07-28T14:33:03Z</time>
    </trkpt>
    <trkpt lat="50.9471360" lon="6.9232976">
      <time>2024-07-28T14:33:09Z</time>
    </trkpt>
    <trkpt lat="50.9474360" lon="6.9225360">
      <time>2024-07-28T14:33:16Z</time>
    </trkpt>
    <trkpt lat="50.9476778" lon="6.9219086">
      <time>2024-07-28T14:33:22Z</time>
    </trkpt>
    <trkpt lat="50.9479422" lon="6.9213114">
      <time>2024-07-28T14:33:28Z</time>
    </trkpt>
    <trkpt lat="50.9480943" lon="6.9209454">
      <time>2024-07-28T14:33:32Z</time>
    </trkpt>
    <trkpt lat="50.9482331" lon="6.9206841">
      <time>2024-07-28T14:33:35Z</time>
    </trkpt>
    <trkpt lat="50.9483152" lon="6.9204762">
      <time>2024-07-28T14:33:37Z</time>
    </trkpt>
    <trkpt lat="50.9483633" lon="6.9202319">
      <time>2024-07-28T14:33:39Z</time>
    </trkpt>
    <trkpt lat="50.9483951" lon="6.9201169">
      <time>2024-07-28T14:33:40Z</time>
    </trkpt>
    <trkpt lat="50.9485232" lon="6.9198154">
      <time>2024-07-28T14:33:43Z</time>
    </trkpt>
    <trkpt lat="50.9487643" lon="6.9193113">
      <time>2024-07-28T14:33:48Z</time>
    </trkpt>
    <trkpt lat="50.9489459" lon="6.9188347">
      <time>2024-07-28T14:33:53Z</time>
    </trkpt>
    <trkpt lat="50.9490134" lon="6.9186444">
      <time>2024-07-28T14:33:55Z</time>
    </trkpt>
    <trkpt lat="50.9491775" lon="6.9182987">
      <time>2024-07-28T14:33:59Z</time>
    </trkpt>
    <trkpt lat="50.9492683" lon="6.9181598">
      <time>2024-07-28T14:34:01Z</time>
    </trkpt>
    <trkpt lat="50.9495724" lon="6.9177204">
      <time>2024-07-28T14:34:07Z</time>
    </trkpt>
    <trkpt lat="50.9496213" lon="6.9176450">
      <time>2024-07-28T14:34:08Z</time>
    </trkpt>
    <trkpt lat="50.9498688" lon="6.9172629">
      <time>2024-07-28T14:34:13Z</time>
    </trkpt>
    <trkpt lat="50.9499237" lon="6.9171653">
      <time>2024-07-28T14:34:14Z</time>
    </trkpt>
    <trkpt lat="50.9501262" lon="6.9168239">
      <time>2024-07-28T14:34:18Z</time>
    </trkpt>
    <trkpt lat="50.9502313" lon="6.9167012">
      <time>2024-07-28T14:34:20Z</time>
    </trkpt>
    <trkpt lat="50.9504833" lon="6.9164502">
      <time>2024-07-28T14:34:24Z</time>
    </trkpt>
    <trkpt lat="50.9505911" lon="6.9162633">
      <time>2024-07-28T14:34:26Z</time>
    </trkpt>
    <trkpt lat="50.9508151" lon="6.9159053">
      <time>2024-07-28T14:34:30Z</time>
    </trkpt>
    <trkpt lat="50.9508559" lon="6.9158063">
      <time>2024-07-28T14:34:31Z</time>
    </trkpt>
    <trkpt lat="50.9511065" lon="6.9154062">
      <time>2024-07-28T14:34:36Z</time>
    </trkpt>
    <trkpt lat="50.9511542" lon="6.9153244">
      <time>2024-07-28T14:34:37Z</time>
    </trkpt>
    <trkpt lat="50.9512391" lon="6.9151783">
      <time>2024-07-28T14:34:39Z</time>
    </trkpt>
    <trkpt lat="50.9513100" lon="6.9150633">
      <time>2024-07-28T14:34:41Z</time>
    </trkpt>
    <trkpt lat="50.9514721" lon="6.9147347">
      <time>2024-07-28T14:34:45Z</time>
    </trkpt>
    <trkpt lat="50.9515419" lon="6.9146516">
      <time>2024-07-28T14:34:46Z</time>
    </trkpt>
    <trkpt lat="50.9516051" lon="6.9145806">
      <time>2024-07-28T14:34:47Z</time>
    </trkpt>
    <trkpt lat="50.9517881" lon="6.9143538">
      <time>2024-07-28T14:34:50Z</time>
    </trkpt>
    <trkpt lat="50.9521558" lon="6.9137775">
      <time>2024-07-28T14:34:57Z</time>
    </trkpt>
    <trkpt lat="50.9523950" lon="6.9133999">
      <time>2024-07-28T14:35:03Z</time>
    </trkpt>
    <trkpt lat="50.9526623" lon="6.9130260">
      <time>2024-07-28T14:35:09Z</time>
    </trkpt>
    <trkpt lat="50.9527093" lon="6.9129540">
      <time>2024-07-28T14:35:10Z</time>
    </trkpt>
    <trkpt lat="50.9529565" lon="6.9125819">
      <time>2024-07-28T14:35:15Z</time>
    </trkpt>
    <trkpt lat="50.9530410" lon="6.9124391">
      <time>2024-07-28T14:35:17Z</time>
    </trkpt>
    <trkpt lat="50.9532035" lon="6.9121560">
      <time>2024-07-28T14:35:21Z</time>
    </trkpt>
    <trkpt lat="50.9532457" lon="6.9120831">
      <time>2024-07-28T14:35:22Z</time>
    </trkpt>
    <trkpt lat="50.9533724" lon="6.9118661">
      <time>2024-07-28T14:35:25Z</time>
    </trkpt>
    <trkpt lat="50.9535859" lon="6.9115094">
      <time>2024-07-28T14:35:30Z</time>
    </trkpt>
    <trkpt lat="50.9538838" lon="6.9109902">
      <time>2024-07-28T14:35:37Z</time>
    </trkpt>
    <trkpt lat="50.9539267" lon="6.9109238">
      <time>2024-07-28T14:35:38Z</time>
    </trkpt>
    <trkpt lat="50.9539713" lon="6.9108569">
      <time>2024-07-28T14:35:39Z</time>
    </trkpt>
    <trkpt lat="50.9540518" lon="6.9107153">
      <time>2024-07-28T14:35:41Z</time>
    </trkpt>
    <trkpt lat="50.9540942" lon="6.9106497">
      <time>2024-07-28T14:35:42Z</time>
    </trkpt>
    <trkpt lat="50.9542599" lon="6.9103713">
      <time>2024-07-28T14:35:46Z</time>
    </trkpt>
    <trkpt lat="50.9542927" lon="6.9102975">
      <time>2024-07-28T14:35:47Z</time>
    </trkpt>
    <trkpt lat="50.9543216" lon="6.9102264">
      <time>2024-07-28T14:35:48Z</time>
    </trkpt>
    <trkpt lat="50.9543852" lon="6.9100812">
      <time>2024-07-28T14:35:51Z</time>
    </trkpt>
    <trkpt lat="50.9544264" lon="6.9100043">
      <time>2024-07-28T14:35:54Z</time>
    </trkpt>
    <trkpt lat="50.9544407" lon="6.9099919">
      <time>2024-07-28T14:35:55Z</time>
    </trkpt>
    <trkpt lat="50.9545300" lon="6.9098670">
      <time>2024-07-28T14:35:59Z</time>
    </trkpt>
    <trkpt lat="50.9546511" lon="6.9095899">
      <time>2024-07-28T14:36:04Z</time>
    </trkpt>
    <trkpt lat="50.9547835" lon="6.9092895">
      <time>2024-07-28T14:36:09Z</time>
    </trkpt>
    <trkpt lat="50.9548187" lon="6.9091469">
      <time>2024-07-28T14:36:11Z</time>
    </trkpt>
    <trkpt lat="50.9550016" lon="6.9086222">
      <time>2024-07-28T14:36:18Z</time>
    </trkpt>
    <trkpt lat="50.9551478" lon="6.9081726">
      <time>2024-07-28T14:36:23Z</time>
    </trkpt>
    <trkpt lat="50.9552081" lon="6.9079934">
      <time>2024-07-28T14:36:25Z</time>
    </trkpt>
    <trkpt lat="50.9553544" lon="6.9075310">
      <time>2024-07-28T14:36:30Z</time>
    </trkpt>
    <trkpt lat="50.9554156" lon="6.9073414">
      <time>2024-07-28T14:36:32Z</time>
    </trkpt>
    <trkpt lat="50.9556098" lon="6.9066778">
      <time>2024-07-28T14:36:39Z</time>
    </trkpt>
    <trkpt lat="50.9557401" lon="6.9062936">
      <time>2024-07-28T14:36:44Z</time>
    </trkpt>
    <trkpt lat="50.9558612" lon="6.9059186">
      <time>2024-07-28T14:36:48Z</time>
    </trkpt>
    <trkpt lat="50.9559019" lon="6.9058322">
      <time>2024-07-28T14:36:49Z</time>
    </trkpt>
    <trkpt lat="50.9559434" lon="6.9057395">
      <time>2024-07-28T14:36:50Z</time>
    </trkpt>
    <trkpt lat="50.9560419" lon="6.9054395">
      <time>2024-07-28T14:36:53Z</time>
    </trkpt>
    <trkpt lat="50.9561895" lon="6.9049788">
      <time>2024-07-28T14:36:58Z</time>
    </trkpt>
    <trkpt lat="50.9562461" lon="6.9047936">
      <time>2024-07-28T14:37:00Z</time>
    </trkpt>
    <trkpt lat="50.9563634" lon="6.9044549">
      <time>2024-07-28T14:37:04Z</time>
    </trkpt>
    <trkpt lat="50.9564189" lon="6.9042786">
      <time>2024-07-28T14:37:06Z</time>
    </trkpt>
    <trkpt lat="50.9565080" lon="6.9040236">
      <time>2024-07-28T14:37:09Z</time>
    </trkpt>
    <trkpt lat="50.9565385" lon="6.9039404">
      <time>2024-07-28T14:37:10Z</time>
    </trkpt>
    <trkpt lat="50.9565716" lon="6.9038630">
      <time>2024-07-28T14:37:11Z</time>
    </trkpt>
    <trkpt lat="50.9567583" lon="6.9033342">
      <time>2024-07-28T14:37:18Z</time>
    </trkpt>
    <trkpt lat="50.9568613" lon="6.9030217">
      <time>2024-07-28T14:37:22Z</time>
    </trkpt>
    <trkpt lat="50.9568996" lon="6.9028272">
      <time>2024-07-28T14:37:24Z</time>
    </trkpt>
    <trkpt lat="50.9570628" lon="6.9021272">
      <time>2024-07-28T14:37:31Z</time>
    </trkpt>
    <trkpt lat="50.9571419" lon="6.9018295">
      <time>2024-07-28T14:37:34Z</time>
    </trkpt>
    <trkpt lat="50.9572488" lon="6.9015609">
      <time>2024-07-28T14:37:37Z</time>
    </trkpt>
    <trkpt lat="50.9574429" lon="6.9010891">
      <time>2024-07-28T14:37:42Z</time>
    </trkpt>
    <trkpt lat="50.9574942" lon="6.9009337">
      <time>2024-07-28T14:37:44Z</time>
    </trkpt>
    <trkpt lat="50.9575093" lon="6.9008849">
      <time>2024-07-28T14:37:45Z</time>
    </trkpt>
    <trkpt lat="50.9575248" lon="6.9007941">
      <time>2024-07-28T14:37:48Z</time>
    </trkpt>
    <trkpt lat="50.9575301" lon="6.9007642">
      <time>2024-07-28T14:37:53Z</time>
    </trkpt>
    <trkpt lat="50.9575555" lon="6.9006937">
      <time>2024-07-28T14:37:56Z</time>
    </trkpt>
    <trkpt lat="50.9575785" lon="6.9006445">
      <time>2024-07-28T14:37:57Z</time>
    </trkpt>
    <trkpt lat="50.9576936" lon="6.9003679">
      <time>2024-07-28T14:38:01Z</time>
    </trkpt>
    <trkpt lat="50.9577337" lon="6.9002780">
      <time>2024-07-28T14:38:02Z</time>
    </trkpt>
    <trkpt lat="50.9579020" lon="6.8999268">
      <time>2024-07-28T14:38:07Z</time>
    </trkpt>
    <trkpt lat="50.9579766" lon="6.8997803">
      <time>2024-07-28T14:38:09Z</time>
    </trkpt>
    <trkpt lat="50.9582191" lon="6.8992674">
      <time>2024-07-28T14:38:16Z</time>
    </trkpt>
    <trkpt lat="50.9584315" lon="6.8988077">
      <time>2024-07-28T14:38:22Z</time>
    </trkpt>
    <trkpt lat="50.9585827" lon="6.8985259">
      <time>2024-07-28T14:38:26Z</time>
    </trkpt>
    <trkpt lat="50.9586920" lon="6.8982957">
      <time>2024-07-28T14:38:29Z</time>
    </trkpt>
    <trkpt lat="50.9588324" lon="6.8980110">
      <time>2024-07-28T14:38:33Z</time>
    </trkpt>
    <trkpt lat="50.9588651" lon="6.8979281">
      <time>2024-07-28T14:38:34Z</time>
    </trkpt>
    <trkpt lat="50.9590849" lon="6.8974654">
      <time>2024-07-28T14:38:40Z</time>
    </trkpt>
    <trkpt lat="50.9591540" lon="6.8973037">
      <time>2024-07-28T14:38:42Z</time>
    </trkpt>
    <trkpt lat="50.9591884" lon="6.8972221">
      <time>2024-07-28T14:38:43Z</time>
    </trkpt>
    <trkpt lat="50.9593712" lon="6.8968548">
      <time>2024-07-28T14:38:48Z</time>
    </trkpt>
    <trkpt lat="50.9595463" lon="6.8964923">
      <time>2024-07-28T14:38:53Z</time>
    </trkpt>
    <trkpt lat="50.9596134" lon="6.8963492">
      <time>2024-07-28T14:38:55Z</time>
    </trkpt>
    <trkpt lat="50.9598195" lon="6.8959144">
      <time>2024-07-28T14:39:01Z</time>
    </trkpt>
    <trkpt lat="50.9598903" lon="6.8957585">
      <time>2024-07-28T14:39:03Z</time>
    </trkpt>
    <trkpt lat="50.9600762" lon="6.8953604">
      <time>2024-07-28T14:39:08Z</time>
    </trkpt>
    <trkpt lat="50.9601826" lon="6.8951206">
      <time>2024-07-28T14:39:11Z</time>
    </trkpt>
    <trkpt lat="50.9604093" lon="6.8946867">
      <time>2024-07-28T14:39:17Z</time>
    </trkpt>
    <trkpt lat="50.9604811" lon="6.8945294">
      <time>2024-07-28T14:39:19Z</time>
    </trkpt>
    <trkpt lat="50.9606968" lon="6.8940830">
      <time>2024-07-28T14:39:25Z</time>
    </trkpt>
    <trkpt lat="50.9607510" lon="6.8939261">
      <time>2024-07-28T14:39:27Z</time>
    </trkpt>
    <trkpt lat="50.9607824" lon="6.8938502">
      <time>2024-07-28T14:39:28Z</time>
    </trkpt>
    <trkpt lat="50.9608868" lon="6.8936304">
      <time>2024-07-28T14:39:31Z</time>
    </trkpt>
    <trkpt lat="50.9609248" lon="6.8935564">
      <time>2024-07-28T14:39:32Z</time>
    </trkpt>
    <trkpt lat="50.9612203" lon="6.8930095">
      <time>2024-07-28T14:39:40Z</time>
    </trkpt>
    <trkpt lat="50.9612459" lon="6.8928141">
      <time>2024-07-28T14:39:43Z</time>
    </trkpt>
    <trkpt lat="50.9611533" lon="6.8925586">
      <time>2024-07-28T14:39:47Z</time>
    </trkpt>
    <trkpt lat="50.9610797" lon="6.8923992">
      <time>2024-07-28T14:39:49Z</time>
    </trkpt>
    <trkpt lat="50.9609972" lon="6.8922553">
      <time>2024-07-28T14:39:51Z</time>
    </trkpt>
    <trkpt lat="50.9607977" lon="6.8918117">
      <time>2024-07-28T14:39:56Z</time>
    </trkpt>
    <trkpt lat="50.9607512" lon="6.8917299">
      <time>2024-07-28T14:39:57Z</time>
    </trkpt>
    <trkpt lat="50.9606504" lon="6.8915446">
      <time>2024-07-28T14:39:59Z</time>
    </trkpt>
    <trkpt lat="50.9605232" lon="6.8913196">
      <time>2024-07-28T14:40:02Z</time>
    </trkpt>
    <trkpt lat="50.9604878" lon="6.8912306">
      <time>2024-07-28T14:40:03Z</time>
    </trkpt>
    <trkpt lat="50.9602874" lon="6.8908007">
      <time>2024-07-28T14:40:08Z</time>
    </trkpt>
    <trkpt lat="50.9602102" lon="6.8904966">
      <time>2024-07-28T14:40:11Z</time>
    </trkpt>
    <trkpt lat="50.9601856" lon="6.8902484">
      <time>2024-07-28T14:40:13Z</time>
    </trkpt>
    <trkpt lat="50.9601905" lon="6.8899274">
      <time>2024-07-28T14:40:16Z</time>
    </trkpt>
    <trkpt lat="50.9602200" lon="6.8897080">
      <time>2024-07-28T14:40:18Z</time>
    </trkpt>
    <trkpt lat="50.9602526" lon="6.8894010">
      <time>2024-07-28T14:40:21Z</time>
    </trkpt>
    <trkpt lat="50.9602879" lon="6.8890859">
      <time>2024-07-28T14:40:24Z</time>
    </trkpt>
    <trkpt lat="50.9603455" lon="6.8882043">
      <time>2024-07-28T14:40:34Z</time>
    </trkpt>
    <trkpt lat="50.9603404" lon="6.8878369">
      <time>2024-07-28T14:40:38Z</time>
    </trkpt>
    <trkpt lat="50.9603296" lon="6.8877490">
      <time>2024-07-28T14:40:39Z</time>
    </trkpt>
    <trkpt lat="50.9602981" lon="6.8874626">
      <time>2024-07-28T14:40:42Z</time>
    </trkpt>
    <trkpt lat="50.9602642" lon="6.8872473">
      <time>2024-07-28T14:40:44Z</time>
    </trkpt>
    <trkpt lat="50.9601480" lon="6.8866557">
      <time>2024-07-28T14:40:51Z</time>
    </trkpt>
    <trkpt lat="50.9600798" lon="6.8864162">
      <time>2024-07-28T14:40:54Z</time>
    </trkpt>
    <trkpt lat="50.9599686" lon="6.8861880">
      <time>2024-07-28T14:40:57Z</time>
    </trkpt>
    <trkpt lat="50.9599308" lon="6.8861225">
      <time>2024-07-28T14:40:58Z</time>
    </trkpt>
    <trkpt lat="50.9598893" lon="6.8860023">
      <time>2024-07-28T14:41:00Z</time>
    </trkpt>
    <trkpt lat="50.9598964" lon="6.8859551">
      <time>2024-07-28T14:41:01Z</time>
    </trkpt>
    <trkpt lat="50.9600052" lon="6.8858910">
      <time>2024-07-28T14:41:05Z</time>
    </trkpt>
    <trkpt lat="50.9601245" lon="6.8858753">
      <time>2024-07-28T14:41:08Z</time>
    </trkpt>
    <trkpt lat="50.9601644" lon="6.8858573">
      <time>2024-07-28T14:41:09Z</time>
    </trkpt>
    <trkpt lat="50.9603028" lon="6.8858139">
      <time>2024-07-28T14:41:13Z</time>
    </trkpt>
    <trkpt lat="50.9604801" lon="6.8857786">
      <time>2024-07-28T14:41:18Z</time>
    </trkpt>
    <trkpt lat="50.9606574" lon="6.8857480">
      <time>2024-07-28T14:41:23Z</time>
    </trkpt>
    <trkpt lat="50.9608839" lon="6.8856996">
      <time>2024-07-28T14:41:28Z</time>
    </trkpt>
    <trkpt lat="50.9609758" lon="6.8856770">
      <time>2024-07-28T14:41:30Z</time>
    </trkpt>
    <trkpt lat="50.9611291" lon="6.8856172">
      <time>2024-07-28T14:41:34Z</time>
    </trkpt>
    <trkpt lat="50.9613079" lon="6.8855019">
      <time>2024-07-28T14:41:40Z</time>
    </trkpt>
    <trkpt lat="50.9613391" lon="6.8854777">
      <time>2024-07-28T14:41:41Z</time>
    </trkpt>
    <trkpt lat="50.9615454" lon="6.8852662">
      <time>2024-07-28T14:41:48Z</time>
    </trkpt>
    <trkpt lat="50.9616850" lon="6.8851227">
      <time>2024-07-28T14:41:53Z</time>
    </trkpt>
    <trkpt lat="50.9618628" lon="6.8850601">
      <time>2024-07-28T14:41:58Z</time>
    </trkpt>
    <trkpt lat="50.9619963" lon="6.8849366">
      <time>2024-07-28T14:42:03Z</time>
    </trkpt>
    <trkpt lat="50.9620325" lon="6.8846025">
      <time>2024-07-28T14:42:09Z</time>
    </trkpt>
    <trkpt lat="50.9620565" lon="6.8843830">
      <time>2024-07-28T14:42:12Z</time>
    </trkpt>
    <trkpt lat="50.9620670" lon="6.8843108">
      <time>2024-07-28T14:42:13Z</time>
    </trkpt>
    <trkpt lat="50.9620977" lon="6.8841681">
      <time>2024-07-28T14:42:15Z</time>
    </trkpt>
    <trkpt lat="50.9621214" lon="6.8840094">
      <time>2024-07-28T14:42:17Z</time>
    </trkpt>
    <trkpt lat="50.9621735" lon="6.8836027">
      <time>2024-07-28T14:42:22Z</time>
    </trkpt>
    <trkpt lat="50.9622170" lon="6.8830424">
      <time>2024-07-28T14:42:28Z</time>
    </trkpt>
    <trkpt lat="50.9622347" lon="6.8829371">
      <time>2024-07-28T14:42:29Z</time>
    </trkpt>
    <trkpt lat="50.9622852" lon="6.8825260">
      <time>2024-07-28T14:42:33Z</time>
    </trkpt>
    <trkpt lat="50.9624159" lon="6.8817419">
      <time>2024-07-28T14:42:41Z</time>
    </trkpt>
    <trkpt lat="50.9625052" lon="6.8812567">
      <time>2024-07-28T14:42:45Z</time>
    </trkpt>
    <trkpt lat="50.9626345" lon="6.8804334">
      <time>2024-07-28T14:42:52Z</time>
    </trkpt>
    <trkpt lat="50.9626685" lon="6.8802315">
      <time>2024-07-28T14:42:54Z</time>
    </trkpt>
    <trkpt lat="50.9627173" lon="6.8799314">
      <time>2024-07-28T14:42:57Z</time>
    </trkpt>
    <trkpt lat="50.9627320" lon="6.8798404">
      <time>2024-07-28T14:42:58Z</time>
    </trkpt>
    <trkpt lat="50.9628060" lon="6.8794676">
      <time>2024-07-28T14:43:02Z</time>
    </trkpt>
    <trkpt lat="50.9628286" lon="6.8792992">
      <time>2024-07-28T14:43:04Z</time>
    </trkpt>
    <trkpt lat="50.9628488" lon="6.8791496">
      <time>2024-07-28T14:43:06Z</time>
    </trkpt>
    <trkpt lat="50.9628868" lon="6.8790432">
      <time>2024-07-28T14:43:08Z</time>
    </trkpt>
    <trkpt lat="50.9629106" lon="6.8789824">
      <time>2024-07-28T14:43:09Z</time>
    </trkpt>
    <trkpt lat="50.9629790" lon="6.8788435">
      <time>2024-07-28T14:43:13Z</time>
    </trkpt>
    <trkpt lat="50.9630660" lon="6.8787056">
      <time>2024-07-28T14:43:17Z</time>
    </trkpt>
    <trkpt lat="50.9632154" lon="6.8785277">
      <time>2024-07-28T14:43:23Z</time>
    </trkpt>
    <trkpt lat="50.9632226" lon="6.8784938">
      <time>2024-07-28T14:43:24Z</time>
    </trkpt>
    <trkpt lat="50.9632665" lon="6.8784329">
      <time>2024-07-28T14:43:27Z</time>
    </trkpt>
    <trkpt lat="50.9633109" lon="6.8784011">
      <time>2024-07-28T14:43:29Z</time>
    </trkpt>
    <trkpt lat="50.9634908" lon="6.8783121">
      <time>2024-07-28T14:43:35Z</time>
    </trkpt>
    <trkpt lat="50.9636114" lon="6.8782136">
      <time>2024-07-28T14:43:39Z</time>
    </trkpt>
    <trkpt lat="50.9636331" lon="6.8781894">
      <time>2024-07-28T14:43:40Z</time>
    </trkpt>
    <trkpt lat="50.9636542" lon="6.8781667">
      <time>2024-07-28T14:43:41Z</time>
    </trkpt>
    <trkpt lat="50.9636859" lon="6.8781275">
      <time>2024-07-28T14:43:43Z</time>
    </trkpt>
    <trkpt lat="50.9636919" lon="6.8780866">
      <time>2024-07-28T14:43:44Z</time>
    </trkpt>
    <trkpt lat="50.9637042" lon="6.8780798">
      <time>2024-07-28T14:43:45Z</time>
    </trkpt>
    <trkpt lat="50.9637232" lon="6.8780687">
      <time>2024-07-28T14:43:47Z</time>
    </trkpt>
    <trkpt lat="50.9637302" lon="6.8780340">
      <time>2024-07-28T14:43:48Z</time>
    </trkpt>
    <trkpt lat="50.9637415" lon="6.8779093">
      <time>2024-07-28T14:43:52Z</time>
    </trkpt>
    <trkpt lat="50.9637253" lon="6.8778912">
      <time>2024-07-28T14:43:53Z</time>
    </trkpt>
    <trkpt lat="50.9636442" lon="6.8778206">
      <time>2024-07-28T14:43:57Z</time>
    </trkpt>
    <trkpt lat="50.9636075" lon="6.8777613">
      <time>2024-07-28T14:43:59Z</time>
    </trkpt>
    <trkpt lat="50.9634534" lon="6.8774751">
      <time>2024-07-28T14:44:08Z</time>
    </trkpt>
    <trkpt lat="50.9634262" lon="6.8773842">
      <time>2024-07-28T14:44:11Z</time>
    </trkpt>
    <trkpt lat="50.9634314" lon="6.8773618">
      <time>2024-07-28T14:44:12Z</time>
    </trkpt>
    <trkpt lat="50.9634401" lon="6.8773417">
      <time>2024-07-28T14:44:17Z</time>
    </trkpt>
  </trkseg></trk>
</gpx>
