<?xml version="1.0" encoding="UTF-8"?>
<gpx version="1.1" creator="Diary FIT converter" xmlns="http://www.topografix.com/GPX/1/1">
  <trk><name>Cycling</name><trkseg>
    <trkpt lat="50.8970253" lon="7.0105898">
      <time>2025-06-14T18:02:50Z</time>
    </trkpt>
    <trkpt lat="50.8970576" lon="7.0102475">
      <time>2025-06-14T18:02:55Z</time>
    </trkpt>
    <trkpt lat="50.8971144" lon="7.0098067">
      <time>2025-06-14T18:03:00Z</time>
    </trkpt>
    <trkpt lat="50.8971292" lon="7.0097200">
      <time>2025-06-14T18:03:01Z</time>
    </trkpt>
    <trkpt lat="50.8971417" lon="7.0096330">
      <time>2025-06-14T18:03:02Z</time>
    </trkpt>
    <trkpt lat="50.8972449" lon="7.0088199">
      <time>2025-06-14T18:03:11Z</time>
    </trkpt>
    <trkpt lat="50.8973609" lon="7.0080621">
      <time>2025-06-14T18:03:19Z</time>
    </trkpt>
    <trkpt lat="50.8974368" lon="7.0075027">
      <time>2025-06-14T18:03:25Z</time>
    </trkpt>
    <trkpt lat="50.8974621" lon="7.0073243">
      <time>2025-06-14T18:03:27Z</time>
    </trkpt>
    <trkpt lat="50.8975579" lon="7.0065986">
      <time>2025-06-14T18:03:35Z</time>
    </trkpt>
    <trkpt lat="50.8975835" lon="7.0064229">
      <time>2025-06-14T18:03:37Z</time>
    </trkpt>
    <trkpt lat="50.8976582" lon="7.0057190">
      <time>2025-06-14T18:03:45Z</time>
    </trkpt>
    <trkpt lat="50.8976628" lon="7.0056274">
      <time>2025-06-14T18:03:46Z</time>
    </trkpt>
    <trkpt lat="50.8977086" lon="7.0050628">
      <time>2025-06-14T18:03:52Z</time>
    </trkpt>
    <trkpt lat="50.8977537" lon="7.0044215">
      <time>2025-06-14T18:03:59Z</time>
    </trkpt>
    <trkpt lat="50.8977097" lon="7.0042961">
      <time>2025-06-14T18:04:01Z</time>
    </trkpt>
    <trkpt lat="50.8976666" lon="7.0042742">
      <time>2025-06-14T18:04:02Z</time>
    </trkpt>
    <trkpt lat="50.8976186" lon="7.0042645">
      <time>2025-06-14T18:04:03Z</time>
    </trkpt>
    <trkpt lat="50.8974083" lon="7.0042103">
      <time>2025-06-14T18:04:07Z</time>
    </trkpt>
    <trkpt lat="50.8972664" lon="7.0041563">
      <time>2025-06-14T18:04:10Z</time>
    </trkpt>
    <trkpt lat="50.8972058" lon="7.0040360">
      <time>2025-06-14T18:04:12Z</time>
    </trkpt>
    <trkpt lat="50.8972222" lon="7.0038567">
      <time>2025-06-14T18:04:14Z</time>
    </trkpt>
    <trkpt lat="50.8972432" lon="7.0037707">
      <time>2025-06-14T18:04:15Z</time>
    </trkpt>
    <trkpt lat="50.8973298" lon="7.0032415">
      <time>2025-06-14T18:04:21Z</time>
    </trkpt>
    <trkpt lat="50.8973312" lon="7.0031520">
      <time>2025-06-14T18:04:22Z</time>
    </trkpt>
    <trkpt lat="50.8973400" lon="7.0030672">
      <time>2025-06-14T18:04:23Z</time>
    </trkpt>
    <trkpt lat="50.8973854" lon="7.0029150">
      <time>2025-06-14T18:04:25Z</time>
    </trkpt>
    <trkpt lat="50.8974141" lon="7.0028405">
      <time>2025-06-14T18:04:26Z</time>
    </trkpt>
    <trkpt lat="50.8974351" lon="7.0027615">
      <time>2025-06-14T18:04:27Z</time>
    </trkpt>
    <trkpt lat="50.8974737" lon="7.0025004">
      <time>2025-06-14T18:04:30Z</time>
    </trkpt>
    <trkpt lat="50.8974926" lon="7.0024246">
      <time>2025-06-14T18:04:31Z</time>
    </trkpt>
    <trkpt lat="50.8975284" lon="7.0021747">
      <time>2025-06-14T18:04:34Z</time>
    </trkpt>
    <trkpt lat="50.8975424" lon="7.0020903">
      <time>2025-06-14T18:04:35Z</time>
    </trkpt>
    <trkpt lat="50.8975979" lon="7.0018470">
      <time>2025-06-14T18:04:38Z</time>
    </trkpt>
    <trkpt lat="50.8976701" lon="7.0017083">
      <time>2025-06-14T18:04:40Z</time>
    </trkpt>
    <trkpt lat="50.8977876" lon="7.0015372">
      <time>2025-06-14T18:04:43Z</time>
    </trkpt>
    <trkpt lat="50.8978139" lon="7.0013875">
      <time>2025-06-14T18:04:45Z</time>
    </trkpt>
    <trkpt lat="50.8979245" lon="7.0007416">
      <time>2025-06-14T18:04:53Z</time>
    </trkpt>
    <trkpt lat="50.8979441" lon="7.0006565">
      <time>2025-06-14T18:04:54Z</time>
    </trkpt>
    <trkpt lat="50.8979928" lon="7.0005075">
      <time>2025-06-14T18:04:56Z</time>
    </trkpt>
    <trkpt lat="50.8980380" lon="7.0004575">
      <time>2025-06-14T18:04:57Z</time>
    </trkpt>
    <trkpt lat="50.8980926" lon="7.0004471">
      <time>2025-06-14T18:04:58Z</time>
    </trkpt>
    <trkpt lat="50.8981939" lon="7.0005163">
      <time>2025-06-14T18:05:00Z</time>
    </trkpt>
    <trkpt lat="50.8983383" lon="7.0006273">
      <time>2025-06-14T18:05:03Z</time>
    </trkpt>
    <trkpt lat="50.8984400" lon="7.0005769">
      <time>2025-06-14T18:05:05Z</time>
    </trkpt>
    <trkpt lat="50.8984850" lon="7.0004384">
      <time>2025-06-14T18:05:07Z</time>
    </trkpt>
    <trkpt lat="50.8985012" lon="7.0003552">
      <time>2025-06-14T18:05:08Z</time>
    </trkpt>
    <trkpt lat="50.8986622" lon="6.9997118">
      <time>2025-06-14T18:05:16Z</time>
    </trkpt>
    <trkpt lat="50.8988336" lon="6.9991874">
      <time>2025-06-14T18:05:23Z</time>
    </trkpt>
    <trkpt lat="50.8990602" lon="6.9985852">
      <time>2025-06-14T18:05:31Z</time>
    </trkpt>
    <trkpt lat="50.8992695" lon="6.9980526">
      <time>2025-06-14T18:05:38Z</time>
    </trkpt>
    <trkpt lat="50.8995175" lon="6.9974251">
      <time>2025-06-14T18:05:46Z</time>
    </trkpt>
    <trkpt lat="50.8997833" lon="6.9967504">
      <time>2025-06-14T18:05:55Z</time>
    </trkpt>
    <trkpt lat="50.8999907" lon="6.9962287">
      <time>2025-06-14T18:06:02Z</time>
    </trkpt>
    <trkpt lat="50.9002071" lon="6.9957307">
      <time>2025-06-14T18:06:09Z</time>
    </trkpt>
    <trkpt lat="50.9002916" lon="6.9955072">
      <time>2025-06-14T18:06:12Z</time>
    </trkpt>
    <trkpt lat="50.9004389" lon="6.9951581">
      <time>2025-06-14T18:06:17Z</time>
    </trkpt>
    <trkpt lat="50.9006547" lon="6.9946813">
      <time>2025-06-14T18:06:24Z</time>
    </trkpt>
    <trkpt lat="50.9008174" lon="6.9943073">
      <time>2025-06-14T18:06:29Z</time>
    </trkpt>
    <trkpt lat="50.9008494" lon="6.9942305">
      <time>2025-06-14T18:06:30Z</time>
    </trkpt>
    <trkpt lat="50.9010037" lon="6.9938852">
      <time>2025-06-14T18:06:35Z</time>
    </trkpt>
    <trkpt lat="50.9011730" lon="6.9934923">
      <time>2025-06-14T18:06:40Z</time>
    </trkpt>
    <trkpt lat="50.9012413" lon="6.9933569">
      <time>2025-06-14T18:06:42Z</time>
    </trkpt>
    <trkpt lat="50.9013340" lon="6.9931983">
      <time>2025-06-14T18:06:45Z</time>
    </trkpt>
    <trkpt lat="50.9014085" lon="6.9930670">
      <time>2025-06-14T18:06:48Z</time>
    </trkpt>
    <trkpt lat="50.9015002" lon="6.9929518">
      <time>2025-06-14T18:06:51Z</time>
    </trkpt>
    <trkpt lat="50.9015321" lon="6.9928888">
      <time>2025-06-14T18:06:52Z</time>
    </trkpt>
    <trkpt lat="50.9016911" lon="6.9924596">
      <time>2025-06-14T18:06:55Z</time>
    </trkpt>
    <trkpt lat="50.9017861" lon="6.9923296">
      <time>2025-06-14T18:06:57Z</time>
    </trkpt>
    <trkpt lat="50.9018411" lon="6.9922908">
      <time>2025-06-14T18:06:58Z</time>
    </trkpt>
    <trkpt lat="50.9018938" lon="6.9922672">
      <time>2025-06-14T18:06:59Z</time>
    </trkpt>
    <trkpt lat="50.9019956" lon="6.9922972">
      <time>2025-06-14T18:07:01Z</time>
    </trkpt>
    <trkpt lat="50.9020843" lon="6.9923793">
      <time>2025-06-14T18:07:03Z</time>
    </trkpt>
    <trkpt lat="50.9021337" lon="6.9924306">
      <time>2025-06-14T18:07:04Z</time>
    </trkpt>
    <trkpt lat="50.9024282" lon="6.9927456">
      <time>2025-06-14T18:07:10Z</time>
    </trkpt>
    <trkpt lat="50.9026811" lon="6.9930310">
      <time>2025-06-14T18:07:15Z</time>
    </trkpt>
    <trkpt lat="50.9027311" lon="6.9930778">
      <time>2025-06-14T18:07:16Z</time>
    </trkpt>
    <trkpt lat="50.9028280" lon="6.9931814">
      <time>2025-06-14T18:07:18Z</time>
    </trkpt>
    <trkpt lat="50.9028648" lon="6.9933313">
      <time>2025-06-14T18:07:20Z</time>
    </trkpt>
    <trkpt lat="50.9029121" lon="6.9934320">
      <time>2025-06-14T18:07:22Z</time>
    </trkpt>
    <trkpt lat="50.9029751" lon="6.9935126">
      <time>2025-06-14T18:07:24Z</time>
    </trkpt>
    <trkpt lat="50.9030002" lon="6.9935601">
      <time>2025-06-14T18:07:25Z</time>
    </trkpt>
    <trkpt lat="50.9030798" lon="6.9936956">
      <time>2025-06-14T18:07:28Z</time>
    </trkpt>
    <trkpt lat="50.9031084" lon="6.9937397">
      <time>2025-06-14T18:07:29Z</time>
    </trkpt>
    <trkpt lat="50.9031851" lon="6.9938686">
      <time>2025-06-14T18:07:32Z</time>
    </trkpt>
    <trkpt lat="50.9033063" lon="6.9940414">
      <time>2025-06-14T18:07:36Z</time>
    </trkpt>
    <trkpt lat="50.9033392" lon="6.9940751">
      <time>2025-06-14T18:07:37Z</time>
    </trkpt>
    <trkpt lat="50.9033867" lon="6.9942142">
      <time>2025-06-14T18:07:40Z</time>
    </trkpt>
    <trkpt lat="50.9033341" lon="6.9942711">
      <time>2025-06-14T18:07:42Z</time>
    </trkpt>
    <trkpt lat="50.9033033" lon="6.9942541">
      <time>2025-06-14T18:07:43Z</time>
    </trkpt>
    <trkpt lat="50.9032789" lon="6.9942246">
      <time>2025-06-14T18:07:44Z</time>
    </trkpt>
    <trkpt lat="50.9032551" lon="6.9941940">
      <time>2025-06-14T18:07:45Z</time>
    </trkpt>
    <trkpt lat="50.9032054" lon="6.9941300">
      <time>2025-06-14T18:07:47Z</time>
    </trkpt>
    <trkpt lat="50.9031749" lon="6.9941048">
      <time>2025-06-14T18:07:48Z</time>
    </trkpt>
    <trkpt lat="50.9031118" lon="6.9940408">
      <time>2025-06-14T18:07:50Z</time>
    </trkpt>
    <trkpt lat="50.9030341" lon="6.9939446">
      <time>2025-06-14T18:07:53Z</time>
    </trkpt>
    <trkpt lat="50.9029838" lon="6.9938914">
      <time>2025-06-14T18:07:55Z</time>
    </trkpt>
    <trkpt lat="50.9028729" lon="6.9937685">
      <time>2025-06-14T18:07:59Z</time>
    </trkpt>
    <trkpt lat="50.9027992" lon="6.9936900">
      <time>2025-06-14T18:08:02Z</time>
    </trkpt>
    <trkpt lat="50.9027510" lon="6.9936319">
      <time>2025-06-14T18:08:04Z</time>
    </trkpt>
    <trkpt lat="50.9026340" lon="6.9934801">
      <time>2025-06-14T18:08:09Z</time>
    </trkpt>
    <trkpt lat="50.9026091" lon="6.9934511">
      <time>2025-06-14T18:08:10Z</time>
    </trkpt>
    <trkpt lat="50.9024628" lon="6.9932756">
      <time>2025-06-14T18:08:16Z</time>
    </trkpt>
    <trkpt lat="50.9024087" lon="6.9932297">
      <time>2025-06-14T18:08:18Z</time>
    </trkpt>
    <trkpt lat="50.9021443" lon="6.9929965">
      <time>2025-06-14T18:08:26Z</time>
    </trkpt>
    <trkpt lat="50.9020020" lon="6.9928399">
      <time>2025-06-14T18:08:30Z</time>
    </trkpt>
    <trkpt lat="50.9018916" lon="6.9927202">
      <time>2025-06-14T18:08:33Z</time>
    </trkpt>
    <trkpt lat="50.9015233" lon="6.9922908">
      <time>2025-06-14T18:08:43Z</time>
    </trkpt>
    <trkpt lat="50.9013692" lon="6.9921104">
      <time>2025-06-14T18:08:47Z</time>
    </trkpt>
    <trkpt lat="50.9012456" lon="6.9919729">
      <time>2025-06-14T18:08:50Z</time>
    </trkpt>
    <trkpt lat="50.9011221" lon="6.9918318">
      <time>2025-06-14T18:08:53Z</time>
    </trkpt>
    <trkpt lat="50.9010830" lon="6.9917779">
      <time>2025-06-14T18:08:54Z</time>
    </trkpt>
    <trkpt lat="50.9007377" lon="6.9913726">
      <time>2025-06-14T18:09:02Z</time>
    </trkpt>
    <trkpt lat="50.9002645" lon="6.9908090">
      <time>2025-06-14T18:09:13Z</time>
    </trkpt>
    <trkpt lat="50.9002220" lon="6.9907636">
      <time>2025-06-14T18:09:14Z</time>
    </trkpt>
    <trkpt lat="50.8999994" lon="6.9905176">
      <time>2025-06-14T18:09:19Z</time>
    </trkpt>
    <trkpt lat="50.8997677" lon="6.9902504">
      <time>2025-06-14T18:09:24Z</time>
    </trkpt>
    <trkpt lat="50.8995916" lon="6.9900340">
      <time>2025-06-14T18:09:28Z</time>
    </trkpt>
    <trkpt lat="50.8991317" lon="6.9895023">
      <time>2025-06-14T18:09:38Z</time>
    </trkpt>
    <trkpt lat="50.8988036" lon="6.9891149">
      <time>2025-06-14T18:09:45Z</time>
    </trkpt>
    <trkpt lat="50.8985656" lon="6.9888336">
      <time>2025-06-14T18:09:50Z</time>
    </trkpt>
    <trkpt lat="50.8985158" lon="6.9887859">
      <time>2025-06-14T18:09:51Z</time>
    </trkpt>
    <trkpt lat="50.8984188" lon="6.9886954">
      <time>2025-06-14T18:09:53Z</time>
    </trkpt>
    <trkpt lat="50.8983771" lon="6.9886265">
      <time>2025-06-14T18:09:54Z</time>
    </trkpt>
    <trkpt lat="50.8982396" lon="6.9884606">
      <time>2025-06-14T18:09:57Z</time>
    </trkpt>
    <trkpt lat="50.8979969" lon="6.9881801">
      <time>2025-06-14T18:10:02Z</time>
    </trkpt>
    <trkpt lat="50.8976140" lon="6.9877199">
      <time>2025-06-14T18:10:10Z</time>
    </trkpt>
    <trkpt lat="50.8973659" lon="6.9873505">
      <time>2025-06-14T18:10:16Z</time>
    </trkpt>
    <trkpt lat="50.8973204" lon="6.9873002">
      <time>2025-06-14T18:10:17Z</time>
    </trkpt>
    <trkpt lat="50.8970405" lon="6.9870199">
      <time>2025-06-14T18:10:24Z</time>
    </trkpt>
    <trkpt lat="50.8969763" lon="6.9868882">
      <time>2025-06-14T18:10:27Z</time>
    </trkpt>
    <trkpt lat="50.8969846" lon="6.9868308">
      <time>2025-06-14T18:10:28Z</time>
    </trkpt>
    <trkpt lat="50.8970068" lon="6.9867717">
      <time>2025-06-14T18:10:29Z</time>
    </trkpt>
    <trkpt lat="50.8970415" lon="6.9867425">
      <time>2025-06-14T18:10:30Z</time>
    </trkpt>
    <trkpt lat="50.8970884" lon="6.9867697">
      <time>2025-06-14T18:10:31Z</time>
    </trkpt>
    <trkpt lat="50.8971831" lon="6.9868776">
      <time>2025-06-14T18:10:33Z</time>
    </trkpt>
    <trkpt lat="50.8972384" lon="6.9869438">
      <time>2025-06-14T18:10:34Z</time>
    </trkpt>
    <trkpt lat="50.8972920" lon="6.9870127">
      <time>2025-06-14T18:10:35Z</time>
    </trkpt>
    <trkpt lat="50.8973513" lon="6.9870813">
      <time>2025-06-14T18:10:36Z</time>
    </trkpt>
    <trkpt lat="50.8975031" lon="6.9872947">
      <time>2025-06-14T18:10:39Z</time>
    </trkpt>
    <trkpt lat="50.8975509" lon="6.9874458">
      <time>2025-06-14T18:10:41Z</time>
    </trkpt>
    <trkpt lat="50.8975927" lon="6.9874862">
      <time>2025-06-14T18:10:42Z</time>
    </trkpt>
    <trkpt lat="50.8976443" lon="6.9875248">
      <time>2025-06-14T18:10:43Z</time>
    </trkpt>
    <trkpt lat="50.8976988" lon="6.9875629">
      <time>2025-06-14T18:10:44Z</time>
    </trkpt>
    <trkpt lat="50.8977474" lon="6.9876157">
      <time>2025-06-14T18:10:45Z</time>
    </trkpt>
    <trkpt lat="50.8977975" lon="6.9876578">
      <time>2025-06-14T18:10:46Z</time>
    </trkpt>
    <trkpt lat="50.8978425" lon="6.9877337">
      <time>2025-06-14T18:10:47Z</time>
    </trkpt>
    <trkpt lat="50.8979095" lon="6.9878426">
      <time>2025-06-14T18:10:49Z</time>
    </trkpt>
    <trkpt lat="50.8979572" lon="6.9878580">
      <time>2025-06-14T18:10:50Z</time>
    </trkpt>
    <trkpt lat="50.8979978" lon="6.9879305">
      <time>2025-06-14T18:10:52Z</time>
    </trkpt>
    <trkpt lat="50.8980195" lon="6.9880174">
      <time>2025-06-14T18:10:54Z</time>
    </trkpt>
    <trkpt lat="50.8980562" lon="6.9880490">
      <time>2025-06-14T18:10:55Z</time>
    </trkpt>
    <trkpt lat="50.8981069" lon="6.9880664">
      <time>2025-06-14T18:10:56Z</time>
    </trkpt>
    <trkpt lat="50.8981748" lon="6.9879928">
      <time>2025-06-14T18:10:58Z</time>
    </trkpt>
    <trkpt lat="50.8982279" lon="6.9878898">
      <time>2025-06-14T18:11:00Z</time>
    </trkpt>
    <trkpt lat="50.8982717" lon="6.9878378">
      <time>2025-06-14T18:11:01Z</time>
    </trkpt>
    <trkpt lat="50.8985522" lon="6.9875268">
      <time>2025-06-14T18:11:06Z</time>
    </trkpt>
    <trkpt lat="50.8986138" lon="6.9874440">
      <time>2025-06-14T18:11:07Z</time>
    </trkpt>
    <trkpt lat="50.8987375" lon="6.9872637">
      <time>2025-06-14T18:11:09Z</time>
    </trkpt>
    <trkpt lat="50.8991579" lon="6.9866278">
      <time>2025-06-14T18:11:16Z</time>
    </trkpt>
    <trkpt lat="50.8993927" lon="6.9862787">
      <time>2025-06-14T18:11:20Z</time>
    </trkpt>
    <trkpt lat="50.8996883" lon="6.9858554">
      <time>2025-06-14T18:11:25Z</time>
    </trkpt>
    <trkpt lat="50.8998662" lon="6.9856087">
      <time>2025-06-14T18:11:28Z</time>
    </trkpt>
    <trkpt lat="50.9001985" lon="6.9851613">
      <time>2025-06-14T18:11:34Z</time>
    </trkpt>
    <trkpt lat="50.9004604" lon="6.9850170">
      <time>2025-06-14T18:11:38Z</time>
    </trkpt>
    <trkpt lat="50.9005901" lon="6.9849490">
      <time>2025-06-14T18:11:40Z</time>
    </trkpt>
    <trkpt lat="50.9007101" lon="6.9848326">
      <time>2025-06-14T18:11:42Z</time>
    </trkpt>
    <trkpt lat="50.9008691" lon="6.9846454">
      <time>2025-06-14T18:11:46Z</time>
    </trkpt>
    <trkpt lat="50.9009000" lon="6.9845994">
      <time>2025-06-14T18:11:50Z</time>
    </trkpt>
    <trkpt lat="50.9008991" lon="6.9845993">
      <time>2025-06-14T18:11:51Z</time>
    </trkpt>
    <trkpt lat="50.9009389" lon="6.9845532">
      <time>2025-06-14T18:12:04Z</time>
    </trkpt>
    <trkpt lat="50.9009663" lon="6.9845164">
      <time>2025-06-14T18:12:05Z</time>
    </trkpt>
    <trkpt lat="50.9010508" lon="6.9844002">
      <time>2025-06-14T18:12:08Z</time>
    </trkpt>
    <trkpt lat="50.9011860" lon="6.9842265">
      <time>2025-06-14T18:12:12Z</time>
    </trkpt>
    <trkpt lat="50.9012270" lon="6.9841713">
      <time>2025-06-14T18:12:13Z</time>
    </trkpt>
    <trkpt lat="50.9014490" lon="6.9838997">
      <time>2025-06-14T18:12:18Z</time>
    </trkpt>
    <trkpt lat="50.9015435" lon="6.9837726">
      <time>2025-06-14T18:12:20Z</time>
    </trkpt>
    <trkpt lat="50.9019152" lon="6.9832888">
      <time>2025-06-14T18:12:28Z</time>
    </trkpt>
    <trkpt lat="50.9023404" lon="6.9827625">
      <time>2025-06-14T18:12:37Z</time>
    </trkpt>
    <trkpt lat="50.9026776" lon="6.9823552">
      <time>2025-06-14T18:12:44Z</time>
    </trkpt>
    <trkpt lat="50.9031171" lon="6.9818445">
      <time>2025-06-14T18:12:53Z</time>
    </trkpt>
    <trkpt lat="50.9032123" lon="6.9817301">
      <time>2025-06-14T18:12:55Z</time>
    </trkpt>
    <trkpt lat="50.9036530" lon="6.9812350">
      <time>2025-06-14T18:13:04Z</time>
    </trkpt>
    <trkpt lat="50.9037048" lon="6.9811788">
      <time>2025-06-14T18:13:05Z</time>
    </trkpt>
    <trkpt lat="50.9040966" lon="6.9807373">
      <time>2025-06-14T18:13:13Z</time>
    </trkpt>
    <trkpt lat="50.9044023" lon="6.9804197">
      <time>2025-06-14T18:13:19Z</time>
    </trkpt>
    <trkpt lat="50.9045976" lon="6.9802113">
      <time>2025-06-14T18:13:23Z</time>
    </trkpt>
    <trkpt lat="50.9048343" lon="6.9799476">
      <time>2025-06-14T18:13:28Z</time>
    </trkpt>
    <trkpt lat="50.9052938" lon="6.9794600">
      <time>2025-06-14T18:13:37Z</time>
    </trkpt>
    <trkpt lat="50.9057416" lon="6.9790012">
      <time>2025-06-14T18:13:46Z</time>
    </trkpt>
    <trkpt lat="50.9060880" lon="6.9786566">
      <time>2025-06-14T18:13:53Z</time>
    </trkpt>
    <trkpt lat="50.9064997" lon="6.9782883">
      <time>2025-06-14T18:14:01Z</time>
    </trkpt>
    <trkpt lat="50.9068510" lon="6.9779582">
      <time>2025-06-14T18:14:08Z</time>
    </trkpt>
    <trkpt lat="50.9070917" lon="6.9777268">
      <time>2025-06-14T18:14:13Z</time>
    </trkpt>
    <trkpt lat="50.9071422" lon="6.9776823">
      <time>2025-06-14T18:14:14Z</time>
    </trkpt>
    <trkpt lat="50.9075327" lon="6.9773259">
      <time>2025-06-14T18:14:22Z</time>
    </trkpt>
    <trkpt lat="50.9079563" lon="6.9769506">
      <time>2025-06-14T18:14:31Z</time>
    </trkpt>
    <trkpt lat="50.9082420" lon="6.9767001">
      <time>2025-06-14T18:14:37Z</time>
    </trkpt>
    <trkpt lat="50.9086448" lon="6.9763342">
      <time>2025-06-14T18:14:45Z</time>
    </trkpt>
    <trkpt lat="50.9089533" lon="6.9760733">
      <time>2025-06-14T18:14:51Z</time>
    </trkpt>
    <trkpt lat="50.9090059" lon="6.9760218">
      <time>2025-06-14T18:14:52Z</time>
    </trkpt>
    <trkpt lat="50.9094970" lon="6.9755864">
      <time>2025-06-14T18:15:01Z</time>
    </trkpt>
    <trkpt lat="50.9095520" lon="6.9755392">
      <time>2025-06-14T18:15:02Z</time>
    </trkpt>
    <trkpt lat="50.9100342" lon="6.9751270">
      <time>2025-06-14T18:15:11Z</time>
    </trkpt>
    <trkpt lat="50.9105270" lon="6.9747261">
      <time>2025-06-14T18:15:20Z</time>
    </trkpt>
    <trkpt lat="50.9110139" lon="6.9742990">
      <time>2025-06-14T18:15:29Z</time>
    </trkpt>
    <trkpt lat="50.9111259" lon="6.9742146">
      <time>2025-06-14T18:15:31Z</time>
    </trkpt>
    <trkpt lat="50.9115031" lon="6.9739222">
      <time>2025-06-14T18:15:38Z</time>
    </trkpt>
    <trkpt lat="50.9119206" lon="6.9735745">
      <time>2025-06-14T18:15:46Z</time>
    </trkpt>
    <trkpt lat="50.9120247" lon="6.9734911">
      <time>2025-06-14T18:15:48Z</time>
    </trkpt>
    <trkpt lat="50.9121223" lon="6.9733933">
      <time>2025-06-14T18:15:50Z</time>
    </trkpt>
    <trkpt lat="50.9121726" lon="6.9733455">
      <time>2025-06-14T18:15:51Z</time>
    </trkpt>
    <trkpt lat="50.9122686" lon="6.9732669">
      <time>2025-06-14T18:15:53Z</time>
    </trkpt>
    <trkpt lat="50.9124124" lon="6.9731559">
      <time>2025-06-14T18:15:56Z</time>
    </trkpt>
    <trkpt lat="50.9127842" lon="6.9728891">
      <time>2025-06-14T18:16:04Z</time>
    </trkpt>
    <trkpt lat="50.9128258" lon="6.9728617">
      <time>2025-06-14T18:16:05Z</time>
    </trkpt>
    <trkpt lat="50.9130062" lon="6.9727221">
      <time>2025-06-14T18:16:09Z</time>
    </trkpt>
    <trkpt lat="50.9130995" lon="6.9726545">
      <time>2025-06-14T18:16:11Z</time>
    </trkpt>
    <trkpt lat="50.9132069" lon="6.9726702">
      <time>2025-06-14T18:16:13Z</time>
    </trkpt>
    <trkpt lat="50.9132535" lon="6.9726534">
      <time>2025-06-14T18:16:14Z</time>
    </trkpt>
    <trkpt lat="50.9133441" lon="6.9726011">
      <time>2025-06-14T18:16:16Z</time>
    </trkpt>
    <trkpt lat="50.9134340" lon="6.9725521">
      <time>2025-06-14T18:16:18Z</time>
    </trkpt>
    <trkpt lat="50.9134783" lon="6.9725368">
      <time>2025-06-14T18:16:19Z</time>
    </trkpt>
    <trkpt lat="50.9136560" lon="6.9724595">
      <time>2025-06-14T18:16:23Z</time>
    </trkpt>
    <trkpt lat="50.9139513" lon="6.9723416">
      <time>2025-06-14T18:16:30Z</time>
    </trkpt>
    <trkpt lat="50.9139812" lon="6.9722645">
      <time>2025-06-14T18:16:32Z</time>
    </trkpt>
    <trkpt lat="50.9139818" lon="6.9722209">
      <time>2025-06-14T18:16:33Z</time>
    </trkpt>
    <trkpt lat="50.9139846" lon="6.9720210">
      <time>2025-06-14T18:16:38Z</time>
    </trkpt>
    <trkpt lat="50.9141249" lon="6.9718967">
      <time>2025-06-14T18:16:42Z</time>
    </trkpt>
    <trkpt lat="50.9144327" lon="6.9716711">
      <time>2025-06-14T18:16:49Z</time>
    </trkpt>
    <trkpt lat="50.9145113" lon="6.9716119">
      <time>2025-06-14T18:16:51Z</time>
    </trkpt>
    <trkpt lat="50.9145527" lon="6.9715847">
      <time>2025-06-14T18:16:52Z</time>
    </trkpt>
    <trkpt lat="50.9147428" lon="6.9714517">
      <time>2025-06-14T18:16:57Z</time>
    </trkpt>
    <trkpt lat="50.9150201" lon="6.9712816">
      <time>2025-06-14T18:17:04Z</time>
    </trkpt>
    <trkpt lat="50.9153114" lon="6.9710930">
      <time>2025-06-14T18:17:11Z</time>
    </trkpt>
    <trkpt lat="50.9156702" lon="6.9708666">
      <time>2025-06-14T18:17:20Z</time>
    </trkpt>
    <trkpt lat="50.9159784" lon="6.9706990">
      <time>2025-06-14T18:17:29Z</time>
    </trkpt>
    <trkpt lat="50.9161033" lon="6.9707052">
      <time>2025-06-14T18:17:32Z</time>
    </trkpt>
    <trkpt lat="50.9161698" lon="6.9706454">
      <time>2025-06-14T18:17:34Z</time>
    </trkpt>
    <trkpt lat="50.9163755" lon="6.9704819">
      <time>2025-06-14T18:17:40Z</time>
    </trkpt>
    <trkpt lat="50.9165876" lon="6.9703128">
      <time>2025-06-14T18:17:47Z</time>
    </trkpt>
    <trkpt lat="50.9168274" lon="6.9702397">
      <time>2025-06-14T18:17:54Z</time>
    </trkpt>
    <trkpt lat="50.9169095" lon="6.9702133">
      <time>2025-06-14T18:17:56Z</time>
    </trkpt>
    <trkpt lat="50.9170123" lon="6.9701220">
      <time>2025-06-14T18:17:59Z</time>
    </trkpt>
    <trkpt lat="50.9173063" lon="6.9699495">
      <time>2025-06-14T18:18:06Z</time>
    </trkpt>
    <trkpt lat="50.9175004" lon="6.9698216">
      <time>2025-06-14T18:18:10Z</time>
    </trkpt>
    <trkpt lat="50.9175982" lon="6.9697615">
      <time>2025-06-14T18:18:12Z</time>
    </trkpt>
    <trkpt lat="50.9176491" lon="6.9697431">
      <time>2025-06-14T18:18:13Z</time>
    </trkpt>
    <trkpt lat="50.9178588" lon="6.9696588">
      <time>2025-06-14T18:18:17Z</time>
    </trkpt>
    <trkpt lat="50.9180219" lon="6.9695742">
      <time>2025-06-14T18:18:20Z</time>
    </trkpt>
    <trkpt lat="50.9184950" lon="6.9693222">
      <time>2025-06-14T18:18:29Z</time>
    </trkpt>
    <trkpt lat="50.9188407" lon="6.9691345">
      <time>2025-06-14T18:18:36Z</time>
    </trkpt>
    <trkpt lat="50.9193096" lon="6.9688871">
      <time>2025-06-14T18:18:45Z</time>
    </trkpt>
    <trkpt lat="50.9196625" lon="6.9687106">
      <time>2025-06-14T18:18:52Z</time>
    </trkpt>
    <trkpt lat="50.9201528" lon="6.9684615">
      <time>2025-06-14T18:19:02Z</time>
    </trkpt>
    <trkpt lat="50.9206534" lon="6.9682421">
      <time>2025-06-14T18:19:12Z</time>
    </trkpt>
    <trkpt lat="50.9210424" lon="6.9680074">
      <time>2025-06-14T18:19:20Z</time>
    </trkpt>
    <trkpt lat="50.9213973" lon="6.9678194">
      <time>2025-06-14T18:19:27Z</time>
    </trkpt>
    <trkpt lat="50.9217569" lon="6.9676609">
      <time>2025-06-14T18:19:34Z</time>
    </trkpt>
    <trkpt lat="50.9219181" lon="6.9676023">
      <time>2025-06-14T18:19:37Z</time>
    </trkpt>
    <trkpt lat="50.9219945" lon="6.9675724">
      <time>2025-06-14T18:19:39Z</time>
    </trkpt>
    <trkpt lat="50.9219980" lon="6.9675248">
      <time>2025-06-14T18:19:40Z</time>
    </trkpt>
    <trkpt lat="50.9219794" lon="6.9674477">
      <time>2025-06-14T18:19:42Z</time>
    </trkpt>
    <trkpt lat="50.9219532" lon="6.9673664">
      <time>2025-06-14T18:19:44Z</time>
    </trkpt>
    <trkpt lat="50.9219113" lon="6.9672367">
      <time>2025-06-14T18:19:47Z</time>
    </trkpt>
    <trkpt lat="50.9219168" lon="6.9672068">
      <time>2025-06-14T18:19:48Z</time>
    </trkpt>
    <trkpt lat="50.9219272" lon="6.9671905">
      <time>2025-06-14T18:19:49Z</time>
    </trkpt>
    <trkpt lat="50.9220015" lon="6.9671519">
      <time>2025-06-14T18:19:52Z</time>
    </trkpt>
    <trkpt lat="50.9221774" lon="6.9670785">
      <time>2025-06-14T18:19:56Z</time>
    </trkpt>
    <trkpt lat="50.9223136" lon="6.9670169">
      <time>2025-06-14T18:19:59Z</time>
    </trkpt>
    <trkpt lat="50.9224030" lon="6.9669490">
      <time>2025-06-14T18:20:01Z</time>
    </trkpt>
    <trkpt lat="50.9224726" lon="6.9668466">
      <time>2025-06-14T18:20:03Z</time>
    </trkpt>
    <trkpt lat="50.9225783" lon="6.9667279">
      <time>2025-06-14T18:20:06Z</time>
    </trkpt>
    <trkpt lat="50.9226226" lon="6.9667191">
      <time>2025-06-14T18:20:07Z</time>
    </trkpt>
    <trkpt lat="50.9226616" lon="6.9667414">
      <time>2025-06-14T18:20:08Z</time>
    </trkpt>
    <trkpt lat="50.9227135" lon="6.9668077">
      <time>2025-06-14T18:20:10Z</time>
    </trkpt>
    <trkpt lat="50.9227436" lon="6.9668081">
      <time>2025-06-14T18:20:11Z</time>
    </trkpt>
    <trkpt lat="50.9227973" lon="6.9667484">
      <time>2025-06-14T18:20:13Z</time>
    </trkpt>
    <trkpt lat="50.9228234" lon="6.9666455">
      <time>2025-06-14T18:20:15Z</time>
    </trkpt>
    <trkpt lat="50.9228244" lon="6.9665786">
      <time>2025-06-14T18:20:16Z</time>
    </trkpt>
    <trkpt lat="50.9228155" lon="6.9665049">
      <time>2025-06-14T18:20:17Z</time>
    </trkpt>
    <trkpt lat="50.9227756" lon="6.9663597">
      <time>2025-06-14T18:20:19Z</time>
    </trkpt>
    <trkpt lat="50.9227522" lon="6.9662917">
      <time>2025-06-14T18:20:20Z</time>
    </trkpt>
    <trkpt lat="50.9226565" lon="6.9660114">
      <time>2025-06-14T18:20:24Z</time>
    </trkpt>
    <trkpt lat="50.9225641" lon="6.9657167">
      <time>2025-06-14T18:20:28Z</time>
    </trkpt>
    <trkpt lat="50.9225218" lon="6.9655699">
      <time>2025-06-14T18:20:30Z</time>
    </trkpt>
    <trkpt lat="50.9223686" lon="6.9650608">
      <time>2025-06-14T18:20:38Z</time>
    </trkpt>
    <trkpt lat="50.9223031" lon="6.9648197">
      <time>2025-06-14T18:20:42Z</time>
    </trkpt>
    <trkpt lat="50.9222533" lon="6.9646791">
      <time>2025-06-14T18:20:44Z</time>
    </trkpt>
    <trkpt lat="50.9222265" lon="6.9646112">
      <time>2025-06-14T18:20:45Z</time>
    </trkpt>
    <trkpt lat="50.9220665" lon="6.9641669">
      <time>2025-06-14T18:20:52Z</time>
    </trkpt>
    <trkpt lat="50.9219678" lon="6.9638476">
      <time>2025-06-14T18:20:58Z</time>
    </trkpt>
    <trkpt lat="50.9218446" lon="6.9634985">
      <time>2025-06-14T18:21:06Z</time>
    </trkpt>
    <trkpt lat="50.9217537" lon="6.9631488">
      <time>2025-06-14T18:21:11Z</time>
    </trkpt>
    <trkpt lat="50.9217402" lon="6.9630632">
      <time>2025-06-14T18:21:12Z</time>
    </trkpt>
    <trkpt lat="50.9217019" lon="6.9628232">
      <time>2025-06-14T18:21:15Z</time>
    </trkpt>
    <trkpt lat="50.9216588" lon="6.9625875">
      <time>2025-06-14T18:21:18Z</time>
    </trkpt>
    <trkpt lat="50.9215623" lon="6.9619528">
      <time>2025-06-14T18:21:26Z</time>
    </trkpt>
    <trkpt lat="50.9215363" lon="6.9618017">
      <time>2025-06-14T18:21:28Z</time>
    </trkpt>
    <trkpt lat="50.9214565" lon="6.9612560">
      <time>2025-06-14T18:21:36Z</time>
    </trkpt>
    <trkpt lat="50.9213567" lon="6.9606305">
      <time>2025-06-14T18:21:45Z</time>
    </trkpt>
    <trkpt lat="50.9212983" lon="6.9602434">
      <time>2025-06-14T18:21:51Z</time>
    </trkpt>
    <trkpt lat="50.9212961" lon="6.9602010">
      <time>2025-06-14T18:21:52Z</time>
    </trkpt>
    <trkpt lat="50.9212480" lon="6.9599387">
      <time>2025-06-14T18:21:58Z</time>
    </trkpt>
    <trkpt lat="50.9212364" lon="6.9596475">
      <time>2025-06-14T18:22:03Z</time>
    </trkpt>
    <trkpt lat="50.9212231" lon="6.9595813">
      <time>2025-06-14T18:22:04Z</time>
    </trkpt>
    <trkpt lat="50.9211678" lon="6.9594446">
      <time>2025-06-14T18:22:06Z</time>
    </trkpt>
    <trkpt lat="50.9211446" lon="6.9593699">
      <time>2025-06-14T18:22:07Z</time>
    </trkpt>
    <trkpt lat="50.9211388" lon="6.9592883">
      <time>2025-06-14T18:22:08Z</time>
    </trkpt>
    <trkpt lat="50.9211572" lon="6.9591265">
      <time>2025-06-14T18:22:10Z</time>
    </trkpt>
    <trkpt lat="50.9212002" lon="6.9589589">
      <time>2025-06-14T18:22:12Z</time>
    </trkpt>
    <trkpt lat="50.9212922" lon="6.9587303">
      <time>2025-06-14T18:22:15Z</time>
    </trkpt>
    <trkpt lat="50.9214485" lon="6.9583769">
      <time>2025-06-14T18:22:20Z</time>
    </trkpt>
    <trkpt lat="50.9214760" lon="6.9583058">
      <time>2025-06-14T18:22:21Z</time>
    </trkpt>
    <trkpt lat="50.9215327" lon="6.9581695">
      <time>2025-06-14T18:22:23Z</time>
    </trkpt>
    <trkpt lat="50.9217451" lon="6.9576512">
      <time>2025-06-14T18:22:31Z</time>
    </trkpt>
    <trkpt lat="50.9218306" lon="6.9574468">
      <time>2025-06-14T18:22:34Z</time>
    </trkpt>
    <trkpt lat="50.9220346" lon="6.9569806">
      <time>2025-06-14T18:22:41Z</time>
    </trkpt>
    <trkpt lat="50.9221006" lon="6.9568675">
      <time>2025-06-14T18:22:43Z</time>
    </trkpt>
    <trkpt lat="50.9223752" lon="6.9564626">
      <time>2025-06-14T18:22:50Z</time>
    </trkpt>
    <trkpt lat="50.9225988" lon="6.9560635">
      <time>2025-06-14T18:22:56Z</time>
    </trkpt>
    <trkpt lat="50.9229273" lon="6.9553270">
      <time>2025-06-14T18:23:05Z</time>
    </trkpt>
    <trkpt lat="50.9232088" lon="6.9546762">
      <time>2025-06-14T18:23:11Z</time>
    </trkpt>
    <trkpt lat="50.9233625" lon="6.9543333">
      <time>2025-06-14T18:23:14Z</time>
    </trkpt>
    <trkpt lat="50.9235510" lon="6.9539276">
      <time>2025-06-14T18:23:18Z</time>
    </trkpt>
    <trkpt lat="50.9235895" lon="6.9538482">
      <time>2025-06-14T18:23:19Z</time>
    </trkpt>
    <trkpt lat="50.9236936" lon="6.9536470">
      <time>2025-06-14T18:23:22Z</time>
    </trkpt>
    <trkpt lat="50.9238221" lon="6.9533593">
      <time>2025-06-14T18:23:26Z</time>
    </trkpt>
    <trkpt lat="50.9239050" lon="6.9531687">
      <time>2025-06-14T18:23:29Z</time>
    </trkpt>
    <trkpt lat="50.9239897" lon="6.9529527">
      <time>2025-06-14T18:23:34Z</time>
    </trkpt>
    <trkpt lat="50.9240148" lon="6.9528764">
      <time>2025-06-14T18:23:39Z</time>
    </trkpt>
    <trkpt lat="50.9240219" lon="6.9528545">
      <time>2025-06-14T18:23:43Z</time>
    </trkpt>
    <trkpt lat="50.9240543" lon="6.9527590">
      <time>2025-06-14T18:23:47Z</time>
    </trkpt>
    <trkpt lat="50.9240813" lon="6.9527068">
      <time>2025-06-14T18:23:48Z</time>
    </trkpt>
    <trkpt lat="50.9242086" lon="6.9524944">
      <time>2025-06-14T18:23:51Z</time>
    </trkpt>
    <trkpt lat="50.9242460" lon="6.9524010">
      <time>2025-06-14T18:23:52Z</time>
    </trkpt>
    <trkpt lat="50.9243342" lon="6.9521824">
      <time>2025-06-14T18:23:54Z</time>
    </trkpt>
    <trkpt lat="50.9243836" lon="6.9520657">
      <time>2025-06-14T18:23:55Z</time>
    </trkpt>
    <trkpt lat="50.9245425" lon="6.9516936">
      <time>2025-06-14T18:23:58Z</time>
    </trkpt>
    <trkpt lat="50.9247193" lon="6.9513140">
      <time>2025-06-14T18:24:01Z</time>
    </trkpt>
    <trkpt lat="50.9249597" lon="6.9507858">
      <time>2025-06-14T18:24:05Z</time>
    </trkpt>
    <trkpt lat="50.9251386" lon="6.9503931">
      <time>2025-06-14T18:24:08Z</time>
    </trkpt>
    <trkpt lat="50.9253502" lon="6.9498774">
      <time>2025-06-14T18:24:12Z</time>
    </trkpt>
    <trkpt lat="50.9255107" lon="6.9494952">
      <time>2025-06-14T18:24:15Z</time>
    </trkpt>
    <trkpt lat="50.9256056" lon="6.9492438">
      <time>2025-06-14T18:24:17Z</time>
    </trkpt>
    <trkpt lat="50.9257776" lon="6.9487890">
      <time>2025-06-14T18:24:21Z</time>
    </trkpt>
    <trkpt lat="50.9260771" lon="6.9480463">
      <time>2025-06-14T18:24:28Z</time>
    </trkpt>
    <trkpt lat="50.9261140" lon="6.9479548">
      <time>2025-06-14T18:24:29Z</time>
    </trkpt>
    <trkpt lat="50.9262479" lon="6.9475259">
      <time>2025-06-14T18:24:34Z</time>
    </trkpt>
    <trkpt lat="50.9263339" lon="6.9470410">
      <time>2025-06-14T18:24:39Z</time>
    </trkpt>
    <trkpt lat="50.9263982" lon="6.9467050">
      <time>2025-06-14T18:24:42Z</time>
    </trkpt>
    <trkpt lat="50.9264477" lon="6.9464940">
      <time>2025-06-14T18:24:44Z</time>
    </trkpt>
    <trkpt lat="50.9264823" lon="6.9463945">
      <time>2025-06-14T18:24:45Z</time>
    </trkpt>
    <trkpt lat="50.9265235" lon="6.9462936">
      <time>2025-06-14T18:24:46Z</time>
    </trkpt>
    <trkpt lat="50.9268670" lon="6.9455239">
      <time>2025-06-14T18:24:54Z</time>
    </trkpt>
    <trkpt lat="50.9270130" lon="6.9452409">
      <time>2025-06-14T18:24:57Z</time>
    </trkpt>
    <trkpt lat="50.9272507" lon="6.9447768">
      <time>2025-06-14T18:25:02Z</time>
    </trkpt>
    <trkpt lat="50.9273435" lon="6.9445919">
      <time>2025-06-14T18:25:04Z</time>
    </trkpt>
    <trkpt lat="50.9275963" lon="6.9441537">
      <time>2025-06-14T18:25:09Z</time>
    </trkpt>
    <trkpt lat="50.9279674" lon="6.9435975">
      <time>2025-06-14T18:25:16Z</time>
    </trkpt>
    <trkpt lat="50.9282749" lon="6.9432212">
      <time>2025-06-14T18:25:22Z</time>
    </trkpt>
    <trkpt lat="50.9284107" lon="6.9430606">
      <time>2025-06-14T18:25:26Z</time>
    </trkpt>
    <trkpt lat="50.9284578" lon="6.9429928">
      <time>2025-06-14T18:25:30Z</time>
    </trkpt>
    <trkpt lat="50.9284572" lon="6.9429947">
      <time>2025-06-14T18:25:31Z</time>
    </trkpt>
    <trkpt lat="50.9284996" lon="6.9429904">
      <time>2025-06-14T18:26:40Z</time>
    </trkpt>
    <trkpt lat="50.9285312" lon="6.9429665">
      <time>2025-06-14T18:26:41Z</time>
    </trkpt>
    <trkpt lat="50.9287177" lon="6.9427608">
      <time>2025-06-14T18:26:45Z</time>
    </trkpt>
    <trkpt lat="50.9287731" lon="6.9426934">
      <time>2025-06-14T18:26:46Z</time>
    </trkpt>
    <trkpt lat="50.9290108" lon="6.9423742">
      <time>2025-06-14T18:26:50Z</time>
    </trkpt>
    <trkpt lat="50.9291256" lon="6.9421746">
      <time>2025-06-14T18:26:52Z</time>
    </trkpt>
    <trkpt lat="50.9292500" lon="6.9419635">
      <time>2025-06-14T18:26:54Z</time>
    </trkpt>
    <trkpt lat="50.9293151" lon="6.9418607">
      <time>2025-06-14T18:26:55Z</time>
    </trkpt>
    <trkpt lat="50.9295083" lon="6.9415779">
      <time>2025-06-14T18:26:58Z</time>
    </trkpt>
    <trkpt lat="50.9295847" lon="6.9415045">
      <time>2025-06-14T18:26:59Z</time>
    </trkpt>
    <trkpt lat="50.9296695" lon="6.9414579">
      <time>2025-06-14T18:27:00Z</time>
    </trkpt>
    <trkpt lat="50.9297554" lon="6.9414237">
      <time>2025-06-14T18:27:01Z</time>
    </trkpt>
    <trkpt lat="50.9300859" lon="6.9412800">
      <time>2025-06-14T18:27:05Z</time>
    </trkpt>
    <trkpt lat="50.9302514" lon="6.9412015">
      <time>2025-06-14T18:27:07Z</time>
    </trkpt>
    <trkpt lat="50.9306697" lon="6.9409710">
      <time>2025-06-14T18:27:12Z</time>
    </trkpt>
    <trkpt lat="50.9310125" lon="6.9408104">
      <time>2025-06-14T18:27:16Z</time>
    </trkpt>
    <trkpt lat="50.9312732" lon="6.9406781">
      <time>2025-06-14T18:27:19Z</time>
    </trkpt>
    <trkpt lat="50.9316311" lon="6.9404986">
      <time>2025-06-14T18:27:23Z</time>
    </trkpt>
    <trkpt lat="50.9319818" lon="6.9403176">
      <time>2025-06-14T18:27:27Z</time>
    </trkpt>
    <trkpt lat="50.9323052" lon="6.9401396">
      <time>2025-06-14T18:27:31Z</time>
    </trkpt>
    <trkpt lat="50.9327201" lon="6.9399503">
      <time>2025-06-14T18:27:36Z</time>
    </trkpt>
    <trkpt lat="50.9330407" lon="6.9398132">
      <time>2025-06-14T18:27:40Z</time>
    </trkpt>
    <trkpt lat="50.9331922" lon="6.9397350">
      <time>2025-06-14T18:27:42Z</time>
    </trkpt>
    <trkpt lat="50.9333380" lon="6.9396511">
      <time>2025-06-14T18:27:44Z</time>
    </trkpt>
    <trkpt lat="50.9338514" lon="6.9393852">
      <time>2025-06-14T18:27:51Z</time>
    </trkpt>
    <trkpt lat="50.9343843" lon="6.9391379">
      <time>2025-06-14T18:27:58Z</time>
    </trkpt>
    <trkpt lat="50.9344640" lon="6.9391064">
      <time>2025-06-14T18:27:59Z</time>
    </trkpt>
    <trkpt lat="50.9348436" lon="6.9390503">
      <time>2025-06-14T18:28:04Z</time>
    </trkpt>
    <trkpt lat="50.9350331" lon="6.9390191">
      <time>2025-06-14T18:28:07Z</time>
    </trkpt>
    <trkpt lat="50.9351152" lon="6.9390047">
      <time>2025-06-14T18:28:09Z</time>
    </trkpt>
    <trkpt lat="50.9351800" lon="6.9389853">
      <time>2025-06-14T18:28:12Z</time>
    </trkpt>
    <trkpt lat="50.9352033" lon="6.9389802">
      <time>2025-06-14T18:28:14Z</time>
    </trkpt>
    <trkpt lat="50.9352070" lon="6.9389779">
      <time>2025-06-14T18:28:16Z</time>
    </trkpt>
    <trkpt lat="50.9352732" lon="6.9390220">
      <time>2025-06-14T18:29:17Z</time>
    </trkpt>
    <trkpt lat="50.9353116" lon="6.9390424">
      <time>2025-06-14T18:29:18Z</time>
    </trkpt>
    <trkpt lat="50.9355482" lon="6.9390859">
      <time>2025-06-14T18:29:22Z</time>
    </trkpt>
    <trkpt lat="50.9359828" lon="6.9390258">
      <time>2025-06-14T18:29:28Z</time>
    </trkpt>
    <trkpt lat="50.9362771" lon="6.9390074">
      <time>2025-06-14T18:29:32Z</time>
    </trkpt>
    <trkpt lat="50.9364773" lon="6.9389991">
      <time>2025-06-14T18:29:35Z</time>
    </trkpt>
    <trkpt lat="50.9367438" lon="6.9389932">
      <time>2025-06-14T18:29:39Z</time>
    </trkpt>
    <trkpt lat="50.9369055" lon="6.9389995">
      <time>2025-06-14T18:29:41Z</time>
    </trkpt>
    <trkpt lat="50.9374034" lon="6.9390272">
      <time>2025-06-14T18:29:47Z</time>
    </trkpt>
    <trkpt lat="50.9378223" lon="6.9391196">
      <time>2025-06-14T18:29:52Z</time>
    </trkpt>
    <trkpt lat="50.9379048" lon="6.9391300">
      <time>2025-06-14T18:29:53Z</time>
    </trkpt>
    <trkpt lat="50.9383465" lon="6.9392424">
      <time>2025-06-14T18:29:58Z</time>
    </trkpt>
    <trkpt lat="50.9386044" lon="6.9393082">
      <time>2025-06-14T18:30:01Z</time>
    </trkpt>
    <trkpt lat="50.9388569" lon="6.9393501">
      <time>2025-06-14T18:30:04Z</time>
    </trkpt>
    <trkpt lat="50.9389284" lon="6.9393623">
      <time>2025-06-14T18:30:05Z</time>
    </trkpt>
    <trkpt lat="50.9391488" lon="6.9394256">
      <time>2025-06-14T18:30:09Z</time>
    </trkpt>
    <trkpt lat="50.9393374" lon="6.9394659">
      <time>2025-06-14T18:30:15Z</time>
    </trkpt>
    <trkpt lat="50.9395590" lon="6.9395625">
      <time>2025-06-14T18:30:20Z</time>
    </trkpt>
    <trkpt lat="50.9397576" lon="6.9396107">
      <time>2025-06-14T18:30:24Z</time>
    </trkpt>
    <trkpt lat="50.9398107" lon="6.9396329">
      <time>2025-06-14T18:30:25Z</time>
    </trkpt>
    <trkpt lat="50.9399289" lon="6.9396591">
      <time>2025-06-14T18:30:27Z</time>
    </trkpt>
    <trkpt lat="50.9399876" lon="6.9396732">
      <time>2025-06-14T18:30:28Z</time>
    </trkpt>
    <trkpt lat="50.9401953" lon="6.9397196">
      <time>2025-06-14T18:30:32Z</time>
    </trkpt>
    <trkpt lat="50.9403519" lon="6.9397798">
      <time>2025-06-14T18:30:35Z</time>
    </trkpt>
    <trkpt lat="50.9404556" lon="6.9398304">
      <time>2025-06-14T18:30:37Z</time>
    </trkpt>
    <trkpt lat="50.9405467" lon="6.9398821">
      <time>2025-06-14T18:30:39Z</time>
    </trkpt>
    <trkpt lat="50.9406174" lon="6.9399365">
      <time>2025-06-14T18:30:42Z</time>
    </trkpt>
    <trkpt lat="50.9406030" lon="6.9399112">
      <time>2025-06-14T18:30:45Z</time>
    </trkpt>
    <trkpt lat="50.9405974" lon="6.9399601">
      <time>2025-06-14T18:31:05Z</time>
    </trkpt>
    <trkpt lat="50.9406258" lon="6.9396529">
      <time>2025-06-14T18:31:09Z</time>
    </trkpt>
    <trkpt lat="50.9407385" lon="6.9388979">
      <time>2025-06-14T18:31:17Z</time>
    </trkpt>
    <trkpt lat="50.9409317" lon="6.9380788">
      <time>2025-06-14T18:31:26Z</time>
    </trkpt>
    <trkpt lat="50.9411164" lon="6.9376637">
      <time>2025-06-14T18:31:31Z</time>
    </trkpt>
    <trkpt lat="50.9413866" lon="6.9371303">
      <time>2025-06-14T18:31:38Z</time>
    </trkpt>
    <trkpt lat="50.9416997" lon="6.9365614">
      <time>2025-06-14T18:31:47Z</time>
    </trkpt>
    <trkpt lat="50.9418374" lon="6.9362836">
      <time>2025-06-14T18:31:52Z</time>
    </trkpt>
    <trkpt lat="50.9420526" lon="6.9358930">
      <time>2025-06-14T18:31:58Z</time>
    </trkpt>
    <trkpt lat="50.9423548" lon="6.9353697">
      <time>2025-06-14T18:32:06Z</time>
    </trkpt>
    <trkpt lat="50.9425521" lon="6.9349289">
      <time>2025-06-14T18:32:12Z</time>
    </trkpt>
    <trkpt lat="50.9426455" lon="6.9347038">
      <time>2025-06-14T18:32:15Z</time>
    </trkpt>
    <trkpt lat="50.9428635" lon="6.9342399">
      <time>2025-06-14T18:32:21Z</time>
    </trkpt>
    <trkpt lat="50.9429167" lon="6.9341021">
      <time>2025-06-14T18:32:23Z</time>
    </trkpt>
    <trkpt lat="50.9429541" lon="6.9339491">
      <time>2025-06-14T18:32:25Z</time>
    </trkpt>
    <trkpt lat="50.9430480" lon="6.9335836">
      <time>2025-06-14T18:32:30Z</time>
    </trkpt>
    <trkpt lat="50.9431221" lon="6.9335088">
      <time>2025-06-14T18:32:31Z</time>
    </trkpt>
    <trkpt lat="50.9433039" lon="6.9334112">
      <time>2025-06-14T18:32:33Z</time>
    </trkpt>
    <trkpt lat="50.9435307" lon="6.9331345">
      <time>2025-06-14T18:32:38Z</time>
    </trkpt>
    <trkpt lat="50.9436272" lon="6.9329355">
      <time>2025-06-14T18:32:41Z</time>
    </trkpt>
    <trkpt lat="50.9437920" lon="6.9325573">
      <time>2025-06-14T18:32:46Z</time>
    </trkpt>
    <trkpt lat="50.9438603" lon="6.9323385">
      <time>2025-06-14T18:32:49Z</time>
    </trkpt>
    <trkpt lat="50.9439054" lon="6.9321855">
      <time>2025-06-14T18:32:51Z</time>
    </trkpt>
    <trkpt lat="50.9440340" lon="6.9318847">
      <time>2025-06-14T18:32:55Z</time>
    </trkpt>
    <trkpt lat="50.9440825" lon="6.9318273">
      <time>2025-06-14T18:32:56Z</time>
    </trkpt>
    <trkpt lat="50.9441651" lon="6.9317095">
      <time>2025-06-14T18:32:58Z</time>
    </trkpt>
    <trkpt lat="50.9442267" lon="6.9315553">
      <time>2025-06-14T18:33:00Z</time>
    </trkpt>
    <trkpt lat="50.9442536" lon="6.9314835">
      <time>2025-06-14T18:33:01Z</time>
    </trkpt>
    <trkpt lat="50.9443767" lon="6.9311070">
      <time>2025-06-14T18:33:06Z</time>
    </trkpt>
    <trkpt lat="50.9446015" lon="6.9304054">
      <time>2025-06-14T18:33:14Z</time>
    </trkpt>
    <trkpt lat="50.9446864" lon="6.9301491">
      <time>2025-06-14T18:33:17Z</time>
    </trkpt>
    <trkpt lat="50.9447442" lon="6.9299923">
      <time>2025-06-14T18:33:19Z</time>
    </trkpt>
    <trkpt lat="50.9447885" lon="6.9298316">
      <time>2025-06-14T18:33:21Z</time>
    </trkpt>
    <trkpt lat="50.9448489" lon="6.9295686">
      <time>2025-06-14T18:33:24Z</time>
    </trkpt>
    <trkpt lat="50.9448934" lon="6.9293975">
      <time>2025-06-14T18:33:26Z</time>
    </trkpt>
    <trkpt lat="50.9449754" lon="6.9291515">
      <time>2025-06-14T18:33:29Z</time>
    </trkpt>
    <trkpt lat="50.9450433" lon="6.9289228">
      <time>2025-06-14T18:33:33Z</time>
    </trkpt>
    <trkpt lat="50.9450621" lon="6.9288607">
      <time>2025-06-14T18:33:34Z</time>
    </trkpt>
    <trkpt lat="50.9450704" lon="6.9287552">
      <time>2025-06-14T18:33:37Z</time>
    </trkpt>
    <trkpt lat="50.9450501" lon="6.9286776">
      <time>2025-06-14T18:33:39Z</time>
    </trkpt>
    <trkpt lat="50.9450501" lon="6.9286153">
      <time>2025-06-14T18:33:40Z</time>
    </trkpt>
    <trkpt lat="50.9450581" lon="6.9285479">
      <time>2025-06-14T18:33:41Z</time>
    </trkpt>
    <trkpt lat="50.9450775" lon="6.9284787">
      <time>2025-06-14T18:33:42Z</time>
    </trkpt>
    <trkpt lat="50.9451044" lon="6.9284123">
      <time>2025-06-14T18:33:43Z</time>
    </trkpt>
    <trkpt lat="50.9452168" lon="6.9280888">
      <time>2025-06-14T18:33:47Z</time>
    </trkpt>
    <trkpt lat="50.9452479" lon="6.9279943">
      <time>2025-06-14T18:33:48Z</time>
    </trkpt>
    <trkpt lat="50.9452854" lon="6.9278940">
      <time>2025-06-14T18:33:49Z</time>
    </trkpt>
    <trkpt lat="50.9454184" lon="6.9274507">
      <time>2025-06-14T18:33:53Z</time>
    </trkpt>
    <trkpt lat="50.9454950" lon="6.9272168">
      <time>2025-06-14T18:33:55Z</time>
    </trkpt>
    <trkpt lat="50.9455845" lon="6.9269854">
      <time>2025-06-14T18:33:57Z</time>
    </trkpt>
    <trkpt lat="50.9456801" lon="6.9267625">
      <time>2025-06-14T18:33:59Z</time>
    </trkpt>
    <trkpt lat="50.9458072" lon="6.9264366">
      <time>2025-06-14T18:34:02Z</time>
    </trkpt>
    <trkpt lat="50.9458789" lon="6.9262139">
      <time>2025-06-14T18:34:04Z</time>
    </trkpt>
    <trkpt lat="50.9459069" lon="6.9260944">
      <time>2025-06-14T18:34:05Z</time>
    </trkpt>
    <trkpt lat="50.9459970" lon="6.9257383">
      <time>2025-06-14T18:34:08Z</time>
    </trkpt>
    <trkpt lat="50.9461550" lon="6.9254229">
      <time>2025-06-14T18:34:11Z</time>
    </trkpt>
    <trkpt lat="50.9462103" lon="6.9253343">
      <time>2025-06-14T18:34:12Z</time>
    </trkpt>
    <trkpt lat="50.9462504" lon="6.9252395">
      <time>2025-06-14T18:34:13Z</time>
    </trkpt>
    <trkpt lat="50.9463726" lon="6.9249230">
      <time>2025-06-14T18:34:16Z</time>
    </trkpt>
    <trkpt lat="50.9465296" lon="6.9245152">
      <time>2025-06-14T18:34:20Z</time>
    </trkpt>
    <trkpt lat="50.9465688" lon="6.9244143">
      <time>2025-06-14T18:34:21Z</time>
    </trkpt>
    <trkpt lat="50.9467755" lon="6.9239435">
      <time>2025-06-14T18:34:26Z</time>
    </trkpt>
    <trkpt lat="50.9469310" lon="6.9235501">
      <time>2025-06-14T18:34:30Z</time>
    </trkpt>
    <trkpt lat="50.9471981" lon="6.9229675">
      <time>2025-06-14T18:34:36Z</time>
    </trkpt>
    <trkpt lat="50.9474855" lon="6.9223143">
      <time>2025-06-14T18:34:43Z</time>
    </trkpt>
    <trkpt lat="50.9475209" lon="6.9222180">
      <time>2025-06-14T18:34:44Z</time>
    </trkpt>
    <trkpt lat="50.9478191" lon="6.9214924">
      <time>2025-06-14T18:34:52Z</time>
    </trkpt>
    <trkpt lat="50.9478596" lon="6.9214059">
      <time>2025-06-14T18:34:53Z</time>
    </trkpt>
    <trkpt lat="50.9482050" lon="6.9206217">
      <time>2025-06-14T18:35:02Z</time>
    </trkpt>
    <trkpt lat="50.9482349" lon="6.9205318">
      <time>2025-06-14T18:35:03Z</time>
    </trkpt>
    <trkpt lat="50.9483355" lon="6.9201734">
      <time>2025-06-14T18:35:07Z</time>
    </trkpt>
    <trkpt lat="50.9485286" lon="6.9197372">
      <time>2025-06-14T18:35:12Z</time>
    </trkpt>
    <trkpt lat="50.9487881" lon="6.9191655">
      <time>2025-06-14T18:35:19Z</time>
    </trkpt>
    <trkpt lat="50.9491126" lon="6.9184002">
      <time>2025-06-14T18:35:28Z</time>
    </trkpt>
    <trkpt lat="50.9491523" lon="6.9183181">
      <time>2025-06-14T18:35:29Z</time>
    </trkpt>
    <trkpt lat="50.9492708" lon="6.9180796">
      <time>2025-06-14T18:35:32Z</time>
    </trkpt>
    <trkpt lat="50.9494119" lon="6.9178608">
      <time>2025-06-14T18:35:35Z</time>
    </trkpt>
    <trkpt lat="50.9494460" lon="6.9178004">
      <time>2025-06-14T18:35:36Z</time>
    </trkpt>
    <trkpt lat="50.9495542" lon="6.9176195">
      <time>2025-06-14T18:35:39Z</time>
    </trkpt>
    <trkpt lat="50.9498500" lon="6.9171559">
      <time>2025-06-14T18:35:46Z</time>
    </trkpt>
    <trkpt lat="50.9499446" lon="6.9170027">
      <time>2025-06-14T18:35:49Z</time>
    </trkpt>
    <trkpt lat="50.9499663" lon="6.9169755">
      <time>2025-06-14T18:35:50Z</time>
    </trkpt>
    <trkpt lat="50.9500261" lon="6.9169154">
      <time>2025-06-14T18:35:54Z</time>
    </trkpt>
    <trkpt lat="50.9500526" lon="6.9169053">
      <time>2025-06-14T18:35:58Z</time>
    </trkpt>
    <trkpt lat="50.9500909" lon="6.9168833">
      <time>2025-06-14T18:36:04Z</time>
    </trkpt>
    <trkpt lat="50.9500908" lon="6.9168851">
      <time>2025-06-14T18:36:05Z</time>
    </trkpt>
    <trkpt lat="50.9500922" lon="6.9168471">
      <time>2025-06-14T18:36:32Z</time>
    </trkpt>
    <trkpt lat="50.9501167" lon="6.9168017">
      <time>2025-06-14T18:36:33Z</time>
    </trkpt>
    <trkpt lat="50.9501562" lon="6.9167557">
      <time>2025-06-14T18:36:34Z</time>
    </trkpt>
    <trkpt lat="50.9503045" lon="6.9166043">
      <time>2025-06-14T18:36:37Z</time>
    </trkpt>
    <trkpt lat="50.9504835" lon="6.9163015">
      <time>2025-06-14T18:36:41Z</time>
    </trkpt>
    <trkpt lat="50.9505768" lon="6.9161231">
      <time>2025-06-14T18:36:43Z</time>
    </trkpt>
    <trkpt lat="50.9507506" lon="6.9157875">
      <time>2025-06-14T18:36:47Z</time>
    </trkpt>
    <trkpt lat="50.9507990" lon="6.9157305">
      <time>2025-06-14T18:36:48Z</time>
    </trkpt>
    <trkpt lat="50.9511075" lon="6.9153262">
      <time>2025-06-14T18:36:54Z</time>
    </trkpt>
    <trkpt lat="50.9511895" lon="6.9151758">
      <time>2025-06-14T18:36:56Z</time>
    </trkpt>
    <trkpt lat="50.9512321" lon="6.9151146">
      <time>2025-06-14T18:36:57Z</time>
    </trkpt>
    <trkpt lat="50.9512701" lon="6.9150577">
      <time>2025-06-14T18:36:58Z</time>
    </trkpt>
    <trkpt lat="50.9514803" lon="6.9147816">
      <time>2025-06-14T18:37:03Z</time>
    </trkpt>
    <trkpt lat="50.9515123" lon="6.9146738">
      <time>2025-06-14T18:37:04Z</time>
    </trkpt>
    <trkpt lat="50.9516566" lon="6.9144053">
      <time>2025-06-14T18:37:07Z</time>
    </trkpt>
    <trkpt lat="50.9519568" lon="6.9139158">
      <time>2025-06-14T18:37:14Z</time>
    </trkpt>
    <trkpt lat="50.9519952" lon="6.9138470">
      <time>2025-06-14T18:37:15Z</time>
    </trkpt>
    <trkpt lat="50.9520885" lon="6.9137253">
      <time>2025-06-14T18:37:17Z</time>
    </trkpt>
    <trkpt lat="50.9522334" lon="6.9135072">
      <time>2025-06-14T18:37:20Z</time>
    </trkpt>
    <trkpt lat="50.9525155" lon="6.9130839">
      <time>2025-06-14T18:37:26Z</time>
    </trkpt>
    <trkpt lat="50.9526053" lon="6.9129350">
      <time>2025-06-14T18:37:28Z</time>
    </trkpt>
    <trkpt lat="50.9529351" lon="6.9124378">
      <time>2025-06-14T18:37:36Z</time>
    </trkpt>
    <trkpt lat="50.9532011" lon="6.9120941">
      <time>2025-06-14T18:37:43Z</time>
    </trkpt>
    <trkpt lat="50.9533599" lon="6.9118588">
      <time>2025-06-14T18:37:49Z</time>
    </trkpt>
    <trkpt lat="50.9534173" lon="6.9117713">
      <time>2025-06-14T18:37:51Z</time>
    </trkpt>
    <trkpt lat="50.9535742" lon="6.9115497">
      <time>2025-06-14T18:37:56Z</time>
    </trkpt>
    <trkpt lat="50.9536528" lon="6.9114268">
      <time>2025-06-14T18:37:58Z</time>
    </trkpt>
    <trkpt lat="50.9539122" lon="6.9109472">
      <time>2025-06-14T18:38:06Z</time>
    </trkpt>
    <trkpt lat="50.9540484" lon="6.9107312">
      <time>2025-06-14T18:38:10Z</time>
    </trkpt>
    <trkpt lat="50.9542430" lon="6.9104002">
      <time>2025-06-14T18:38:15Z</time>
    </trkpt>
    <trkpt lat="50.9542688" lon="6.9103426">
      <time>2025-06-14T18:38:16Z</time>
    </trkpt>
    <trkpt lat="50.9543691" lon="6.9100722">
      <time>2025-06-14T18:38:22Z</time>
    </trkpt>
    <trkpt lat="50.9544422" lon="6.9098602">
      <time>2025-06-14T18:38:26Z</time>
    </trkpt>
    <trkpt lat="50.9544782" lon="6.9097831">
      <time>2025-06-14T18:38:27Z</time>
    </trkpt>
    <trkpt lat="50.9545858" lon="6.9095115">
      <time>2025-06-14T18:38:30Z</time>
    </trkpt>
    <trkpt lat="50.9546220" lon="6.9094170">
      <time>2025-06-14T18:38:31Z</time>
    </trkpt>
    <trkpt lat="50.9548127" lon="6.9088706">
      <time>2025-06-14T18:38:36Z</time>
    </trkpt>
    <trkpt lat="50.9548462" lon="6.9087596">
      <time>2025-06-14T18:38:37Z</time>
    </trkpt>
    <trkpt lat="50.9548891" lon="6.9086570">
      <time>2025-06-14T18:38:38Z</time>
    </trkpt>
    <trkpt lat="50.9549775" lon="6.9084452">
      <time>2025-06-14T18:38:40Z</time>
    </trkpt>
    <trkpt lat="50.9550156" lon="6.9083308">
      <time>2025-06-14T18:38:41Z</time>
    </trkpt>
    <trkpt lat="50.9552471" lon="6.9075013">
      <time>2025-06-14T18:38:48Z</time>
    </trkpt>
    <trkpt lat="50.9554965" lon="6.9067041">
      <time>2025-06-14T18:38:55Z</time>
    </trkpt>
    <trkpt lat="50.9555568" lon="6.9064732">
      <time>2025-06-14T18:38:57Z</time>
    </trkpt>
    <trkpt lat="50.9555876" lon="6.9063634">
      <time>2025-06-14T18:38:58Z</time>
    </trkpt>
    <trkpt lat="50.9556481" lon="6.9061339">
      <time>2025-06-14T18:39:00Z</time>
    </trkpt>
    <trkpt lat="50.9557209" lon="6.9059242">
      <time>2025-06-14T18:39:02Z</time>
    </trkpt>
    <trkpt lat="50.9558271" lon="6.9056299">
      <time>2025-06-14T18:39:05Z</time>
    </trkpt>
    <trkpt lat="50.9560863" lon="6.9047834">
      <time>2025-06-14T18:39:13Z</time>
    </trkpt>
    <trkpt lat="50.9561490" lon="6.9046055">
      <time>2025-06-14T18:39:15Z</time>
    </trkpt>
    <trkpt lat="50.9561802" lon="6.9045154">
      <time>2025-06-14T18:39:16Z</time>
    </trkpt>
    <trkpt lat="50.9563997" lon="6.9039264">
      <time>2025-06-14T18:39:23Z</time>
    </trkpt>
    <trkpt lat="50.9564316" lon="6.9038377">
      <time>2025-06-14T18:39:24Z</time>
    </trkpt>
    <trkpt lat="50.9565448" lon="6.9035062">
      <time>2025-06-14T18:39:28Z</time>
    </trkpt>
    <trkpt lat="50.9565938" lon="6.9033741">
      <time>2025-06-14T18:39:30Z</time>
    </trkpt>
    <trkpt lat="50.9566830" lon="6.9032700">
      <time>2025-06-14T18:39:34Z</time>
    </trkpt>
    <trkpt lat="50.9567164" lon="6.9032275">
      <time>2025-06-14T18:39:37Z</time>
    </trkpt>
    <trkpt lat="50.9567230" lon="6.9031967">
      <time>2025-06-14T18:39:39Z</time>
    </trkpt>
    <trkpt lat="50.9567201" lon="6.9031909">
      <time>2025-06-14T18:39:43Z</time>
    </trkpt>
    <trkpt lat="50.9567686" lon="6.9031702">
      <time>2025-06-14T18:39:47Z</time>
    </trkpt>
    <trkpt lat="50.9568573" lon="6.9029649">
      <time>2025-06-14T18:39:52Z</time>
    </trkpt>
    <trkpt lat="50.9569929" lon="6.9024863">
      <time>2025-06-14T18:39:59Z</time>
    </trkpt>
    <trkpt lat="50.9570203" lon="6.9024226">
      <time>2025-06-14T18:40:00Z</time>
    </trkpt>
    <trkpt lat="50.9570602" lon="6.9022959">
      <time>2025-06-14T18:40:02Z</time>
    </trkpt>
    <trkpt lat="50.9570844" lon="6.9021691">
      <time>2025-06-14T18:40:04Z</time>
    </trkpt>
    <trkpt lat="50.9572103" lon="6.9020020">
      <time>2025-06-14T18:40:08Z</time>
    </trkpt>
    <trkpt lat="50.9573238" lon="6.9020956">
      <time>2025-06-14T18:40:11Z</time>
    </trkpt>
    <trkpt lat="50.9574463" lon="6.9021306">
      <time>2025-06-14T18:40:15Z</time>
    </trkpt>
    <trkpt lat="50.9574599" lon="6.9021235">
      <time>2025-06-14T18:40:16Z</time>
    </trkpt>
    <trkpt lat="50.9574627" lon="6.9021236">
      <time>2025-06-14T18:40:18Z</time>
    </trkpt>
    <trkpt lat="50.9573965" lon="6.9021523">
      <time>2025-06-14T18:50:27Z</time>
    </trkpt>
    <trkpt lat="50.9573810" lon="6.9021526">
      <time>2025-06-14T18:50:28Z</time>
    </trkpt>
    <trkpt lat="50.9573472" lon="6.9021374">
      <time>2025-06-14T18:50:31Z</time>
    </trkpt>
    <trkpt lat="50.9572881" lon="6.9020944">
      <time>2025-06-14T18:50:36Z</time>
    </trkpt>
    <trkpt lat="50.9572577" lon="6.9020456">
      <time>2025-06-14T18:50:40Z</time>
    </trkpt>
    <trkpt lat="50.9572213" lon="6.9019531">
      <time>2025-06-14T18:50:46Z</time>
    </trkpt>
    <trkpt lat="50.9572247" lon="6.9019345">
      <time>2025-06-14T18:50:47Z</time>
    </trkpt>
    <trkpt lat="50.9572703" lon="6.9017743">
      <time>2025-06-14T18:50:57Z</time>
    </trkpt>
    <trkpt lat="50.9572797" lon="6.9017203">
      <time>2025-06-14T18:51:01Z</time>
    </trkpt>
    <trkpt lat="50.9573087" lon="6.9016130">
      <time>2025-06-14T18:51:08Z</time>
    </trkpt>
    <trkpt lat="50.9573514" lon="6.9014829">
      <time>2025-06-14T18:51:16Z</time>
    </trkpt>
    <trkpt lat="50.9573693" lon="6.9014018">
      <time>2025-06-14T18:51:20Z</time>
    </trkpt>
    <trkpt lat="50.9574280" lon="6.9011950">
      <time>2025-06-14T18:51:32Z</time>
    </trkpt>
    <trkpt lat="50.9574804" lon="6.9009887">
      <time>2025-06-14T18:51:43Z</time>
    </trkpt>
    <trkpt lat="50.9575327" lon="6.9007815">
      <time>2025-06-14T18:51:54Z</time>
    </trkpt>
    <trkpt lat="50.9575462" lon="6.9007520">
      <time>2025-06-14T18:51:59Z</time>
    </trkpt>
    <trkpt lat="50.9652613" lon="6.8845421">
      <time>2025-06-14T19:02:04Z</time>
    </trkpt>
    <trkpt lat="50.9653582" lon="6.8843618">
      <time>2025-06-14T19:02:07Z</time>
    </trkpt>
    <trkpt lat="50.9654630" lon="6.8841245">
      <time>2025-06-14T19:02:11Z</time>
    </trkpt>
    <trkpt lat="50.9655473" lon="6.8839109">
      <time>2025-06-14T19:02:15Z</time>
    </trkpt>
    <trkpt lat="50.9655477" lon="6.8838640">
      <time>2025-06-14T19:02:16Z</time>
    </trkpt>
    <trkpt lat="50.9656105" lon="6.8836401">
      <time>2025-06-14T19:02:20Z</time>
    </trkpt>
    <trkpt lat="50.9656307" lon="6.8835747">
      <time>2025-06-14T19:02:21Z</time>
    </trkpt>
    <trkpt lat="50.9657189" lon="6.8833872">
      <time>2025-06-14T19:02:24Z</time>
    </trkpt>
    <trkpt lat="50.9658400" lon="6.8831313">
      <time>2025-06-14T19:02:28Z</time>
    </trkpt>
    <trkpt lat="50.9659133" lon="6.8829616">
      <time>2025-06-14T19:02:31Z</time>
    </trkpt>
    <trkpt lat="50.9661360" lon="6.8824975">
      <time>2025-06-14T19:02:39Z</time>
    </trkpt>
    <trkpt lat="50.9661617" lon="6.8824400">
      <time>2025-06-14T19:02:40Z</time>
    </trkpt>
    <trkpt lat="50.9663036" lon="6.8821108">
      <time>2025-06-14T19:02:47Z</time>
    </trkpt>
    <trkpt lat="50.9664444" lon="6.8817242">
      <time>2025-06-14T19:02:54Z</time>
    </trkpt>
    <trkpt lat="50.9665481" lon="6.8813983">
      <time>2025-06-14T19:03:00Z</time>
    </trkpt>
    <trkpt lat="50.9665348" lon="6.8813479">
      <time>2025-06-14T19:03:01Z</time>
    </trkpt>
    <trkpt lat="50.9665123" lon="6.8812934">
      <time>2025-06-14T19:03:02Z</time>
    </trkpt>
    <trkpt lat="50.9664061" lon="6.8811299">
      <time>2025-06-14T19:03:05Z</time>
    </trkpt>
    <trkpt lat="50.9662217" lon="6.8809111">
      <time>2025-06-14T19:03:09Z</time>
    </trkpt>
    <trkpt lat="50.9661704" lon="6.8808580">
      <time>2025-06-14T19:03:10Z</time>
    </trkpt>
    <trkpt lat="50.9661152" lon="6.8808082">
      <time>2025-06-14T19:03:11Z</time>
    </trkpt>
    <trkpt lat="50.9660611" lon="6.8807642">
      <time>2025-06-14T19:03:12Z</time>
    </trkpt>
    <trkpt lat="50.9656019" lon="6.8803554">
      <time>2025-06-14T19:03:21Z</time>
    </trkpt>
    <trkpt lat="50.9652857" lon="6.8800291">
      <time>2025-06-14T19:03:28Z</time>
    </trkpt>
    <trkpt lat="50.9651993" lon="6.8799323">
      <time>2025-06-14T19:03:30Z</time>
    </trkpt>
    <trkpt lat="50.9650127" lon="6.8797216">
      <time>2025-06-14T19:03:34Z</time>
    </trkpt>
    <trkpt lat="50.9647215" lon="6.8793667">
      <time>2025-06-14T19:03:40Z</time>
    </trkpt>
    <trkpt lat="50.9643123" lon="6.8788486">
      <time>2025-06-14T19:03:49Z</time>
    </trkpt>
    <trkpt lat="50.9640266" lon="6.8784364">
      <time>2025-06-14T19:03:56Z</time>
    </trkpt>
    <trkpt lat="50.9637278" lon="6.8779798">
      <time>2025-06-14T19:04:05Z</time>
    </trkpt>
    <trkpt lat="50.9634493" lon="6.8774919">
      <time>2025-06-14T19:04:13Z</time>
    </trkpt>
    <trkpt lat="50.9633456" lon="6.8773051">
      <time>2025-06-14T19:04:16Z</time>
    </trkpt>
    <trkpt lat="50.9632745" lon="6.8772038">
      <time>2025-06-14T19:04:18Z</time>
    </trkpt>
    <trkpt lat="50.9631987" lon="6.8770929">
      <time>2025-06-14T19:04:20Z</time>
    </trkpt>
    <trkpt lat="50.9631677" lon="6.8770294">
      <time>2025-06-14T19:04:21Z</time>
    </trkpt>
    <trkpt lat="50.9631462" lon="6.8769550">
      <time>2025-06-14T19:04:22Z</time>
    </trkpt>
    <trkpt lat="50.9631159" lon="6.8768110">
      <time>2025-06-14T19:04:24Z</time>
    </trkpt>
    <trkpt lat="50.9631096" lon="6.8767470">
      <time>2025-06-14T19:04:25Z</time>
    </trkpt>
    <trkpt lat="50.9631235" lon="6.8765459">
      <time>2025-06-14T19:04:28Z</time>
    </trkpt>
    <trkpt lat="50.9631365" lon="6.8764773">
      <time>2025-06-14T19:04:29Z</time>
    </trkpt>
    <trkpt lat="50.9631612" lon="6.8764065">
      <time>2025-06-14T19:04:30Z</time>
    </trkpt>
    <trkpt lat="50.9631819" lon="6.8763431">
      <time>2025-06-14T19:04:31Z</time>
    </trkpt>
    <trkpt lat="50.9632261" lon="6.8761733">
      <time>2025-06-14T19:04:34Z</time>
    </trkpt>
    <trkpt lat="50.9633300" lon="6.8759395">
      <time>2025-06-14T19:04:39Z</time>
    </trkpt>
    <trkpt lat="50.9634105" lon="6.8759604">
      <time>2025-06-14T19:04:42Z</time>
    </trkpt>
    <trkpt lat="50.9634327" lon="6.8759524">
      <time>2025-06-14T19:04:44Z</time>
    </trkpt>
    <trkpt lat="50.9634386" lon="6.8759506">
      <time>2025-06-14T19:04:45Z</time>
    </trkpt>
    <trkpt lat="50.9634316" lon="6.8759758">
      <time>2025-06-14T19:04:48Z</time>
    </trkpt>
    <trkpt lat="50.9634391" lon="6.8759501">
      <time>2025-06-14T19:04:50Z</time>
    </trkpt>
  </trkseg></trk>
</gpx>
