<?xml version="1.0" encoding="UTF-8"?>
<gpx version="1.1" creator="Diary FIT converter" xmlns="http://www.topografix.com/GPX/1/1">
  <trk><name>Cycling</name><trkseg>
    <trkpt lat="50.9602029" lon="6.8946821">
      <time>2024-06-29T14:09:04Z</time>
    </trkpt>
    <trkpt lat="50.9601616" lon="6.8947365">
      <time>2024-06-29T14:09:05Z</time>
    </trkpt>
    <trkpt lat="50.9600197" lon="6.8950004">
      <time>2024-06-29T14:09:09Z</time>
    </trkpt>
    <trkpt lat="50.9597385" lon="6.8955387">
      <time>2024-06-29T14:09:16Z</time>
    </trkpt>
    <trkpt lat="50.9596249" lon="6.8957866">
      <time>2024-06-29T14:09:19Z</time>
    </trkpt>
    <trkpt lat="50.9595235" lon="6.8960211">
      <time>2024-06-29T14:09:22Z</time>
    </trkpt>
    <trkpt lat="50.9593533" lon="6.8963674">
      <time>2024-06-29T14:09:27Z</time>
    </trkpt>
    <trkpt lat="50.9592863" lon="6.8965026">
      <time>2024-06-29T14:09:29Z</time>
    </trkpt>
    <trkpt lat="50.9591504" lon="6.8967516">
      <time>2024-06-29T14:09:33Z</time>
    </trkpt>
    <trkpt lat="50.9590881" lon="6.8968586">
      <time>2024-06-29T14:09:35Z</time>
    </trkpt>
    <trkpt lat="50.9590296" lon="6.8969788">
      <time>2024-06-29T14:09:37Z</time>
    </trkpt>
    <trkpt lat="50.9589345" lon="6.8971753">
      <time>2024-06-29T14:09:40Z</time>
    </trkpt>
    <trkpt lat="50.9588372" lon="6.8973847">
      <time>2024-06-29T14:09:43Z</time>
    </trkpt>
    <trkpt lat="50.9585979" lon="6.8978520">
      <time>2024-06-29T14:09:50Z</time>
    </trkpt>
    <trkpt lat="50.9585589" lon="6.8979224">
      <time>2024-06-29T14:09:51Z</time>
    </trkpt>
    <trkpt lat="50.9583035" lon="6.8984815">
      <time>2024-06-29T14:09:59Z</time>
    </trkpt>
    <trkpt lat="50.9580543" lon="6.8990638">
      <time>2024-06-29T14:10:07Z</time>
    </trkpt>
    <trkpt lat="50.9579934" lon="6.8991923">
      <time>2024-06-29T14:10:09Z</time>
    </trkpt>
    <trkpt lat="50.9579566" lon="6.8993447">
      <time>2024-06-29T14:10:11Z</time>
    </trkpt>
    <trkpt lat="50.9579238" lon="6.8994023">
      <time>2024-06-29T14:10:12Z</time>
    </trkpt>
    <trkpt lat="50.9578551" lon="6.8995097">
      <time>2024-06-29T14:10:14Z</time>
    </trkpt>
    <trkpt lat="50.9578287" lon="6.8995726">
      <time>2024-06-29T14:10:15Z</time>
    </trkpt>
    <trkpt lat="50.9578171" lon="6.8996416">
      <time>2024-06-29T14:10:16Z</time>
    </trkpt>
    <trkpt lat="50.9577915" lon="6.8997863">
      <time>2024-06-29T14:10:18Z</time>
    </trkpt>
    <trkpt lat="50.9577390" lon="6.8999225">
      <time>2024-06-29T14:10:20Z</time>
    </trkpt>
    <trkpt lat="50.9576885" lon="6.9000551">
      <time>2024-06-29T14:10:22Z</time>
    </trkpt>
    <trkpt lat="50.9576679" lon="6.9001163">
      <time>2024-06-29T14:10:23Z</time>
    </trkpt>
    <trkpt lat="50.9576058" lon="6.9003230">
      <time>2024-06-29T14:10:26Z</time>
    </trkpt>
    <trkpt lat="50.9575710" lon="6.9005158">
      <time>2024-06-29T14:10:29Z</time>
    </trkpt>
    <trkpt lat="50.9575461" lon="6.9005828">
      <time>2024-06-29T14:10:32Z</time>
    </trkpt>
    <trkpt lat="50.9575461" lon="6.9005828">
      <time>2024-06-29T14:10:35Z</time>
    </trkpt>
    <trkpt lat="50.9575126" lon="6.9006488">
      <time>2024-06-29T14:11:30Z</time>
    </trkpt>
    <trkpt lat="50.9574993" lon="6.9006854">
      <time>2024-06-29T14:11:31Z</time>
    </trkpt>
    <trkpt lat="50.9574445" lon="6.9009509">
      <time>2024-06-29T14:11:36Z</time>
    </trkpt>
    <trkpt lat="50.9572665" lon="6.9012885">
      <time>2024-06-29T14:11:42Z</time>
    </trkpt>
    <trkpt lat="50.9572363" lon="6.9014358">
      <time>2024-06-29T14:11:44Z</time>
    </trkpt>
    <trkpt lat="50.9572063" lon="6.9015755">
      <time>2024-06-29T14:11:46Z</time>
    </trkpt>
    <trkpt lat="50.9571827" lon="6.9016400">
      <time>2024-06-29T14:11:47Z</time>
    </trkpt>
    <trkpt lat="50.9571115" lon="6.9018454">
      <time>2024-06-29T14:11:50Z</time>
    </trkpt>
    <trkpt lat="50.9570540" lon="6.9019885">
      <time>2024-06-29T14:11:52Z</time>
    </trkpt>
    <trkpt lat="50.9569801" lon="6.9021383">
      <time>2024-06-29T14:11:54Z</time>
    </trkpt>
    <trkpt lat="50.9567750" lon="6.9027193">
      <time>2024-06-29T14:12:01Z</time>
    </trkpt>
    <trkpt lat="50.9566239" lon="6.9032678">
      <time>2024-06-29T14:12:07Z</time>
    </trkpt>
    <trkpt lat="50.9565025" lon="6.9037209">
      <time>2024-06-29T14:12:12Z</time>
    </trkpt>
    <trkpt lat="50.9564720" lon="6.9038067">
      <time>2024-06-29T14:12:13Z</time>
    </trkpt>
    <trkpt lat="50.9561910" lon="6.9045481">
      <time>2024-06-29T14:12:22Z</time>
    </trkpt>
    <trkpt lat="50.9559738" lon="6.9051723">
      <time>2024-06-29T14:12:30Z</time>
    </trkpt>
    <trkpt lat="50.9557597" lon="6.9057690">
      <time>2024-06-29T14:12:38Z</time>
    </trkpt>
    <trkpt lat="50.9556105" lon="6.9062175">
      <time>2024-06-29T14:12:44Z</time>
    </trkpt>
    <trkpt lat="50.9554119" lon="6.9068518">
      <time>2024-06-29T14:12:53Z</time>
    </trkpt>
    <trkpt lat="50.9552292" lon="6.9074236">
      <time>2024-06-29T14:13:01Z</time>
    </trkpt>
    <trkpt lat="50.9550598" lon="6.9080084">
      <time>2024-06-29T14:13:09Z</time>
    </trkpt>
    <trkpt lat="50.9550184" lon="6.9081529">
      <time>2024-06-29T14:13:11Z</time>
    </trkpt>
    <trkpt lat="50.9549721" lon="6.9082877">
      <time>2024-06-29T14:13:13Z</time>
    </trkpt>
    <trkpt lat="50.9549327" lon="6.9084269">
      <time>2024-06-29T14:13:15Z</time>
    </trkpt>
    <trkpt lat="50.9548188" lon="6.9087634">
      <time>2024-06-29T14:13:20Z</time>
    </trkpt>
    <trkpt lat="50.9547777" lon="6.9089014">
      <time>2024-06-29T14:13:22Z</time>
    </trkpt>
    <trkpt lat="50.9546734" lon="6.9093041">
      <time>2024-06-29T14:13:28Z</time>
    </trkpt>
    <trkpt lat="50.9546483" lon="6.9093627">
      <time>2024-06-29T14:13:29Z</time>
    </trkpt>
    <trkpt lat="50.9546257" lon="6.9094296">
      <time>2024-06-29T14:13:30Z</time>
    </trkpt>
    <trkpt lat="50.9545254" lon="6.9096942">
      <time>2024-06-29T14:13:34Z</time>
    </trkpt>
    <trkpt lat="50.9543541" lon="6.9102700">
      <time>2024-06-29T14:13:42Z</time>
    </trkpt>
    <trkpt lat="50.9543245" lon="6.9103423">
      <time>2024-06-29T14:13:43Z</time>
    </trkpt>
    <trkpt lat="50.9542387" lon="6.9104850">
      <time>2024-06-29T14:13:45Z</time>
    </trkpt>
    <trkpt lat="50.9541916" lon="6.9105493">
      <time>2024-06-29T14:13:46Z</time>
    </trkpt>
    <trkpt lat="50.9540153" lon="6.9107866">
      <time>2024-06-29T14:13:50Z</time>
    </trkpt>
    <trkpt lat="50.9539705" lon="6.9108476">
      <time>2024-06-29T14:13:51Z</time>
    </trkpt>
    <trkpt lat="50.9536854" lon="6.9112776">
      <time>2024-06-29T14:13:58Z</time>
    </trkpt>
    <trkpt lat="50.9535998" lon="6.9113928">
      <time>2024-06-29T14:14:00Z</time>
    </trkpt>
    <trkpt lat="50.9534779" lon="6.9115664">
      <time>2024-06-29T14:14:03Z</time>
    </trkpt>
    <trkpt lat="50.9531130" lon="6.9122398">
      <time>2024-06-29T14:14:13Z</time>
    </trkpt>
    <trkpt lat="50.9529550" lon="6.9124659">
      <time>2024-06-29T14:14:17Z</time>
    </trkpt>
    <trkpt lat="50.9528356" lon="6.9126039">
      <time>2024-06-29T14:14:20Z</time>
    </trkpt>
    <trkpt lat="50.9527615" lon="6.9127145">
      <time>2024-06-29T14:14:22Z</time>
    </trkpt>
    <trkpt lat="50.9526884" lon="6.9128343">
      <time>2024-06-29T14:14:24Z</time>
    </trkpt>
    <trkpt lat="50.9526576" lon="6.9129050">
      <time>2024-06-29T14:14:25Z</time>
    </trkpt>
    <trkpt lat="50.9523539" lon="6.9133526">
      <time>2024-06-29T14:14:32Z</time>
    </trkpt>
    <trkpt lat="50.9522603" lon="6.9134647">
      <time>2024-06-29T14:14:34Z</time>
    </trkpt>
    <trkpt lat="50.9521452" lon="6.9136579">
      <time>2024-06-29T14:14:37Z</time>
    </trkpt>
    <trkpt lat="50.9520172" lon="6.9138429">
      <time>2024-06-29T14:14:40Z</time>
    </trkpt>
    <trkpt lat="50.9518364" lon="6.9140568">
      <time>2024-06-29T14:14:44Z</time>
    </trkpt>
    <trkpt lat="50.9516833" lon="6.9143082">
      <time>2024-06-29T14:14:48Z</time>
    </trkpt>
    <trkpt lat="50.9516033" lon="6.9144145">
      <time>2024-06-29T14:14:50Z</time>
    </trkpt>
    <trkpt lat="50.9515641" lon="6.9144768">
      <time>2024-06-29T14:14:51Z</time>
    </trkpt>
    <trkpt lat="50.9514161" lon="6.9146771">
      <time>2024-06-29T14:14:55Z</time>
    </trkpt>
    <trkpt lat="50.9514059" lon="6.9148002">
      <time>2024-06-29T14:14:58Z</time>
    </trkpt>
    <trkpt lat="50.9511656" lon="6.9152199">
      <time>2024-06-29T14:15:05Z</time>
    </trkpt>
    <trkpt lat="50.9510471" lon="6.9152704">
      <time>2024-06-29T14:15:07Z</time>
    </trkpt>
    <trkpt lat="50.9509310" lon="6.9153212">
      <time>2024-06-29T14:15:09Z</time>
    </trkpt>
    <trkpt lat="50.9508189" lon="6.9154930">
      <time>2024-06-29T14:15:12Z</time>
    </trkpt>
    <trkpt lat="50.9507596" lon="6.9156383">
      <time>2024-06-29T14:15:14Z</time>
    </trkpt>
    <trkpt lat="50.9507280" lon="6.9157005">
      <time>2024-06-29T14:15:15Z</time>
    </trkpt>
    <trkpt lat="50.9506783" lon="6.9158227">
      <time>2024-06-29T14:15:17Z</time>
    </trkpt>
    <trkpt lat="50.9506200" lon="6.9159867">
      <time>2024-06-29T14:15:20Z</time>
    </trkpt>
    <trkpt lat="50.9505856" lon="6.9160194">
      <time>2024-06-29T14:15:21Z</time>
    </trkpt>
    <trkpt lat="50.9505418" lon="6.9160606">
      <time>2024-06-29T14:15:22Z</time>
    </trkpt>
    <trkpt lat="50.9504290" lon="6.9162411">
      <time>2024-06-29T14:15:25Z</time>
    </trkpt>
    <trkpt lat="50.9503432" lon="6.9163925">
      <time>2024-06-29T14:15:27Z</time>
    </trkpt>
    <trkpt lat="50.9502546" lon="6.9165913">
      <time>2024-06-29T14:15:29Z</time>
    </trkpt>
    <trkpt lat="50.9501179" lon="6.9168182">
      <time>2024-06-29T14:15:32Z</time>
    </trkpt>
    <trkpt lat="50.9499776" lon="6.9170154">
      <time>2024-06-29T14:15:35Z</time>
    </trkpt>
    <trkpt lat="50.9498774" lon="6.9171535">
      <time>2024-06-29T14:15:37Z</time>
    </trkpt>
    <trkpt lat="50.9497276" lon="6.9173953">
      <time>2024-06-29T14:15:40Z</time>
    </trkpt>
    <trkpt lat="50.9493856" lon="6.9179490">
      <time>2024-06-29T14:15:47Z</time>
    </trkpt>
    <trkpt lat="50.9490974" lon="6.9184504">
      <time>2024-06-29T14:15:53Z</time>
    </trkpt>
    <trkpt lat="50.9490623" lon="6.9185339">
      <time>2024-06-29T14:15:54Z</time>
    </trkpt>
    <trkpt lat="50.9489903" lon="6.9187005">
      <time>2024-06-29T14:15:56Z</time>
    </trkpt>
    <trkpt lat="50.9488689" lon="6.9189419">
      <time>2024-06-29T14:15:59Z</time>
    </trkpt>
    <trkpt lat="50.9486539" lon="6.9194419">
      <time>2024-06-29T14:16:05Z</time>
    </trkpt>
    <trkpt lat="50.9485970" lon="6.9196146">
      <time>2024-06-29T14:16:07Z</time>
    </trkpt>
    <trkpt lat="50.9485681" lon="6.9197098">
      <time>2024-06-29T14:16:08Z</time>
    </trkpt>
    <trkpt lat="50.9484378" lon="6.9200158">
      <time>2024-06-29T14:16:12Z</time>
    </trkpt>
    <trkpt lat="50.9484111" lon="6.9200905">
      <time>2024-06-29T14:16:13Z</time>
    </trkpt>
    <trkpt lat="50.9483588" lon="6.9203093">
      <time>2024-06-29T14:16:16Z</time>
    </trkpt>
    <trkpt lat="50.9483333" lon="6.9204632">
      <time>2024-06-29T14:16:18Z</time>
    </trkpt>
    <trkpt lat="50.9482589" lon="6.9206111">
      <time>2024-06-29T14:16:20Z</time>
    </trkpt>
    <trkpt lat="50.9481737" lon="6.9207679">
      <time>2024-06-29T14:16:22Z</time>
    </trkpt>
    <trkpt lat="50.9480391" lon="6.9210046">
      <time>2024-06-29T14:16:25Z</time>
    </trkpt>
    <trkpt lat="50.9479972" lon="6.9210897">
      <time>2024-06-29T14:16:26Z</time>
    </trkpt>
    <trkpt lat="50.9478301" lon="6.9214451">
      <time>2024-06-29T14:16:30Z</time>
    </trkpt>
    <trkpt lat="50.9477893" lon="6.9215332">
      <time>2024-06-29T14:16:31Z</time>
    </trkpt>
    <trkpt lat="50.9477080" lon="6.9217118">
      <time>2024-06-29T14:16:33Z</time>
    </trkpt>
    <trkpt lat="50.9476736" lon="6.9218114">
      <time>2024-06-29T14:16:34Z</time>
    </trkpt>
    <trkpt lat="50.9474334" lon="6.9223724">
      <time>2024-06-29T14:16:40Z</time>
    </trkpt>
    <trkpt lat="50.9471379" lon="6.9231457">
      <time>2024-06-29T14:16:49Z</time>
    </trkpt>
    <trkpt lat="50.9471018" lon="6.9232202">
      <time>2024-06-29T14:16:50Z</time>
    </trkpt>
    <trkpt lat="50.9470422" lon="6.9233878">
      <time>2024-06-29T14:16:52Z</time>
    </trkpt>
    <trkpt lat="50.9470153" lon="6.9234783">
      <time>2024-06-29T14:16:53Z</time>
    </trkpt>
    <trkpt lat="50.9469839" lon="6.9235662">
      <time>2024-06-29T14:16:54Z</time>
    </trkpt>
    <trkpt lat="50.9468383" lon="6.9239343">
      <time>2024-06-29T14:16:58Z</time>
    </trkpt>
    <trkpt lat="50.9466268" lon="6.9244068">
      <time>2024-06-29T14:17:03Z</time>
    </trkpt>
    <trkpt lat="50.9464447" lon="6.9248918">
      <time>2024-06-29T14:17:08Z</time>
    </trkpt>
    <trkpt lat="50.9464080" lon="6.9249896">
      <time>2024-06-29T14:17:09Z</time>
    </trkpt>
    <trkpt lat="50.9463187" lon="6.9252000">
      <time>2024-06-29T14:17:12Z</time>
    </trkpt>
    <trkpt lat="50.9462682" lon="6.9253029">
      <time>2024-06-29T14:17:16Z</time>
    </trkpt>
    <trkpt lat="50.9461752" lon="6.9254388">
      <time>2024-06-29T14:17:22Z</time>
    </trkpt>
    <trkpt lat="50.9460963" lon="6.9256618">
      <time>2024-06-29T14:17:27Z</time>
    </trkpt>
    <trkpt lat="50.9460779" lon="6.9258021">
      <time>2024-06-29T14:17:29Z</time>
    </trkpt>
    <trkpt lat="50.9460265" lon="6.9259611">
      <time>2024-06-29T14:17:31Z</time>
    </trkpt>
    <trkpt lat="50.9458309" lon="6.9263703">
      <time>2024-06-29T14:17:36Z</time>
    </trkpt>
    <trkpt lat="50.9457497" lon="6.9265231">
      <time>2024-06-29T14:17:38Z</time>
    </trkpt>
    <trkpt lat="50.9456379" lon="6.9267516">
      <time>2024-06-29T14:17:41Z</time>
    </trkpt>
    <trkpt lat="50.9455511" lon="6.9268834">
      <time>2024-06-29T14:17:43Z</time>
    </trkpt>
    <trkpt lat="50.9454568" lon="6.9271049">
      <time>2024-06-29T14:17:46Z</time>
    </trkpt>
    <trkpt lat="50.9452654" lon="6.9276146">
      <time>2024-06-29T14:17:52Z</time>
    </trkpt>
    <trkpt lat="50.9450579" lon="6.9282217">
      <time>2024-06-29T14:17:59Z</time>
    </trkpt>
    <trkpt lat="50.9449808" lon="6.9283434">
      <time>2024-06-29T14:18:01Z</time>
    </trkpt>
    <trkpt lat="50.9448933" lon="6.9284318">
      <time>2024-06-29T14:18:03Z</time>
    </trkpt>
    <trkpt lat="50.9448589" lon="6.9284754">
      <time>2024-06-29T14:18:04Z</time>
    </trkpt>
    <trkpt lat="50.9448103" lon="6.9285946">
      <time>2024-06-29T14:18:06Z</time>
    </trkpt>
    <trkpt lat="50.9446642" lon="6.9291291">
      <time>2024-06-29T14:18:13Z</time>
    </trkpt>
    <trkpt lat="50.9445260" lon="6.9295668">
      <time>2024-06-29T14:18:19Z</time>
    </trkpt>
    <trkpt lat="50.9445189" lon="6.9296315">
      <time>2024-06-29T14:18:20Z</time>
    </trkpt>
    <trkpt lat="50.9444779" lon="6.9297887">
      <time>2024-06-29T14:18:22Z</time>
    </trkpt>
    <trkpt lat="50.9443892" lon="6.9299376">
      <time>2024-06-29T14:18:24Z</time>
    </trkpt>
    <trkpt lat="50.9442507" lon="6.9303474">
      <time>2024-06-29T14:18:29Z</time>
    </trkpt>
    <trkpt lat="50.9440730" lon="6.9308454">
      <time>2024-06-29T14:18:35Z</time>
    </trkpt>
    <trkpt lat="50.9439891" lon="6.9311083">
      <time>2024-06-29T14:18:38Z</time>
    </trkpt>
    <trkpt lat="50.9439308" lon="6.9312720">
      <time>2024-06-29T14:18:40Z</time>
    </trkpt>
    <trkpt lat="50.9438196" lon="6.9317110">
      <time>2024-06-29T14:18:45Z</time>
    </trkpt>
    <trkpt lat="50.9438120" lon="6.9317873">
      <time>2024-06-29T14:18:46Z</time>
    </trkpt>
    <trkpt lat="50.9438058" lon="6.9318576">
      <time>2024-06-29T14:18:47Z</time>
    </trkpt>
    <trkpt lat="50.9437743" lon="6.9321654">
      <time>2024-06-29T14:18:51Z</time>
    </trkpt>
    <trkpt lat="50.9436948" lon="6.9323813">
      <time>2024-06-29T14:18:54Z</time>
    </trkpt>
    <trkpt lat="50.9436209" lon="6.9325469">
      <time>2024-06-29T14:18:57Z</time>
    </trkpt>
    <trkpt lat="50.9434621" lon="6.9329215">
      <time>2024-06-29T14:19:04Z</time>
    </trkpt>
    <trkpt lat="50.9434253" lon="6.9330341">
      <time>2024-06-29T14:19:08Z</time>
    </trkpt>
    <trkpt lat="50.9434117" lon="6.9330802">
      <time>2024-06-29T14:19:10Z</time>
    </trkpt>
    <trkpt lat="50.9434013" lon="6.9331077">
      <time>2024-06-29T14:19:11Z</time>
    </trkpt>
    <trkpt lat="50.9433516" lon="6.9332335">
      <time>2024-06-29T14:19:14Z</time>
    </trkpt>
    <trkpt lat="50.9432563" lon="6.9334545">
      <time>2024-06-29T14:19:17Z</time>
    </trkpt>
    <trkpt lat="50.9432326" lon="6.9335290">
      <time>2024-06-29T14:19:18Z</time>
    </trkpt>
    <trkpt lat="50.9431765" lon="6.9336660">
      <time>2024-06-29T14:19:20Z</time>
    </trkpt>
    <trkpt lat="50.9431201" lon="6.9338009">
      <time>2024-06-29T14:19:22Z</time>
    </trkpt>
    <trkpt lat="50.9430827" lon="6.9338604">
      <time>2024-06-29T14:19:23Z</time>
    </trkpt>
    <trkpt lat="50.9430442" lon="6.9339241">
      <time>2024-06-29T14:19:24Z</time>
    </trkpt>
    <trkpt lat="50.9430091" lon="6.9340134">
      <time>2024-06-29T14:19:25Z</time>
    </trkpt>
    <trkpt lat="50.9429640" lon="6.9341050">
      <time>2024-06-29T14:19:26Z</time>
    </trkpt>
    <trkpt lat="50.9428190" lon="6.9345247">
      <time>2024-06-29T14:19:29Z</time>
    </trkpt>
    <trkpt lat="50.9426852" lon="6.9347291">
      <time>2024-06-29T14:19:31Z</time>
    </trkpt>
    <trkpt lat="50.9426062" lon="6.9348800">
      <time>2024-06-29T14:19:33Z</time>
    </trkpt>
    <trkpt lat="50.9425727" lon="6.9349624">
      <time>2024-06-29T14:19:34Z</time>
    </trkpt>
    <trkpt lat="50.9424963" lon="6.9350886">
      <time>2024-06-29T14:19:36Z</time>
    </trkpt>
    <trkpt lat="50.9423483" lon="6.9352923">
      <time>2024-06-29T14:19:39Z</time>
    </trkpt>
    <trkpt lat="50.9422641" lon="6.9354503">
      <time>2024-06-29T14:19:41Z</time>
    </trkpt>
    <trkpt lat="50.9421484" lon="6.9356795">
      <time>2024-06-29T14:19:44Z</time>
    </trkpt>
    <trkpt lat="50.9420722" lon="6.9358375">
      <time>2024-06-29T14:19:46Z</time>
    </trkpt>
    <trkpt lat="50.9418674" lon="6.9362255">
      <time>2024-06-29T14:19:51Z</time>
    </trkpt>
    <trkpt lat="50.9416838" lon="6.9365043">
      <time>2024-06-29T14:19:55Z</time>
    </trkpt>
    <trkpt lat="50.9416428" lon="6.9365800">
      <time>2024-06-29T14:19:56Z</time>
    </trkpt>
    <trkpt lat="50.9415451" lon="6.9367253">
      <time>2024-06-29T14:19:58Z</time>
    </trkpt>
    <trkpt lat="50.9415055" lon="6.9368043">
      <time>2024-06-29T14:19:59Z</time>
    </trkpt>
    <trkpt lat="50.9413437" lon="6.9371056">
      <time>2024-06-29T14:20:03Z</time>
    </trkpt>
    <trkpt lat="50.9412071" lon="6.9374492">
      <time>2024-06-29T14:20:07Z</time>
    </trkpt>
    <trkpt lat="50.9411749" lon="6.9375297">
      <time>2024-06-29T14:20:08Z</time>
    </trkpt>
    <trkpt lat="50.9411384" lon="6.9376034">
      <time>2024-06-29T14:20:09Z</time>
    </trkpt>
    <trkpt lat="50.9410487" lon="6.9377299">
      <time>2024-06-29T14:20:11Z</time>
    </trkpt>
    <trkpt lat="50.9409808" lon="6.9378816">
      <time>2024-06-29T14:20:13Z</time>
    </trkpt>
    <trkpt lat="50.9408714" lon="6.9380983">
      <time>2024-06-29T14:20:16Z</time>
    </trkpt>
    <trkpt lat="50.9408394" lon="6.9381846">
      <time>2024-06-29T14:20:17Z</time>
    </trkpt>
    <trkpt lat="50.9406848" lon="6.9388380">
      <time>2024-06-29T14:20:24Z</time>
    </trkpt>
    <trkpt lat="50.9406541" lon="6.9390215">
      <time>2024-06-29T14:20:26Z</time>
    </trkpt>
    <trkpt lat="50.9406115" lon="6.9392572">
      <time>2024-06-29T14:20:29Z</time>
    </trkpt>
    <trkpt lat="50.9405931" lon="6.9393980">
      <time>2024-06-29T14:20:31Z</time>
    </trkpt>
    <trkpt lat="50.9405897" lon="6.9395166">
      <time>2024-06-29T14:20:33Z</time>
    </trkpt>
    <trkpt lat="50.9405916" lon="6.9395796">
      <time>2024-06-29T14:20:35Z</time>
    </trkpt>
    <trkpt lat="50.9405973" lon="6.9395915">
      <time>2024-06-29T14:20:36Z</time>
    </trkpt>
    <trkpt lat="50.9406089" lon="6.9396244">
      <time>2024-06-29T14:20:44Z</time>
    </trkpt>
    <trkpt lat="50.9406089" lon="6.9396244">
      <time>2024-06-29T14:20:46Z</time>
    </trkpt>
    <trkpt lat="50.9405437" lon="6.9396460">
      <time>2024-06-29T14:21:14Z</time>
    </trkpt>
    <trkpt lat="50.9405270" lon="6.9396659">
      <time>2024-06-29T14:21:15Z</time>
    </trkpt>
    <trkpt lat="50.9404239" lon="6.9396656">
      <time>2024-06-29T14:21:18Z</time>
    </trkpt>
    <trkpt lat="50.9403830" lon="6.9396437">
      <time>2024-06-29T14:21:19Z</time>
    </trkpt>
    <trkpt lat="50.9401541" lon="6.9395595">
      <time>2024-06-29T14:21:24Z</time>
    </trkpt>
    <trkpt lat="50.9398406" lon="6.9395839">
      <time>2024-06-29T14:21:29Z</time>
    </trkpt>
    <trkpt lat="50.9395610" lon="6.9396357">
      <time>2024-06-29T14:21:33Z</time>
    </trkpt>
    <trkpt lat="50.9394741" lon="6.9396619">
      <time>2024-06-29T14:21:34Z</time>
    </trkpt>
    <trkpt lat="50.9393225" lon="6.9396672">
      <time>2024-06-29T14:21:36Z</time>
    </trkpt>
    <trkpt lat="50.9389485" lon="6.9396536">
      <time>2024-06-29T14:21:42Z</time>
    </trkpt>
    <trkpt lat="50.9388865" lon="6.9396598">
      <time>2024-06-29T14:21:43Z</time>
    </trkpt>
    <trkpt lat="50.9387112" lon="6.9395746">
      <time>2024-06-29T14:21:46Z</time>
    </trkpt>
    <trkpt lat="50.9385746" lon="6.9394615">
      <time>2024-06-29T14:21:48Z</time>
    </trkpt>
    <trkpt lat="50.9384473" lon="6.9394452">
      <time>2024-06-29T14:21:50Z</time>
    </trkpt>
    <trkpt lat="50.9383818" lon="6.9394552">
      <time>2024-06-29T14:21:51Z</time>
    </trkpt>
    <trkpt lat="50.9382480" lon="6.9394272">
      <time>2024-06-29T14:21:53Z</time>
    </trkpt>
    <trkpt lat="50.9381135" lon="6.9393720">
      <time>2024-06-29T14:21:55Z</time>
    </trkpt>
    <trkpt lat="50.9380477" lon="6.9393476">
      <time>2024-06-29T14:21:56Z</time>
    </trkpt>
    <trkpt lat="50.9377876" lon="6.9392826">
      <time>2024-06-29T14:22:00Z</time>
    </trkpt>
    <trkpt lat="50.9376493" lon="6.9392515">
      <time>2024-06-29T14:22:02Z</time>
    </trkpt>
    <trkpt lat="50.9375211" lon="6.9392391">
      <time>2024-06-29T14:22:04Z</time>
    </trkpt>
    <trkpt lat="50.9371745" lon="6.9392227">
      <time>2024-06-29T14:22:09Z</time>
    </trkpt>
    <trkpt lat="50.9368904" lon="6.9391833">
      <time>2024-06-29T14:22:14Z</time>
    </trkpt>
    <trkpt lat="50.9366094" lon="6.9391456">
      <time>2024-06-29T14:22:19Z</time>
    </trkpt>
    <trkpt lat="50.9365669" lon="6.9391445">
      <time>2024-06-29T14:22:20Z</time>
    </trkpt>
    <trkpt lat="50.9364721" lon="6.9391680">
      <time>2024-06-29T14:22:23Z</time>
    </trkpt>
    <trkpt lat="50.9364368" lon="6.9392221">
      <time>2024-06-29T14:22:25Z</time>
    </trkpt>
    <trkpt lat="50.9364299" lon="6.9392491">
      <time>2024-06-29T14:22:26Z</time>
    </trkpt>
    <trkpt lat="50.9364311" lon="6.9392390">
      <time>2024-06-29T14:22:27Z</time>
    </trkpt>
    <trkpt lat="50.9364469" lon="6.9390889">
      <time>2024-06-29T14:22:30Z</time>
    </trkpt>
    <trkpt lat="50.9365124" lon="6.9391111">
      <time>2024-06-29T14:22:35Z</time>
    </trkpt>
    <trkpt lat="50.9365116" lon="6.9392112">
      <time>2024-06-29T14:22:38Z</time>
    </trkpt>
    <trkpt lat="50.9365154" lon="6.9392982">
      <time>2024-06-29T14:22:40Z</time>
    </trkpt>
    <trkpt lat="50.9364514" lon="6.9394602">
      <time>2024-06-29T14:22:44Z</time>
    </trkpt>
    <trkpt lat="50.9364572" lon="6.9397953">
      <time>2024-06-29T14:22:49Z</time>
    </trkpt>
    <trkpt lat="50.9364637" lon="6.9400720">
      <time>2024-06-29T14:22:55Z</time>
    </trkpt>
    <trkpt lat="50.9364566" lon="6.9401379">
      <time>2024-06-29T14:22:57Z</time>
    </trkpt>
    <trkpt lat="50.9364493" lon="6.9401779">
      <time>2024-06-29T14:22:58Z</time>
    </trkpt>
    <trkpt lat="50.9364216" lon="6.9403128">
      <time>2024-06-29T14:23:01Z</time>
    </trkpt>
    <trkpt lat="50.9364159" lon="6.9403412">
      <time>2024-06-29T14:23:05Z</time>
    </trkpt>
    <trkpt lat="50.9364014" lon="6.9403360">
      <time>2024-06-29T14:23:06Z</time>
    </trkpt>
    <trkpt lat="50.9363127" lon="6.9403800">
      <time>2024-06-29T14:23:10Z</time>
    </trkpt>
    <trkpt lat="50.9361553" lon="6.9404397">
      <time>2024-06-29T14:23:16Z</time>
    </trkpt>
    <trkpt lat="50.9360061" lon="6.9404659">
      <time>2024-06-29T14:23:22Z</time>
    </trkpt>
    <trkpt lat="50.9359511" lon="6.9405214">
      <time>2024-06-29T14:23:24Z</time>
    </trkpt>
    <trkpt lat="50.9359169" lon="6.9405742">
      <time>2024-06-29T14:23:26Z</time>
    </trkpt>
    <trkpt lat="50.9358702" lon="6.9406711">
      <time>2024-06-29T14:23:31Z</time>
    </trkpt>
    <trkpt lat="50.9358665" lon="6.9406789">
      <time>2024-06-29T14:23:32Z</time>
    </trkpt>
    <trkpt lat="50.9359390" lon="6.9408809">
      <time>2024-06-29T14:23:37Z</time>
    </trkpt>
    <trkpt lat="50.9359561" lon="6.9410108">
      <time>2024-06-29T14:23:39Z</time>
    </trkpt>
    <trkpt lat="50.9359607" lon="6.9411611">
      <time>2024-06-29T14:23:41Z</time>
    </trkpt>
    <trkpt lat="50.9359513" lon="6.9412543">
      <time>2024-06-29T14:23:42Z</time>
    </trkpt>
    <trkpt lat="50.9358736" lon="6.9415776">
      <time>2024-06-29T14:23:46Z</time>
    </trkpt>
    <trkpt lat="50.9358622" lon="6.9418007">
      <time>2024-06-29T14:23:49Z</time>
    </trkpt>
    <trkpt lat="50.9358513" lon="6.9419424">
      <time>2024-06-29T14:23:51Z</time>
    </trkpt>
    <trkpt lat="50.9358262" lon="6.9425001">
      <time>2024-06-29T14:23:58Z</time>
    </trkpt>
    <trkpt lat="50.9358161" lon="6.9427369">
      <time>2024-06-29T14:24:01Z</time>
    </trkpt>
    <trkpt lat="50.9358085" lon="6.9428989">
      <time>2024-06-29T14:24:03Z</time>
    </trkpt>
    <trkpt lat="50.9357868" lon="6.9433183">
      <time>2024-06-29T14:24:08Z</time>
    </trkpt>
    <trkpt lat="50.9358003" lon="6.9434795">
      <time>2024-06-29T14:24:10Z</time>
    </trkpt>
    <trkpt lat="50.9358016" lon="6.9435626">
      <time>2024-06-29T14:24:11Z</time>
    </trkpt>
    <trkpt lat="50.9358029" lon="6.9439381">
      <time>2024-06-29T14:24:16Z</time>
    </trkpt>
    <trkpt lat="50.9357992" lon="6.9441386">
      <time>2024-06-29T14:24:19Z</time>
    </trkpt>
    <trkpt lat="50.9357954" lon="6.9442087">
      <time>2024-06-29T14:24:20Z</time>
    </trkpt>
    <trkpt lat="50.9358114" lon="6.9444339">
      <time>2024-06-29T14:24:23Z</time>
    </trkpt>
    <trkpt lat="50.9358111" lon="6.9444999">
      <time>2024-06-29T14:24:24Z</time>
    </trkpt>
    <trkpt lat="50.9358445" lon="6.9447175">
      <time>2024-06-29T14:24:29Z</time>
    </trkpt>
    <trkpt lat="50.9358456" lon="6.9447228">
      <time>2024-06-29T14:24:33Z</time>
    </trkpt>
    <trkpt lat="50.9358088" lon="6.9448949">
      <time>2024-06-29T14:24:48Z</time>
    </trkpt>
    <trkpt lat="50.9358062" lon="6.9449352">
      <time>2024-06-29T14:24:49Z</time>
    </trkpt>
    <trkpt lat="50.9358025" lon="6.9452410">
      <time>2024-06-29T14:24:55Z</time>
    </trkpt>
    <trkpt lat="50.9358164" lon="6.9456181">
      <time>2024-06-29T14:25:01Z</time>
    </trkpt>
    <trkpt lat="50.9357526" lon="6.9458839">
      <time>2024-06-29T14:25:06Z</time>
    </trkpt>
    <trkpt lat="50.9357397" lon="6.9460952">
      <time>2024-06-29T14:25:10Z</time>
    </trkpt>
    <trkpt lat="50.9357951" lon="6.9464308">
      <time>2024-06-29T14:25:15Z</time>
    </trkpt>
    <trkpt lat="50.9358591" lon="6.9468315">
      <time>2024-06-29T14:25:21Z</time>
    </trkpt>
    <trkpt lat="50.9358945" lon="6.9469609">
      <time>2024-06-29T14:25:23Z</time>
    </trkpt>
    <trkpt lat="50.9359193" lon="6.9470286">
      <time>2024-06-29T14:25:24Z</time>
    </trkpt>
    <trkpt lat="50.9359638" lon="6.9471698">
      <time>2024-06-29T14:25:26Z</time>
    </trkpt>
    <trkpt lat="50.9359965" lon="6.9473282">
      <time>2024-06-29T14:25:28Z</time>
    </trkpt>
    <trkpt lat="50.9359287" lon="6.9475381">
      <time>2024-06-29T14:25:31Z</time>
    </trkpt>
    <trkpt lat="50.9358365" lon="6.9477560">
      <time>2024-06-29T14:25:34Z</time>
    </trkpt>
    <trkpt lat="50.9358151" lon="6.9478962">
      <time>2024-06-29T14:25:36Z</time>
    </trkpt>
    <trkpt lat="50.9358132" lon="6.9479693">
      <time>2024-06-29T14:25:37Z</time>
    </trkpt>
    <trkpt lat="50.9358189" lon="6.9480510">
      <time>2024-06-29T14:25:38Z</time>
    </trkpt>
    <trkpt lat="50.9358055" lon="6.9481906">
      <time>2024-06-29T14:25:40Z</time>
    </trkpt>
    <trkpt lat="50.9358322" lon="6.9482594">
      <time>2024-06-29T14:25:41Z</time>
    </trkpt>
    <trkpt lat="50.9358441" lon="6.9484684">
      <time>2024-06-29T14:25:44Z</time>
    </trkpt>
    <trkpt lat="50.9358498" lon="6.9485929">
      <time>2024-06-29T14:25:46Z</time>
    </trkpt>
    <trkpt lat="50.9358410" lon="6.9487094">
      <time>2024-06-29T14:25:48Z</time>
    </trkpt>
    <trkpt lat="50.9355908" lon="6.9488988">
      <time>2024-06-29T14:25:51Z</time>
    </trkpt>
    <trkpt lat="50.9355446" lon="6.9490916">
      <time>2024-06-29T14:25:54Z</time>
    </trkpt>
    <trkpt lat="50.9355286" lon="6.9493565">
      <time>2024-06-29T14:25:58Z</time>
    </trkpt>
    <trkpt lat="50.9355011" lon="6.9496689">
      <time>2024-06-29T14:26:02Z</time>
    </trkpt>
    <trkpt lat="50.9354866" lon="6.9498168">
      <time>2024-06-29T14:26:04Z</time>
    </trkpt>
    <trkpt lat="50.9354752" lon="6.9499514">
      <time>2024-06-29T14:26:06Z</time>
    </trkpt>
    <trkpt lat="50.9354463" lon="6.9500907">
      <time>2024-06-29T14:26:08Z</time>
    </trkpt>
    <trkpt lat="50.9354143" lon="6.9501605">
      <time>2024-06-29T14:26:09Z</time>
    </trkpt>
    <trkpt lat="50.9353274" lon="6.9504618">
      <time>2024-06-29T14:26:13Z</time>
    </trkpt>
    <trkpt lat="50.9353193" lon="6.9505943">
      <time>2024-06-29T14:26:15Z</time>
    </trkpt>
    <trkpt lat="50.9353125" lon="6.9506609">
      <time>2024-06-29T14:26:16Z</time>
    </trkpt>
    <trkpt lat="50.9352432" lon="6.9508034">
      <time>2024-06-29T14:26:18Z</time>
    </trkpt>
    <trkpt lat="50.9352156" lon="6.9509454">
      <time>2024-06-29T14:26:20Z</time>
    </trkpt>
    <trkpt lat="50.9352199" lon="6.9511136">
      <time>2024-06-29T14:26:22Z</time>
    </trkpt>
    <trkpt lat="50.9352302" lon="6.9513969">
      <time>2024-06-29T14:26:26Z</time>
    </trkpt>
    <trkpt lat="50.9352059" lon="6.9517777">
      <time>2024-06-29T14:26:32Z</time>
    </trkpt>
    <trkpt lat="50.9351827" lon="6.9518948">
      <time>2024-06-29T14:26:35Z</time>
    </trkpt>
    <trkpt lat="50.9351943" lon="6.9519284">
      <time>2024-06-29T14:26:36Z</time>
    </trkpt>
    <trkpt lat="50.9352162" lon="6.9520062">
      <time>2024-06-29T14:26:38Z</time>
    </trkpt>
    <trkpt lat="50.9352223" lon="6.9521173">
      <time>2024-06-29T14:26:40Z</time>
    </trkpt>
    <trkpt lat="50.9352233" lon="6.9523801">
      <time>2024-06-29T14:26:44Z</time>
    </trkpt>
    <trkpt lat="50.9351672" lon="6.9526001">
      <time>2024-06-29T14:26:48Z</time>
    </trkpt>
    <trkpt lat="50.9351660" lon="6.9527324">
      <time>2024-06-29T14:26:50Z</time>
    </trkpt>
    <trkpt lat="50.9351731" lon="6.9528002">
      <time>2024-06-29T14:26:51Z</time>
    </trkpt>
    <trkpt lat="50.9351354" lon="6.9529365">
      <time>2024-06-29T14:26:53Z</time>
    </trkpt>
    <trkpt lat="50.9350955" lon="6.9531784">
      <time>2024-06-29T14:26:56Z</time>
    </trkpt>
    <trkpt lat="50.9350725" lon="6.9534354">
      <time>2024-06-29T14:26:59Z</time>
    </trkpt>
    <trkpt lat="50.9350483" lon="6.9536213">
      <time>2024-06-29T14:27:01Z</time>
    </trkpt>
    <trkpt lat="50.9349569" lon="6.9543946">
      <time>2024-06-29T14:27:08Z</time>
    </trkpt>
    <trkpt lat="50.9349547" lon="6.9545053">
      <time>2024-06-29T14:27:09Z</time>
    </trkpt>
    <trkpt lat="50.9349538" lon="6.9549159">
      <time>2024-06-29T14:27:13Z</time>
    </trkpt>
    <trkpt lat="50.9349675" lon="6.9552048">
      <time>2024-06-29T14:27:16Z</time>
    </trkpt>
    <trkpt lat="50.9350017" lon="6.9553875">
      <time>2024-06-29T14:27:18Z</time>
    </trkpt>
    <trkpt lat="50.9350543" lon="6.9555630">
      <time>2024-06-29T14:27:20Z</time>
    </trkpt>
    <trkpt lat="50.9350991" lon="6.9557797">
      <time>2024-06-29T14:27:22Z</time>
    </trkpt>
    <trkpt lat="50.9351411" lon="6.9559902">
      <time>2024-06-29T14:27:24Z</time>
    </trkpt>
    <trkpt lat="50.9351843" lon="6.9562750">
      <time>2024-06-29T14:27:27Z</time>
    </trkpt>
    <trkpt lat="50.9352618" lon="6.9567442">
      <time>2024-06-29T14:27:32Z</time>
    </trkpt>
    <trkpt lat="50.9352845" lon="6.9568394">
      <time>2024-06-29T14:27:33Z</time>
    </trkpt>
    <trkpt lat="50.9353277" lon="6.9570357">
      <time>2024-06-29T14:27:35Z</time>
    </trkpt>
    <trkpt lat="50.9353261" lon="6.9571312">
      <time>2024-06-29T14:27:36Z</time>
    </trkpt>
    <trkpt lat="50.9353055" lon="6.9572340">
      <time>2024-06-29T14:27:37Z</time>
    </trkpt>
    <trkpt lat="50.9353152" lon="6.9576214">
      <time>2024-06-29T14:27:41Z</time>
    </trkpt>
    <trkpt lat="50.9353669" lon="6.9582749">
      <time>2024-06-29T14:27:47Z</time>
    </trkpt>
    <trkpt lat="50.9353633" lon="6.9583871">
      <time>2024-06-29T14:27:48Z</time>
    </trkpt>
    <trkpt lat="50.9353365" lon="6.9592440">
      <time>2024-06-29T14:27:56Z</time>
    </trkpt>
    <trkpt lat="50.9353409" lon="6.9593519">
      <time>2024-06-29T14:27:57Z</time>
    </trkpt>
    <trkpt lat="50.9353310" lon="6.9596511">
      <time>2024-06-29T14:28:00Z</time>
    </trkpt>
    <trkpt lat="50.9353426" lon="6.9598004">
      <time>2024-06-29T14:28:02Z</time>
    </trkpt>
    <trkpt lat="50.9354024" lon="6.9601275">
      <time>2024-06-29T14:28:07Z</time>
    </trkpt>
    <trkpt lat="50.9354359" lon="6.9602740">
      <time>2024-06-29T14:28:09Z</time>
    </trkpt>
    <trkpt lat="50.9354695" lon="6.9603943">
      <time>2024-06-29T14:28:11Z</time>
    </trkpt>
    <trkpt lat="50.9355569" lon="6.9606195">
      <time>2024-06-29T14:28:14Z</time>
    </trkpt>
    <trkpt lat="50.9355775" lon="6.9607031">
      <time>2024-06-29T14:28:15Z</time>
    </trkpt>
    <trkpt lat="50.9356242" lon="6.9608395">
      <time>2024-06-29T14:28:17Z</time>
    </trkpt>
    <trkpt lat="50.9356492" lon="6.9608765">
      <time>2024-06-29T14:28:18Z</time>
    </trkpt>
    <trkpt lat="50.9356783" lon="6.9609179">
      <time>2024-06-29T14:28:19Z</time>
    </trkpt>
    <trkpt lat="50.9357665" lon="6.9611276">
      <time>2024-06-29T14:28:22Z</time>
    </trkpt>
    <trkpt lat="50.9358017" lon="6.9612049">
      <time>2024-06-29T14:28:23Z</time>
    </trkpt>
    <trkpt lat="50.9359277" lon="6.9615153">
      <time>2024-06-29T14:28:27Z</time>
    </trkpt>
    <trkpt lat="50.9359844" lon="6.9616788">
      <time>2024-06-29T14:28:29Z</time>
    </trkpt>
    <trkpt lat="50.9360600" lon="6.9618511">
      <time>2024-06-29T14:28:31Z</time>
    </trkpt>
    <trkpt lat="50.9360838" lon="6.9619383">
      <time>2024-06-29T14:28:32Z</time>
    </trkpt>
    <trkpt lat="50.9361470" lon="6.9620919">
      <time>2024-06-29T14:28:34Z</time>
    </trkpt>
    <trkpt lat="50.9362087" lon="6.9623285">
      <time>2024-06-29T14:28:37Z</time>
    </trkpt>
    <trkpt lat="50.9362194" lon="6.9624094">
      <time>2024-06-29T14:28:38Z</time>
    </trkpt>
    <trkpt lat="50.9362360" lon="6.9625788">
      <time>2024-06-29T14:28:40Z</time>
    </trkpt>
    <trkpt lat="50.9362429" lon="6.9629353">
      <time>2024-06-29T14:28:44Z</time>
    </trkpt>
    <trkpt lat="50.9362226" lon="6.9631893">
      <time>2024-06-29T14:28:47Z</time>
    </trkpt>
    <trkpt lat="50.9362300" lon="6.9634405">
      <time>2024-06-29T14:28:50Z</time>
    </trkpt>
    <trkpt lat="50.9362333" lon="6.9636254">
      <time>2024-06-29T14:28:52Z</time>
    </trkpt>
    <trkpt lat="50.9362383" lon="6.9638990">
      <time>2024-06-29T14:28:55Z</time>
    </trkpt>
    <trkpt lat="50.9362465" lon="6.9640778">
      <time>2024-06-29T14:28:57Z</time>
    </trkpt>
    <trkpt lat="50.9362611" lon="6.9642630">
      <time>2024-06-29T14:28:59Z</time>
    </trkpt>
    <trkpt lat="50.9362721" lon="6.9644378">
      <time>2024-06-29T14:29:01Z</time>
    </trkpt>
    <trkpt lat="50.9362773" lon="6.9645181">
      <time>2024-06-29T14:29:02Z</time>
    </trkpt>
    <trkpt lat="50.9362883" lon="6.9647089">
      <time>2024-06-29T14:29:04Z</time>
    </trkpt>
    <trkpt lat="50.9362984" lon="6.9649113">
      <time>2024-06-29T14:29:06Z</time>
    </trkpt>
    <trkpt lat="50.9363174" lon="6.9653528">
      <time>2024-06-29T14:29:10Z</time>
    </trkpt>
    <trkpt lat="50.9363473" lon="6.9659508">
      <time>2024-06-29T14:29:15Z</time>
    </trkpt>
    <trkpt lat="50.9363544" lon="6.9660671">
      <time>2024-06-29T14:29:16Z</time>
    </trkpt>
    <trkpt lat="50.9363618" lon="6.9661840">
      <time>2024-06-29T14:29:17Z</time>
    </trkpt>
    <trkpt lat="50.9363737" lon="6.9664141">
      <time>2024-06-29T14:29:19Z</time>
    </trkpt>
    <trkpt lat="50.9363814" lon="6.9665317">
      <time>2024-06-29T14:29:20Z</time>
    </trkpt>
    <trkpt lat="50.9363875" lon="6.9666500">
      <time>2024-06-29T14:29:21Z</time>
    </trkpt>
    <trkpt lat="50.9363951" lon="6.9667696">
      <time>2024-06-29T14:29:22Z</time>
    </trkpt>
    <trkpt lat="50.9364033" lon="6.9668867">
      <time>2024-06-29T14:29:23Z</time>
    </trkpt>
    <trkpt lat="50.9364166" lon="6.9671258">
      <time>2024-06-29T14:29:25Z</time>
    </trkpt>
    <trkpt lat="50.9364345" lon="6.9674959">
      <time>2024-06-29T14:29:28Z</time>
    </trkpt>
    <trkpt lat="50.9364523" lon="6.9678855">
      <time>2024-06-29T14:29:31Z</time>
    </trkpt>
    <trkpt lat="50.9364610" lon="6.9682521">
      <time>2024-06-29T14:29:34Z</time>
    </trkpt>
    <trkpt lat="50.9364652" lon="6.9684083">
      <time>2024-06-29T14:29:35Z</time>
    </trkpt>
    <trkpt lat="50.9365022" lon="6.9692377">
      <time>2024-06-29T14:29:42Z</time>
    </trkpt>
    <trkpt lat="50.9365099" lon="6.9696909">
      <time>2024-06-29T14:29:46Z</time>
    </trkpt>
    <trkpt lat="50.9365096" lon="6.9700168">
      <time>2024-06-29T14:29:49Z</time>
    </trkpt>
    <trkpt lat="50.9364782" lon="6.9704027">
      <time>2024-06-29T14:29:53Z</time>
    </trkpt>
    <trkpt lat="50.9364680" lon="6.9704901">
      <time>2024-06-29T14:29:54Z</time>
    </trkpt>
    <trkpt lat="50.9364498" lon="6.9705632">
      <time>2024-06-29T14:29:55Z</time>
    </trkpt>
    <trkpt lat="50.9364142" lon="6.9706163">
      <time>2024-06-29T14:29:56Z</time>
    </trkpt>
    <trkpt lat="50.9363092" lon="6.9706552">
      <time>2024-06-29T14:29:58Z</time>
    </trkpt>
    <trkpt lat="50.9359246" lon="6.9706400">
      <time>2024-06-29T14:30:04Z</time>
    </trkpt>
    <trkpt lat="50.9355774" lon="6.9706296">
      <time>2024-06-29T14:30:10Z</time>
    </trkpt>
    <trkpt lat="50.9355229" lon="6.9706290">
      <time>2024-06-29T14:30:11Z</time>
    </trkpt>
    <trkpt lat="50.9354280" lon="6.9706244">
      <time>2024-06-29T14:30:13Z</time>
    </trkpt>
    <trkpt lat="50.9353468" lon="6.9705854">
      <time>2024-06-29T14:30:15Z</time>
    </trkpt>
    <trkpt lat="50.9351701" lon="6.9704941">
      <time>2024-06-29T14:30:19Z</time>
    </trkpt>
    <trkpt lat="50.9350662" lon="6.9705006">
      <time>2024-06-29T14:30:21Z</time>
    </trkpt>
    <trkpt lat="50.9347875" lon="6.9704442">
      <time>2024-06-29T14:30:26Z</time>
    </trkpt>
    <trkpt lat="50.9344284" lon="6.9704747">
      <time>2024-06-29T14:30:32Z</time>
    </trkpt>
    <trkpt lat="50.9343694" lon="6.9704722">
      <time>2024-06-29T14:30:33Z</time>
    </trkpt>
    <trkpt lat="50.9340844" lon="6.9704954">
      <time>2024-06-29T14:30:38Z</time>
    </trkpt>
    <trkpt lat="50.9339163" lon="6.9705014">
      <time>2024-06-29T14:30:41Z</time>
    </trkpt>
    <trkpt lat="50.9336829" lon="6.9705069">
      <time>2024-06-29T14:30:45Z</time>
    </trkpt>
    <trkpt lat="50.9336304" lon="6.9705250">
      <time>2024-06-29T14:30:46Z</time>
    </trkpt>
    <trkpt lat="50.9335373" lon="6.9706063">
      <time>2024-06-29T14:30:48Z</time>
    </trkpt>
    <trkpt lat="50.9334864" lon="6.9706426">
      <time>2024-06-29T14:30:49Z</time>
    </trkpt>
    <trkpt lat="50.9333253" lon="6.9706803">
      <time>2024-06-29T14:30:52Z</time>
    </trkpt>
    <trkpt lat="50.9328185" lon="6.9707799">
      <time>2024-06-29T14:31:01Z</time>
    </trkpt>
    <trkpt lat="50.9327612" lon="6.9707964">
      <time>2024-06-29T14:31:02Z</time>
    </trkpt>
    <trkpt lat="50.9325864" lon="6.9708324">
      <time>2024-06-29T14:31:05Z</time>
    </trkpt>
    <trkpt lat="50.9324192" lon="6.9709104">
      <time>2024-06-29T14:31:08Z</time>
    </trkpt>
    <trkpt lat="50.9319958" lon="6.9711310">
      <time>2024-06-29T14:31:16Z</time>
    </trkpt>
    <trkpt lat="50.9317758" lon="6.9712485">
      <time>2024-06-29T14:31:20Z</time>
    </trkpt>
    <trkpt lat="50.9315079" lon="6.9714128">
      <time>2024-06-29T14:31:25Z</time>
    </trkpt>
    <trkpt lat="50.9314550" lon="6.9714425">
      <time>2024-06-29T14:31:26Z</time>
    </trkpt>
    <trkpt lat="50.9312376" lon="6.9715710">
      <time>2024-06-29T14:31:30Z</time>
    </trkpt>
    <trkpt lat="50.9311939" lon="6.9715870">
      <time>2024-06-29T14:31:31Z</time>
    </trkpt>
    <trkpt lat="50.9311623" lon="6.9716272">
      <time>2024-06-29T14:31:32Z</time>
    </trkpt>
    <trkpt lat="50.9311180" lon="6.9716749">
      <time>2024-06-29T14:31:33Z</time>
    </trkpt>
    <trkpt lat="50.9309047" lon="6.9718525">
      <time>2024-06-29T14:31:37Z</time>
    </trkpt>
    <trkpt lat="50.9306013" lon="6.9721241">
      <time>2024-06-29T14:31:43Z</time>
    </trkpt>
    <trkpt lat="50.9304866" lon="6.9722194">
      <time>2024-06-29T14:31:45Z</time>
    </trkpt>
    <trkpt lat="50.9303289" lon="6.9723334">
      <time>2024-06-29T14:31:48Z</time>
    </trkpt>
    <trkpt lat="50.9300299" lon="6.9727126">
      <time>2024-06-29T14:31:54Z</time>
    </trkpt>
    <trkpt lat="50.9296313" lon="6.9730751">
      <time>2024-06-29T14:32:02Z</time>
    </trkpt>
    <trkpt lat="50.9293798" lon="6.9733774">
      <time>2024-06-29T14:32:08Z</time>
    </trkpt>
    <trkpt lat="50.9293409" lon="6.9734341">
      <time>2024-06-29T14:32:09Z</time>
    </trkpt>
    <trkpt lat="50.9289732" lon="6.9739463">
      <time>2024-06-29T14:32:18Z</time>
    </trkpt>
    <trkpt lat="50.9286831" lon="6.9744259">
      <time>2024-06-29T14:32:26Z</time>
    </trkpt>
    <trkpt lat="50.9286007" lon="6.9745715">
      <time>2024-06-29T14:32:29Z</time>
    </trkpt>
    <trkpt lat="50.9284788" lon="6.9747405">
      <time>2024-06-29T14:32:33Z</time>
    </trkpt>
    <trkpt lat="50.9284343" lon="6.9747509">
      <time>2024-06-29T14:32:34Z</time>
    </trkpt>
    <trkpt lat="50.9283888" lon="6.9747254">
      <time>2024-06-29T14:32:35Z</time>
    </trkpt>
    <trkpt lat="50.9283210" lon="6.9746296">
      <time>2024-06-29T14:32:37Z</time>
    </trkpt>
    <trkpt lat="50.9281784" lon="6.9741673">
      <time>2024-06-29T14:32:43Z</time>
    </trkpt>
    <trkpt lat="50.9280327" lon="6.9737405">
      <time>2024-06-29T14:32:48Z</time>
    </trkpt>
    <trkpt lat="50.9277572" lon="6.9730172">
      <time>2024-06-29T14:32:57Z</time>
    </trkpt>
    <trkpt lat="50.9276567" lon="6.9727250">
      <time>2024-06-29T14:33:01Z</time>
    </trkpt>
    <trkpt lat="50.9276005" lon="6.9725911">
      <time>2024-06-29T14:33:03Z</time>
    </trkpt>
    <trkpt lat="50.9275695" lon="6.9725233">
      <time>2024-06-29T14:33:04Z</time>
    </trkpt>
    <trkpt lat="50.9274941" lon="6.9724417">
      <time>2024-06-29T14:33:06Z</time>
    </trkpt>
    <trkpt lat="50.9274139" lon="6.9724409">
      <time>2024-06-29T14:33:08Z</time>
    </trkpt>
    <trkpt lat="50.9273737" lon="6.9724694">
      <time>2024-06-29T14:33:09Z</time>
    </trkpt>
    <trkpt lat="50.9272443" lon="6.9725305">
      <time>2024-06-29T14:33:12Z</time>
    </trkpt>
    <trkpt lat="50.9271638" lon="6.9725670">
      <time>2024-06-29T14:33:14Z</time>
    </trkpt>
    <trkpt lat="50.9271260" lon="6.9725853">
      <time>2024-06-29T14:33:15Z</time>
    </trkpt>
    <trkpt lat="50.9269685" lon="6.9726337">
      <time>2024-06-29T14:33:19Z</time>
    </trkpt>
    <trkpt lat="50.9269205" lon="6.9726581">
      <time>2024-06-29T14:33:20Z</time>
    </trkpt>
    <trkpt lat="50.9268409" lon="6.9727115">
      <time>2024-06-29T14:33:22Z</time>
    </trkpt>
    <trkpt lat="50.9267556" lon="6.9727508">
      <time>2024-06-29T14:33:24Z</time>
    </trkpt>
    <trkpt lat="50.9267049" lon="6.9727559">
      <time>2024-06-29T14:33:25Z</time>
    </trkpt>
    <trkpt lat="50.9266234" lon="6.9727795">
      <time>2024-06-29T14:33:27Z</time>
    </trkpt>
    <trkpt lat="50.9265087" lon="6.9728187">
      <time>2024-06-29T14:33:30Z</time>
    </trkpt>
    <trkpt lat="50.9264219" lon="6.9728685">
      <time>2024-06-29T14:33:32Z</time>
    </trkpt>
    <trkpt lat="50.9263418" lon="6.9729291">
      <time>2024-06-29T14:33:34Z</time>
    </trkpt>
    <trkpt lat="50.9262914" lon="6.9729667">
      <time>2024-06-29T14:33:35Z</time>
    </trkpt>
    <trkpt lat="50.9260255" lon="6.9730865">
      <time>2024-06-29T14:33:40Z</time>
    </trkpt>
    <trkpt lat="50.9258832" lon="6.9731482">
      <time>2024-06-29T14:33:43Z</time>
    </trkpt>
    <trkpt lat="50.9257854" lon="6.9731873">
      <time>2024-06-29T14:33:45Z</time>
    </trkpt>
    <trkpt lat="50.9257333" lon="6.9732179">
      <time>2024-06-29T14:33:46Z</time>
    </trkpt>
    <trkpt lat="50.9255852" lon="6.9733279">
      <time>2024-06-29T14:33:49Z</time>
    </trkpt>
    <trkpt lat="50.9254691" lon="6.9733494">
      <time>2024-06-29T14:33:51Z</time>
    </trkpt>
    <trkpt lat="50.9254139" lon="6.9733625">
      <time>2024-06-29T14:33:52Z</time>
    </trkpt>
    <trkpt lat="50.9252612" lon="6.9734890">
      <time>2024-06-29T14:33:55Z</time>
    </trkpt>
    <trkpt lat="50.9252062" lon="6.9735108">
      <time>2024-06-29T14:33:56Z</time>
    </trkpt>
    <trkpt lat="50.9250106" lon="6.9735815">
      <time>2024-06-29T14:33:59Z</time>
    </trkpt>
    <trkpt lat="50.9249548" lon="6.9736056">
      <time>2024-06-29T14:34:00Z</time>
    </trkpt>
    <trkpt lat="50.9246369" lon="6.9738162">
      <time>2024-06-29T14:34:07Z</time>
    </trkpt>
    <trkpt lat="50.9245873" lon="6.9738434">
      <time>2024-06-29T14:34:08Z</time>
    </trkpt>
    <trkpt lat="50.9244324" lon="6.9739247">
      <time>2024-06-29T14:34:11Z</time>
    </trkpt>
    <trkpt lat="50.9243225" lon="6.9739532">
      <time>2024-06-29T14:34:13Z</time>
    </trkpt>
    <trkpt lat="50.9242723" lon="6.9739870">
      <time>2024-06-29T14:34:14Z</time>
    </trkpt>
    <trkpt lat="50.9240706" lon="6.9741899">
      <time>2024-06-29T14:34:18Z</time>
    </trkpt>
    <trkpt lat="50.9239200" lon="6.9743095">
      <time>2024-06-29T14:34:21Z</time>
    </trkpt>
    <trkpt lat="50.9238658" lon="6.9743366">
      <time>2024-06-29T14:34:22Z</time>
    </trkpt>
    <trkpt lat="50.9237552" lon="6.9743872">
      <time>2024-06-29T14:34:24Z</time>
    </trkpt>
    <trkpt lat="50.9236684" lon="6.9744542">
      <time>2024-06-29T14:34:26Z</time>
    </trkpt>
    <trkpt lat="50.9236071" lon="6.9744873">
      <time>2024-06-29T14:34:27Z</time>
    </trkpt>
    <trkpt lat="50.9235705" lon="6.9745089">
      <time>2024-06-29T14:34:28Z</time>
    </trkpt>
    <trkpt lat="50.9233580" lon="6.9746264">
      <time>2024-06-29T14:34:32Z</time>
    </trkpt>
    <trkpt lat="50.9230010" lon="6.9748218">
      <time>2024-06-29T14:34:39Z</time>
    </trkpt>
    <trkpt lat="50.9228998" lon="6.9748923">
      <time>2024-06-29T14:34:41Z</time>
    </trkpt>
    <trkpt lat="50.9227451" lon="6.9750124">
      <time>2024-06-29T14:34:44Z</time>
    </trkpt>
    <trkpt lat="50.9225827" lon="6.9751045">
      <time>2024-06-29T14:34:47Z</time>
    </trkpt>
    <trkpt lat="50.9225333" lon="6.9751373">
      <time>2024-06-29T14:34:48Z</time>
    </trkpt>
    <trkpt lat="50.9223419" lon="6.9752882">
      <time>2024-06-29T14:34:52Z</time>
    </trkpt>
    <trkpt lat="50.9222406" lon="6.9753333">
      <time>2024-06-29T14:34:54Z</time>
    </trkpt>
    <trkpt lat="50.9220815" lon="6.9754481">
      <time>2024-06-29T14:34:57Z</time>
    </trkpt>
    <trkpt lat="50.9219714" lon="6.9755366">
      <time>2024-06-29T14:34:59Z</time>
    </trkpt>
    <trkpt lat="50.9218811" lon="6.9756113">
      <time>2024-06-29T14:35:01Z</time>
    </trkpt>
    <trkpt lat="50.9217379" lon="6.9757197">
      <time>2024-06-29T14:35:04Z</time>
    </trkpt>
    <trkpt lat="50.9216466" lon="6.9757854">
      <time>2024-06-29T14:35:06Z</time>
    </trkpt>
    <trkpt lat="50.9213944" lon="6.9759434">
      <time>2024-06-29T14:35:11Z</time>
    </trkpt>
    <trkpt lat="50.9213396" lon="6.9759798">
      <time>2024-06-29T14:35:12Z</time>
    </trkpt>
    <trkpt lat="50.9212362" lon="6.9760685">
      <time>2024-06-29T14:35:14Z</time>
    </trkpt>
    <trkpt lat="50.9211884" lon="6.9761040">
      <time>2024-06-29T14:35:15Z</time>
    </trkpt>
    <trkpt lat="50.9210368" lon="6.9762180">
      <time>2024-06-29T14:35:18Z</time>
    </trkpt>
    <trkpt lat="50.9209271" lon="6.9763226">
      <time>2024-06-29T14:35:20Z</time>
    </trkpt>
    <trkpt lat="50.9208489" lon="6.9763866">
      <time>2024-06-29T14:35:22Z</time>
    </trkpt>
    <trkpt lat="50.9206332" lon="6.9765135">
      <time>2024-06-29T14:35:26Z</time>
    </trkpt>
    <trkpt lat="50.9203475" lon="6.9767208">
      <time>2024-06-29T14:35:31Z</time>
    </trkpt>
    <trkpt lat="50.9202331" lon="6.9768144">
      <time>2024-06-29T14:35:33Z</time>
    </trkpt>
    <trkpt lat="50.9200489" lon="6.9769388">
      <time>2024-06-29T14:35:36Z</time>
    </trkpt>
    <trkpt lat="50.9199270" lon="6.9770452">
      <time>2024-06-29T14:35:38Z</time>
    </trkpt>
    <trkpt lat="50.9197432" lon="6.9772146">
      <time>2024-06-29T14:35:41Z</time>
    </trkpt>
    <trkpt lat="50.9196122" lon="6.9772991">
      <time>2024-06-29T14:35:43Z</time>
    </trkpt>
    <trkpt lat="50.9195048" lon="6.9773741">
      <time>2024-06-29T14:35:45Z</time>
    </trkpt>
    <trkpt lat="50.9193400" lon="6.9774799">
      <time>2024-06-29T14:35:48Z</time>
    </trkpt>
    <trkpt lat="50.9191758" lon="6.9775906">
      <time>2024-06-29T14:35:51Z</time>
    </trkpt>
    <trkpt lat="50.9190688" lon="6.9776565">
      <time>2024-06-29T14:35:53Z</time>
    </trkpt>
    <trkpt lat="50.9190151" lon="6.9776860">
      <time>2024-06-29T14:35:54Z</time>
    </trkpt>
    <trkpt lat="50.9188014" lon="6.9778378">
      <time>2024-06-29T14:35:58Z</time>
    </trkpt>
    <trkpt lat="50.9186080" lon="6.9780097">
      <time>2024-06-29T14:36:02Z</time>
    </trkpt>
    <trkpt lat="50.9184581" lon="6.9781548">
      <time>2024-06-29T14:36:05Z</time>
    </trkpt>
    <trkpt lat="50.9183687" lon="6.9781879">
      <time>2024-06-29T14:36:07Z</time>
    </trkpt>
    <trkpt lat="50.9182882" lon="6.9782491">
      <time>2024-06-29T14:36:09Z</time>
    </trkpt>
    <trkpt lat="50.9182009" lon="6.9783152">
      <time>2024-06-29T14:36:11Z</time>
    </trkpt>
    <trkpt lat="50.9181149" lon="6.9784006">
      <time>2024-06-29T14:36:13Z</time>
    </trkpt>
    <trkpt lat="50.9179022" lon="6.9785907">
      <time>2024-06-29T14:36:18Z</time>
    </trkpt>
    <trkpt lat="50.9178512" lon="6.9786490">
      <time>2024-06-29T14:36:19Z</time>
    </trkpt>
    <trkpt lat="50.9178054" lon="6.9786909">
      <time>2024-06-29T14:36:20Z</time>
    </trkpt>
    <trkpt lat="50.9177116" lon="6.9787602">
      <time>2024-06-29T14:36:22Z</time>
    </trkpt>
    <trkpt lat="50.9176692" lon="6.9787820">
      <time>2024-06-29T14:36:23Z</time>
    </trkpt>
    <trkpt lat="50.9175800" lon="6.9788287">
      <time>2024-06-29T14:36:25Z</time>
    </trkpt>
    <trkpt lat="50.9174464" lon="6.9789230">
      <time>2024-06-29T14:36:28Z</time>
    </trkpt>
    <trkpt lat="50.9173487" lon="6.9789929">
      <time>2024-06-29T14:36:30Z</time>
    </trkpt>
    <trkpt lat="50.9172114" lon="6.9791017">
      <time>2024-06-29T14:36:33Z</time>
    </trkpt>
    <trkpt lat="50.9170533" lon="6.9792510">
      <time>2024-06-29T14:36:37Z</time>
    </trkpt>
    <trkpt lat="50.9169551" lon="6.9793428">
      <time>2024-06-29T14:36:39Z</time>
    </trkpt>
    <trkpt lat="50.9168056" lon="6.9795044">
      <time>2024-06-29T14:36:42Z</time>
    </trkpt>
    <trkpt lat="50.9167222" lon="6.9796093">
      <time>2024-06-29T14:36:44Z</time>
    </trkpt>
    <trkpt lat="50.9166799" lon="6.9796526">
      <time>2024-06-29T14:36:45Z</time>
    </trkpt>
    <trkpt lat="50.9164282" lon="6.9798922">
      <time>2024-06-29T14:36:51Z</time>
    </trkpt>
    <trkpt lat="50.9161547" lon="6.9801170">
      <time>2024-06-29T14:36:57Z</time>
    </trkpt>
    <trkpt lat="50.9161034" lon="6.9801546">
      <time>2024-06-29T14:36:58Z</time>
    </trkpt>
    <trkpt lat="50.9157536" lon="6.9804276">
      <time>2024-06-29T14:37:05Z</time>
    </trkpt>
    <trkpt lat="50.9156716" lon="6.9805384">
      <time>2024-06-29T14:37:07Z</time>
    </trkpt>
    <trkpt lat="50.9155650" lon="6.9806307">
      <time>2024-06-29T14:37:09Z</time>
    </trkpt>
    <trkpt lat="50.9155122" lon="6.9806732">
      <time>2024-06-29T14:37:10Z</time>
    </trkpt>
    <trkpt lat="50.9154079" lon="6.9807826">
      <time>2024-06-29T14:37:12Z</time>
    </trkpt>
    <trkpt lat="50.9152448" lon="6.9809053">
      <time>2024-06-29T14:37:15Z</time>
    </trkpt>
    <trkpt lat="50.9151895" lon="6.9809559">
      <time>2024-06-29T14:37:16Z</time>
    </trkpt>
    <trkpt lat="50.9150770" lon="6.9810714">
      <time>2024-06-29T14:37:18Z</time>
    </trkpt>
    <trkpt lat="50.9149677" lon="6.9811775">
      <time>2024-06-29T14:37:20Z</time>
    </trkpt>
    <trkpt lat="50.9147913" lon="6.9813328">
      <time>2024-06-29T14:37:23Z</time>
    </trkpt>
    <trkpt lat="50.9147321" lon="6.9813950">
      <time>2024-06-29T14:37:24Z</time>
    </trkpt>
    <trkpt lat="50.9145188" lon="6.9816597">
      <time>2024-06-29T14:37:28Z</time>
    </trkpt>
    <trkpt lat="50.9144220" lon="6.9817816">
      <time>2024-06-29T14:37:30Z</time>
    </trkpt>
    <trkpt lat="50.9142799" lon="6.9818777">
      <time>2024-06-29T14:37:33Z</time>
    </trkpt>
    <trkpt lat="50.9141902" lon="6.9819683">
      <time>2024-06-29T14:37:35Z</time>
    </trkpt>
    <trkpt lat="50.9123838" lon="6.9840055">
      <time>2024-06-29T14:38:11Z</time>
    </trkpt>
    <trkpt lat="50.9121699" lon="6.9840821">
      <time>2024-06-29T14:38:14Z</time>
    </trkpt>
    <trkpt lat="50.9119574" lon="6.9843029">
      <time>2024-06-29T14:38:18Z</time>
    </trkpt>
    <trkpt lat="50.9118647" lon="6.9844057">
      <time>2024-06-29T14:38:20Z</time>
    </trkpt>
    <trkpt lat="50.9117722" lon="6.9845141">
      <time>2024-06-29T14:38:22Z</time>
    </trkpt>
    <trkpt lat="50.9116759" lon="6.9846185">
      <time>2024-06-29T14:38:24Z</time>
    </trkpt>
    <trkpt lat="50.9114642" lon="6.9848545">
      <time>2024-06-29T14:38:28Z</time>
    </trkpt>
    <trkpt lat="50.9113627" lon="6.9849630">
      <time>2024-06-29T14:38:30Z</time>
    </trkpt>
    <trkpt lat="50.9113144" lon="6.9850040">
      <time>2024-06-29T14:38:31Z</time>
    </trkpt>
    <trkpt lat="50.9112391" lon="6.9850718">
      <time>2024-06-29T14:38:33Z</time>
    </trkpt>
    <trkpt lat="50.9111864" lon="6.9851336">
      <time>2024-06-29T14:38:34Z</time>
    </trkpt>
    <trkpt lat="50.9110920" lon="6.9852551">
      <time>2024-06-29T14:38:36Z</time>
    </trkpt>
    <trkpt lat="50.9108807" lon="6.9854906">
      <time>2024-06-29T14:38:40Z</time>
    </trkpt>
    <trkpt lat="50.9107481" lon="6.9856591">
      <time>2024-06-29T14:38:43Z</time>
    </trkpt>
    <trkpt lat="50.9106777" lon="6.9857731">
      <time>2024-06-29T14:38:45Z</time>
    </trkpt>
    <trkpt lat="50.9105574" lon="6.9859254">
      <time>2024-06-29T14:38:48Z</time>
    </trkpt>
    <trkpt lat="50.9104029" lon="6.9860850">
      <time>2024-06-29T14:38:51Z</time>
    </trkpt>
    <trkpt lat="50.9103038" lon="6.9861724">
      <time>2024-06-29T14:38:53Z</time>
    </trkpt>
    <trkpt lat="50.9102493" lon="6.9861970">
      <time>2024-06-29T14:38:54Z</time>
    </trkpt>
    <trkpt lat="50.9101578" lon="6.9862301">
      <time>2024-06-29T14:38:56Z</time>
    </trkpt>
    <trkpt lat="50.9100206" lon="6.9863316">
      <time>2024-06-29T14:38:59Z</time>
    </trkpt>
    <trkpt lat="50.9097213" lon="6.9866506">
      <time>2024-06-29T14:39:05Z</time>
    </trkpt>
    <trkpt lat="50.9096026" lon="6.9867755">
      <time>2024-06-29T14:39:07Z</time>
    </trkpt>
    <trkpt lat="50.9094726" lon="6.9868273">
      <time>2024-06-29T14:39:09Z</time>
    </trkpt>
    <trkpt lat="50.9093453" lon="6.9868054">
      <time>2024-06-29T14:39:11Z</time>
    </trkpt>
    <trkpt lat="50.9093028" lon="6.9867637">
      <time>2024-06-29T14:39:12Z</time>
    </trkpt>
    <trkpt lat="50.9092551" lon="6.9867147">
      <time>2024-06-29T14:39:13Z</time>
    </trkpt>
    <trkpt lat="50.9091498" lon="6.9866833">
      <time>2024-06-29T14:39:15Z</time>
    </trkpt>
    <trkpt lat="50.9089439" lon="6.9868055">
      <time>2024-06-29T14:39:19Z</time>
    </trkpt>
    <trkpt lat="50.9086722" lon="6.9869864">
      <time>2024-06-29T14:39:24Z</time>
    </trkpt>
    <trkpt lat="50.9084234" lon="6.9871566">
      <time>2024-06-29T14:39:29Z</time>
    </trkpt>
    <trkpt lat="50.9083634" lon="6.9871956">
      <time>2024-06-29T14:39:30Z</time>
    </trkpt>
    <trkpt lat="50.9082020" lon="6.9872932">
      <time>2024-06-29T14:39:33Z</time>
    </trkpt>
    <trkpt lat="50.9080412" lon="6.9873790">
      <time>2024-06-29T14:39:36Z</time>
    </trkpt>
    <trkpt lat="50.9076159" lon="6.9876845">
      <time>2024-06-29T14:39:44Z</time>
    </trkpt>
    <trkpt lat="50.9074537" lon="6.9878008">
      <time>2024-06-29T14:39:47Z</time>
    </trkpt>
    <trkpt lat="50.9073487" lon="6.9878630">
      <time>2024-06-29T14:39:49Z</time>
    </trkpt>
    <trkpt lat="50.9071802" lon="6.9879643">
      <time>2024-06-29T14:39:52Z</time>
    </trkpt>
    <trkpt lat="50.9070000" lon="6.9880514">
      <time>2024-06-29T14:39:55Z</time>
    </trkpt>
    <trkpt lat="50.9069412" lon="6.9880799">
      <time>2024-06-29T14:39:56Z</time>
    </trkpt>
    <trkpt lat="50.9068786" lon="6.9881057">
      <time>2024-06-29T14:39:57Z</time>
    </trkpt>
    <trkpt lat="50.9066904" lon="6.9881610">
      <time>2024-06-29T14:40:00Z</time>
    </trkpt>
    <trkpt lat="50.9066332" lon="6.9881762">
      <time>2024-06-29T14:40:01Z</time>
    </trkpt>
    <trkpt lat="50.9062111" lon="6.9882743">
      <time>2024-06-29T14:40:08Z</time>
    </trkpt>
    <trkpt lat="50.9058253" lon="6.9884335">
      <time>2024-06-29T14:40:15Z</time>
    </trkpt>
    <trkpt lat="50.9056747" lon="6.9885231">
      <time>2024-06-29T14:40:18Z</time>
    </trkpt>
    <trkpt lat="50.9055183" lon="6.9886332">
      <time>2024-06-29T14:40:21Z</time>
    </trkpt>
    <trkpt lat="50.9054158" lon="6.9887267">
      <time>2024-06-29T14:40:23Z</time>
    </trkpt>
    <trkpt lat="50.9052563" lon="6.9888620">
      <time>2024-06-29T14:40:26Z</time>
    </trkpt>
    <trkpt lat="50.9047920" lon="6.9892663">
      <time>2024-06-29T14:40:35Z</time>
    </trkpt>
    <trkpt lat="50.9044329" lon="6.9895948">
      <time>2024-06-29T14:40:42Z</time>
    </trkpt>
    <trkpt lat="50.9040267" lon="6.9899556">
      <time>2024-06-29T14:40:50Z</time>
    </trkpt>
    <trkpt lat="50.9038811" lon="6.9900762">
      <time>2024-06-29T14:40:53Z</time>
    </trkpt>
    <trkpt lat="50.9037787" lon="6.9901761">
      <time>2024-06-29T14:40:55Z</time>
    </trkpt>
    <trkpt lat="50.9035638" lon="6.9903649">
      <time>2024-06-29T14:40:59Z</time>
    </trkpt>
    <trkpt lat="50.9034625" lon="6.9904536">
      <time>2024-06-29T14:41:01Z</time>
    </trkpt>
    <trkpt lat="50.9033523" lon="6.9905308">
      <time>2024-06-29T14:41:03Z</time>
    </trkpt>
    <trkpt lat="50.9032535" lon="6.9906430">
      <time>2024-06-29T14:41:05Z</time>
    </trkpt>
    <trkpt lat="50.9032001" lon="6.9907145">
      <time>2024-06-29T14:41:06Z</time>
    </trkpt>
    <trkpt lat="50.9031545" lon="6.9907706">
      <time>2024-06-29T14:41:07Z</time>
    </trkpt>
    <trkpt lat="50.9030479" lon="6.9908829">
      <time>2024-06-29T14:41:09Z</time>
    </trkpt>
    <trkpt lat="50.9030043" lon="6.9909252">
      <time>2024-06-29T14:41:10Z</time>
    </trkpt>
    <trkpt lat="50.9026930" lon="6.9912584">
      <time>2024-06-29T14:41:16Z</time>
    </trkpt>
    <trkpt lat="50.9024494" lon="6.9915811">
      <time>2024-06-29T14:41:22Z</time>
    </trkpt>
    <trkpt lat="50.9022988" lon="6.9917896">
      <time>2024-06-29T14:41:26Z</time>
    </trkpt>
    <trkpt lat="50.9022397" lon="6.9918632">
      <time>2024-06-29T14:41:27Z</time>
    </trkpt>
    <trkpt lat="50.9020383" lon="6.9921009">
      <time>2024-06-29T14:41:31Z</time>
    </trkpt>
    <trkpt lat="50.9019379" lon="6.9921711">
      <time>2024-06-29T14:41:33Z</time>
    </trkpt>
    <trkpt lat="50.9018571" lon="6.9922702">
      <time>2024-06-29T14:41:35Z</time>
    </trkpt>
    <trkpt lat="50.9017833" lon="6.9923487">
      <time>2024-06-29T14:41:37Z</time>
    </trkpt>
    <trkpt lat="50.9016879" lon="6.9924310">
      <time>2024-06-29T14:41:39Z</time>
    </trkpt>
    <trkpt lat="50.9016450" lon="6.9924621">
      <time>2024-06-29T14:41:40Z</time>
    </trkpt>
    <trkpt lat="50.9015730" lon="6.9925421">
      <time>2024-06-29T14:41:42Z</time>
    </trkpt>
    <trkpt lat="50.9015510" lon="6.9925870">
      <time>2024-06-29T14:41:43Z</time>
    </trkpt>
    <trkpt lat="50.9013102" lon="6.9932421">
      <time>2024-06-29T14:41:52Z</time>
    </trkpt>
    <trkpt lat="50.9012108" lon="6.9934925">
      <time>2024-06-29T14:41:55Z</time>
    </trkpt>
    <trkpt lat="50.9010554" lon="6.9938636">
      <time>2024-06-29T14:42:00Z</time>
    </trkpt>
    <trkpt lat="50.9008193" lon="6.9942173">
      <time>2024-06-29T14:42:06Z</time>
    </trkpt>
    <trkpt lat="50.9006807" lon="6.9946064">
      <time>2024-06-29T14:42:11Z</time>
    </trkpt>
    <trkpt lat="50.9004751" lon="6.9949833">
      <time>2024-06-29T14:42:16Z</time>
    </trkpt>
    <trkpt lat="50.9002505" lon="6.9955981">
      <time>2024-06-29T14:42:24Z</time>
    </trkpt>
    <trkpt lat="50.9000475" lon="6.9959694">
      <time>2024-06-29T14:42:29Z</time>
    </trkpt>
    <trkpt lat="50.8999679" lon="6.9961645">
      <time>2024-06-29T14:42:31Z</time>
    </trkpt>
    <trkpt lat="50.8999128" lon="6.9963299">
      <time>2024-06-29T14:42:33Z</time>
    </trkpt>
    <trkpt lat="50.8998090" lon="6.9966457">
      <time>2024-06-29T14:42:37Z</time>
    </trkpt>
    <trkpt lat="50.8997895" lon="6.9967193">
      <time>2024-06-29T14:42:38Z</time>
    </trkpt>
    <trkpt lat="50.8997282" lon="6.9968658">
      <time>2024-06-29T14:42:40Z</time>
    </trkpt>
    <trkpt lat="50.8996654" lon="6.9970313">
      <time>2024-06-29T14:42:42Z</time>
    </trkpt>
    <trkpt lat="50.8994271" lon="6.9975979">
      <time>2024-06-29T14:42:50Z</time>
    </trkpt>
    <trkpt lat="50.8991995" lon="6.9981652">
      <time>2024-06-29T14:42:58Z</time>
    </trkpt>
    <trkpt lat="50.8991405" lon="6.9982933">
      <time>2024-06-29T14:43:00Z</time>
    </trkpt>
    <trkpt lat="50.8990146" lon="6.9986275">
      <time>2024-06-29T14:43:05Z</time>
    </trkpt>
    <trkpt lat="50.8987537" lon="6.9993659">
      <time>2024-06-29T14:43:15Z</time>
    </trkpt>
    <trkpt lat="50.8985869" lon="6.9999837">
      <time>2024-06-29T14:43:23Z</time>
    </trkpt>
    <trkpt lat="50.8984930" lon="7.0004685">
      <time>2024-06-29T14:43:29Z</time>
    </trkpt>
    <trkpt lat="50.8984365" lon="7.0005994">
      <time>2024-06-29T14:43:31Z</time>
    </trkpt>
    <trkpt lat="50.8983950" lon="7.0006309">
      <time>2024-06-29T14:43:32Z</time>
    </trkpt>
    <trkpt lat="50.8983463" lon="7.0006267">
      <time>2024-06-29T14:43:33Z</time>
    </trkpt>
    <trkpt lat="50.8982509" lon="7.0005707">
      <time>2024-06-29T14:43:35Z</time>
    </trkpt>
    <trkpt lat="50.8980630" lon="7.0004665">
      <time>2024-06-29T14:43:39Z</time>
    </trkpt>
    <trkpt lat="50.8979910" lon="7.0005064">
      <time>2024-06-29T14:43:41Z</time>
    </trkpt>
    <trkpt lat="50.8979522" lon="7.0006473">
      <time>2024-06-29T14:43:43Z</time>
    </trkpt>
    <trkpt lat="50.8979379" lon="7.0007240">
      <time>2024-06-29T14:43:44Z</time>
    </trkpt>
    <trkpt lat="50.8979103" lon="7.0008750">
      <time>2024-06-29T14:43:46Z</time>
    </trkpt>
    <trkpt lat="50.8978646" lon="7.0012020">
      <time>2024-06-29T14:43:50Z</time>
    </trkpt>
    <trkpt lat="50.8978258" lon="7.0014443">
      <time>2024-06-29T14:43:53Z</time>
    </trkpt>
    <trkpt lat="50.8977607" lon="7.0015646">
      <time>2024-06-29T14:43:55Z</time>
    </trkpt>
    <trkpt lat="50.8976393" lon="7.0017209">
      <time>2024-06-29T14:43:58Z</time>
    </trkpt>
    <trkpt lat="50.8975845" lon="7.0018606">
      <time>2024-06-29T14:44:00Z</time>
    </trkpt>
    <trkpt lat="50.8975470" lon="7.0020485">
      <time>2024-06-29T14:44:02Z</time>
    </trkpt>
    <trkpt lat="50.8974984" lon="7.0021906">
      <time>2024-06-29T14:44:04Z</time>
    </trkpt>
    <trkpt lat="50.8974480" lon="7.0026090">
      <time>2024-06-29T14:44:09Z</time>
    </trkpt>
    <trkpt lat="50.8974420" lon="7.0026862">
      <time>2024-06-29T14:44:10Z</time>
    </trkpt>
    <trkpt lat="50.8974243" lon="7.0027593">
      <time>2024-06-29T14:44:11Z</time>
    </trkpt>
    <trkpt lat="50.8973977" lon="7.0029056">
      <time>2024-06-29T14:44:13Z</time>
    </trkpt>
    <trkpt lat="50.8973829" lon="7.0030760">
      <time>2024-06-29T14:44:15Z</time>
    </trkpt>
    <trkpt lat="50.8973445" lon="7.0033461">
      <time>2024-06-29T14:44:18Z</time>
    </trkpt>
    <trkpt lat="50.8972976" lon="7.0035930">
      <time>2024-06-29T14:44:21Z</time>
    </trkpt>
    <trkpt lat="50.8972576" lon="7.0037564">
      <time>2024-06-29T14:44:23Z</time>
    </trkpt>
    <trkpt lat="50.8972449" lon="7.0038996">
      <time>2024-06-29T14:44:25Z</time>
    </trkpt>
    <trkpt lat="50.8972704" lon="7.0040437">
      <time>2024-06-29T14:44:27Z</time>
    </trkpt>
    <trkpt lat="50.8974166" lon="7.0041473">
      <time>2024-06-29T14:44:31Z</time>
    </trkpt>
    <trkpt lat="50.8975113" lon="7.0041801">
      <time>2024-06-29T14:44:33Z</time>
    </trkpt>
    <trkpt lat="50.8976647" lon="7.0042244">
      <time>2024-06-29T14:44:36Z</time>
    </trkpt>
    <trkpt lat="50.8977459" lon="7.0042868">
      <time>2024-06-29T14:44:38Z</time>
    </trkpt>
    <trkpt lat="50.8977793" lon="7.0043591">
      <time>2024-06-29T14:44:39Z</time>
    </trkpt>
    <trkpt lat="50.8977864" lon="7.0044375">
      <time>2024-06-29T14:44:40Z</time>
    </trkpt>
    <trkpt lat="50.8977763" lon="7.0046960">
      <time>2024-06-29T14:44:43Z</time>
    </trkpt>
    <trkpt lat="50.8977616" lon="7.0048824">
      <time>2024-06-29T14:44:45Z</time>
    </trkpt>
    <trkpt lat="50.8977249" lon="7.0051742">
      <time>2024-06-29T14:44:48Z</time>
    </trkpt>
    <trkpt lat="50.8976607" lon="7.0056485">
      <time>2024-06-29T14:44:53Z</time>
    </trkpt>
    <trkpt lat="50.8976351" lon="7.0058258">
      <time>2024-06-29T14:44:55Z</time>
    </trkpt>
    <trkpt lat="50.8976001" lon="7.0059870">
      <time>2024-06-29T14:44:57Z</time>
    </trkpt>
    <trkpt lat="50.8975528" lon="7.0061571">
      <time>2024-06-29T14:44:59Z</time>
    </trkpt>
    <trkpt lat="50.8975036" lon="7.0066112">
      <time>2024-06-29T14:45:04Z</time>
    </trkpt>
    <trkpt lat="50.8974680" lon="7.0068768">
      <time>2024-06-29T14:45:07Z</time>
    </trkpt>
    <trkpt lat="50.8974435" lon="7.0070442">
      <time>2024-06-29T14:45:09Z</time>
    </trkpt>
    <trkpt lat="50.8974057" lon="7.0073954">
      <time>2024-06-29T14:45:13Z</time>
    </trkpt>
    <trkpt lat="50.8973938" lon="7.0074791">
      <time>2024-06-29T14:45:14Z</time>
    </trkpt>
    <trkpt lat="50.8966437" lon="7.0128273">
      <time>2024-06-29T14:46:19Z</time>
    </trkpt>
    <trkpt lat="50.8966528" lon="7.0130473">
      <time>2024-06-29T14:46:20Z</time>
    </trkpt>
    <trkpt lat="50.8966053" lon="7.0130914">
      <time>2024-06-29T14:46:22Z</time>
    </trkpt>
    <trkpt lat="50.8966243" lon="7.0132337">
      <time>2024-06-29T14:46:23Z</time>
    </trkpt>
    <trkpt lat="50.8966157" lon="7.0134275">
      <time>2024-06-29T14:46:25Z</time>
    </trkpt>
    <trkpt lat="50.8965868" lon="7.0137545">
      <time>2024-06-29T14:46:29Z</time>
    </trkpt>
    <trkpt lat="50.8965432" lon="7.0138807">
      <time>2024-06-29T14:46:31Z</time>
    </trkpt>
    <trkpt lat="50.8965060" lon="7.0140982">
      <time>2024-06-29T14:46:34Z</time>
    </trkpt>
    <trkpt lat="50.8964812" lon="7.0142245">
      <time>2024-06-29T14:46:36Z</time>
    </trkpt>
    <trkpt lat="50.8964681" lon="7.0142856">
      <time>2024-06-29T14:46:37Z</time>
    </trkpt>
    <trkpt lat="50.8964603" lon="7.0144092">
      <time>2024-06-29T14:46:39Z</time>
    </trkpt>
    <trkpt lat="50.8964477" lon="7.0144523">
      <time>2024-06-29T14:46:40Z</time>
    </trkpt>
    <trkpt lat="50.8964481" lon="7.0145507">
      <time>2024-06-29T14:46:42Z</time>
    </trkpt>
    <trkpt lat="50.8964602" lon="7.0145882">
      <time>2024-06-29T14:46:43Z</time>
    </trkpt>
    <trkpt lat="50.8964681" lon="7.0146081">
      <time>2024-06-29T14:46:44Z</time>
    </trkpt>
    <trkpt lat="50.8964855" lon="7.0146103">
      <time>2024-06-29T14:46:46Z</time>
    </trkpt>
    <trkpt lat="50.8964907" lon="7.0146113">
      <time>2024-06-29T14:46:49Z</time>
    </trkpt>
  </trkseg></trk>
</gpx>
