<?xml version="1.0" encoding="UTF-8"?>
<gpx version="1.1" creator="Diary FIT converter" xmlns="http://www.topografix.com/GPX/1/1">
  <trk><name>Running</name><trkseg>
    <trkpt lat="50.9632657" lon="6.8761063">
      <time>2021-06-03T06:28:33Z</time>
    </trkpt>
    <trkpt lat="50.9632546" lon="6.8760415">
      <time>2021-06-03T06:28:34Z</time>
    </trkpt>
    <trkpt lat="50.9632040" lon="6.8759868">
      <time>2021-06-03T06:28:36Z</time>
    </trkpt>
    <trkpt lat="50.9632026" lon="6.8759856">
      <time>2021-06-03T06:28:38Z</time>
    </trkpt>
    <trkpt lat="50.9632255" lon="6.8760404">
      <time>2021-06-03T06:28:41Z</time>
    </trkpt>
    <trkpt lat="50.9632449" lon="6.8761415">
      <time>2021-06-03T06:28:44Z</time>
    </trkpt>
    <trkpt lat="50.9632602" lon="6.8762045">
      <time>2021-06-03T06:28:46Z</time>
    </trkpt>
    <trkpt lat="50.9632232" lon="6.8762695">
      <time>2021-06-03T06:28:49Z</time>
    </trkpt>
    <trkpt lat="50.9631653" lon="6.8763727">
      <time>2021-06-03T06:28:53Z</time>
    </trkpt>
    <trkpt lat="50.9631235" lon="6.8763969">
      <time>2021-06-03T06:28:55Z</time>
    </trkpt>
    <trkpt lat="50.9630057" lon="6.8763850">
      <time>2021-06-03T06:29:01Z</time>
    </trkpt>
    <trkpt lat="50.9628530" lon="6.8763546">
      <time>2021-06-03T06:29:07Z</time>
    </trkpt>
    <trkpt lat="50.9628470" lon="6.8763835">
      <time>2021-06-03T06:29:08Z</time>
    </trkpt>
    <trkpt lat="50.9627474" lon="6.8765119">
      <time>2021-06-03T06:29:14Z</time>
    </trkpt>
    <trkpt lat="50.9626796" lon="6.8765207">
      <time>2021-06-03T06:29:17Z</time>
    </trkpt>
    <trkpt lat="50.9626126" lon="6.8765135">
      <time>2021-06-03T06:29:20Z</time>
    </trkpt>
    <trkpt lat="50.9624983" lon="6.8764926">
      <time>2021-06-03T06:29:25Z</time>
    </trkpt>
    <trkpt lat="50.9624539" lon="6.8764922">
      <time>2021-06-03T06:29:27Z</time>
    </trkpt>
    <trkpt lat="50.9623098" lon="6.8764767">
      <time>2021-06-03T06:29:34Z</time>
    </trkpt>
    <trkpt lat="50.9621778" lon="6.8763971">
      <time>2021-06-03T06:29:41Z</time>
    </trkpt>
    <trkpt lat="50.9621345" lon="6.8764972">
      <time>2021-06-03T06:29:45Z</time>
    </trkpt>
    <trkpt lat="50.9620804" lon="6.8767786">
      <time>2021-06-03T06:29:53Z</time>
    </trkpt>
    <trkpt lat="50.9619932" lon="6.8769286">
      <time>2021-06-03T06:29:59Z</time>
    </trkpt>
    <trkpt lat="50.9618574" lon="6.8770245">
      <time>2021-06-03T06:30:05Z</time>
    </trkpt>
    <trkpt lat="50.9617208" lon="6.8770814">
      <time>2021-06-03T06:30:11Z</time>
    </trkpt>
    <trkpt lat="50.9615640" lon="6.8771949">
      <time>2021-06-03T06:30:18Z</time>
    </trkpt>
    <trkpt lat="50.9613865" lon="6.8772708">
      <time>2021-06-03T06:30:26Z</time>
    </trkpt>
    <trkpt lat="50.9613138" lon="6.8773085">
      <time>2021-06-03T06:30:30Z</time>
    </trkpt>
    <trkpt lat="50.9613020" lon="6.8773324">
      <time>2021-06-03T06:30:31Z</time>
    </trkpt>
    <trkpt lat="50.9612892" lon="6.8773490">
      <time>2021-06-03T06:30:32Z</time>
    </trkpt>
    <trkpt lat="50.9612191" lon="6.8773699">
      <time>2021-06-03T06:30:35Z</time>
    </trkpt>
    <trkpt lat="50.9611128" lon="6.8773816">
      <time>2021-06-03T06:30:39Z</time>
    </trkpt>
    <trkpt lat="50.9610075" lon="6.8774415">
      <time>2021-06-03T06:30:45Z</time>
    </trkpt>
    <trkpt lat="50.9608270" lon="6.8775168">
      <time>2021-06-03T06:30:53Z</time>
    </trkpt>
    <trkpt lat="50.9607712" lon="6.8775342">
      <time>2021-06-03T06:30:55Z</time>
    </trkpt>
    <trkpt lat="50.9605803" lon="6.8776014">
      <time>2021-06-03T06:31:03Z</time>
    </trkpt>
    <trkpt lat="50.9605490" lon="6.8776065">
      <time>2021-06-03T06:31:04Z</time>
    </trkpt>
    <trkpt lat="50.9604042" lon="6.8777062">
      <time>2021-06-03T06:31:11Z</time>
    </trkpt>
    <trkpt lat="50.9603218" lon="6.8777757">
      <time>2021-06-03T06:31:15Z</time>
    </trkpt>
    <trkpt lat="50.9602766" lon="6.8777786">
      <time>2021-06-03T06:31:17Z</time>
    </trkpt>
    <trkpt lat="50.9601745" lon="6.8776964">
      <time>2021-06-03T06:31:22Z</time>
    </trkpt>
    <trkpt lat="50.9600227" lon="6.8775279">
      <time>2021-06-03T06:31:30Z</time>
    </trkpt>
    <trkpt lat="50.9600029" lon="6.8775090">
      <time>2021-06-03T06:31:31Z</time>
    </trkpt>
    <trkpt lat="50.9598798" lon="6.8773084">
      <time>2021-06-03T06:31:39Z</time>
    </trkpt>
    <trkpt lat="50.9598539" lon="6.8771335">
      <time>2021-06-03T06:31:44Z</time>
    </trkpt>
    <trkpt lat="50.9598753" lon="6.8769392">
      <time>2021-06-03T06:31:49Z</time>
    </trkpt>
    <trkpt lat="50.9598860" lon="6.8767103">
      <time>2021-06-03T06:31:55Z</time>
    </trkpt>
    <trkpt lat="50.9598537" lon="6.8764651">
      <time>2021-06-03T06:32:02Z</time>
    </trkpt>
    <trkpt lat="50.9598154" lon="6.8761611">
      <time>2021-06-03T06:32:11Z</time>
    </trkpt>
    <trkpt lat="50.9597749" lon="6.8759510">
      <time>2021-06-03T06:32:17Z</time>
    </trkpt>
    <trkpt lat="50.9597599" lon="6.8756786">
      <time>2021-06-03T06:32:25Z</time>
    </trkpt>
    <trkpt lat="50.9597642" lon="6.8754658">
      <time>2021-06-03T06:32:31Z</time>
    </trkpt>
    <trkpt lat="50.9597728" lon="6.8751728">
      <time>2021-06-03T06:32:39Z</time>
    </trkpt>
    <trkpt lat="50.9598176" lon="6.8749730">
      <time>2021-06-03T06:32:45Z</time>
    </trkpt>
    <trkpt lat="50.9598387" lon="6.8747515">
      <time>2021-06-03T06:32:51Z</time>
    </trkpt>
    <trkpt lat="50.9598661" lon="6.8744919">
      <time>2021-06-03T06:32:58Z</time>
    </trkpt>
    <trkpt lat="50.9598958" lon="6.8742345">
      <time>2021-06-03T06:33:05Z</time>
    </trkpt>
    <trkpt lat="50.9599222" lon="6.8740149">
      <time>2021-06-03T06:33:11Z</time>
    </trkpt>
    <trkpt lat="50.9599289" lon="6.8737612">
      <time>2021-06-03T06:33:18Z</time>
    </trkpt>
    <trkpt lat="50.9599041" lon="6.8735080">
      <time>2021-06-03T06:33:25Z</time>
    </trkpt>
    <trkpt lat="50.9598430" lon="6.8732756">
      <time>2021-06-03T06:33:31Z</time>
    </trkpt>
    <trkpt lat="50.9598552" lon="6.8731506">
      <time>2021-06-03T06:33:35Z</time>
    </trkpt>
    <trkpt lat="50.9598546" lon="6.8731201">
      <time>2021-06-03T06:33:36Z</time>
    </trkpt>
    <trkpt lat="50.9598536" lon="6.8729493">
      <time>2021-06-03T06:33:41Z</time>
    </trkpt>
    <trkpt lat="50.9598279" lon="6.8729092">
      <time>2021-06-03T06:33:43Z</time>
    </trkpt>
    <trkpt lat="50.9597411" lon="6.8726338">
      <time>2021-06-03T06:33:50Z</time>
    </trkpt>
    <trkpt lat="50.9596764" lon="6.8723551">
      <time>2021-06-03T06:33:57Z</time>
    </trkpt>
    <trkpt lat="50.9596685" lon="6.8722806">
      <time>2021-06-03T06:33:59Z</time>
    </trkpt>
    <trkpt lat="50.9596026" lon="6.8719907">
      <time>2021-06-03T06:34:06Z</time>
    </trkpt>
    <trkpt lat="50.9595793" lon="6.8718176">
      <time>2021-06-03T06:34:11Z</time>
    </trkpt>
    <trkpt lat="50.9595341" lon="6.8716448">
      <time>2021-06-03T06:34:16Z</time>
    </trkpt>
    <trkpt lat="50.9594851" lon="6.8714495">
      <time>2021-06-03T06:34:23Z</time>
    </trkpt>
    <trkpt lat="50.9594586" lon="6.8713654">
      <time>2021-06-03T06:34:25Z</time>
    </trkpt>
    <trkpt lat="50.9593940" lon="6.8711363">
      <time>2021-06-03T06:34:32Z</time>
    </trkpt>
    <trkpt lat="50.9593493" lon="6.8709605">
      <time>2021-06-03T06:34:38Z</time>
    </trkpt>
    <trkpt lat="50.9593445" lon="6.8709029">
      <time>2021-06-03T06:34:40Z</time>
    </trkpt>
    <trkpt lat="50.9593308" lon="6.8708340">
      <time>2021-06-03T06:34:42Z</time>
    </trkpt>
    <trkpt lat="50.9593287" lon="6.8706915">
      <time>2021-06-03T06:34:46Z</time>
    </trkpt>
    <trkpt lat="50.9593591" lon="6.8706553">
      <time>2021-06-03T06:34:48Z</time>
    </trkpt>
    <trkpt lat="50.9594212" lon="6.8705961">
      <time>2021-06-03T06:34:51Z</time>
    </trkpt>
    <trkpt lat="50.9594920" lon="6.8705361">
      <time>2021-06-03T06:34:55Z</time>
    </trkpt>
    <trkpt lat="50.9595456" lon="6.8704131">
      <time>2021-06-03T06:35:00Z</time>
    </trkpt>
    <trkpt lat="50.9595732" lon="6.8703763">
      <time>2021-06-03T06:35:02Z</time>
    </trkpt>
    <trkpt lat="50.9596697" lon="6.8703595">
      <time>2021-06-03T06:35:06Z</time>
    </trkpt>
    <trkpt lat="50.9598385" lon="6.8703434">
      <time>2021-06-03T06:35:14Z</time>
    </trkpt>
    <trkpt lat="50.9598606" lon="6.8703418">
      <time>2021-06-03T06:35:15Z</time>
    </trkpt>
    <trkpt lat="50.9600222" lon="6.8702820">
      <time>2021-06-03T06:35:23Z</time>
    </trkpt>
    <trkpt lat="50.9601369" lon="6.8702736">
      <time>2021-06-03T06:35:29Z</time>
    </trkpt>
    <trkpt lat="50.9601551" lon="6.8702704">
      <time>2021-06-03T06:35:30Z</time>
    </trkpt>
    <trkpt lat="50.9602480" lon="6.8702621">
      <time>2021-06-03T06:35:35Z</time>
    </trkpt>
    <trkpt lat="50.9603804" lon="6.8702322">
      <time>2021-06-03T06:35:41Z</time>
    </trkpt>
    <trkpt lat="50.9605622" lon="6.8701922">
      <time>2021-06-03T06:35:48Z</time>
    </trkpt>
    <trkpt lat="50.9605899" lon="6.8701789">
      <time>2021-06-03T06:35:49Z</time>
    </trkpt>
    <trkpt lat="50.9606843" lon="6.8701406">
      <time>2021-06-03T06:35:53Z</time>
    </trkpt>
    <trkpt lat="50.9607002" lon="6.8701296">
      <time>2021-06-03T06:35:54Z</time>
    </trkpt>
    <trkpt lat="50.9607960" lon="6.8701149">
      <time>2021-06-03T06:35:59Z</time>
    </trkpt>
    <trkpt lat="50.9609067" lon="6.8700795">
      <time>2021-06-03T06:36:05Z</time>
    </trkpt>
    <trkpt lat="50.9609916" lon="6.8700435">
      <time>2021-06-03T06:36:09Z</time>
    </trkpt>
    <trkpt lat="50.9610364" lon="6.8700112">
      <time>2021-06-03T06:36:12Z</time>
    </trkpt>
    <trkpt lat="50.9610532" lon="6.8700003">
      <time>2021-06-03T06:36:14Z</time>
    </trkpt>
    <trkpt lat="50.9611320" lon="6.8699767">
      <time>2021-06-03T06:36:19Z</time>
    </trkpt>
    <trkpt lat="50.9611566" lon="6.8699619">
      <time>2021-06-03T06:36:21Z</time>
    </trkpt>
    <trkpt lat="50.9612036" lon="6.8699321">
      <time>2021-06-03T06:36:24Z</time>
    </trkpt>
    <trkpt lat="50.9612646" lon="6.8699119">
      <time>2021-06-03T06:36:27Z</time>
    </trkpt>
    <trkpt lat="50.9614059" lon="6.8698757">
      <time>2021-06-03T06:36:31Z</time>
    </trkpt>
    <trkpt lat="50.9615137" lon="6.8698665">
      <time>2021-06-03T06:36:36Z</time>
    </trkpt>
    <trkpt lat="50.9615250" lon="6.8698618">
      <time>2021-06-03T06:36:37Z</time>
    </trkpt>
    <trkpt lat="50.9616128" lon="6.8698371">
      <time>2021-06-03T06:36:42Z</time>
    </trkpt>
    <trkpt lat="50.9616925" lon="6.8698183">
      <time>2021-06-03T06:36:45Z</time>
    </trkpt>
    <trkpt lat="50.9618090" lon="6.8697748">
      <time>2021-06-03T06:36:50Z</time>
    </trkpt>
    <trkpt lat="50.9619595" lon="6.8697004">
      <time>2021-06-03T06:36:56Z</time>
    </trkpt>
    <trkpt lat="50.9619867" lon="6.8696836">
      <time>2021-06-03T06:36:57Z</time>
    </trkpt>
    <trkpt lat="50.9621308" lon="6.8696254">
      <time>2021-06-03T06:37:03Z</time>
    </trkpt>
    <trkpt lat="50.9622687" lon="6.8696404">
      <time>2021-06-03T06:37:09Z</time>
    </trkpt>
    <trkpt lat="50.9622824" lon="6.8696381">
      <time>2021-06-03T06:37:10Z</time>
    </trkpt>
    <trkpt lat="50.9623837" lon="6.8696374">
      <time>2021-06-03T06:37:14Z</time>
    </trkpt>
    <trkpt lat="50.9625094" lon="6.8696327">
      <time>2021-06-03T06:37:19Z</time>
    </trkpt>
    <trkpt lat="50.9625943" lon="6.8696258">
      <time>2021-06-03T06:37:24Z</time>
    </trkpt>
    <trkpt lat="50.9627635" lon="6.8696002">
      <time>2021-06-03T06:37:31Z</time>
    </trkpt>
    <trkpt lat="50.9629088" lon="6.8695862">
      <time>2021-06-03T06:37:37Z</time>
    </trkpt>
    <trkpt lat="50.9629321" lon="6.8695836">
      <time>2021-06-03T06:37:38Z</time>
    </trkpt>
    <trkpt lat="50.9629632" lon="6.8695634">
      <time>2021-06-03T06:37:40Z</time>
    </trkpt>
    <trkpt lat="50.9630021" lon="6.8695550">
      <time>2021-06-03T06:37:42Z</time>
    </trkpt>
    <trkpt lat="50.9631825" lon="6.8695506">
      <time>2021-06-03T06:37:49Z</time>
    </trkpt>
    <trkpt lat="50.9632667" lon="6.8695726">
      <time>2021-06-03T06:37:54Z</time>
    </trkpt>
    <trkpt lat="50.9632866" lon="6.8695719">
      <time>2021-06-03T06:37:55Z</time>
    </trkpt>
    <trkpt lat="50.9634587" lon="6.8695669">
      <time>2021-06-03T06:38:02Z</time>
    </trkpt>
    <trkpt lat="50.9636082" lon="6.8695781">
      <time>2021-06-03T06:38:10Z</time>
    </trkpt>
    <trkpt lat="50.9637256" lon="6.8695992">
      <time>2021-06-03T06:38:16Z</time>
    </trkpt>
    <trkpt lat="50.9638856" lon="6.8696332">
      <time>2021-06-03T06:38:24Z</time>
    </trkpt>
    <trkpt lat="50.9639246" lon="6.8696339">
      <time>2021-06-03T06:38:26Z</time>
    </trkpt>
    <trkpt lat="50.9640118" lon="6.8695415">
      <time>2021-06-03T06:38:30Z</time>
    </trkpt>
    <trkpt lat="50.9640979" lon="6.8693752">
      <time>2021-06-03T06:38:36Z</time>
    </trkpt>
    <trkpt lat="50.9641745" lon="6.8691623">
      <time>2021-06-03T06:38:43Z</time>
    </trkpt>
    <trkpt lat="50.9641861" lon="6.8690480">
      <time>2021-06-03T06:38:46Z</time>
    </trkpt>
    <trkpt lat="50.9642071" lon="6.8689524">
      <time>2021-06-03T06:38:49Z</time>
    </trkpt>
    <trkpt lat="50.9642652" lon="6.8687236">
      <time>2021-06-03T06:38:56Z</time>
    </trkpt>
    <trkpt lat="50.9643044" lon="6.8684699">
      <time>2021-06-03T06:39:03Z</time>
    </trkpt>
    <trkpt lat="50.9643286" lon="6.8683978">
      <time>2021-06-03T06:39:05Z</time>
    </trkpt>
    <trkpt lat="50.9643496" lon="6.8682853">
      <time>2021-06-03T06:39:08Z</time>
    </trkpt>
    <trkpt lat="50.9643235" lon="6.8680768">
      <time>2021-06-03T06:39:14Z</time>
    </trkpt>
    <trkpt lat="50.9643419" lon="6.8679714">
      <time>2021-06-03T06:39:17Z</time>
    </trkpt>
    <trkpt lat="50.9643687" lon="6.8679341">
      <time>2021-06-03T06:39:19Z</time>
    </trkpt>
    <trkpt lat="50.9644020" lon="6.8679203">
      <time>2021-06-03T06:39:21Z</time>
    </trkpt>
    <trkpt lat="50.9644412" lon="6.8679231">
      <time>2021-06-03T06:39:23Z</time>
    </trkpt>
    <trkpt lat="50.9644656" lon="6.8679196">
      <time>2021-06-03T06:39:24Z</time>
    </trkpt>
    <trkpt lat="50.9646034" lon="6.8679564">
      <time>2021-06-03T06:39:30Z</time>
    </trkpt>
    <trkpt lat="50.9647604" lon="6.8680424">
      <time>2021-06-03T06:39:37Z</time>
    </trkpt>
    <trkpt lat="50.9649086" lon="6.8681915">
      <time>2021-06-03T06:39:44Z</time>
    </trkpt>
    <trkpt lat="50.9650850" lon="6.8682486">
      <time>2021-06-03T06:39:51Z</time>
    </trkpt>
    <trkpt lat="50.9651342" lon="6.8682651">
      <time>2021-06-03T06:39:53Z</time>
    </trkpt>
    <trkpt lat="50.9652088" lon="6.8682836">
      <time>2021-06-03T06:39:56Z</time>
    </trkpt>
    <trkpt lat="50.9653888" lon="6.8683249">
      <time>2021-06-03T06:40:03Z</time>
    </trkpt>
    <trkpt lat="50.9654922" lon="6.8683501">
      <time>2021-06-03T06:40:07Z</time>
    </trkpt>
    <trkpt lat="50.9655862" lon="6.8683840">
      <time>2021-06-03T06:40:11Z</time>
    </trkpt>
    <trkpt lat="50.9656756" lon="6.8684031">
      <time>2021-06-03T06:40:15Z</time>
    </trkpt>
    <trkpt lat="50.9657258" lon="6.8684044">
      <time>2021-06-03T06:40:17Z</time>
    </trkpt>
    <trkpt lat="50.9657517" lon="6.8684058">
      <time>2021-06-03T06:40:18Z</time>
    </trkpt>
    <trkpt lat="50.9658931" lon="6.8684553">
      <time>2021-06-03T06:40:24Z</time>
    </trkpt>
    <trkpt lat="50.9659171" lon="6.8684632">
      <time>2021-06-03T06:40:25Z</time>
    </trkpt>
    <trkpt lat="50.9660971" lon="6.8685309">
      <time>2021-06-03T06:40:33Z</time>
    </trkpt>
    <trkpt lat="50.9661637" lon="6.8685388">
      <time>2021-06-03T06:40:36Z</time>
    </trkpt>
    <trkpt lat="50.9662439" lon="6.8686073">
      <time>2021-06-03T06:40:39Z</time>
    </trkpt>
    <trkpt lat="50.9662568" lon="6.8686440">
      <time>2021-06-03T06:40:40Z</time>
    </trkpt>
    <trkpt lat="50.9662582" lon="6.8687568">
      <time>2021-06-03T06:40:43Z</time>
    </trkpt>
    <trkpt lat="50.9663025" lon="6.8690567">
      <time>2021-06-03T06:40:51Z</time>
    </trkpt>
    <trkpt lat="50.9663010" lon="6.8690903">
      <time>2021-06-03T06:40:52Z</time>
    </trkpt>
    <trkpt lat="50.9662829" lon="6.8692070">
      <time>2021-06-03T06:40:55Z</time>
    </trkpt>
    <trkpt lat="50.9662214" lon="6.8694308">
      <time>2021-06-03T06:41:01Z</time>
    </trkpt>
    <trkpt lat="50.9661439" lon="6.8696185">
      <time>2021-06-03T06:41:07Z</time>
    </trkpt>
    <trkpt lat="50.9660524" lon="6.8699176">
      <time>2021-06-03T06:41:15Z</time>
    </trkpt>
    <trkpt lat="50.9660391" lon="6.8699518">
      <time>2021-06-03T06:41:16Z</time>
    </trkpt>
    <trkpt lat="50.9659385" lon="6.8701668">
      <time>2021-06-03T06:41:23Z</time>
    </trkpt>
    <trkpt lat="50.9658599" lon="6.8702968">
      <time>2021-06-03T06:41:29Z</time>
    </trkpt>
    <trkpt lat="50.9657626" lon="6.8705200">
      <time>2021-06-03T06:41:37Z</time>
    </trkpt>
    <trkpt lat="50.9657208" lon="6.8707524">
      <time>2021-06-03T06:41:44Z</time>
    </trkpt>
    <trkpt lat="50.9657429" lon="6.8709703">
      <time>2021-06-03T06:41:51Z</time>
    </trkpt>
    <trkpt lat="50.9657433" lon="6.8710945">
      <time>2021-06-03T06:41:54Z</time>
    </trkpt>
    <trkpt lat="50.9657407" lon="6.8712673">
      <time>2021-06-03T06:41:58Z</time>
    </trkpt>
    <trkpt lat="50.9657537" lon="6.8714461">
      <time>2021-06-03T06:42:03Z</time>
    </trkpt>
    <trkpt lat="50.9657432" lon="6.8717417">
      <time>2021-06-03T06:42:11Z</time>
    </trkpt>
    <trkpt lat="50.9657338" lon="6.8720204">
      <time>2021-06-03T06:42:19Z</time>
    </trkpt>
    <trkpt lat="50.9656621" lon="6.8722594">
      <time>2021-06-03T06:42:26Z</time>
    </trkpt>
    <trkpt lat="50.9656611" lon="6.8723550">
      <time>2021-06-03T06:42:29Z</time>
    </trkpt>
    <trkpt lat="50.9656768" lon="6.8723871">
      <time>2021-06-03T06:42:31Z</time>
    </trkpt>
    <trkpt lat="50.9657037" lon="6.8723579">
      <time>2021-06-03T06:42:34Z</time>
    </trkpt>
    <trkpt lat="50.9657252" lon="6.8722870">
      <time>2021-06-03T06:42:36Z</time>
    </trkpt>
    <trkpt lat="50.9657250" lon="6.8722615">
      <time>2021-06-03T06:42:37Z</time>
    </trkpt>
    <trkpt lat="50.9657052" lon="6.8722003">
      <time>2021-06-03T06:42:39Z</time>
    </trkpt>
    <trkpt lat="50.9656990" lon="6.8721692">
      <time>2021-06-03T06:42:40Z</time>
    </trkpt>
    <trkpt lat="50.9656837" lon="6.8720588">
      <time>2021-06-03T06:42:43Z</time>
    </trkpt>
    <trkpt lat="50.9656697" lon="6.8717648">
      <time>2021-06-03T06:42:50Z</time>
    </trkpt>
    <trkpt lat="50.9656795" lon="6.8716339">
      <time>2021-06-03T06:42:54Z</time>
    </trkpt>
    <trkpt lat="50.9656986" lon="6.8715416">
      <time>2021-06-03T06:42:57Z</time>
    </trkpt>
    <trkpt lat="50.9657005" lon="6.8712903">
      <time>2021-06-03T06:43:04Z</time>
    </trkpt>
    <trkpt lat="50.9657173" lon="6.8710562">
      <time>2021-06-03T06:43:11Z</time>
    </trkpt>
    <trkpt lat="50.9657141" lon="6.8709906">
      <time>2021-06-03T06:43:13Z</time>
    </trkpt>
    <trkpt lat="50.9657044" lon="6.8708914">
      <time>2021-06-03T06:43:16Z</time>
    </trkpt>
    <trkpt lat="50.9657075" lon="6.8707864">
      <time>2021-06-03T06:43:19Z</time>
    </trkpt>
    <trkpt lat="50.9657416" lon="6.8706832">
      <time>2021-06-03T06:43:22Z</time>
    </trkpt>
    <trkpt lat="50.9658067" lon="6.8704760">
      <time>2021-06-03T06:43:28Z</time>
    </trkpt>
    <trkpt lat="50.9658306" lon="6.8704516">
      <time>2021-06-03T06:43:29Z</time>
    </trkpt>
    <trkpt lat="50.9659096" lon="6.8702289">
      <time>2021-06-03T06:43:35Z</time>
    </trkpt>
    <trkpt lat="50.9660158" lon="6.8700020">
      <time>2021-06-03T06:43:42Z</time>
    </trkpt>
    <trkpt lat="50.9660321" lon="6.8699707">
      <time>2021-06-03T06:43:43Z</time>
    </trkpt>
    <trkpt lat="50.9660790" lon="6.8698763">
      <time>2021-06-03T06:43:46Z</time>
    </trkpt>
    <trkpt lat="50.9661396" lon="6.8697150">
      <time>2021-06-03T06:43:51Z</time>
    </trkpt>
    <trkpt lat="50.9661927" lon="6.8695260">
      <time>2021-06-03T06:43:56Z</time>
    </trkpt>
    <trkpt lat="50.9662175" lon="6.8694117">
      <time>2021-06-03T06:43:59Z</time>
    </trkpt>
    <trkpt lat="50.9662057" lon="6.8691665">
      <time>2021-06-03T06:44:05Z</time>
    </trkpt>
    <trkpt lat="50.9661937" lon="6.8689098">
      <time>2021-06-03T06:44:11Z</time>
    </trkpt>
    <trkpt lat="50.9662069" lon="6.8686950">
      <time>2021-06-03T06:44:17Z</time>
    </trkpt>
    <trkpt lat="50.9661877" lon="6.8685494">
      <time>2021-06-03T06:44:21Z</time>
    </trkpt>
    <trkpt lat="50.9661601" lon="6.8684130">
      <time>2021-06-03T06:44:25Z</time>
    </trkpt>
    <trkpt lat="50.9660956" lon="6.8683632">
      <time>2021-06-03T06:44:28Z</time>
    </trkpt>
    <trkpt lat="50.9660541" lon="6.8683489">
      <time>2021-06-03T06:44:30Z</time>
    </trkpt>
    <trkpt lat="50.9658563" lon="6.8682981">
      <time>2021-06-03T06:44:39Z</time>
    </trkpt>
    <trkpt lat="50.9658343" lon="6.8682952">
      <time>2021-06-03T06:44:40Z</time>
    </trkpt>
    <trkpt lat="50.9657465" lon="6.8682671">
      <time>2021-06-03T06:44:44Z</time>
    </trkpt>
    <trkpt lat="50.9656678" lon="6.8682387">
      <time>2021-06-03T06:44:48Z</time>
    </trkpt>
    <trkpt lat="50.9656038" lon="6.8682147">
      <time>2021-06-03T06:44:51Z</time>
    </trkpt>
    <trkpt lat="50.9655036" lon="6.8681878">
      <time>2021-06-03T06:44:56Z</time>
    </trkpt>
    <trkpt lat="50.9653591" lon="6.8681371">
      <time>2021-06-03T06:45:03Z</time>
    </trkpt>
    <trkpt lat="50.9653225" lon="6.8680439">
      <time>2021-06-03T06:45:08Z</time>
    </trkpt>
    <trkpt lat="50.9653178" lon="6.8680377">
      <time>2021-06-03T06:45:09Z</time>
    </trkpt>
    <trkpt lat="50.9653127" lon="6.8680288">
      <time>2021-06-03T06:45:10Z</time>
    </trkpt>
    <trkpt lat="50.9653237" lon="6.8679883">
      <time>2021-06-03T06:45:13Z</time>
    </trkpt>
    <trkpt lat="50.9651354" lon="6.8680636">
      <time>2021-06-03T06:45:29Z</time>
    </trkpt>
    <trkpt lat="50.9651033" lon="6.8680628">
      <time>2021-06-03T06:45:30Z</time>
    </trkpt>
    <trkpt lat="50.9650179" lon="6.8680416">
      <time>2021-06-03T06:45:33Z</time>
    </trkpt>
    <trkpt lat="50.9649349" lon="6.8680221">
      <time>2021-06-03T06:45:36Z</time>
    </trkpt>
    <trkpt lat="50.9649070" lon="6.8680124">
      <time>2021-06-03T06:45:37Z</time>
    </trkpt>
    <trkpt lat="50.9647131" lon="6.8679589">
      <time>2021-06-03T06:45:44Z</time>
    </trkpt>
    <trkpt lat="50.9646613" lon="6.8679461">
      <time>2021-06-03T06:45:46Z</time>
    </trkpt>
    <trkpt lat="50.9644955" lon="6.8678775">
      <time>2021-06-03T06:45:53Z</time>
    </trkpt>
    <trkpt lat="50.9644038" lon="6.8678486">
      <time>2021-06-03T06:45:57Z</time>
    </trkpt>
    <trkpt lat="50.9643798" lon="6.8678613">
      <time>2021-06-03T06:45:58Z</time>
    </trkpt>
    <trkpt lat="50.9643475" lon="6.8679103">
      <time>2021-06-03T06:46:00Z</time>
    </trkpt>
    <trkpt lat="50.9643505" lon="6.8679883">
      <time>2021-06-03T06:46:02Z</time>
    </trkpt>
    <trkpt lat="50.9643727" lon="6.8682756">
      <time>2021-06-03T06:46:09Z</time>
    </trkpt>
    <trkpt lat="50.9643405" lon="6.8685672">
      <time>2021-06-03T06:46:16Z</time>
    </trkpt>
    <trkpt lat="50.9643160" lon="6.8687319">
      <time>2021-06-03T06:46:21Z</time>
    </trkpt>
    <trkpt lat="50.9642636" lon="6.8689775">
      <time>2021-06-03T06:46:27Z</time>
    </trkpt>
    <trkpt lat="50.9642452" lon="6.8692267">
      <time>2021-06-03T06:46:34Z</time>
    </trkpt>
    <trkpt lat="50.9641748" lon="6.8694927">
      <time>2021-06-03T06:46:41Z</time>
    </trkpt>
    <trkpt lat="50.9640563" lon="6.8696435">
      <time>2021-06-03T06:46:48Z</time>
    </trkpt>
    <trkpt lat="50.9639559" lon="6.8696559">
      <time>2021-06-03T06:46:54Z</time>
    </trkpt>
    <trkpt lat="50.9638642" lon="6.8696334">
      <time>2021-06-03T06:46:58Z</time>
    </trkpt>
    <trkpt lat="50.9638203" lon="6.8696262">
      <time>2021-06-03T06:47:00Z</time>
    </trkpt>
    <trkpt lat="50.9636598" lon="6.8695794">
      <time>2021-06-03T06:47:06Z</time>
    </trkpt>
    <trkpt lat="50.9635786" lon="6.8695674">
      <time>2021-06-03T06:47:10Z</time>
    </trkpt>
    <trkpt lat="50.9633876" lon="6.8695319">
      <time>2021-06-03T06:47:17Z</time>
    </trkpt>
    <trkpt lat="50.9633085" lon="6.8695270">
      <time>2021-06-03T06:47:20Z</time>
    </trkpt>
    <trkpt lat="50.9631163" lon="6.8695118">
      <time>2021-06-03T06:47:27Z</time>
    </trkpt>
    <trkpt lat="50.9629839" lon="6.8695126">
      <time>2021-06-03T06:47:33Z</time>
    </trkpt>
    <trkpt lat="50.9628780" lon="6.8695231">
      <time>2021-06-03T06:47:39Z</time>
    </trkpt>
    <trkpt lat="50.9626928" lon="6.8695335">
      <time>2021-06-03T06:47:47Z</time>
    </trkpt>
    <trkpt lat="50.9626568" lon="6.8695385">
      <time>2021-06-03T06:47:49Z</time>
    </trkpt>
    <trkpt lat="50.9625328" lon="6.8695332">
      <time>2021-06-03T06:47:53Z</time>
    </trkpt>
    <trkpt lat="50.9623692" lon="6.8695422">
      <time>2021-06-03T06:47:59Z</time>
    </trkpt>
    <trkpt lat="50.9621872" lon="6.8695514">
      <time>2021-06-03T06:48:06Z</time>
    </trkpt>
    <trkpt lat="50.9621602" lon="6.8695580">
      <time>2021-06-03T06:48:07Z</time>
    </trkpt>
    <trkpt lat="50.9619831" lon="6.8696173">
      <time>2021-06-03T06:48:15Z</time>
    </trkpt>
    <trkpt lat="50.9619624" lon="6.8696209">
      <time>2021-06-03T06:48:16Z</time>
    </trkpt>
    <trkpt lat="50.9617847" lon="6.8696410">
      <time>2021-06-03T06:48:24Z</time>
    </trkpt>
    <trkpt lat="50.9617407" lon="6.8696500">
      <time>2021-06-03T06:48:26Z</time>
    </trkpt>
    <trkpt lat="50.9615904" lon="6.8697159">
      <time>2021-06-03T06:48:32Z</time>
    </trkpt>
    <trkpt lat="50.9615647" lon="6.8697234">
      <time>2021-06-03T06:48:33Z</time>
    </trkpt>
    <trkpt lat="50.9613622" lon="6.8697622">
      <time>2021-06-03T06:48:41Z</time>
    </trkpt>
    <trkpt lat="50.9612535" lon="6.8697959">
      <time>2021-06-03T06:48:46Z</time>
    </trkpt>
    <trkpt lat="50.9611524" lon="6.8698328">
      <time>2021-06-03T06:48:50Z</time>
    </trkpt>
    <trkpt lat="50.9610085" lon="6.8698834">
      <time>2021-06-03T06:48:57Z</time>
    </trkpt>
    <trkpt lat="50.9608103" lon="6.8699460">
      <time>2021-06-03T06:49:05Z</time>
    </trkpt>
    <trkpt lat="50.9607896" lon="6.8699571">
      <time>2021-06-03T06:49:06Z</time>
    </trkpt>
    <trkpt lat="50.9606028" lon="6.8700242">
      <time>2021-06-03T06:49:14Z</time>
    </trkpt>
    <trkpt lat="50.9604031" lon="6.8700549">
      <time>2021-06-03T06:49:22Z</time>
    </trkpt>
    <trkpt lat="50.9603044" lon="6.8700523">
      <time>2021-06-03T06:49:26Z</time>
    </trkpt>
    <trkpt lat="50.9602444" lon="6.8700549">
      <time>2021-06-03T06:49:28Z</time>
    </trkpt>
    <trkpt lat="50.9601636" lon="6.8700514">
      <time>2021-06-03T06:49:31Z</time>
    </trkpt>
    <trkpt lat="50.9600341" lon="6.8700517">
      <time>2021-06-03T06:49:36Z</time>
    </trkpt>
    <trkpt lat="50.9598851" lon="6.8700435">
      <time>2021-06-03T06:49:43Z</time>
    </trkpt>
    <trkpt lat="50.9597555" lon="6.8700628">
      <time>2021-06-03T06:49:49Z</time>
    </trkpt>
    <trkpt lat="50.9596048" lon="6.8701396">
      <time>2021-06-03T06:49:55Z</time>
    </trkpt>
    <trkpt lat="50.9594543" lon="6.8702835">
      <time>2021-06-03T06:50:04Z</time>
    </trkpt>
    <trkpt lat="50.9594252" lon="6.8703171">
      <time>2021-06-03T06:50:06Z</time>
    </trkpt>
    <trkpt lat="50.9594110" lon="6.8703673">
      <time>2021-06-03T06:50:08Z</time>
    </trkpt>
    <trkpt lat="50.9594124" lon="6.8704018">
      <time>2021-06-03T06:50:09Z</time>
    </trkpt>
    <trkpt lat="50.9594044" lon="6.8705925">
      <time>2021-06-03T06:50:13Z</time>
    </trkpt>
    <trkpt lat="50.9594580" lon="6.8708026">
      <time>2021-06-03T06:50:19Z</time>
    </trkpt>
    <trkpt lat="50.9594815" lon="6.8708934">
      <time>2021-06-03T06:50:21Z</time>
    </trkpt>
    <trkpt lat="50.9595617" lon="6.8711611">
      <time>2021-06-03T06:50:28Z</time>
    </trkpt>
    <trkpt lat="50.9596221" lon="6.8714121">
      <time>2021-06-03T06:50:35Z</time>
    </trkpt>
    <trkpt lat="50.9596440" lon="6.8715364">
      <time>2021-06-03T06:50:38Z</time>
    </trkpt>
    <trkpt lat="50.9596724" lon="6.8716593">
      <time>2021-06-03T06:50:41Z</time>
    </trkpt>
    <trkpt lat="50.9596884" lon="6.8719685">
      <time>2021-06-03T06:50:48Z</time>
    </trkpt>
    <trkpt lat="50.9597360" lon="6.8721559">
      <time>2021-06-03T06:50:53Z</time>
    </trkpt>
    <trkpt lat="50.9597694" lon="6.8723801">
      <time>2021-06-03T06:50:59Z</time>
    </trkpt>
    <trkpt lat="50.9597738" lon="6.8725410">
      <time>2021-06-03T06:51:04Z</time>
    </trkpt>
    <trkpt lat="50.9597824" lon="6.8725727">
      <time>2021-06-03T06:51:05Z</time>
    </trkpt>
    <trkpt lat="50.9598001" lon="6.8726237">
      <time>2021-06-03T06:51:07Z</time>
    </trkpt>
    <trkpt lat="50.9598336" lon="6.8726685">
      <time>2021-06-03T06:51:09Z</time>
    </trkpt>
    <trkpt lat="50.9598837" lon="6.8728928">
      <time>2021-06-03T06:51:15Z</time>
    </trkpt>
    <trkpt lat="50.9598732" lon="6.8729319">
      <time>2021-06-03T06:51:16Z</time>
    </trkpt>
    <trkpt lat="50.9598526" lon="6.8730473">
      <time>2021-06-03T06:51:19Z</time>
    </trkpt>
    <trkpt lat="50.9598904" lon="6.8732841">
      <time>2021-06-03T06:51:25Z</time>
    </trkpt>
    <trkpt lat="50.9598900" lon="6.8735672">
      <time>2021-06-03T06:51:32Z</time>
    </trkpt>
    <trkpt lat="50.9598807" lon="6.8738923">
      <time>2021-06-03T06:51:40Z</time>
    </trkpt>
    <trkpt lat="50.9598722" lon="6.8740907">
      <time>2021-06-03T06:51:45Z</time>
    </trkpt>
    <trkpt lat="50.9598657" lon="6.8742523">
      <time>2021-06-03T06:51:49Z</time>
    </trkpt>
    <trkpt lat="50.9598628" lon="6.8742927">
      <time>2021-06-03T06:51:50Z</time>
    </trkpt>
    <trkpt lat="50.9598298" lon="6.8744945">
      <time>2021-06-03T06:51:55Z</time>
    </trkpt>
    <trkpt lat="50.9598095" lon="6.8747907">
      <time>2021-06-03T06:52:02Z</time>
    </trkpt>
    <trkpt lat="50.9598110" lon="6.8748355">
      <time>2021-06-03T06:52:03Z</time>
    </trkpt>
    <trkpt lat="50.9597932" lon="6.8751367">
      <time>2021-06-03T06:52:10Z</time>
    </trkpt>
    <trkpt lat="50.9597899" lon="6.8751743">
      <time>2021-06-03T06:52:11Z</time>
    </trkpt>
    <trkpt lat="50.9598025" lon="6.8753954">
      <time>2021-06-03T06:52:17Z</time>
    </trkpt>
    <trkpt lat="50.9598062" lon="6.8756186">
      <time>2021-06-03T06:52:23Z</time>
    </trkpt>
    <trkpt lat="50.9598124" lon="6.8759146">
      <time>2021-06-03T06:52:30Z</time>
    </trkpt>
    <trkpt lat="50.9598161" lon="6.8759488">
      <time>2021-06-03T06:52:31Z</time>
    </trkpt>
    <trkpt lat="50.9598237" lon="6.8759830">
      <time>2021-06-03T06:52:32Z</time>
    </trkpt>
    <trkpt lat="50.9598492" lon="6.8761390">
      <time>2021-06-03T06:52:36Z</time>
    </trkpt>
    <trkpt lat="50.9598545" lon="6.8761715">
      <time>2021-06-03T06:52:37Z</time>
    </trkpt>
    <trkpt lat="50.9598955" lon="6.8763325">
      <time>2021-06-03T06:52:42Z</time>
    </trkpt>
    <trkpt lat="50.9599047" lon="6.8765507">
      <time>2021-06-03T06:52:48Z</time>
    </trkpt>
    <trkpt lat="50.9599026" lon="6.8767490">
      <time>2021-06-03T06:52:53Z</time>
    </trkpt>
    <trkpt lat="50.9598911" lon="6.8768662">
      <time>2021-06-03T06:52:56Z</time>
    </trkpt>
    <trkpt lat="50.9598745" lon="6.8771735">
      <time>2021-06-03T06:53:04Z</time>
    </trkpt>
    <trkpt lat="50.9598855" lon="6.8772064">
      <time>2021-06-03T06:53:05Z</time>
    </trkpt>
    <trkpt lat="50.9599775" lon="6.8773640">
      <time>2021-06-03T06:53:10Z</time>
    </trkpt>
    <trkpt lat="50.9600281" lon="6.8773985">
      <time>2021-06-03T06:53:12Z</time>
    </trkpt>
    <trkpt lat="50.9601988" lon="6.8775132">
      <time>2021-06-03T06:53:19Z</time>
    </trkpt>
    <trkpt lat="50.9603066" lon="6.8775709">
      <time>2021-06-03T06:53:24Z</time>
    </trkpt>
    <trkpt lat="50.9603206" lon="6.8775913">
      <time>2021-06-03T06:53:26Z</time>
    </trkpt>
    <trkpt lat="50.9603436" lon="6.8775938">
      <time>2021-06-03T06:53:28Z</time>
    </trkpt>
    <trkpt lat="50.9604444" lon="6.8775494">
      <time>2021-06-03T06:53:33Z</time>
    </trkpt>
    <trkpt lat="50.9605402" lon="6.8775091">
      <time>2021-06-03T06:53:38Z</time>
    </trkpt>
    <trkpt lat="50.9606813" lon="6.8774484">
      <time>2021-06-03T06:53:45Z</time>
    </trkpt>
    <trkpt lat="50.9607298" lon="6.8774087">
      <time>2021-06-03T06:53:48Z</time>
    </trkpt>
    <trkpt lat="50.9608464" lon="6.8773698">
      <time>2021-06-03T06:53:53Z</time>
    </trkpt>
    <trkpt lat="50.9610159" lon="6.8773037">
      <time>2021-06-03T06:54:01Z</time>
    </trkpt>
    <trkpt lat="50.9611100" lon="6.8772221">
      <time>2021-06-03T06:54:05Z</time>
    </trkpt>
    <trkpt lat="50.9612887" lon="6.8771188">
      <time>2021-06-03T06:54:12Z</time>
    </trkpt>
    <trkpt lat="50.9613200" lon="6.8771073">
      <time>2021-06-03T06:54:13Z</time>
    </trkpt>
    <trkpt lat="50.9613861" lon="6.8770827">
      <time>2021-06-03T06:54:16Z</time>
    </trkpt>
    <trkpt lat="50.9614393" lon="6.8770584">
      <time>2021-06-03T06:54:18Z</time>
    </trkpt>
    <trkpt lat="50.9616286" lon="6.8769710">
      <time>2021-06-03T06:54:25Z</time>
    </trkpt>
    <trkpt lat="50.9616548" lon="6.8769577">
      <time>2021-06-03T06:54:26Z</time>
    </trkpt>
    <trkpt lat="50.9617030" lon="6.8769166">
      <time>2021-06-03T06:54:30Z</time>
    </trkpt>
    <trkpt lat="50.9618167" lon="6.8768522">
      <time>2021-06-03T06:54:35Z</time>
    </trkpt>
    <trkpt lat="50.9620091" lon="6.8767351">
      <time>2021-06-03T06:54:41Z</time>
    </trkpt>
    <trkpt lat="50.9620293" lon="6.8767034">
      <time>2021-06-03T06:54:42Z</time>
    </trkpt>
    <trkpt lat="50.9620371" lon="6.8766524">
      <time>2021-06-03T06:54:43Z</time>
    </trkpt>
    <trkpt lat="50.9620341" lon="6.8765492">
      <time>2021-06-03T06:54:46Z</time>
    </trkpt>
    <trkpt lat="50.9620155" lon="6.8763279">
      <time>2021-06-03T06:54:52Z</time>
    </trkpt>
    <trkpt lat="50.9620351" lon="6.8762861">
      <time>2021-06-03T06:54:54Z</time>
    </trkpt>
    <trkpt lat="50.9620671" lon="6.8762591">
      <time>2021-06-03T06:54:56Z</time>
    </trkpt>
    <trkpt lat="50.9620800" lon="6.8762560">
      <time>2021-06-03T06:54:57Z</time>
    </trkpt>
    <trkpt lat="50.9621493" lon="6.8762718">
      <time>2021-06-03T06:55:01Z</time>
    </trkpt>
    <trkpt lat="50.9622719" lon="6.8762859">
      <time>2021-06-03T06:55:07Z</time>
    </trkpt>
    <trkpt lat="50.9622859" lon="6.8762938">
      <time>2021-06-03T06:55:08Z</time>
    </trkpt>
    <trkpt lat="50.9624548" lon="6.8763383">
      <time>2021-06-03T06:55:16Z</time>
    </trkpt>
    <trkpt lat="50.9625721" lon="6.8763482">
      <time>2021-06-03T06:55:21Z</time>
    </trkpt>
    <trkpt lat="50.9625949" lon="6.8763351">
      <time>2021-06-03T06:55:22Z</time>
    </trkpt>
    <trkpt lat="50.9627342" lon="6.8761645">
      <time>2021-06-03T06:55:28Z</time>
    </trkpt>
    <trkpt lat="50.9628494" lon="6.8761110">
      <time>2021-06-03T06:55:33Z</time>
    </trkpt>
    <trkpt lat="50.9629114" lon="6.8761074">
      <time>2021-06-03T06:55:36Z</time>
    </trkpt>
    <trkpt lat="50.9629622" lon="6.8761093">
      <time>2021-06-03T06:55:38Z</time>
    </trkpt>
    <trkpt lat="50.9630427" lon="6.8760935">
      <time>2021-06-03T06:55:42Z</time>
    </trkpt>
    <trkpt lat="50.9630972" lon="6.8760029">
      <time>2021-06-03T06:55:46Z</time>
    </trkpt>
    <trkpt lat="50.9631269" lon="6.8759672">
      <time>2021-06-03T06:55:48Z</time>
    </trkpt>
    <trkpt lat="50.9632493" lon="6.8757775">
      <time>2021-06-03T06:55:56Z</time>
    </trkpt>
    <trkpt lat="50.9633808" lon="6.8757525">
      <time>2021-06-03T06:56:03Z</time>
    </trkpt>
    <trkpt lat="50.9635152" lon="6.8757895">
      <time>2021-06-03T06:56:10Z</time>
    </trkpt>
    <trkpt lat="50.9636218" lon="6.8758069">
      <time>2021-06-03T06:56:16Z</time>
    </trkpt>
    <trkpt lat="50.9637465" lon="6.8758518">
      <time>2021-06-03T06:56:21Z</time>
    </trkpt>
    <trkpt lat="50.9637692" lon="6.8758530">
      <time>2021-06-03T06:56:22Z</time>
    </trkpt>
    <trkpt lat="50.9639423" lon="6.8759009">
      <time>2021-06-03T06:56:28Z</time>
    </trkpt>
    <trkpt lat="50.9640039" lon="6.8759203">
      <time>2021-06-03T06:56:30Z</time>
    </trkpt>
    <trkpt lat="50.9640479" lon="6.8759394">
      <time>2021-06-03T06:56:32Z</time>
    </trkpt>
    <trkpt lat="50.9641077" lon="6.8759606">
      <time>2021-06-03T06:56:35Z</time>
    </trkpt>
    <trkpt lat="50.9641243" lon="6.8759623">
      <time>2021-06-03T06:56:36Z</time>
    </trkpt>
    <trkpt lat="50.9641627" lon="6.8759519">
      <time>2021-06-03T06:56:38Z</time>
    </trkpt>
    <trkpt lat="50.9641788" lon="6.8759405">
      <time>2021-06-03T06:56:39Z</time>
    </trkpt>
    <trkpt lat="50.9641975" lon="6.8758946">
      <time>2021-06-03T06:56:41Z</time>
    </trkpt>
    <trkpt lat="50.9642661" lon="6.8756263">
      <time>2021-06-03T06:56:49Z</time>
    </trkpt>
    <trkpt lat="50.9643144" lon="6.8753925">
      <time>2021-06-03T06:56:56Z</time>
    </trkpt>
    <trkpt lat="50.9643742" lon="6.8751948">
      <time>2021-06-03T06:57:02Z</time>
    </trkpt>
    <trkpt lat="50.9644286" lon="6.8749860">
      <time>2021-06-03T06:57:08Z</time>
    </trkpt>
    <trkpt lat="50.9644651" lon="6.8749055">
      <time>2021-06-03T06:57:11Z</time>
    </trkpt>
    <trkpt lat="50.9645304" lon="6.8749138">
      <time>2021-06-03T06:57:14Z</time>
    </trkpt>
    <trkpt lat="50.9646904" lon="6.8750949">
      <time>2021-06-03T06:57:22Z</time>
    </trkpt>
    <trkpt lat="50.9647234" lon="6.8751371">
      <time>2021-06-03T06:57:24Z</time>
    </trkpt>
    <trkpt lat="50.9648542" lon="6.8752490">
      <time>2021-06-03T06:57:31Z</time>
    </trkpt>
    <trkpt lat="50.9650187" lon="6.8754113">
      <time>2021-06-03T06:57:40Z</time>
    </trkpt>
    <trkpt lat="50.9651696" lon="6.8755827">
      <time>2021-06-03T06:57:48Z</time>
    </trkpt>
    <trkpt lat="50.9651838" lon="6.8756013">
      <time>2021-06-03T06:57:49Z</time>
    </trkpt>
    <trkpt lat="50.9652596" lon="6.8756599">
      <time>2021-06-03T06:57:53Z</time>
    </trkpt>
    <trkpt lat="50.9653041" lon="6.8757255">
      <time>2021-06-03T06:57:56Z</time>
    </trkpt>
    <trkpt lat="50.9654289" lon="6.8758389">
      <time>2021-06-03T06:58:03Z</time>
    </trkpt>
    <trkpt lat="50.9655190" lon="6.8758926">
      <time>2021-06-03T06:58:07Z</time>
    </trkpt>
    <trkpt lat="50.9656033" lon="6.8759492">
      <time>2021-06-03T06:58:11Z</time>
    </trkpt>
    <trkpt lat="50.9656813" lon="6.8760462">
      <time>2021-06-03T06:58:16Z</time>
    </trkpt>
    <trkpt lat="50.9657887" lon="6.8761181">
      <time>2021-06-03T06:58:21Z</time>
    </trkpt>
    <trkpt lat="50.9658042" lon="6.8761370">
      <time>2021-06-03T06:58:22Z</time>
    </trkpt>
    <trkpt lat="50.9658270" lon="6.8761537">
      <time>2021-06-03T06:58:23Z</time>
    </trkpt>
    <trkpt lat="50.9658837" lon="6.8761963">
      <time>2021-06-03T06:58:26Z</time>
    </trkpt>
    <trkpt lat="50.9658898" lon="6.8762140">
      <time>2021-06-03T06:58:27Z</time>
    </trkpt>
    <trkpt lat="50.9658854" lon="6.8762337">
      <time>2021-06-03T06:58:29Z</time>
    </trkpt>
    <trkpt lat="50.9658949" lon="6.8762487">
      <time>2021-06-03T06:58:31Z</time>
    </trkpt>
    <trkpt lat="50.9659053" lon="6.8762580">
      <time>2021-06-03T06:58:32Z</time>
    </trkpt>
    <trkpt lat="50.9659236" lon="6.8762642">
      <time>2021-06-03T06:58:33Z</time>
    </trkpt>
    <trkpt lat="50.9660141" lon="6.8762841">
      <time>2021-06-03T06:58:36Z</time>
    </trkpt>
    <trkpt lat="50.9661037" lon="6.8763488">
      <time>2021-06-03T06:58:39Z</time>
    </trkpt>
    <trkpt lat="50.9661285" lon="6.8764282">
      <time>2021-06-03T06:58:41Z</time>
    </trkpt>
    <trkpt lat="50.9661083" lon="6.8767096">
      <time>2021-06-03T06:58:48Z</time>
    </trkpt>
    <trkpt lat="50.9661033" lon="6.8767504">
      <time>2021-06-03T06:58:49Z</time>
    </trkpt>
    <trkpt lat="50.9660969" lon="6.8768979">
      <time>2021-06-03T06:58:53Z</time>
    </trkpt>
    <trkpt lat="50.9660560" lon="6.8771232">
      <time>2021-06-03T06:59:00Z</time>
    </trkpt>
    <trkpt lat="50.9659769" lon="6.8773962">
      <time>2021-06-03T06:59:08Z</time>
    </trkpt>
    <trkpt lat="50.9659606" lon="6.8774207">
      <time>2021-06-03T06:59:09Z</time>
    </trkpt>
    <trkpt lat="50.9658356" lon="6.8776536">
      <time>2021-06-03T06:59:17Z</time>
    </trkpt>
    <trkpt lat="50.9658161" lon="6.8777076">
      <time>2021-06-03T06:59:19Z</time>
    </trkpt>
    <trkpt lat="50.9657281" lon="6.8779886">
      <time>2021-06-03T06:59:28Z</time>
    </trkpt>
    <trkpt lat="50.9656405" lon="6.8782765">
      <time>2021-06-03T06:59:37Z</time>
    </trkpt>
    <trkpt lat="50.9656374" lon="6.8783135">
      <time>2021-06-03T06:59:38Z</time>
    </trkpt>
    <trkpt lat="50.9656242" lon="6.8785679">
      <time>2021-06-03T06:59:45Z</time>
    </trkpt>
    <trkpt lat="50.9656726" lon="6.8788528">
      <time>2021-06-03T06:59:52Z</time>
    </trkpt>
    <trkpt lat="50.9656778" lon="6.8788940">
      <time>2021-06-03T06:59:53Z</time>
    </trkpt>
    <trkpt lat="50.9657287" lon="6.8790797">
      <time>2021-06-03T06:59:58Z</time>
    </trkpt>
    <trkpt lat="50.9657446" lon="6.8791943">
      <time>2021-06-03T07:00:01Z</time>
    </trkpt>
    <trkpt lat="50.9657299" lon="6.8792542">
      <time>2021-06-03T07:00:03Z</time>
    </trkpt>
    <trkpt lat="50.9656898" lon="6.8792592">
      <time>2021-06-03T07:00:05Z</time>
    </trkpt>
    <trkpt lat="50.9656675" lon="6.8792347">
      <time>2021-06-03T07:00:06Z</time>
    </trkpt>
    <trkpt lat="50.9655892" lon="6.8791438">
      <time>2021-06-03T07:00:10Z</time>
    </trkpt>
    <trkpt lat="50.9654963" lon="6.8790334">
      <time>2021-06-03T07:00:15Z</time>
    </trkpt>
    <trkpt lat="50.9654084" lon="6.8789332">
      <time>2021-06-03T07:00:19Z</time>
    </trkpt>
    <trkpt lat="50.9652914" lon="6.8787999">
      <time>2021-06-03T07:00:25Z</time>
    </trkpt>
    <trkpt lat="50.9652568" lon="6.8787614">
      <time>2021-06-03T07:00:27Z</time>
    </trkpt>
    <trkpt lat="50.9651821" lon="6.8786415">
      <time>2021-06-03T07:00:31Z</time>
    </trkpt>
    <trkpt lat="50.9650631" lon="6.8784760">
      <time>2021-06-03T07:00:37Z</time>
    </trkpt>
    <trkpt lat="50.9649428" lon="6.8783375">
      <time>2021-06-03T07:00:43Z</time>
    </trkpt>
    <trkpt lat="50.9648263" lon="6.8781579">
      <time>2021-06-03T07:00:50Z</time>
    </trkpt>
    <trkpt lat="50.9646889" lon="6.8779903">
      <time>2021-06-03T07:00:58Z</time>
    </trkpt>
    <trkpt lat="50.9646359" lon="6.8779233">
      <time>2021-06-03T07:01:01Z</time>
    </trkpt>
    <trkpt lat="50.9645943" lon="6.8778562">
      <time>2021-06-03T07:01:04Z</time>
    </trkpt>
    <trkpt lat="50.9645759" lon="6.8778349">
      <time>2021-06-03T07:01:05Z</time>
    </trkpt>
    <trkpt lat="50.9644589" lon="6.8776483">
      <time>2021-06-03T07:01:12Z</time>
    </trkpt>
    <trkpt lat="50.9644057" lon="6.8775587">
      <time>2021-06-03T07:01:15Z</time>
    </trkpt>
    <trkpt lat="50.9643574" lon="6.8773681">
      <time>2021-06-03T07:01:20Z</time>
    </trkpt>
    <trkpt lat="50.9642907" lon="6.8770867">
      <time>2021-06-03T07:01:28Z</time>
    </trkpt>
    <trkpt lat="50.9642450" lon="6.8769134">
      <time>2021-06-03T07:01:33Z</time>
    </trkpt>
    <trkpt lat="50.9642257" lon="6.8767793">
      <time>2021-06-03T07:01:37Z</time>
    </trkpt>
    <trkpt lat="50.9642397" lon="6.8765800">
      <time>2021-06-03T07:01:43Z</time>
    </trkpt>
    <trkpt lat="50.9642465" lon="6.8765494">
      <time>2021-06-03T07:01:44Z</time>
    </trkpt>
    <trkpt lat="50.9642701" lon="6.8763963">
      <time>2021-06-03T07:01:48Z</time>
    </trkpt>
    <trkpt lat="50.9642862" lon="6.8762729">
      <time>2021-06-03T07:01:51Z</time>
    </trkpt>
    <trkpt lat="50.9642880" lon="6.8762344">
      <time>2021-06-03T07:01:52Z</time>
    </trkpt>
    <trkpt lat="50.9642491" lon="6.8760161">
      <time>2021-06-03T07:01:59Z</time>
    </trkpt>
    <trkpt lat="50.9642145" lon="6.8759475">
      <time>2021-06-03T07:02:02Z</time>
    </trkpt>
    <trkpt lat="50.9641711" lon="6.8759392">
      <time>2021-06-03T07:02:04Z</time>
    </trkpt>
    <trkpt lat="50.9639930" lon="6.8759026">
      <time>2021-06-03T07:02:11Z</time>
    </trkpt>
    <trkpt lat="50.9638601" lon="6.8757812">
      <time>2021-06-03T07:02:16Z</time>
    </trkpt>
    <trkpt lat="50.9636793" lon="6.8757887">
      <time>2021-06-03T07:02:23Z</time>
    </trkpt>
    <trkpt lat="50.9635318" lon="6.8757617">
      <time>2021-06-03T07:02:30Z</time>
    </trkpt>
  </trkseg></trk>
</gpx>
