<?xml version="1.0" encoding="UTF-8"?>
<gpx version="1.1" creator="Diary FIT converter" xmlns="http://www.topografix.com/GPX/1/1">
  <trk><name>Activity</name><trkseg>
    <trkpt lat="50.9622113" lon="6.8763213">
      <time>2023-05-23T17:15:25Z</time>
    </trkpt>
    <trkpt lat="50.9621852" lon="6.8763141">
      <time>2023-05-23T17:15:26Z</time>
    </trkpt>
    <trkpt lat="50.9621264" lon="6.8762803">
      <time>2023-05-23T17:15:30Z</time>
    </trkpt>
    <trkpt lat="50.9620736" lon="6.8762782">
      <time>2023-05-23T17:15:35Z</time>
    </trkpt>
    <trkpt lat="50.9620641" lon="6.8762824">
      <time>2023-05-23T17:15:36Z</time>
    </trkpt>
    <trkpt lat="50.9620529" lon="6.8762902">
      <time>2023-05-23T17:15:37Z</time>
    </trkpt>
    <trkpt lat="50.9620362" lon="6.8763151">
      <time>2023-05-23T17:15:39Z</time>
    </trkpt>
    <trkpt lat="50.9620274" lon="6.8763817">
      <time>2023-05-23T17:15:41Z</time>
    </trkpt>
    <trkpt lat="50.9620291" lon="6.8764901">
      <time>2023-05-23T17:15:43Z</time>
    </trkpt>
    <trkpt lat="50.9620352" lon="6.8766155">
      <time>2023-05-23T17:15:45Z</time>
    </trkpt>
    <trkpt lat="50.9620031" lon="6.8768409">
      <time>2023-05-23T17:15:49Z</time>
    </trkpt>
    <trkpt lat="50.9619598" lon="6.8769530">
      <time>2023-05-23T17:15:51Z</time>
    </trkpt>
    <trkpt lat="50.9619259" lon="6.8769885">
      <time>2023-05-23T17:15:52Z</time>
    </trkpt>
    <trkpt lat="50.9616653" lon="6.8771529">
      <time>2023-05-23T17:15:58Z</time>
    </trkpt>
    <trkpt lat="50.9616224" lon="6.8771607">
      <time>2023-05-23T17:15:59Z</time>
    </trkpt>
    <trkpt lat="50.9613156" lon="6.8772691">
      <time>2023-05-23T17:16:06Z</time>
    </trkpt>
    <trkpt lat="50.9612788" lon="6.8772929">
      <time>2023-05-23T17:16:07Z</time>
    </trkpt>
    <trkpt lat="50.9611991" lon="6.8773441">
      <time>2023-05-23T17:16:09Z</time>
    </trkpt>
    <trkpt lat="50.9611593" lon="6.8773673">
      <time>2023-05-23T17:16:10Z</time>
    </trkpt>
    <trkpt lat="50.9609572" lon="6.8774164">
      <time>2023-05-23T17:16:15Z</time>
    </trkpt>
    <trkpt lat="50.9606624" lon="6.8775049">
      <time>2023-05-23T17:16:21Z</time>
    </trkpt>
    <trkpt lat="50.9605453" lon="6.8775553">
      <time>2023-05-23T17:16:24Z</time>
    </trkpt>
    <trkpt lat="50.9604739" lon="6.8775856">
      <time>2023-05-23T17:16:26Z</time>
    </trkpt>
    <trkpt lat="50.9603942" lon="6.8776213">
      <time>2023-05-23T17:16:28Z</time>
    </trkpt>
    <trkpt lat="50.9603092" lon="6.8776628">
      <time>2023-05-23T17:16:30Z</time>
    </trkpt>
    <trkpt lat="50.9602767" lon="6.8776657">
      <time>2023-05-23T17:16:31Z</time>
    </trkpt>
    <trkpt lat="50.9602279" lon="6.8776541">
      <time>2023-05-23T17:16:32Z</time>
    </trkpt>
    <trkpt lat="50.9601455" lon="6.8775965">
      <time>2023-05-23T17:16:34Z</time>
    </trkpt>
    <trkpt lat="50.9599337" lon="6.8773997">
      <time>2023-05-23T17:16:39Z</time>
    </trkpt>
    <trkpt lat="50.9598694" lon="6.8772966">
      <time>2023-05-23T17:16:41Z</time>
    </trkpt>
    <trkpt lat="50.9598260" lon="6.8771759">
      <time>2023-05-23T17:16:43Z</time>
    </trkpt>
    <trkpt lat="50.9598271" lon="6.8770425">
      <time>2023-05-23T17:16:45Z</time>
    </trkpt>
    <trkpt lat="50.9598818" lon="6.8767793">
      <time>2023-05-23T17:16:49Z</time>
    </trkpt>
    <trkpt lat="50.9598820" lon="6.8767098">
      <time>2023-05-23T17:16:50Z</time>
    </trkpt>
    <trkpt lat="50.9598724" lon="6.8766388">
      <time>2023-05-23T17:16:51Z</time>
    </trkpt>
    <trkpt lat="50.9598184" lon="6.8762873">
      <time>2023-05-23T17:16:56Z</time>
    </trkpt>
    <trkpt lat="50.9597369" lon="6.8757854">
      <time>2023-05-23T17:17:03Z</time>
    </trkpt>
    <trkpt lat="50.9597156" lon="6.8752635">
      <time>2023-05-23T17:17:11Z</time>
    </trkpt>
    <trkpt lat="50.9597360" lon="6.8747125">
      <time>2023-05-23T17:17:19Z</time>
    </trkpt>
    <trkpt lat="50.9597572" lon="6.8742840">
      <time>2023-05-23T17:17:26Z</time>
    </trkpt>
    <trkpt lat="50.9597655" lon="6.8738628">
      <time>2023-05-23T17:17:33Z</time>
    </trkpt>
    <trkpt lat="50.9597846" lon="6.8734998">
      <time>2023-05-23T17:17:40Z</time>
    </trkpt>
    <trkpt lat="50.9597679" lon="6.8734082">
      <time>2023-05-23T17:17:42Z</time>
    </trkpt>
    <trkpt lat="50.9597609" lon="6.8733612">
      <time>2023-05-23T17:17:43Z</time>
    </trkpt>
    <trkpt lat="50.9597570" lon="6.8732797">
      <time>2023-05-23T17:17:45Z</time>
    </trkpt>
    <trkpt lat="50.9597474" lon="6.8731933">
      <time>2023-05-23T17:17:48Z</time>
    </trkpt>
    <trkpt lat="50.9597448" lon="6.8731532">
      <time>2023-05-23T17:17:50Z</time>
    </trkpt>
    <trkpt lat="50.9597434" lon="6.8731302">
      <time>2023-05-23T17:17:51Z</time>
    </trkpt>
    <trkpt lat="50.9597490" lon="6.8730563">
      <time>2023-05-23T17:17:54Z</time>
    </trkpt>
    <trkpt lat="50.9597690" lon="6.8730145">
      <time>2023-05-23T17:17:56Z</time>
    </trkpt>
    <trkpt lat="50.9597746" lon="6.8729939">
      <time>2023-05-23T17:17:57Z</time>
    </trkpt>
    <trkpt lat="50.9597466" lon="6.8729401">
      <time>2023-05-23T17:18:00Z</time>
    </trkpt>
    <trkpt lat="50.9596719" lon="6.8726672">
      <time>2023-05-23T17:18:05Z</time>
    </trkpt>
    <trkpt lat="50.9596047" lon="6.8721752">
      <time>2023-05-23T17:18:12Z</time>
    </trkpt>
    <trkpt lat="50.9595312" lon="6.8718355">
      <time>2023-05-23T17:18:17Z</time>
    </trkpt>
    <trkpt lat="50.9594874" lon="6.8716870">
      <time>2023-05-23T17:18:19Z</time>
    </trkpt>
    <trkpt lat="50.9594539" lon="6.8715721">
      <time>2023-05-23T17:18:21Z</time>
    </trkpt>
    <trkpt lat="50.9594296" lon="6.8715100">
      <time>2023-05-23T17:18:22Z</time>
    </trkpt>
    <trkpt lat="50.9593638" lon="6.8712897">
      <time>2023-05-23T17:18:25Z</time>
    </trkpt>
    <trkpt lat="50.9592196" lon="6.8708843">
      <time>2023-05-23T17:18:31Z</time>
    </trkpt>
    <trkpt lat="50.9591903" lon="6.8708345">
      <time>2023-05-23T17:18:32Z</time>
    </trkpt>
    <trkpt lat="50.9591293" lon="6.8707390">
      <time>2023-05-23T17:18:34Z</time>
    </trkpt>
    <trkpt lat="50.9591003" lon="6.8707027">
      <time>2023-05-23T17:18:35Z</time>
    </trkpt>
    <trkpt lat="50.9590764" lon="6.8706735">
      <time>2023-05-23T17:18:37Z</time>
    </trkpt>
    <trkpt lat="50.9590592" lon="6.8706709">
      <time>2023-05-23T17:18:38Z</time>
    </trkpt>
    <trkpt lat="50.9589599" lon="6.8707132">
      <time>2023-05-23T17:18:41Z</time>
    </trkpt>
    <trkpt lat="50.9587010" lon="6.8706992">
      <time>2023-05-23T17:18:47Z</time>
    </trkpt>
    <trkpt lat="50.9584525" lon="6.8705623">
      <time>2023-05-23T17:18:53Z</time>
    </trkpt>
    <trkpt lat="50.9583739" lon="6.8704229">
      <time>2023-05-23T17:18:57Z</time>
    </trkpt>
    <trkpt lat="50.9583609" lon="6.8703833">
      <time>2023-05-23T17:18:58Z</time>
    </trkpt>
    <trkpt lat="50.9583580" lon="6.8703460">
      <time>2023-05-23T17:18:59Z</time>
    </trkpt>
    <trkpt lat="50.9583651" lon="6.8702441">
      <time>2023-05-23T17:19:01Z</time>
    </trkpt>
    <trkpt lat="50.9583721" lon="6.8701120">
      <time>2023-05-23T17:19:03Z</time>
    </trkpt>
    <trkpt lat="50.9583882" lon="6.8700553">
      <time>2023-05-23T17:19:04Z</time>
    </trkpt>
    <trkpt lat="50.9583998" lon="6.8699988">
      <time>2023-05-23T17:19:05Z</time>
    </trkpt>
    <trkpt lat="50.9584674" lon="6.8696556">
      <time>2023-05-23T17:19:11Z</time>
    </trkpt>
    <trkpt lat="50.9584985" lon="6.8694497">
      <time>2023-05-23T17:19:15Z</time>
    </trkpt>
    <trkpt lat="50.9585120" lon="6.8693403">
      <time>2023-05-23T17:19:17Z</time>
    </trkpt>
    <trkpt lat="50.9585187" lon="6.8692803">
      <time>2023-05-23T17:19:18Z</time>
    </trkpt>
    <trkpt lat="50.9585811" lon="6.8689851">
      <time>2023-05-23T17:19:25Z</time>
    </trkpt>
    <trkpt lat="50.9586028" lon="6.8689625">
      <time>2023-05-23T17:19:26Z</time>
    </trkpt>
    <trkpt lat="50.9586471" lon="6.8688314">
      <time>2023-05-23T17:19:29Z</time>
    </trkpt>
    <trkpt lat="50.9586296" lon="6.8686659">
      <time>2023-05-23T17:19:33Z</time>
    </trkpt>
    <trkpt lat="50.9586044" lon="6.8686449">
      <time>2023-05-23T17:19:34Z</time>
    </trkpt>
    <trkpt lat="50.9585165" lon="6.8685992">
      <time>2023-05-23T17:19:38Z</time>
    </trkpt>
    <trkpt lat="50.9585003" lon="6.8686006">
      <time>2023-05-23T17:19:39Z</time>
    </trkpt>
    <trkpt lat="50.9584884" lon="6.8685964">
      <time>2023-05-23T17:19:40Z</time>
    </trkpt>
    <trkpt lat="50.9584847" lon="6.8685925">
      <time>2023-05-23T17:19:42Z</time>
    </trkpt>
    <trkpt lat="50.9584865" lon="6.8685934">
      <time>2023-05-23T17:19:43Z</time>
    </trkpt>
    <trkpt lat="50.9584947" lon="6.8686082">
      <time>2023-05-23T17:19:52Z</time>
    </trkpt>
    <trkpt lat="50.9585049" lon="6.8686059">
      <time>2023-05-23T17:19:53Z</time>
    </trkpt>
    <trkpt lat="50.9585744" lon="6.8685730">
      <time>2023-05-23T17:20:00Z</time>
    </trkpt>
    <trkpt lat="50.9585688" lon="6.8685976">
      <time>2023-05-23T17:20:04Z</time>
    </trkpt>
    <trkpt lat="50.9585418" lon="6.8685524">
      <time>2023-05-23T17:20:06Z</time>
    </trkpt>
    <trkpt lat="50.9585385" lon="6.8685480">
      <time>2023-05-23T17:20:07Z</time>
    </trkpt>
    <trkpt lat="50.9585554" lon="6.8685960">
      <time>2023-05-23T17:20:12Z</time>
    </trkpt>
    <trkpt lat="50.9585138" lon="6.8685661">
      <time>2023-05-23T17:20:16Z</time>
    </trkpt>
    <trkpt lat="50.9585029" lon="6.8685735">
      <time>2023-05-23T17:20:18Z</time>
    </trkpt>
    <trkpt lat="50.9583852" lon="6.8683164">
      <time>2023-05-23T17:21:01Z</time>
    </trkpt>
    <trkpt lat="50.9583676" lon="6.8682444">
      <time>2023-05-23T17:21:03Z</time>
    </trkpt>
    <trkpt lat="50.9584055" lon="6.8681918">
      <time>2023-05-23T17:21:05Z</time>
    </trkpt>
    <trkpt lat="50.9584529" lon="6.8681571">
      <time>2023-05-23T17:21:07Z</time>
    </trkpt>
    <trkpt lat="50.9585966" lon="6.8680745">
      <time>2023-05-23T17:21:11Z</time>
    </trkpt>
    <trkpt lat="50.9586805" lon="6.8680278">
      <time>2023-05-23T17:21:13Z</time>
    </trkpt>
    <trkpt lat="50.9587533" lon="6.8679268">
      <time>2023-05-23T17:21:15Z</time>
    </trkpt>
    <trkpt lat="50.9587813" lon="6.8678723">
      <time>2023-05-23T17:21:16Z</time>
    </trkpt>
    <trkpt lat="50.9588511" lon="6.8676671">
      <time>2023-05-23T17:21:19Z</time>
    </trkpt>
    <trkpt lat="50.9588789" lon="6.8673438">
      <time>2023-05-23T17:21:23Z</time>
    </trkpt>
    <trkpt lat="50.9589083" lon="6.8672326">
      <time>2023-05-23T17:21:25Z</time>
    </trkpt>
    <trkpt lat="50.9589238" lon="6.8671786">
      <time>2023-05-23T17:21:26Z</time>
    </trkpt>
    <trkpt lat="50.9589691" lon="6.8669826">
      <time>2023-05-23T17:21:29Z</time>
    </trkpt>
    <trkpt lat="50.9590268" lon="6.8668418">
      <time>2023-05-23T17:21:32Z</time>
    </trkpt>
    <trkpt lat="50.9590864" lon="6.8666271">
      <time>2023-05-23T17:21:36Z</time>
    </trkpt>
    <trkpt lat="50.9591541" lon="6.8664159">
      <time>2023-05-23T17:21:40Z</time>
    </trkpt>
    <trkpt lat="50.9591920" lon="6.8663007">
      <time>2023-05-23T17:21:42Z</time>
    </trkpt>
    <trkpt lat="50.9593016" lon="6.8659593">
      <time>2023-05-23T17:21:47Z</time>
    </trkpt>
    <trkpt lat="50.9593426" lon="6.8658236">
      <time>2023-05-23T17:21:49Z</time>
    </trkpt>
    <trkpt lat="50.9593801" lon="6.8656966">
      <time>2023-05-23T17:21:51Z</time>
    </trkpt>
    <trkpt lat="50.9594314" lon="6.8655328">
      <time>2023-05-23T17:21:54Z</time>
    </trkpt>
    <trkpt lat="50.9594462" lon="6.8654795">
      <time>2023-05-23T17:21:55Z</time>
    </trkpt>
    <trkpt lat="50.9594944" lon="6.8652763">
      <time>2023-05-23T17:21:59Z</time>
    </trkpt>
    <trkpt lat="50.9595764" lon="6.8647447">
      <time>2023-05-23T17:22:09Z</time>
    </trkpt>
    <trkpt lat="50.9595986" lon="6.8644288">
      <time>2023-05-23T17:22:15Z</time>
    </trkpt>
    <trkpt lat="50.9595842" lon="6.8640642">
      <time>2023-05-23T17:22:22Z</time>
    </trkpt>
    <trkpt lat="50.9595767" lon="6.8638807">
      <time>2023-05-23T17:22:25Z</time>
    </trkpt>
    <trkpt lat="50.9595078" lon="6.8633503">
      <time>2023-05-23T17:22:34Z</time>
    </trkpt>
    <trkpt lat="50.9594916" lon="6.8630970">
      <time>2023-05-23T17:22:38Z</time>
    </trkpt>
    <trkpt lat="50.9594851" lon="6.8629694">
      <time>2023-05-23T17:22:40Z</time>
    </trkpt>
    <trkpt lat="50.9594766" lon="6.8628385">
      <time>2023-05-23T17:22:42Z</time>
    </trkpt>
    <trkpt lat="50.9594480" lon="6.8624469">
      <time>2023-05-23T17:22:48Z</time>
    </trkpt>
    <trkpt lat="50.9594440" lon="6.8623239">
      <time>2023-05-23T17:22:50Z</time>
    </trkpt>
    <trkpt lat="50.9594886" lon="6.8620951">
      <time>2023-05-23T17:22:55Z</time>
    </trkpt>
    <trkpt lat="50.9594864" lon="6.8618253">
      <time>2023-05-23T17:22:59Z</time>
    </trkpt>
    <trkpt lat="50.9594917" lon="6.8616890">
      <time>2023-05-23T17:23:01Z</time>
    </trkpt>
    <trkpt lat="50.9594954" lon="6.8615393">
      <time>2023-05-23T17:23:03Z</time>
    </trkpt>
    <trkpt lat="50.9594949" lon="6.8614649">
      <time>2023-05-23T17:23:04Z</time>
    </trkpt>
    <trkpt lat="50.9594908" lon="6.8613160">
      <time>2023-05-23T17:23:06Z</time>
    </trkpt>
    <trkpt lat="50.9595276" lon="6.8611162">
      <time>2023-05-23T17:23:09Z</time>
    </trkpt>
    <trkpt lat="50.9595498" lon="6.8608286">
      <time>2023-05-23T17:23:13Z</time>
    </trkpt>
    <trkpt lat="50.9595668" lon="6.8606080">
      <time>2023-05-23T17:23:16Z</time>
    </trkpt>
    <trkpt lat="50.9596101" lon="6.8599053">
      <time>2023-05-23T17:23:26Z</time>
    </trkpt>
    <trkpt lat="50.9596478" lon="6.8593693">
      <time>2023-05-23T17:23:34Z</time>
    </trkpt>
    <trkpt lat="50.9596955" lon="6.8587602">
      <time>2023-05-23T17:23:43Z</time>
    </trkpt>
    <trkpt lat="50.9597008" lon="6.8586969">
      <time>2023-05-23T17:23:44Z</time>
    </trkpt>
    <trkpt lat="50.9597264" lon="6.8583211">
      <time>2023-05-23T17:23:50Z</time>
    </trkpt>
    <trkpt lat="50.9597363" lon="6.8581361">
      <time>2023-05-23T17:23:53Z</time>
    </trkpt>
    <trkpt lat="50.9597592" lon="6.8578286">
      <time>2023-05-23T17:23:58Z</time>
    </trkpt>
    <trkpt lat="50.9597649" lon="6.8577626">
      <time>2023-05-23T17:23:59Z</time>
    </trkpt>
    <trkpt lat="50.9597971" lon="6.8573585">
      <time>2023-05-23T17:24:05Z</time>
    </trkpt>
    <trkpt lat="50.9598108" lon="6.8571562">
      <time>2023-05-23T17:24:08Z</time>
    </trkpt>
    <trkpt lat="50.9598471" lon="6.8566094">
      <time>2023-05-23T17:24:16Z</time>
    </trkpt>
    <trkpt lat="50.9598823" lon="6.8560383">
      <time>2023-05-23T17:24:24Z</time>
    </trkpt>
    <trkpt lat="50.9598901" lon="6.8558998">
      <time>2023-05-23T17:24:26Z</time>
    </trkpt>
    <trkpt lat="50.9598972" lon="6.8557645">
      <time>2023-05-23T17:24:28Z</time>
    </trkpt>
    <trkpt lat="50.9599150" lon="6.8555043">
      <time>2023-05-23T17:24:32Z</time>
    </trkpt>
    <trkpt lat="50.9599223" lon="6.8553713">
      <time>2023-05-23T17:24:34Z</time>
    </trkpt>
    <trkpt lat="50.9599650" lon="6.8547054">
      <time>2023-05-23T17:24:44Z</time>
    </trkpt>
    <trkpt lat="50.9600106" lon="6.8541109">
      <time>2023-05-23T17:24:53Z</time>
    </trkpt>
    <trkpt lat="50.9600498" lon="6.8535756">
      <time>2023-05-23T17:25:01Z</time>
    </trkpt>
    <trkpt lat="50.9600952" lon="6.8529466">
      <time>2023-05-23T17:25:11Z</time>
    </trkpt>
    <trkpt lat="50.9601464" lon="6.8522939">
      <time>2023-05-23T17:25:21Z</time>
    </trkpt>
    <trkpt lat="50.9601905" lon="6.8516798">
      <time>2023-05-23T17:25:30Z</time>
    </trkpt>
    <trkpt lat="50.9602545" lon="6.8510530">
      <time>2023-05-23T17:25:39Z</time>
    </trkpt>
    <trkpt lat="50.9601927" lon="6.8499222">
      <time>2023-05-23T17:25:53Z</time>
    </trkpt>
    <trkpt lat="50.9602731" lon="6.8498009">
      <time>2023-05-23T17:25:56Z</time>
    </trkpt>
    <trkpt lat="50.9603337" lon="6.8495987">
      <time>2023-05-23T17:25:59Z</time>
    </trkpt>
    <trkpt lat="50.9603537" lon="6.8494311">
      <time>2023-05-23T17:26:01Z</time>
    </trkpt>
    <trkpt lat="50.9603610" lon="6.8492563">
      <time>2023-05-23T17:26:03Z</time>
    </trkpt>
    <trkpt lat="50.9603781" lon="6.8490967">
      <time>2023-05-23T17:26:05Z</time>
    </trkpt>
    <trkpt lat="50.9603888" lon="6.8489315">
      <time>2023-05-23T17:26:07Z</time>
    </trkpt>
    <trkpt lat="50.9603922" lon="6.8488407">
      <time>2023-05-23T17:26:08Z</time>
    </trkpt>
    <trkpt lat="50.9604000" lon="6.8486611">
      <time>2023-05-23T17:26:10Z</time>
    </trkpt>
    <trkpt lat="50.9604096" lon="6.8484852">
      <time>2023-05-23T17:26:12Z</time>
    </trkpt>
    <trkpt lat="50.9604304" lon="6.8483150">
      <time>2023-05-23T17:26:14Z</time>
    </trkpt>
    <trkpt lat="50.9604373" lon="6.8482260">
      <time>2023-05-23T17:26:15Z</time>
    </trkpt>
    <trkpt lat="50.9604486" lon="6.8480410">
      <time>2023-05-23T17:26:17Z</time>
    </trkpt>
    <trkpt lat="50.9604598" lon="6.8478497">
      <time>2023-05-23T17:26:19Z</time>
    </trkpt>
    <trkpt lat="50.9604749" lon="6.8476687">
      <time>2023-05-23T17:26:21Z</time>
    </trkpt>
    <trkpt lat="50.9605147" lon="6.8473283">
      <time>2023-05-23T17:26:25Z</time>
    </trkpt>
    <trkpt lat="50.9605248" lon="6.8471441">
      <time>2023-05-23T17:26:27Z</time>
    </trkpt>
    <trkpt lat="50.9605423" lon="6.8467876">
      <time>2023-05-23T17:26:31Z</time>
    </trkpt>
    <trkpt lat="50.9605500" lon="6.8466966">
      <time>2023-05-23T17:26:32Z</time>
    </trkpt>
    <trkpt lat="50.9605723" lon="6.8463331">
      <time>2023-05-23T17:26:36Z</time>
    </trkpt>
    <trkpt lat="50.9606174" lon="6.8457163">
      <time>2023-05-23T17:26:43Z</time>
    </trkpt>
    <trkpt lat="50.9606687" lon="6.8451049">
      <time>2023-05-23T17:26:50Z</time>
    </trkpt>
    <trkpt lat="50.9606693" lon="6.8449183">
      <time>2023-05-23T17:26:52Z</time>
    </trkpt>
    <trkpt lat="50.9606777" lon="6.8446361">
      <time>2023-05-23T17:26:55Z</time>
    </trkpt>
    <trkpt lat="50.9607204" lon="6.8439166">
      <time>2023-05-23T17:27:03Z</time>
    </trkpt>
    <trkpt lat="50.9607298" lon="6.8437390">
      <time>2023-05-23T17:27:05Z</time>
    </trkpt>
    <trkpt lat="50.9607489" lon="6.8435732">
      <time>2023-05-23T17:27:07Z</time>
    </trkpt>
    <trkpt lat="50.9607818" lon="6.8432416">
      <time>2023-05-23T17:27:11Z</time>
    </trkpt>
    <trkpt lat="50.9608220" lon="6.8426527">
      <time>2023-05-23T17:27:18Z</time>
    </trkpt>
    <trkpt lat="50.9608913" lon="6.8419228">
      <time>2023-05-23T17:27:27Z</time>
    </trkpt>
    <trkpt lat="50.9609230" lon="6.8414300">
      <time>2023-05-23T17:27:33Z</time>
    </trkpt>
    <trkpt lat="50.9609315" lon="6.8413562">
      <time>2023-05-23T17:27:34Z</time>
    </trkpt>
    <trkpt lat="50.9609603" lon="6.8410603">
      <time>2023-05-23T17:27:38Z</time>
    </trkpt>
    <trkpt lat="50.9609700" lon="6.8409163">
      <time>2023-05-23T17:27:40Z</time>
    </trkpt>
    <trkpt lat="50.9609804" lon="6.8407057">
      <time>2023-05-23T17:27:43Z</time>
    </trkpt>
    <trkpt lat="50.9609907" lon="6.8405035">
      <time>2023-05-23T17:27:46Z</time>
    </trkpt>
    <trkpt lat="50.9609928" lon="6.8404377">
      <time>2023-05-23T17:27:47Z</time>
    </trkpt>
    <trkpt lat="50.9610041" lon="6.8402322">
      <time>2023-05-23T17:27:50Z</time>
    </trkpt>
    <trkpt lat="50.9610451" lon="6.8401316">
      <time>2023-05-23T17:27:52Z</time>
    </trkpt>
    <trkpt lat="50.9610759" lon="6.8400845">
      <time>2023-05-23T17:27:53Z</time>
    </trkpt>
    <trkpt lat="50.9611292" lon="6.8399970">
      <time>2023-05-23T17:27:55Z</time>
    </trkpt>
    <trkpt lat="50.9611451" lon="6.8398969">
      <time>2023-05-23T17:27:57Z</time>
    </trkpt>
    <trkpt lat="50.9611299" lon="6.8398374">
      <time>2023-05-23T17:27:58Z</time>
    </trkpt>
    <trkpt lat="50.9611046" lon="6.8395201">
      <time>2023-05-23T17:28:03Z</time>
    </trkpt>
    <trkpt lat="50.9611236" lon="6.8390695">
      <time>2023-05-23T17:28:09Z</time>
    </trkpt>
    <trkpt lat="50.9611529" lon="6.8385816">
      <time>2023-05-23T17:28:15Z</time>
    </trkpt>
    <trkpt lat="50.9611598" lon="6.8385054">
      <time>2023-05-23T17:28:16Z</time>
    </trkpt>
    <trkpt lat="50.9611701" lon="6.8382857">
      <time>2023-05-23T17:28:19Z</time>
    </trkpt>
    <trkpt lat="50.9611732" lon="6.8379852">
      <time>2023-05-23T17:28:23Z</time>
    </trkpt>
    <trkpt lat="50.9612153" lon="6.8373835">
      <time>2023-05-23T17:28:31Z</time>
    </trkpt>
    <trkpt lat="50.9612503" lon="6.8368922">
      <time>2023-05-23T17:28:38Z</time>
    </trkpt>
    <trkpt lat="50.9612541" lon="6.8366938">
      <time>2023-05-23T17:28:41Z</time>
    </trkpt>
    <trkpt lat="50.9612502" lon="6.8365805">
      <time>2023-05-23T17:28:43Z</time>
    </trkpt>
    <trkpt lat="50.9612438" lon="6.8365251">
      <time>2023-05-23T17:28:44Z</time>
    </trkpt>
    <trkpt lat="50.9612561" lon="6.8364742">
      <time>2023-05-23T17:28:45Z</time>
    </trkpt>
    <trkpt lat="50.9613067" lon="6.8364177">
      <time>2023-05-23T17:28:47Z</time>
    </trkpt>
    <trkpt lat="50.9614522" lon="6.8362660">
      <time>2023-05-23T17:28:52Z</time>
    </trkpt>
    <trkpt lat="50.9614814" lon="6.8360672">
      <time>2023-05-23T17:28:56Z</time>
    </trkpt>
    <trkpt lat="50.9614696" lon="6.8360372">
      <time>2023-05-23T17:28:57Z</time>
    </trkpt>
    <trkpt lat="50.9614118" lon="6.8359879">
      <time>2023-05-23T17:28:59Z</time>
    </trkpt>
    <trkpt lat="50.9613650" lon="6.8358711">
      <time>2023-05-23T17:29:03Z</time>
    </trkpt>
    <trkpt lat="50.9613598" lon="6.8358439">
      <time>2023-05-23T17:29:04Z</time>
    </trkpt>
    <trkpt lat="50.9613647" lon="6.8357952">
      <time>2023-05-23T17:29:06Z</time>
    </trkpt>
    <trkpt lat="50.9613776" lon="6.8358238">
      <time>2023-05-23T17:29:08Z</time>
    </trkpt>
    <trkpt lat="50.9613369" lon="6.8358020">
      <time>2023-05-23T17:29:11Z</time>
    </trkpt>
    <trkpt lat="50.9613405" lon="6.8357705">
      <time>2023-05-23T17:29:12Z</time>
    </trkpt>
    <trkpt lat="50.9614082" lon="6.8356920">
      <time>2023-05-23T17:29:15Z</time>
    </trkpt>
    <trkpt lat="50.9614897" lon="6.8355629">
      <time>2023-05-23T17:29:19Z</time>
    </trkpt>
    <trkpt lat="50.9614802" lon="6.8355049">
      <time>2023-05-23T17:29:21Z</time>
    </trkpt>
    <trkpt lat="50.9614768" lon="6.8354277">
      <time>2023-05-23T17:29:23Z</time>
    </trkpt>
    <trkpt lat="50.9614198" lon="6.8352034">
      <time>2023-05-23T17:29:28Z</time>
    </trkpt>
    <trkpt lat="50.9614102" lon="6.8349284">
      <time>2023-05-23T17:29:33Z</time>
    </trkpt>
    <trkpt lat="50.9614278" lon="6.8346339">
      <time>2023-05-23T17:29:38Z</time>
    </trkpt>
    <trkpt lat="50.9614594" lon="6.8342037">
      <time>2023-05-23T17:29:45Z</time>
    </trkpt>
    <trkpt lat="50.9614928" lon="6.8338155">
      <time>2023-05-23T17:29:51Z</time>
    </trkpt>
    <trkpt lat="50.9615146" lon="6.8332825">
      <time>2023-05-23T17:29:59Z</time>
    </trkpt>
    <trkpt lat="50.9615168" lon="6.8332259">
      <time>2023-05-23T17:30:00Z</time>
    </trkpt>
    <trkpt lat="50.9615398" lon="6.8328436">
      <time>2023-05-23T17:30:06Z</time>
    </trkpt>
    <trkpt lat="50.9615420" lon="6.8327819">
      <time>2023-05-23T17:30:07Z</time>
    </trkpt>
    <trkpt lat="50.9615798" lon="6.8322729">
      <time>2023-05-23T17:30:15Z</time>
    </trkpt>
    <trkpt lat="50.9616098" lon="6.8317346">
      <time>2023-05-23T17:30:24Z</time>
    </trkpt>
    <trkpt lat="50.9616278" lon="6.8314440">
      <time>2023-05-23T17:30:29Z</time>
    </trkpt>
    <trkpt lat="50.9616640" lon="6.8310658">
      <time>2023-05-23T17:30:36Z</time>
    </trkpt>
    <trkpt lat="50.9616377" lon="6.8308956">
      <time>2023-05-23T17:30:40Z</time>
    </trkpt>
    <trkpt lat="50.9616127" lon="6.8308791">
      <time>2023-05-23T17:30:41Z</time>
    </trkpt>
    <trkpt lat="50.9615172" lon="6.8307255">
      <time>2023-05-23T17:30:46Z</time>
    </trkpt>
    <trkpt lat="50.9614919" lon="6.8306488">
      <time>2023-05-23T17:30:48Z</time>
    </trkpt>
    <trkpt lat="50.9614462" lon="6.8306044">
      <time>2023-05-23T17:30:50Z</time>
    </trkpt>
    <trkpt lat="50.9612132" lon="6.8304293">
      <time>2023-05-23T17:30:57Z</time>
    </trkpt>
    <trkpt lat="50.9610122" lon="6.8302826">
      <time>2023-05-23T17:31:03Z</time>
    </trkpt>
    <trkpt lat="50.9607403" lon="6.8300446">
      <time>2023-05-23T17:31:10Z</time>
    </trkpt>
    <trkpt lat="50.9604902" lon="6.8297628">
      <time>2023-05-23T17:31:17Z</time>
    </trkpt>
    <trkpt lat="50.9604203" lon="6.8296682">
      <time>2023-05-23T17:31:19Z</time>
    </trkpt>
    <trkpt lat="50.9603066" lon="6.8295551">
      <time>2023-05-23T17:31:22Z</time>
    </trkpt>
    <trkpt lat="50.9600231" lon="6.8293368">
      <time>2023-05-23T17:31:29Z</time>
    </trkpt>
    <trkpt lat="50.9599589" lon="6.8293312">
      <time>2023-05-23T17:31:31Z</time>
    </trkpt>
    <trkpt lat="50.9599187" lon="6.8293893">
      <time>2023-05-23T17:31:33Z</time>
    </trkpt>
    <trkpt lat="50.9598916" lon="6.8296289">
      <time>2023-05-23T17:31:38Z</time>
    </trkpt>
    <trkpt lat="50.9599125" lon="6.8299768">
      <time>2023-05-23T17:31:44Z</time>
    </trkpt>
    <trkpt lat="50.9599186" lon="6.8300293">
      <time>2023-05-23T17:31:45Z</time>
    </trkpt>
    <trkpt lat="50.9599125" lon="6.8300790">
      <time>2023-05-23T17:31:46Z</time>
    </trkpt>
    <trkpt lat="50.9598766" lon="6.8301000">
      <time>2023-05-23T17:31:48Z</time>
    </trkpt>
    <trkpt lat="50.9598669" lon="6.8300833">
      <time>2023-05-23T17:31:50Z</time>
    </trkpt>
    <trkpt lat="50.9598642" lon="6.8300862">
      <time>2023-05-23T17:31:51Z</time>
    </trkpt>
    <trkpt lat="50.9598502" lon="6.8300968">
      <time>2023-05-23T17:31:53Z</time>
    </trkpt>
    <trkpt lat="50.9598502" lon="6.8300898">
      <time>2023-05-23T17:31:55Z</time>
    </trkpt>
    <trkpt lat="50.9598551" lon="6.8301165">
      <time>2023-05-23T17:31:57Z</time>
    </trkpt>
    <trkpt lat="50.9598483" lon="6.8301810">
      <time>2023-05-23T17:31:59Z</time>
    </trkpt>
    <trkpt lat="50.9598188" lon="6.8302815">
      <time>2023-05-23T17:32:03Z</time>
    </trkpt>
    <trkpt lat="50.9598373" lon="6.8302534">
      <time>2023-05-23T17:32:06Z</time>
    </trkpt>
    <trkpt lat="50.9598374" lon="6.8303020">
      <time>2023-05-23T17:32:09Z</time>
    </trkpt>
    <trkpt lat="50.9598440" lon="6.8303308">
      <time>2023-05-23T17:32:10Z</time>
    </trkpt>
    <trkpt lat="50.9598378" lon="6.8303552">
      <time>2023-05-23T17:32:12Z</time>
    </trkpt>
    <trkpt lat="50.9598492" lon="6.8303291">
      <time>2023-05-23T17:32:15Z</time>
    </trkpt>
    <trkpt lat="50.9598303" lon="6.8303325">
      <time>2023-05-23T17:32:18Z</time>
    </trkpt>
    <trkpt lat="50.9598486" lon="6.8303147">
      <time>2023-05-23T17:32:21Z</time>
    </trkpt>
    <trkpt lat="50.9598453" lon="6.8303021">
      <time>2023-05-23T17:32:24Z</time>
    </trkpt>
    <trkpt lat="50.9598514" lon="6.8303016">
      <time>2023-05-23T17:32:25Z</time>
    </trkpt>
    <trkpt lat="50.9598417" lon="6.8302669">
      <time>2023-05-23T17:32:28Z</time>
    </trkpt>
    <trkpt lat="50.9598353" lon="6.8302566">
      <time>2023-05-23T17:32:30Z</time>
    </trkpt>
    <trkpt lat="50.9598434" lon="6.8302847">
      <time>2023-05-23T17:32:32Z</time>
    </trkpt>
    <trkpt lat="50.9598522" lon="6.8303874">
      <time>2023-05-23T17:32:38Z</time>
    </trkpt>
    <trkpt lat="50.9598491" lon="6.8303689">
      <time>2023-05-23T17:32:39Z</time>
    </trkpt>
    <trkpt lat="50.9598507" lon="6.8303290">
      <time>2023-05-23T17:32:41Z</time>
    </trkpt>
    <trkpt lat="50.9598584" lon="6.8302918">
      <time>2023-05-23T17:32:43Z</time>
    </trkpt>
    <trkpt lat="50.9598698" lon="6.8302982">
      <time>2023-05-23T17:32:44Z</time>
    </trkpt>
    <trkpt lat="50.9599024" lon="6.8303508">
      <time>2023-05-23T17:32:48Z</time>
    </trkpt>
    <trkpt lat="50.9598639" lon="6.8303518">
      <time>2023-05-23T17:32:50Z</time>
    </trkpt>
    <trkpt lat="50.9598538" lon="6.8303459">
      <time>2023-05-23T17:32:51Z</time>
    </trkpt>
    <trkpt lat="50.9598575" lon="6.8303692">
      <time>2023-05-23T17:32:53Z</time>
    </trkpt>
    <trkpt lat="50.9598496" lon="6.8304387">
      <time>2023-05-23T17:32:55Z</time>
    </trkpt>
    <trkpt lat="50.9598540" lon="6.8306322">
      <time>2023-05-23T17:32:59Z</time>
    </trkpt>
    <trkpt lat="50.9598362" lon="6.8307229">
      <time>2023-05-23T17:33:01Z</time>
    </trkpt>
    <trkpt lat="50.9598201" lon="6.8307225">
      <time>2023-05-23T17:33:02Z</time>
    </trkpt>
    <trkpt lat="50.9598141" lon="6.8306330">
      <time>2023-05-23T17:33:05Z</time>
    </trkpt>
    <trkpt lat="50.9598002" lon="6.8304023">
      <time>2023-05-23T17:33:11Z</time>
    </trkpt>
    <trkpt lat="50.9598181" lon="6.8301871">
      <time>2023-05-23T17:33:18Z</time>
    </trkpt>
    <trkpt lat="50.9598327" lon="6.8301700">
      <time>2023-05-23T17:33:20Z</time>
    </trkpt>
    <trkpt lat="50.9598405" lon="6.8301821">
      <time>2023-05-23T17:33:21Z</time>
    </trkpt>
    <trkpt lat="50.9598284" lon="6.8302656">
      <time>2023-05-23T17:33:25Z</time>
    </trkpt>
    <trkpt lat="50.9598439" lon="6.8302425">
      <time>2023-05-23T17:33:28Z</time>
    </trkpt>
    <trkpt lat="50.9598375" lon="6.8302149">
      <time>2023-05-23T17:33:29Z</time>
    </trkpt>
    <trkpt lat="50.9598451" lon="6.8301308">
      <time>2023-05-23T17:33:31Z</time>
    </trkpt>
    <trkpt lat="50.9598444" lon="6.8301372">
      <time>2023-05-23T17:33:32Z</time>
    </trkpt>
    <trkpt lat="50.9598382" lon="6.8301095">
      <time>2023-05-23T17:33:35Z</time>
    </trkpt>
    <trkpt lat="50.9598613" lon="6.8299770">
      <time>2023-05-23T17:33:39Z</time>
    </trkpt>
    <trkpt lat="50.9598703" lon="6.8299199">
      <time>2023-05-23T17:33:41Z</time>
    </trkpt>
    <trkpt lat="50.9598753" lon="6.8299217">
      <time>2023-05-23T17:33:43Z</time>
    </trkpt>
    <trkpt lat="50.9598758" lon="6.8299685">
      <time>2023-05-23T17:33:45Z</time>
    </trkpt>
    <trkpt lat="50.9598431" lon="6.8299844">
      <time>2023-05-23T17:33:48Z</time>
    </trkpt>
    <trkpt lat="50.9598446" lon="6.8300333">
      <time>2023-05-23T17:33:51Z</time>
    </trkpt>
    <trkpt lat="50.9598297" lon="6.8302006">
      <time>2023-05-23T17:33:55Z</time>
    </trkpt>
    <trkpt lat="50.9598249" lon="6.8302463">
      <time>2023-05-23T17:33:56Z</time>
    </trkpt>
    <trkpt lat="50.9598265" lon="6.8303023">
      <time>2023-05-23T17:34:00Z</time>
    </trkpt>
    <trkpt lat="50.9598313" lon="6.8301909">
      <time>2023-05-23T17:34:04Z</time>
    </trkpt>
    <trkpt lat="50.9598340" lon="6.8301649">
      <time>2023-05-23T17:34:05Z</time>
    </trkpt>
    <trkpt lat="50.9598443" lon="6.8301350">
      <time>2023-05-23T17:34:07Z</time>
    </trkpt>
    <trkpt lat="50.9598507" lon="6.8301326">
      <time>2023-05-23T17:34:09Z</time>
    </trkpt>
    <trkpt lat="50.9598504" lon="6.8301763">
      <time>2023-05-23T17:34:11Z</time>
    </trkpt>
    <trkpt lat="50.9598240" lon="6.8302318">
      <time>2023-05-23T17:34:13Z</time>
    </trkpt>
    <trkpt lat="50.9598129" lon="6.8302992">
      <time>2023-05-23T17:34:16Z</time>
    </trkpt>
    <trkpt lat="50.9598229" lon="6.8302986">
      <time>2023-05-23T17:34:17Z</time>
    </trkpt>
    <trkpt lat="50.9598476" lon="6.8303004">
      <time>2023-05-23T17:34:20Z</time>
    </trkpt>
    <trkpt lat="50.9598512" lon="6.8303363">
      <time>2023-05-23T17:34:22Z</time>
    </trkpt>
    <trkpt lat="50.9598482" lon="6.8303777">
      <time>2023-05-23T17:34:24Z</time>
    </trkpt>
    <trkpt lat="50.9598459" lon="6.8303984">
      <time>2023-05-23T17:34:25Z</time>
    </trkpt>
    <trkpt lat="50.9598145" lon="6.8303415">
      <time>2023-05-23T17:34:28Z</time>
    </trkpt>
    <trkpt lat="50.9598094" lon="6.8302567">
      <time>2023-05-23T17:34:31Z</time>
    </trkpt>
    <trkpt lat="50.9598348" lon="6.8302161">
      <time>2023-05-23T17:34:33Z</time>
    </trkpt>
    <trkpt lat="50.9598382" lon="6.8301945">
      <time>2023-05-23T17:34:35Z</time>
    </trkpt>
    <trkpt lat="50.9598433" lon="6.8301817">
      <time>2023-05-23T17:34:37Z</time>
    </trkpt>
    <trkpt lat="50.9598502" lon="6.8301972">
      <time>2023-05-23T17:34:39Z</time>
    </trkpt>
    <trkpt lat="50.9598782" lon="6.8301986">
      <time>2023-05-23T17:34:40Z</time>
    </trkpt>
    <trkpt lat="50.9598830" lon="6.8301816">
      <time>2023-05-23T17:34:42Z</time>
    </trkpt>
    <trkpt lat="50.9598860" lon="6.8301762">
      <time>2023-05-23T17:34:47Z</time>
    </trkpt>
    <trkpt lat="50.9598892" lon="6.8302000">
      <time>2023-05-23T17:34:48Z</time>
    </trkpt>
    <trkpt lat="50.9598537" lon="6.8302558">
      <time>2023-05-23T17:34:50Z</time>
    </trkpt>
    <trkpt lat="50.9598415" lon="6.8302791">
      <time>2023-05-23T17:34:51Z</time>
    </trkpt>
    <trkpt lat="50.9598438" lon="6.8302878">
      <time>2023-05-23T17:34:53Z</time>
    </trkpt>
    <trkpt lat="50.9598504" lon="6.8302483">
      <time>2023-05-23T17:34:55Z</time>
    </trkpt>
    <trkpt lat="50.9598491" lon="6.8302422">
      <time>2023-05-23T17:34:57Z</time>
    </trkpt>
    <trkpt lat="50.9598566" lon="6.8302157">
      <time>2023-05-23T17:34:59Z</time>
    </trkpt>
    <trkpt lat="50.9598534" lon="6.8302476">
      <time>2023-05-23T17:35:01Z</time>
    </trkpt>
    <trkpt lat="50.9598387" lon="6.8302992">
      <time>2023-05-23T17:35:03Z</time>
    </trkpt>
    <trkpt lat="50.9598397" lon="6.8303237">
      <time>2023-05-23T17:35:05Z</time>
    </trkpt>
    <trkpt lat="50.9598373" lon="6.8303405">
      <time>2023-05-23T17:35:08Z</time>
    </trkpt>
    <trkpt lat="50.9598340" lon="6.8303304">
      <time>2023-05-23T17:35:09Z</time>
    </trkpt>
    <trkpt lat="50.9598338" lon="6.8303204">
      <time>2023-05-23T17:35:12Z</time>
    </trkpt>
    <trkpt lat="50.9598247" lon="6.8303121">
      <time>2023-05-23T17:35:13Z</time>
    </trkpt>
    <trkpt lat="50.9598145" lon="6.8303496">
      <time>2023-05-23T17:35:16Z</time>
    </trkpt>
    <trkpt lat="50.9598253" lon="6.8303545">
      <time>2023-05-23T17:35:17Z</time>
    </trkpt>
    <trkpt lat="50.9598398" lon="6.8303347">
      <time>2023-05-23T17:35:19Z</time>
    </trkpt>
    <trkpt lat="50.9598365" lon="6.8302836">
      <time>2023-05-23T17:35:21Z</time>
    </trkpt>
    <trkpt lat="50.9598481" lon="6.8300707">
      <time>2023-05-23T17:35:28Z</time>
    </trkpt>
    <trkpt lat="50.9598566" lon="6.8300464">
      <time>2023-05-23T17:35:29Z</time>
    </trkpt>
    <trkpt lat="50.9598929" lon="6.8300444">
      <time>2023-05-23T17:35:31Z</time>
    </trkpt>
    <trkpt lat="50.9598911" lon="6.8301135">
      <time>2023-05-23T17:35:33Z</time>
    </trkpt>
    <trkpt lat="50.9598825" lon="6.8301515">
      <time>2023-05-23T17:35:34Z</time>
    </trkpt>
    <trkpt lat="50.9598257" lon="6.8304302">
      <time>2023-05-23T17:35:41Z</time>
    </trkpt>
    <trkpt lat="50.9598362" lon="6.8304199">
      <time>2023-05-23T17:35:45Z</time>
    </trkpt>
    <trkpt lat="50.9598723" lon="6.8301839">
      <time>2023-05-23T17:35:51Z</time>
    </trkpt>
    <trkpt lat="50.9598775" lon="6.8300013">
      <time>2023-05-23T17:35:56Z</time>
    </trkpt>
    <trkpt lat="50.9598843" lon="6.8299852">
      <time>2023-05-23T17:35:57Z</time>
    </trkpt>
    <trkpt lat="50.9598865" lon="6.8299676">
      <time>2023-05-23T17:35:58Z</time>
    </trkpt>
    <trkpt lat="50.9598802" lon="6.8299785">
      <time>2023-05-23T17:36:00Z</time>
    </trkpt>
    <trkpt lat="50.9598641" lon="6.8301220">
      <time>2023-05-23T17:36:05Z</time>
    </trkpt>
    <trkpt lat="50.9598634" lon="6.8301264">
      <time>2023-05-23T17:36:08Z</time>
    </trkpt>
    <trkpt lat="50.9598732" lon="6.8301909">
      <time>2023-05-23T17:36:14Z</time>
    </trkpt>
    <trkpt lat="50.9598738" lon="6.8302158">
      <time>2023-05-23T17:36:17Z</time>
    </trkpt>
    <trkpt lat="50.9598718" lon="6.8302407">
      <time>2023-05-23T17:36:18Z</time>
    </trkpt>
    <trkpt lat="50.9598220" lon="6.8303778">
      <time>2023-05-23T17:36:23Z</time>
    </trkpt>
    <trkpt lat="50.9598001" lon="6.8304828">
      <time>2023-05-23T17:36:27Z</time>
    </trkpt>
    <trkpt lat="50.9598223" lon="6.8304923">
      <time>2023-05-23T17:36:29Z</time>
    </trkpt>
    <trkpt lat="50.9598336" lon="6.8304587">
      <time>2023-05-23T17:36:31Z</time>
    </trkpt>
    <trkpt lat="50.9598383" lon="6.8304393">
      <time>2023-05-23T17:36:32Z</time>
    </trkpt>
    <trkpt lat="50.9598498" lon="6.8301624">
      <time>2023-05-23T17:36:40Z</time>
    </trkpt>
    <trkpt lat="50.9598603" lon="6.8300282">
      <time>2023-05-23T17:36:45Z</time>
    </trkpt>
    <trkpt lat="50.9598653" lon="6.8300894">
      <time>2023-05-23T17:36:48Z</time>
    </trkpt>
    <trkpt lat="50.9598657" lon="6.8301954">
      <time>2023-05-23T17:36:52Z</time>
    </trkpt>
    <trkpt lat="50.9598633" lon="6.8302197">
      <time>2023-05-23T17:36:54Z</time>
    </trkpt>
    <trkpt lat="50.9598569" lon="6.8301880">
      <time>2023-05-23T17:36:56Z</time>
    </trkpt>
    <trkpt lat="50.9598584" lon="6.8301523">
      <time>2023-05-23T17:36:57Z</time>
    </trkpt>
    <trkpt lat="50.9598517" lon="6.8300816">
      <time>2023-05-23T17:37:00Z</time>
    </trkpt>
    <trkpt lat="50.9598305" lon="6.8300898">
      <time>2023-05-23T17:37:02Z</time>
    </trkpt>
    <trkpt lat="50.9598400" lon="6.8301332">
      <time>2023-05-23T17:37:04Z</time>
    </trkpt>
    <trkpt lat="50.9598466" lon="6.8301538">
      <time>2023-05-23T17:37:05Z</time>
    </trkpt>
    <trkpt lat="50.9598547" lon="6.8301990">
      <time>2023-05-23T17:37:07Z</time>
    </trkpt>
    <trkpt lat="50.9598497" lon="6.8302052">
      <time>2023-05-23T17:37:09Z</time>
    </trkpt>
    <trkpt lat="50.9598485" lon="6.8302092">
      <time>2023-05-23T17:37:12Z</time>
    </trkpt>
    <trkpt lat="50.9598330" lon="6.8302653">
      <time>2023-05-23T17:37:14Z</time>
    </trkpt>
    <trkpt lat="50.9598171" lon="6.8303046">
      <time>2023-05-23T17:37:16Z</time>
    </trkpt>
    <trkpt lat="50.9598188" lon="6.8302882">
      <time>2023-05-23T17:37:18Z</time>
    </trkpt>
    <trkpt lat="50.9598084" lon="6.8303599">
      <time>2023-05-23T17:37:23Z</time>
    </trkpt>
    <trkpt lat="50.9598413" lon="6.8304629">
      <time>2023-05-23T17:37:27Z</time>
    </trkpt>
    <trkpt lat="50.9598518" lon="6.8305172">
      <time>2023-05-23T17:37:29Z</time>
    </trkpt>
    <trkpt lat="50.9598483" lon="6.8304211">
      <time>2023-05-23T17:37:35Z</time>
    </trkpt>
    <trkpt lat="50.9597342" lon="6.8300364">
      <time>2023-05-23T17:37:42Z</time>
    </trkpt>
    <trkpt lat="50.9597392" lon="6.8300513">
      <time>2023-05-23T17:37:43Z</time>
    </trkpt>
    <trkpt lat="50.9597534" lon="6.8300522">
      <time>2023-05-23T17:37:44Z</time>
    </trkpt>
    <trkpt lat="50.9598123" lon="6.8299614">
      <time>2023-05-23T17:37:49Z</time>
    </trkpt>
    <trkpt lat="50.9598072" lon="6.8299591">
      <time>2023-05-23T17:37:50Z</time>
    </trkpt>
    <trkpt lat="50.9597854" lon="6.8299443">
      <time>2023-05-23T17:37:53Z</time>
    </trkpt>
    <trkpt lat="50.9598150" lon="6.8299519">
      <time>2023-05-23T17:37:55Z</time>
    </trkpt>
    <trkpt lat="50.9598657" lon="6.8300522">
      <time>2023-05-23T17:37:58Z</time>
    </trkpt>
    <trkpt lat="50.9598608" lon="6.8301712">
      <time>2023-05-23T17:38:01Z</time>
    </trkpt>
    <trkpt lat="50.9598421" lon="6.8304466">
      <time>2023-05-23T17:38:08Z</time>
    </trkpt>
    <trkpt lat="50.9598358" lon="6.8304596">
      <time>2023-05-23T17:38:09Z</time>
    </trkpt>
    <trkpt lat="50.9598293" lon="6.8304323">
      <time>2023-05-23T17:38:11Z</time>
    </trkpt>
    <trkpt lat="50.9598386" lon="6.8303945">
      <time>2023-05-23T17:38:12Z</time>
    </trkpt>
    <trkpt lat="50.9598525" lon="6.8302886">
      <time>2023-05-23T17:38:14Z</time>
    </trkpt>
    <trkpt lat="50.9598701" lon="6.8300224">
      <time>2023-05-23T17:38:19Z</time>
    </trkpt>
    <trkpt lat="50.9598810" lon="6.8299958">
      <time>2023-05-23T17:38:22Z</time>
    </trkpt>
    <trkpt lat="50.9598557" lon="6.8300099">
      <time>2023-05-23T17:38:25Z</time>
    </trkpt>
    <trkpt lat="50.9598488" lon="6.8300588">
      <time>2023-05-23T17:38:26Z</time>
    </trkpt>
    <trkpt lat="50.9598276" lon="6.8303230">
      <time>2023-05-23T17:38:30Z</time>
    </trkpt>
    <trkpt lat="50.9598094" lon="6.8304488">
      <time>2023-05-23T17:38:33Z</time>
    </trkpt>
    <trkpt lat="50.9598062" lon="6.8304537">
      <time>2023-05-23T17:38:34Z</time>
    </trkpt>
    <trkpt lat="50.9598128" lon="6.8304929">
      <time>2023-05-23T17:38:37Z</time>
    </trkpt>
    <trkpt lat="50.9598396" lon="6.8304629">
      <time>2023-05-23T17:38:39Z</time>
    </trkpt>
    <trkpt lat="50.9598413" lon="6.8304208">
      <time>2023-05-23T17:38:40Z</time>
    </trkpt>
    <trkpt lat="50.9598423" lon="6.8303161">
      <time>2023-05-23T17:38:42Z</time>
    </trkpt>
    <trkpt lat="50.9598529" lon="6.8302297">
      <time>2023-05-23T17:38:44Z</time>
    </trkpt>
    <trkpt lat="50.9598583" lon="6.8301659">
      <time>2023-05-23T17:38:46Z</time>
    </trkpt>
    <trkpt lat="50.9598642" lon="6.8301144">
      <time>2023-05-23T17:38:48Z</time>
    </trkpt>
    <trkpt lat="50.9598647" lon="6.8300487">
      <time>2023-05-23T17:38:50Z</time>
    </trkpt>
    <trkpt lat="50.9598740" lon="6.8299507">
      <time>2023-05-23T17:38:53Z</time>
    </trkpt>
    <trkpt lat="50.9598901" lon="6.8299448">
      <time>2023-05-23T17:38:54Z</time>
    </trkpt>
    <trkpt lat="50.9599156" lon="6.8299731">
      <time>2023-05-23T17:38:56Z</time>
    </trkpt>
    <trkpt lat="50.9599244" lon="6.8299993">
      <time>2023-05-23T17:38:57Z</time>
    </trkpt>
    <trkpt lat="50.9599253" lon="6.8300256">
      <time>2023-05-23T17:38:58Z</time>
    </trkpt>
    <trkpt lat="50.9599082" lon="6.8301112">
      <time>2023-05-23T17:39:01Z</time>
    </trkpt>
    <trkpt lat="50.9598998" lon="6.8301401">
      <time>2023-05-23T17:39:02Z</time>
    </trkpt>
    <trkpt lat="50.9598746" lon="6.8301885">
      <time>2023-05-23T17:39:04Z</time>
    </trkpt>
    <trkpt lat="50.9598523" lon="6.8301796">
      <time>2023-05-23T17:39:06Z</time>
    </trkpt>
    <trkpt lat="50.9598466" lon="6.8301663">
      <time>2023-05-23T17:39:07Z</time>
    </trkpt>
    <trkpt lat="50.9598478" lon="6.8301377">
      <time>2023-05-23T17:39:09Z</time>
    </trkpt>
    <trkpt lat="50.9598566" lon="6.8300992">
      <time>2023-05-23T17:39:12Z</time>
    </trkpt>
    <trkpt lat="50.9598541" lon="6.8300808">
      <time>2023-05-23T17:39:14Z</time>
    </trkpt>
    <trkpt lat="50.9598507" lon="6.8301071">
      <time>2023-05-23T17:39:16Z</time>
    </trkpt>
    <trkpt lat="50.9598671" lon="6.8301530">
      <time>2023-05-23T17:39:18Z</time>
    </trkpt>
    <trkpt lat="50.9598779" lon="6.8302116">
      <time>2023-05-23T17:39:20Z</time>
    </trkpt>
    <trkpt lat="50.9598924" lon="6.8302392">
      <time>2023-05-23T17:39:23Z</time>
    </trkpt>
    <trkpt lat="50.9599042" lon="6.8302219">
      <time>2023-05-23T17:39:24Z</time>
    </trkpt>
    <trkpt lat="50.9599048" lon="6.8301924">
      <time>2023-05-23T17:39:25Z</time>
    </trkpt>
    <trkpt lat="50.9598741" lon="6.8301423">
      <time>2023-05-23T17:39:27Z</time>
    </trkpt>
    <trkpt lat="50.9598708" lon="6.8301324">
      <time>2023-05-23T17:39:30Z</time>
    </trkpt>
    <trkpt lat="50.9598415" lon="6.8302792">
      <time>2023-05-23T17:39:35Z</time>
    </trkpt>
    <trkpt lat="50.9598295" lon="6.8304239">
      <time>2023-05-23T17:39:40Z</time>
    </trkpt>
    <trkpt lat="50.9598380" lon="6.8304301">
      <time>2023-05-23T17:39:41Z</time>
    </trkpt>
    <trkpt lat="50.9598386" lon="6.8303862">
      <time>2023-05-23T17:39:43Z</time>
    </trkpt>
    <trkpt lat="50.9598415" lon="6.8303571">
      <time>2023-05-23T17:39:44Z</time>
    </trkpt>
    <trkpt lat="50.9598616" lon="6.8302207">
      <time>2023-05-23T17:39:48Z</time>
    </trkpt>
    <trkpt lat="50.9598501" lon="6.8302549">
      <time>2023-05-23T17:39:51Z</time>
    </trkpt>
    <trkpt lat="50.9598555" lon="6.8302790">
      <time>2023-05-23T17:39:52Z</time>
    </trkpt>
    <trkpt lat="50.9598525" lon="6.8302945">
      <time>2023-05-23T17:39:53Z</time>
    </trkpt>
    <trkpt lat="50.9598471" lon="6.8302829">
      <time>2023-05-23T17:39:55Z</time>
    </trkpt>
    <trkpt lat="50.9598577" lon="6.8302934">
      <time>2023-05-23T17:39:58Z</time>
    </trkpt>
    <trkpt lat="50.9598474" lon="6.8302944">
      <time>2023-05-23T17:39:59Z</time>
    </trkpt>
    <trkpt lat="50.9598625" lon="6.8303111">
      <time>2023-05-23T17:40:02Z</time>
    </trkpt>
    <trkpt lat="50.9598294" lon="6.8303484">
      <time>2023-05-23T17:40:06Z</time>
    </trkpt>
    <trkpt lat="50.9598507" lon="6.8303091">
      <time>2023-05-23T17:40:08Z</time>
    </trkpt>
    <trkpt lat="50.9598717" lon="6.8302867">
      <time>2023-05-23T17:40:10Z</time>
    </trkpt>
    <trkpt lat="50.9598689" lon="6.8302782">
      <time>2023-05-23T17:40:11Z</time>
    </trkpt>
    <trkpt lat="50.9598616" lon="6.8303000">
      <time>2023-05-23T17:40:13Z</time>
    </trkpt>
    <trkpt lat="50.9598550" lon="6.8303572">
      <time>2023-05-23T17:40:16Z</time>
    </trkpt>
    <trkpt lat="50.9598762" lon="6.8303470">
      <time>2023-05-23T17:40:18Z</time>
    </trkpt>
    <trkpt lat="50.9598736" lon="6.8302167">
      <time>2023-05-23T17:40:22Z</time>
    </trkpt>
    <trkpt lat="50.9598725" lon="6.8301522">
      <time>2023-05-23T17:40:24Z</time>
    </trkpt>
    <trkpt lat="50.9598705" lon="6.8301410">
      <time>2023-05-23T17:40:25Z</time>
    </trkpt>
    <trkpt lat="50.9598600" lon="6.8301407">
      <time>2023-05-23T17:40:27Z</time>
    </trkpt>
    <trkpt lat="50.9598597" lon="6.8301074">
      <time>2023-05-23T17:40:29Z</time>
    </trkpt>
    <trkpt lat="50.9598688" lon="6.8301107">
      <time>2023-05-23T17:40:30Z</time>
    </trkpt>
    <trkpt lat="50.9598715" lon="6.8302141">
      <time>2023-05-23T17:40:34Z</time>
    </trkpt>
    <trkpt lat="50.9598686" lon="6.8302199">
      <time>2023-05-23T17:40:35Z</time>
    </trkpt>
    <trkpt lat="50.9598670" lon="6.8302293">
      <time>2023-05-23T17:40:37Z</time>
    </trkpt>
    <trkpt lat="50.9598630" lon="6.8302524">
      <time>2023-05-23T17:40:38Z</time>
    </trkpt>
    <trkpt lat="50.9598407" lon="6.8302754">
      <time>2023-05-23T17:40:40Z</time>
    </trkpt>
    <trkpt lat="50.9598398" lon="6.8302631">
      <time>2023-05-23T17:40:41Z</time>
    </trkpt>
    <trkpt lat="50.9598449" lon="6.8302758">
      <time>2023-05-23T17:40:44Z</time>
    </trkpt>
    <trkpt lat="50.9598488" lon="6.8302801">
      <time>2023-05-23T17:40:45Z</time>
    </trkpt>
    <trkpt lat="50.9598612" lon="6.8302810">
      <time>2023-05-23T17:40:46Z</time>
    </trkpt>
    <trkpt lat="50.9598821" lon="6.8302442">
      <time>2023-05-23T17:40:48Z</time>
    </trkpt>
    <trkpt lat="50.9598789" lon="6.8300949">
      <time>2023-05-23T17:40:54Z</time>
    </trkpt>
    <trkpt lat="50.9598389" lon="6.8300352">
      <time>2023-05-23T17:40:57Z</time>
    </trkpt>
    <trkpt lat="50.9598445" lon="6.8300158">
      <time>2023-05-23T17:40:58Z</time>
    </trkpt>
    <trkpt lat="50.9598593" lon="6.8299824">
      <time>2023-05-23T17:41:00Z</time>
    </trkpt>
    <trkpt lat="50.9598583" lon="6.8300183">
      <time>2023-05-23T17:41:01Z</time>
    </trkpt>
    <trkpt lat="50.9598606" lon="6.8300298">
      <time>2023-05-23T17:41:02Z</time>
    </trkpt>
    <trkpt lat="50.9598889" lon="6.8301689">
      <time>2023-05-23T17:41:08Z</time>
    </trkpt>
    <trkpt lat="50.9598823" lon="6.8301684">
      <time>2023-05-23T17:41:09Z</time>
    </trkpt>
    <trkpt lat="50.9599207" lon="6.8302302">
      <time>2023-05-23T17:41:12Z</time>
    </trkpt>
    <trkpt lat="50.9599249" lon="6.8301880">
      <time>2023-05-23T17:41:13Z</time>
    </trkpt>
    <trkpt lat="50.9599250" lon="6.8301729">
      <time>2023-05-23T17:41:14Z</time>
    </trkpt>
    <trkpt lat="50.9599280" lon="6.8301562">
      <time>2023-05-23T17:41:15Z</time>
    </trkpt>
    <trkpt lat="50.9599288" lon="6.8301358">
      <time>2023-05-23T17:41:16Z</time>
    </trkpt>
    <trkpt lat="50.9599030" lon="6.8300645">
      <time>2023-05-23T17:41:19Z</time>
    </trkpt>
    <trkpt lat="50.9599045" lon="6.8300309">
      <time>2023-05-23T17:41:22Z</time>
    </trkpt>
    <trkpt lat="50.9599071" lon="6.8300372">
      <time>2023-05-23T17:41:23Z</time>
    </trkpt>
    <trkpt lat="50.9599124" lon="6.8301165">
      <time>2023-05-23T17:41:29Z</time>
    </trkpt>
    <trkpt lat="50.9598888" lon="6.8301054">
      <time>2023-05-23T17:41:32Z</time>
    </trkpt>
    <trkpt lat="50.9598853" lon="6.8301252">
      <time>2023-05-23T17:41:33Z</time>
    </trkpt>
    <trkpt lat="50.9598747" lon="6.8302450">
      <time>2023-05-23T17:41:37Z</time>
    </trkpt>
    <trkpt lat="50.9598683" lon="6.8303111">
      <time>2023-05-23T17:41:39Z</time>
    </trkpt>
    <trkpt lat="50.9598730" lon="6.8303965">
      <time>2023-05-23T17:41:42Z</time>
    </trkpt>
    <trkpt lat="50.9598500" lon="6.8304039">
      <time>2023-05-23T17:41:44Z</time>
    </trkpt>
    <trkpt lat="50.9598387" lon="6.8303738">
      <time>2023-05-23T17:41:46Z</time>
    </trkpt>
    <trkpt lat="50.9598367" lon="6.8303424">
      <time>2023-05-23T17:41:48Z</time>
    </trkpt>
    <trkpt lat="50.9598397" lon="6.8303369">
      <time>2023-05-23T17:41:49Z</time>
    </trkpt>
    <trkpt lat="50.9598579" lon="6.8302906">
      <time>2023-05-23T17:41:52Z</time>
    </trkpt>
    <trkpt lat="50.9598559" lon="6.8302602">
      <time>2023-05-23T17:41:53Z</time>
    </trkpt>
    <trkpt lat="50.9598331" lon="6.8300410">
      <time>2023-05-23T17:42:00Z</time>
    </trkpt>
    <trkpt lat="50.9598528" lon="6.8299229">
      <time>2023-05-23T17:42:04Z</time>
    </trkpt>
    <trkpt lat="50.9598745" lon="6.8299380">
      <time>2023-05-23T17:42:06Z</time>
    </trkpt>
    <trkpt lat="50.9599041" lon="6.8300709">
      <time>2023-05-23T17:42:11Z</time>
    </trkpt>
    <trkpt lat="50.9598885" lon="6.8302906">
      <time>2023-05-23T17:42:17Z</time>
    </trkpt>
    <trkpt lat="50.9598821" lon="6.8304278">
      <time>2023-05-23T17:42:21Z</time>
    </trkpt>
    <trkpt lat="50.9598826" lon="6.8303944">
      <time>2023-05-23T17:42:22Z</time>
    </trkpt>
    <trkpt lat="50.9598621" lon="6.8303309">
      <time>2023-05-23T17:42:27Z</time>
    </trkpt>
    <trkpt lat="50.9598796" lon="6.8303592">
      <time>2023-05-23T17:42:28Z</time>
    </trkpt>
    <trkpt lat="50.9599096" lon="6.8303364">
      <time>2023-05-23T17:42:31Z</time>
    </trkpt>
    <trkpt lat="50.9599198" lon="6.8302670">
      <time>2023-05-23T17:42:33Z</time>
    </trkpt>
    <trkpt lat="50.9599302" lon="6.8302028">
      <time>2023-05-23T17:42:35Z</time>
    </trkpt>
    <trkpt lat="50.9599235" lon="6.8301344">
      <time>2023-05-23T17:42:38Z</time>
    </trkpt>
    <trkpt lat="50.9599015" lon="6.8301432">
      <time>2023-05-23T17:42:41Z</time>
    </trkpt>
    <trkpt lat="50.9599075" lon="6.8301200">
      <time>2023-05-23T17:42:44Z</time>
    </trkpt>
    <trkpt lat="50.9598879" lon="6.8301096">
      <time>2023-05-23T17:42:46Z</time>
    </trkpt>
    <trkpt lat="50.9598796" lon="6.8300999">
      <time>2023-05-23T17:42:47Z</time>
    </trkpt>
    <trkpt lat="50.9598808" lon="6.8300869">
      <time>2023-05-23T17:42:48Z</time>
    </trkpt>
    <trkpt lat="50.9598739" lon="6.8300871">
      <time>2023-05-23T17:42:51Z</time>
    </trkpt>
    <trkpt lat="50.9598781" lon="6.8300787">
      <time>2023-05-23T17:42:54Z</time>
    </trkpt>
    <trkpt lat="50.9598680" lon="6.8300412">
      <time>2023-05-23T17:42:56Z</time>
    </trkpt>
    <trkpt lat="50.9598756" lon="6.8300362">
      <time>2023-05-23T17:42:57Z</time>
    </trkpt>
    <trkpt lat="50.9598827" lon="6.8300453">
      <time>2023-05-23T17:42:58Z</time>
    </trkpt>
    <trkpt lat="50.9598905" lon="6.8300827">
      <time>2023-05-23T17:43:00Z</time>
    </trkpt>
    <trkpt lat="50.9598801" lon="6.8301778">
      <time>2023-05-23T17:43:03Z</time>
    </trkpt>
    <trkpt lat="50.9598681" lon="6.8302640">
      <time>2023-05-23T17:43:07Z</time>
    </trkpt>
    <trkpt lat="50.9598674" lon="6.8302761">
      <time>2023-05-23T17:43:08Z</time>
    </trkpt>
    <trkpt lat="50.9598473" lon="6.8302204">
      <time>2023-05-23T17:43:11Z</time>
    </trkpt>
    <trkpt lat="50.9598222" lon="6.8299687">
      <time>2023-05-23T17:43:18Z</time>
    </trkpt>
    <trkpt lat="50.9598439" lon="6.8297956">
      <time>2023-05-23T17:43:24Z</time>
    </trkpt>
    <trkpt lat="50.9598512" lon="6.8297788">
      <time>2023-05-23T17:43:25Z</time>
    </trkpt>
    <trkpt lat="50.9598581" lon="6.8297744">
      <time>2023-05-23T17:43:26Z</time>
    </trkpt>
    <trkpt lat="50.9598495" lon="6.8298223">
      <time>2023-05-23T17:43:29Z</time>
    </trkpt>
    <trkpt lat="50.9598296" lon="6.8301068">
      <time>2023-05-23T17:43:38Z</time>
    </trkpt>
    <trkpt lat="50.9598302" lon="6.8302499">
      <time>2023-05-23T17:43:43Z</time>
    </trkpt>
    <trkpt lat="50.9598389" lon="6.8302596">
      <time>2023-05-23T17:43:44Z</time>
    </trkpt>
    <trkpt lat="50.9598982" lon="6.8303057">
      <time>2023-05-23T17:43:49Z</time>
    </trkpt>
    <trkpt lat="50.9599012" lon="6.8304285">
      <time>2023-05-23T17:43:54Z</time>
    </trkpt>
    <trkpt lat="50.9598930" lon="6.8304401">
      <time>2023-05-23T17:43:55Z</time>
    </trkpt>
    <trkpt lat="50.9598866" lon="6.8304370">
      <time>2023-05-23T17:43:56Z</time>
    </trkpt>
    <trkpt lat="50.9598809" lon="6.8304126">
      <time>2023-05-23T17:43:58Z</time>
    </trkpt>
    <trkpt lat="50.9598831" lon="6.8303758">
      <time>2023-05-23T17:44:01Z</time>
    </trkpt>
    <trkpt lat="50.9598797" lon="6.8303691">
      <time>2023-05-23T17:44:02Z</time>
    </trkpt>
    <trkpt lat="50.9598787" lon="6.8303396">
      <time>2023-05-23T17:44:04Z</time>
    </trkpt>
    <trkpt lat="50.9598799" lon="6.8303154">
      <time>2023-05-23T17:44:05Z</time>
    </trkpt>
    <trkpt lat="50.9599099" lon="6.8301635">
      <time>2023-05-23T17:44:10Z</time>
    </trkpt>
    <trkpt lat="50.9599383" lon="6.8299524">
      <time>2023-05-23T17:44:17Z</time>
    </trkpt>
    <trkpt lat="50.9599413" lon="6.8298936">
      <time>2023-05-23T17:44:20Z</time>
    </trkpt>
    <trkpt lat="50.9599390" lon="6.8298749">
      <time>2023-05-23T17:44:22Z</time>
    </trkpt>
    <trkpt lat="50.9599391" lon="6.8299049">
      <time>2023-05-23T17:44:24Z</time>
    </trkpt>
    <trkpt lat="50.9599332" lon="6.8299666">
      <time>2023-05-23T17:44:26Z</time>
    </trkpt>
    <trkpt lat="50.9599215" lon="6.8301981">
      <time>2023-05-23T17:44:32Z</time>
    </trkpt>
    <trkpt lat="50.9598972" lon="6.8304628">
      <time>2023-05-23T17:44:41Z</time>
    </trkpt>
    <trkpt lat="50.9598960" lon="6.8304753">
      <time>2023-05-23T17:44:45Z</time>
    </trkpt>
    <trkpt lat="50.9598990" lon="6.8304556">
      <time>2023-05-23T17:44:46Z</time>
    </trkpt>
    <trkpt lat="50.9599252" lon="6.8301835">
      <time>2023-05-23T17:44:54Z</time>
    </trkpt>
    <trkpt lat="50.9599130" lon="6.8299861">
      <time>2023-05-23T17:45:26Z</time>
    </trkpt>
    <trkpt lat="50.9599357" lon="6.8300843">
      <time>2023-05-23T17:45:27Z</time>
    </trkpt>
    <trkpt lat="50.9599170" lon="6.8303690">
      <time>2023-05-23T17:45:33Z</time>
    </trkpt>
    <trkpt lat="50.9598872" lon="6.8303543">
      <time>2023-05-23T17:45:36Z</time>
    </trkpt>
    <trkpt lat="50.9598839" lon="6.8303328">
      <time>2023-05-23T17:45:37Z</time>
    </trkpt>
    <trkpt lat="50.9598787" lon="6.8302359">
      <time>2023-05-23T17:45:41Z</time>
    </trkpt>
    <trkpt lat="50.9598758" lon="6.8300398">
      <time>2023-05-23T17:45:46Z</time>
    </trkpt>
    <trkpt lat="50.9598870" lon="6.8299346">
      <time>2023-05-23T17:45:49Z</time>
    </trkpt>
    <trkpt lat="50.9598955" lon="6.8299377">
      <time>2023-05-23T17:45:50Z</time>
    </trkpt>
    <trkpt lat="50.9598914" lon="6.8300481">
      <time>2023-05-23T17:45:53Z</time>
    </trkpt>
    <trkpt lat="50.9598730" lon="6.8300895">
      <time>2023-05-23T17:45:55Z</time>
    </trkpt>
    <trkpt lat="50.9598478" lon="6.8301116">
      <time>2023-05-23T17:45:57Z</time>
    </trkpt>
    <trkpt lat="50.9598327" lon="6.8303005">
      <time>2023-05-23T17:46:01Z</time>
    </trkpt>
    <trkpt lat="50.9598380" lon="6.8303391">
      <time>2023-05-23T17:46:02Z</time>
    </trkpt>
    <trkpt lat="50.9598590" lon="6.8303439">
      <time>2023-05-23T17:46:04Z</time>
    </trkpt>
    <trkpt lat="50.9598590" lon="6.8303386">
      <time>2023-05-23T17:46:05Z</time>
    </trkpt>
    <trkpt lat="50.9598540" lon="6.8303639">
      <time>2023-05-23T17:46:07Z</time>
    </trkpt>
    <trkpt lat="50.9598490" lon="6.8303695">
      <time>2023-05-23T17:46:08Z</time>
    </trkpt>
    <trkpt lat="50.9598501" lon="6.8303636">
      <time>2023-05-23T17:46:10Z</time>
    </trkpt>
    <trkpt lat="50.9598527" lon="6.8304125">
      <time>2023-05-23T17:46:13Z</time>
    </trkpt>
    <trkpt lat="50.9598455" lon="6.8304265">
      <time>2023-05-23T17:46:14Z</time>
    </trkpt>
    <trkpt lat="50.9598394" lon="6.8304160">
      <time>2023-05-23T17:46:16Z</time>
    </trkpt>
    <trkpt lat="50.9598333" lon="6.8304237">
      <time>2023-05-23T17:46:19Z</time>
    </trkpt>
    <trkpt lat="50.9598332" lon="6.8303933">
      <time>2023-05-23T17:46:21Z</time>
    </trkpt>
    <trkpt lat="50.9598401" lon="6.8303379">
      <time>2023-05-23T17:46:23Z</time>
    </trkpt>
    <trkpt lat="50.9598439" lon="6.8303263">
      <time>2023-05-23T17:46:24Z</time>
    </trkpt>
    <trkpt lat="50.9598727" lon="6.8302173">
      <time>2023-05-23T17:46:28Z</time>
    </trkpt>
    <trkpt lat="50.9598873" lon="6.8300334">
      <time>2023-05-23T17:46:32Z</time>
    </trkpt>
    <trkpt lat="50.9598917" lon="6.8300002">
      <time>2023-05-23T17:46:35Z</time>
    </trkpt>
    <trkpt lat="50.9598721" lon="6.8300629">
      <time>2023-05-23T17:46:38Z</time>
    </trkpt>
    <trkpt lat="50.9598660" lon="6.8300987">
      <time>2023-05-23T17:46:39Z</time>
    </trkpt>
    <trkpt lat="50.9598629" lon="6.8302896">
      <time>2023-05-23T17:46:45Z</time>
    </trkpt>
    <trkpt lat="50.9598443" lon="6.8303739">
      <time>2023-05-23T17:46:50Z</time>
    </trkpt>
    <trkpt lat="50.9598620" lon="6.8303839">
      <time>2023-05-23T17:46:52Z</time>
    </trkpt>
    <trkpt lat="50.9598698" lon="6.8303509">
      <time>2023-05-23T17:46:54Z</time>
    </trkpt>
    <trkpt lat="50.9598527" lon="6.8301716">
      <time>2023-05-23T17:46:59Z</time>
    </trkpt>
    <trkpt lat="50.9598400" lon="6.8299506">
      <time>2023-05-23T17:47:05Z</time>
    </trkpt>
    <trkpt lat="50.9598594" lon="6.8298177">
      <time>2023-05-23T17:47:11Z</time>
    </trkpt>
    <trkpt lat="50.9598740" lon="6.8299375">
      <time>2023-05-23T17:47:16Z</time>
    </trkpt>
    <trkpt lat="50.9598650" lon="6.8299813">
      <time>2023-05-23T17:47:17Z</time>
    </trkpt>
    <trkpt lat="50.9598128" lon="6.8303050">
      <time>2023-05-23T17:47:25Z</time>
    </trkpt>
    <trkpt lat="50.9598031" lon="6.8303803">
      <time>2023-05-23T17:47:27Z</time>
    </trkpt>
    <trkpt lat="50.9598145" lon="6.8304872">
      <time>2023-05-23T17:47:33Z</time>
    </trkpt>
    <trkpt lat="50.9598224" lon="6.8305304">
      <time>2023-05-23T17:47:34Z</time>
    </trkpt>
    <trkpt lat="50.9598540" lon="6.8306388">
      <time>2023-05-23T17:47:37Z</time>
    </trkpt>
    <trkpt lat="50.9598267" lon="6.8306696">
      <time>2023-05-23T17:47:42Z</time>
    </trkpt>
    <trkpt lat="50.9598079" lon="6.8306308">
      <time>2023-05-23T17:47:43Z</time>
    </trkpt>
    <trkpt lat="50.9597845" lon="6.8305866">
      <time>2023-05-23T17:47:44Z</time>
    </trkpt>
    <trkpt lat="50.9598041" lon="6.8305531">
      <time>2023-05-23T17:47:45Z</time>
    </trkpt>
    <trkpt lat="50.9598180" lon="6.8305122">
      <time>2023-05-23T17:47:46Z</time>
    </trkpt>
    <trkpt lat="50.9598320" lon="6.8303924">
      <time>2023-05-23T17:47:49Z</time>
    </trkpt>
    <trkpt lat="50.9598334" lon="6.8302997">
      <time>2023-05-23T17:47:51Z</time>
    </trkpt>
    <trkpt lat="50.9598497" lon="6.8300765">
      <time>2023-05-23T17:47:57Z</time>
    </trkpt>
    <trkpt lat="50.9598761" lon="6.8299616">
      <time>2023-05-23T17:48:03Z</time>
    </trkpt>
    <trkpt lat="50.9598772" lon="6.8299402">
      <time>2023-05-23T17:48:05Z</time>
    </trkpt>
    <trkpt lat="50.9598727" lon="6.8299656">
      <time>2023-05-23T17:48:07Z</time>
    </trkpt>
    <trkpt lat="50.9598721" lon="6.8300008">
      <time>2023-05-23T17:48:09Z</time>
    </trkpt>
    <trkpt lat="50.9598647" lon="6.8300231">
      <time>2023-05-23T17:48:10Z</time>
    </trkpt>
    <trkpt lat="50.9598566" lon="6.8300769">
      <time>2023-05-23T17:48:12Z</time>
    </trkpt>
    <trkpt lat="50.9598430" lon="6.8301374">
      <time>2023-05-23T17:48:14Z</time>
    </trkpt>
    <trkpt lat="50.9598351" lon="6.8302520">
      <time>2023-05-23T17:48:18Z</time>
    </trkpt>
    <trkpt lat="50.9598486" lon="6.8302472">
      <time>2023-05-23T17:48:20Z</time>
    </trkpt>
    <trkpt lat="50.9598732" lon="6.8300263">
      <time>2023-05-23T17:48:26Z</time>
    </trkpt>
    <trkpt lat="50.9598867" lon="6.8299941">
      <time>2023-05-23T17:48:28Z</time>
    </trkpt>
    <trkpt lat="50.9599001" lon="6.8300049">
      <time>2023-05-23T17:48:30Z</time>
    </trkpt>
    <trkpt lat="50.9598825" lon="6.8299739">
      <time>2023-05-23T17:48:34Z</time>
    </trkpt>
    <trkpt lat="50.9598818" lon="6.8299468">
      <time>2023-05-23T17:48:35Z</time>
    </trkpt>
    <trkpt lat="50.9598875" lon="6.8299833">
      <time>2023-05-23T17:48:38Z</time>
    </trkpt>
    <trkpt lat="50.9598651" lon="6.8301899">
      <time>2023-05-23T17:48:43Z</time>
    </trkpt>
    <trkpt lat="50.9598548" lon="6.8301926">
      <time>2023-05-23T17:48:44Z</time>
    </trkpt>
    <trkpt lat="50.9598533" lon="6.8301759">
      <time>2023-05-23T17:48:45Z</time>
    </trkpt>
    <trkpt lat="50.9598594" lon="6.8301632">
      <time>2023-05-23T17:48:49Z</time>
    </trkpt>
    <trkpt lat="50.9598565" lon="6.8302127">
      <time>2023-05-23T17:48:51Z</time>
    </trkpt>
    <trkpt lat="50.9598409" lon="6.8302680">
      <time>2023-05-23T17:48:53Z</time>
    </trkpt>
    <trkpt lat="50.9598415" lon="6.8302916">
      <time>2023-05-23T17:48:54Z</time>
    </trkpt>
    <trkpt lat="50.9598721" lon="6.8302784">
      <time>2023-05-23T17:48:56Z</time>
    </trkpt>
    <trkpt lat="50.9598831" lon="6.8302474">
      <time>2023-05-23T17:48:57Z</time>
    </trkpt>
    <trkpt lat="50.9598896" lon="6.8301644">
      <time>2023-05-23T17:48:59Z</time>
    </trkpt>
    <trkpt lat="50.9598956" lon="6.8300718">
      <time>2023-05-23T17:49:02Z</time>
    </trkpt>
    <trkpt lat="50.9598870" lon="6.8300743">
      <time>2023-05-23T17:49:03Z</time>
    </trkpt>
    <trkpt lat="50.9599051" lon="6.8300820">
      <time>2023-05-23T17:49:06Z</time>
    </trkpt>
    <trkpt lat="50.9598939" lon="6.8300179">
      <time>2023-05-23T17:49:08Z</time>
    </trkpt>
    <trkpt lat="50.9598903" lon="6.8299435">
      <time>2023-05-23T17:49:10Z</time>
    </trkpt>
    <trkpt lat="50.9598864" lon="6.8298533">
      <time>2023-05-23T17:49:13Z</time>
    </trkpt>
    <trkpt lat="50.9598756" lon="6.8298545">
      <time>2023-05-23T17:49:14Z</time>
    </trkpt>
    <trkpt lat="50.9598723" lon="6.8299100">
      <time>2023-05-23T17:49:17Z</time>
    </trkpt>
    <trkpt lat="50.9598804" lon="6.8298413">
      <time>2023-05-23T17:49:20Z</time>
    </trkpt>
    <trkpt lat="50.9599261" lon="6.8295923">
      <time>2023-05-23T17:49:25Z</time>
    </trkpt>
    <trkpt lat="50.9599713" lon="6.8293745">
      <time>2023-05-23T17:49:30Z</time>
    </trkpt>
    <trkpt lat="50.9600072" lon="6.8293524">
      <time>2023-05-23T17:49:31Z</time>
    </trkpt>
    <trkpt lat="50.9600750" lon="6.8293893">
      <time>2023-05-23T17:49:33Z</time>
    </trkpt>
    <trkpt lat="50.9602907" lon="6.8295707">
      <time>2023-05-23T17:49:39Z</time>
    </trkpt>
    <trkpt lat="50.9603623" lon="6.8296429">
      <time>2023-05-23T17:49:41Z</time>
    </trkpt>
    <trkpt lat="50.9606486" lon="6.8299244">
      <time>2023-05-23T17:49:49Z</time>
    </trkpt>
    <trkpt lat="50.9606791" lon="6.8299567">
      <time>2023-05-23T17:49:50Z</time>
    </trkpt>
    <trkpt lat="50.9607091" lon="6.8299900">
      <time>2023-05-23T17:49:51Z</time>
    </trkpt>
    <trkpt lat="50.9609073" lon="6.8301833">
      <time>2023-05-23T17:49:57Z</time>
    </trkpt>
    <trkpt lat="50.9612204" lon="6.8304236">
      <time>2023-05-23T17:50:06Z</time>
    </trkpt>
    <trkpt lat="50.9614455" lon="6.8306279">
      <time>2023-05-23T17:50:13Z</time>
    </trkpt>
    <trkpt lat="50.9616073" lon="6.8308547">
      <time>2023-05-23T17:50:18Z</time>
    </trkpt>
    <trkpt lat="50.9616502" lon="6.8309722">
      <time>2023-05-23T17:50:20Z</time>
    </trkpt>
    <trkpt lat="50.9616596" lon="6.8311179">
      <time>2023-05-23T17:50:22Z</time>
    </trkpt>
    <trkpt lat="50.9616346" lon="6.8315420">
      <time>2023-05-23T17:50:27Z</time>
    </trkpt>
    <trkpt lat="50.9616202" lon="6.8317211">
      <time>2023-05-23T17:50:29Z</time>
    </trkpt>
    <trkpt lat="50.9615871" lon="6.8320693">
      <time>2023-05-23T17:50:33Z</time>
    </trkpt>
    <trkpt lat="50.9615419" lon="6.8326862">
      <time>2023-05-23T17:50:40Z</time>
    </trkpt>
    <trkpt lat="50.9614888" lon="6.8334490">
      <time>2023-05-23T17:50:49Z</time>
    </trkpt>
    <trkpt lat="50.9614714" lon="6.8336102">
      <time>2023-05-23T17:50:51Z</time>
    </trkpt>
    <trkpt lat="50.9614281" lon="6.8342159">
      <time>2023-05-23T17:50:59Z</time>
    </trkpt>
    <trkpt lat="50.9614214" lon="6.8342685">
      <time>2023-05-23T17:51:00Z</time>
    </trkpt>
    <trkpt lat="50.9614034" lon="6.8344713">
      <time>2023-05-23T17:51:03Z</time>
    </trkpt>
    <trkpt lat="50.9613970" lon="6.8345857">
      <time>2023-05-23T17:51:05Z</time>
    </trkpt>
    <trkpt lat="50.9613820" lon="6.8347506">
      <time>2023-05-23T17:51:08Z</time>
    </trkpt>
    <trkpt lat="50.9613830" lon="6.8350747">
      <time>2023-05-23T17:51:13Z</time>
    </trkpt>
    <trkpt lat="50.9613840" lon="6.8352737">
      <time>2023-05-23T17:51:16Z</time>
    </trkpt>
    <trkpt lat="50.9614109" lon="6.8354133">
      <time>2023-05-23T17:51:18Z</time>
    </trkpt>
    <trkpt lat="50.9614180" lon="6.8354758">
      <time>2023-05-23T17:51:19Z</time>
    </trkpt>
    <trkpt lat="50.9614376" lon="6.8356162">
      <time>2023-05-23T17:51:21Z</time>
    </trkpt>
    <trkpt lat="50.9614177" lon="6.8357462">
      <time>2023-05-23T17:51:23Z</time>
    </trkpt>
    <trkpt lat="50.9614076" lon="6.8358049">
      <time>2023-05-23T17:51:24Z</time>
    </trkpt>
    <trkpt lat="50.9614275" lon="6.8359603">
      <time>2023-05-23T17:51:27Z</time>
    </trkpt>
    <trkpt lat="50.9614349" lon="6.8360097">
      <time>2023-05-23T17:51:28Z</time>
    </trkpt>
    <trkpt lat="50.9614388" lon="6.8362464">
      <time>2023-05-23T17:51:33Z</time>
    </trkpt>
    <trkpt lat="50.9614307" lon="6.8363755">
      <time>2023-05-23T17:51:37Z</time>
    </trkpt>
    <trkpt lat="50.9614156" lon="6.8364044">
      <time>2023-05-23T17:51:38Z</time>
    </trkpt>
    <trkpt lat="50.9612827" lon="6.8366141">
      <time>2023-05-23T17:51:45Z</time>
    </trkpt>
    <trkpt lat="50.9612666" lon="6.8368629">
      <time>2023-05-23T17:51:49Z</time>
    </trkpt>
    <trkpt lat="50.9612302" lon="6.8371900">
      <time>2023-05-23T17:51:53Z</time>
    </trkpt>
    <trkpt lat="50.9612205" lon="6.8372775">
      <time>2023-05-23T17:51:54Z</time>
    </trkpt>
    <trkpt lat="50.9612152" lon="6.8373688">
      <time>2023-05-23T17:51:55Z</time>
    </trkpt>
    <trkpt lat="50.9612026" lon="6.8377404">
      <time>2023-05-23T17:51:59Z</time>
    </trkpt>
    <trkpt lat="50.9611724" lon="6.8383475">
      <time>2023-05-23T17:52:06Z</time>
    </trkpt>
    <trkpt lat="50.9611602" lon="6.8385196">
      <time>2023-05-23T17:52:08Z</time>
    </trkpt>
    <trkpt lat="50.9611240" lon="6.8389537">
      <time>2023-05-23T17:52:13Z</time>
    </trkpt>
    <trkpt lat="50.9611073" lon="6.8392965">
      <time>2023-05-23T17:52:17Z</time>
    </trkpt>
    <trkpt lat="50.9610807" lon="6.8396126">
      <time>2023-05-23T17:52:21Z</time>
    </trkpt>
    <trkpt lat="50.9610788" lon="6.8397591">
      <time>2023-05-23T17:52:23Z</time>
    </trkpt>
    <trkpt lat="50.9611267" lon="6.8399272">
      <time>2023-05-23T17:52:26Z</time>
    </trkpt>
    <trkpt lat="50.9611288" lon="6.8401474">
      <time>2023-05-23T17:52:30Z</time>
    </trkpt>
    <trkpt lat="50.9610501" lon="6.8403237">
      <time>2023-05-23T17:52:33Z</time>
    </trkpt>
    <trkpt lat="50.9610322" lon="6.8403914">
      <time>2023-05-23T17:52:34Z</time>
    </trkpt>
    <trkpt lat="50.9609957" lon="6.8408245">
      <time>2023-05-23T17:52:40Z</time>
    </trkpt>
    <trkpt lat="50.9609525" lon="6.8414767">
      <time>2023-05-23T17:52:48Z</time>
    </trkpt>
    <trkpt lat="50.9609406" lon="6.8416482">
      <time>2023-05-23T17:52:50Z</time>
    </trkpt>
    <trkpt lat="50.9609234" lon="6.8419119">
      <time>2023-05-23T17:52:53Z</time>
    </trkpt>
    <trkpt lat="50.9608999" lon="6.8423426">
      <time>2023-05-23T17:52:58Z</time>
    </trkpt>
    <trkpt lat="50.9608816" lon="6.8425867">
      <time>2023-05-23T17:53:01Z</time>
    </trkpt>
    <trkpt lat="50.9608361" lon="6.8432427">
      <time>2023-05-23T17:53:09Z</time>
    </trkpt>
    <trkpt lat="50.9608276" lon="6.8433225">
      <time>2023-05-23T17:53:10Z</time>
    </trkpt>
    <trkpt lat="50.9608094" lon="6.8437228">
      <time>2023-05-23T17:53:15Z</time>
    </trkpt>
    <trkpt lat="50.9607883" lon="6.8439052">
      <time>2023-05-23T17:53:17Z</time>
    </trkpt>
    <trkpt lat="50.9607336" lon="6.8446955">
      <time>2023-05-23T17:53:26Z</time>
    </trkpt>
    <trkpt lat="50.9607290" lon="6.8447874">
      <time>2023-05-23T17:53:27Z</time>
    </trkpt>
    <trkpt lat="50.9606915" lon="6.8453938">
      <time>2023-05-23T17:53:34Z</time>
    </trkpt>
    <trkpt lat="50.9606711" lon="6.8455644">
      <time>2023-05-23T17:53:36Z</time>
    </trkpt>
    <trkpt lat="50.9606057" lon="6.8462718">
      <time>2023-05-23T17:53:44Z</time>
    </trkpt>
    <trkpt lat="50.9605972" lon="6.8463652">
      <time>2023-05-23T17:53:45Z</time>
    </trkpt>
    <trkpt lat="50.9605571" lon="6.8471027">
      <time>2023-05-23T17:53:53Z</time>
    </trkpt>
    <trkpt lat="50.9605531" lon="6.8471899">
      <time>2023-05-23T17:53:54Z</time>
    </trkpt>
    <trkpt lat="50.9605027" lon="6.8479654">
      <time>2023-05-23T17:54:03Z</time>
    </trkpt>
    <trkpt lat="50.9604991" lon="6.8480520">
      <time>2023-05-23T17:54:04Z</time>
    </trkpt>
    <trkpt lat="50.9604748" lon="6.8484018">
      <time>2023-05-23T17:54:08Z</time>
    </trkpt>
    <trkpt lat="50.9604562" lon="6.8486657">
      <time>2023-05-23T17:54:11Z</time>
    </trkpt>
    <trkpt lat="50.9604029" lon="6.8494225">
      <time>2023-05-23T17:54:20Z</time>
    </trkpt>
    <trkpt lat="50.9603989" lon="6.8495066">
      <time>2023-05-23T17:54:21Z</time>
    </trkpt>
    <trkpt lat="50.9603424" lon="6.8502186">
      <time>2023-05-23T17:54:29Z</time>
    </trkpt>
    <trkpt lat="50.9603335" lon="6.8503052">
      <time>2023-05-23T17:54:30Z</time>
    </trkpt>
    <trkpt lat="50.9602470" lon="6.8512344">
      <time>2023-05-23T17:54:42Z</time>
    </trkpt>
    <trkpt lat="50.9602540" lon="6.8513666">
      <time>2023-05-23T17:54:43Z</time>
    </trkpt>
    <trkpt lat="50.9602674" lon="6.8515961">
      <time>2023-05-23T17:54:46Z</time>
    </trkpt>
    <trkpt lat="50.9602475" lon="6.8517759">
      <time>2023-05-23T17:54:48Z</time>
    </trkpt>
    <trkpt lat="50.9602176" lon="6.8520652">
      <time>2023-05-23T17:54:52Z</time>
    </trkpt>
    <trkpt lat="50.9601688" lon="6.8528176">
      <time>2023-05-23T17:55:02Z</time>
    </trkpt>
    <trkpt lat="50.9601549" lon="6.8529694">
      <time>2023-05-23T17:55:04Z</time>
    </trkpt>
    <trkpt lat="50.9601182" lon="6.8534121">
      <time>2023-05-23T17:55:10Z</time>
    </trkpt>
    <trkpt lat="50.9601061" lon="6.8535511">
      <time>2023-05-23T17:55:12Z</time>
    </trkpt>
    <trkpt lat="50.9600648" lon="6.8541678">
      <time>2023-05-23T17:55:21Z</time>
    </trkpt>
    <trkpt lat="50.9600253" lon="6.8547005">
      <time>2023-05-23T17:55:29Z</time>
    </trkpt>
    <trkpt lat="50.9600079" lon="6.8549691">
      <time>2023-05-23T17:55:33Z</time>
    </trkpt>
    <trkpt lat="50.9599879" lon="6.8553176">
      <time>2023-05-23T17:55:38Z</time>
    </trkpt>
    <trkpt lat="50.9599546" lon="6.8559667">
      <time>2023-05-23T17:55:47Z</time>
    </trkpt>
    <trkpt lat="50.9599299" lon="6.8564254">
      <time>2023-05-23T17:55:53Z</time>
    </trkpt>
    <trkpt lat="50.9599144" lon="6.8567156">
      <time>2023-05-23T17:55:57Z</time>
    </trkpt>
    <trkpt lat="50.9598700" lon="6.8572890">
      <time>2023-05-23T17:56:05Z</time>
    </trkpt>
    <trkpt lat="50.9598145" lon="6.8580456">
      <time>2023-05-23T17:56:15Z</time>
    </trkpt>
    <trkpt lat="50.9598059" lon="6.8581904">
      <time>2023-05-23T17:56:17Z</time>
    </trkpt>
    <trkpt lat="50.9597865" lon="6.8584923">
      <time>2023-05-23T17:56:21Z</time>
    </trkpt>
    <trkpt lat="50.9597430" lon="6.8590734">
      <time>2023-05-23T17:56:29Z</time>
    </trkpt>
    <trkpt lat="50.9596906" lon="6.8596411">
      <time>2023-05-23T17:56:37Z</time>
    </trkpt>
    <trkpt lat="50.9596347" lon="6.8604110">
      <time>2023-05-23T17:56:48Z</time>
    </trkpt>
    <trkpt lat="50.9596332" lon="6.8604814">
      <time>2023-05-23T17:56:49Z</time>
    </trkpt>
    <trkpt lat="50.9595962" lon="6.8611799">
      <time>2023-05-23T17:56:59Z</time>
    </trkpt>
    <trkpt lat="50.9596006" lon="6.8613974">
      <time>2023-05-23T17:57:02Z</time>
    </trkpt>
    <trkpt lat="50.9596052" lon="6.8615186">
      <time>2023-05-23T17:57:04Z</time>
    </trkpt>
    <trkpt lat="50.9595986" lon="6.8615951">
      <time>2023-05-23T17:57:05Z</time>
    </trkpt>
    <trkpt lat="50.9595876" lon="6.8617101">
      <time>2023-05-23T17:57:07Z</time>
    </trkpt>
    <trkpt lat="50.9595753" lon="6.8618942">
      <time>2023-05-23T17:57:10Z</time>
    </trkpt>
    <trkpt lat="50.9595806" lon="6.8619656">
      <time>2023-05-23T17:57:11Z</time>
    </trkpt>
    <trkpt lat="50.9595875" lon="6.8620191">
      <time>2023-05-23T17:57:12Z</time>
    </trkpt>
    <trkpt lat="50.9595537" lon="6.8621762">
      <time>2023-05-23T17:57:15Z</time>
    </trkpt>
    <trkpt lat="50.9595200" lon="6.8624491">
      <time>2023-05-23T17:57:20Z</time>
    </trkpt>
    <trkpt lat="50.9595130" lon="6.8628140">
      <time>2023-05-23T17:57:25Z</time>
    </trkpt>
    <trkpt lat="50.9595040" lon="6.8629843">
      <time>2023-05-23T17:57:27Z</time>
    </trkpt>
    <trkpt lat="50.9595152" lon="6.8632430">
      <time>2023-05-23T17:57:30Z</time>
    </trkpt>
    <trkpt lat="50.9595691" lon="6.8639308">
      <time>2023-05-23T17:57:38Z</time>
    </trkpt>
    <trkpt lat="50.9596236" lon="6.8643819">
      <time>2023-05-23T17:57:44Z</time>
    </trkpt>
    <trkpt lat="50.9596345" lon="6.8649318">
      <time>2023-05-23T17:57:51Z</time>
    </trkpt>
    <trkpt lat="50.9596178" lon="6.8651147">
      <time>2023-05-23T17:57:53Z</time>
    </trkpt>
    <trkpt lat="50.9595741" lon="6.8653389">
      <time>2023-05-23T17:57:56Z</time>
    </trkpt>
    <trkpt lat="50.9593712" lon="6.8660924">
      <time>2023-05-23T17:58:05Z</time>
    </trkpt>
    <trkpt lat="50.9591812" lon="6.8667423">
      <time>2023-05-23T17:58:12Z</time>
    </trkpt>
    <trkpt lat="50.9591274" lon="6.8669120">
      <time>2023-05-23T17:58:14Z</time>
    </trkpt>
    <trkpt lat="50.9589371" lon="6.8676099">
      <time>2023-05-23T17:58:21Z</time>
    </trkpt>
    <trkpt lat="50.9589176" lon="6.8677083">
      <time>2023-05-23T17:58:22Z</time>
    </trkpt>
    <trkpt lat="50.9588559" lon="6.8679507">
      <time>2023-05-23T17:58:25Z</time>
    </trkpt>
    <trkpt lat="50.9587909" lon="6.8681657">
      <time>2023-05-23T17:58:28Z</time>
    </trkpt>
    <trkpt lat="50.9587328" lon="6.8682540">
      <time>2023-05-23T17:58:30Z</time>
    </trkpt>
    <trkpt lat="50.9587025" lon="6.8682818">
      <time>2023-05-23T17:58:31Z</time>
    </trkpt>
    <trkpt lat="50.9584992" lon="6.8683841">
      <time>2023-05-23T17:58:37Z</time>
    </trkpt>
    <trkpt lat="50.9584751" lon="6.8684362">
      <time>2023-05-23T17:58:39Z</time>
    </trkpt>
    <trkpt lat="50.9584739" lon="6.8685237">
      <time>2023-05-23T17:58:41Z</time>
    </trkpt>
    <trkpt lat="50.9585428" lon="6.8687202">
      <time>2023-05-23T17:58:46Z</time>
    </trkpt>
    <trkpt lat="50.9586648" lon="6.8688194">
      <time>2023-05-23T17:58:50Z</time>
    </trkpt>
    <trkpt lat="50.9586736" lon="6.8688735">
      <time>2023-05-23T17:58:51Z</time>
    </trkpt>
    <trkpt lat="50.9586586" lon="6.8690001">
      <time>2023-05-23T17:58:53Z</time>
    </trkpt>
    <trkpt lat="50.9586279" lon="6.8691375">
      <time>2023-05-23T17:58:55Z</time>
    </trkpt>
    <trkpt lat="50.9584959" lon="6.8695634">
      <time>2023-05-23T17:59:02Z</time>
    </trkpt>
    <trkpt lat="50.9584749" lon="6.8696267">
      <time>2023-05-23T17:59:03Z</time>
    </trkpt>
    <trkpt lat="50.9584428" lon="6.8697810">
      <time>2023-05-23T17:59:05Z</time>
    </trkpt>
    <trkpt lat="50.9584059" lon="6.8699549">
      <time>2023-05-23T17:59:07Z</time>
    </trkpt>
    <trkpt lat="50.9583828" lon="6.8700410">
      <time>2023-05-23T17:59:08Z</time>
    </trkpt>
    <trkpt lat="50.9583417" lon="6.8702300">
      <time>2023-05-23T17:59:10Z</time>
    </trkpt>
    <trkpt lat="50.9583281" lon="6.8702947">
      <time>2023-05-23T17:59:11Z</time>
    </trkpt>
    <trkpt lat="50.9583145" lon="6.8703752">
      <time>2023-05-23T17:59:12Z</time>
    </trkpt>
    <trkpt lat="50.9583305" lon="6.8705354">
      <time>2023-05-23T17:59:14Z</time>
    </trkpt>
    <trkpt lat="50.9583515" lon="6.8706102">
      <time>2023-05-23T17:59:15Z</time>
    </trkpt>
    <trkpt lat="50.9583857" lon="6.8706755">
      <time>2023-05-23T17:59:16Z</time>
    </trkpt>
    <trkpt lat="50.9584888" lon="6.8707793">
      <time>2023-05-23T17:59:18Z</time>
    </trkpt>
    <trkpt lat="50.9585842" lon="6.8708177">
      <time>2023-05-23T17:59:20Z</time>
    </trkpt>
    <trkpt lat="50.9587384" lon="6.8708431">
      <time>2023-05-23T17:59:23Z</time>
    </trkpt>
    <trkpt lat="50.9589586" lon="6.8708469">
      <time>2023-05-23T17:59:28Z</time>
    </trkpt>
    <trkpt lat="50.9591803" lon="6.8708985">
      <time>2023-05-23T17:59:33Z</time>
    </trkpt>
    <trkpt lat="50.9593158" lon="6.8710800">
      <time>2023-05-23T17:59:36Z</time>
    </trkpt>
    <trkpt lat="50.9593413" lon="6.8711593">
      <time>2023-05-23T17:59:37Z</time>
    </trkpt>
    <trkpt lat="50.9594239" lon="6.8714124">
      <time>2023-05-23T17:59:40Z</time>
    </trkpt>
    <trkpt lat="50.9594479" lon="6.8714898">
      <time>2023-05-23T17:59:41Z</time>
    </trkpt>
    <trkpt lat="50.9594884" lon="6.8716260">
      <time>2023-05-23T17:59:43Z</time>
    </trkpt>
    <trkpt lat="50.9595284" lon="6.8717721">
      <time>2023-05-23T17:59:45Z</time>
    </trkpt>
    <trkpt lat="50.9595905" lon="6.8720406">
      <time>2023-05-23T17:59:49Z</time>
    </trkpt>
    <trkpt lat="50.9596071" lon="6.8721056">
      <time>2023-05-23T17:59:50Z</time>
    </trkpt>
    <trkpt lat="50.9596689" lon="6.8724171">
      <time>2023-05-23T17:59:55Z</time>
    </trkpt>
    <trkpt lat="50.9596721" lon="6.8724785">
      <time>2023-05-23T17:59:56Z</time>
    </trkpt>
    <trkpt lat="50.9597016" lon="6.8727501">
      <time>2023-05-23T18:00:01Z</time>
    </trkpt>
    <trkpt lat="50.9597199" lon="6.8729035">
      <time>2023-05-23T18:00:06Z</time>
    </trkpt>
    <trkpt lat="50.9597271" lon="6.8729468">
      <time>2023-05-23T18:00:11Z</time>
    </trkpt>
    <trkpt lat="50.9597671" lon="6.8730270">
      <time>2023-05-23T18:00:17Z</time>
    </trkpt>
    <trkpt lat="50.9597730" lon="6.8730532">
      <time>2023-05-23T18:00:18Z</time>
    </trkpt>
    <trkpt lat="50.9597864" lon="6.8732754">
      <time>2023-05-23T18:00:24Z</time>
    </trkpt>
    <trkpt lat="50.9598322" lon="6.8735732">
      <time>2023-05-23T18:00:30Z</time>
    </trkpt>
    <trkpt lat="50.9598348" lon="6.8738727">
      <time>2023-05-23T18:00:36Z</time>
    </trkpt>
    <trkpt lat="50.9598057" lon="6.8743073">
      <time>2023-05-23T18:00:44Z</time>
    </trkpt>
    <trkpt lat="50.9597670" lon="6.8747203">
      <time>2023-05-23T18:00:52Z</time>
    </trkpt>
    <trkpt lat="50.9597492" lon="6.8750350">
      <time>2023-05-23T18:00:58Z</time>
    </trkpt>
    <trkpt lat="50.9597207" lon="6.8753933">
      <time>2023-05-23T18:01:04Z</time>
    </trkpt>
    <trkpt lat="50.9597363" lon="6.8757862">
      <time>2023-05-23T18:01:11Z</time>
    </trkpt>
    <trkpt lat="50.9598024" lon="6.8762213">
      <time>2023-05-23T18:01:19Z</time>
    </trkpt>
    <trkpt lat="50.9598575" lon="6.8766013">
      <time>2023-05-23T18:01:26Z</time>
    </trkpt>
    <trkpt lat="50.9598664" lon="6.8768864">
      <time>2023-05-23T18:01:32Z</time>
    </trkpt>
    <trkpt lat="50.9597980" lon="6.8771850">
      <time>2023-05-23T18:01:38Z</time>
    </trkpt>
    <trkpt lat="50.9598497" lon="6.8773697">
      <time>2023-05-23T18:01:42Z</time>
    </trkpt>
    <trkpt lat="50.9599261" lon="6.8774748">
      <time>2023-05-23T18:01:45Z</time>
    </trkpt>
    <trkpt lat="50.9600074" lon="6.8775499">
      <time>2023-05-23T18:01:48Z</time>
    </trkpt>
    <trkpt lat="50.9600584" lon="6.8775976">
      <time>2023-05-23T18:01:50Z</time>
    </trkpt>
    <trkpt lat="50.9601256" lon="6.8776783">
      <time>2023-05-23T18:01:53Z</time>
    </trkpt>
    <trkpt lat="50.9601535" lon="6.8777021">
      <time>2023-05-23T18:01:54Z</time>
    </trkpt>
    <trkpt lat="50.9603005" lon="6.8777201">
      <time>2023-05-23T18:01:59Z</time>
    </trkpt>
    <trkpt lat="50.9604764" lon="6.8776402">
      <time>2023-05-23T18:02:05Z</time>
    </trkpt>
    <trkpt lat="50.9605292" lon="6.8776145">
      <time>2023-05-23T18:02:07Z</time>
    </trkpt>
    <trkpt lat="50.9606997" lon="6.8775502">
      <time>2023-05-23T18:02:13Z</time>
    </trkpt>
    <trkpt lat="50.9607592" lon="6.8775235">
      <time>2023-05-23T18:02:15Z</time>
    </trkpt>
    <trkpt lat="50.9609613" lon="6.8774867">
      <time>2023-05-23T18:02:22Z</time>
    </trkpt>
    <trkpt lat="50.9611381" lon="6.8774057">
      <time>2023-05-23T18:02:28Z</time>
    </trkpt>
    <trkpt lat="50.9614253" lon="6.8772511">
      <time>2023-05-23T18:02:37Z</time>
    </trkpt>
    <trkpt lat="50.9617218" lon="6.8770658">
      <time>2023-05-23T18:02:47Z</time>
    </trkpt>
    <trkpt lat="50.9618535" lon="6.8769672">
      <time>2023-05-23T18:02:53Z</time>
    </trkpt>
    <trkpt lat="50.9619700" lon="6.8767652">
      <time>2023-05-23T18:03:01Z</time>
    </trkpt>
    <trkpt lat="50.9619712" lon="6.8765558">
      <time>2023-05-23T18:03:08Z</time>
    </trkpt>
    <trkpt lat="50.9619715" lon="6.8764413">
      <time>2023-05-23T18:03:14Z</time>
    </trkpt>
    <trkpt lat="50.9619909" lon="6.8763943">
      <time>2023-05-23T18:03:17Z</time>
    </trkpt>
    <trkpt lat="50.9620181" lon="6.8763728">
      <time>2023-05-23T18:03:19Z</time>
    </trkpt>
    <trkpt lat="50.9620270" lon="6.8763606">
      <time>2023-05-23T18:03:20Z</time>
    </trkpt>
    <trkpt lat="50.9621229" lon="6.8763036">
      <time>2023-05-23T18:03:26Z</time>
    </trkpt>
    <trkpt lat="50.9622581" lon="6.8763590">
      <time>2023-05-23T18:03:32Z</time>
    </trkpt>
    <trkpt lat="50.9623988" lon="6.8764015">
      <time>2023-05-23T18:03:37Z</time>
    </trkpt>
    <trkpt lat="50.9625658" lon="6.8764435">
      <time>2023-05-23T18:03:43Z</time>
    </trkpt>
    <trkpt lat="50.9625942" lon="6.8764475">
      <time>2023-05-23T18:03:44Z</time>
    </trkpt>
    <trkpt lat="50.9626218" lon="6.8764496">
      <time>2023-05-23T18:03:45Z</time>
    </trkpt>
    <trkpt lat="50.9626980" lon="6.8764304">
      <time>2023-05-23T18:03:48Z</time>
    </trkpt>
    <trkpt lat="50.9627590" lon="6.8763771">
      <time>2023-05-23T18:03:51Z</time>
    </trkpt>
    <trkpt lat="50.9628488" lon="6.8762852">
      <time>2023-05-23T18:03:56Z</time>
    </trkpt>
    <trkpt lat="50.9629128" lon="6.8763233">
      <time>2023-05-23T18:03:59Z</time>
    </trkpt>
  </trkseg></trk>
</gpx>
