<?xml version="1.0" encoding="UTF-8"?>
<gpx version="1.1" creator="Diary FIT converter" xmlns="http://www.topografix.com/GPX/1/1">
  <trk><name>Running</name><trkseg>
    <trkpt lat="50.9631964" lon="6.8769983">
      <time>2020-10-25T16:05:30Z</time>
    </trkpt>
    <trkpt lat="50.9632591" lon="6.8770578">
      <time>2020-10-25T16:05:33Z</time>
    </trkpt>
    <trkpt lat="50.9634414" lon="6.8772215">
      <time>2020-10-25T16:05:37Z</time>
    </trkpt>
    <trkpt lat="50.9634946" lon="6.8772864">
      <time>2020-10-25T16:05:39Z</time>
    </trkpt>
    <trkpt lat="50.9635691" lon="6.8773927">
      <time>2020-10-25T16:05:44Z</time>
    </trkpt>
    <trkpt lat="50.9635832" lon="6.8774032">
      <time>2020-10-25T16:05:45Z</time>
    </trkpt>
    <trkpt lat="50.9636756" lon="6.8776100">
      <time>2020-10-25T16:05:53Z</time>
    </trkpt>
    <trkpt lat="50.9637466" lon="6.8777706">
      <time>2020-10-25T16:05:58Z</time>
    </trkpt>
    <trkpt lat="50.9637493" lon="6.8777940">
      <time>2020-10-25T16:05:59Z</time>
    </trkpt>
    <trkpt lat="50.9638051" lon="6.8779252">
      <time>2020-10-25T16:06:05Z</time>
    </trkpt>
    <trkpt lat="50.9639294" lon="6.8780747">
      <time>2020-10-25T16:06:11Z</time>
    </trkpt>
    <trkpt lat="50.9640035" lon="6.8781875">
      <time>2020-10-25T16:06:16Z</time>
    </trkpt>
    <trkpt lat="50.9641079" lon="6.8783743">
      <time>2020-10-25T16:06:24Z</time>
    </trkpt>
    <trkpt lat="50.9641319" lon="6.8784316">
      <time>2020-10-25T16:06:26Z</time>
    </trkpt>
    <trkpt lat="50.9641667" lon="6.8785076">
      <time>2020-10-25T16:06:29Z</time>
    </trkpt>
    <trkpt lat="50.9641788" lon="6.8785736">
      <time>2020-10-25T16:06:32Z</time>
    </trkpt>
    <trkpt lat="50.9641973" lon="6.8786336">
      <time>2020-10-25T16:06:34Z</time>
    </trkpt>
    <trkpt lat="50.9642357" lon="6.8787071">
      <time>2020-10-25T16:06:36Z</time>
    </trkpt>
    <trkpt lat="50.9642524" lon="6.8787621">
      <time>2020-10-25T16:06:38Z</time>
    </trkpt>
    <trkpt lat="50.9642568" lon="6.8787937">
      <time>2020-10-25T16:06:39Z</time>
    </trkpt>
    <trkpt lat="50.9642706" lon="6.8788133">
      <time>2020-10-25T16:06:40Z</time>
    </trkpt>
    <trkpt lat="50.9643126" lon="6.8788831">
      <time>2020-10-25T16:06:43Z</time>
    </trkpt>
    <trkpt lat="50.9643631" lon="6.8789641">
      <time>2020-10-25T16:06:46Z</time>
    </trkpt>
    <trkpt lat="50.9643904" lon="6.8790112">
      <time>2020-10-25T16:06:48Z</time>
    </trkpt>
    <trkpt lat="50.9644912" lon="6.8791291">
      <time>2020-10-25T16:06:54Z</time>
    </trkpt>
    <trkpt lat="50.9645095" lon="6.8791430">
      <time>2020-10-25T16:06:55Z</time>
    </trkpt>
    <trkpt lat="50.9645189" lon="6.8791597">
      <time>2020-10-25T16:06:56Z</time>
    </trkpt>
    <trkpt lat="50.9645594" lon="6.8792392">
      <time>2020-10-25T16:06:59Z</time>
    </trkpt>
    <trkpt lat="50.9646345" lon="6.8793738">
      <time>2020-10-25T16:07:04Z</time>
    </trkpt>
    <trkpt lat="50.9647388" lon="6.8794435">
      <time>2020-10-25T16:07:08Z</time>
    </trkpt>
    <trkpt lat="50.9648404" lon="6.8795314">
      <time>2020-10-25T16:07:12Z</time>
    </trkpt>
    <trkpt lat="50.9648716" lon="6.8795671">
      <time>2020-10-25T16:07:14Z</time>
    </trkpt>
    <trkpt lat="50.9648938" lon="6.8796233">
      <time>2020-10-25T16:07:17Z</time>
    </trkpt>
    <trkpt lat="50.9649405" lon="6.8797061">
      <time>2020-10-25T16:07:20Z</time>
    </trkpt>
    <trkpt lat="50.9649632" lon="6.8797419">
      <time>2020-10-25T16:07:22Z</time>
    </trkpt>
    <trkpt lat="50.9650008" lon="6.8797791">
      <time>2020-10-25T16:07:24Z</time>
    </trkpt>
    <trkpt lat="50.9651057" lon="6.8798599">
      <time>2020-10-25T16:07:28Z</time>
    </trkpt>
    <trkpt lat="50.9651582" lon="6.8799510">
      <time>2020-10-25T16:07:31Z</time>
    </trkpt>
    <trkpt lat="50.9652303" lon="6.8800149">
      <time>2020-10-25T16:07:34Z</time>
    </trkpt>
    <trkpt lat="50.9653250" lon="6.8801385">
      <time>2020-10-25T16:07:39Z</time>
    </trkpt>
    <trkpt lat="50.9653341" lon="6.8801690">
      <time>2020-10-25T16:07:40Z</time>
    </trkpt>
    <trkpt lat="50.9653731" lon="6.8802189">
      <time>2020-10-25T16:07:42Z</time>
    </trkpt>
    <trkpt lat="50.9654176" lon="6.8802636">
      <time>2020-10-25T16:07:44Z</time>
    </trkpt>
    <trkpt lat="50.9655225" lon="6.8803842">
      <time>2020-10-25T16:07:49Z</time>
    </trkpt>
    <trkpt lat="50.9655255" lon="6.8804060">
      <time>2020-10-25T16:07:50Z</time>
    </trkpt>
    <trkpt lat="50.9655440" lon="6.8804318">
      <time>2020-10-25T16:07:51Z</time>
    </trkpt>
    <trkpt lat="50.9656316" lon="6.8805207">
      <time>2020-10-25T16:07:54Z</time>
    </trkpt>
    <trkpt lat="50.9656743" lon="6.8805659">
      <time>2020-10-25T16:07:56Z</time>
    </trkpt>
    <trkpt lat="50.9657230" lon="6.8806225">
      <time>2020-10-25T16:07:59Z</time>
    </trkpt>
    <trkpt lat="50.9657454" lon="6.8806607">
      <time>2020-10-25T16:08:01Z</time>
    </trkpt>
    <trkpt lat="50.9657691" lon="6.8806908">
      <time>2020-10-25T16:08:03Z</time>
    </trkpt>
    <trkpt lat="50.9658005" lon="6.8807346">
      <time>2020-10-25T16:08:05Z</time>
    </trkpt>
    <trkpt lat="50.9650642" lon="6.8794921">
      <time>2020-10-25T16:08:22Z</time>
    </trkpt>
    <trkpt lat="50.9658679" lon="6.8810550">
      <time>2020-10-25T16:08:35Z</time>
    </trkpt>
    <trkpt lat="50.9655185" lon="6.8835786">
      <time>2020-10-25T16:09:34Z</time>
    </trkpt>
    <trkpt lat="50.9654837" lon="6.8835970">
      <time>2020-10-25T16:09:35Z</time>
    </trkpt>
    <trkpt lat="50.9654586" lon="6.8836104">
      <time>2020-10-25T16:09:37Z</time>
    </trkpt>
    <trkpt lat="50.9654369" lon="6.8836116">
      <time>2020-10-25T16:09:38Z</time>
    </trkpt>
    <trkpt lat="50.9653608" lon="6.8837326">
      <time>2020-10-25T16:09:43Z</time>
    </trkpt>
    <trkpt lat="50.9652628" lon="6.8839148">
      <time>2020-10-25T16:09:50Z</time>
    </trkpt>
    <trkpt lat="50.9652423" lon="6.8839422">
      <time>2020-10-25T16:09:51Z</time>
    </trkpt>
    <trkpt lat="50.9651181" lon="6.8841605">
      <time>2020-10-25T16:09:59Z</time>
    </trkpt>
    <trkpt lat="50.9651150" lon="6.8841981">
      <time>2020-10-25T16:10:00Z</time>
    </trkpt>
    <trkpt lat="50.9650168" lon="6.8844787">
      <time>2020-10-25T16:10:08Z</time>
    </trkpt>
    <trkpt lat="50.9649549" lon="6.8845998">
      <time>2020-10-25T16:10:12Z</time>
    </trkpt>
    <trkpt lat="50.9649117" lon="6.8846837">
      <time>2020-10-25T16:10:15Z</time>
    </trkpt>
    <trkpt lat="50.9648221" lon="6.8848817">
      <time>2020-10-25T16:10:22Z</time>
    </trkpt>
    <trkpt lat="50.9648062" lon="6.8849150">
      <time>2020-10-25T16:10:23Z</time>
    </trkpt>
    <trkpt lat="50.9647140" lon="6.8851440">
      <time>2020-10-25T16:10:30Z</time>
    </trkpt>
    <trkpt lat="50.9645959" lon="6.8853525">
      <time>2020-10-25T16:10:37Z</time>
    </trkpt>
    <trkpt lat="50.9645115" lon="6.8855325">
      <time>2020-10-25T16:10:43Z</time>
    </trkpt>
    <trkpt lat="50.9644884" lon="6.8855963">
      <time>2020-10-25T16:10:45Z</time>
    </trkpt>
    <trkpt lat="50.9644743" lon="6.8856296">
      <time>2020-10-25T16:10:46Z</time>
    </trkpt>
    <trkpt lat="50.9644522" lon="6.8856651">
      <time>2020-10-25T16:10:47Z</time>
    </trkpt>
    <trkpt lat="50.9644376" lon="6.8857011">
      <time>2020-10-25T16:10:48Z</time>
    </trkpt>
    <trkpt lat="50.9644227" lon="6.8857293">
      <time>2020-10-25T16:10:49Z</time>
    </trkpt>
    <trkpt lat="50.9644092" lon="6.8857521">
      <time>2020-10-25T16:10:50Z</time>
    </trkpt>
    <trkpt lat="50.9643802" lon="6.8858172">
      <time>2020-10-25T16:10:52Z</time>
    </trkpt>
    <trkpt lat="50.9642908" lon="6.8860163">
      <time>2020-10-25T16:10:59Z</time>
    </trkpt>
    <trkpt lat="50.9641933" lon="6.8862456">
      <time>2020-10-25T16:11:06Z</time>
    </trkpt>
    <trkpt lat="50.9640772" lon="6.8864916">
      <time>2020-10-25T16:11:14Z</time>
    </trkpt>
    <trkpt lat="50.9640369" lon="6.8865766">
      <time>2020-10-25T16:11:17Z</time>
    </trkpt>
    <trkpt lat="50.9639951" lon="6.8866728">
      <time>2020-10-25T16:11:20Z</time>
    </trkpt>
    <trkpt lat="50.9639672" lon="6.8867235">
      <time>2020-10-25T16:11:22Z</time>
    </trkpt>
    <trkpt lat="50.9638607" lon="6.8869203">
      <time>2020-10-25T16:11:30Z</time>
    </trkpt>
    <trkpt lat="50.9637382" lon="6.8870907">
      <time>2020-10-25T16:11:37Z</time>
    </trkpt>
    <trkpt lat="50.9637238" lon="6.8871172">
      <time>2020-10-25T16:11:38Z</time>
    </trkpt>
    <trkpt lat="50.9636652" lon="6.8872956">
      <time>2020-10-25T16:11:43Z</time>
    </trkpt>
    <trkpt lat="50.9636385" lon="6.8873574">
      <time>2020-10-25T16:11:45Z</time>
    </trkpt>
    <trkpt lat="50.9635048" lon="6.8876040">
      <time>2020-10-25T16:11:53Z</time>
    </trkpt>
    <trkpt lat="50.9634461" lon="6.8877340">
      <time>2020-10-25T16:11:59Z</time>
    </trkpt>
    <trkpt lat="50.9634206" lon="6.8878951">
      <time>2020-10-25T16:12:04Z</time>
    </trkpt>
    <trkpt lat="50.9633035" lon="6.8881264">
      <time>2020-10-25T16:12:11Z</time>
    </trkpt>
    <trkpt lat="50.9632896" lon="6.8881475">
      <time>2020-10-25T16:12:12Z</time>
    </trkpt>
    <trkpt lat="50.9631842" lon="6.8883347">
      <time>2020-10-25T16:12:19Z</time>
    </trkpt>
    <trkpt lat="50.9630603" lon="6.8885846">
      <time>2020-10-25T16:12:26Z</time>
    </trkpt>
    <trkpt lat="50.9630376" lon="6.8886509">
      <time>2020-10-25T16:12:28Z</time>
    </trkpt>
    <trkpt lat="50.9630287" lon="6.8887259">
      <time>2020-10-25T16:12:31Z</time>
    </trkpt>
    <trkpt lat="50.9630273" lon="6.8887553">
      <time>2020-10-25T16:12:33Z</time>
    </trkpt>
    <trkpt lat="50.9629800" lon="6.8889885">
      <time>2020-10-25T16:12:38Z</time>
    </trkpt>
    <trkpt lat="50.9628863" lon="6.8891852">
      <time>2020-10-25T16:12:44Z</time>
    </trkpt>
    <trkpt lat="50.9627798" lon="6.8894388">
      <time>2020-10-25T16:12:51Z</time>
    </trkpt>
    <trkpt lat="50.9627622" lon="6.8894678">
      <time>2020-10-25T16:12:52Z</time>
    </trkpt>
    <trkpt lat="50.9626082" lon="6.8896629">
      <time>2020-10-25T16:12:59Z</time>
    </trkpt>
    <trkpt lat="50.9625971" lon="6.8896302">
      <time>2020-10-25T16:13:01Z</time>
    </trkpt>
    <trkpt lat="50.9625899" lon="6.8896424">
      <time>2020-10-25T16:13:02Z</time>
    </trkpt>
    <trkpt lat="50.9625525" lon="6.8896828">
      <time>2020-10-25T16:13:04Z</time>
    </trkpt>
    <trkpt lat="50.9625355" lon="6.8897048">
      <time>2020-10-25T16:13:05Z</time>
    </trkpt>
    <trkpt lat="50.9624972" lon="6.8897815">
      <time>2020-10-25T16:13:08Z</time>
    </trkpt>
    <trkpt lat="50.9624165" lon="6.8899152">
      <time>2020-10-25T16:13:13Z</time>
    </trkpt>
    <trkpt lat="50.9623324" lon="6.8900745">
      <time>2020-10-25T16:13:18Z</time>
    </trkpt>
    <trkpt lat="50.9622187" lon="6.8902799">
      <time>2020-10-25T16:13:25Z</time>
    </trkpt>
    <trkpt lat="50.9621398" lon="6.8904798">
      <time>2020-10-25T16:13:31Z</time>
    </trkpt>
    <trkpt lat="50.9620407" lon="6.8907075">
      <time>2020-10-25T16:13:39Z</time>
    </trkpt>
    <trkpt lat="50.9619803" lon="6.8908504">
      <time>2020-10-25T16:13:44Z</time>
    </trkpt>
    <trkpt lat="50.9619089" lon="6.8909918">
      <time>2020-10-25T16:13:49Z</time>
    </trkpt>
    <trkpt lat="50.9618140" lon="6.8912120">
      <time>2020-10-25T16:13:57Z</time>
    </trkpt>
    <trkpt lat="50.9617719" lon="6.8913061">
      <time>2020-10-25T16:14:00Z</time>
    </trkpt>
    <trkpt lat="50.9617347" lon="6.8914026">
      <time>2020-10-25T16:14:03Z</time>
    </trkpt>
    <trkpt lat="50.9617213" lon="6.8914333">
      <time>2020-10-25T16:14:04Z</time>
    </trkpt>
    <trkpt lat="50.9616958" lon="6.8914861">
      <time>2020-10-25T16:14:06Z</time>
    </trkpt>
    <trkpt lat="50.9615869" lon="6.8916789">
      <time>2020-10-25T16:14:13Z</time>
    </trkpt>
    <trkpt lat="50.9614604" lon="6.8919177">
      <time>2020-10-25T16:14:22Z</time>
    </trkpt>
    <trkpt lat="50.9613580" lon="6.8921703">
      <time>2020-10-25T16:14:30Z</time>
    </trkpt>
    <trkpt lat="50.9612520" lon="6.8923896">
      <time>2020-10-25T16:14:37Z</time>
    </trkpt>
    <trkpt lat="50.9612404" lon="6.8924158">
      <time>2020-10-25T16:14:38Z</time>
    </trkpt>
    <trkpt lat="50.9612234" lon="6.8924390">
      <time>2020-10-25T16:14:39Z</time>
    </trkpt>
    <trkpt lat="50.9611827" lon="6.8924372">
      <time>2020-10-25T16:14:41Z</time>
    </trkpt>
    <trkpt lat="50.9611576" lon="6.8924259">
      <time>2020-10-25T16:14:43Z</time>
    </trkpt>
    <trkpt lat="50.9611152" lon="6.8923767">
      <time>2020-10-25T16:14:46Z</time>
    </trkpt>
    <trkpt lat="50.9610223" lon="6.8922504">
      <time>2020-10-25T16:14:53Z</time>
    </trkpt>
    <trkpt lat="50.9609233" lon="6.8920968">
      <time>2020-10-25T16:14:59Z</time>
    </trkpt>
    <trkpt lat="50.9608236" lon="6.8919273">
      <time>2020-10-25T16:15:05Z</time>
    </trkpt>
    <trkpt lat="50.9607576" lon="6.8918322">
      <time>2020-10-25T16:15:10Z</time>
    </trkpt>
    <trkpt lat="50.9606956" lon="6.8917070">
      <time>2020-10-25T16:15:14Z</time>
    </trkpt>
    <trkpt lat="50.9606224" lon="6.8915730">
      <time>2020-10-25T16:15:19Z</time>
    </trkpt>
    <trkpt lat="50.9605983" lon="6.8915273">
      <time>2020-10-25T16:15:21Z</time>
    </trkpt>
    <trkpt lat="50.9605171" lon="6.8913229">
      <time>2020-10-25T16:15:28Z</time>
    </trkpt>
    <trkpt lat="50.9604175" lon="6.8910598">
      <time>2020-10-25T16:15:36Z</time>
    </trkpt>
    <trkpt lat="50.9604018" lon="6.8910332">
      <time>2020-10-25T16:15:37Z</time>
    </trkpt>
    <trkpt lat="50.9603573" lon="6.8909685">
      <time>2020-10-25T16:15:40Z</time>
    </trkpt>
    <trkpt lat="50.9602984" lon="6.8907660">
      <time>2020-10-25T16:15:46Z</time>
    </trkpt>
    <trkpt lat="50.9602836" lon="6.8907080">
      <time>2020-10-25T16:15:48Z</time>
    </trkpt>
    <trkpt lat="50.9602593" lon="6.8906440">
      <time>2020-10-25T16:15:51Z</time>
    </trkpt>
    <trkpt lat="50.9602594" lon="6.8906060">
      <time>2020-10-25T16:15:52Z</time>
    </trkpt>
    <trkpt lat="50.9602485" lon="6.8904891">
      <time>2020-10-25T16:15:55Z</time>
    </trkpt>
    <trkpt lat="50.9602440" lon="6.8903842">
      <time>2020-10-25T16:15:58Z</time>
    </trkpt>
    <trkpt lat="50.9602355" lon="6.8902953">
      <time>2020-10-25T16:16:01Z</time>
    </trkpt>
    <trkpt lat="50.9602279" lon="6.8902311">
      <time>2020-10-25T16:16:03Z</time>
    </trkpt>
    <trkpt lat="50.9602327" lon="6.8900829">
      <time>2020-10-25T16:16:07Z</time>
    </trkpt>
    <trkpt lat="50.9602217" lon="6.8898674">
      <time>2020-10-25T16:16:12Z</time>
    </trkpt>
    <trkpt lat="50.9602466" lon="6.8895654">
      <time>2020-10-25T16:16:19Z</time>
    </trkpt>
    <trkpt lat="50.9602548" lon="6.8894512">
      <time>2020-10-25T16:16:22Z</time>
    </trkpt>
    <trkpt lat="50.9602983" lon="6.8894072">
      <time>2020-10-25T16:16:24Z</time>
    </trkpt>
    <trkpt lat="50.9603847" lon="6.8886972">
      <time>2020-10-25T16:17:00Z</time>
    </trkpt>
    <trkpt lat="50.9604180" lon="6.8881785">
      <time>2020-10-25T16:17:02Z</time>
    </trkpt>
    <trkpt lat="50.9604114" lon="6.8880357">
      <time>2020-10-25T16:17:04Z</time>
    </trkpt>
    <trkpt lat="50.9603895" lon="6.8878231">
      <time>2020-10-25T16:17:07Z</time>
    </trkpt>
    <trkpt lat="50.9603954" lon="6.8876197">
      <time>2020-10-25T16:17:13Z</time>
    </trkpt>
    <trkpt lat="50.9603994" lon="6.8875972">
      <time>2020-10-25T16:17:14Z</time>
    </trkpt>
    <trkpt lat="50.9603953" lon="6.8874527">
      <time>2020-10-25T16:17:21Z</time>
    </trkpt>
    <trkpt lat="50.9603646" lon="6.8872549">
      <time>2020-10-25T16:17:26Z</time>
    </trkpt>
    <trkpt lat="50.9603257" lon="6.8870419">
      <time>2020-10-25T16:17:31Z</time>
    </trkpt>
    <trkpt lat="50.9602635" lon="6.8868272">
      <time>2020-10-25T16:17:36Z</time>
    </trkpt>
    <trkpt lat="50.9601646" lon="6.8866230">
      <time>2020-10-25T16:17:42Z</time>
    </trkpt>
    <trkpt lat="50.9600955" lon="6.8864158">
      <time>2020-10-25T16:17:48Z</time>
    </trkpt>
    <trkpt lat="50.9600104" lon="6.8861432">
      <time>2020-10-25T16:17:56Z</time>
    </trkpt>
    <trkpt lat="50.9599903" lon="6.8861192">
      <time>2020-10-25T16:17:57Z</time>
    </trkpt>
    <trkpt lat="50.9599823" lon="6.8859697">
      <time>2020-10-25T16:18:02Z</time>
    </trkpt>
    <trkpt lat="50.9600201" lon="6.8859331">
      <time>2020-10-25T16:18:04Z</time>
    </trkpt>
    <trkpt lat="50.9600633" lon="6.8859097">
      <time>2020-10-25T16:18:06Z</time>
    </trkpt>
    <trkpt lat="50.9601341" lon="6.8858747">
      <time>2020-10-25T16:18:09Z</time>
    </trkpt>
    <trkpt lat="50.9602693" lon="6.8858287">
      <time>2020-10-25T16:18:14Z</time>
    </trkpt>
    <trkpt lat="50.9604330" lon="6.8857878">
      <time>2020-10-25T16:18:21Z</time>
    </trkpt>
    <trkpt lat="50.9606016" lon="6.8857074">
      <time>2020-10-25T16:18:28Z</time>
    </trkpt>
    <trkpt lat="50.9607804" lon="6.8856667">
      <time>2020-10-25T16:18:36Z</time>
    </trkpt>
    <trkpt lat="50.9609670" lon="6.8856153">
      <time>2020-10-25T16:18:44Z</time>
    </trkpt>
    <trkpt lat="50.9609919" lon="6.8856074">
      <time>2020-10-25T16:18:45Z</time>
    </trkpt>
    <trkpt lat="50.9611771" lon="6.8855470">
      <time>2020-10-25T16:18:52Z</time>
    </trkpt>
    <trkpt lat="50.9611997" lon="6.8855366">
      <time>2020-10-25T16:18:53Z</time>
    </trkpt>
    <trkpt lat="50.9613213" lon="6.8854400">
      <time>2020-10-25T16:18:59Z</time>
    </trkpt>
    <trkpt lat="50.9614786" lon="6.8852792">
      <time>2020-10-25T16:19:07Z</time>
    </trkpt>
    <trkpt lat="50.9616477" lon="6.8851198">
      <time>2020-10-25T16:19:15Z</time>
    </trkpt>
    <trkpt lat="50.9617183" lon="6.8850666">
      <time>2020-10-25T16:19:18Z</time>
    </trkpt>
    <trkpt lat="50.9618058" lon="6.8850190">
      <time>2020-10-25T16:19:22Z</time>
    </trkpt>
    <trkpt lat="50.9618768" lon="6.8850017">
      <time>2020-10-25T16:19:25Z</time>
    </trkpt>
    <trkpt lat="50.9620142" lon="6.8849026">
      <time>2020-10-25T16:19:32Z</time>
    </trkpt>
    <trkpt lat="50.9620321" lon="6.8847394">
      <time>2020-10-25T16:19:37Z</time>
    </trkpt>
    <trkpt lat="50.9620422" lon="6.8844589">
      <time>2020-10-25T16:19:45Z</time>
    </trkpt>
    <trkpt lat="50.9620321" lon="6.8841975">
      <time>2020-10-25T16:19:53Z</time>
    </trkpt>
    <trkpt lat="50.9619586" lon="6.8839564">
      <time>2020-10-25T16:19:59Z</time>
    </trkpt>
    <trkpt lat="50.9618737" lon="6.8836710">
      <time>2020-10-25T16:20:06Z</time>
    </trkpt>
    <trkpt lat="50.9618083" lon="6.8834087">
      <time>2020-10-25T16:20:13Z</time>
    </trkpt>
    <trkpt lat="50.9617464" lon="6.8831916">
      <time>2020-10-25T16:20:19Z</time>
    </trkpt>
    <trkpt lat="50.9616720" lon="6.8829096">
      <time>2020-10-25T16:20:27Z</time>
    </trkpt>
    <trkpt lat="50.9616586" lon="6.8828757">
      <time>2020-10-25T16:20:28Z</time>
    </trkpt>
    <trkpt lat="50.9615756" lon="6.8826174">
      <time>2020-10-25T16:20:36Z</time>
    </trkpt>
    <trkpt lat="50.9615192" lon="6.8823725">
      <time>2020-10-25T16:20:43Z</time>
    </trkpt>
    <trkpt lat="50.9615128" lon="6.8823385">
      <time>2020-10-25T16:20:44Z</time>
    </trkpt>
    <trkpt lat="50.9614499" lon="6.8820681">
      <time>2020-10-25T16:20:51Z</time>
    </trkpt>
    <trkpt lat="50.9614097" lon="6.8819298">
      <time>2020-10-25T16:20:55Z</time>
    </trkpt>
    <trkpt lat="50.9613418" lon="6.8816687">
      <time>2020-10-25T16:21:02Z</time>
    </trkpt>
    <trkpt lat="50.9612718" lon="6.8813886">
      <time>2020-10-25T16:21:09Z</time>
    </trkpt>
    <trkpt lat="50.9612516" lon="6.8813122">
      <time>2020-10-25T16:21:11Z</time>
    </trkpt>
    <trkpt lat="50.9611702" lon="6.8810214">
      <time>2020-10-25T16:21:19Z</time>
    </trkpt>
    <trkpt lat="50.9611393" lon="6.8809155">
      <time>2020-10-25T16:21:22Z</time>
    </trkpt>
    <trkpt lat="50.9610604" lon="6.8806355">
      <time>2020-10-25T16:21:30Z</time>
    </trkpt>
    <trkpt lat="50.9610207" lon="6.8804561">
      <time>2020-10-25T16:21:35Z</time>
    </trkpt>
    <trkpt lat="50.9609442" lon="6.8802134">
      <time>2020-10-25T16:21:42Z</time>
    </trkpt>
    <trkpt lat="50.9608785" lon="6.8799477">
      <time>2020-10-25T16:21:50Z</time>
    </trkpt>
    <trkpt lat="50.9608072" lon="6.8796766">
      <time>2020-10-25T16:21:58Z</time>
    </trkpt>
    <trkpt lat="50.9607997" lon="6.8796388">
      <time>2020-10-25T16:21:59Z</time>
    </trkpt>
    <trkpt lat="50.9607669" lon="6.8793567">
      <time>2020-10-25T16:22:07Z</time>
    </trkpt>
    <trkpt lat="50.9607666" lon="6.8793233">
      <time>2020-10-25T16:22:08Z</time>
    </trkpt>
    <trkpt lat="50.9607906" lon="6.8791408">
      <time>2020-10-25T16:22:13Z</time>
    </trkpt>
    <trkpt lat="50.9608059" lon="6.8790756">
      <time>2020-10-25T16:22:15Z</time>
    </trkpt>
    <trkpt lat="50.9608712" lon="6.8788533">
      <time>2020-10-25T16:22:21Z</time>
    </trkpt>
    <trkpt lat="50.9609081" lon="6.8787511">
      <time>2020-10-25T16:22:24Z</time>
    </trkpt>
    <trkpt lat="50.9610121" lon="6.8785920">
      <time>2020-10-25T16:22:30Z</time>
    </trkpt>
    <trkpt lat="50.9611227" lon="6.8784920">
      <time>2020-10-25T16:22:35Z</time>
    </trkpt>
    <trkpt lat="50.9611488" lon="6.8784717">
      <time>2020-10-25T16:22:36Z</time>
    </trkpt>
    <trkpt lat="50.9611661" lon="6.8784491">
      <time>2020-10-25T16:22:37Z</time>
    </trkpt>
    <trkpt lat="50.9613146" lon="6.8783927">
      <time>2020-10-25T16:22:44Z</time>
    </trkpt>
    <trkpt lat="50.9614623" lon="6.8784399">
      <time>2020-10-25T16:22:51Z</time>
    </trkpt>
    <trkpt lat="50.9615809" lon="6.8784925">
      <time>2020-10-25T16:22:57Z</time>
    </trkpt>
    <trkpt lat="50.9616793" lon="6.8785509">
      <time>2020-10-25T16:23:02Z</time>
    </trkpt>
    <trkpt lat="50.9618339" lon="6.8786161">
      <time>2020-10-25T16:23:10Z</time>
    </trkpt>
    <trkpt lat="50.9619424" lon="6.8786746">
      <time>2020-10-25T16:23:16Z</time>
    </trkpt>
    <trkpt lat="50.9621123" lon="6.8787500">
      <time>2020-10-25T16:23:24Z</time>
    </trkpt>
    <trkpt lat="50.9623010" lon="6.8788201">
      <time>2020-10-25T16:23:31Z</time>
    </trkpt>
    <trkpt lat="50.9624542" lon="6.8788888">
      <time>2020-10-25T16:23:38Z</time>
    </trkpt>
    <trkpt lat="50.9626232" lon="6.8789541">
      <time>2020-10-25T16:23:45Z</time>
    </trkpt>
    <trkpt lat="50.9628103" lon="6.8790095">
      <time>2020-10-25T16:23:52Z</time>
    </trkpt>
    <trkpt lat="50.9628356" lon="6.8790044">
      <time>2020-10-25T16:23:53Z</time>
    </trkpt>
    <trkpt lat="50.9629365" lon="6.8788549">
      <time>2020-10-25T16:23:59Z</time>
    </trkpt>
    <trkpt lat="50.9629794" lon="6.8787749">
      <time>2020-10-25T16:24:03Z</time>
    </trkpt>
    <trkpt lat="50.9629930" lon="6.8787526">
      <time>2020-10-25T16:24:04Z</time>
    </trkpt>
    <trkpt lat="50.9630840" lon="6.8786293">
      <time>2020-10-25T16:24:09Z</time>
    </trkpt>
    <trkpt lat="50.9631181" lon="6.8785930">
      <time>2020-10-25T16:24:11Z</time>
    </trkpt>
    <trkpt lat="50.9631515" lon="6.8785430">
      <time>2020-10-25T16:24:13Z</time>
    </trkpt>
    <trkpt lat="50.9631976" lon="6.8784600">
      <time>2020-10-25T16:24:16Z</time>
    </trkpt>
    <trkpt lat="50.9632711" lon="6.8783578">
      <time>2020-10-25T16:24:22Z</time>
    </trkpt>
    <trkpt lat="50.9632878" lon="6.8783428">
      <time>2020-10-25T16:24:23Z</time>
    </trkpt>
    <trkpt lat="50.9633013" lon="6.8783231">
      <time>2020-10-25T16:24:24Z</time>
    </trkpt>
    <trkpt lat="50.9633785" lon="6.8782644">
      <time>2020-10-25T16:24:28Z</time>
    </trkpt>
    <trkpt lat="50.9634158" lon="6.8782431">
      <time>2020-10-25T16:24:30Z</time>
    </trkpt>
    <trkpt lat="50.9634984" lon="6.8781713">
      <time>2020-10-25T16:24:35Z</time>
    </trkpt>
    <trkpt lat="50.9636668" lon="6.8780625">
      <time>2020-10-25T16:24:42Z</time>
    </trkpt>
    <trkpt lat="50.9637347" lon="6.8779100">
      <time>2020-10-25T16:24:48Z</time>
    </trkpt>
    <trkpt lat="50.9638687" lon="6.8777305">
      <time>2020-10-25T16:24:55Z</time>
    </trkpt>
    <trkpt lat="50.9639623" lon="6.8775049">
      <time>2020-10-25T16:25:03Z</time>
    </trkpt>
    <trkpt lat="50.9640569" lon="6.8772785">
      <time>2020-10-25T16:25:11Z</time>
    </trkpt>
    <trkpt lat="50.9641168" lon="6.8770470">
      <time>2020-10-25T16:25:19Z</time>
    </trkpt>
    <trkpt lat="50.9641702" lon="6.8767830">
      <time>2020-10-25T16:25:27Z</time>
    </trkpt>
    <trkpt lat="50.9642120" lon="6.8765461">
      <time>2020-10-25T16:25:34Z</time>
    </trkpt>
    <trkpt lat="50.9642248" lon="6.8765159">
      <time>2020-10-25T16:25:35Z</time>
    </trkpt>
    <trkpt lat="50.9642862" lon="6.8762876">
      <time>2020-10-25T16:25:42Z</time>
    </trkpt>
    <trkpt lat="50.9643367" lon="6.8760203">
      <time>2020-10-25T16:25:49Z</time>
    </trkpt>
    <trkpt lat="50.9643682" lon="6.8758348">
      <time>2020-10-25T16:25:54Z</time>
    </trkpt>
    <trkpt lat="50.9643784" lon="6.8757231">
      <time>2020-10-25T16:25:57Z</time>
    </trkpt>
    <trkpt lat="50.9644187" lon="6.8754493">
      <time>2020-10-25T16:26:04Z</time>
    </trkpt>
    <trkpt lat="50.9644657" lon="6.8751510">
      <time>2020-10-25T16:26:12Z</time>
    </trkpt>
    <trkpt lat="50.9645092" lon="6.8750127">
      <time>2020-10-25T16:26:16Z</time>
    </trkpt>
    <trkpt lat="50.9645471" lon="6.8749118">
      <time>2020-10-25T16:26:19Z</time>
    </trkpt>
    <trkpt lat="50.9646304" lon="6.8746735">
      <time>2020-10-25T16:26:26Z</time>
    </trkpt>
    <trkpt lat="50.9647116" lon="6.8744056">
      <time>2020-10-25T16:26:34Z</time>
    </trkpt>
    <trkpt lat="50.9647339" lon="6.8743388">
      <time>2020-10-25T16:26:36Z</time>
    </trkpt>
    <trkpt lat="50.9648006" lon="6.8741290">
      <time>2020-10-25T16:26:42Z</time>
    </trkpt>
    <trkpt lat="50.9648854" lon="6.8739045">
      <time>2020-10-25T16:26:49Z</time>
    </trkpt>
    <trkpt lat="50.9649075" lon="6.8738469">
      <time>2020-10-25T16:26:51Z</time>
    </trkpt>
    <trkpt lat="50.9649637" lon="6.8737033">
      <time>2020-10-25T16:26:56Z</time>
    </trkpt>
    <trkpt lat="50.9651114" lon="6.8735033">
      <time>2020-10-25T16:27:04Z</time>
    </trkpt>
    <trkpt lat="50.9652368" lon="6.8732691">
      <time>2020-10-25T16:27:12Z</time>
    </trkpt>
    <trkpt lat="50.9653043" lon="6.8731280">
      <time>2020-10-25T16:27:17Z</time>
    </trkpt>
    <trkpt lat="50.9654339" lon="6.8729231">
      <time>2020-10-25T16:27:25Z</time>
    </trkpt>
    <trkpt lat="50.9655385" lon="6.8726744">
      <time>2020-10-25T16:27:33Z</time>
    </trkpt>
    <trkpt lat="50.9656433" lon="6.8724552">
      <time>2020-10-25T16:27:40Z</time>
    </trkpt>
    <trkpt lat="50.9657866" lon="6.8722658">
      <time>2020-10-25T16:27:47Z</time>
    </trkpt>
    <trkpt lat="50.9658094" lon="6.8722486">
      <time>2020-10-25T16:27:48Z</time>
    </trkpt>
    <trkpt lat="50.9659726" lon="6.8720825">
      <time>2020-10-25T16:27:55Z</time>
    </trkpt>
    <trkpt lat="50.9661217" lon="6.8718849">
      <time>2020-10-25T16:28:03Z</time>
    </trkpt>
    <trkpt lat="50.9661633" lon="6.8718282">
      <time>2020-10-25T16:28:05Z</time>
    </trkpt>
    <trkpt lat="50.9662964" lon="6.8716509">
      <time>2020-10-25T16:28:12Z</time>
    </trkpt>
    <trkpt lat="50.9663861" lon="6.8715032">
      <time>2020-10-25T16:28:17Z</time>
    </trkpt>
    <trkpt lat="50.9664056" lon="6.8714815">
      <time>2020-10-25T16:28:18Z</time>
    </trkpt>
    <trkpt lat="50.9664648" lon="6.8714216">
      <time>2020-10-25T16:28:21Z</time>
    </trkpt>
    <trkpt lat="50.9665837" lon="6.8712876">
      <time>2020-10-25T16:28:27Z</time>
    </trkpt>
    <trkpt lat="50.9667010" lon="6.8711349">
      <time>2020-10-25T16:28:33Z</time>
    </trkpt>
    <trkpt lat="50.9667111" lon="6.8710124">
      <time>2020-10-25T16:28:37Z</time>
    </trkpt>
    <trkpt lat="50.9667211" lon="6.8709594">
      <time>2020-10-25T16:28:39Z</time>
    </trkpt>
    <trkpt lat="50.9667494" lon="6.8707993">
      <time>2020-10-25T16:28:45Z</time>
    </trkpt>
    <trkpt lat="50.9667625" lon="6.8707096">
      <time>2020-10-25T16:28:48Z</time>
    </trkpt>
    <trkpt lat="50.9667765" lon="6.8705588">
      <time>2020-10-25T16:28:52Z</time>
    </trkpt>
    <trkpt lat="50.9668130" lon="6.8702920">
      <time>2020-10-25T16:28:59Z</time>
    </trkpt>
    <trkpt lat="50.9668563" lon="6.8700489">
      <time>2020-10-25T16:29:05Z</time>
    </trkpt>
    <trkpt lat="50.9668585" lon="6.8700083">
      <time>2020-10-25T16:29:06Z</time>
    </trkpt>
    <trkpt lat="50.9668865" lon="6.8697557">
      <time>2020-10-25T16:29:13Z</time>
    </trkpt>
    <trkpt lat="50.9669171" lon="6.8694341">
      <time>2020-10-25T16:29:21Z</time>
    </trkpt>
    <trkpt lat="50.9669355" lon="6.8691158">
      <time>2020-10-25T16:29:28Z</time>
    </trkpt>
    <trkpt lat="50.9669396" lon="6.8690549">
      <time>2020-10-25T16:29:29Z</time>
    </trkpt>
    <trkpt lat="50.9669426" lon="6.8688050">
      <time>2020-10-25T16:29:35Z</time>
    </trkpt>
    <trkpt lat="50.9669381" lon="6.8686729">
      <time>2020-10-25T16:29:39Z</time>
    </trkpt>
    <trkpt lat="50.9669231" lon="6.8686559">
      <time>2020-10-25T16:29:40Z</time>
    </trkpt>
    <trkpt lat="50.9668200" lon="6.8686076">
      <time>2020-10-25T16:29:45Z</time>
    </trkpt>
    <trkpt lat="50.9667729" lon="6.8685882">
      <time>2020-10-25T16:29:47Z</time>
    </trkpt>
    <trkpt lat="50.9665988" lon="6.8685014">
      <time>2020-10-25T16:29:55Z</time>
    </trkpt>
    <trkpt lat="50.9665801" lon="6.8684904">
      <time>2020-10-25T16:29:56Z</time>
    </trkpt>
    <trkpt lat="50.9664030" lon="6.8684429">
      <time>2020-10-25T16:30:04Z</time>
    </trkpt>
    <trkpt lat="50.9662160" lon="6.8684797">
      <time>2020-10-25T16:30:13Z</time>
    </trkpt>
    <trkpt lat="50.9660461" lon="6.8684071">
      <time>2020-10-25T16:30:21Z</time>
    </trkpt>
    <trkpt lat="50.9658958" lon="6.8683906">
      <time>2020-10-25T16:30:28Z</time>
    </trkpt>
    <trkpt lat="50.9657261" lon="6.8683366">
      <time>2020-10-25T16:30:36Z</time>
    </trkpt>
    <trkpt lat="50.9655347" lon="6.8683111">
      <time>2020-10-25T16:30:43Z</time>
    </trkpt>
    <trkpt lat="50.9655114" lon="6.8683020">
      <time>2020-10-25T16:30:44Z</time>
    </trkpt>
    <trkpt lat="50.9653277" lon="6.8682411">
      <time>2020-10-25T16:30:52Z</time>
    </trkpt>
    <trkpt lat="50.9653034" lon="6.8682321">
      <time>2020-10-25T16:30:53Z</time>
    </trkpt>
    <trkpt lat="50.9651096" lon="6.8681655">
      <time>2020-10-25T16:31:02Z</time>
    </trkpt>
    <trkpt lat="50.9650505" lon="6.8681662">
      <time>2020-10-25T16:31:04Z</time>
    </trkpt>
    <trkpt lat="50.9648542" lon="6.8681007">
      <time>2020-10-25T16:31:12Z</time>
    </trkpt>
    <trkpt lat="50.9648016" lon="6.8680924">
      <time>2020-10-25T16:31:14Z</time>
    </trkpt>
    <trkpt lat="50.9646563" lon="6.8680661">
      <time>2020-10-25T16:31:20Z</time>
    </trkpt>
    <trkpt lat="50.9645065" lon="6.8679977">
      <time>2020-10-25T16:31:26Z</time>
    </trkpt>
    <trkpt lat="50.9643626" lon="6.8679171">
      <time>2020-10-25T16:31:31Z</time>
    </trkpt>
    <trkpt lat="50.9642922" lon="6.8679233">
      <time>2020-10-25T16:31:34Z</time>
    </trkpt>
    <trkpt lat="50.9642809" lon="6.8679399">
      <time>2020-10-25T16:31:35Z</time>
    </trkpt>
    <trkpt lat="50.9642752" lon="6.8679707">
      <time>2020-10-25T16:31:36Z</time>
    </trkpt>
    <trkpt lat="50.9642985" lon="6.8681040">
      <time>2020-10-25T16:31:39Z</time>
    </trkpt>
    <trkpt lat="50.9643049" lon="6.8683116">
      <time>2020-10-25T16:31:44Z</time>
    </trkpt>
    <trkpt lat="50.9643101" lon="6.8685405">
      <time>2020-10-25T16:31:49Z</time>
    </trkpt>
    <trkpt lat="50.9642745" lon="6.8687645">
      <time>2020-10-25T16:31:54Z</time>
    </trkpt>
    <trkpt lat="50.9642336" lon="6.8690714">
      <time>2020-10-25T16:32:00Z</time>
    </trkpt>
    <trkpt lat="50.9642259" lon="6.8691098">
      <time>2020-10-25T16:32:01Z</time>
    </trkpt>
    <trkpt lat="50.9641781" lon="6.8693680">
      <time>2020-10-25T16:32:09Z</time>
    </trkpt>
    <trkpt lat="50.9641006" lon="6.8695445">
      <time>2020-10-25T16:32:16Z</time>
    </trkpt>
    <trkpt lat="50.9639634" lon="6.8695537">
      <time>2020-10-25T16:32:22Z</time>
    </trkpt>
    <trkpt lat="50.9637788" lon="6.8695254">
      <time>2020-10-25T16:32:30Z</time>
    </trkpt>
    <trkpt lat="50.9637582" lon="6.8695189">
      <time>2020-10-25T16:32:31Z</time>
    </trkpt>
    <trkpt lat="50.9636218" lon="6.8695219">
      <time>2020-10-25T16:32:37Z</time>
    </trkpt>
    <trkpt lat="50.9634906" lon="6.8695389">
      <time>2020-10-25T16:32:42Z</time>
    </trkpt>
    <trkpt lat="50.9632970" lon="6.8695332">
      <time>2020-10-25T16:32:49Z</time>
    </trkpt>
    <trkpt lat="50.9631106" lon="6.8695643">
      <time>2020-10-25T16:32:57Z</time>
    </trkpt>
    <trkpt lat="50.9630712" lon="6.8695628">
      <time>2020-10-25T16:32:59Z</time>
    </trkpt>
    <trkpt lat="50.9629252" lon="6.8695769">
      <time>2020-10-25T16:33:07Z</time>
    </trkpt>
    <trkpt lat="50.9627434" lon="6.8695937">
      <time>2020-10-25T16:33:16Z</time>
    </trkpt>
    <trkpt lat="50.9625637" lon="6.8696198">
      <time>2020-10-25T16:33:25Z</time>
    </trkpt>
    <trkpt lat="50.9623721" lon="6.8696429">
      <time>2020-10-25T16:33:33Z</time>
    </trkpt>
    <trkpt lat="50.9622231" lon="6.8696560">
      <time>2020-10-25T16:33:40Z</time>
    </trkpt>
    <trkpt lat="50.9620354" lon="6.8696860">
      <time>2020-10-25T16:33:48Z</time>
    </trkpt>
    <trkpt lat="50.9620113" lon="6.8696886">
      <time>2020-10-25T16:33:49Z</time>
    </trkpt>
    <trkpt lat="50.9619024" lon="6.8697125">
      <time>2020-10-25T16:33:55Z</time>
    </trkpt>
    <trkpt lat="50.9617212" lon="6.8697824">
      <time>2020-10-25T16:34:02Z</time>
    </trkpt>
    <trkpt lat="50.9616720" lon="6.8697952">
      <time>2020-10-25T16:34:04Z</time>
    </trkpt>
    <trkpt lat="50.9614861" lon="6.8698446">
      <time>2020-10-25T16:34:12Z</time>
    </trkpt>
    <trkpt lat="50.9612838" lon="6.8699161">
      <time>2020-10-25T16:34:20Z</time>
    </trkpt>
    <trkpt lat="50.9610883" lon="6.8699926">
      <time>2020-10-25T16:34:28Z</time>
    </trkpt>
    <trkpt lat="50.9609238" lon="6.8700613">
      <time>2020-10-25T16:34:35Z</time>
    </trkpt>
    <trkpt lat="50.9608167" lon="6.8700987">
      <time>2020-10-25T16:34:41Z</time>
    </trkpt>
    <trkpt lat="50.9606351" lon="6.8701729">
      <time>2020-10-25T16:34:48Z</time>
    </trkpt>
    <trkpt lat="50.9605657" lon="6.8701813">
      <time>2020-10-25T16:34:51Z</time>
    </trkpt>
    <trkpt lat="50.9604223" lon="6.8701940">
      <time>2020-10-25T16:34:58Z</time>
    </trkpt>
    <trkpt lat="50.9602734" lon="6.8702200">
      <time>2020-10-25T16:35:05Z</time>
    </trkpt>
    <trkpt lat="50.9601597" lon="6.8702424">
      <time>2020-10-25T16:35:11Z</time>
    </trkpt>
    <trkpt lat="50.9599686" lon="6.8702844">
      <time>2020-10-25T16:35:19Z</time>
    </trkpt>
    <trkpt lat="50.9599158" lon="6.8703031">
      <time>2020-10-25T16:35:21Z</time>
    </trkpt>
    <trkpt lat="50.9598840" lon="6.8703133">
      <time>2020-10-25T16:35:23Z</time>
    </trkpt>
    <trkpt lat="50.9598705" lon="6.8703060">
      <time>2020-10-25T16:35:24Z</time>
    </trkpt>
    <trkpt lat="50.9598370" lon="6.8703046">
      <time>2020-10-25T16:35:25Z</time>
    </trkpt>
    <trkpt lat="50.9596513" lon="6.8703330">
      <time>2020-10-25T16:35:33Z</time>
    </trkpt>
    <trkpt lat="50.9595468" lon="6.8704203">
      <time>2020-10-25T16:35:39Z</time>
    </trkpt>
    <trkpt lat="50.9595244" lon="6.8704398">
      <time>2020-10-25T16:35:40Z</time>
    </trkpt>
    <trkpt lat="50.9594269" lon="6.8705383">
      <time>2020-10-25T16:35:44Z</time>
    </trkpt>
    <trkpt lat="50.9593615" lon="6.8706268">
      <time>2020-10-25T16:35:48Z</time>
    </trkpt>
    <trkpt lat="50.9593551" lon="6.8706512">
      <time>2020-10-25T16:35:49Z</time>
    </trkpt>
    <trkpt lat="50.9593531" lon="6.8707938">
      <time>2020-10-25T16:35:54Z</time>
    </trkpt>
    <trkpt lat="50.9594021" lon="6.8710304">
      <time>2020-10-25T16:36:01Z</time>
    </trkpt>
    <trkpt lat="50.9594321" lon="6.8711847">
      <time>2020-10-25T16:36:05Z</time>
    </trkpt>
    <trkpt lat="50.9594577" lon="6.8712634">
      <time>2020-10-25T16:36:07Z</time>
    </trkpt>
    <trkpt lat="50.9595344" lon="6.8714961">
      <time>2020-10-25T16:36:14Z</time>
    </trkpt>
    <trkpt lat="50.9596083" lon="6.8718023">
      <time>2020-10-25T16:36:22Z</time>
    </trkpt>
    <trkpt lat="50.9596216" lon="6.8720581">
      <time>2020-10-25T16:36:28Z</time>
    </trkpt>
    <trkpt lat="50.9596639" lon="6.8723766">
      <time>2020-10-25T16:36:37Z</time>
    </trkpt>
    <trkpt lat="50.9596897" lon="6.8725185">
      <time>2020-10-25T16:36:41Z</time>
    </trkpt>
    <trkpt lat="50.9597043" lon="6.8726033">
      <time>2020-10-25T16:36:43Z</time>
    </trkpt>
    <trkpt lat="50.9597160" lon="6.8726723">
      <time>2020-10-25T16:36:45Z</time>
    </trkpt>
    <trkpt lat="50.9597615" lon="6.8728682">
      <time>2020-10-25T16:36:52Z</time>
    </trkpt>
    <trkpt lat="50.9598005" lon="6.8730157">
      <time>2020-10-25T16:36:57Z</time>
    </trkpt>
    <trkpt lat="50.9598056" lon="6.8732304">
      <time>2020-10-25T16:37:04Z</time>
    </trkpt>
    <trkpt lat="50.9598262" lon="6.8733177">
      <time>2020-10-25T16:37:07Z</time>
    </trkpt>
    <trkpt lat="50.9598496" lon="6.8736188">
      <time>2020-10-25T16:37:15Z</time>
    </trkpt>
    <trkpt lat="50.9598475" lon="6.8738330">
      <time>2020-10-25T16:37:21Z</time>
    </trkpt>
    <trkpt lat="50.9598428" lon="6.8738995">
      <time>2020-10-25T16:37:23Z</time>
    </trkpt>
    <trkpt lat="50.9598367" lon="6.8740096">
      <time>2020-10-25T16:37:26Z</time>
    </trkpt>
    <trkpt lat="50.9598238" lon="6.8742442">
      <time>2020-10-25T16:37:32Z</time>
    </trkpt>
    <trkpt lat="50.9598028" lon="6.8745528">
      <time>2020-10-25T16:37:40Z</time>
    </trkpt>
    <trkpt lat="50.9597999" lon="6.8745938">
      <time>2020-10-25T16:37:41Z</time>
    </trkpt>
    <trkpt lat="50.9597910" lon="6.8747754">
      <time>2020-10-25T16:37:45Z</time>
    </trkpt>
    <trkpt lat="50.9597943" lon="6.8749406">
      <time>2020-10-25T16:37:49Z</time>
    </trkpt>
    <trkpt lat="50.9597832" lon="6.8751290">
      <time>2020-10-25T16:37:54Z</time>
    </trkpt>
    <trkpt lat="50.9597760" lon="6.8751942">
      <time>2020-10-25T16:37:56Z</time>
    </trkpt>
    <trkpt lat="50.9597642" lon="6.8755014">
      <time>2020-10-25T16:38:04Z</time>
    </trkpt>
    <trkpt lat="50.9597625" lon="6.8755377">
      <time>2020-10-25T16:38:05Z</time>
    </trkpt>
    <trkpt lat="50.9597823" lon="6.8758412">
      <time>2020-10-25T16:38:13Z</time>
    </trkpt>
    <trkpt lat="50.9597906" lon="6.8758761">
      <time>2020-10-25T16:38:14Z</time>
    </trkpt>
    <trkpt lat="50.9598148" lon="6.8760663">
      <time>2020-10-25T16:38:19Z</time>
    </trkpt>
    <trkpt lat="50.9598280" lon="6.8761813">
      <time>2020-10-25T16:38:22Z</time>
    </trkpt>
    <trkpt lat="50.9598541" lon="6.8764768">
      <time>2020-10-25T16:38:29Z</time>
    </trkpt>
    <trkpt lat="50.9598654" lon="6.8765188">
      <time>2020-10-25T16:38:30Z</time>
    </trkpt>
    <trkpt lat="50.9598892" lon="6.8767890">
      <time>2020-10-25T16:38:37Z</time>
    </trkpt>
    <trkpt lat="50.9598645" lon="6.8770153">
      <time>2020-10-25T16:38:43Z</time>
    </trkpt>
    <trkpt lat="50.9598754" lon="6.8772309">
      <time>2020-10-25T16:38:49Z</time>
    </trkpt>
    <trkpt lat="50.9599247" lon="6.8774615">
      <time>2020-10-25T16:38:55Z</time>
    </trkpt>
    <trkpt lat="50.9598787" lon="6.8777179">
      <time>2020-10-25T16:39:01Z</time>
    </trkpt>
    <trkpt lat="50.9598010" lon="6.8779918">
      <time>2020-10-25T16:39:08Z</time>
    </trkpt>
    <trkpt lat="50.9597814" lon="6.8780693">
      <time>2020-10-25T16:39:10Z</time>
    </trkpt>
    <trkpt lat="50.9597394" lon="6.8783112">
      <time>2020-10-25T16:39:17Z</time>
    </trkpt>
    <trkpt lat="50.9597312" lon="6.8784924">
      <time>2020-10-25T16:39:24Z</time>
    </trkpt>
    <trkpt lat="50.9597072" lon="6.8786531">
      <time>2020-10-25T16:39:29Z</time>
    </trkpt>
    <trkpt lat="50.9597103" lon="6.8788557">
      <time>2020-10-25T16:39:35Z</time>
    </trkpt>
    <trkpt lat="50.9597267" lon="6.8791487">
      <time>2020-10-25T16:39:42Z</time>
    </trkpt>
    <trkpt lat="50.9597274" lon="6.8792437">
      <time>2020-10-25T16:39:45Z</time>
    </trkpt>
    <trkpt lat="50.9597194" lon="6.8794474">
      <time>2020-10-25T16:39:51Z</time>
    </trkpt>
    <trkpt lat="50.9597141" lon="6.8797083">
      <time>2020-10-25T16:39:58Z</time>
    </trkpt>
    <trkpt lat="50.9597095" lon="6.8799969">
      <time>2020-10-25T16:40:06Z</time>
    </trkpt>
    <trkpt lat="50.9597069" lon="6.8800759">
      <time>2020-10-25T16:40:08Z</time>
    </trkpt>
    <trkpt lat="50.9596914" lon="6.8803629">
      <time>2020-10-25T16:40:15Z</time>
    </trkpt>
    <trkpt lat="50.9596876" lon="6.8804040">
      <time>2020-10-25T16:40:16Z</time>
    </trkpt>
    <trkpt lat="50.9596844" lon="6.8807085">
      <time>2020-10-25T16:40:23Z</time>
    </trkpt>
    <trkpt lat="50.9596816" lon="6.8807461">
      <time>2020-10-25T16:40:24Z</time>
    </trkpt>
    <trkpt lat="50.9596661" lon="6.8809756">
      <time>2020-10-25T16:40:30Z</time>
    </trkpt>
    <trkpt lat="50.9596487" lon="6.8812487">
      <time>2020-10-25T16:40:37Z</time>
    </trkpt>
    <trkpt lat="50.9596452" lon="6.8815456">
      <time>2020-10-25T16:40:45Z</time>
    </trkpt>
    <trkpt lat="50.9596466" lon="6.8815843">
      <time>2020-10-25T16:40:46Z</time>
    </trkpt>
    <trkpt lat="50.9596466" lon="6.8819036">
      <time>2020-10-25T16:40:54Z</time>
    </trkpt>
    <trkpt lat="50.9596352" lon="6.8820977">
      <time>2020-10-25T16:41:00Z</time>
    </trkpt>
    <trkpt lat="50.9596432" lon="6.8822475">
      <time>2020-10-25T16:41:05Z</time>
    </trkpt>
    <trkpt lat="50.9596686" lon="6.8822654">
      <time>2020-10-25T16:41:07Z</time>
    </trkpt>
    <trkpt lat="50.9597195" lon="6.8822972">
      <time>2020-10-25T16:41:10Z</time>
    </trkpt>
    <trkpt lat="50.9598723" lon="6.8823053">
      <time>2020-10-25T16:41:16Z</time>
    </trkpt>
    <trkpt lat="50.9600382" lon="6.8823718">
      <time>2020-10-25T16:41:23Z</time>
    </trkpt>
    <trkpt lat="50.9601752" lon="6.8823710">
      <time>2020-10-25T16:41:30Z</time>
    </trkpt>
    <trkpt lat="50.9602986" lon="6.8823487">
      <time>2020-10-25T16:41:36Z</time>
    </trkpt>
    <trkpt lat="50.9603936" lon="6.8822100">
      <time>2020-10-25T16:41:42Z</time>
    </trkpt>
    <trkpt lat="50.9603968" lon="6.8819630">
      <time>2020-10-25T16:41:49Z</time>
    </trkpt>
    <trkpt lat="50.9603953" lon="6.8816836">
      <time>2020-10-25T16:41:57Z</time>
    </trkpt>
    <trkpt lat="50.9603928" lon="6.8814092">
      <time>2020-10-25T16:42:04Z</time>
    </trkpt>
    <trkpt lat="50.9604003" lon="6.8813047">
      <time>2020-10-25T16:42:07Z</time>
    </trkpt>
    <trkpt lat="50.9604040" lon="6.8811581">
      <time>2020-10-25T16:42:11Z</time>
    </trkpt>
    <trkpt lat="50.9604162" lon="6.8808763">
      <time>2020-10-25T16:42:19Z</time>
    </trkpt>
    <trkpt lat="50.9604169" lon="6.8805688">
      <time>2020-10-25T16:42:27Z</time>
    </trkpt>
    <trkpt lat="50.9604213" lon="6.8804933">
      <time>2020-10-25T16:42:29Z</time>
    </trkpt>
    <trkpt lat="50.9604266" lon="6.8802629">
      <time>2020-10-25T16:42:35Z</time>
    </trkpt>
    <trkpt lat="50.9604226" lon="6.8799628">
      <time>2020-10-25T16:42:43Z</time>
    </trkpt>
    <trkpt lat="50.9604090" lon="6.8796821">
      <time>2020-10-25T16:42:50Z</time>
    </trkpt>
    <trkpt lat="50.9604267" lon="6.8794756">
      <time>2020-10-25T16:42:55Z</time>
    </trkpt>
    <trkpt lat="50.9604584" lon="6.8793410">
      <time>2020-10-25T16:42:59Z</time>
    </trkpt>
    <trkpt lat="50.9605508" lon="6.8792316">
      <time>2020-10-25T16:43:04Z</time>
    </trkpt>
    <trkpt lat="50.9606510" lon="6.8790755">
      <time>2020-10-25T16:43:10Z</time>
    </trkpt>
    <trkpt lat="50.9607914" lon="6.8789046">
      <time>2020-10-25T16:43:16Z</time>
    </trkpt>
    <trkpt lat="50.9608542" lon="6.8788542">
      <time>2020-10-25T16:43:19Z</time>
    </trkpt>
    <trkpt lat="50.9608625" lon="6.8788787">
      <time>2020-10-25T16:43:20Z</time>
    </trkpt>
    <trkpt lat="50.9608261" lon="6.8790623">
      <time>2020-10-25T16:43:25Z</time>
    </trkpt>
    <trkpt lat="50.9607676" lon="6.8792917">
      <time>2020-10-25T16:43:32Z</time>
    </trkpt>
    <trkpt lat="50.9607588" lon="6.8795429">
      <time>2020-10-25T16:43:39Z</time>
    </trkpt>
    <trkpt lat="50.9608127" lon="6.8797773">
      <time>2020-10-25T16:43:45Z</time>
    </trkpt>
    <trkpt lat="50.9608774" lon="6.8800670">
      <time>2020-10-25T16:43:53Z</time>
    </trkpt>
    <trkpt lat="50.9608843" lon="6.8801068">
      <time>2020-10-25T16:43:54Z</time>
    </trkpt>
    <trkpt lat="50.9609590" lon="6.8803492">
      <time>2020-10-25T16:44:01Z</time>
    </trkpt>
    <trkpt lat="50.9610077" lon="6.8805247">
      <time>2020-10-25T16:44:06Z</time>
    </trkpt>
    <trkpt lat="50.9610142" lon="6.8805620">
      <time>2020-10-25T16:44:07Z</time>
    </trkpt>
    <trkpt lat="50.9610539" lon="6.8807388">
      <time>2020-10-25T16:44:12Z</time>
    </trkpt>
    <trkpt lat="50.9611335" lon="6.8810346">
      <time>2020-10-25T16:44:20Z</time>
    </trkpt>
    <trkpt lat="50.9611465" lon="6.8810719">
      <time>2020-10-25T16:44:21Z</time>
    </trkpt>
    <trkpt lat="50.9612250" lon="6.8813454">
      <time>2020-10-25T16:44:28Z</time>
    </trkpt>
    <trkpt lat="50.9612457" lon="6.8814254">
      <time>2020-10-25T16:44:30Z</time>
    </trkpt>
    <trkpt lat="50.9613235" lon="6.8816940">
      <time>2020-10-25T16:44:37Z</time>
    </trkpt>
    <trkpt lat="50.9613371" lon="6.8817340">
      <time>2020-10-25T16:44:38Z</time>
    </trkpt>
    <trkpt lat="50.9614125" lon="6.8820048">
      <time>2020-10-25T16:44:45Z</time>
    </trkpt>
    <trkpt lat="50.9614178" lon="6.8820317">
      <time>2020-10-25T16:44:46Z</time>
    </trkpt>
    <trkpt lat="50.9614659" lon="6.8822431">
      <time>2020-10-25T16:44:53Z</time>
    </trkpt>
    <trkpt lat="50.9615416" lon="6.8824887">
      <time>2020-10-25T16:45:00Z</time>
    </trkpt>
    <trkpt lat="50.9615814" lon="6.8826724">
      <time>2020-10-25T16:45:06Z</time>
    </trkpt>
    <trkpt lat="50.9616052" lon="6.8827362">
      <time>2020-10-25T16:45:08Z</time>
    </trkpt>
    <trkpt lat="50.9616980" lon="6.8829950">
      <time>2020-10-25T16:45:16Z</time>
    </trkpt>
    <trkpt lat="50.9617642" lon="6.8832667">
      <time>2020-10-25T16:45:25Z</time>
    </trkpt>
    <trkpt lat="50.9618124" lon="6.8834697">
      <time>2020-10-25T16:45:32Z</time>
    </trkpt>
    <trkpt lat="50.9618966" lon="6.8836887">
      <time>2020-10-25T16:45:38Z</time>
    </trkpt>
    <trkpt lat="50.9619413" lon="6.8838522">
      <time>2020-10-25T16:45:43Z</time>
    </trkpt>
    <trkpt lat="50.9619447" lon="6.8838844">
      <time>2020-10-25T16:45:44Z</time>
    </trkpt>
    <trkpt lat="50.9619746" lon="6.8840463">
      <time>2020-10-25T16:45:49Z</time>
    </trkpt>
    <trkpt lat="50.9620125" lon="6.8841912">
      <time>2020-10-25T16:45:54Z</time>
    </trkpt>
    <trkpt lat="50.9620404" lon="6.8842265">
      <time>2020-10-25T16:45:56Z</time>
    </trkpt>
    <trkpt lat="50.9620597" lon="6.8841963">
      <time>2020-10-25T16:45:58Z</time>
    </trkpt>
    <trkpt lat="50.9620919" lon="6.8839971">
      <time>2020-10-25T16:46:04Z</time>
    </trkpt>
    <trkpt lat="50.9621123" lon="6.8837720">
      <time>2020-10-25T16:46:10Z</time>
    </trkpt>
    <trkpt lat="50.9621543" lon="6.8834629">
      <time>2020-10-25T16:46:18Z</time>
    </trkpt>
    <trkpt lat="50.9621674" lon="6.8833916">
      <time>2020-10-25T16:46:20Z</time>
    </trkpt>
    <trkpt lat="50.9622026" lon="6.8831687">
      <time>2020-10-25T16:46:27Z</time>
    </trkpt>
    <trkpt lat="50.9622288" lon="6.8828627">
      <time>2020-10-25T16:46:35Z</time>
    </trkpt>
    <trkpt lat="50.9622667" lon="6.8825684">
      <time>2020-10-25T16:46:43Z</time>
    </trkpt>
    <trkpt lat="50.9623124" lon="6.8823302">
      <time>2020-10-25T16:46:50Z</time>
    </trkpt>
    <trkpt lat="50.9623405" lon="6.8820755">
      <time>2020-10-25T16:46:57Z</time>
    </trkpt>
    <trkpt lat="50.9623836" lon="6.8817859">
      <time>2020-10-25T16:47:05Z</time>
    </trkpt>
    <trkpt lat="50.9623977" lon="6.8817112">
      <time>2020-10-25T16:47:07Z</time>
    </trkpt>
    <trkpt lat="50.9624528" lon="6.8814438">
      <time>2020-10-25T16:47:15Z</time>
    </trkpt>
    <trkpt lat="50.9625126" lon="6.8811721">
      <time>2020-10-25T16:47:23Z</time>
    </trkpt>
    <trkpt lat="50.9625183" lon="6.8811356">
      <time>2020-10-25T16:47:24Z</time>
    </trkpt>
    <trkpt lat="50.9625600" lon="6.8808564">
      <time>2020-10-25T16:47:32Z</time>
    </trkpt>
    <trkpt lat="50.9625644" lon="6.8808213">
      <time>2020-10-25T16:47:33Z</time>
    </trkpt>
    <trkpt lat="50.9625902" lon="6.8805645">
      <time>2020-10-25T16:47:40Z</time>
    </trkpt>
    <trkpt lat="50.9626378" lon="6.8802808">
      <time>2020-10-25T16:47:49Z</time>
    </trkpt>
    <trkpt lat="50.9626416" lon="6.8802272">
      <time>2020-10-25T16:47:51Z</time>
    </trkpt>
    <trkpt lat="50.9626831" lon="6.8799632">
      <time>2020-10-25T16:47:59Z</time>
    </trkpt>
    <trkpt lat="50.9627127" lon="6.8797966">
      <time>2020-10-25T16:48:04Z</time>
    </trkpt>
    <trkpt lat="50.9627189" lon="6.8797453">
      <time>2020-10-25T16:48:06Z</time>
    </trkpt>
    <trkpt lat="50.9627591" lon="6.8794578">
      <time>2020-10-25T16:48:15Z</time>
    </trkpt>
    <trkpt lat="50.9627873" lon="6.8791829">
      <time>2020-10-25T16:48:23Z</time>
    </trkpt>
    <trkpt lat="50.9628423" lon="6.8789864">
      <time>2020-10-25T16:48:31Z</time>
    </trkpt>
    <trkpt lat="50.9629083" lon="6.8788152">
      <time>2020-10-25T16:48:38Z</time>
    </trkpt>
    <trkpt lat="50.9629972" lon="6.8786799">
      <time>2020-10-25T16:48:45Z</time>
    </trkpt>
    <trkpt lat="50.9630962" lon="6.8785874">
      <time>2020-10-25T16:48:52Z</time>
    </trkpt>
    <trkpt lat="50.9631487" lon="6.8785274">
      <time>2020-10-25T16:48:55Z</time>
    </trkpt>
    <trkpt lat="50.9632027" lon="6.8784445">
      <time>2020-10-25T16:48:59Z</time>
    </trkpt>
    <trkpt lat="50.9633263" lon="6.8782824">
      <time>2020-10-25T16:49:05Z</time>
    </trkpt>
    <trkpt lat="50.9634702" lon="6.8782062">
      <time>2020-10-25T16:49:11Z</time>
    </trkpt>
    <trkpt lat="50.9635951" lon="6.8781137">
      <time>2020-10-25T16:49:18Z</time>
    </trkpt>
    <trkpt lat="50.9636906" lon="6.8779799">
      <time>2020-10-25T16:49:24Z</time>
    </trkpt>
    <trkpt lat="50.9637959" lon="6.8778127">
      <time>2020-10-25T16:49:31Z</time>
    </trkpt>
    <trkpt lat="50.9638928" lon="6.8775517">
      <time>2020-10-25T16:49:39Z</time>
    </trkpt>
    <trkpt lat="50.9639962" lon="6.8772855">
      <time>2020-10-25T16:49:47Z</time>
    </trkpt>
    <trkpt lat="50.9640753" lon="6.8770153">
      <time>2020-10-25T16:49:55Z</time>
    </trkpt>
    <trkpt lat="50.9641295" lon="6.8767553">
      <time>2020-10-25T16:50:02Z</time>
    </trkpt>
    <trkpt lat="50.9641789" lon="6.8765577">
      <time>2020-10-25T16:50:08Z</time>
    </trkpt>
    <trkpt lat="50.9641829" lon="6.8764890">
      <time>2020-10-25T16:50:10Z</time>
    </trkpt>
    <trkpt lat="50.9641339" lon="6.8762658">
      <time>2020-10-25T16:50:16Z</time>
    </trkpt>
    <trkpt lat="50.9640630" lon="6.8761430">
      <time>2020-10-25T16:50:21Z</time>
    </trkpt>
    <trkpt lat="50.9640170" lon="6.8761371">
      <time>2020-10-25T16:50:23Z</time>
    </trkpt>
    <trkpt lat="50.9639429" lon="6.8761481">
      <time>2020-10-25T16:50:26Z</time>
    </trkpt>
    <trkpt lat="50.9639012" lon="6.8761181">
      <time>2020-10-25T16:50:28Z</time>
    </trkpt>
    <trkpt lat="50.9637777" lon="6.8760208">
      <time>2020-10-25T16:50:34Z</time>
    </trkpt>
    <trkpt lat="50.9636464" lon="6.8759801">
      <time>2020-10-25T16:50:40Z</time>
    </trkpt>
    <trkpt lat="50.9635419" lon="6.8759935">
      <time>2020-10-25T16:50:43Z</time>
    </trkpt>
    <trkpt lat="50.9634766" lon="6.8759933">
      <time>2020-10-25T16:50:46Z</time>
    </trkpt>
    <trkpt lat="50.9634616" lon="6.8759869">
      <time>2020-10-25T16:50:47Z</time>
    </trkpt>
    <trkpt lat="50.9634214" lon="6.8759339">
      <time>2020-10-25T16:50:52Z</time>
    </trkpt>
  </trkseg></trk>
</gpx>
