<?xml version="1.0" encoding="UTF-8"?>
<gpx version="1.1" creator="Diary FIT converter" xmlns="http://www.topografix.com/GPX/1/1">
  <trk><name>Cycling</name><trkseg>
    <trkpt lat="50.9197324" lon="6.9776062">
      <time>2024-03-02T16:32:45Z</time>
    </trkpt>
    <trkpt lat="50.9197334" lon="6.9775249">
      <time>2024-03-02T16:32:46Z</time>
    </trkpt>
    <trkpt lat="50.9197959" lon="6.9774483">
      <time>2024-03-02T16:32:48Z</time>
    </trkpt>
    <trkpt lat="50.9198438" lon="6.9774182">
      <time>2024-03-02T16:32:49Z</time>
    </trkpt>
    <trkpt lat="50.9199054" lon="6.9773734">
      <time>2024-03-02T16:32:50Z</time>
    </trkpt>
    <trkpt lat="50.9199711" lon="6.9773241">
      <time>2024-03-02T16:32:51Z</time>
    </trkpt>
    <trkpt lat="50.9200983" lon="6.9772405">
      <time>2024-03-02T16:32:53Z</time>
    </trkpt>
    <trkpt lat="50.9202316" lon="6.9771415">
      <time>2024-03-02T16:32:55Z</time>
    </trkpt>
    <trkpt lat="50.9204685" lon="6.9769406">
      <time>2024-03-02T16:32:59Z</time>
    </trkpt>
    <trkpt lat="50.9205326" lon="6.9769032">
      <time>2024-03-02T16:33:00Z</time>
    </trkpt>
    <trkpt lat="50.9210233" lon="6.9765615">
      <time>2024-03-02T16:33:08Z</time>
    </trkpt>
    <trkpt lat="50.9211580" lon="6.9764506">
      <time>2024-03-02T16:33:10Z</time>
    </trkpt>
    <trkpt lat="50.9213984" lon="6.9762715">
      <time>2024-03-02T16:33:14Z</time>
    </trkpt>
    <trkpt lat="50.9217157" lon="6.9760149">
      <time>2024-03-02T16:33:19Z</time>
    </trkpt>
    <trkpt lat="50.9220340" lon="6.9757462">
      <time>2024-03-02T16:33:24Z</time>
    </trkpt>
    <trkpt lat="50.9220987" lon="6.9757064">
      <time>2024-03-02T16:33:25Z</time>
    </trkpt>
    <trkpt lat="50.9224822" lon="6.9754834">
      <time>2024-03-02T16:33:31Z</time>
    </trkpt>
    <trkpt lat="50.9225437" lon="6.9754396">
      <time>2024-03-02T16:33:32Z</time>
    </trkpt>
    <trkpt lat="50.9227720" lon="6.9752617">
      <time>2024-03-02T16:33:36Z</time>
    </trkpt>
    <trkpt lat="50.9229090" lon="6.9751920">
      <time>2024-03-02T16:33:38Z</time>
    </trkpt>
    <trkpt lat="50.9233977" lon="6.9748654">
      <time>2024-03-02T16:33:46Z</time>
    </trkpt>
    <trkpt lat="50.9237039" lon="6.9746816">
      <time>2024-03-02T16:33:51Z</time>
    </trkpt>
    <trkpt lat="50.9238107" lon="6.9746090">
      <time>2024-03-02T16:33:53Z</time>
    </trkpt>
    <trkpt lat="50.9238699" lon="6.9745740">
      <time>2024-03-02T16:33:54Z</time>
    </trkpt>
    <trkpt lat="50.9243956" lon="6.9742582">
      <time>2024-03-02T16:34:03Z</time>
    </trkpt>
    <trkpt lat="50.9244526" lon="6.9742232">
      <time>2024-03-02T16:34:04Z</time>
    </trkpt>
    <trkpt lat="50.9246839" lon="6.9740801">
      <time>2024-03-02T16:34:08Z</time>
    </trkpt>
    <trkpt lat="50.9248638" lon="6.9739868">
      <time>2024-03-02T16:34:11Z</time>
    </trkpt>
    <trkpt lat="50.9249204" lon="6.9739527">
      <time>2024-03-02T16:34:12Z</time>
    </trkpt>
    <trkpt lat="50.9250923" lon="6.9738242">
      <time>2024-03-02T16:34:15Z</time>
    </trkpt>
    <trkpt lat="50.9251523" lon="6.9737864">
      <time>2024-03-02T16:34:16Z</time>
    </trkpt>
    <trkpt lat="50.9252694" lon="6.9737185">
      <time>2024-03-02T16:34:18Z</time>
    </trkpt>
    <trkpt lat="50.9253940" lon="6.9736620">
      <time>2024-03-02T16:34:20Z</time>
    </trkpt>
    <trkpt lat="50.9254574" lon="6.9736364">
      <time>2024-03-02T16:34:21Z</time>
    </trkpt>
    <trkpt lat="50.9257045" lon="6.9735132">
      <time>2024-03-02T16:34:25Z</time>
    </trkpt>
    <trkpt lat="50.9260272" lon="6.9733174">
      <time>2024-03-02T16:34:30Z</time>
    </trkpt>
    <trkpt lat="50.9264057" lon="6.9731290">
      <time>2024-03-02T16:34:36Z</time>
    </trkpt>
    <trkpt lat="50.9265235" lon="6.9730551">
      <time>2024-03-02T16:34:38Z</time>
    </trkpt>
    <trkpt lat="50.9269295" lon="6.9728352">
      <time>2024-03-02T16:34:45Z</time>
    </trkpt>
    <trkpt lat="50.9274194" lon="6.9726171">
      <time>2024-03-02T16:34:53Z</time>
    </trkpt>
    <trkpt lat="50.9275492" lon="6.9726447">
      <time>2024-03-02T16:34:55Z</time>
    </trkpt>
    <trkpt lat="50.9276056" lon="6.9726918">
      <time>2024-03-02T16:34:56Z</time>
    </trkpt>
    <trkpt lat="50.9276450" lon="6.9727597">
      <time>2024-03-02T16:34:57Z</time>
    </trkpt>
    <trkpt lat="50.9277014" lon="6.9729084">
      <time>2024-03-02T16:34:59Z</time>
    </trkpt>
    <trkpt lat="50.9278930" lon="6.9733930">
      <time>2024-03-02T16:35:05Z</time>
    </trkpt>
    <trkpt lat="50.9279564" lon="6.9735535">
      <time>2024-03-02T16:35:07Z</time>
    </trkpt>
    <trkpt lat="50.9280780" lon="6.9738223">
      <time>2024-03-02T16:35:11Z</time>
    </trkpt>
    <trkpt lat="50.9281444" lon="6.9738499">
      <time>2024-03-02T16:35:13Z</time>
    </trkpt>
    <trkpt lat="50.9281831" lon="6.9738282">
      <time>2024-03-02T16:35:14Z</time>
    </trkpt>
    <trkpt lat="50.9283052" lon="6.9737246">
      <time>2024-03-02T16:35:17Z</time>
    </trkpt>
    <trkpt lat="50.9284323" lon="6.9736098">
      <time>2024-03-02T16:35:20Z</time>
    </trkpt>
    <trkpt lat="50.9286667" lon="6.9733984">
      <time>2024-03-02T16:35:25Z</time>
    </trkpt>
    <trkpt lat="50.9287135" lon="6.9733545">
      <time>2024-03-02T16:35:26Z</time>
    </trkpt>
    <trkpt lat="50.9289187" lon="6.9731805">
      <time>2024-03-02T16:35:30Z</time>
    </trkpt>
    <trkpt lat="50.9290203" lon="6.9730809">
      <time>2024-03-02T16:35:32Z</time>
    </trkpt>
    <trkpt lat="50.9290681" lon="6.9730424">
      <time>2024-03-02T16:35:33Z</time>
    </trkpt>
    <trkpt lat="50.9292087" lon="6.9729260">
      <time>2024-03-02T16:35:35Z</time>
    </trkpt>
    <trkpt lat="50.9295647" lon="6.9726609">
      <time>2024-03-02T16:35:40Z</time>
    </trkpt>
    <trkpt lat="50.9299874" lon="6.9723157">
      <time>2024-03-02T16:35:46Z</time>
    </trkpt>
    <trkpt lat="50.9301153" lon="6.9722062">
      <time>2024-03-02T16:35:48Z</time>
    </trkpt>
    <trkpt lat="50.9301821" lon="6.9721521">
      <time>2024-03-02T16:35:49Z</time>
    </trkpt>
    <trkpt lat="50.9303175" lon="6.9720462">
      <time>2024-03-02T16:35:51Z</time>
    </trkpt>
    <trkpt lat="50.9304515" lon="6.9719369">
      <time>2024-03-02T16:35:53Z</time>
    </trkpt>
    <trkpt lat="50.9305806" lon="6.9718190">
      <time>2024-03-02T16:35:55Z</time>
    </trkpt>
    <trkpt lat="50.9308284" lon="6.9716162">
      <time>2024-03-02T16:35:59Z</time>
    </trkpt>
    <trkpt lat="50.9311882" lon="6.9713357">
      <time>2024-03-02T16:36:05Z</time>
    </trkpt>
    <trkpt lat="50.9312503" lon="6.9713018">
      <time>2024-03-02T16:36:06Z</time>
    </trkpt>
    <trkpt lat="50.9313804" lon="6.9712466">
      <time>2024-03-02T16:36:08Z</time>
    </trkpt>
    <trkpt lat="50.9314475" lon="6.9712044">
      <time>2024-03-02T16:36:09Z</time>
    </trkpt>
    <trkpt lat="50.9317524" lon="6.9710051">
      <time>2024-03-02T16:36:14Z</time>
    </trkpt>
    <trkpt lat="50.9319346" lon="6.9709071">
      <time>2024-03-02T16:36:17Z</time>
    </trkpt>
    <trkpt lat="50.9320510" lon="6.9708393">
      <time>2024-03-02T16:36:19Z</time>
    </trkpt>
    <trkpt lat="50.9321079" lon="6.9708140">
      <time>2024-03-02T16:36:20Z</time>
    </trkpt>
    <trkpt lat="50.9322221" lon="6.9708105">
      <time>2024-03-02T16:36:22Z</time>
    </trkpt>
    <trkpt lat="50.9323269" lon="6.9708369">
      <time>2024-03-02T16:36:24Z</time>
    </trkpt>
    <trkpt lat="50.9324176" lon="6.9708332">
      <time>2024-03-02T16:36:26Z</time>
    </trkpt>
    <trkpt lat="50.9324592" lon="6.9708345">
      <time>2024-03-02T16:36:27Z</time>
    </trkpt>
    <trkpt lat="50.9325879" lon="6.9708860">
      <time>2024-03-02T16:36:31Z</time>
    </trkpt>
    <trkpt lat="50.9327308" lon="6.9708493">
      <time>2024-03-02T16:36:35Z</time>
    </trkpt>
    <trkpt lat="50.9329837" lon="6.9707787">
      <time>2024-03-02T16:36:41Z</time>
    </trkpt>
    <trkpt lat="50.9331092" lon="6.9707557">
      <time>2024-03-02T16:36:44Z</time>
    </trkpt>
    <trkpt lat="50.9333492" lon="6.9707320">
      <time>2024-03-02T16:36:49Z</time>
    </trkpt>
    <trkpt lat="50.9335692" lon="6.9706909">
      <time>2024-03-02T16:36:54Z</time>
    </trkpt>
    <trkpt lat="50.9336165" lon="6.9706599">
      <time>2024-03-02T16:36:55Z</time>
    </trkpt>
    <trkpt lat="50.9336753" lon="6.9705715">
      <time>2024-03-02T16:36:57Z</time>
    </trkpt>
    <trkpt lat="50.9337454" lon="6.9705291">
      <time>2024-03-02T16:36:59Z</time>
    </trkpt>
    <trkpt lat="50.9337841" lon="6.9705291">
      <time>2024-03-02T16:37:00Z</time>
    </trkpt>
    <trkpt lat="50.9341802" lon="6.9704907">
      <time>2024-03-02T16:37:10Z</time>
    </trkpt>
    <trkpt lat="50.9344351" lon="6.9704664">
      <time>2024-03-02T16:37:17Z</time>
    </trkpt>
    <trkpt lat="50.9345973" lon="6.9704540">
      <time>2024-03-02T16:37:22Z</time>
    </trkpt>
    <trkpt lat="50.9347182" lon="6.9704438">
      <time>2024-03-02T16:37:26Z</time>
    </trkpt>
    <trkpt lat="50.9349852" lon="6.9704544">
      <time>2024-03-02T16:37:35Z</time>
    </trkpt>
    <trkpt lat="50.9352319" lon="6.9704814">
      <time>2024-03-02T16:37:42Z</time>
    </trkpt>
    <trkpt lat="50.9353043" lon="6.9705221">
      <time>2024-03-02T16:37:46Z</time>
    </trkpt>
    <trkpt lat="50.9354108" lon="6.9705938">
      <time>2024-03-02T16:37:50Z</time>
    </trkpt>
    <trkpt lat="50.9355442" lon="6.9705810">
      <time>2024-03-02T16:37:54Z</time>
    </trkpt>
    <trkpt lat="50.9356335" lon="6.9705821">
      <time>2024-03-02T16:37:56Z</time>
    </trkpt>
    <trkpt lat="50.9357288" lon="6.9706135">
      <time>2024-03-02T16:37:58Z</time>
    </trkpt>
    <trkpt lat="50.9359228" lon="6.9706551">
      <time>2024-03-02T16:38:02Z</time>
    </trkpt>
    <trkpt lat="50.9360719" lon="6.9706870">
      <time>2024-03-02T16:38:05Z</time>
    </trkpt>
    <trkpt lat="50.9362110" lon="6.9706757">
      <time>2024-03-02T16:38:08Z</time>
    </trkpt>
    <trkpt lat="50.9362857" lon="6.9706861">
      <time>2024-03-02T16:38:10Z</time>
    </trkpt>
    <trkpt lat="50.9363688" lon="6.9706160">
      <time>2024-03-02T16:38:12Z</time>
    </trkpt>
    <trkpt lat="50.9363866" lon="6.9705688">
      <time>2024-03-02T16:38:13Z</time>
    </trkpt>
    <trkpt lat="50.9364313" lon="6.9701555">
      <time>2024-03-02T16:38:19Z</time>
    </trkpt>
    <trkpt lat="50.9364678" lon="6.9695041">
      <time>2024-03-02T16:38:28Z</time>
    </trkpt>
    <trkpt lat="50.9364656" lon="6.9694334">
      <time>2024-03-02T16:38:29Z</time>
    </trkpt>
    <trkpt lat="50.9364518" lon="6.9690389">
      <time>2024-03-02T16:38:34Z</time>
    </trkpt>
    <trkpt lat="50.9364415" lon="6.9687924">
      <time>2024-03-02T16:38:37Z</time>
    </trkpt>
    <trkpt lat="50.9364306" lon="6.9682158">
      <time>2024-03-02T16:38:44Z</time>
    </trkpt>
    <trkpt lat="50.9364118" lon="6.9675599">
      <time>2024-03-02T16:38:52Z</time>
    </trkpt>
    <trkpt lat="50.9363827" lon="6.9669962">
      <time>2024-03-02T16:38:59Z</time>
    </trkpt>
    <trkpt lat="50.9363431" lon="6.9663032">
      <time>2024-03-02T16:39:08Z</time>
    </trkpt>
    <trkpt lat="50.9362990" lon="6.9655566">
      <time>2024-03-02T16:39:18Z</time>
    </trkpt>
    <trkpt lat="50.9362735" lon="6.9651564">
      <time>2024-03-02T16:39:23Z</time>
    </trkpt>
    <trkpt lat="50.9362686" lon="6.9650740">
      <time>2024-03-02T16:39:24Z</time>
    </trkpt>
    <trkpt lat="50.9362403" lon="6.9646404">
      <time>2024-03-02T16:39:29Z</time>
    </trkpt>
    <trkpt lat="50.9361886" lon="6.9639126">
      <time>2024-03-02T16:39:37Z</time>
    </trkpt>
    <trkpt lat="50.9361569" lon="6.9633312">
      <time>2024-03-02T16:39:43Z</time>
    </trkpt>
    <trkpt lat="50.9361201" lon="6.9626829">
      <time>2024-03-02T16:39:49Z</time>
    </trkpt>
    <trkpt lat="50.9360377" lon="6.9620356">
      <time>2024-03-02T16:39:55Z</time>
    </trkpt>
    <trkpt lat="50.9359576" lon="6.9617410">
      <time>2024-03-02T16:39:58Z</time>
    </trkpt>
    <trkpt lat="50.9358899" lon="6.9615631">
      <time>2024-03-02T16:40:00Z</time>
    </trkpt>
    <trkpt lat="50.9356179" lon="6.9609652">
      <time>2024-03-02T16:40:07Z</time>
    </trkpt>
    <trkpt lat="50.9355342" lon="6.9608610">
      <time>2024-03-02T16:40:09Z</time>
    </trkpt>
    <trkpt lat="50.9354967" lon="6.9608423">
      <time>2024-03-02T16:40:10Z</time>
    </trkpt>
    <trkpt lat="50.9354564" lon="6.9608008">
      <time>2024-03-02T16:40:12Z</time>
    </trkpt>
    <trkpt lat="50.9354508" lon="6.9607524">
      <time>2024-03-02T16:40:13Z</time>
    </trkpt>
    <trkpt lat="50.9353824" lon="6.9605348">
      <time>2024-03-02T16:40:17Z</time>
    </trkpt>
    <trkpt lat="50.9353008" lon="6.9603264">
      <time>2024-03-02T16:40:23Z</time>
    </trkpt>
    <trkpt lat="50.9352308" lon="6.9601764">
      <time>2024-03-02T16:40:28Z</time>
    </trkpt>
    <trkpt lat="50.9352197" lon="6.9600245">
      <time>2024-03-02T16:40:32Z</time>
    </trkpt>
    <trkpt lat="50.9352459" lon="6.9597755">
      <time>2024-03-02T16:40:36Z</time>
    </trkpt>
    <trkpt lat="50.9352732" lon="6.9595114">
      <time>2024-03-02T16:40:40Z</time>
    </trkpt>
    <trkpt lat="50.9352784" lon="6.9594385">
      <time>2024-03-02T16:40:41Z</time>
    </trkpt>
    <trkpt lat="50.9352608" lon="6.9591984">
      <time>2024-03-02T16:40:44Z</time>
    </trkpt>
    <trkpt lat="50.9352438" lon="6.9590373">
      <time>2024-03-02T16:40:46Z</time>
    </trkpt>
    <trkpt lat="50.9352090" lon="6.9586522">
      <time>2024-03-02T16:40:51Z</time>
    </trkpt>
    <trkpt lat="50.9352016" lon="6.9585360">
      <time>2024-03-02T16:40:53Z</time>
    </trkpt>
    <trkpt lat="50.9351710" lon="6.9582700">
      <time>2024-03-02T16:40:58Z</time>
    </trkpt>
    <trkpt lat="50.9351710" lon="6.9582306">
      <time>2024-03-02T16:40:59Z</time>
    </trkpt>
    <trkpt lat="50.9351729" lon="6.9581878">
      <time>2024-03-02T16:41:00Z</time>
    </trkpt>
    <trkpt lat="50.9351753" lon="6.9581756">
      <time>2024-03-02T16:41:02Z</time>
    </trkpt>
    <trkpt lat="50.9351753" lon="6.9581756">
      <time>2024-03-02T16:41:03Z</time>
    </trkpt>
    <trkpt lat="50.9352388" lon="6.9581112">
      <time>2024-03-02T16:41:16Z</time>
    </trkpt>
    <trkpt lat="50.9352869" lon="6.9580679">
      <time>2024-03-02T16:41:18Z</time>
    </trkpt>
    <trkpt lat="50.9353129" lon="6.9580529">
      <time>2024-03-02T16:41:22Z</time>
    </trkpt>
    <trkpt lat="50.9353711" lon="6.9580226">
      <time>2024-03-02T16:41:31Z</time>
    </trkpt>
    <trkpt lat="50.9353956" lon="6.9579868">
      <time>2024-03-02T16:41:32Z</time>
    </trkpt>
    <trkpt lat="50.9354120" lon="6.9579371">
      <time>2024-03-02T16:41:33Z</time>
    </trkpt>
    <trkpt lat="50.9354165" lon="6.9578788">
      <time>2024-03-02T16:41:34Z</time>
    </trkpt>
    <trkpt lat="50.9353912" lon="6.9577566">
      <time>2024-03-02T16:41:36Z</time>
    </trkpt>
    <trkpt lat="50.9353675" lon="6.9576100">
      <time>2024-03-02T16:41:38Z</time>
    </trkpt>
    <trkpt lat="50.9353424" lon="6.9574554">
      <time>2024-03-02T16:41:40Z</time>
    </trkpt>
    <trkpt lat="50.9352940" lon="6.9568635">
      <time>2024-03-02T16:41:47Z</time>
    </trkpt>
    <trkpt lat="50.9352374" lon="6.9564569">
      <time>2024-03-02T16:41:53Z</time>
    </trkpt>
    <trkpt lat="50.9352040" lon="6.9563202">
      <time>2024-03-02T16:41:57Z</time>
    </trkpt>
    <trkpt lat="50.9351483" lon="6.9559916">
      <time>2024-03-02T16:42:03Z</time>
    </trkpt>
    <trkpt lat="50.9351286" lon="6.9555902">
      <time>2024-03-02T16:42:09Z</time>
    </trkpt>
    <trkpt lat="50.9351017" lon="6.9553787">
      <time>2024-03-02T16:42:12Z</time>
    </trkpt>
    <trkpt lat="50.9350930" lon="6.9552296">
      <time>2024-03-02T16:42:15Z</time>
    </trkpt>
    <trkpt lat="50.9350957" lon="6.9550130">
      <time>2024-03-02T16:42:20Z</time>
    </trkpt>
    <trkpt lat="50.9350681" lon="6.9547116">
      <time>2024-03-02T16:42:25Z</time>
    </trkpt>
    <trkpt lat="50.9351209" lon="6.9542767">
      <time>2024-03-02T16:42:32Z</time>
    </trkpt>
    <trkpt lat="50.9351942" lon="6.9539027">
      <time>2024-03-02T16:42:39Z</time>
    </trkpt>
    <trkpt lat="50.9352291" lon="6.9537545">
      <time>2024-03-02T16:42:42Z</time>
    </trkpt>
    <trkpt lat="50.9352411" lon="6.9536969">
      <time>2024-03-02T16:42:43Z</time>
    </trkpt>
    <trkpt lat="50.9352587" lon="6.9535791">
      <time>2024-03-02T16:42:45Z</time>
    </trkpt>
    <trkpt lat="50.9352708" lon="6.9534632">
      <time>2024-03-02T16:42:47Z</time>
    </trkpt>
    <trkpt lat="50.9352976" lon="6.9533156">
      <time>2024-03-02T16:42:50Z</time>
    </trkpt>
    <trkpt lat="50.9353082" lon="6.9531287">
      <time>2024-03-02T16:42:53Z</time>
    </trkpt>
    <trkpt lat="50.9353255" lon="6.9529954">
      <time>2024-03-02T16:42:55Z</time>
    </trkpt>
    <trkpt lat="50.9353774" lon="6.9526165">
      <time>2024-03-02T16:43:00Z</time>
    </trkpt>
    <trkpt lat="50.9354303" lon="6.9519960">
      <time>2024-03-02T16:43:07Z</time>
    </trkpt>
    <trkpt lat="50.9354313" lon="6.9513659">
      <time>2024-03-02T16:43:14Z</time>
    </trkpt>
    <trkpt lat="50.9354588" lon="6.9506711">
      <time>2024-03-02T16:43:22Z</time>
    </trkpt>
    <trkpt lat="50.9354777" lon="6.9502990">
      <time>2024-03-02T16:43:27Z</time>
    </trkpt>
    <trkpt lat="50.9354824" lon="6.9502212">
      <time>2024-03-02T16:43:28Z</time>
    </trkpt>
    <trkpt lat="50.9354872" lon="6.9500732">
      <time>2024-03-02T16:43:30Z</time>
    </trkpt>
    <trkpt lat="50.9355167" lon="6.9498694">
      <time>2024-03-02T16:43:33Z</time>
    </trkpt>
    <trkpt lat="50.9355254" lon="6.9497968">
      <time>2024-03-02T16:43:34Z</time>
    </trkpt>
    <trkpt lat="50.9355753" lon="6.9493410">
      <time>2024-03-02T16:43:40Z</time>
    </trkpt>
    <trkpt lat="50.9355959" lon="6.9492726">
      <time>2024-03-02T16:43:41Z</time>
    </trkpt>
    <trkpt lat="50.9356216" lon="6.9492074">
      <time>2024-03-02T16:43:42Z</time>
    </trkpt>
    <trkpt lat="50.9356954" lon="6.9491039">
      <time>2024-03-02T16:43:44Z</time>
    </trkpt>
    <trkpt lat="50.9357453" lon="6.9490909">
      <time>2024-03-02T16:43:45Z</time>
    </trkpt>
    <trkpt lat="50.9359068" lon="6.9491003">
      <time>2024-03-02T16:43:48Z</time>
    </trkpt>
    <trkpt lat="50.9360155" lon="6.9491229">
      <time>2024-03-02T16:43:50Z</time>
    </trkpt>
    <trkpt lat="50.9361236" lon="6.9490964">
      <time>2024-03-02T16:43:52Z</time>
    </trkpt>
    <trkpt lat="50.9362003" lon="6.9490281">
      <time>2024-03-02T16:43:54Z</time>
    </trkpt>
    <trkpt lat="50.9362858" lon="6.9489398">
      <time>2024-03-02T16:43:58Z</time>
    </trkpt>
    <trkpt lat="50.9363379" lon="6.9488227">
      <time>2024-03-02T16:44:02Z</time>
    </trkpt>
    <trkpt lat="50.9363542" lon="6.9487520">
      <time>2024-03-02T16:44:04Z</time>
    </trkpt>
    <trkpt lat="50.9363807" lon="6.9484935">
      <time>2024-03-02T16:44:12Z</time>
    </trkpt>
    <trkpt lat="50.9364084" lon="6.9482583">
      <time>2024-03-02T16:44:18Z</time>
    </trkpt>
    <trkpt lat="50.9364356" lon="6.9479599">
      <time>2024-03-02T16:44:24Z</time>
    </trkpt>
    <trkpt lat="50.9364392" lon="6.9478983">
      <time>2024-03-02T16:44:28Z</time>
    </trkpt>
    <trkpt lat="50.9364392" lon="6.9478983">
      <time>2024-03-02T16:44:30Z</time>
    </trkpt>
    <trkpt lat="50.9364465" lon="6.9478257">
      <time>2024-03-02T16:45:32Z</time>
    </trkpt>
    <trkpt lat="50.9364460" lon="6.9477946">
      <time>2024-03-02T16:45:33Z</time>
    </trkpt>
    <trkpt lat="50.9364440" lon="6.9477631">
      <time>2024-03-02T16:45:34Z</time>
    </trkpt>
    <trkpt lat="50.9364636" lon="6.9476021">
      <time>2024-03-02T16:45:37Z</time>
    </trkpt>
    <trkpt lat="50.9364755" lon="6.9475266">
      <time>2024-03-02T16:45:38Z</time>
    </trkpt>
    <trkpt lat="50.9364823" lon="6.9474464">
      <time>2024-03-02T16:45:39Z</time>
    </trkpt>
    <trkpt lat="50.9365003" lon="6.9471618">
      <time>2024-03-02T16:45:43Z</time>
    </trkpt>
    <trkpt lat="50.9365414" lon="6.9465561">
      <time>2024-03-02T16:45:51Z</time>
    </trkpt>
    <trkpt lat="50.9365572" lon="6.9463423">
      <time>2024-03-02T16:45:54Z</time>
    </trkpt>
    <trkpt lat="50.9365491" lon="6.9461944">
      <time>2024-03-02T16:45:56Z</time>
    </trkpt>
    <trkpt lat="50.9365491" lon="6.9461169">
      <time>2024-03-02T16:45:57Z</time>
    </trkpt>
    <trkpt lat="50.9365766" lon="6.9459022">
      <time>2024-03-02T16:46:00Z</time>
    </trkpt>
    <trkpt lat="50.9366345" lon="6.9457019">
      <time>2024-03-02T16:46:03Z</time>
    </trkpt>
    <trkpt lat="50.9366923" lon="6.9455861">
      <time>2024-03-02T16:46:05Z</time>
    </trkpt>
    <trkpt lat="50.9367453" lon="6.9454904">
      <time>2024-03-02T16:46:07Z</time>
    </trkpt>
    <trkpt lat="50.9367753" lon="6.9454436">
      <time>2024-03-02T16:46:08Z</time>
    </trkpt>
    <trkpt lat="50.9368357" lon="6.9453509">
      <time>2024-03-02T16:46:10Z</time>
    </trkpt>
    <trkpt lat="50.9368656" lon="6.9452730">
      <time>2024-03-02T16:46:12Z</time>
    </trkpt>
    <trkpt lat="50.9368767" lon="6.9452502">
      <time>2024-03-02T16:46:13Z</time>
    </trkpt>
    <trkpt lat="50.9369276" lon="6.9451647">
      <time>2024-03-02T16:46:16Z</time>
    </trkpt>
    <trkpt lat="50.9369969" lon="6.9451529">
      <time>2024-03-02T16:46:18Z</time>
    </trkpt>
    <trkpt lat="50.9370376" lon="6.9451591">
      <time>2024-03-02T16:46:19Z</time>
    </trkpt>
    <trkpt lat="50.9371265" lon="6.9451661">
      <time>2024-03-02T16:46:21Z</time>
    </trkpt>
    <trkpt lat="50.9372224" lon="6.9451559">
      <time>2024-03-02T16:46:23Z</time>
    </trkpt>
    <trkpt lat="50.9373191" lon="6.9451437">
      <time>2024-03-02T16:46:25Z</time>
    </trkpt>
    <trkpt lat="50.9375208" lon="6.9451837">
      <time>2024-03-02T16:46:29Z</time>
    </trkpt>
    <trkpt lat="50.9376218" lon="6.9451757">
      <time>2024-03-02T16:46:31Z</time>
    </trkpt>
    <trkpt lat="50.9377901" lon="6.9450809">
      <time>2024-03-02T16:46:34Z</time>
    </trkpt>
    <trkpt lat="50.9379017" lon="6.9450617">
      <time>2024-03-02T16:46:36Z</time>
    </trkpt>
    <trkpt lat="50.9380078" lon="6.9450759">
      <time>2024-03-02T16:46:38Z</time>
    </trkpt>
    <trkpt lat="50.9380595" lon="6.9450842">
      <time>2024-03-02T16:46:39Z</time>
    </trkpt>
    <trkpt lat="50.9381606" lon="6.9450902">
      <time>2024-03-02T16:46:41Z</time>
    </trkpt>
    <trkpt lat="50.9382561" lon="6.9450772">
      <time>2024-03-02T16:46:43Z</time>
    </trkpt>
    <trkpt lat="50.9383457" lon="6.9450638">
      <time>2024-03-02T16:46:45Z</time>
    </trkpt>
    <trkpt lat="50.9384977" lon="6.9450498">
      <time>2024-03-02T16:46:49Z</time>
    </trkpt>
    <trkpt lat="50.9385446" lon="6.9450497">
      <time>2024-03-02T16:46:51Z</time>
    </trkpt>
    <trkpt lat="50.9385591" lon="6.9450323">
      <time>2024-03-02T16:46:53Z</time>
    </trkpt>
    <trkpt lat="50.9386189" lon="6.9449885">
      <time>2024-03-02T16:46:56Z</time>
    </trkpt>
    <trkpt lat="50.9386577" lon="6.9449770">
      <time>2024-03-02T16:46:57Z</time>
    </trkpt>
    <trkpt lat="50.9387432" lon="6.9449527">
      <time>2024-03-02T16:46:59Z</time>
    </trkpt>
    <trkpt lat="50.9389143" lon="6.9448607">
      <time>2024-03-02T16:47:03Z</time>
    </trkpt>
    <trkpt lat="50.9390618" lon="6.9447752">
      <time>2024-03-02T16:47:06Z</time>
    </trkpt>
    <trkpt lat="50.9391110" lon="6.9447438">
      <time>2024-03-02T16:47:07Z</time>
    </trkpt>
    <trkpt lat="50.9392065" lon="6.9446772">
      <time>2024-03-02T16:47:09Z</time>
    </trkpt>
    <trkpt lat="50.9392558" lon="6.9446444">
      <time>2024-03-02T16:47:10Z</time>
    </trkpt>
    <trkpt lat="50.9393538" lon="6.9445706">
      <time>2024-03-02T16:47:12Z</time>
    </trkpt>
    <trkpt lat="50.9394590" lon="6.9445433">
      <time>2024-03-02T16:47:14Z</time>
    </trkpt>
    <trkpt lat="50.9395135" lon="6.9445258">
      <time>2024-03-02T16:47:15Z</time>
    </trkpt>
    <trkpt lat="50.9396154" lon="6.9444895">
      <time>2024-03-02T16:47:17Z</time>
    </trkpt>
    <trkpt lat="50.9397118" lon="6.9444440">
      <time>2024-03-02T16:47:19Z</time>
    </trkpt>
    <trkpt lat="50.9398370" lon="6.9443427">
      <time>2024-03-02T16:47:22Z</time>
    </trkpt>
    <trkpt lat="50.9398630" lon="6.9443073">
      <time>2024-03-02T16:47:23Z</time>
    </trkpt>
    <trkpt lat="50.9399535" lon="6.9442070">
      <time>2024-03-02T16:47:28Z</time>
    </trkpt>
    <trkpt lat="50.9399535" lon="6.9442070">
      <time>2024-03-02T16:47:30Z</time>
    </trkpt>
    <trkpt lat="50.9400016" lon="6.9441866">
      <time>2024-03-02T16:48:53Z</time>
    </trkpt>
    <trkpt lat="50.9401073" lon="6.9441399">
      <time>2024-03-02T16:48:57Z</time>
    </trkpt>
    <trkpt lat="50.9401358" lon="6.9439763">
      <time>2024-03-02T16:49:00Z</time>
    </trkpt>
    <trkpt lat="50.9401083" lon="6.9438279">
      <time>2024-03-02T16:49:02Z</time>
    </trkpt>
    <trkpt lat="50.9400918" lon="6.9437364">
      <time>2024-03-02T16:49:03Z</time>
    </trkpt>
    <trkpt lat="50.9400649" lon="6.9435592">
      <time>2024-03-02T16:49:05Z</time>
    </trkpt>
    <trkpt lat="50.9400596" lon="6.9434683">
      <time>2024-03-02T16:49:06Z</time>
    </trkpt>
    <trkpt lat="50.9400441" lon="6.9433073">
      <time>2024-03-02T16:49:08Z</time>
    </trkpt>
    <trkpt lat="50.9400345" lon="6.9432283">
      <time>2024-03-02T16:49:09Z</time>
    </trkpt>
    <trkpt lat="50.9400351" lon="6.9431549">
      <time>2024-03-02T16:49:10Z</time>
    </trkpt>
    <trkpt lat="50.9400420" lon="6.9429547">
      <time>2024-03-02T16:49:13Z</time>
    </trkpt>
    <trkpt lat="50.9400707" lon="6.9425006">
      <time>2024-03-02T16:49:19Z</time>
    </trkpt>
    <trkpt lat="50.9401499" lon="6.9419729">
      <time>2024-03-02T16:49:25Z</time>
    </trkpt>
    <trkpt lat="50.9402030" lon="6.9417036">
      <time>2024-03-02T16:49:28Z</time>
    </trkpt>
    <trkpt lat="50.9402479" lon="6.9415283">
      <time>2024-03-02T16:49:30Z</time>
    </trkpt>
    <trkpt lat="50.9403502" lon="6.9411783">
      <time>2024-03-02T16:49:34Z</time>
    </trkpt>
    <trkpt lat="50.9404668" lon="6.9408523">
      <time>2024-03-02T16:49:38Z</time>
    </trkpt>
    <trkpt lat="50.9405354" lon="6.9406079">
      <time>2024-03-02T16:49:41Z</time>
    </trkpt>
    <trkpt lat="50.9405626" lon="6.9404400">
      <time>2024-03-02T16:49:43Z</time>
    </trkpt>
    <trkpt lat="50.9405764" lon="6.9403580">
      <time>2024-03-02T16:49:44Z</time>
    </trkpt>
    <trkpt lat="50.9406094" lon="6.9401013">
      <time>2024-03-02T16:49:47Z</time>
    </trkpt>
    <trkpt lat="50.9406156" lon="6.9400132">
      <time>2024-03-02T16:49:48Z</time>
    </trkpt>
    <trkpt lat="50.9406180" lon="6.9399483">
      <time>2024-03-02T16:49:49Z</time>
    </trkpt>
    <trkpt lat="50.9406225" lon="6.9397522">
      <time>2024-03-02T16:49:51Z</time>
    </trkpt>
    <trkpt lat="50.9406682" lon="6.9393880">
      <time>2024-03-02T16:49:55Z</time>
    </trkpt>
    <trkpt lat="50.9407147" lon="6.9391284">
      <time>2024-03-02T16:49:58Z</time>
    </trkpt>
    <trkpt lat="50.9407445" lon="6.9389571">
      <time>2024-03-02T16:50:00Z</time>
    </trkpt>
    <trkpt lat="50.9408713" lon="6.9383676">
      <time>2024-03-02T16:50:07Z</time>
    </trkpt>
    <trkpt lat="50.9409558" lon="6.9380602">
      <time>2024-03-02T16:50:11Z</time>
    </trkpt>
    <trkpt lat="50.9410178" lon="6.9379366">
      <time>2024-03-02T16:50:13Z</time>
    </trkpt>
    <trkpt lat="50.9412013" lon="6.9376112">
      <time>2024-03-02T16:50:19Z</time>
    </trkpt>
    <trkpt lat="50.9412397" lon="6.9375446">
      <time>2024-03-02T16:50:20Z</time>
    </trkpt>
    <trkpt lat="50.9412723" lon="6.9374868">
      <time>2024-03-02T16:50:21Z</time>
    </trkpt>
    <trkpt lat="50.9413695" lon="6.9373199">
      <time>2024-03-02T16:50:24Z</time>
    </trkpt>
    <trkpt lat="50.9414300" lon="6.9372167">
      <time>2024-03-02T16:50:26Z</time>
    </trkpt>
    <trkpt lat="50.9414552" lon="6.9371645">
      <time>2024-03-02T16:50:27Z</time>
    </trkpt>
    <trkpt lat="50.9415645" lon="6.9369567">
      <time>2024-03-02T16:50:31Z</time>
    </trkpt>
    <trkpt lat="50.9415936" lon="6.9369042">
      <time>2024-03-02T16:50:32Z</time>
    </trkpt>
    <trkpt lat="50.9417109" lon="6.9366733">
      <time>2024-03-02T16:50:37Z</time>
    </trkpt>
    <trkpt lat="50.9417155" lon="6.9366632">
      <time>2024-03-02T16:50:39Z</time>
    </trkpt>
    <trkpt lat="50.9417155" lon="6.9366632">
      <time>2024-03-02T16:50:40Z</time>
    </trkpt>
    <trkpt lat="50.9417254" lon="6.9366037">
      <time>2024-03-02T16:51:15Z</time>
    </trkpt>
    <trkpt lat="50.9417659" lon="6.9365132">
      <time>2024-03-02T16:51:17Z</time>
    </trkpt>
    <trkpt lat="50.9418918" lon="6.9363203">
      <time>2024-03-02T16:51:21Z</time>
    </trkpt>
    <trkpt lat="50.9419636" lon="6.9362060">
      <time>2024-03-02T16:51:23Z</time>
    </trkpt>
    <trkpt lat="50.9420695" lon="6.9359852">
      <time>2024-03-02T16:51:26Z</time>
    </trkpt>
    <trkpt lat="50.9422153" lon="6.9356987">
      <time>2024-03-02T16:51:30Z</time>
    </trkpt>
    <trkpt lat="50.9422880" lon="6.9355575">
      <time>2024-03-02T16:51:32Z</time>
    </trkpt>
    <trkpt lat="50.9424229" lon="6.9353061">
      <time>2024-03-02T16:51:36Z</time>
    </trkpt>
    <trkpt lat="50.9424832" lon="6.9351884">
      <time>2024-03-02T16:51:38Z</time>
    </trkpt>
    <trkpt lat="50.9427443" lon="6.9347137">
      <time>2024-03-02T16:51:45Z</time>
    </trkpt>
    <trkpt lat="50.9427817" lon="6.9346430">
      <time>2024-03-02T16:51:46Z</time>
    </trkpt>
    <trkpt lat="50.9429243" lon="6.9343584">
      <time>2024-03-02T16:51:50Z</time>
    </trkpt>
    <trkpt lat="50.9429881" lon="6.9342195">
      <time>2024-03-02T16:51:52Z</time>
    </trkpt>
    <trkpt lat="50.9430118" lon="6.9341420">
      <time>2024-03-02T16:51:54Z</time>
    </trkpt>
    <trkpt lat="50.9434445" lon="6.9331053">
      <time>2024-03-02T16:52:06Z</time>
    </trkpt>
    <trkpt lat="50.9436300" lon="6.9330317">
      <time>2024-03-02T16:52:09Z</time>
    </trkpt>
    <trkpt lat="50.9438865" lon="6.9324098">
      <time>2024-03-02T16:52:16Z</time>
    </trkpt>
    <trkpt lat="50.9439156" lon="6.9323175">
      <time>2024-03-02T16:52:17Z</time>
    </trkpt>
    <trkpt lat="50.9440278" lon="6.9319462">
      <time>2024-03-02T16:52:21Z</time>
    </trkpt>
    <trkpt lat="50.9440644" lon="6.9318612">
      <time>2024-03-02T16:52:22Z</time>
    </trkpt>
    <trkpt lat="50.9441648" lon="6.9317233">
      <time>2024-03-02T16:52:24Z</time>
    </trkpt>
    <trkpt lat="50.9442528" lon="6.9315542">
      <time>2024-03-02T16:52:26Z</time>
    </trkpt>
    <trkpt lat="50.9443133" lon="6.9313541">
      <time>2024-03-02T16:52:28Z</time>
    </trkpt>
    <trkpt lat="50.9444702" lon="6.9308299">
      <time>2024-03-02T16:52:33Z</time>
    </trkpt>
    <trkpt lat="50.9445030" lon="6.9307182">
      <time>2024-03-02T16:52:34Z</time>
    </trkpt>
    <trkpt lat="50.9446074" lon="6.9303927">
      <time>2024-03-02T16:52:37Z</time>
    </trkpt>
    <trkpt lat="50.9447250" lon="6.9300215">
      <time>2024-03-02T16:52:41Z</time>
    </trkpt>
    <trkpt lat="50.9448802" lon="6.9295268">
      <time>2024-03-02T16:52:47Z</time>
    </trkpt>
    <trkpt lat="50.9449260" lon="6.9293441">
      <time>2024-03-02T16:52:49Z</time>
    </trkpt>
    <trkpt lat="50.9449759" lon="6.9291692">
      <time>2024-03-02T16:52:51Z</time>
    </trkpt>
    <trkpt lat="50.9449976" lon="6.9290821">
      <time>2024-03-02T16:52:52Z</time>
    </trkpt>
    <trkpt lat="50.9450223" lon="6.9290067">
      <time>2024-03-02T16:52:53Z</time>
    </trkpt>
    <trkpt lat="50.9450576" lon="6.9288840">
      <time>2024-03-02T16:52:55Z</time>
    </trkpt>
    <trkpt lat="50.9450595" lon="6.9288370">
      <time>2024-03-02T16:52:56Z</time>
    </trkpt>
    <trkpt lat="50.9450510" lon="6.9288045">
      <time>2024-03-02T16:52:57Z</time>
    </trkpt>
    <trkpt lat="50.9450294" lon="6.9287741">
      <time>2024-03-02T16:52:59Z</time>
    </trkpt>
    <trkpt lat="50.9450211" lon="6.9287653">
      <time>2024-03-02T16:53:00Z</time>
    </trkpt>
    <trkpt lat="50.9450196" lon="6.9287594">
      <time>2024-03-02T16:53:03Z</time>
    </trkpt>
    <trkpt lat="50.9450196" lon="6.9287594">
      <time>2024-03-02T16:53:04Z</time>
    </trkpt>
    <trkpt lat="50.9450178" lon="6.9286757">
      <time>2024-03-02T16:53:12Z</time>
    </trkpt>
    <trkpt lat="50.9450350" lon="6.9285373">
      <time>2024-03-02T16:53:14Z</time>
    </trkpt>
    <trkpt lat="50.9450944" lon="6.9283689">
      <time>2024-03-02T16:53:16Z</time>
    </trkpt>
    <trkpt lat="50.9451353" lon="6.9282770">
      <time>2024-03-02T16:53:17Z</time>
    </trkpt>
    <trkpt lat="50.9453033" lon="6.9278487">
      <time>2024-03-02T16:53:21Z</time>
    </trkpt>
    <trkpt lat="50.9453795" lon="6.9276256">
      <time>2024-03-02T16:53:23Z</time>
    </trkpt>
    <trkpt lat="50.9455327" lon="6.9271816">
      <time>2024-03-02T16:53:27Z</time>
    </trkpt>
    <trkpt lat="50.9457603" lon="6.9266114">
      <time>2024-03-02T16:53:33Z</time>
    </trkpt>
    <trkpt lat="50.9459051" lon="6.9262678">
      <time>2024-03-02T16:53:37Z</time>
    </trkpt>
    <trkpt lat="50.9459581" lon="6.9260874">
      <time>2024-03-02T16:53:39Z</time>
    </trkpt>
    <trkpt lat="50.9460240" lon="6.9258368">
      <time>2024-03-02T16:53:42Z</time>
    </trkpt>
    <trkpt lat="50.9460506" lon="6.9257638">
      <time>2024-03-02T16:53:43Z</time>
    </trkpt>
    <trkpt lat="50.9460757" lon="6.9257031">
      <time>2024-03-02T16:53:44Z</time>
    </trkpt>
    <trkpt lat="50.9461203" lon="6.9256222">
      <time>2024-03-02T16:53:46Z</time>
    </trkpt>
    <trkpt lat="50.9461450" lon="6.9255817">
      <time>2024-03-02T16:53:48Z</time>
    </trkpt>
    <trkpt lat="50.9461513" lon="6.9255680">
      <time>2024-03-02T16:53:51Z</time>
    </trkpt>
    <trkpt lat="50.9461766" lon="6.9255100">
      <time>2024-03-02T16:54:00Z</time>
    </trkpt>
    <trkpt lat="50.9462656" lon="6.9253219">
      <time>2024-03-02T16:54:04Z</time>
    </trkpt>
    <trkpt lat="50.9463721" lon="6.9251192">
      <time>2024-03-02T16:54:07Z</time>
    </trkpt>
    <trkpt lat="50.9464078" lon="6.9250313">
      <time>2024-03-02T16:54:08Z</time>
    </trkpt>
    <trkpt lat="50.9466384" lon="6.9244664">
      <time>2024-03-02T16:54:14Z</time>
    </trkpt>
    <trkpt lat="50.9468022" lon="6.9240451">
      <time>2024-03-02T16:54:18Z</time>
    </trkpt>
    <trkpt lat="50.9468440" lon="6.9239340">
      <time>2024-03-02T16:54:19Z</time>
    </trkpt>
    <trkpt lat="50.9468929" lon="6.9238308">
      <time>2024-03-02T16:54:20Z</time>
    </trkpt>
    <trkpt lat="50.9469817" lon="6.9236137">
      <time>2024-03-02T16:54:22Z</time>
    </trkpt>
    <trkpt lat="50.9470637" lon="6.9233845">
      <time>2024-03-02T16:54:24Z</time>
    </trkpt>
    <trkpt lat="50.9472245" lon="6.9229148">
      <time>2024-03-02T16:54:28Z</time>
    </trkpt>
    <trkpt lat="50.9475640" lon="6.9221418">
      <time>2024-03-02T16:54:35Z</time>
    </trkpt>
    <trkpt lat="50.9478405" lon="6.9214727">
      <time>2024-03-02T16:54:41Z</time>
    </trkpt>
    <trkpt lat="50.9480971" lon="6.9208552">
      <time>2024-03-02T16:54:47Z</time>
    </trkpt>
    <trkpt lat="50.9483051" lon="6.9203772">
      <time>2024-03-02T16:54:52Z</time>
    </trkpt>
    <trkpt lat="50.9483764" lon="6.9201566">
      <time>2024-03-02T16:54:54Z</time>
    </trkpt>
    <trkpt lat="50.9484700" lon="6.9199214">
      <time>2024-03-02T16:54:56Z</time>
    </trkpt>
    <trkpt lat="50.9487353" lon="6.9192988">
      <time>2024-03-02T16:55:01Z</time>
    </trkpt>
    <trkpt lat="50.9488815" lon="6.9189219">
      <time>2024-03-02T16:55:04Z</time>
    </trkpt>
    <trkpt lat="50.9489277" lon="6.9187995">
      <time>2024-03-02T16:55:05Z</time>
    </trkpt>
    <trkpt lat="50.9492042" lon="6.9181987">
      <time>2024-03-02T16:55:10Z</time>
    </trkpt>
    <trkpt lat="50.9492665" lon="6.9180814">
      <time>2024-03-02T16:55:11Z</time>
    </trkpt>
    <trkpt lat="50.9494620" lon="6.9177806">
      <time>2024-03-02T16:55:14Z</time>
    </trkpt>
    <trkpt lat="50.9497194" lon="6.9173705">
      <time>2024-03-02T16:55:18Z</time>
    </trkpt>
    <trkpt lat="50.9497790" lon="6.9172758">
      <time>2024-03-02T16:55:19Z</time>
    </trkpt>
    <trkpt lat="50.9499660" lon="6.9169581">
      <time>2024-03-02T16:55:23Z</time>
    </trkpt>
    <trkpt lat="50.9499986" lon="6.9169132">
      <time>2024-03-02T16:55:24Z</time>
    </trkpt>
    <trkpt lat="50.9500365" lon="6.9168678">
      <time>2024-03-02T16:55:26Z</time>
    </trkpt>
    <trkpt lat="50.9500395" lon="6.9168617">
      <time>2024-03-02T16:55:28Z</time>
    </trkpt>
    <trkpt lat="50.9500776" lon="6.9168436">
      <time>2024-03-02T16:56:40Z</time>
    </trkpt>
    <trkpt lat="50.9501551" lon="6.9167426">
      <time>2024-03-02T16:56:43Z</time>
    </trkpt>
    <trkpt lat="50.9501922" lon="6.9166974">
      <time>2024-03-02T16:56:44Z</time>
    </trkpt>
    <trkpt lat="50.9502350" lon="6.9166497">
      <time>2024-03-02T16:56:45Z</time>
    </trkpt>
    <trkpt lat="50.9503313" lon="6.9165523">
      <time>2024-03-02T16:56:47Z</time>
    </trkpt>
    <trkpt lat="50.9503792" lon="6.9164861">
      <time>2024-03-02T16:56:48Z</time>
    </trkpt>
    <trkpt lat="50.9506391" lon="6.9160847">
      <time>2024-03-02T16:56:53Z</time>
    </trkpt>
    <trkpt lat="50.9508601" lon="6.9157208">
      <time>2024-03-02T16:56:57Z</time>
    </trkpt>
    <trkpt lat="50.9509155" lon="6.9156325">
      <time>2024-03-02T16:56:58Z</time>
    </trkpt>
    <trkpt lat="50.9511797" lon="6.9151775">
      <time>2024-03-02T16:57:03Z</time>
    </trkpt>
    <trkpt lat="50.9512302" lon="6.9150336">
      <time>2024-03-02T16:57:05Z</time>
    </trkpt>
    <trkpt lat="50.9513539" lon="6.9147477">
      <time>2024-03-02T16:57:09Z</time>
    </trkpt>
    <trkpt lat="50.9515905" lon="6.9143724">
      <time>2024-03-02T16:57:13Z</time>
    </trkpt>
    <trkpt lat="50.9519315" lon="6.9139044">
      <time>2024-03-02T16:57:19Z</time>
    </trkpt>
    <trkpt lat="50.9520119" lon="6.9138129">
      <time>2024-03-02T16:57:21Z</time>
    </trkpt>
    <trkpt lat="50.9520349" lon="6.9137763">
      <time>2024-03-02T16:57:22Z</time>
    </trkpt>
    <trkpt lat="50.9520804" lon="6.9137153">
      <time>2024-03-02T16:57:25Z</time>
    </trkpt>
    <trkpt lat="50.9521371" lon="6.9136102">
      <time>2024-03-02T16:57:28Z</time>
    </trkpt>
    <trkpt lat="50.9522774" lon="6.9134110">
      <time>2024-03-02T16:57:32Z</time>
    </trkpt>
    <trkpt lat="50.9524881" lon="6.9130838">
      <time>2024-03-02T16:57:37Z</time>
    </trkpt>
    <trkpt lat="50.9528006" lon="6.9125925">
      <time>2024-03-02T16:57:43Z</time>
    </trkpt>
    <trkpt lat="50.9529032" lon="6.9124154">
      <time>2024-03-02T16:57:45Z</time>
    </trkpt>
    <trkpt lat="50.9530145" lon="6.9122683">
      <time>2024-03-02T16:57:47Z</time>
    </trkpt>
    <trkpt lat="50.9530657" lon="6.9121919">
      <time>2024-03-02T16:57:48Z</time>
    </trkpt>
    <trkpt lat="50.9531635" lon="6.9120354">
      <time>2024-03-02T16:57:50Z</time>
    </trkpt>
    <trkpt lat="50.9533592" lon="6.9117479">
      <time>2024-03-02T16:57:54Z</time>
    </trkpt>
    <trkpt lat="50.9536983" lon="6.9112383">
      <time>2024-03-02T16:58:01Z</time>
    </trkpt>
    <trkpt lat="50.9540280" lon="6.9107185">
      <time>2024-03-02T16:58:08Z</time>
    </trkpt>
    <trkpt lat="50.9542075" lon="6.9104463">
      <time>2024-03-02T16:58:12Z</time>
    </trkpt>
    <trkpt lat="50.9542771" lon="6.9103219">
      <time>2024-03-02T16:58:14Z</time>
    </trkpt>
    <trkpt lat="50.9543778" lon="6.9101644">
      <time>2024-03-02T16:58:18Z</time>
    </trkpt>
    <trkpt lat="50.9544777" lon="6.9099345">
      <time>2024-03-02T16:58:24Z</time>
    </trkpt>
    <trkpt lat="50.9545035" lon="6.9098792">
      <time>2024-03-02T16:58:25Z</time>
    </trkpt>
    <trkpt lat="50.9545862" lon="6.9096977">
      <time>2024-03-02T16:58:28Z</time>
    </trkpt>
    <trkpt lat="50.9547485" lon="6.9092413">
      <time>2024-03-02T16:58:34Z</time>
    </trkpt>
    <trkpt lat="50.9547726" lon="6.9091578">
      <time>2024-03-02T16:58:35Z</time>
    </trkpt>
    <trkpt lat="50.9548598" lon="6.9089015">
      <time>2024-03-02T16:58:38Z</time>
    </trkpt>
    <trkpt lat="50.9549395" lon="6.9086596">
      <time>2024-03-02T16:58:41Z</time>
    </trkpt>
    <trkpt lat="50.9552031" lon="6.9078365">
      <time>2024-03-02T16:58:50Z</time>
    </trkpt>
    <trkpt lat="50.9554305" lon="6.9071466">
      <time>2024-03-02T16:58:58Z</time>
    </trkpt>
    <trkpt lat="50.9556174" lon="6.9065424">
      <time>2024-03-02T16:59:05Z</time>
    </trkpt>
    <trkpt lat="50.9556427" lon="6.9064612">
      <time>2024-03-02T16:59:06Z</time>
    </trkpt>
    <trkpt lat="50.9557272" lon="6.9062255">
      <time>2024-03-02T16:59:09Z</time>
    </trkpt>
    <trkpt lat="50.9558642" lon="6.9058200">
      <time>2024-03-02T16:59:14Z</time>
    </trkpt>
    <trkpt lat="50.9559264" lon="6.9056896">
      <time>2024-03-02T16:59:16Z</time>
    </trkpt>
    <trkpt lat="50.9559808" lon="6.9055462">
      <time>2024-03-02T16:59:18Z</time>
    </trkpt>
    <trkpt lat="50.9560417" lon="6.9053790">
      <time>2024-03-02T16:59:20Z</time>
    </trkpt>
    <trkpt lat="50.9561654" lon="6.9050195">
      <time>2024-03-02T16:59:24Z</time>
    </trkpt>
    <trkpt lat="50.9562488" lon="6.9047629">
      <time>2024-03-02T16:59:27Z</time>
    </trkpt>
    <trkpt lat="50.9563621" lon="6.9044358">
      <time>2024-03-02T16:59:31Z</time>
    </trkpt>
    <trkpt lat="50.9564455" lon="6.9041842">
      <time>2024-03-02T16:59:34Z</time>
    </trkpt>
    <trkpt lat="50.9565341" lon="6.9039249">
      <time>2024-03-02T16:59:37Z</time>
    </trkpt>
    <trkpt lat="50.9565637" lon="6.9038386">
      <time>2024-03-02T16:59:38Z</time>
    </trkpt>
    <trkpt lat="50.9566728" lon="6.9035230">
      <time>2024-03-02T16:59:42Z</time>
    </trkpt>
    <trkpt lat="50.9568734" lon="6.9029790">
      <time>2024-03-02T16:59:50Z</time>
    </trkpt>
    <trkpt lat="50.9569043" lon="6.9028867">
      <time>2024-03-02T16:59:51Z</time>
    </trkpt>
    <trkpt lat="50.9570566" lon="6.9023003">
      <time>2024-03-02T16:59:58Z</time>
    </trkpt>
    <trkpt lat="50.9571954" lon="6.9017716">
      <time>2024-03-02T17:00:05Z</time>
    </trkpt>
    <trkpt lat="50.9572224" lon="6.9016867">
      <time>2024-03-02T17:00:06Z</time>
    </trkpt>
    <trkpt lat="50.9572498" lon="6.9016164">
      <time>2024-03-02T17:00:07Z</time>
    </trkpt>
    <trkpt lat="50.9573577" lon="6.9014512">
      <time>2024-03-02T17:00:10Z</time>
    </trkpt>
    <trkpt lat="50.9574190" lon="6.9013054">
      <time>2024-03-02T17:00:12Z</time>
    </trkpt>
    <trkpt lat="50.9574591" lon="6.9011569">
      <time>2024-03-02T17:00:14Z</time>
    </trkpt>
    <trkpt lat="50.9574838" lon="6.9010855">
      <time>2024-03-02T17:00:15Z</time>
    </trkpt>
    <trkpt lat="50.9575274" lon="6.9009476">
      <time>2024-03-02T17:00:17Z</time>
    </trkpt>
    <trkpt lat="50.9575629" lon="6.9008179">
      <time>2024-03-02T17:00:19Z</time>
    </trkpt>
    <trkpt lat="50.9576065" lon="6.9006843">
      <time>2024-03-02T17:00:21Z</time>
    </trkpt>
    <trkpt lat="50.9576602" lon="6.9005324">
      <time>2024-03-02T17:00:23Z</time>
    </trkpt>
    <trkpt lat="50.9576906" lon="6.9004590">
      <time>2024-03-02T17:00:24Z</time>
    </trkpt>
    <trkpt lat="50.9577184" lon="6.9003826">
      <time>2024-03-02T17:00:25Z</time>
    </trkpt>
    <trkpt lat="50.9577780" lon="6.9002176">
      <time>2024-03-02T17:00:27Z</time>
    </trkpt>
    <trkpt lat="50.9578481" lon="6.9000461">
      <time>2024-03-02T17:00:29Z</time>
    </trkpt>
    <trkpt lat="50.9581025" lon="6.8994987">
      <time>2024-03-02T17:00:36Z</time>
    </trkpt>
    <trkpt lat="50.9581606" lon="6.8993744">
      <time>2024-03-02T17:00:38Z</time>
    </trkpt>
    <trkpt lat="50.9582141" lon="6.8992524">
      <time>2024-03-02T17:00:40Z</time>
    </trkpt>
    <trkpt lat="50.9583438" lon="6.8990251">
      <time>2024-03-02T17:00:44Z</time>
    </trkpt>
    <trkpt lat="50.9583770" lon="6.8989586">
      <time>2024-03-02T17:00:45Z</time>
    </trkpt>
    <trkpt lat="50.9584806" lon="6.8987307">
      <time>2024-03-02T17:00:48Z</time>
    </trkpt>
    <trkpt lat="50.9585531" lon="6.8985469">
      <time>2024-03-02T17:00:50Z</time>
    </trkpt>
    <trkpt lat="50.9588490" lon="6.8979192">
      <time>2024-03-02T17:00:57Z</time>
    </trkpt>
    <trkpt lat="50.9589746" lon="6.8976446">
      <time>2024-03-02T17:01:00Z</time>
    </trkpt>
    <trkpt lat="50.9591797" lon="6.8971985">
      <time>2024-03-02T17:01:05Z</time>
    </trkpt>
    <trkpt lat="50.9592193" lon="6.8971146">
      <time>2024-03-02T17:01:06Z</time>
    </trkpt>
    <trkpt lat="50.9592605" lon="6.8970354">
      <time>2024-03-02T17:01:07Z</time>
    </trkpt>
    <trkpt lat="50.9593370" lon="6.8968651">
      <time>2024-03-02T17:01:09Z</time>
    </trkpt>
    <trkpt lat="50.9594949" lon="6.8965200">
      <time>2024-03-02T17:01:13Z</time>
    </trkpt>
    <trkpt lat="50.9597300" lon="6.8960099">
      <time>2024-03-02T17:01:19Z</time>
    </trkpt>
    <trkpt lat="50.9600718" lon="6.8953467">
      <time>2024-03-02T17:01:27Z</time>
    </trkpt>
    <trkpt lat="50.9604376" lon="6.8946310">
      <time>2024-03-02T17:01:36Z</time>
    </trkpt>
    <trkpt lat="50.9606731" lon="6.8941665">
      <time>2024-03-02T17:01:42Z</time>
    </trkpt>
    <trkpt lat="50.9607036" lon="6.8940887">
      <time>2024-03-02T17:01:43Z</time>
    </trkpt>
    <trkpt lat="50.9607790" lon="6.8938482">
      <time>2024-03-02T17:01:46Z</time>
    </trkpt>
    <trkpt lat="50.9608107" lon="6.8937735">
      <time>2024-03-02T17:01:47Z</time>
    </trkpt>
    <trkpt lat="50.9608868" lon="6.8936378">
      <time>2024-03-02T17:01:49Z</time>
    </trkpt>
    <trkpt lat="50.9609844" lon="6.8935518">
      <time>2024-03-02T17:01:51Z</time>
    </trkpt>
    <trkpt lat="50.9610647" lon="6.8934394">
      <time>2024-03-02T17:01:53Z</time>
    </trkpt>
    <trkpt lat="50.9611314" lon="6.8932979">
      <time>2024-03-02T17:01:55Z</time>
    </trkpt>
    <trkpt lat="50.9612720" lon="6.8929824">
      <time>2024-03-02T17:02:00Z</time>
    </trkpt>
    <trkpt lat="50.9612798" lon="6.8929255">
      <time>2024-03-02T17:02:01Z</time>
    </trkpt>
    <trkpt lat="50.9612509" lon="6.8928238">
      <time>2024-03-02T17:02:03Z</time>
    </trkpt>
    <trkpt lat="50.9612223" lon="6.8927889">
      <time>2024-03-02T17:02:04Z</time>
    </trkpt>
    <trkpt lat="50.9611413" lon="6.8926898">
      <time>2024-03-02T17:02:08Z</time>
    </trkpt>
    <trkpt lat="50.9611385" lon="6.8926486">
      <time>2024-03-02T17:02:09Z</time>
    </trkpt>
    <trkpt lat="50.9611207" lon="6.8926024">
      <time>2024-03-02T17:02:10Z</time>
    </trkpt>
    <trkpt lat="50.9610672" lon="6.8925129">
      <time>2024-03-02T17:02:12Z</time>
    </trkpt>
    <trkpt lat="50.9609883" lon="6.8923047">
      <time>2024-03-02T17:02:16Z</time>
    </trkpt>
    <trkpt lat="50.9609485" lon="6.8921961">
      <time>2024-03-02T17:02:18Z</time>
    </trkpt>
    <trkpt lat="50.9608493" lon="6.8920018">
      <time>2024-03-02T17:02:21Z</time>
    </trkpt>
    <trkpt lat="50.9608295" lon="6.8919224">
      <time>2024-03-02T17:02:22Z</time>
    </trkpt>
    <trkpt lat="50.9608082" lon="6.8918459">
      <time>2024-03-02T17:02:23Z</time>
    </trkpt>
    <trkpt lat="50.9606913" lon="6.8915813">
      <time>2024-03-02T17:02:27Z</time>
    </trkpt>
    <trkpt lat="50.9604080" lon="6.8909994">
      <time>2024-03-02T17:02:36Z</time>
    </trkpt>
    <trkpt lat="50.9603796" lon="6.8909410">
      <time>2024-03-02T17:02:37Z</time>
    </trkpt>
    <trkpt lat="50.9603314" lon="6.8908056">
      <time>2024-03-02T17:02:39Z</time>
    </trkpt>
    <trkpt lat="50.9602907" lon="6.8906506">
      <time>2024-03-02T17:02:41Z</time>
    </trkpt>
    <trkpt lat="50.9602627" lon="6.8904829">
      <time>2024-03-02T17:02:43Z</time>
    </trkpt>
    <trkpt lat="50.9602345" lon="6.8903174">
      <time>2024-03-02T17:02:45Z</time>
    </trkpt>
    <trkpt lat="50.9602315" lon="6.8902340">
      <time>2024-03-02T17:02:46Z</time>
    </trkpt>
    <trkpt lat="50.9602354" lon="6.8901417">
      <time>2024-03-02T17:02:47Z</time>
    </trkpt>
    <trkpt lat="50.9602676" lon="6.8896490">
      <time>2024-03-02T17:02:52Z</time>
    </trkpt>
    <trkpt lat="50.9603383" lon="6.8892467">
      <time>2024-03-02T17:02:57Z</time>
    </trkpt>
    <trkpt lat="50.9603447" lon="6.8882289">
      <time>2024-03-02T17:03:09Z</time>
    </trkpt>
    <trkpt lat="50.9603508" lon="6.8879475">
      <time>2024-03-02T17:03:12Z</time>
    </trkpt>
    <trkpt lat="50.9603014" lon="6.8874484">
      <time>2024-03-02T17:03:18Z</time>
    </trkpt>
    <trkpt lat="50.9602777" lon="6.8872918">
      <time>2024-03-02T17:03:20Z</time>
    </trkpt>
    <trkpt lat="50.9601664" lon="6.8866188">
      <time>2024-03-02T17:03:28Z</time>
    </trkpt>
    <trkpt lat="50.9600053" lon="6.8861861">
      <time>2024-03-02T17:03:34Z</time>
    </trkpt>
    <trkpt lat="50.9599714" lon="6.8861238">
      <time>2024-03-02T17:03:35Z</time>
    </trkpt>
    <trkpt lat="50.9599182" lon="6.8860240">
      <time>2024-03-02T17:03:37Z</time>
    </trkpt>
    <trkpt lat="50.9599181" lon="6.8859763">
      <time>2024-03-02T17:03:38Z</time>
    </trkpt>
    <trkpt lat="50.9599300" lon="6.8859333">
      <time>2024-03-02T17:03:39Z</time>
    </trkpt>
    <trkpt lat="50.9599860" lon="6.8858842">
      <time>2024-03-02T17:03:41Z</time>
    </trkpt>
    <trkpt lat="50.9600314" lon="6.8858730">
      <time>2024-03-02T17:03:42Z</time>
    </trkpt>
    <trkpt lat="50.9601836" lon="6.8858138">
      <time>2024-03-02T17:03:47Z</time>
    </trkpt>
    <trkpt lat="50.9603191" lon="6.8857937">
      <time>2024-03-02T17:03:51Z</time>
    </trkpt>
    <trkpt lat="50.9603926" lon="6.8857773">
      <time>2024-03-02T17:03:53Z</time>
    </trkpt>
    <trkpt lat="50.9606259" lon="6.8857333">
      <time>2024-03-02T17:03:59Z</time>
    </trkpt>
    <trkpt lat="50.9607783" lon="6.8856998">
      <time>2024-03-02T17:04:02Z</time>
    </trkpt>
    <trkpt lat="50.9608939" lon="6.8856802">
      <time>2024-03-02T17:04:04Z</time>
    </trkpt>
    <trkpt lat="50.9612173" lon="6.8855788">
      <time>2024-03-02T17:04:10Z</time>
    </trkpt>
    <trkpt lat="50.9612570" lon="6.8855517">
      <time>2024-03-02T17:04:11Z</time>
    </trkpt>
    <trkpt lat="50.9615321" lon="6.8853004">
      <time>2024-03-02T17:04:17Z</time>
    </trkpt>
    <trkpt lat="50.9617126" lon="6.8851401">
      <time>2024-03-02T17:04:21Z</time>
    </trkpt>
    <trkpt lat="50.9618101" lon="6.8850919">
      <time>2024-03-02T17:04:23Z</time>
    </trkpt>
    <trkpt lat="50.9619511" lon="6.8850141">
      <time>2024-03-02T17:04:26Z</time>
    </trkpt>
    <trkpt lat="50.9620192" lon="6.8849112">
      <time>2024-03-02T17:04:28Z</time>
    </trkpt>
    <trkpt lat="50.9620423" lon="6.8847719">
      <time>2024-03-02T17:04:30Z</time>
    </trkpt>
    <trkpt lat="50.9620553" lon="6.8846255">
      <time>2024-03-02T17:04:32Z</time>
    </trkpt>
    <trkpt lat="50.9620642" lon="6.8844792">
      <time>2024-03-02T17:04:34Z</time>
    </trkpt>
    <trkpt lat="50.9620740" lon="6.8843092">
      <time>2024-03-02T17:04:36Z</time>
    </trkpt>
    <trkpt lat="50.9620737" lon="6.8842203">
      <time>2024-03-02T17:04:37Z</time>
    </trkpt>
    <trkpt lat="50.9620885" lon="6.8840597">
      <time>2024-03-02T17:04:39Z</time>
    </trkpt>
    <trkpt lat="50.9621280" lon="6.8839122">
      <time>2024-03-02T17:04:41Z</time>
    </trkpt>
    <trkpt lat="50.9622154" lon="6.8833831">
      <time>2024-03-02T17:04:47Z</time>
    </trkpt>
    <trkpt lat="50.9622452" lon="6.8831983">
      <time>2024-03-02T17:04:49Z</time>
    </trkpt>
    <trkpt lat="50.9622667" lon="6.8830055">
      <time>2024-03-02T17:04:51Z</time>
    </trkpt>
    <trkpt lat="50.9622896" lon="6.8828195">
      <time>2024-03-02T17:04:53Z</time>
    </trkpt>
    <trkpt lat="50.9623325" lon="6.8825450">
      <time>2024-03-02T17:04:56Z</time>
    </trkpt>
    <trkpt lat="50.9623663" lon="6.8821780">
      <time>2024-03-02T17:05:00Z</time>
    </trkpt>
    <trkpt lat="50.9623983" lon="6.8819980">
      <time>2024-03-02T17:05:02Z</time>
    </trkpt>
    <trkpt lat="50.9624887" lon="6.8814197">
      <time>2024-03-02T17:05:09Z</time>
    </trkpt>
    <trkpt lat="50.9625863" lon="6.8808207">
      <time>2024-03-02T17:05:17Z</time>
    </trkpt>
    <trkpt lat="50.9626094" lon="6.8806721">
      <time>2024-03-02T17:05:19Z</time>
    </trkpt>
    <trkpt lat="50.9626527" lon="6.8803818">
      <time>2024-03-02T17:05:23Z</time>
    </trkpt>
    <trkpt lat="50.9626731" lon="6.8802397">
      <time>2024-03-02T17:05:25Z</time>
    </trkpt>
    <trkpt lat="50.9627841" lon="6.8795728">
      <time>2024-03-02T17:05:34Z</time>
    </trkpt>
    <trkpt lat="50.9628272" lon="6.8792841">
      <time>2024-03-02T17:05:38Z</time>
    </trkpt>
    <trkpt lat="50.9628651" lon="6.8790740">
      <time>2024-03-02T17:05:41Z</time>
    </trkpt>
    <trkpt lat="50.9628823" lon="6.8790107">
      <time>2024-03-02T17:05:42Z</time>
    </trkpt>
    <trkpt lat="50.9629515" lon="6.8788488">
      <time>2024-03-02T17:05:45Z</time>
    </trkpt>
    <trkpt lat="50.9630549" lon="6.8786658">
      <time>2024-03-02T17:05:49Z</time>
    </trkpt>
    <trkpt lat="50.9631841" lon="6.8785281">
      <time>2024-03-02T17:05:53Z</time>
    </trkpt>
    <trkpt lat="50.9632642" lon="6.8784332">
      <time>2024-03-02T17:05:55Z</time>
    </trkpt>
    <trkpt lat="50.9633957" lon="6.8783164">
      <time>2024-03-02T17:05:58Z</time>
    </trkpt>
    <trkpt lat="50.9634379" lon="6.8782959">
      <time>2024-03-02T17:05:59Z</time>
    </trkpt>
    <trkpt lat="50.9634809" lon="6.8782777">
      <time>2024-03-02T17:06:00Z</time>
    </trkpt>
    <trkpt lat="50.9635866" lon="6.8781975">
      <time>2024-03-02T17:06:03Z</time>
    </trkpt>
    <trkpt lat="50.9637076" lon="6.8780710">
      <time>2024-03-02T17:06:08Z</time>
    </trkpt>
    <trkpt lat="50.9637210" lon="6.8780302">
      <time>2024-03-02T17:06:11Z</time>
    </trkpt>
    <trkpt lat="50.9637549" lon="6.8779845">
      <time>2024-03-02T17:06:13Z</time>
    </trkpt>
    <trkpt lat="50.9637103" lon="6.8778993">
      <time>2024-03-02T17:06:16Z</time>
    </trkpt>
    <trkpt lat="50.9636280" lon="6.8777769">
      <time>2024-03-02T17:06:19Z</time>
    </trkpt>
    <trkpt lat="50.9635555" lon="6.8776960">
      <time>2024-03-02T17:06:21Z</time>
    </trkpt>
    <trkpt lat="50.9635242" lon="6.8776446">
      <time>2024-03-02T17:06:22Z</time>
    </trkpt>
    <trkpt lat="50.9634604" lon="6.8775307">
      <time>2024-03-02T17:06:24Z</time>
    </trkpt>
    <trkpt lat="50.9634251" lon="6.8774746">
      <time>2024-03-02T17:06:25Z</time>
    </trkpt>
    <trkpt lat="50.9633625" lon="6.8773499">
      <time>2024-03-02T17:06:27Z</time>
    </trkpt>
    <trkpt lat="50.9633014" lon="6.8772342">
      <time>2024-03-02T17:06:29Z</time>
    </trkpt>
    <trkpt lat="50.9632655" lon="6.8771853">
      <time>2024-03-02T17:06:30Z</time>
    </trkpt>
    <trkpt lat="50.9631955" lon="6.8770952">
      <time>2024-03-02T17:06:32Z</time>
    </trkpt>
    <trkpt lat="50.9631305" lon="6.8769886">
      <time>2024-03-02T17:06:34Z</time>
    </trkpt>
    <trkpt lat="50.9631087" lon="6.8769352">
      <time>2024-03-02T17:06:35Z</time>
    </trkpt>
    <trkpt lat="50.9630941" lon="6.8768708">
      <time>2024-03-02T17:06:36Z</time>
    </trkpt>
    <trkpt lat="50.9630841" lon="6.8767155">
      <time>2024-03-02T17:06:38Z</time>
    </trkpt>
    <trkpt lat="50.9631077" lon="6.8765388">
      <time>2024-03-02T17:06:40Z</time>
    </trkpt>
    <trkpt lat="50.9631520" lon="6.8764029">
      <time>2024-03-02T17:06:42Z</time>
    </trkpt>
    <trkpt lat="50.9632074" lon="6.8762187">
      <time>2024-03-02T17:06:45Z</time>
    </trkpt>
    <trkpt lat="50.9632287" lon="6.8761606">
      <time>2024-03-02T17:06:46Z</time>
    </trkpt>
    <trkpt lat="50.9632934" lon="6.8759920">
      <time>2024-03-02T17:06:49Z</time>
    </trkpt>
    <trkpt lat="50.9633452" lon="6.8759386">
      <time>2024-03-02T17:06:51Z</time>
    </trkpt>
    <trkpt lat="50.9634360" lon="6.8759241">
      <time>2024-03-02T17:06:55Z</time>
    </trkpt>
    <trkpt lat="50.9634437" lon="6.8758846">
      <time>2024-03-02T17:06:58Z</time>
    </trkpt>
    <trkpt lat="50.9634437" lon="6.8758846">
      <time>2024-03-02T17:07:00Z</time>
    </trkpt>
  </trkseg></trk>
</gpx>
