<?xml version="1.0" encoding="UTF-8"?>
<gpx version="1.1" creator="Diary FIT converter" xmlns="http://www.topografix.com/GPX/1/1">
  <trk><name>Cycling</name><trkseg>
    <trkpt lat="50.8920453" lon="7.0485059">
      <ele>33.4</ele>
      <time>2019-08-28T16:47:25Z</time>
    </trkpt>
    <trkpt lat="50.8923031" lon="7.0480500">
      <ele>30.6</ele>
      <time>2019-08-28T16:47:31Z</time>
    </trkpt>
    <trkpt lat="50.8924938" lon="7.0477540">
      <ele>27.6</ele>
      <time>2019-08-28T16:47:34Z</time>
    </trkpt>
    <trkpt lat="50.8928808" lon="7.0470584">
      <ele>29.0</ele>
      <time>2019-08-28T16:47:42Z</time>
    </trkpt>
    <trkpt lat="50.8932383" lon="7.0464086">
      <ele>29.0</ele>
      <time>2019-08-28T16:47:50Z</time>
    </trkpt>
    <trkpt lat="50.8935121" lon="7.0458232">
      <ele>28.6</ele>
      <time>2019-08-28T16:47:57Z</time>
    </trkpt>
    <trkpt lat="50.8938174" lon="7.0450175">
      <ele>28.2</ele>
      <time>2019-08-28T16:48:06Z</time>
    </trkpt>
    <trkpt lat="50.8940438" lon="7.0443703">
      <ele>30.0</ele>
      <time>2019-08-28T16:48:13Z</time>
    </trkpt>
    <trkpt lat="50.8943515" lon="7.0435630">
      <ele>29.4</ele>
      <time>2019-08-28T16:48:22Z</time>
    </trkpt>
    <trkpt lat="50.8946053" lon="7.0427357">
      <ele>29.8</ele>
      <time>2019-08-28T16:48:31Z</time>
    </trkpt>
    <trkpt lat="50.8948360" lon="7.0418837">
      <ele>29.2</ele>
      <time>2019-08-28T16:48:40Z</time>
    </trkpt>
    <trkpt lat="50.8950111" lon="7.0410950">
      <ele>29.8</ele>
      <time>2019-08-28T16:48:48Z</time>
    </trkpt>
    <trkpt lat="50.8951854" lon="7.0402792">
      <ele>30.6</ele>
      <time>2019-08-28T16:48:56Z</time>
    </trkpt>
    <trkpt lat="50.8953647" lon="7.0394675">
      <ele>30.4</ele>
      <time>2019-08-28T16:49:04Z</time>
    </trkpt>
    <trkpt lat="50.8955351" lon="7.0386407">
      <ele>31.0</ele>
      <time>2019-08-28T16:49:12Z</time>
    </trkpt>
    <trkpt lat="50.8956126" lon="7.0382036">
      <ele>31.2</ele>
      <time>2019-08-28T16:49:16Z</time>
    </trkpt>
    <trkpt lat="50.8957178" lon="7.0375450">
      <ele>31.4</ele>
      <time>2019-08-28T16:49:22Z</time>
    </trkpt>
    <trkpt lat="50.8957351" lon="7.0374389">
      <ele>31.2</ele>
      <time>2019-08-28T16:49:23Z</time>
    </trkpt>
    <trkpt lat="50.8957506" lon="7.0373293">
      <ele>31.2</ele>
      <time>2019-08-28T16:49:24Z</time>
    </trkpt>
    <trkpt lat="50.8958686" lon="7.0364671">
      <ele>31.4</ele>
      <time>2019-08-28T16:49:32Z</time>
    </trkpt>
    <trkpt lat="50.8959340" lon="7.0358610">
      <ele>31.6</ele>
      <time>2019-08-28T16:49:38Z</time>
    </trkpt>
    <trkpt lat="50.8959445" lon="7.0357562">
      <ele>32.0</ele>
      <time>2019-08-28T16:49:39Z</time>
    </trkpt>
    <trkpt lat="50.8959671" lon="7.0355431">
      <ele>32.2</ele>
      <time>2019-08-28T16:49:41Z</time>
    </trkpt>
    <trkpt lat="50.8960425" lon="7.0346654">
      <ele>33.4</ele>
      <time>2019-08-28T16:49:49Z</time>
    </trkpt>
    <trkpt lat="50.8960784" lon="7.0343258">
      <ele>34.2</ele>
      <time>2019-08-28T16:49:52Z</time>
    </trkpt>
    <trkpt lat="50.8961959" lon="7.0334359">
      <ele>35.8</ele>
      <time>2019-08-28T16:50:00Z</time>
    </trkpt>
    <trkpt lat="50.8962773" lon="7.0325783">
      <ele>36.4</ele>
      <time>2019-08-28T16:50:08Z</time>
    </trkpt>
    <trkpt lat="50.8963695" lon="7.0317113">
      <ele>36.2</ele>
      <time>2019-08-28T16:50:16Z</time>
    </trkpt>
    <trkpt lat="50.8963921" lon="7.0315009">
      <ele>36.2</ele>
      <time>2019-08-28T16:50:18Z</time>
    </trkpt>
    <trkpt lat="50.8964646" lon="7.0305612">
      <ele>36.0</ele>
      <time>2019-08-28T16:50:27Z</time>
    </trkpt>
    <trkpt lat="50.8964806" lon="7.0299332">
      <ele>36.0</ele>
      <time>2019-08-28T16:50:33Z</time>
    </trkpt>
    <trkpt lat="50.8964964" lon="7.0289827">
      <ele>36.0</ele>
      <time>2019-08-28T16:50:42Z</time>
    </trkpt>
    <trkpt lat="50.8965047" lon="7.0280294">
      <ele>36.0</ele>
      <time>2019-08-28T16:50:51Z</time>
    </trkpt>
    <trkpt lat="50.8965014" lon="7.0273940">
      <ele>36.2</ele>
      <time>2019-08-28T16:50:57Z</time>
    </trkpt>
    <trkpt lat="50.8964810" lon="7.0264721">
      <ele>36.6</ele>
      <time>2019-08-28T16:51:06Z</time>
    </trkpt>
    <trkpt lat="50.8964727" lon="7.0260602">
      <ele>36.2</ele>
      <time>2019-08-28T16:51:10Z</time>
    </trkpt>
    <trkpt lat="50.8964520" lon="7.0251289">
      <ele>35.6</ele>
      <time>2019-08-28T16:51:19Z</time>
    </trkpt>
    <trkpt lat="50.8964255" lon="7.0241887">
      <ele>35.4</ele>
      <time>2019-08-28T16:51:28Z</time>
    </trkpt>
    <trkpt lat="50.8964281" lon="7.0232424">
      <ele>34.6</ele>
      <time>2019-08-28T16:51:37Z</time>
    </trkpt>
    <trkpt lat="50.8963965" lon="7.0223847">
      <ele>32.8</ele>
      <time>2019-08-28T16:51:45Z</time>
    </trkpt>
    <trkpt lat="50.8963782" lon="7.0214916">
      <ele>32.0</ele>
      <time>2019-08-28T16:51:53Z</time>
    </trkpt>
    <trkpt lat="50.8963756" lon="7.0213796">
      <ele>32.0</ele>
      <time>2019-08-28T16:51:54Z</time>
    </trkpt>
    <trkpt lat="50.8963605" lon="7.0208146">
      <ele>32.6</ele>
      <time>2019-08-28T16:51:59Z</time>
    </trkpt>
    <trkpt lat="50.8963603" lon="7.0207028">
      <ele>32.8</ele>
      <time>2019-08-28T16:52:00Z</time>
    </trkpt>
    <trkpt lat="50.8963564" lon="7.0205918">
      <ele>32.8</ele>
      <time>2019-08-28T16:52:01Z</time>
    </trkpt>
    <trkpt lat="50.8963497" lon="7.0204819">
      <ele>32.8</ele>
      <time>2019-08-28T16:52:02Z</time>
    </trkpt>
    <trkpt lat="50.8963426" lon="7.0203712">
      <ele>32.6</ele>
      <time>2019-08-28T16:52:03Z</time>
    </trkpt>
    <trkpt lat="50.8963349" lon="7.0202592">
      <ele>32.6</ele>
      <time>2019-08-28T16:52:04Z</time>
    </trkpt>
    <trkpt lat="50.8963301" lon="7.0201463">
      <ele>32.8</ele>
      <time>2019-08-28T16:52:05Z</time>
    </trkpt>
    <trkpt lat="50.8963271" lon="7.0200337">
      <ele>33.0</ele>
      <time>2019-08-28T16:52:06Z</time>
    </trkpt>
    <trkpt lat="50.8963101" lon="7.0192547">
      <ele>33.6</ele>
      <time>2019-08-28T16:52:13Z</time>
    </trkpt>
    <trkpt lat="50.8962999" lon="7.0190301">
      <ele>33.8</ele>
      <time>2019-08-28T16:52:15Z</time>
    </trkpt>
    <trkpt lat="50.8962929" lon="7.0188055">
      <ele>33.8</ele>
      <time>2019-08-28T16:52:17Z</time>
    </trkpt>
    <trkpt lat="50.8962852" lon="7.0185811">
      <ele>33.8</ele>
      <time>2019-08-28T16:52:19Z</time>
    </trkpt>
    <trkpt lat="50.8963074" lon="7.0178152">
      <ele>34.0</ele>
      <time>2019-08-28T16:52:26Z</time>
    </trkpt>
    <trkpt lat="50.8963053" lon="7.0172111">
      <ele>34.6</ele>
      <time>2019-08-28T16:52:32Z</time>
    </trkpt>
    <trkpt lat="50.8963226" lon="7.0162627">
      <ele>33.6</ele>
      <time>2019-08-28T16:52:41Z</time>
    </trkpt>
    <trkpt lat="50.8963567" lon="7.0156422">
      <ele>33.2</ele>
      <time>2019-08-28T16:52:47Z</time>
    </trkpt>
    <trkpt lat="50.8964766" lon="7.0150665">
      <ele>31.4</ele>
      <time>2019-08-28T16:52:53Z</time>
    </trkpt>
    <trkpt lat="50.8965849" lon="7.0146317">
      <ele>31.0</ele>
      <time>2019-08-28T16:52:58Z</time>
    </trkpt>
    <trkpt lat="50.8966379" lon="7.0137006">
      <ele>35.4</ele>
      <time>2019-08-28T16:53:07Z</time>
    </trkpt>
    <trkpt lat="50.8967471" lon="7.0128256">
      <ele>37.6</ele>
      <time>2019-08-28T16:53:16Z</time>
    </trkpt>
    <trkpt lat="50.8967899" lon="7.0125371">
      <ele>38.4</ele>
      <time>2019-08-28T16:53:19Z</time>
    </trkpt>
    <trkpt lat="50.8969317" lon="7.0116517">
      <ele>37.6</ele>
      <time>2019-08-28T16:53:28Z</time>
    </trkpt>
    <trkpt lat="50.8970531" lon="7.0107536">
      <ele>37.2</ele>
      <time>2019-08-28T16:53:37Z</time>
    </trkpt>
    <trkpt lat="50.8971674" lon="7.0098394">
      <ele>36.6</ele>
      <time>2019-08-28T16:53:46Z</time>
    </trkpt>
    <trkpt lat="50.8972447" lon="7.0093154">
      <ele>37.4</ele>
      <time>2019-08-28T16:53:51Z</time>
    </trkpt>
    <trkpt lat="50.8972678" lon="7.0091090">
      <ele>38.0</ele>
      <time>2019-08-28T16:53:53Z</time>
    </trkpt>
    <trkpt lat="50.8973428" lon="7.0085004">
      <ele>37.8</ele>
      <time>2019-08-28T16:53:59Z</time>
    </trkpt>
    <trkpt lat="50.8973855" lon="7.0082011">
      <ele>36.8</ele>
      <time>2019-08-28T16:54:02Z</time>
    </trkpt>
    <trkpt lat="50.8974694" lon="7.0076197">
      <ele>35.8</ele>
      <time>2019-08-28T16:54:08Z</time>
    </trkpt>
    <trkpt lat="50.8975222" lon="7.0072362">
      <ele>36.0</ele>
      <time>2019-08-28T16:54:12Z</time>
    </trkpt>
    <trkpt lat="50.8976411" lon="7.0063578">
      <ele>37.4</ele>
      <time>2019-08-28T16:54:21Z</time>
    </trkpt>
    <trkpt lat="50.8977084" lon="7.0058904">
      <ele>38.0</ele>
      <time>2019-08-28T16:54:26Z</time>
    </trkpt>
    <trkpt lat="50.8977522" lon="7.0054225">
      <ele>38.6</ele>
      <time>2019-08-28T16:54:31Z</time>
    </trkpt>
    <trkpt lat="50.8977923" lon="7.0048264">
      <ele>39.2</ele>
      <time>2019-08-28T16:54:37Z</time>
    </trkpt>
    <trkpt lat="50.8978158" lon="7.0043423">
      <ele>39.8</ele>
      <time>2019-08-28T16:54:42Z</time>
    </trkpt>
    <trkpt lat="50.8977843" lon="7.0042003">
      <ele>40.6</ele>
      <time>2019-08-28T16:54:44Z</time>
    </trkpt>
    <trkpt lat="50.8977102" lon="7.0041419">
      <ele>41.2</ele>
      <time>2019-08-28T16:54:46Z</time>
    </trkpt>
    <trkpt lat="50.8976109" lon="7.0041047">
      <ele>41.4</ele>
      <time>2019-08-28T16:54:48Z</time>
    </trkpt>
    <trkpt lat="50.8974381" lon="7.0040442">
      <ele>40.8</ele>
      <time>2019-08-28T16:54:51Z</time>
    </trkpt>
    <trkpt lat="50.8973475" lon="7.0039304">
      <ele>41.2</ele>
      <time>2019-08-28T16:54:53Z</time>
    </trkpt>
    <trkpt lat="50.8973234" lon="7.0037533">
      <ele>40.8</ele>
      <time>2019-08-28T16:54:55Z</time>
    </trkpt>
    <trkpt lat="50.8973518" lon="7.0035594">
      <ele>40.2</ele>
      <time>2019-08-28T16:54:57Z</time>
    </trkpt>
    <trkpt lat="50.8973932" lon="7.0031707">
      <ele>42.4</ele>
      <time>2019-08-28T16:55:01Z</time>
    </trkpt>
    <trkpt lat="50.8974122" lon="7.0028904">
      <ele>44.4</ele>
      <time>2019-08-28T16:55:04Z</time>
    </trkpt>
    <trkpt lat="50.8975044" lon="7.0025520">
      <ele>45.6</ele>
      <time>2019-08-28T16:55:08Z</time>
    </trkpt>
    <trkpt lat="50.8975478" lon="7.0023643">
      <ele>45.8</ele>
      <time>2019-08-28T16:55:10Z</time>
    </trkpt>
    <trkpt lat="50.8975660" lon="7.0022725">
      <ele>46.4</ele>
      <time>2019-08-28T16:55:11Z</time>
    </trkpt>
    <trkpt lat="50.8976040" lon="7.0020826">
      <ele>46.6</ele>
      <time>2019-08-28T16:55:13Z</time>
    </trkpt>
    <trkpt lat="50.8976470" lon="7.0018959">
      <ele>46.6</ele>
      <time>2019-08-28T16:55:15Z</time>
    </trkpt>
    <trkpt lat="50.8977151" lon="7.0017198">
      <ele>44.6</ele>
      <time>2019-08-28T16:55:17Z</time>
    </trkpt>
    <trkpt lat="50.8977988" lon="7.0015784">
      <ele>43.4</ele>
      <time>2019-08-28T16:55:19Z</time>
    </trkpt>
    <trkpt lat="50.8978682" lon="7.0014274">
      <ele>43.0</ele>
      <time>2019-08-28T16:55:21Z</time>
    </trkpt>
    <trkpt lat="50.8980107" lon="7.0006044">
      <ele>44.6</ele>
      <time>2019-08-28T16:55:30Z</time>
    </trkpt>
    <trkpt lat="50.8980392" lon="7.0005208">
      <ele>44.4</ele>
      <time>2019-08-28T16:55:31Z</time>
    </trkpt>
    <trkpt lat="50.8981309" lon="7.0004392">
      <ele>43.0</ele>
      <time>2019-08-28T16:55:33Z</time>
    </trkpt>
    <trkpt lat="50.8982407" lon="7.0004786">
      <ele>41.8</ele>
      <time>2019-08-28T16:55:35Z</time>
    </trkpt>
    <trkpt lat="50.8984046" lon="7.0005861">
      <ele>41.6</ele>
      <time>2019-08-28T16:55:38Z</time>
    </trkpt>
    <trkpt lat="50.8985096" lon="7.0005646">
      <ele>41.0</ele>
      <time>2019-08-28T16:55:40Z</time>
    </trkpt>
    <trkpt lat="50.8985724" lon="7.0004218">
      <ele>41.4</ele>
      <time>2019-08-28T16:55:42Z</time>
    </trkpt>
    <trkpt lat="50.8986435" lon="7.0000589">
      <ele>41.6</ele>
      <time>2019-08-28T16:55:46Z</time>
    </trkpt>
    <trkpt lat="50.8988845" lon="6.9992163">
      <ele>41.8</ele>
      <time>2019-08-28T16:55:56Z</time>
    </trkpt>
    <trkpt lat="50.8991564" lon="6.9984585">
      <ele>39.8</ele>
      <time>2019-08-28T16:56:05Z</time>
    </trkpt>
    <trkpt lat="50.8992778" lon="6.9981222">
      <ele>38.4</ele>
      <time>2019-08-28T16:56:09Z</time>
    </trkpt>
    <trkpt lat="50.8996098" lon="6.9973373">
      <ele>37.4</ele>
      <time>2019-08-28T16:56:18Z</time>
    </trkpt>
    <trkpt lat="50.8999104" lon="6.9965302">
      <ele>36.4</ele>
      <time>2019-08-28T16:56:27Z</time>
    </trkpt>
    <trkpt lat="50.9001456" lon="6.9959453">
      <ele>36.4</ele>
      <time>2019-08-28T16:56:34Z</time>
    </trkpt>
    <trkpt lat="50.9004712" lon="6.9951923">
      <ele>39.2</ele>
      <time>2019-08-28T16:56:43Z</time>
    </trkpt>
    <trkpt lat="50.9008207" lon="6.9944429">
      <ele>36.8</ele>
      <time>2019-08-28T16:56:53Z</time>
    </trkpt>
    <trkpt lat="50.9011876" lon="6.9937277">
      <ele>34.0</ele>
      <time>2019-08-28T16:57:03Z</time>
    </trkpt>
    <trkpt lat="50.9015594" lon="6.9930399">
      <ele>31.6</ele>
      <time>2019-08-28T16:57:14Z</time>
    </trkpt>
    <trkpt lat="50.9020138" lon="6.9924244">
      <ele>26.6</ele>
      <time>2019-08-28T16:57:23Z</time>
    </trkpt>
    <trkpt lat="50.9022254" lon="6.9921222">
      <ele>30.4</ele>
      <time>2019-08-28T16:57:28Z</time>
    </trkpt>
    <trkpt lat="50.9023174" lon="6.9920195">
      <ele>31.0</ele>
      <time>2019-08-28T16:57:30Z</time>
    </trkpt>
    <trkpt lat="50.9027425" lon="6.9915320">
      <ele>29.6</ele>
      <time>2019-08-28T16:57:39Z</time>
    </trkpt>
    <trkpt lat="50.9031865" lon="6.9908979">
      <ele>31.8</ele>
      <time>2019-08-28T16:57:50Z</time>
    </trkpt>
    <trkpt lat="50.9036352" lon="6.9903843">
      <ele>35.2</ele>
      <time>2019-08-28T16:57:59Z</time>
    </trkpt>
    <trkpt lat="50.9040453" lon="6.9900709">
      <ele>36.2</ele>
      <time>2019-08-28T16:58:07Z</time>
    </trkpt>
    <trkpt lat="50.9045189" lon="6.9896304">
      <ele>36.6</ele>
      <time>2019-08-28T16:58:16Z</time>
    </trkpt>
    <trkpt lat="50.9050194" lon="6.9892159">
      <ele>35.0</ele>
      <time>2019-08-28T16:58:25Z</time>
    </trkpt>
    <trkpt lat="50.9055222" lon="6.9887548">
      <ele>35.4</ele>
      <time>2019-08-28T16:58:34Z</time>
    </trkpt>
    <trkpt lat="50.9058970" lon="6.9884268">
      <ele>37.0</ele>
      <time>2019-08-28T16:58:41Z</time>
    </trkpt>
    <trkpt lat="50.9060176" lon="6.9883963">
      <ele>37.4</ele>
      <time>2019-08-28T16:58:43Z</time>
    </trkpt>
    <trkpt lat="50.9061426" lon="6.9883677">
      <ele>37.8</ele>
      <time>2019-08-28T16:58:45Z</time>
    </trkpt>
    <trkpt lat="50.9062761" lon="6.9883368">
      <ele>36.6</ele>
      <time>2019-08-28T16:58:47Z</time>
    </trkpt>
    <trkpt lat="50.9067433" lon="6.9882443">
      <ele>35.6</ele>
      <time>2019-08-28T16:58:54Z</time>
    </trkpt>
    <trkpt lat="50.9069348" lon="6.9881930">
      <ele>36.4</ele>
      <time>2019-08-28T16:58:57Z</time>
    </trkpt>
    <trkpt lat="50.9072610" lon="6.9880512">
      <ele>36.0</ele>
      <time>2019-08-28T16:59:02Z</time>
    </trkpt>
    <trkpt lat="50.9077896" lon="6.9877473">
      <ele>33.8</ele>
      <time>2019-08-28T16:59:10Z</time>
    </trkpt>
    <trkpt lat="50.9081781" lon="6.9875136">
      <ele>34.2</ele>
      <time>2019-08-28T16:59:16Z</time>
    </trkpt>
    <trkpt lat="50.9082416" lon="6.9874757">
      <ele>34.4</ele>
      <time>2019-08-28T16:59:17Z</time>
    </trkpt>
    <trkpt lat="50.9083047" lon="6.9874375">
      <ele>34.4</ele>
      <time>2019-08-28T16:59:18Z</time>
    </trkpt>
    <trkpt lat="50.9084304" lon="6.9873619">
      <ele>34.6</ele>
      <time>2019-08-28T16:59:20Z</time>
    </trkpt>
    <trkpt lat="50.9085507" lon="6.9872852">
      <ele>34.8</ele>
      <time>2019-08-28T16:59:22Z</time>
    </trkpt>
    <trkpt lat="50.9086714" lon="6.9872098">
      <ele>35.0</ele>
      <time>2019-08-28T16:59:24Z</time>
    </trkpt>
    <trkpt lat="50.9087883" lon="6.9871360">
      <ele>34.8</ele>
      <time>2019-08-28T16:59:26Z</time>
    </trkpt>
    <trkpt lat="50.9088441" lon="6.9871061">
      <ele>34.8</ele>
      <time>2019-08-28T16:59:27Z</time>
    </trkpt>
    <trkpt lat="50.9088993" lon="6.9870734">
      <ele>34.6</ele>
      <time>2019-08-28T16:59:28Z</time>
    </trkpt>
    <trkpt lat="50.9089531" lon="6.9870404">
      <ele>34.4</ele>
      <time>2019-08-28T16:59:29Z</time>
    </trkpt>
    <trkpt lat="50.9090072" lon="6.9870044">
      <ele>34.6</ele>
      <time>2019-08-28T16:59:30Z</time>
    </trkpt>
    <trkpt lat="50.9090557" lon="6.9869734">
      <ele>34.2</ele>
      <time>2019-08-28T16:59:31Z</time>
    </trkpt>
    <trkpt lat="50.9091099" lon="6.9869227">
      <ele>34.4</ele>
      <time>2019-08-28T16:59:32Z</time>
    </trkpt>
    <trkpt lat="50.9091663" lon="6.9868799">
      <ele>34.6</ele>
      <time>2019-08-28T16:59:33Z</time>
    </trkpt>
    <trkpt lat="50.9092225" lon="6.9868404">
      <ele>34.8</ele>
      <time>2019-08-28T16:59:34Z</time>
    </trkpt>
    <trkpt lat="50.9092792" lon="6.9868208">
      <ele>34.8</ele>
      <time>2019-08-28T16:59:35Z</time>
    </trkpt>
    <trkpt lat="50.9093839" lon="6.9868649">
      <ele>35.6</ele>
      <time>2019-08-28T16:59:37Z</time>
    </trkpt>
    <trkpt lat="50.9095219" lon="6.9869556">
      <ele>36.2</ele>
      <time>2019-08-28T16:59:40Z</time>
    </trkpt>
    <trkpt lat="50.9096250" lon="6.9869246">
      <ele>36.2</ele>
      <time>2019-08-28T16:59:42Z</time>
    </trkpt>
    <trkpt lat="50.9099679" lon="6.9866036">
      <ele>35.8</ele>
      <time>2019-08-28T16:59:49Z</time>
    </trkpt>
    <trkpt lat="50.9100150" lon="6.9865466">
      <ele>36.4</ele>
      <time>2019-08-28T16:59:50Z</time>
    </trkpt>
    <trkpt lat="50.9102597" lon="6.9862795">
      <ele>38.8</ele>
      <time>2019-08-28T16:59:56Z</time>
    </trkpt>
    <trkpt lat="50.9105434" lon="6.9862212">
      <ele>39.6</ele>
      <time>2019-08-28T17:00:04Z</time>
    </trkpt>
    <trkpt lat="50.9109449" lon="6.9857693">
      <ele>40.8</ele>
      <time>2019-08-28T17:00:13Z</time>
    </trkpt>
    <trkpt lat="50.9110378" lon="6.9856573">
      <ele>42.2</ele>
      <time>2019-08-28T17:00:15Z</time>
    </trkpt>
    <trkpt lat="50.9111278" lon="6.9855561">
      <ele>43.2</ele>
      <time>2019-08-28T17:00:17Z</time>
    </trkpt>
    <trkpt lat="50.9111706" lon="6.9855026">
      <ele>43.2</ele>
      <time>2019-08-28T17:00:18Z</time>
    </trkpt>
    <trkpt lat="50.9112589" lon="6.9853894">
      <ele>43.2</ele>
      <time>2019-08-28T17:00:20Z</time>
    </trkpt>
    <trkpt lat="50.9117251" lon="6.9848455">
      <ele>42.8</ele>
      <time>2019-08-28T17:00:30Z</time>
    </trkpt>
    <trkpt lat="50.9122084" lon="6.9843356">
      <ele>39.6</ele>
      <time>2019-08-28T17:00:40Z</time>
    </trkpt>
    <trkpt lat="50.9124750" lon="6.9840082">
      <ele>38.8</ele>
      <time>2019-08-28T17:00:46Z</time>
    </trkpt>
    <trkpt lat="50.9128962" lon="6.9835316">
      <ele>39.6</ele>
      <time>2019-08-28T17:00:55Z</time>
    </trkpt>
    <trkpt lat="50.9130906" lon="6.9833083">
      <ele>40.8</ele>
      <time>2019-08-28T17:00:59Z</time>
    </trkpt>
    <trkpt lat="50.9131386" lon="6.9832619">
      <ele>40.8</ele>
      <time>2019-08-28T17:01:00Z</time>
    </trkpt>
    <trkpt lat="50.9136240" lon="6.9828778">
      <ele>41.0</ele>
      <time>2019-08-28T17:01:09Z</time>
    </trkpt>
    <trkpt lat="50.9141287" lon="6.9824044">
      <ele>41.4</ele>
      <time>2019-08-28T17:01:19Z</time>
    </trkpt>
    <trkpt lat="50.9146182" lon="6.9819037">
      <ele>40.0</ele>
      <time>2019-08-28T17:01:29Z</time>
    </trkpt>
    <trkpt lat="50.9151376" lon="6.9814318">
      <ele>40.6</ele>
      <time>2019-08-28T17:01:39Z</time>
    </trkpt>
    <trkpt lat="50.9156132" lon="6.9809791">
      <ele>39.8</ele>
      <time>2019-08-28T17:01:48Z</time>
    </trkpt>
    <trkpt lat="50.9158188" lon="6.9807894">
      <ele>40.2</ele>
      <time>2019-08-28T17:01:52Z</time>
    </trkpt>
    <trkpt lat="50.9162998" lon="6.9803275">
      <ele>40.2</ele>
      <time>2019-08-28T17:02:02Z</time>
    </trkpt>
    <trkpt lat="50.9164363" lon="6.9802050">
      <ele>40.2</ele>
      <time>2019-08-28T17:02:05Z</time>
    </trkpt>
    <trkpt lat="50.9169190" lon="6.9797803">
      <ele>40.2</ele>
      <time>2019-08-28T17:02:15Z</time>
    </trkpt>
    <trkpt lat="50.9174309" lon="6.9793346">
      <ele>40.2</ele>
      <time>2019-08-28T17:02:25Z</time>
    </trkpt>
    <trkpt lat="50.9179487" lon="6.9789063">
      <ele>39.0</ele>
      <time>2019-08-28T17:02:35Z</time>
    </trkpt>
    <trkpt lat="50.9181040" lon="6.9787764">
      <ele>38.2</ele>
      <time>2019-08-28T17:02:38Z</time>
    </trkpt>
    <trkpt lat="50.9181919" lon="6.9786837">
      <ele>37.6</ele>
      <time>2019-08-28T17:02:40Z</time>
    </trkpt>
    <trkpt lat="50.9183006" lon="6.9785324">
      <ele>36.4</ele>
      <time>2019-08-28T17:02:43Z</time>
    </trkpt>
    <trkpt lat="50.9183841" lon="6.9784676">
      <ele>36.2</ele>
      <time>2019-08-28T17:02:45Z</time>
    </trkpt>
    <trkpt lat="50.9185723" lon="6.9783459">
      <ele>34.2</ele>
      <time>2019-08-28T17:02:50Z</time>
    </trkpt>
    <trkpt lat="50.9189776" lon="6.9780193">
      <ele>33.4</ele>
      <time>2019-08-28T17:02:58Z</time>
    </trkpt>
    <trkpt lat="50.9194741" lon="6.9776594">
      <ele>34.2</ele>
      <time>2019-08-28T17:03:07Z</time>
    </trkpt>
    <trkpt lat="50.9195279" lon="6.9776238">
      <ele>34.0</ele>
      <time>2019-08-28T17:03:08Z</time>
    </trkpt>
    <trkpt lat="50.9195815" lon="6.9775900">
      <ele>33.8</ele>
      <time>2019-08-28T17:03:09Z</time>
    </trkpt>
    <trkpt lat="50.9199002" lon="6.9772940">
      <ele>36.8</ele>
      <time>2019-08-28T17:03:15Z</time>
    </trkpt>
    <trkpt lat="50.9203937" lon="6.9768763">
      <ele>39.8</ele>
      <time>2019-08-28T17:03:25Z</time>
    </trkpt>
    <trkpt lat="50.9208847" lon="6.9765179">
      <ele>39.4</ele>
      <time>2019-08-28T17:03:35Z</time>
    </trkpt>
    <trkpt lat="50.9214188" lon="6.9761480">
      <ele>39.2</ele>
      <time>2019-08-28T17:03:46Z</time>
    </trkpt>
    <trkpt lat="50.9219271" lon="6.9757892">
      <ele>39.6</ele>
      <time>2019-08-28T17:03:56Z</time>
    </trkpt>
    <trkpt lat="50.9224484" lon="6.9754537">
      <ele>40.2</ele>
      <time>2019-08-28T17:04:06Z</time>
    </trkpt>
    <trkpt lat="50.9229527" lon="6.9751283">
      <ele>41.2</ele>
      <time>2019-08-28T17:04:16Z</time>
    </trkpt>
    <trkpt lat="50.9234667" lon="6.9747919">
      <ele>41.6</ele>
      <time>2019-08-28T17:04:26Z</time>
    </trkpt>
    <trkpt lat="50.9235180" lon="6.9747590">
      <ele>41.6</ele>
      <time>2019-08-28T17:04:27Z</time>
    </trkpt>
    <trkpt lat="50.9235664" lon="6.9747214">
      <ele>41.6</ele>
      <time>2019-08-28T17:04:28Z</time>
    </trkpt>
    <trkpt lat="50.9240350" lon="6.9744179">
      <ele>40.2</ele>
      <time>2019-08-28T17:04:37Z</time>
    </trkpt>
    <trkpt lat="50.9241867" lon="6.9743165">
      <ele>40.6</ele>
      <time>2019-08-28T17:04:40Z</time>
    </trkpt>
    <trkpt lat="50.9247010" lon="6.9740312">
      <ele>40.2</ele>
      <time>2019-08-28T17:04:50Z</time>
    </trkpt>
    <trkpt lat="50.9249588" lon="6.9739006">
      <ele>39.6</ele>
      <time>2019-08-28T17:04:55Z</time>
    </trkpt>
    <trkpt lat="50.9251004" lon="6.9738088">
      <ele>39.8</ele>
      <time>2019-08-28T17:04:58Z</time>
    </trkpt>
    <trkpt lat="50.9256439" lon="6.9735466">
      <ele>37.2</ele>
      <time>2019-08-28T17:05:10Z</time>
    </trkpt>
    <trkpt lat="50.9261200" lon="6.9733034">
      <ele>35.8</ele>
      <time>2019-08-28T17:05:19Z</time>
    </trkpt>
    <trkpt lat="50.9262198" lon="6.9732288">
      <ele>37.0</ele>
      <time>2019-08-28T17:05:21Z</time>
    </trkpt>
    <trkpt lat="50.9262721" lon="6.9732014">
      <ele>36.6</ele>
      <time>2019-08-28T17:05:22Z</time>
    </trkpt>
    <trkpt lat="50.9263271" lon="6.9731715">
      <ele>36.2</ele>
      <time>2019-08-28T17:05:23Z</time>
    </trkpt>
    <trkpt lat="50.9263796" lon="6.9731441">
      <ele>36.2</ele>
      <time>2019-08-28T17:05:24Z</time>
    </trkpt>
    <trkpt lat="50.9264324" lon="6.9731171">
      <ele>36.2</ele>
      <time>2019-08-28T17:05:25Z</time>
    </trkpt>
    <trkpt lat="50.9269762" lon="6.9728243">
      <ele>40.2</ele>
      <time>2019-08-28T17:05:36Z</time>
    </trkpt>
    <trkpt lat="50.9274493" lon="6.9725798">
      <ele>42.4</ele>
      <time>2019-08-28T17:05:45Z</time>
    </trkpt>
    <trkpt lat="50.9275652" lon="6.9726191">
      <ele>42.0</ele>
      <time>2019-08-28T17:05:47Z</time>
    </trkpt>
    <trkpt lat="50.9276600" lon="6.9727406">
      <ele>41.2</ele>
      <time>2019-08-28T17:05:49Z</time>
    </trkpt>
    <trkpt lat="50.9278992" lon="6.9733332">
      <ele>43.2</ele>
      <time>2019-08-28T17:05:57Z</time>
    </trkpt>
    <trkpt lat="50.9279611" lon="6.9734968">
      <ele>43.2</ele>
      <time>2019-08-28T17:05:59Z</time>
    </trkpt>
    <trkpt lat="50.9280777" lon="6.9737904">
      <ele>42.8</ele>
      <time>2019-08-28T17:06:03Z</time>
    </trkpt>
    <trkpt lat="50.9282260" lon="6.9737853">
      <ele>41.2</ele>
      <time>2019-08-28T17:06:06Z</time>
    </trkpt>
    <trkpt lat="50.9284265" lon="6.9736194">
      <ele>39.0</ele>
      <time>2019-08-28T17:06:10Z</time>
    </trkpt>
    <trkpt lat="50.9287794" lon="6.9733318">
      <ele>36.8</ele>
      <time>2019-08-28T17:06:17Z</time>
    </trkpt>
    <trkpt lat="50.9288272" lon="6.9732894">
      <ele>36.8</ele>
      <time>2019-08-28T17:06:18Z</time>
    </trkpt>
    <trkpt lat="50.9289714" lon="6.9731557">
      <ele>36.8</ele>
      <time>2019-08-28T17:06:21Z</time>
    </trkpt>
    <trkpt lat="50.9294899" lon="6.9727830">
      <ele>34.8</ele>
      <time>2019-08-28T17:06:31Z</time>
    </trkpt>
    <trkpt lat="50.9296384" lon="6.9726620">
      <ele>34.8</ele>
      <time>2019-08-28T17:06:34Z</time>
    </trkpt>
    <trkpt lat="50.9296863" lon="6.9726155">
      <ele>34.8</ele>
      <time>2019-08-28T17:06:35Z</time>
    </trkpt>
    <trkpt lat="50.9297333" lon="6.9725776">
      <ele>34.8</ele>
      <time>2019-08-28T17:06:36Z</time>
    </trkpt>
    <trkpt lat="50.9298243" lon="6.9725048">
      <ele>34.4</ele>
      <time>2019-08-28T17:06:38Z</time>
    </trkpt>
    <trkpt lat="50.9303200" lon="6.9721183">
      <ele>32.2</ele>
      <time>2019-08-28T17:06:48Z</time>
    </trkpt>
    <trkpt lat="50.9308133" lon="6.9717360">
      <ele>31.0</ele>
      <time>2019-08-28T17:06:57Z</time>
    </trkpt>
    <trkpt lat="50.9311192" lon="6.9714943">
      <ele>30.4</ele>
      <time>2019-08-28T17:07:03Z</time>
    </trkpt>
    <trkpt lat="50.9312156" lon="6.9714159">
      <ele>30.8</ele>
      <time>2019-08-28T17:07:05Z</time>
    </trkpt>
    <trkpt lat="50.9314268" lon="6.9711954">
      <ele>38.0</ele>
      <time>2019-08-28T17:07:10Z</time>
    </trkpt>
    <trkpt lat="50.9315897" lon="6.9710973">
      <ele>38.8</ele>
      <time>2019-08-28T17:07:13Z</time>
    </trkpt>
    <trkpt lat="50.9318045" lon="6.9710415">
      <ele>38.4</ele>
      <time>2019-08-28T17:07:17Z</time>
    </trkpt>
    <trkpt lat="50.9318560" lon="6.9710185">
      <ele>38.4</ele>
      <time>2019-08-28T17:07:18Z</time>
    </trkpt>
    <trkpt lat="50.9321828" lon="6.9708379">
      <ele>38.0</ele>
      <time>2019-08-28T17:07:25Z</time>
    </trkpt>
    <trkpt lat="50.9322268" lon="6.9708182">
      <ele>38.4</ele>
      <time>2019-08-28T17:07:26Z</time>
    </trkpt>
    <trkpt lat="50.9323146" lon="6.9708232">
      <ele>38.2</ele>
      <time>2019-08-28T17:07:28Z</time>
    </trkpt>
    <trkpt lat="50.9325875" lon="6.9709039">
      <ele>39.4</ele>
      <time>2019-08-28T17:07:38Z</time>
    </trkpt>
    <trkpt lat="50.9325928" lon="6.9709145">
      <ele>40.2</ele>
      <time>2019-08-28T17:07:41Z</time>
    </trkpt>
    <trkpt lat="50.9326647" lon="6.9710094">
      <ele>39.2</ele>
      <time>2019-08-28T17:07:50Z</time>
    </trkpt>
    <trkpt lat="50.9327070" lon="6.9710247">
      <ele>38.6</ele>
      <time>2019-08-28T17:07:51Z</time>
    </trkpt>
    <trkpt lat="50.9327517" lon="6.9710321">
      <ele>38.6</ele>
      <time>2019-08-28T17:07:52Z</time>
    </trkpt>
    <trkpt lat="50.9333008" lon="6.9709738">
      <ele>37.4</ele>
      <time>2019-08-28T17:08:02Z</time>
    </trkpt>
    <trkpt lat="50.9334717" lon="6.9709589">
      <ele>37.0</ele>
      <time>2019-08-28T17:08:05Z</time>
    </trkpt>
    <trkpt lat="50.9335286" lon="6.9709547">
      <ele>36.8</ele>
      <time>2019-08-28T17:08:06Z</time>
    </trkpt>
    <trkpt lat="50.9335848" lon="6.9709478">
      <ele>36.6</ele>
      <time>2019-08-28T17:08:07Z</time>
    </trkpt>
    <trkpt lat="50.9336942" lon="6.9709422">
      <ele>36.0</ele>
      <time>2019-08-28T17:08:09Z</time>
    </trkpt>
    <trkpt lat="50.9342557" lon="6.9709088">
      <ele>35.6</ele>
      <time>2019-08-28T17:08:20Z</time>
    </trkpt>
    <trkpt lat="50.9345370" lon="6.9709240">
      <ele>35.6</ele>
      <time>2019-08-28T17:08:26Z</time>
    </trkpt>
    <trkpt lat="50.9349300" lon="6.9709276">
      <ele>35.6</ele>
      <time>2019-08-28T17:08:34Z</time>
    </trkpt>
    <trkpt lat="50.9354974" lon="6.9710003">
      <ele>39.4</ele>
      <time>2019-08-28T17:08:47Z</time>
    </trkpt>
    <trkpt lat="50.9355399" lon="6.9710223">
      <ele>39.4</ele>
      <time>2019-08-28T17:08:48Z</time>
    </trkpt>
    <trkpt lat="50.9358497" lon="6.9711595">
      <ele>38.6</ele>
      <time>2019-08-28T17:08:56Z</time>
    </trkpt>
    <trkpt lat="50.9358775" lon="6.9711694">
      <ele>38.4</ele>
      <time>2019-08-28T17:08:57Z</time>
    </trkpt>
    <trkpt lat="50.9363217" lon="6.9712594">
      <ele>41.2</ele>
      <time>2019-08-28T17:09:09Z</time>
    </trkpt>
    <trkpt lat="50.9365177" lon="6.9713660">
      <ele>45.8</ele>
      <time>2019-08-28T17:09:14Z</time>
    </trkpt>
    <trkpt lat="50.9368158" lon="6.9714741">
      <ele>49.4</ele>
      <time>2019-08-28T17:09:19Z</time>
    </trkpt>
    <trkpt lat="50.9368923" lon="6.9714827">
      <ele>50.0</ele>
      <time>2019-08-28T17:09:20Z</time>
    </trkpt>
    <trkpt lat="50.9370857" lon="6.9714761">
      <ele>57.6</ele>
      <time>2019-08-28T17:09:23Z</time>
    </trkpt>
    <trkpt lat="50.9374403" lon="6.9715176">
      <ele>56.6</ele>
      <time>2019-08-28T17:09:27Z</time>
    </trkpt>
    <trkpt lat="50.9375257" lon="6.9715333">
      <ele>56.8</ele>
      <time>2019-08-28T17:09:28Z</time>
    </trkpt>
    <trkpt lat="50.9376931" lon="6.9715699">
      <ele>56.8</ele>
      <time>2019-08-28T17:09:30Z</time>
    </trkpt>
    <trkpt lat="50.9377828" lon="6.9715811">
      <ele>55.8</ele>
      <time>2019-08-28T17:09:31Z</time>
    </trkpt>
    <trkpt lat="50.9381230" lon="6.9715639">
      <ele>53.4</ele>
      <time>2019-08-28T17:09:35Z</time>
    </trkpt>
    <trkpt lat="50.9383015" lon="6.9715843">
      <ele>54.6</ele>
      <time>2019-08-28T17:09:37Z</time>
    </trkpt>
    <trkpt lat="50.9384172" lon="6.9716702">
      <ele>56.8</ele>
      <time>2019-08-28T17:09:38Z</time>
    </trkpt>
    <trkpt lat="50.9387576" lon="6.9718401">
      <ele>51.0</ele>
      <time>2019-08-28T17:09:42Z</time>
    </trkpt>
    <trkpt lat="50.9388708" lon="6.9719545">
      <ele>49.2</ele>
      <time>2019-08-28T17:09:44Z</time>
    </trkpt>
    <trkpt lat="50.9393115" lon="6.9725838">
      <ele>43.0</ele>
      <time>2019-08-28T17:09:53Z</time>
    </trkpt>
    <trkpt lat="50.9394281" lon="6.9728234">
      <ele>41.0</ele>
      <time>2019-08-28T17:09:56Z</time>
    </trkpt>
    <trkpt lat="50.9396766" lon="6.9733602">
      <ele>36.0</ele>
      <time>2019-08-28T17:10:04Z</time>
    </trkpt>
    <trkpt lat="50.9397373" lon="6.9734221">
      <ele>36.2</ele>
      <time>2019-08-28T17:10:06Z</time>
    </trkpt>
    <trkpt lat="50.9398025" lon="6.9734396">
      <ele>43.8</ele>
      <time>2019-08-28T17:10:12Z</time>
    </trkpt>
    <trkpt lat="50.9398040" lon="6.9734424">
      <ele>43.8</ele>
      <time>2019-08-28T17:10:13Z</time>
    </trkpt>
    <trkpt lat="50.9398900" lon="6.9735001">
      <ele>44.0</ele>
      <time>2019-08-28T17:10:57Z</time>
    </trkpt>
    <trkpt lat="50.9399235" lon="6.9735144">
      <ele>43.6</ele>
      <time>2019-08-28T17:10:58Z</time>
    </trkpt>
    <trkpt lat="50.9399955" lon="6.9735744">
      <ele>43.2</ele>
      <time>2019-08-28T17:11:00Z</time>
    </trkpt>
    <trkpt lat="50.9400186" lon="6.9736998">
      <ele>43.2</ele>
      <time>2019-08-28T17:11:02Z</time>
    </trkpt>
    <trkpt lat="50.9400046" lon="6.9740231">
      <ele>42.6</ele>
      <time>2019-08-28T17:11:06Z</time>
    </trkpt>
    <trkpt lat="50.9399804" lon="6.9747334">
      <ele>41.0</ele>
      <time>2019-08-28T17:11:14Z</time>
    </trkpt>
    <trkpt lat="50.9399831" lon="6.9749042">
      <ele>40.8</ele>
      <time>2019-08-28T17:11:16Z</time>
    </trkpt>
    <trkpt lat="50.9399849" lon="6.9751565">
      <ele>40.4</ele>
      <time>2019-08-28T17:11:19Z</time>
    </trkpt>
    <trkpt lat="50.9399778" lon="6.9752415">
      <ele>40.8</ele>
      <time>2019-08-28T17:11:20Z</time>
    </trkpt>
    <trkpt lat="50.9399558" lon="6.9754033">
      <ele>40.2</ele>
      <time>2019-08-28T17:11:22Z</time>
    </trkpt>
    <trkpt lat="50.9398860" lon="6.9763199">
      <ele>40.4</ele>
      <time>2019-08-28T17:11:33Z</time>
    </trkpt>
    <trkpt lat="50.9398528" lon="6.9767595">
      <ele>40.6</ele>
      <time>2019-08-28T17:11:38Z</time>
    </trkpt>
    <trkpt lat="50.9398433" lon="6.9770145">
      <ele>40.8</ele>
      <time>2019-08-28T17:11:41Z</time>
    </trkpt>
    <trkpt lat="50.9397916" lon="6.9779010">
      <ele>42.4</ele>
      <time>2019-08-28T17:11:51Z</time>
    </trkpt>
    <trkpt lat="50.9397671" lon="6.9784429">
      <ele>42.2</ele>
      <time>2019-08-28T17:11:57Z</time>
    </trkpt>
    <trkpt lat="50.9397881" lon="6.9786255">
      <ele>41.6</ele>
      <time>2019-08-28T17:11:59Z</time>
    </trkpt>
    <trkpt lat="50.9398567" lon="6.9790369">
      <ele>48.4</ele>
      <time>2019-08-28T17:12:05Z</time>
    </trkpt>
    <trkpt lat="50.9402381" lon="6.9794579">
      <ele>57.8</ele>
      <time>2019-08-28T17:12:18Z</time>
    </trkpt>
    <trkpt lat="50.9404780" lon="6.9797163">
      <ele>60.8</ele>
      <time>2019-08-28T17:12:27Z</time>
    </trkpt>
    <trkpt lat="50.9410038" lon="6.9797876">
      <ele>36.2</ele>
      <time>2019-08-28T17:12:38Z</time>
    </trkpt>
    <trkpt lat="50.9414992" lon="6.9801817">
      <ele>34.6</ele>
      <time>2019-08-28T17:12:51Z</time>
    </trkpt>
    <trkpt lat="50.9417083" lon="6.9802755">
      <ele>37.4</ele>
      <time>2019-08-28T17:12:55Z</time>
    </trkpt>
    <trkpt lat="50.9422070" lon="6.9807483">
      <ele>48.4</ele>
      <time>2019-08-28T17:13:07Z</time>
    </trkpt>
    <trkpt lat="50.9426809" lon="6.9811800">
      <ele>60.0</ele>
      <time>2019-08-28T17:13:18Z</time>
    </trkpt>
    <trkpt lat="50.9428202" lon="6.9812792">
      <ele>62.6</ele>
      <time>2019-08-28T17:13:21Z</time>
    </trkpt>
    <trkpt lat="50.9430459" lon="6.9814364">
      <ele>63.4</ele>
      <time>2019-08-28T17:13:26Z</time>
    </trkpt>
    <trkpt lat="50.9431347" lon="6.9815059">
      <ele>63.4</ele>
      <time>2019-08-28T17:13:28Z</time>
    </trkpt>
    <trkpt lat="50.9432809" lon="6.9816674">
      <ele>63.0</ele>
      <time>2019-08-28T17:13:32Z</time>
    </trkpt>
    <trkpt lat="50.9437541" lon="6.9820749">
      <ele>63.6</ele>
      <time>2019-08-28T17:13:43Z</time>
    </trkpt>
    <trkpt lat="50.9442551" lon="6.9825393">
      <ele>59.2</ele>
      <time>2019-08-28T17:13:55Z</time>
    </trkpt>
    <trkpt lat="50.9443431" lon="6.9826360">
      <ele>59.0</ele>
      <time>2019-08-28T17:13:57Z</time>
    </trkpt>
    <trkpt lat="50.9448231" lon="6.9830856">
      <ele>49.4</ele>
      <time>2019-08-28T17:14:08Z</time>
    </trkpt>
    <trkpt lat="50.9451261" lon="6.9834641">
      <ele>48.6</ele>
      <time>2019-08-28T17:14:17Z</time>
    </trkpt>
    <trkpt lat="50.9451600" lon="6.9835024">
      <ele>49.2</ele>
      <time>2019-08-28T17:14:18Z</time>
    </trkpt>
    <trkpt lat="50.9452414" lon="6.9835735">
      <ele>49.4</ele>
      <time>2019-08-28T17:14:20Z</time>
    </trkpt>
    <trkpt lat="50.9452852" lon="6.9836108">
      <ele>49.8</ele>
      <time>2019-08-28T17:14:21Z</time>
    </trkpt>
    <trkpt lat="50.9453271" lon="6.9836459">
      <ele>49.6</ele>
      <time>2019-08-28T17:14:22Z</time>
    </trkpt>
    <trkpt lat="50.9458321" lon="6.9840564">
      <ele>50.2</ele>
      <time>2019-08-28T17:14:33Z</time>
    </trkpt>
    <trkpt lat="50.9463079" lon="6.9845236">
      <ele>50.8</ele>
      <time>2019-08-28T17:14:45Z</time>
    </trkpt>
    <trkpt lat="50.9466573" lon="6.9848134">
      <ele>54.6</ele>
      <time>2019-08-28T17:14:52Z</time>
    </trkpt>
    <trkpt lat="50.9471273" lon="6.9851821">
      <ele>53.4</ele>
      <time>2019-08-28T17:15:01Z</time>
    </trkpt>
    <trkpt lat="50.9475444" lon="6.9857013">
      <ele>51.6</ele>
      <time>2019-08-28T17:15:14Z</time>
    </trkpt>
    <trkpt lat="50.9475675" lon="6.9857356">
      <ele>52.0</ele>
      <time>2019-08-28T17:15:19Z</time>
    </trkpt>
    <trkpt lat="50.9476081" lon="6.9858084">
      <ele>49.4</ele>
      <time>2019-08-28T17:15:22Z</time>
    </trkpt>
    <trkpt lat="50.9477213" lon="6.9859954">
      <ele>46.2</ele>
      <time>2019-08-28T17:15:27Z</time>
    </trkpt>
    <trkpt lat="50.9478275" lon="6.9859903">
      <ele>44.6</ele>
      <time>2019-08-28T17:15:29Z</time>
    </trkpt>
    <trkpt lat="50.9479458" lon="6.9860627">
      <ele>44.6</ele>
      <time>2019-08-28T17:15:31Z</time>
    </trkpt>
    <trkpt lat="50.9484253" lon="6.9864649">
      <ele>43.0</ele>
      <time>2019-08-28T17:15:39Z</time>
    </trkpt>
    <trkpt lat="50.9489185" lon="6.9868271">
      <ele>45.0</ele>
      <time>2019-08-28T17:15:48Z</time>
    </trkpt>
    <trkpt lat="50.9493048" lon="6.9871283">
      <ele>51.6</ele>
      <time>2019-08-28T17:15:55Z</time>
    </trkpt>
    <trkpt lat="50.9495154" lon="6.9873180">
      <ele>52.8</ele>
      <time>2019-08-28T17:15:59Z</time>
    </trkpt>
    <trkpt lat="50.9500122" lon="6.9877957">
      <ele>42.8</ele>
      <time>2019-08-28T17:16:09Z</time>
    </trkpt>
    <trkpt lat="50.9504914" lon="6.9882282">
      <ele>38.4</ele>
      <time>2019-08-28T17:16:21Z</time>
    </trkpt>
    <trkpt lat="50.9504999" lon="6.9882497">
      <ele>39.6</ele>
      <time>2019-08-28T17:16:25Z</time>
    </trkpt>
    <trkpt lat="50.9505533" lon="6.9883134">
      <ele>40.8</ele>
      <time>2019-08-28T17:16:31Z</time>
    </trkpt>
    <trkpt lat="50.9509519" lon="6.9886890">
      <ele>40.2</ele>
      <time>2019-08-28T17:16:42Z</time>
    </trkpt>
    <trkpt lat="50.9510001" lon="6.9887277">
      <ele>40.4</ele>
      <time>2019-08-28T17:16:43Z</time>
    </trkpt>
    <trkpt lat="50.9514624" lon="6.9891540">
      <ele>39.8</ele>
      <time>2019-08-28T17:16:54Z</time>
    </trkpt>
    <trkpt lat="50.9517421" lon="6.9893396">
      <ele>46.8</ele>
      <time>2019-08-28T17:17:01Z</time>
    </trkpt>
    <trkpt lat="50.9517456" lon="6.9894666">
      <ele>47.0</ele>
      <time>2019-08-28T17:17:03Z</time>
    </trkpt>
    <trkpt lat="50.9517174" lon="6.9896002">
      <ele>46.0</ele>
      <time>2019-08-28T17:17:05Z</time>
    </trkpt>
    <trkpt lat="50.9517758" lon="6.9903298">
      <ele>49.2</ele>
      <time>2019-08-28T17:17:19Z</time>
    </trkpt>
    <trkpt lat="50.9520407" lon="6.9906081">
      <ele>53.0</ele>
      <time>2019-08-28T17:17:26Z</time>
    </trkpt>
    <trkpt lat="50.9520556" lon="6.9908040">
      <ele>53.2</ele>
      <time>2019-08-28T17:17:29Z</time>
    </trkpt>
    <trkpt lat="50.9519630" lon="6.9912533">
      <ele>52.8</ele>
      <time>2019-08-28T17:17:35Z</time>
    </trkpt>
    <trkpt lat="50.9518905" lon="6.9916193">
      <ele>51.4</ele>
      <time>2019-08-28T17:17:40Z</time>
    </trkpt>
    <trkpt lat="50.9519338" lon="6.9917760">
      <ele>51.4</ele>
      <time>2019-08-28T17:17:43Z</time>
    </trkpt>
    <trkpt lat="50.9520767" lon="6.9918737">
      <ele>52.8</ele>
      <time>2019-08-28T17:17:47Z</time>
    </trkpt>
    <trkpt lat="50.9521144" lon="6.9919075">
      <ele>53.2</ele>
      <time>2019-08-28T17:17:48Z</time>
    </trkpt>
    <trkpt lat="50.9524292" lon="6.9920970">
      <ele>49.0</ele>
      <time>2019-08-28T17:17:57Z</time>
    </trkpt>
    <trkpt lat="50.9524787" lon="6.9921404">
      <ele>49.2</ele>
      <time>2019-08-28T17:17:59Z</time>
    </trkpt>
    <trkpt lat="50.9525582" lon="6.9925766">
      <ele>49.6</ele>
      <time>2019-08-28T17:18:09Z</time>
    </trkpt>
    <trkpt lat="50.9525261" lon="6.9927006">
      <ele>49.2</ele>
      <time>2019-08-28T17:18:13Z</time>
    </trkpt>
    <trkpt lat="50.9524792" lon="6.9926817">
      <ele>48.0</ele>
      <time>2019-08-28T17:18:19Z</time>
    </trkpt>
    <trkpt lat="50.9522139" lon="6.9925481">
      <ele>46.4</ele>
      <time>2019-08-28T17:18:28Z</time>
    </trkpt>
    <trkpt lat="50.9521191" lon="6.9925031">
      <ele>48.6</ele>
      <time>2019-08-28T17:18:34Z</time>
    </trkpt>
  </trkseg></trk>
</gpx>
