<?xml version="1.0" encoding="UTF-8"?>
<gpx version="1.1" creator="Diary FIT converter" xmlns="http://www.topografix.com/GPX/1/1">
  <trk><name>Activity</name><trkseg>
    <trkpt lat="50.9594688" lon="6.8625813">
      <time>2023-05-27T17:24:52Z</time>
    </trkpt>
    <trkpt lat="50.9595985" lon="6.8625391">
      <time>2023-05-27T17:24:54Z</time>
    </trkpt>
    <trkpt lat="50.9595904" lon="6.8623815">
      <time>2023-05-27T17:24:56Z</time>
    </trkpt>
    <trkpt lat="50.9596027" lon="6.8623135">
      <time>2023-05-27T17:24:57Z</time>
    </trkpt>
    <trkpt lat="50.9595859" lon="6.8619527">
      <time>2023-05-27T17:25:02Z</time>
    </trkpt>
    <trkpt lat="50.9595883" lon="6.8618886">
      <time>2023-05-27T17:25:03Z</time>
    </trkpt>
    <trkpt lat="50.9596040" lon="6.8617465">
      <time>2023-05-27T17:25:05Z</time>
    </trkpt>
    <trkpt lat="50.9596145" lon="6.8616800">
      <time>2023-05-27T17:25:06Z</time>
    </trkpt>
    <trkpt lat="50.9596244" lon="6.8616153">
      <time>2023-05-27T17:25:07Z</time>
    </trkpt>
    <trkpt lat="50.9596425" lon="6.8615559">
      <time>2023-05-27T17:25:08Z</time>
    </trkpt>
    <trkpt lat="50.9596454" lon="6.8614889">
      <time>2023-05-27T17:25:09Z</time>
    </trkpt>
    <trkpt lat="50.9596457" lon="6.8614150">
      <time>2023-05-27T17:25:10Z</time>
    </trkpt>
    <trkpt lat="50.9596316" lon="6.8610855">
      <time>2023-05-27T17:25:15Z</time>
    </trkpt>
    <trkpt lat="50.9596481" lon="6.8608916">
      <time>2023-05-27T17:25:18Z</time>
    </trkpt>
    <trkpt lat="50.9596865" lon="6.8605711">
      <time>2023-05-27T17:25:23Z</time>
    </trkpt>
    <trkpt lat="50.9596938" lon="6.8605063">
      <time>2023-05-27T17:25:24Z</time>
    </trkpt>
    <trkpt lat="50.9597166" lon="6.8599516">
      <time>2023-05-27T17:25:32Z</time>
    </trkpt>
    <trkpt lat="50.9597257" lon="6.8598143">
      <time>2023-05-27T17:25:34Z</time>
    </trkpt>
    <trkpt lat="50.9597442" lon="6.8594647">
      <time>2023-05-27T17:25:39Z</time>
    </trkpt>
    <trkpt lat="50.9597627" lon="6.8591098">
      <time>2023-05-27T17:25:44Z</time>
    </trkpt>
    <trkpt lat="50.9597865" lon="6.8588523">
      <time>2023-05-27T17:25:48Z</time>
    </trkpt>
    <trkpt lat="50.9597966" lon="6.8586029">
      <time>2023-05-27T17:25:52Z</time>
    </trkpt>
    <trkpt lat="50.9598019" lon="6.8585412">
      <time>2023-05-27T17:25:53Z</time>
    </trkpt>
    <trkpt lat="50.9598005" lon="6.8582337">
      <time>2023-05-27T17:25:58Z</time>
    </trkpt>
    <trkpt lat="50.9598331" lon="6.8578717">
      <time>2023-05-27T17:26:04Z</time>
    </trkpt>
    <trkpt lat="50.9598478" lon="6.8577450">
      <time>2023-05-27T17:26:06Z</time>
    </trkpt>
    <trkpt lat="50.9599015" lon="6.8571561">
      <time>2023-05-27T17:26:15Z</time>
    </trkpt>
    <trkpt lat="50.9599080" lon="6.8570921">
      <time>2023-05-27T17:26:16Z</time>
    </trkpt>
    <trkpt lat="50.9599284" lon="6.8568886">
      <time>2023-05-27T17:26:19Z</time>
    </trkpt>
    <trkpt lat="50.9599758" lon="6.8561986">
      <time>2023-05-27T17:26:29Z</time>
    </trkpt>
    <trkpt lat="50.9600231" lon="6.8555946">
      <time>2023-05-27T17:26:38Z</time>
    </trkpt>
    <trkpt lat="50.9600493" lon="6.8551259">
      <time>2023-05-27T17:26:45Z</time>
    </trkpt>
    <trkpt lat="50.9600534" lon="6.8550603">
      <time>2023-05-27T17:26:46Z</time>
    </trkpt>
    <trkpt lat="50.9600683" lon="6.8547855">
      <time>2023-05-27T17:26:50Z</time>
    </trkpt>
    <trkpt lat="50.9600820" lon="6.8544940">
      <time>2023-05-27T17:26:54Z</time>
    </trkpt>
    <trkpt lat="50.9600875" lon="6.8544188">
      <time>2023-05-27T17:26:55Z</time>
    </trkpt>
    <trkpt lat="50.9601128" lon="6.8539178">
      <time>2023-05-27T17:27:02Z</time>
    </trkpt>
    <trkpt lat="50.9601521" lon="6.8533179">
      <time>2023-05-27T17:27:11Z</time>
    </trkpt>
    <trkpt lat="50.9601616" lon="6.8531833">
      <time>2023-05-27T17:27:13Z</time>
    </trkpt>
    <trkpt lat="50.9601761" lon="6.8529068">
      <time>2023-05-27T17:27:17Z</time>
    </trkpt>
    <trkpt lat="50.9601916" lon="6.8526986">
      <time>2023-05-27T17:27:20Z</time>
    </trkpt>
    <trkpt lat="50.9602008" lon="6.8525567">
      <time>2023-05-27T17:27:22Z</time>
    </trkpt>
    <trkpt lat="50.9602029" lon="6.8524850">
      <time>2023-05-27T17:27:23Z</time>
    </trkpt>
    <trkpt lat="50.9602097" lon="6.8523501">
      <time>2023-05-27T17:27:25Z</time>
    </trkpt>
    <trkpt lat="50.9602301" lon="6.8520065">
      <time>2023-05-27T17:27:30Z</time>
    </trkpt>
    <trkpt lat="50.9602470" lon="6.8517137">
      <time>2023-05-27T17:27:34Z</time>
    </trkpt>
    <trkpt lat="50.9602523" lon="6.8516391">
      <time>2023-05-27T17:27:35Z</time>
    </trkpt>
    <trkpt lat="50.9603037" lon="6.8511734">
      <time>2023-05-27T17:27:41Z</time>
    </trkpt>
    <trkpt lat="50.9603305" lon="6.8509311">
      <time>2023-05-27T17:27:44Z</time>
    </trkpt>
    <trkpt lat="50.9603391" lon="6.8508625">
      <time>2023-05-27T17:27:45Z</time>
    </trkpt>
    <trkpt lat="50.9603500" lon="6.8499982">
      <time>2023-05-27T17:27:57Z</time>
    </trkpt>
    <trkpt lat="50.9603933" lon="6.8496624">
      <time>2023-05-27T17:28:01Z</time>
    </trkpt>
    <trkpt lat="50.9604261" lon="6.8492317">
      <time>2023-05-27T17:28:06Z</time>
    </trkpt>
    <trkpt lat="50.9604528" lon="6.8488650">
      <time>2023-05-27T17:28:10Z</time>
    </trkpt>
    <trkpt lat="50.9604639" lon="6.8487044">
      <time>2023-05-27T17:28:12Z</time>
    </trkpt>
    <trkpt lat="50.9605147" lon="6.8480032">
      <time>2023-05-27T17:28:20Z</time>
    </trkpt>
    <trkpt lat="50.9605441" lon="6.8474264">
      <time>2023-05-27T17:28:27Z</time>
    </trkpt>
    <trkpt lat="50.9605490" lon="6.8473429">
      <time>2023-05-27T17:28:28Z</time>
    </trkpt>
    <trkpt lat="50.9605665" lon="6.8470899">
      <time>2023-05-27T17:28:31Z</time>
    </trkpt>
    <trkpt lat="50.9606152" lon="6.8465924">
      <time>2023-05-27T17:28:37Z</time>
    </trkpt>
    <trkpt lat="50.9606242" lon="6.8464912">
      <time>2023-05-27T17:28:38Z</time>
    </trkpt>
    <trkpt lat="50.9606380" lon="6.8463280">
      <time>2023-05-27T17:28:40Z</time>
    </trkpt>
    <trkpt lat="50.9606517" lon="6.8461680">
      <time>2023-05-27T17:28:42Z</time>
    </trkpt>
    <trkpt lat="50.9606529" lon="6.8460863">
      <time>2023-05-27T17:28:43Z</time>
    </trkpt>
    <trkpt lat="50.9606725" lon="6.8457737">
      <time>2023-05-27T17:28:47Z</time>
    </trkpt>
    <trkpt lat="50.9607173" lon="6.8454007">
      <time>2023-05-27T17:28:52Z</time>
    </trkpt>
    <trkpt lat="50.9607317" lon="6.8451555">
      <time>2023-05-27T17:28:55Z</time>
    </trkpt>
    <trkpt lat="50.9607646" lon="6.8444276">
      <time>2023-05-27T17:29:04Z</time>
    </trkpt>
    <trkpt lat="50.9607677" lon="6.8443467">
      <time>2023-05-27T17:29:05Z</time>
    </trkpt>
    <trkpt lat="50.9608044" lon="6.8437468">
      <time>2023-05-27T17:29:13Z</time>
    </trkpt>
    <trkpt lat="50.9608080" lon="6.8436773">
      <time>2023-05-27T17:29:14Z</time>
    </trkpt>
    <trkpt lat="50.9608221" lon="6.8435472">
      <time>2023-05-27T17:29:16Z</time>
    </trkpt>
    <trkpt lat="50.9608341" lon="6.8434168">
      <time>2023-05-27T17:29:18Z</time>
    </trkpt>
    <trkpt lat="50.9608465" lon="6.8432174">
      <time>2023-05-27T17:29:21Z</time>
    </trkpt>
    <trkpt lat="50.9608769" lon="6.8427288">
      <time>2023-05-27T17:29:28Z</time>
    </trkpt>
    <trkpt lat="50.9608827" lon="6.8426536">
      <time>2023-05-27T17:29:29Z</time>
    </trkpt>
    <trkpt lat="50.9609099" lon="6.8423658">
      <time>2023-05-27T17:29:33Z</time>
    </trkpt>
    <trkpt lat="50.9609187" lon="6.8421395">
      <time>2023-05-27T17:29:36Z</time>
    </trkpt>
    <trkpt lat="50.9609600" lon="6.8415834">
      <time>2023-05-27T17:29:44Z</time>
    </trkpt>
    <trkpt lat="50.9609839" lon="6.8412759">
      <time>2023-05-27T17:29:49Z</time>
    </trkpt>
    <trkpt lat="50.9609912" lon="6.8410819">
      <time>2023-05-27T17:29:52Z</time>
    </trkpt>
    <trkpt lat="50.9609919" lon="6.8410142">
      <time>2023-05-27T17:29:53Z</time>
    </trkpt>
    <trkpt lat="50.9609955" lon="6.8409478">
      <time>2023-05-27T17:29:54Z</time>
    </trkpt>
    <trkpt lat="50.9610145" lon="6.8406977">
      <time>2023-05-27T17:29:58Z</time>
    </trkpt>
    <trkpt lat="50.9610302" lon="6.8405763">
      <time>2023-05-27T17:30:00Z</time>
    </trkpt>
    <trkpt lat="50.9610370" lon="6.8405172">
      <time>2023-05-27T17:30:01Z</time>
    </trkpt>
    <trkpt lat="50.9610600" lon="6.8402842">
      <time>2023-05-27T17:30:05Z</time>
    </trkpt>
    <trkpt lat="50.9610935" lon="6.8401879">
      <time>2023-05-27T17:30:07Z</time>
    </trkpt>
    <trkpt lat="50.9611375" lon="6.8399197">
      <time>2023-05-27T17:30:13Z</time>
    </trkpt>
    <trkpt lat="50.9610873" lon="6.8397080">
      <time>2023-05-27T17:30:17Z</time>
    </trkpt>
    <trkpt lat="50.9610932" lon="6.8395690">
      <time>2023-05-27T17:30:19Z</time>
    </trkpt>
    <trkpt lat="50.9611246" lon="6.8391814">
      <time>2023-05-27T17:30:25Z</time>
    </trkpt>
    <trkpt lat="50.9611426" lon="6.8388978">
      <time>2023-05-27T17:30:29Z</time>
    </trkpt>
    <trkpt lat="50.9611702" lon="6.8385559">
      <time>2023-05-27T17:30:34Z</time>
    </trkpt>
    <trkpt lat="50.9611722" lon="6.8384873">
      <time>2023-05-27T17:30:35Z</time>
    </trkpt>
    <trkpt lat="50.9612074" lon="6.8378642">
      <time>2023-05-27T17:30:44Z</time>
    </trkpt>
    <trkpt lat="50.9612395" lon="6.8373444">
      <time>2023-05-27T17:30:52Z</time>
    </trkpt>
    <trkpt lat="50.9612440" lon="6.8372840">
      <time>2023-05-27T17:30:53Z</time>
    </trkpt>
    <trkpt lat="50.9612767" lon="6.8369862">
      <time>2023-05-27T17:30:58Z</time>
    </trkpt>
    <trkpt lat="50.9612991" lon="6.8365887">
      <time>2023-05-27T17:31:05Z</time>
    </trkpt>
    <trkpt lat="50.9613586" lon="6.8364214">
      <time>2023-05-27T17:31:09Z</time>
    </trkpt>
    <trkpt lat="50.9614625" lon="6.8362148">
      <time>2023-05-27T17:31:15Z</time>
    </trkpt>
    <trkpt lat="50.9614731" lon="6.8359064">
      <time>2023-05-27T17:31:21Z</time>
    </trkpt>
    <trkpt lat="50.9614895" lon="6.8355712">
      <time>2023-05-27T17:31:27Z</time>
    </trkpt>
    <trkpt lat="50.9614222" lon="6.8352258">
      <time>2023-05-27T17:31:34Z</time>
    </trkpt>
    <trkpt lat="50.9613984" lon="6.8348750">
      <time>2023-05-27T17:31:40Z</time>
    </trkpt>
    <trkpt lat="50.9614115" lon="6.8347079">
      <time>2023-05-27T17:31:43Z</time>
    </trkpt>
    <trkpt lat="50.9614374" lon="6.8343508">
      <time>2023-05-27T17:31:49Z</time>
    </trkpt>
    <trkpt lat="50.9614798" lon="6.8338744">
      <time>2023-05-27T17:31:57Z</time>
    </trkpt>
    <trkpt lat="50.9614858" lon="6.8337467">
      <time>2023-05-27T17:31:59Z</time>
    </trkpt>
    <trkpt lat="50.9614940" lon="6.8335667">
      <time>2023-05-27T17:32:02Z</time>
    </trkpt>
    <trkpt lat="50.9614972" lon="6.8335041">
      <time>2023-05-27T17:32:03Z</time>
    </trkpt>
    <trkpt lat="50.9615188" lon="6.8331391">
      <time>2023-05-27T17:32:09Z</time>
    </trkpt>
    <trkpt lat="50.9615276" lon="6.8327225">
      <time>2023-05-27T17:32:16Z</time>
    </trkpt>
    <trkpt lat="50.9615664" lon="6.8323225">
      <time>2023-05-27T17:32:23Z</time>
    </trkpt>
    <trkpt lat="50.9615915" lon="6.8319583">
      <time>2023-05-27T17:32:29Z</time>
    </trkpt>
    <trkpt lat="50.9615969" lon="6.8317721">
      <time>2023-05-27T17:32:32Z</time>
    </trkpt>
    <trkpt lat="50.9616025" lon="6.8317253">
      <time>2023-05-27T17:32:33Z</time>
    </trkpt>
    <trkpt lat="50.9616090" lon="6.8316690">
      <time>2023-05-27T17:32:34Z</time>
    </trkpt>
    <trkpt lat="50.9616327" lon="6.8313953">
      <time>2023-05-27T17:32:39Z</time>
    </trkpt>
    <trkpt lat="50.9616508" lon="6.8310834">
      <time>2023-05-27T17:32:45Z</time>
    </trkpt>
    <trkpt lat="50.9616254" lon="6.8309177">
      <time>2023-05-27T17:32:49Z</time>
    </trkpt>
    <trkpt lat="50.9616025" lon="6.8308901">
      <time>2023-05-27T17:32:50Z</time>
    </trkpt>
    <trkpt lat="50.9615122" lon="6.8307399">
      <time>2023-05-27T17:32:54Z</time>
    </trkpt>
    <trkpt lat="50.9615091" lon="6.8306528">
      <time>2023-05-27T17:32:56Z</time>
    </trkpt>
    <trkpt lat="50.9615787" lon="6.8304940">
      <time>2023-05-27T17:33:00Z</time>
    </trkpt>
    <trkpt lat="50.9616994" lon="6.8303386">
      <time>2023-05-27T17:33:05Z</time>
    </trkpt>
    <trkpt lat="50.9617192" lon="6.8302648">
      <time>2023-05-27T17:33:06Z</time>
    </trkpt>
    <trkpt lat="50.9617554" lon="6.8300531">
      <time>2023-05-27T17:33:09Z</time>
    </trkpt>
    <trkpt lat="50.9617802" lon="6.8298936">
      <time>2023-05-27T17:33:11Z</time>
    </trkpt>
    <trkpt lat="50.9618639" lon="6.8292659">
      <time>2023-05-27T17:33:19Z</time>
    </trkpt>
    <trkpt lat="50.9619545" lon="6.8288215">
      <time>2023-05-27T17:33:25Z</time>
    </trkpt>
    <trkpt lat="50.9619587" lon="6.8287416">
      <time>2023-05-27T17:33:26Z</time>
    </trkpt>
    <trkpt lat="50.9619547" lon="6.8285014">
      <time>2023-05-27T17:33:29Z</time>
    </trkpt>
    <trkpt lat="50.9619523" lon="6.8284166">
      <time>2023-05-27T17:33:30Z</time>
    </trkpt>
    <trkpt lat="50.9619797" lon="6.8278562">
      <time>2023-05-27T17:33:37Z</time>
    </trkpt>
    <trkpt lat="50.9619872" lon="6.8276965">
      <time>2023-05-27T17:33:39Z</time>
    </trkpt>
    <trkpt lat="50.9619764" lon="6.8273861">
      <time>2023-05-27T17:33:43Z</time>
    </trkpt>
    <trkpt lat="50.9619782" lon="6.8271533">
      <time>2023-05-27T17:33:46Z</time>
    </trkpt>
    <trkpt lat="50.9619839" lon="6.8268367">
      <time>2023-05-27T17:33:50Z</time>
    </trkpt>
    <trkpt lat="50.9620001" lon="6.8264106">
      <time>2023-05-27T17:33:55Z</time>
    </trkpt>
    <trkpt lat="50.9620170" lon="6.8261022">
      <time>2023-05-27T17:33:59Z</time>
    </trkpt>
    <trkpt lat="50.9620217" lon="6.8259440">
      <time>2023-05-27T17:34:01Z</time>
    </trkpt>
    <trkpt lat="50.9620282" lon="6.8256112">
      <time>2023-05-27T17:34:05Z</time>
    </trkpt>
    <trkpt lat="50.9620542" lon="6.8252762">
      <time>2023-05-27T17:34:09Z</time>
    </trkpt>
    <trkpt lat="50.9620924" lon="6.8251258">
      <time>2023-05-27T17:34:11Z</time>
    </trkpt>
    <trkpt lat="50.9621645" lon="6.8250017">
      <time>2023-05-27T17:34:13Z</time>
    </trkpt>
    <trkpt lat="50.9622450" lon="6.8249058">
      <time>2023-05-27T17:34:15Z</time>
    </trkpt>
    <trkpt lat="50.9622916" lon="6.8248711">
      <time>2023-05-27T17:34:16Z</time>
    </trkpt>
    <trkpt lat="50.9623760" lon="6.8247866">
      <time>2023-05-27T17:34:18Z</time>
    </trkpt>
    <trkpt lat="50.9624630" lon="6.8247015">
      <time>2023-05-27T17:34:20Z</time>
    </trkpt>
    <trkpt lat="50.9625409" lon="6.8246096">
      <time>2023-05-27T17:34:22Z</time>
    </trkpt>
    <trkpt lat="50.9626252" lon="6.8245409">
      <time>2023-05-27T17:34:24Z</time>
    </trkpt>
    <trkpt lat="50.9628655" lon="6.8242852">
      <time>2023-05-27T17:34:31Z</time>
    </trkpt>
    <trkpt lat="50.9628976" lon="6.8242514">
      <time>2023-05-27T17:34:32Z</time>
    </trkpt>
    <trkpt lat="50.9629628" lon="6.8241866">
      <time>2023-05-27T17:34:34Z</time>
    </trkpt>
    <trkpt lat="50.9630417" lon="6.8241136">
      <time>2023-05-27T17:34:37Z</time>
    </trkpt>
    <trkpt lat="50.9630639" lon="6.8239815">
      <time>2023-05-27T17:34:41Z</time>
    </trkpt>
    <trkpt lat="50.9630155" lon="6.8237819">
      <time>2023-05-27T17:34:46Z</time>
    </trkpt>
    <trkpt lat="50.9629120" lon="6.8235115">
      <time>2023-05-27T17:34:52Z</time>
    </trkpt>
    <trkpt lat="50.9628722" lon="6.8234417">
      <time>2023-05-27T17:34:54Z</time>
    </trkpt>
    <trkpt lat="50.9627663" lon="6.8231887">
      <time>2023-05-27T17:35:00Z</time>
    </trkpt>
    <trkpt lat="50.9627275" lon="6.8231000">
      <time>2023-05-27T17:35:02Z</time>
    </trkpt>
    <trkpt lat="50.9626568" lon="6.8229554">
      <time>2023-05-27T17:35:05Z</time>
    </trkpt>
    <trkpt lat="50.9625791" lon="6.8227963">
      <time>2023-05-27T17:35:09Z</time>
    </trkpt>
    <trkpt lat="50.9624843" lon="6.8226338">
      <time>2023-05-27T17:35:13Z</time>
    </trkpt>
    <trkpt lat="50.9623430" lon="6.8224086">
      <time>2023-05-27T17:35:19Z</time>
    </trkpt>
    <trkpt lat="50.9621494" lon="6.8221623">
      <time>2023-05-27T17:35:26Z</time>
    </trkpt>
    <trkpt lat="50.9621261" lon="6.8221280">
      <time>2023-05-27T17:35:27Z</time>
    </trkpt>
    <trkpt lat="50.9619182" lon="6.8218372">
      <time>2023-05-27T17:35:34Z</time>
    </trkpt>
    <trkpt lat="50.9616958" lon="6.8215426">
      <time>2023-05-27T17:35:42Z</time>
    </trkpt>
    <trkpt lat="50.9614550" lon="6.8212275">
      <time>2023-05-27T17:35:52Z</time>
    </trkpt>
    <trkpt lat="50.9613547" lon="6.8211047">
      <time>2023-05-27T17:35:59Z</time>
    </trkpt>
    <trkpt lat="50.9613501" lon="6.8210988">
      <time>2023-05-27T17:36:00Z</time>
    </trkpt>
    <trkpt lat="50.9613540" lon="6.8210950">
      <time>2023-05-27T17:36:02Z</time>
    </trkpt>
    <trkpt lat="50.9613616" lon="6.8211015">
      <time>2023-05-27T17:36:04Z</time>
    </trkpt>
    <trkpt lat="50.9613638" lon="6.8211040">
      <time>2023-05-27T17:36:05Z</time>
    </trkpt>
    <trkpt lat="50.9613654" lon="6.8211034">
      <time>2023-05-27T17:36:08Z</time>
    </trkpt>
    <trkpt lat="50.9613651" lon="6.8211024">
      <time>2023-05-27T17:36:09Z</time>
    </trkpt>
    <trkpt lat="50.9613649" lon="6.8211023">
      <time>2023-05-27T17:36:10Z</time>
    </trkpt>
    <trkpt lat="50.9613564" lon="6.8210874">
      <time>2023-05-27T17:36:14Z</time>
    </trkpt>
    <trkpt lat="50.9613519" lon="6.8210828">
      <time>2023-05-27T17:36:15Z</time>
    </trkpt>
    <trkpt lat="50.9613448" lon="6.8210790">
      <time>2023-05-27T17:36:16Z</time>
    </trkpt>
    <trkpt lat="50.9613364" lon="6.8210822">
      <time>2023-05-27T17:36:21Z</time>
    </trkpt>
    <trkpt lat="50.9613211" lon="6.8210637">
      <time>2023-05-27T17:36:23Z</time>
    </trkpt>
    <trkpt lat="50.9612761" lon="6.8210002">
      <time>2023-05-27T17:36:27Z</time>
    </trkpt>
    <trkpt lat="50.9611929" lon="6.8208209">
      <time>2023-05-27T17:36:33Z</time>
    </trkpt>
    <trkpt lat="50.9611555" lon="6.8207600">
      <time>2023-05-27T17:36:35Z</time>
    </trkpt>
    <trkpt lat="50.9610453" lon="6.8206140">
      <time>2023-05-27T17:36:40Z</time>
    </trkpt>
    <trkpt lat="50.9610057" lon="6.8205594">
      <time>2023-05-27T17:36:42Z</time>
    </trkpt>
    <trkpt lat="50.9609507" lon="6.8204828">
      <time>2023-05-27T17:36:45Z</time>
    </trkpt>
    <trkpt lat="50.9609308" lon="6.8204596">
      <time>2023-05-27T17:36:46Z</time>
    </trkpt>
    <trkpt lat="50.9609109" lon="6.8204369">
      <time>2023-05-27T17:36:47Z</time>
    </trkpt>
    <trkpt lat="50.9608692" lon="6.8204096">
      <time>2023-05-27T17:36:49Z</time>
    </trkpt>
    <trkpt lat="50.9608326" lon="6.8204072">
      <time>2023-05-27T17:36:51Z</time>
    </trkpt>
    <trkpt lat="50.9608220" lon="6.8203795">
      <time>2023-05-27T17:36:53Z</time>
    </trkpt>
    <trkpt lat="50.9608260" lon="6.8203775">
      <time>2023-05-27T17:36:54Z</time>
    </trkpt>
    <trkpt lat="50.9608236" lon="6.8203958">
      <time>2023-05-27T17:36:57Z</time>
    </trkpt>
    <trkpt lat="50.9608443" lon="6.8204031">
      <time>2023-05-27T17:37:02Z</time>
    </trkpt>
    <trkpt lat="50.9608614" lon="6.8204156">
      <time>2023-05-27T17:37:03Z</time>
    </trkpt>
    <trkpt lat="50.9608603" lon="6.8204360">
      <time>2023-05-27T17:37:06Z</time>
    </trkpt>
    <trkpt lat="50.9608489" lon="6.8204298">
      <time>2023-05-27T17:37:07Z</time>
    </trkpt>
    <trkpt lat="50.9608417" lon="6.8204117">
      <time>2023-05-27T17:37:09Z</time>
    </trkpt>
    <trkpt lat="50.9608614" lon="6.8204061">
      <time>2023-05-27T17:37:11Z</time>
    </trkpt>
    <trkpt lat="50.9608698" lon="6.8203911">
      <time>2023-05-27T17:37:12Z</time>
    </trkpt>
    <trkpt lat="50.9608607" lon="6.8203785">
      <time>2023-05-27T17:37:14Z</time>
    </trkpt>
    <trkpt lat="50.9608809" lon="6.8203948">
      <time>2023-05-27T17:37:17Z</time>
    </trkpt>
    <trkpt lat="50.9608831" lon="6.8203777">
      <time>2023-05-27T17:37:18Z</time>
    </trkpt>
    <trkpt lat="50.9608677" lon="6.8203917">
      <time>2023-05-27T17:37:20Z</time>
    </trkpt>
    <trkpt lat="50.9608736" lon="6.8204121">
      <time>2023-05-27T17:37:22Z</time>
    </trkpt>
    <trkpt lat="50.9608842" lon="6.8204098">
      <time>2023-05-27T17:37:23Z</time>
    </trkpt>
    <trkpt lat="50.9608919" lon="6.8204099">
      <time>2023-05-27T17:37:24Z</time>
    </trkpt>
    <trkpt lat="50.9608765" lon="6.8204212">
      <time>2023-05-27T17:37:27Z</time>
    </trkpt>
    <trkpt lat="50.9608627" lon="6.8204258">
      <time>2023-05-27T17:37:28Z</time>
    </trkpt>
    <trkpt lat="50.9608341" lon="6.8204223">
      <time>2023-05-27T17:37:30Z</time>
    </trkpt>
    <trkpt lat="50.9607962" lon="6.8203833">
      <time>2023-05-27T17:37:32Z</time>
    </trkpt>
    <trkpt lat="50.9607191" lon="6.8203027">
      <time>2023-05-27T17:37:36Z</time>
    </trkpt>
    <trkpt lat="50.9606630" lon="6.8202408">
      <time>2023-05-27T17:37:39Z</time>
    </trkpt>
    <trkpt lat="50.9605918" lon="6.8201467">
      <time>2023-05-27T17:37:42Z</time>
    </trkpt>
    <trkpt lat="50.9605078" lon="6.8200277">
      <time>2023-05-27T17:37:46Z</time>
    </trkpt>
    <trkpt lat="50.9603956" lon="6.8198811">
      <time>2023-05-27T17:37:52Z</time>
    </trkpt>
    <trkpt lat="50.9602492" lon="6.8195901">
      <time>2023-05-27T17:38:00Z</time>
    </trkpt>
    <trkpt lat="50.9601403" lon="6.8193665">
      <time>2023-05-27T17:38:06Z</time>
    </trkpt>
    <trkpt lat="50.9600908" lon="6.8192531">
      <time>2023-05-27T17:38:09Z</time>
    </trkpt>
    <trkpt lat="50.9599679" lon="6.8189891">
      <time>2023-05-27T17:38:15Z</time>
    </trkpt>
    <trkpt lat="50.9599060" lon="6.8188415">
      <time>2023-05-27T17:38:18Z</time>
    </trkpt>
    <trkpt lat="50.9598341" lon="6.8186570">
      <time>2023-05-27T17:38:22Z</time>
    </trkpt>
    <trkpt lat="50.9597214" lon="6.8183589">
      <time>2023-05-27T17:38:28Z</time>
    </trkpt>
    <trkpt lat="50.9595829" lon="6.8179695">
      <time>2023-05-27T17:38:36Z</time>
    </trkpt>
    <trkpt lat="50.9593958" lon="6.8174938">
      <time>2023-05-27T17:38:46Z</time>
    </trkpt>
    <trkpt lat="50.9592021" lon="6.8170407">
      <time>2023-05-27T17:38:55Z</time>
    </trkpt>
    <trkpt lat="50.9591697" lon="6.8169407">
      <time>2023-05-27T17:38:57Z</time>
    </trkpt>
    <trkpt lat="50.9591062" lon="6.8167680">
      <time>2023-05-27T17:39:00Z</time>
    </trkpt>
    <trkpt lat="50.9590468" lon="6.8166237">
      <time>2023-05-27T17:39:03Z</time>
    </trkpt>
    <trkpt lat="50.9588520" lon="6.8160917">
      <time>2023-05-27T17:39:13Z</time>
    </trkpt>
    <trkpt lat="50.9586105" lon="6.8154751">
      <time>2023-05-27T17:39:25Z</time>
    </trkpt>
    <trkpt lat="50.9585528" lon="6.8153339">
      <time>2023-05-27T17:39:28Z</time>
    </trkpt>
    <trkpt lat="50.9584567" lon="6.8150879">
      <time>2023-05-27T17:39:33Z</time>
    </trkpt>
    <trkpt lat="50.9584303" lon="6.8150264">
      <time>2023-05-27T17:39:34Z</time>
    </trkpt>
    <trkpt lat="50.9582653" lon="6.8146201">
      <time>2023-05-27T17:39:42Z</time>
    </trkpt>
    <trkpt lat="50.9581914" lon="6.8144082">
      <time>2023-05-27T17:39:46Z</time>
    </trkpt>
    <trkpt lat="50.9581434" lon="6.8142310">
      <time>2023-05-27T17:39:49Z</time>
    </trkpt>
    <trkpt lat="50.9580630" lon="6.8139527">
      <time>2023-05-27T17:39:54Z</time>
    </trkpt>
    <trkpt lat="50.9579895" lon="6.8137233">
      <time>2023-05-27T17:39:58Z</time>
    </trkpt>
    <trkpt lat="50.9578603" lon="6.8132830">
      <time>2023-05-27T17:40:06Z</time>
    </trkpt>
    <trkpt lat="50.9577292" lon="6.8128042">
      <time>2023-05-27T17:40:14Z</time>
    </trkpt>
    <trkpt lat="50.9576940" lon="6.8126837">
      <time>2023-05-27T17:40:16Z</time>
    </trkpt>
    <trkpt lat="50.9575560" lon="6.8121295">
      <time>2023-05-27T17:40:25Z</time>
    </trkpt>
    <trkpt lat="50.9574026" lon="6.8115788">
      <time>2023-05-27T17:40:34Z</time>
    </trkpt>
    <trkpt lat="50.9573079" lon="6.8112047">
      <time>2023-05-27T17:40:40Z</time>
    </trkpt>
    <trkpt lat="50.9572551" lon="6.8110280">
      <time>2023-05-27T17:40:43Z</time>
    </trkpt>
    <trkpt lat="50.9572118" lon="6.8108254">
      <time>2023-05-27T17:40:46Z</time>
    </trkpt>
    <trkpt lat="50.9571454" lon="6.8105953">
      <time>2023-05-27T17:40:50Z</time>
    </trkpt>
    <trkpt lat="50.9570038" lon="6.8101087">
      <time>2023-05-27T17:40:58Z</time>
    </trkpt>
    <trkpt lat="50.9568473" lon="6.8095780">
      <time>2023-05-27T17:41:07Z</time>
    </trkpt>
    <trkpt lat="50.9567190" lon="6.8092402">
      <time>2023-05-27T17:41:13Z</time>
    </trkpt>
    <trkpt lat="50.9566225" lon="6.8089619">
      <time>2023-05-27T17:41:18Z</time>
    </trkpt>
    <trkpt lat="50.9565467" lon="6.8087265">
      <time>2023-05-27T17:41:22Z</time>
    </trkpt>
    <trkpt lat="50.9563699" lon="6.8082135">
      <time>2023-05-27T17:41:32Z</time>
    </trkpt>
    <trkpt lat="50.9562371" lon="6.8078776">
      <time>2023-05-27T17:41:39Z</time>
    </trkpt>
    <trkpt lat="50.9560718" lon="6.8074619">
      <time>2023-05-27T17:41:47Z</time>
    </trkpt>
    <trkpt lat="50.9559459" lon="6.8071692">
      <time>2023-05-27T17:41:54Z</time>
    </trkpt>
    <trkpt lat="50.9557673" lon="6.8067306">
      <time>2023-05-27T17:42:04Z</time>
    </trkpt>
    <trkpt lat="50.9556770" lon="6.8065379">
      <time>2023-05-27T17:42:08Z</time>
    </trkpt>
    <trkpt lat="50.9556055" lon="6.8064070">
      <time>2023-05-27T17:42:11Z</time>
    </trkpt>
    <trkpt lat="50.9555003" lon="6.8061505">
      <time>2023-05-27T17:42:17Z</time>
    </trkpt>
    <trkpt lat="50.9553145" lon="6.8057603">
      <time>2023-05-27T17:42:26Z</time>
    </trkpt>
    <trkpt lat="50.9551337" lon="6.8054368">
      <time>2023-05-27T17:42:34Z</time>
    </trkpt>
    <trkpt lat="50.9549682" lon="6.8051865">
      <time>2023-05-27T17:42:41Z</time>
    </trkpt>
    <trkpt lat="50.9548046" lon="6.8049980">
      <time>2023-05-27T17:42:47Z</time>
    </trkpt>
    <trkpt lat="50.9545527" lon="6.8047563">
      <time>2023-05-27T17:42:56Z</time>
    </trkpt>
    <trkpt lat="50.9542952" lon="6.8044986">
      <time>2023-05-27T17:43:05Z</time>
    </trkpt>
    <trkpt lat="50.9541928" lon="6.8043342">
      <time>2023-05-27T17:43:10Z</time>
    </trkpt>
    <trkpt lat="50.9540614" lon="6.8041951">
      <time>2023-05-27T17:43:15Z</time>
    </trkpt>
    <trkpt lat="50.9540191" lon="6.8040829">
      <time>2023-05-27T17:43:18Z</time>
    </trkpt>
    <trkpt lat="50.9540139" lon="6.8040148">
      <time>2023-05-27T17:43:20Z</time>
    </trkpt>
    <trkpt lat="50.9540197" lon="6.8040022">
      <time>2023-05-27T17:43:25Z</time>
    </trkpt>
    <trkpt lat="50.9541036" lon="6.8042044">
      <time>2023-05-27T17:43:30Z</time>
    </trkpt>
    <trkpt lat="50.9542070" lon="6.8042911">
      <time>2023-05-27T17:43:34Z</time>
    </trkpt>
    <trkpt lat="50.9542743" lon="6.8044212">
      <time>2023-05-27T17:43:38Z</time>
    </trkpt>
    <trkpt lat="50.9543515" lon="6.8045001">
      <time>2023-05-27T17:43:41Z</time>
    </trkpt>
    <trkpt lat="50.9545949" lon="6.8047378">
      <time>2023-05-27T17:43:49Z</time>
    </trkpt>
    <trkpt lat="50.9548177" lon="6.8049814">
      <time>2023-05-27T17:43:56Z</time>
    </trkpt>
    <trkpt lat="50.9551180" lon="6.8053918">
      <time>2023-05-27T17:44:05Z</time>
    </trkpt>
    <trkpt lat="50.9552078" lon="6.8055263">
      <time>2023-05-27T17:44:08Z</time>
    </trkpt>
    <trkpt lat="50.9553110" lon="6.8057030">
      <time>2023-05-27T17:44:12Z</time>
    </trkpt>
    <trkpt lat="50.9554753" lon="6.8060530">
      <time>2023-05-27T17:44:19Z</time>
    </trkpt>
    <trkpt lat="50.9557055" lon="6.8065748">
      <time>2023-05-27T17:44:29Z</time>
    </trkpt>
    <trkpt lat="50.9558338" lon="6.8068865">
      <time>2023-05-27T17:44:35Z</time>
    </trkpt>
    <trkpt lat="50.9558771" lon="6.8069922">
      <time>2023-05-27T17:44:37Z</time>
    </trkpt>
    <trkpt lat="50.9560489" lon="6.8074249">
      <time>2023-05-27T17:44:45Z</time>
    </trkpt>
    <trkpt lat="50.9561420" lon="6.8076671">
      <time>2023-05-27T17:44:49Z</time>
    </trkpt>
    <trkpt lat="50.9561651" lon="6.8077283">
      <time>2023-05-27T17:44:50Z</time>
    </trkpt>
    <trkpt lat="50.9562290" lon="6.8079142">
      <time>2023-05-27T17:44:53Z</time>
    </trkpt>
    <trkpt lat="50.9563181" lon="6.8081567">
      <time>2023-05-27T17:44:57Z</time>
    </trkpt>
    <trkpt lat="50.9563733" lon="6.8083420">
      <time>2023-05-27T17:45:00Z</time>
    </trkpt>
    <trkpt lat="50.9564342" lon="6.8085193">
      <time>2023-05-27T17:45:03Z</time>
    </trkpt>
    <trkpt lat="50.9565151" lon="6.8087386">
      <time>2023-05-27T17:45:07Z</time>
    </trkpt>
    <trkpt lat="50.9566484" lon="6.8091313">
      <time>2023-05-27T17:45:14Z</time>
    </trkpt>
    <trkpt lat="50.9567302" lon="6.8093457">
      <time>2023-05-27T17:45:18Z</time>
    </trkpt>
    <trkpt lat="50.9567497" lon="6.8094002">
      <time>2023-05-27T17:45:19Z</time>
    </trkpt>
    <trkpt lat="50.9569031" lon="6.8098414">
      <time>2023-05-27T17:45:27Z</time>
    </trkpt>
    <trkpt lat="50.9569227" lon="6.8098820">
      <time>2023-05-27T17:45:28Z</time>
    </trkpt>
    <trkpt lat="50.9569646" lon="6.8099371">
      <time>2023-05-27T17:45:31Z</time>
    </trkpt>
    <trkpt lat="50.9569644" lon="6.8099745">
      <time>2023-05-27T17:45:35Z</time>
    </trkpt>
    <trkpt lat="50.9569602" lon="6.8099534">
      <time>2023-05-27T17:45:38Z</time>
    </trkpt>
    <trkpt lat="50.9569505" lon="6.8099491">
      <time>2023-05-27T17:45:41Z</time>
    </trkpt>
    <trkpt lat="50.9569695" lon="6.8099561">
      <time>2023-05-27T17:45:43Z</time>
    </trkpt>
    <trkpt lat="50.9569636" lon="6.8099613">
      <time>2023-05-27T17:45:44Z</time>
    </trkpt>
    <trkpt lat="50.9569607" lon="6.8099421">
      <time>2023-05-27T17:45:46Z</time>
    </trkpt>
    <trkpt lat="50.9569640" lon="6.8099424">
      <time>2023-05-27T17:45:47Z</time>
    </trkpt>
    <trkpt lat="50.9569493" lon="6.8099605">
      <time>2023-05-27T17:45:49Z</time>
    </trkpt>
    <trkpt lat="50.9569527" lon="6.8099609">
      <time>2023-05-27T17:45:51Z</time>
    </trkpt>
    <trkpt lat="50.9569484" lon="6.8099596">
      <time>2023-05-27T17:45:55Z</time>
    </trkpt>
    <trkpt lat="50.9569541" lon="6.8099360">
      <time>2023-05-27T17:45:58Z</time>
    </trkpt>
    <trkpt lat="50.9569456" lon="6.8099439">
      <time>2023-05-27T17:46:01Z</time>
    </trkpt>
    <trkpt lat="50.9569494" lon="6.8099315">
      <time>2023-05-27T17:46:02Z</time>
    </trkpt>
    <trkpt lat="50.9569582" lon="6.8099425">
      <time>2023-05-27T17:46:04Z</time>
    </trkpt>
    <trkpt lat="50.9569539" lon="6.8099393">
      <time>2023-05-27T17:46:07Z</time>
    </trkpt>
    <trkpt lat="50.9569519" lon="6.8099423">
      <time>2023-05-27T17:46:10Z</time>
    </trkpt>
    <trkpt lat="50.9569669" lon="6.8099429">
      <time>2023-05-27T17:46:12Z</time>
    </trkpt>
    <trkpt lat="50.9569729" lon="6.8099750">
      <time>2023-05-27T17:46:14Z</time>
    </trkpt>
    <trkpt lat="50.9569512" lon="6.8099673">
      <time>2023-05-27T17:46:17Z</time>
    </trkpt>
    <trkpt lat="50.9569416" lon="6.8099250">
      <time>2023-05-27T17:46:20Z</time>
    </trkpt>
    <trkpt lat="50.9569294" lon="6.8099367">
      <time>2023-05-27T17:46:23Z</time>
    </trkpt>
    <trkpt lat="50.9569340" lon="6.8099409">
      <time>2023-05-27T17:46:25Z</time>
    </trkpt>
    <trkpt lat="50.9569295" lon="6.8099358">
      <time>2023-05-27T17:46:26Z</time>
    </trkpt>
    <trkpt lat="50.9569476" lon="6.8099067">
      <time>2023-05-27T17:46:30Z</time>
    </trkpt>
    <trkpt lat="50.9569415" lon="6.8099101">
      <time>2023-05-27T17:46:34Z</time>
    </trkpt>
    <trkpt lat="50.9569375" lon="6.8099160">
      <time>2023-05-27T17:46:37Z</time>
    </trkpt>
    <trkpt lat="50.9569473" lon="6.8099294">
      <time>2023-05-27T17:46:40Z</time>
    </trkpt>
    <trkpt lat="50.9569471" lon="6.8099611">
      <time>2023-05-27T17:46:41Z</time>
    </trkpt>
    <trkpt lat="50.9569493" lon="6.8099865">
      <time>2023-05-27T17:46:42Z</time>
    </trkpt>
    <trkpt lat="50.9569566" lon="6.8099915">
      <time>2023-05-27T17:46:44Z</time>
    </trkpt>
    <trkpt lat="50.9569545" lon="6.8099745">
      <time>2023-05-27T17:46:45Z</time>
    </trkpt>
    <trkpt lat="50.9569480" lon="6.8099496">
      <time>2023-05-27T17:46:48Z</time>
    </trkpt>
    <trkpt lat="50.9569276" lon="6.8099388">
      <time>2023-05-27T17:46:50Z</time>
    </trkpt>
    <trkpt lat="50.9569283" lon="6.8099305">
      <time>2023-05-27T17:46:51Z</time>
    </trkpt>
    <trkpt lat="50.9569260" lon="6.8099646">
      <time>2023-05-27T17:46:54Z</time>
    </trkpt>
    <trkpt lat="50.9569333" lon="6.8099911">
      <time>2023-05-27T17:46:56Z</time>
    </trkpt>
    <trkpt lat="50.9569513" lon="6.8099860">
      <time>2023-05-27T17:46:58Z</time>
    </trkpt>
    <trkpt lat="50.9569484" lon="6.8099862">
      <time>2023-05-27T17:47:02Z</time>
    </trkpt>
    <trkpt lat="50.9569358" lon="6.8099821">
      <time>2023-05-27T17:47:03Z</time>
    </trkpt>
    <trkpt lat="50.9569374" lon="6.8099352">
      <time>2023-05-27T17:47:06Z</time>
    </trkpt>
    <trkpt lat="50.9569540" lon="6.8099616">
      <time>2023-05-27T17:47:09Z</time>
    </trkpt>
    <trkpt lat="50.9569588" lon="6.8099787">
      <time>2023-05-27T17:47:10Z</time>
    </trkpt>
    <trkpt lat="50.9569706" lon="6.8099874">
      <time>2023-05-27T17:47:11Z</time>
    </trkpt>
    <trkpt lat="50.9569755" lon="6.8099585">
      <time>2023-05-27T17:47:13Z</time>
    </trkpt>
    <trkpt lat="50.9569563" lon="6.8099593">
      <time>2023-05-27T17:47:15Z</time>
    </trkpt>
    <trkpt lat="50.9569620" lon="6.8099745">
      <time>2023-05-27T17:47:17Z</time>
    </trkpt>
    <trkpt lat="50.9569650" lon="6.8099358">
      <time>2023-05-27T17:47:19Z</time>
    </trkpt>
    <trkpt lat="50.9569580" lon="6.8099241">
      <time>2023-05-27T17:47:20Z</time>
    </trkpt>
    <trkpt lat="50.9569556" lon="6.8099302">
      <time>2023-05-27T17:47:21Z</time>
    </trkpt>
    <trkpt lat="50.9569523" lon="6.8099618">
      <time>2023-05-27T17:47:23Z</time>
    </trkpt>
    <trkpt lat="50.9569530" lon="6.8099396">
      <time>2023-05-27T17:47:25Z</time>
    </trkpt>
    <trkpt lat="50.9569743" lon="6.8099041">
      <time>2023-05-27T17:47:27Z</time>
    </trkpt>
    <trkpt lat="50.9570014" lon="6.8099155">
      <time>2023-05-27T17:47:29Z</time>
    </trkpt>
    <trkpt lat="50.9569914" lon="6.8099450">
      <time>2023-05-27T17:47:31Z</time>
    </trkpt>
    <trkpt lat="50.9569643" lon="6.8099505">
      <time>2023-05-27T17:47:33Z</time>
    </trkpt>
    <trkpt lat="50.9569666" lon="6.8098946">
      <time>2023-05-27T17:47:36Z</time>
    </trkpt>
    <trkpt lat="50.9570029" lon="6.8098876">
      <time>2023-05-27T17:47:38Z</time>
    </trkpt>
    <trkpt lat="50.9570031" lon="6.8099253">
      <time>2023-05-27T17:47:40Z</time>
    </trkpt>
    <trkpt lat="50.9569756" lon="6.8099397">
      <time>2023-05-27T17:47:43Z</time>
    </trkpt>
    <trkpt lat="50.9569605" lon="6.8099203">
      <time>2023-05-27T17:47:45Z</time>
    </trkpt>
    <trkpt lat="50.9569528" lon="6.8099204">
      <time>2023-05-27T17:47:47Z</time>
    </trkpt>
    <trkpt lat="50.9569696" lon="6.8099040">
      <time>2023-05-27T17:47:49Z</time>
    </trkpt>
    <trkpt lat="50.9570019" lon="6.8098900">
      <time>2023-05-27T17:47:51Z</time>
    </trkpt>
    <trkpt lat="50.9570027" lon="6.8099141">
      <time>2023-05-27T17:47:53Z</time>
    </trkpt>
    <trkpt lat="50.9569764" lon="6.8099297">
      <time>2023-05-27T17:47:55Z</time>
    </trkpt>
    <trkpt lat="50.9569606" lon="6.8099098">
      <time>2023-05-27T17:47:56Z</time>
    </trkpt>
    <trkpt lat="50.9569404" lon="6.8098728">
      <time>2023-05-27T17:47:57Z</time>
    </trkpt>
    <trkpt lat="50.9568728" lon="6.8097064">
      <time>2023-05-27T17:48:01Z</time>
    </trkpt>
    <trkpt lat="50.9568748" lon="6.8096658">
      <time>2023-05-27T17:48:02Z</time>
    </trkpt>
    <trkpt lat="50.9568691" lon="6.8096239">
      <time>2023-05-27T17:48:04Z</time>
    </trkpt>
    <trkpt lat="50.9568567" lon="6.8096161">
      <time>2023-05-27T17:48:05Z</time>
    </trkpt>
    <trkpt lat="50.9568494" lon="6.8096041">
      <time>2023-05-27T17:48:06Z</time>
    </trkpt>
    <trkpt lat="50.9568561" lon="6.8095727">
      <time>2023-05-27T17:48:08Z</time>
    </trkpt>
    <trkpt lat="50.9568623" lon="6.8095731">
      <time>2023-05-27T17:48:09Z</time>
    </trkpt>
    <trkpt lat="50.9568585" lon="6.8095602">
      <time>2023-05-27T17:48:12Z</time>
    </trkpt>
    <trkpt lat="50.9568569" lon="6.8095911">
      <time>2023-05-27T17:48:14Z</time>
    </trkpt>
    <trkpt lat="50.9568514" lon="6.8096161">
      <time>2023-05-27T17:48:16Z</time>
    </trkpt>
    <trkpt lat="50.9568536" lon="6.8096029">
      <time>2023-05-27T17:48:17Z</time>
    </trkpt>
    <trkpt lat="50.9568582" lon="6.8095545">
      <time>2023-05-27T17:48:19Z</time>
    </trkpt>
    <trkpt lat="50.9568497" lon="6.8095352">
      <time>2023-05-27T17:48:23Z</time>
    </trkpt>
    <trkpt lat="50.9568125" lon="6.8094626">
      <time>2023-05-27T17:48:27Z</time>
    </trkpt>
    <trkpt lat="50.9567929" lon="6.8093983">
      <time>2023-05-27T17:48:30Z</time>
    </trkpt>
    <trkpt lat="50.9567968" lon="6.8093992">
      <time>2023-05-27T17:48:31Z</time>
    </trkpt>
    <trkpt lat="50.9568311" lon="6.8095006">
      <time>2023-05-27T17:48:36Z</time>
    </trkpt>
    <trkpt lat="50.9568365" lon="6.8095145">
      <time>2023-05-27T17:48:37Z</time>
    </trkpt>
    <trkpt lat="50.9568299" lon="6.8095019">
      <time>2023-05-27T17:48:39Z</time>
    </trkpt>
    <trkpt lat="50.9568233" lon="6.8094818">
      <time>2023-05-27T17:48:40Z</time>
    </trkpt>
    <trkpt lat="50.9568269" lon="6.8094275">
      <time>2023-05-27T17:48:43Z</time>
    </trkpt>
    <trkpt lat="50.9567363" lon="6.8092499">
      <time>2023-05-27T17:48:50Z</time>
    </trkpt>
    <trkpt lat="50.9567230" lon="6.8091824">
      <time>2023-05-27T17:48:53Z</time>
    </trkpt>
    <trkpt lat="50.9567317" lon="6.8091763">
      <time>2023-05-27T17:48:54Z</time>
    </trkpt>
    <trkpt lat="50.9567762" lon="6.8092620">
      <time>2023-05-27T17:48:58Z</time>
    </trkpt>
    <trkpt lat="50.9568162" lon="6.8094453">
      <time>2023-05-27T17:49:05Z</time>
    </trkpt>
    <trkpt lat="50.9568296" lon="6.8094828">
      <time>2023-05-27T17:49:06Z</time>
    </trkpt>
    <trkpt lat="50.9568675" lon="6.8096584">
      <time>2023-05-27T17:49:10Z</time>
    </trkpt>
    <trkpt lat="50.9568836" lon="6.8097440">
      <time>2023-05-27T17:49:14Z</time>
    </trkpt>
    <trkpt lat="50.9568608" lon="6.8096820">
      <time>2023-05-27T17:49:18Z</time>
    </trkpt>
    <trkpt lat="50.9568589" lon="6.8096043">
      <time>2023-05-27T17:49:21Z</time>
    </trkpt>
    <trkpt lat="50.9568476" lon="6.8095767">
      <time>2023-05-27T17:49:22Z</time>
    </trkpt>
    <trkpt lat="50.9567955" lon="6.8094579">
      <time>2023-05-27T17:49:28Z</time>
    </trkpt>
    <trkpt lat="50.9568031" lon="6.8093996">
      <time>2023-05-27T17:49:29Z</time>
    </trkpt>
    <trkpt lat="50.9568533" lon="6.8094394">
      <time>2023-05-27T17:49:30Z</time>
    </trkpt>
    <trkpt lat="50.9568907" lon="6.8095057">
      <time>2023-05-27T17:49:32Z</time>
    </trkpt>
    <trkpt lat="50.9568663" lon="6.8095833">
      <time>2023-05-27T17:49:36Z</time>
    </trkpt>
    <trkpt lat="50.9568136" lon="6.8095617">
      <time>2023-05-27T17:49:38Z</time>
    </trkpt>
    <trkpt lat="50.9567873" lon="6.8095448">
      <time>2023-05-27T17:49:39Z</time>
    </trkpt>
    <trkpt lat="50.9567634" lon="6.8094794">
      <time>2023-05-27T17:49:41Z</time>
    </trkpt>
    <trkpt lat="50.9568087" lon="6.8094538">
      <time>2023-05-27T17:49:43Z</time>
    </trkpt>
    <trkpt lat="50.9568152" lon="6.8094712">
      <time>2023-05-27T17:49:46Z</time>
    </trkpt>
    <trkpt lat="50.9568125" lon="6.8094985">
      <time>2023-05-27T17:49:49Z</time>
    </trkpt>
    <trkpt lat="50.9568042" lon="6.8094695">
      <time>2023-05-27T17:49:51Z</time>
    </trkpt>
    <trkpt lat="50.9568019" lon="6.8094695">
      <time>2023-05-27T17:49:52Z</time>
    </trkpt>
    <trkpt lat="50.9567804" lon="6.8094859">
      <time>2023-05-27T17:49:54Z</time>
    </trkpt>
    <trkpt lat="50.9567794" lon="6.8094815">
      <time>2023-05-27T17:49:56Z</time>
    </trkpt>
    <trkpt lat="50.9567702" lon="6.8094806">
      <time>2023-05-27T17:49:57Z</time>
    </trkpt>
    <trkpt lat="50.9567704" lon="6.8094871">
      <time>2023-05-27T17:50:00Z</time>
    </trkpt>
    <trkpt lat="50.9567752" lon="6.8094830">
      <time>2023-05-27T17:50:02Z</time>
    </trkpt>
    <trkpt lat="50.9567825" lon="6.8094960">
      <time>2023-05-27T17:50:03Z</time>
    </trkpt>
    <trkpt lat="50.9567836" lon="6.8095148">
      <time>2023-05-27T17:50:04Z</time>
    </trkpt>
    <trkpt lat="50.9567925" lon="6.8095342">
      <time>2023-05-27T17:50:06Z</time>
    </trkpt>
    <trkpt lat="50.9567896" lon="6.8095337">
      <time>2023-05-27T17:50:07Z</time>
    </trkpt>
    <trkpt lat="50.9568050" lon="6.8095368">
      <time>2023-05-27T17:50:10Z</time>
    </trkpt>
    <trkpt lat="50.9567789" lon="6.8095014">
      <time>2023-05-27T17:50:13Z</time>
    </trkpt>
    <trkpt lat="50.9567286" lon="6.8093960">
      <time>2023-05-27T17:50:17Z</time>
    </trkpt>
    <trkpt lat="50.9567195" lon="6.8093696">
      <time>2023-05-27T17:50:18Z</time>
    </trkpt>
    <trkpt lat="50.9567121" lon="6.8093405">
      <time>2023-05-27T17:50:19Z</time>
    </trkpt>
    <trkpt lat="50.9567144" lon="6.8093229">
      <time>2023-05-27T17:50:20Z</time>
    </trkpt>
    <trkpt lat="50.9567264" lon="6.8093346">
      <time>2023-05-27T17:50:22Z</time>
    </trkpt>
    <trkpt lat="50.9567548" lon="6.8094447">
      <time>2023-05-27T17:50:26Z</time>
    </trkpt>
    <trkpt lat="50.9567577" lon="6.8094478">
      <time>2023-05-27T17:50:27Z</time>
    </trkpt>
    <trkpt lat="50.9567719" lon="6.8094555">
      <time>2023-05-27T17:50:29Z</time>
    </trkpt>
    <trkpt lat="50.9567813" lon="6.8095172">
      <time>2023-05-27T17:50:31Z</time>
    </trkpt>
    <trkpt lat="50.9568064" lon="6.8096080">
      <time>2023-05-27T17:50:34Z</time>
    </trkpt>
    <trkpt lat="50.9568128" lon="6.8096112">
      <time>2023-05-27T17:50:36Z</time>
    </trkpt>
    <trkpt lat="50.9568253" lon="6.8096225">
      <time>2023-05-27T17:50:37Z</time>
    </trkpt>
    <trkpt lat="50.9568213" lon="6.8095977">
      <time>2023-05-27T17:50:40Z</time>
    </trkpt>
    <trkpt lat="50.9568216" lon="6.8095535">
      <time>2023-05-27T17:50:42Z</time>
    </trkpt>
    <trkpt lat="50.9568276" lon="6.8095786">
      <time>2023-05-27T17:50:44Z</time>
    </trkpt>
    <trkpt lat="50.9568405" lon="6.8095983">
      <time>2023-05-27T17:50:46Z</time>
    </trkpt>
    <trkpt lat="50.9568426" lon="6.8095841">
      <time>2023-05-27T17:50:47Z</time>
    </trkpt>
    <trkpt lat="50.9567892" lon="6.8094886">
      <time>2023-05-27T17:50:51Z</time>
    </trkpt>
    <trkpt lat="50.9567521" lon="6.8093633">
      <time>2023-05-27T17:50:56Z</time>
    </trkpt>
    <trkpt lat="50.9567712" lon="6.8094234">
      <time>2023-05-27T17:50:59Z</time>
    </trkpt>
    <trkpt lat="50.9568566" lon="6.8096798">
      <time>2023-05-27T17:51:04Z</time>
    </trkpt>
    <trkpt lat="50.9569231" lon="6.8098968">
      <time>2023-05-27T17:51:09Z</time>
    </trkpt>
    <trkpt lat="50.9569651" lon="6.8100212">
      <time>2023-05-27T17:51:12Z</time>
    </trkpt>
    <trkpt lat="50.9569963" lon="6.8101227">
      <time>2023-05-27T17:51:14Z</time>
    </trkpt>
    <trkpt lat="50.9571047" lon="6.8104828">
      <time>2023-05-27T17:51:20Z</time>
    </trkpt>
    <trkpt lat="50.9571695" lon="6.8106682">
      <time>2023-05-27T17:51:23Z</time>
    </trkpt>
    <trkpt lat="50.9572055" lon="6.8108066">
      <time>2023-05-27T17:51:26Z</time>
    </trkpt>
    <trkpt lat="50.9572783" lon="6.8111286">
      <time>2023-05-27T17:51:32Z</time>
    </trkpt>
    <trkpt lat="50.9573347" lon="6.8113668">
      <time>2023-05-27T17:51:36Z</time>
    </trkpt>
    <trkpt lat="50.9573790" lon="6.8115558">
      <time>2023-05-27T17:51:39Z</time>
    </trkpt>
    <trkpt lat="50.9574249" lon="6.8117410">
      <time>2023-05-27T17:51:42Z</time>
    </trkpt>
    <trkpt lat="50.9574765" lon="6.8119294">
      <time>2023-05-27T17:51:45Z</time>
    </trkpt>
    <trkpt lat="50.9575321" lon="6.8121202">
      <time>2023-05-27T17:51:48Z</time>
    </trkpt>
    <trkpt lat="50.9575634" lon="6.8122540">
      <time>2023-05-27T17:51:51Z</time>
    </trkpt>
    <trkpt lat="50.9575709" lon="6.8122851">
      <time>2023-05-27T17:51:52Z</time>
    </trkpt>
    <trkpt lat="50.9576456" lon="6.8125641">
      <time>2023-05-27T17:51:57Z</time>
    </trkpt>
    <trkpt lat="50.9577890" lon="6.8131233">
      <time>2023-05-27T17:52:05Z</time>
    </trkpt>
    <trkpt lat="50.9578098" lon="6.8131882">
      <time>2023-05-27T17:52:06Z</time>
    </trkpt>
    <trkpt lat="50.9579067" lon="6.8135002">
      <time>2023-05-27T17:52:11Z</time>
    </trkpt>
    <trkpt lat="50.9579712" lon="6.8137073">
      <time>2023-05-27T17:52:14Z</time>
    </trkpt>
    <trkpt lat="50.9580057" lon="6.8138223">
      <time>2023-05-27T17:52:16Z</time>
    </trkpt>
    <trkpt lat="50.9580484" lon="6.8139528">
      <time>2023-05-27T17:52:19Z</time>
    </trkpt>
    <trkpt lat="50.9580480" lon="6.8139696">
      <time>2023-05-27T17:52:20Z</time>
    </trkpt>
    <trkpt lat="50.9580446" lon="6.8139604">
      <time>2023-05-27T17:52:22Z</time>
    </trkpt>
    <trkpt lat="50.9580550" lon="6.8139758">
      <time>2023-05-27T17:52:23Z</time>
    </trkpt>
    <trkpt lat="50.9580755" lon="6.8140438">
      <time>2023-05-27T17:52:25Z</time>
    </trkpt>
    <trkpt lat="50.9581243" lon="6.8142171">
      <time>2023-05-27T17:52:29Z</time>
    </trkpt>
    <trkpt lat="50.9581773" lon="6.8143676">
      <time>2023-05-27T17:52:32Z</time>
    </trkpt>
    <trkpt lat="50.9583278" lon="6.8147695">
      <time>2023-05-27T17:52:39Z</time>
    </trkpt>
    <trkpt lat="50.9584112" lon="6.8150066">
      <time>2023-05-27T17:52:43Z</time>
    </trkpt>
    <trkpt lat="50.9584496" lon="6.8151305">
      <time>2023-05-27T17:52:45Z</time>
    </trkpt>
    <trkpt lat="50.9584673" lon="6.8151908">
      <time>2023-05-27T17:52:46Z</time>
    </trkpt>
    <trkpt lat="50.9584903" lon="6.8152458">
      <time>2023-05-27T17:52:47Z</time>
    </trkpt>
    <trkpt lat="50.9586300" lon="6.8155868">
      <time>2023-05-27T17:52:53Z</time>
    </trkpt>
    <trkpt lat="50.9587443" lon="6.8158715">
      <time>2023-05-27T17:52:58Z</time>
    </trkpt>
    <trkpt lat="50.9588435" lon="6.8161042">
      <time>2023-05-27T17:53:02Z</time>
    </trkpt>
    <trkpt lat="50.9590672" lon="6.8166777">
      <time>2023-05-27T17:53:12Z</time>
    </trkpt>
    <trkpt lat="50.9591580" lon="6.8169153">
      <time>2023-05-27T17:53:16Z</time>
    </trkpt>
    <trkpt lat="50.9593291" lon="6.8173611">
      <time>2023-05-27T17:53:23Z</time>
    </trkpt>
    <trkpt lat="50.9594359" lon="6.8176279">
      <time>2023-05-27T17:53:27Z</time>
    </trkpt>
    <trkpt lat="50.9594787" lon="6.8177367">
      <time>2023-05-27T17:53:29Z</time>
    </trkpt>
    <trkpt lat="50.9595062" lon="6.8178098">
      <time>2023-05-27T17:53:30Z</time>
    </trkpt>
    <trkpt lat="50.9597589" lon="6.8184647">
      <time>2023-05-27T17:53:41Z</time>
    </trkpt>
    <trkpt lat="50.9599195" lon="6.8188726">
      <time>2023-05-27T17:53:49Z</time>
    </trkpt>
    <trkpt lat="50.9601222" lon="6.8193906">
      <time>2023-05-27T17:53:59Z</time>
    </trkpt>
    <trkpt lat="50.9603161" lon="6.8197796">
      <time>2023-05-27T17:54:07Z</time>
    </trkpt>
    <trkpt lat="50.9604091" lon="6.8199137">
      <time>2023-05-27T17:54:10Z</time>
    </trkpt>
    <trkpt lat="50.9606037" lon="6.8201765">
      <time>2023-05-27T17:54:16Z</time>
    </trkpt>
    <trkpt lat="50.9606311" lon="6.8202094">
      <time>2023-05-27T17:54:17Z</time>
    </trkpt>
    <trkpt lat="50.9607988" lon="6.8204234">
      <time>2023-05-27T17:54:22Z</time>
    </trkpt>
    <trkpt lat="50.9609567" lon="6.8206288">
      <time>2023-05-27T17:54:28Z</time>
    </trkpt>
    <trkpt lat="50.9610361" lon="6.8207385">
      <time>2023-05-27T17:54:32Z</time>
    </trkpt>
    <trkpt lat="50.9610462" lon="6.8207600">
      <time>2023-05-27T17:54:34Z</time>
    </trkpt>
    <trkpt lat="50.9610709" lon="6.8207802">
      <time>2023-05-27T17:54:38Z</time>
    </trkpt>
    <trkpt lat="50.9611913" lon="6.8209147">
      <time>2023-05-27T17:54:46Z</time>
    </trkpt>
    <trkpt lat="50.9612803" lon="6.8210424">
      <time>2023-05-27T17:54:49Z</time>
    </trkpt>
    <trkpt lat="50.9613797" lon="6.8211907">
      <time>2023-05-27T17:54:52Z</time>
    </trkpt>
    <trkpt lat="50.9616660" lon="6.8215609">
      <time>2023-05-27T17:55:00Z</time>
    </trkpt>
    <trkpt lat="50.9620080" lon="6.8220432">
      <time>2023-05-27T17:55:10Z</time>
    </trkpt>
    <trkpt lat="50.9620450" lon="6.8220890">
      <time>2023-05-27T17:55:11Z</time>
    </trkpt>
    <trkpt lat="50.9620763" lon="6.8221191">
      <time>2023-05-27T17:55:12Z</time>
    </trkpt>
    <trkpt lat="50.9622241" lon="6.8222852">
      <time>2023-05-27T17:55:16Z</time>
    </trkpt>
    <trkpt lat="50.9623229" lon="6.8224236">
      <time>2023-05-27T17:55:19Z</time>
    </trkpt>
    <trkpt lat="50.9624418" lon="6.8226081">
      <time>2023-05-27T17:55:23Z</time>
    </trkpt>
    <trkpt lat="50.9624694" lon="6.8226575">
      <time>2023-05-27T17:55:24Z</time>
    </trkpt>
    <trkpt lat="50.9625466" lon="6.8228142">
      <time>2023-05-27T17:55:27Z</time>
    </trkpt>
    <trkpt lat="50.9626704" lon="6.8230242">
      <time>2023-05-27T17:55:31Z</time>
    </trkpt>
    <trkpt lat="50.9628727" lon="6.8235363">
      <time>2023-05-27T17:55:39Z</time>
    </trkpt>
    <trkpt lat="50.9629125" lon="6.8236432">
      <time>2023-05-27T17:55:41Z</time>
    </trkpt>
    <trkpt lat="50.9629831" lon="6.8238062">
      <time>2023-05-27T17:55:44Z</time>
    </trkpt>
    <trkpt lat="50.9630147" lon="6.8239240">
      <time>2023-05-27T17:55:46Z</time>
    </trkpt>
    <trkpt lat="50.9630084" lon="6.8240710">
      <time>2023-05-27T17:55:48Z</time>
    </trkpt>
    <trkpt lat="50.9629600" lon="6.8241973">
      <time>2023-05-27T17:55:50Z</time>
    </trkpt>
    <trkpt lat="50.9628883" lon="6.8242985">
      <time>2023-05-27T17:55:52Z</time>
    </trkpt>
    <trkpt lat="50.9625680" lon="6.8246387">
      <time>2023-05-27T17:56:00Z</time>
    </trkpt>
    <trkpt lat="50.9623585" lon="6.8248460">
      <time>2023-05-27T17:56:05Z</time>
    </trkpt>
    <trkpt lat="50.9622729" lon="6.8249324">
      <time>2023-05-27T17:56:07Z</time>
    </trkpt>
    <trkpt lat="50.9620828" lon="6.8251863">
      <time>2023-05-27T17:56:12Z</time>
    </trkpt>
    <trkpt lat="50.9620415" lon="6.8253071">
      <time>2023-05-27T17:56:14Z</time>
    </trkpt>
    <trkpt lat="50.9619946" lon="6.8255408">
      <time>2023-05-27T17:56:17Z</time>
    </trkpt>
    <trkpt lat="50.9619912" lon="6.8257279">
      <time>2023-05-27T17:56:19Z</time>
    </trkpt>
    <trkpt lat="50.9619912" lon="6.8263255">
      <time>2023-05-27T17:56:26Z</time>
    </trkpt>
    <trkpt lat="50.9619716" lon="6.8269319">
      <time>2023-05-27T17:56:33Z</time>
    </trkpt>
    <trkpt lat="50.9619708" lon="6.8269984">
      <time>2023-05-27T17:56:34Z</time>
    </trkpt>
    <trkpt lat="50.9619679" lon="6.8274719">
      <time>2023-05-27T17:56:40Z</time>
    </trkpt>
    <trkpt lat="50.9619640" lon="6.8278014">
      <time>2023-05-27T17:56:44Z</time>
    </trkpt>
    <trkpt lat="50.9619669" lon="6.8282409">
      <time>2023-05-27T17:56:50Z</time>
    </trkpt>
    <trkpt lat="50.9619611" lon="6.8287175">
      <time>2023-05-27T17:56:57Z</time>
    </trkpt>
    <trkpt lat="50.9619351" lon="6.8290135">
      <time>2023-05-27T17:57:01Z</time>
    </trkpt>
    <trkpt lat="50.9619041" lon="6.8291421">
      <time>2023-05-27T17:57:03Z</time>
    </trkpt>
    <trkpt lat="50.9618276" lon="6.8295595">
      <time>2023-05-27T17:57:09Z</time>
    </trkpt>
    <trkpt lat="50.9617373" lon="6.8301837">
      <time>2023-05-27T17:57:18Z</time>
    </trkpt>
    <trkpt lat="50.9617317" lon="6.8302536">
      <time>2023-05-27T17:57:19Z</time>
    </trkpt>
    <trkpt lat="50.9617005" lon="6.8304270">
      <time>2023-05-27T17:57:22Z</time>
    </trkpt>
    <trkpt lat="50.9616115" lon="6.8304652">
      <time>2023-05-27T17:57:26Z</time>
    </trkpt>
    <trkpt lat="50.9615301" lon="6.8305184">
      <time>2023-05-27T17:57:30Z</time>
    </trkpt>
    <trkpt lat="50.9615266" lon="6.8305496">
      <time>2023-05-27T17:57:31Z</time>
    </trkpt>
    <trkpt lat="50.9615674" lon="6.8307555">
      <time>2023-05-27T17:57:36Z</time>
    </trkpt>
    <trkpt lat="50.9616437" lon="6.8310379">
      <time>2023-05-27T17:57:42Z</time>
    </trkpt>
    <trkpt lat="50.9616156" lon="6.8315398">
      <time>2023-05-27T17:57:50Z</time>
    </trkpt>
    <trkpt lat="50.9615928" lon="6.8320143">
      <time>2023-05-27T17:57:58Z</time>
    </trkpt>
    <trkpt lat="50.9615775" lon="6.8321406">
      <time>2023-05-27T17:58:00Z</time>
    </trkpt>
    <trkpt lat="50.9615617" lon="6.8323256">
      <time>2023-05-27T17:58:03Z</time>
    </trkpt>
    <trkpt lat="50.9615493" lon="6.8325307">
      <time>2023-05-27T17:58:06Z</time>
    </trkpt>
    <trkpt lat="50.9615346" lon="6.8330451">
      <time>2023-05-27T17:58:14Z</time>
    </trkpt>
    <trkpt lat="50.9614933" lon="6.8334207">
      <time>2023-05-27T17:58:20Z</time>
    </trkpt>
    <trkpt lat="50.9614745" lon="6.8336228">
      <time>2023-05-27T17:58:23Z</time>
    </trkpt>
    <trkpt lat="50.9614733" lon="6.8336914">
      <time>2023-05-27T17:58:24Z</time>
    </trkpt>
    <trkpt lat="50.9614726" lon="6.8337632">
      <time>2023-05-27T17:58:25Z</time>
    </trkpt>
    <trkpt lat="50.9614429" lon="6.8342239">
      <time>2023-05-27T17:58:32Z</time>
    </trkpt>
    <trkpt lat="50.9614427" lon="6.8343944">
      <time>2023-05-27T17:58:35Z</time>
    </trkpt>
    <trkpt lat="50.9614245" lon="6.8345702">
      <time>2023-05-27T17:58:38Z</time>
    </trkpt>
    <trkpt lat="50.9614197" lon="6.8349130">
      <time>2023-05-27T17:58:43Z</time>
    </trkpt>
    <trkpt lat="50.9613911" lon="6.8351874">
      <time>2023-05-27T17:58:47Z</time>
    </trkpt>
    <trkpt lat="50.9614008" lon="6.8352808">
      <time>2023-05-27T17:58:48Z</time>
    </trkpt>
    <trkpt lat="50.9614437" lon="6.8354927">
      <time>2023-05-27T17:58:51Z</time>
    </trkpt>
    <trkpt lat="50.9614689" lon="6.8356365">
      <time>2023-05-27T17:58:53Z</time>
    </trkpt>
    <trkpt lat="50.9614611" lon="6.8357207">
      <time>2023-05-27T17:58:54Z</time>
    </trkpt>
    <trkpt lat="50.9614431" lon="6.8357828">
      <time>2023-05-27T17:58:55Z</time>
    </trkpt>
    <trkpt lat="50.9614179" lon="6.8359613">
      <time>2023-05-27T17:58:58Z</time>
    </trkpt>
    <trkpt lat="50.9614004" lon="6.8361949">
      <time>2023-05-27T17:59:02Z</time>
    </trkpt>
    <trkpt lat="50.9614101" lon="6.8362964">
      <time>2023-05-27T17:59:04Z</time>
    </trkpt>
    <trkpt lat="50.9614051" lon="6.8364266">
      <time>2023-05-27T17:59:07Z</time>
    </trkpt>
    <trkpt lat="50.9613806" lon="6.8364744">
      <time>2023-05-27T17:59:09Z</time>
    </trkpt>
    <trkpt lat="50.9613090" lon="6.8366553">
      <time>2023-05-27T17:59:14Z</time>
    </trkpt>
    <trkpt lat="50.9612713" lon="6.8369402">
      <time>2023-05-27T17:59:19Z</time>
    </trkpt>
    <trkpt lat="50.9612727" lon="6.8370167">
      <time>2023-05-27T17:59:20Z</time>
    </trkpt>
    <trkpt lat="50.9612520" lon="6.8374907">
      <time>2023-05-27T17:59:26Z</time>
    </trkpt>
    <trkpt lat="50.9612110" lon="6.8380636">
      <time>2023-05-27T17:59:33Z</time>
    </trkpt>
    <trkpt lat="50.9611926" lon="6.8384487">
      <time>2023-05-27T17:59:38Z</time>
    </trkpt>
    <trkpt lat="50.9611730" lon="6.8386020">
      <time>2023-05-27T17:59:40Z</time>
    </trkpt>
    <trkpt lat="50.9611065" lon="6.8391176">
      <time>2023-05-27T17:59:47Z</time>
    </trkpt>
    <trkpt lat="50.9610979" lon="6.8392461">
      <time>2023-05-27T17:59:49Z</time>
    </trkpt>
    <trkpt lat="50.9610877" lon="6.8394549">
      <time>2023-05-27T17:59:52Z</time>
    </trkpt>
    <trkpt lat="50.9610829" lon="6.8395224">
      <time>2023-05-27T17:59:53Z</time>
    </trkpt>
    <trkpt lat="50.9610822" lon="6.8396761">
      <time>2023-05-27T17:59:55Z</time>
    </trkpt>
    <trkpt lat="50.9611281" lon="6.8398340">
      <time>2023-05-27T17:59:58Z</time>
    </trkpt>
    <trkpt lat="50.9611688" lon="6.8399054">
      <time>2023-05-27T18:00:00Z</time>
    </trkpt>
    <trkpt lat="50.9611707" lon="6.8399537">
      <time>2023-05-27T18:00:02Z</time>
    </trkpt>
    <trkpt lat="50.9611795" lon="6.8399720">
      <time>2023-05-27T18:00:03Z</time>
    </trkpt>
    <trkpt lat="50.9611895" lon="6.8400219">
      <time>2023-05-27T18:00:05Z</time>
    </trkpt>
    <trkpt lat="50.9611815" lon="6.8400522">
      <time>2023-05-27T18:00:06Z</time>
    </trkpt>
    <trkpt lat="50.9611532" lon="6.8401331">
      <time>2023-05-27T18:00:08Z</time>
    </trkpt>
    <trkpt lat="50.9610777" lon="6.8402931">
      <time>2023-05-27T18:00:11Z</time>
    </trkpt>
    <trkpt lat="50.9610171" lon="6.8405951">
      <time>2023-05-27T18:00:16Z</time>
    </trkpt>
    <trkpt lat="50.9609797" lon="6.8409396">
      <time>2023-05-27T18:00:21Z</time>
    </trkpt>
    <trkpt lat="50.9609643" lon="6.8410912">
      <time>2023-05-27T18:00:23Z</time>
    </trkpt>
    <trkpt lat="50.9609420" lon="6.8414091">
      <time>2023-05-27T18:00:27Z</time>
    </trkpt>
    <trkpt lat="50.9609289" lon="6.8416215">
      <time>2023-05-27T18:00:30Z</time>
    </trkpt>
    <trkpt lat="50.9609214" lon="6.8416975">
      <time>2023-05-27T18:00:31Z</time>
    </trkpt>
    <trkpt lat="50.9608724" lon="6.8422220">
      <time>2023-05-27T18:00:38Z</time>
    </trkpt>
    <trkpt lat="50.9608668" lon="6.8422972">
      <time>2023-05-27T18:00:39Z</time>
    </trkpt>
    <trkpt lat="50.9608356" lon="6.8429211">
      <time>2023-05-27T18:00:47Z</time>
    </trkpt>
    <trkpt lat="50.9608195" lon="6.8431477">
      <time>2023-05-27T18:00:50Z</time>
    </trkpt>
    <trkpt lat="50.9607929" lon="6.8434346">
      <time>2023-05-27T18:00:54Z</time>
    </trkpt>
    <trkpt lat="50.9607531" lon="6.8441331">
      <time>2023-05-27T18:01:03Z</time>
    </trkpt>
    <trkpt lat="50.9607240" lon="6.8449248">
      <time>2023-05-27T18:01:13Z</time>
    </trkpt>
    <trkpt lat="50.9607040" lon="6.8451329">
      <time>2023-05-27T18:01:16Z</time>
    </trkpt>
    <trkpt lat="50.9606801" lon="6.8454393">
      <time>2023-05-27T18:01:20Z</time>
    </trkpt>
    <trkpt lat="50.9606757" lon="6.8455778">
      <time>2023-05-27T18:01:22Z</time>
    </trkpt>
    <trkpt lat="50.9606692" lon="6.8456472">
      <time>2023-05-27T18:01:23Z</time>
    </trkpt>
    <trkpt lat="50.9606561" lon="6.8457801">
      <time>2023-05-27T18:01:25Z</time>
    </trkpt>
    <trkpt lat="50.9606339" lon="6.8460921">
      <time>2023-05-27T18:01:30Z</time>
    </trkpt>
    <trkpt lat="50.9606205" lon="6.8462363">
      <time>2023-05-27T18:01:32Z</time>
    </trkpt>
    <trkpt lat="50.9606109" lon="6.8463560">
      <time>2023-05-27T18:01:34Z</time>
    </trkpt>
    <trkpt lat="50.9605981" lon="6.8466942">
      <time>2023-05-27T18:01:39Z</time>
    </trkpt>
    <trkpt lat="50.9605323" lon="6.8472653">
      <time>2023-05-27T18:01:48Z</time>
    </trkpt>
    <trkpt lat="50.9605198" lon="6.8474491">
      <time>2023-05-27T18:01:51Z</time>
    </trkpt>
    <trkpt lat="50.9605092" lon="6.8475787">
      <time>2023-05-27T18:01:53Z</time>
    </trkpt>
    <trkpt lat="50.9604979" lon="6.8477126">
      <time>2023-05-27T18:01:55Z</time>
    </trkpt>
    <trkpt lat="50.9604909" lon="6.8477742">
      <time>2023-05-27T18:01:56Z</time>
    </trkpt>
    <trkpt lat="50.9604705" lon="6.8482378">
      <time>2023-05-27T18:02:03Z</time>
    </trkpt>
    <trkpt lat="50.9604459" lon="6.8486525">
      <time>2023-05-27T18:02:09Z</time>
    </trkpt>
    <trkpt lat="50.9604267" lon="6.8488563">
      <time>2023-05-27T18:02:12Z</time>
    </trkpt>
    <trkpt lat="50.9604101" lon="6.8489930">
      <time>2023-05-27T18:02:14Z</time>
    </trkpt>
    <trkpt lat="50.9603660" lon="6.8496181">
      <time>2023-05-27T18:02:23Z</time>
    </trkpt>
    <trkpt lat="50.9603184" lon="6.8502185">
      <time>2023-05-27T18:02:31Z</time>
    </trkpt>
    <trkpt lat="50.9603072" lon="6.8502946">
      <time>2023-05-27T18:02:32Z</time>
    </trkpt>
    <trkpt lat="50.9602750" lon="6.8506143">
      <time>2023-05-27T18:02:36Z</time>
    </trkpt>
    <trkpt lat="50.9602539" lon="6.8513732">
      <time>2023-05-27T18:02:48Z</time>
    </trkpt>
    <trkpt lat="50.9602395" lon="6.8519024">
      <time>2023-05-27T18:02:57Z</time>
    </trkpt>
    <trkpt lat="50.9602161" lon="6.8521676">
      <time>2023-05-27T18:03:02Z</time>
    </trkpt>
    <trkpt lat="50.9601959" lon="6.8523750">
      <time>2023-05-27T18:03:06Z</time>
    </trkpt>
    <trkpt lat="50.9601833" lon="6.8526125">
      <time>2023-05-27T18:03:10Z</time>
    </trkpt>
    <trkpt lat="50.9601719" lon="6.8527780">
      <time>2023-05-27T18:03:13Z</time>
    </trkpt>
    <trkpt lat="50.9601565" lon="6.8529638">
      <time>2023-05-27T18:03:16Z</time>
    </trkpt>
    <trkpt lat="50.9601248" lon="6.8533957">
      <time>2023-05-27T18:03:24Z</time>
    </trkpt>
    <trkpt lat="50.9601131" lon="6.8535590">
      <time>2023-05-27T18:03:27Z</time>
    </trkpt>
    <trkpt lat="50.9600771" lon="6.8541085">
      <time>2023-05-27T18:03:37Z</time>
    </trkpt>
    <trkpt lat="50.9600377" lon="6.8545710">
      <time>2023-05-27T18:03:45Z</time>
    </trkpt>
    <trkpt lat="50.9599994" lon="6.8550751">
      <time>2023-05-27T18:03:54Z</time>
    </trkpt>
    <trkpt lat="50.9599535" lon="6.8556262">
      <time>2023-05-27T18:04:04Z</time>
    </trkpt>
    <trkpt lat="50.9599260" lon="6.8562059">
      <time>2023-05-27T18:04:14Z</time>
    </trkpt>
    <trkpt lat="50.9598972" lon="6.8566986">
      <time>2023-05-27T18:04:23Z</time>
    </trkpt>
    <trkpt lat="50.9598605" lon="6.8572274">
      <time>2023-05-27T18:04:33Z</time>
    </trkpt>
    <trkpt lat="50.9598274" lon="6.8578048">
      <time>2023-05-27T18:04:43Z</time>
    </trkpt>
    <trkpt lat="50.9597947" lon="6.8582090">
      <time>2023-05-27T18:04:50Z</time>
    </trkpt>
    <trkpt lat="50.9597741" lon="6.8584261">
      <time>2023-05-27T18:04:54Z</time>
    </trkpt>
    <trkpt lat="50.9597488" lon="6.8588441">
      <time>2023-05-27T18:05:01Z</time>
    </trkpt>
    <trkpt lat="50.9597171" lon="6.8593254">
      <time>2023-05-27T18:05:09Z</time>
    </trkpt>
    <trkpt lat="50.9596868" lon="6.8595630">
      <time>2023-05-27T18:05:13Z</time>
    </trkpt>
    <trkpt lat="50.9596601" lon="6.8599657">
      <time>2023-05-27T18:05:20Z</time>
    </trkpt>
    <trkpt lat="50.9596218" lon="6.8604138">
      <time>2023-05-27T18:05:28Z</time>
    </trkpt>
    <trkpt lat="50.9595887" lon="6.8609374">
      <time>2023-05-27T18:05:37Z</time>
    </trkpt>
    <trkpt lat="50.9595757" lon="6.8612131">
      <time>2023-05-27T18:05:42Z</time>
    </trkpt>
    <trkpt lat="50.9595606" lon="6.8615318">
      <time>2023-05-27T18:05:48Z</time>
    </trkpt>
    <trkpt lat="50.9595629" lon="6.8618376">
      <time>2023-05-27T18:05:54Z</time>
    </trkpt>
    <trkpt lat="50.9595596" lon="6.8620663">
      <time>2023-05-27T18:05:58Z</time>
    </trkpt>
    <trkpt lat="50.9595429" lon="6.8621574">
      <time>2023-05-27T18:06:00Z</time>
    </trkpt>
    <trkpt lat="50.9595078" lon="6.8622807">
      <time>2023-05-27T18:06:04Z</time>
    </trkpt>
    <trkpt lat="50.9595361" lon="6.8625103">
      <time>2023-05-27T18:06:09Z</time>
    </trkpt>
    <trkpt lat="50.9595373" lon="6.8625623">
      <time>2023-05-27T18:06:10Z</time>
    </trkpt>
    <trkpt lat="50.9595438" lon="6.8628930">
      <time>2023-05-27T18:06:16Z</time>
    </trkpt>
    <trkpt lat="50.9595514" lon="6.8632635">
      <time>2023-05-27T18:06:23Z</time>
    </trkpt>
    <trkpt lat="50.9595800" lon="6.8637644">
      <time>2023-05-27T18:06:33Z</time>
    </trkpt>
    <trkpt lat="50.9596149" lon="6.8641277">
      <time>2023-05-27T18:06:41Z</time>
    </trkpt>
    <trkpt lat="50.9596213" lon="6.8642583">
      <time>2023-05-27T18:06:44Z</time>
    </trkpt>
    <trkpt lat="50.9596311" lon="6.8643940">
      <time>2023-05-27T18:06:47Z</time>
    </trkpt>
    <trkpt lat="50.9596382" lon="6.8645739">
      <time>2023-05-27T18:06:51Z</time>
    </trkpt>
    <trkpt lat="50.9596310" lon="6.8648519">
      <time>2023-05-27T18:06:57Z</time>
    </trkpt>
    <trkpt lat="50.9595782" lon="6.8652593">
      <time>2023-05-27T18:07:06Z</time>
    </trkpt>
    <trkpt lat="50.9595182" lon="6.8655121">
      <time>2023-05-27T18:07:12Z</time>
    </trkpt>
    <trkpt lat="50.9594757" lon="6.8656880">
      <time>2023-05-27T18:07:16Z</time>
    </trkpt>
    <trkpt lat="50.9593949" lon="6.8659743">
      <time>2023-05-27T18:07:21Z</time>
    </trkpt>
    <trkpt lat="50.9593760" lon="6.8660341">
      <time>2023-05-27T18:07:22Z</time>
    </trkpt>
    <trkpt lat="50.9592456" lon="6.8664800">
      <time>2023-05-27T18:07:29Z</time>
    </trkpt>
    <trkpt lat="50.9592072" lon="6.8666180">
      <time>2023-05-27T18:07:31Z</time>
    </trkpt>
    <trkpt lat="50.9590188" lon="6.8672663">
      <time>2023-05-27T18:07:40Z</time>
    </trkpt>
    <trkpt lat="50.9589711" lon="6.8674203">
      <time>2023-05-27T18:07:42Z</time>
    </trkpt>
    <trkpt lat="50.9589338" lon="6.8675519">
      <time>2023-05-27T18:07:44Z</time>
    </trkpt>
    <trkpt lat="50.9588494" lon="6.8678817">
      <time>2023-05-27T18:07:49Z</time>
    </trkpt>
    <trkpt lat="50.9587983" lon="6.8680616">
      <time>2023-05-27T18:07:52Z</time>
    </trkpt>
    <trkpt lat="50.9587629" lon="6.8681714">
      <time>2023-05-27T18:07:54Z</time>
    </trkpt>
    <trkpt lat="50.9587409" lon="6.8682191">
      <time>2023-05-27T18:07:55Z</time>
    </trkpt>
    <trkpt lat="50.9586375" lon="6.8683058">
      <time>2023-05-27T18:07:59Z</time>
    </trkpt>
    <trkpt lat="50.9584734" lon="6.8683780">
      <time>2023-05-27T18:08:06Z</time>
    </trkpt>
    <trkpt lat="50.9584581" lon="6.8683858">
      <time>2023-05-27T18:08:10Z</time>
    </trkpt>
    <trkpt lat="50.9585084" lon="6.8684879">
      <time>2023-05-27T18:08:49Z</time>
    </trkpt>
    <trkpt lat="50.9585400" lon="6.8685096">
      <time>2023-05-27T18:08:50Z</time>
    </trkpt>
    <trkpt lat="50.9585798" lon="6.8686848">
      <time>2023-05-27T18:08:54Z</time>
    </trkpt>
    <trkpt lat="50.9586974" lon="6.8687798">
      <time>2023-05-27T18:08:59Z</time>
    </trkpt>
    <trkpt lat="50.9587095" lon="6.8688289">
      <time>2023-05-27T18:09:00Z</time>
    </trkpt>
    <trkpt lat="50.9586911" lon="6.8689483">
      <time>2023-05-27T18:09:02Z</time>
    </trkpt>
    <trkpt lat="50.9586125" lon="6.8692587">
      <time>2023-05-27T18:09:07Z</time>
    </trkpt>
    <trkpt lat="50.9585246" lon="6.8695332">
      <time>2023-05-27T18:09:12Z</time>
    </trkpt>
    <trkpt lat="50.9584551" lon="6.8698627">
      <time>2023-05-27T18:09:18Z</time>
    </trkpt>
    <trkpt lat="50.9583803" lon="6.8701887">
      <time>2023-05-27T18:09:23Z</time>
    </trkpt>
    <trkpt lat="50.9583685" lon="6.8702548">
      <time>2023-05-27T18:09:24Z</time>
    </trkpt>
    <trkpt lat="50.9583609" lon="6.8704060">
      <time>2023-05-27T18:09:26Z</time>
    </trkpt>
    <trkpt lat="50.9583669" lon="6.8705278">
      <time>2023-05-27T18:09:28Z</time>
    </trkpt>
    <trkpt lat="50.9583907" lon="6.8705985">
      <time>2023-05-27T18:09:29Z</time>
    </trkpt>
    <trkpt lat="50.9584930" lon="6.8707375">
      <time>2023-05-27T18:09:32Z</time>
    </trkpt>
    <trkpt lat="50.9585422" lon="6.8707627">
      <time>2023-05-27T18:09:33Z</time>
    </trkpt>
    <trkpt lat="50.9586463" lon="6.8707935">
      <time>2023-05-27T18:09:35Z</time>
    </trkpt>
    <trkpt lat="50.9586971" lon="6.8707996">
      <time>2023-05-27T18:09:36Z</time>
    </trkpt>
    <trkpt lat="50.9590017" lon="6.8708443">
      <time>2023-05-27T18:09:43Z</time>
    </trkpt>
    <trkpt lat="50.9590964" lon="6.8708312">
      <time>2023-05-27T18:09:45Z</time>
    </trkpt>
    <trkpt lat="50.9591820" lon="6.8708557">
      <time>2023-05-27T18:09:47Z</time>
    </trkpt>
    <trkpt lat="50.9592495" lon="6.8709355">
      <time>2023-05-27T18:09:49Z</time>
    </trkpt>
    <trkpt lat="50.9593042" lon="6.8710641">
      <time>2023-05-27T18:09:51Z</time>
    </trkpt>
    <trkpt lat="50.9593850" lon="6.8713077">
      <time>2023-05-27T18:09:54Z</time>
    </trkpt>
    <trkpt lat="50.9595355" lon="6.8718610">
      <time>2023-05-27T18:10:01Z</time>
    </trkpt>
    <trkpt lat="50.9596022" lon="6.8721233">
      <time>2023-05-27T18:10:05Z</time>
    </trkpt>
    <trkpt lat="50.9596269" lon="6.8722434">
      <time>2023-05-27T18:10:07Z</time>
    </trkpt>
    <trkpt lat="50.9596557" lon="6.8724642">
      <time>2023-05-27T18:10:11Z</time>
    </trkpt>
    <trkpt lat="50.9596650" lon="6.8725071">
      <time>2023-05-27T18:10:12Z</time>
    </trkpt>
    <trkpt lat="50.9597052" lon="6.8727289">
      <time>2023-05-27T18:10:17Z</time>
    </trkpt>
    <trkpt lat="50.9597417" lon="6.8728968">
      <time>2023-05-27T18:10:22Z</time>
    </trkpt>
    <trkpt lat="50.9597610" lon="6.8729320">
      <time>2023-05-27T18:10:24Z</time>
    </trkpt>
    <trkpt lat="50.9598174" lon="6.8729707">
      <time>2023-05-27T18:10:28Z</time>
    </trkpt>
    <trkpt lat="50.9599420" lon="6.8728976">
      <time>2023-05-27T18:10:33Z</time>
    </trkpt>
    <trkpt lat="50.9602131" lon="6.8727423">
      <time>2023-05-27T18:10:41Z</time>
    </trkpt>
    <trkpt lat="50.9604675" lon="6.8726061">
      <time>2023-05-27T18:10:49Z</time>
    </trkpt>
    <trkpt lat="50.9605649" lon="6.8725568">
      <time>2023-05-27T18:10:52Z</time>
    </trkpt>
    <trkpt lat="50.9607106" lon="6.8724843">
      <time>2023-05-27T18:10:56Z</time>
    </trkpt>
    <trkpt lat="50.9608128" lon="6.8724121">
      <time>2023-05-27T18:10:59Z</time>
    </trkpt>
    <trkpt lat="50.9610989" lon="6.8722486">
      <time>2023-05-27T18:11:07Z</time>
    </trkpt>
    <trkpt lat="50.9614522" lon="6.8720806">
      <time>2023-05-27T18:11:16Z</time>
    </trkpt>
    <trkpt lat="50.9617184" lon="6.8719798">
      <time>2023-05-27T18:11:23Z</time>
    </trkpt>
    <trkpt lat="50.9619975" lon="6.8718921">
      <time>2023-05-27T18:11:31Z</time>
    </trkpt>
    <trkpt lat="50.9621657" lon="6.8718419">
      <time>2023-05-27T18:11:36Z</time>
    </trkpt>
    <trkpt lat="50.9624857" lon="6.8718106">
      <time>2023-05-27T18:11:45Z</time>
    </trkpt>
    <trkpt lat="50.9626271" lon="6.8718068">
      <time>2023-05-27T18:11:49Z</time>
    </trkpt>
    <trkpt lat="50.9627416" lon="6.8717981">
      <time>2023-05-27T18:11:52Z</time>
    </trkpt>
    <trkpt lat="50.9628078" lon="6.8718006">
      <time>2023-05-27T18:11:54Z</time>
    </trkpt>
    <trkpt lat="50.9631069" lon="6.8718394">
      <time>2023-05-27T18:12:02Z</time>
    </trkpt>
    <trkpt lat="50.9633157" lon="6.8718494">
      <time>2023-05-27T18:12:08Z</time>
    </trkpt>
    <trkpt lat="50.9634355" lon="6.8718688">
      <time>2023-05-27T18:12:12Z</time>
    </trkpt>
    <trkpt lat="50.9635862" lon="6.8718845">
      <time>2023-05-27T18:12:17Z</time>
    </trkpt>
    <trkpt lat="50.9638161" lon="6.8719353">
      <time>2023-05-27T18:12:24Z</time>
    </trkpt>
    <trkpt lat="50.9638829" lon="6.8719683">
      <time>2023-05-27T18:12:26Z</time>
    </trkpt>
    <trkpt lat="50.9639259" lon="6.8721114">
      <time>2023-05-27T18:12:29Z</time>
    </trkpt>
    <trkpt lat="50.9639248" lon="6.8724928">
      <time>2023-05-27T18:12:36Z</time>
    </trkpt>
    <trkpt lat="50.9638763" lon="6.8730227">
      <time>2023-05-27T18:12:46Z</time>
    </trkpt>
    <trkpt lat="50.9638265" lon="6.8732946">
      <time>2023-05-27T18:12:51Z</time>
    </trkpt>
    <trkpt lat="50.9638170" lon="6.8733411">
      <time>2023-05-27T18:12:52Z</time>
    </trkpt>
    <trkpt lat="50.9637218" lon="6.8737547">
      <time>2023-05-27T18:12:59Z</time>
    </trkpt>
    <trkpt lat="50.9636860" lon="6.8739009">
      <time>2023-05-27T18:13:02Z</time>
    </trkpt>
    <trkpt lat="50.9636656" lon="6.8740116">
      <time>2023-05-27T18:13:04Z</time>
    </trkpt>
    <trkpt lat="50.9636141" lon="6.8742207">
      <time>2023-05-27T18:13:08Z</time>
    </trkpt>
    <trkpt lat="50.9635520" lon="6.8745524">
      <time>2023-05-27T18:13:14Z</time>
    </trkpt>
    <trkpt lat="50.9634515" lon="6.8749387">
      <time>2023-05-27T18:13:22Z</time>
    </trkpt>
    <trkpt lat="50.9633681" lon="6.8753324">
      <time>2023-05-27T18:13:30Z</time>
    </trkpt>
    <trkpt lat="50.9633321" lon="6.8756010">
      <time>2023-05-27T18:13:36Z</time>
    </trkpt>
    <trkpt lat="50.9633384" lon="6.8756401">
      <time>2023-05-27T18:13:37Z</time>
    </trkpt>
    <trkpt lat="50.9633273" lon="6.8758307">
      <time>2023-05-27T18:13:42Z</time>
    </trkpt>
    <trkpt lat="50.9633323" lon="6.8759332">
      <time>2023-05-27T18:13:46Z</time>
    </trkpt>
    <trkpt lat="50.9633389" lon="6.8759373">
      <time>2023-05-27T18:13:47Z</time>
    </trkpt>
    <trkpt lat="50.9634250" lon="6.8759425">
      <time>2023-05-27T18:13:54Z</time>
    </trkpt>
    <trkpt lat="50.9634353" lon="6.8759428">
      <time>2023-05-27T18:13:57Z</time>
    </trkpt>
    <trkpt lat="50.9634333" lon="6.8759570">
      <time>2023-05-27T18:13:58Z</time>
    </trkpt>
    <trkpt lat="50.9634156" lon="6.8759736">
      <time>2023-05-27T18:14:03Z</time>
    </trkpt>
    <trkpt lat="50.9634100" lon="6.8760294">
      <time>2023-05-27T18:14:12Z</time>
    </trkpt>
    <trkpt lat="50.9634082" lon="6.8760508">
      <time>2023-05-27T18:14:19Z</time>
    </trkpt>
    <trkpt lat="50.9634910" lon="6.8754114">
      <time>2023-05-27T18:17:45Z</time>
    </trkpt>
    <trkpt lat="50.9634889" lon="6.8754929">
      <time>2023-05-27T18:17:49Z</time>
    </trkpt>
    <trkpt lat="50.9635006" lon="6.8755117">
      <time>2023-05-27T18:17:53Z</time>
    </trkpt>
    <trkpt lat="50.9634984" lon="6.8755365">
      <time>2023-05-27T18:17:55Z</time>
    </trkpt>
    <trkpt lat="50.9635167" lon="6.8756098">
      <time>2023-05-27T18:17:58Z</time>
    </trkpt>
    <trkpt lat="50.9635539" lon="6.8757025">
      <time>2023-05-27T18:18:02Z</time>
    </trkpt>
    <trkpt lat="50.9629417" lon="6.8761318">
      <time>2023-05-27T18:18:44Z</time>
    </trkpt>
    <trkpt lat="50.9628369" lon="6.8758627">
      <time>2023-05-27T18:18:49Z</time>
    </trkpt>
    <trkpt lat="50.9638948" lon="6.8758299">
      <time>2023-05-27T18:18:50Z</time>
    </trkpt>
    <trkpt lat="50.9633192" lon="6.8753983">
      <time>2023-05-27T18:22:42Z</time>
    </trkpt>
    <trkpt lat="50.9631685" lon="6.8756473">
      <time>2023-05-27T18:22:43Z</time>
    </trkpt>
    <trkpt lat="50.9632235" lon="6.8756707">
      <time>2023-05-27T18:22:48Z</time>
    </trkpt>
    <trkpt lat="50.9632742" lon="6.8756702">
      <time>2023-05-27T18:22:51Z</time>
    </trkpt>
    <trkpt lat="50.9630222" lon="6.8755440">
      <time>2023-05-27T18:23:00Z</time>
    </trkpt>
    <trkpt lat="50.9630143" lon="6.8755481">
      <time>2023-05-27T18:23:04Z</time>
    </trkpt>
    <trkpt lat="50.9630065" lon="6.8754992">
      <time>2023-05-27T18:23:08Z</time>
    </trkpt>
    <trkpt lat="50.9628593" lon="6.8753821">
      <time>2023-05-27T18:23:17Z</time>
    </trkpt>
    <trkpt lat="50.9629394" lon="6.8754413">
      <time>2023-05-27T18:23:18Z</time>
    </trkpt>
    <trkpt lat="50.9630088" lon="6.8755126">
      <time>2023-05-27T18:23:19Z</time>
    </trkpt>
    <trkpt lat="50.9630352" lon="6.8755282">
      <time>2023-05-27T18:23:25Z</time>
    </trkpt>
    <trkpt lat="50.9628936" lon="6.8753070">
      <time>2023-05-27T18:23:26Z</time>
    </trkpt>
    <trkpt lat="50.9629010" lon="6.8752927">
      <time>2023-05-27T18:23:27Z</time>
    </trkpt>
  </trkseg></trk>
</gpx>
