<?xml version="1.0" encoding="UTF-8"?>
<gpx version="1.1" creator="Diary FIT converter" xmlns="http://www.topografix.com/GPX/1/1">
  <trk><name>Cycling</name><trkseg>
    <trkpt lat="50.9233099" lon="6.9749053">
      <time>2025-10-11T16:45:49Z</time>
    </trkpt>
    <trkpt lat="50.9233565" lon="6.9748645">
      <time>2025-10-11T16:45:50Z</time>
    </trkpt>
    <trkpt lat="50.9234041" lon="6.9748409">
      <time>2025-10-11T16:45:51Z</time>
    </trkpt>
    <trkpt lat="50.9234592" lon="6.9748093">
      <time>2025-10-11T16:45:52Z</time>
    </trkpt>
    <trkpt lat="50.9236365" lon="6.9747105">
      <time>2025-10-11T16:45:55Z</time>
    </trkpt>
    <trkpt lat="50.9236957" lon="6.9746696">
      <time>2025-10-11T16:45:56Z</time>
    </trkpt>
    <trkpt lat="50.9237532" lon="6.9746292">
      <time>2025-10-11T16:45:57Z</time>
    </trkpt>
    <trkpt lat="50.9238155" lon="6.9745884">
      <time>2025-10-11T16:45:58Z</time>
    </trkpt>
    <trkpt lat="50.9241433" lon="6.9743862">
      <time>2025-10-11T16:46:03Z</time>
    </trkpt>
    <trkpt lat="50.9242726" lon="6.9743014">
      <time>2025-10-11T16:46:05Z</time>
    </trkpt>
    <trkpt lat="50.9245273" lon="6.9741360">
      <time>2025-10-11T16:46:09Z</time>
    </trkpt>
    <trkpt lat="50.9246548" lon="6.9740549">
      <time>2025-10-11T16:46:11Z</time>
    </trkpt>
    <trkpt lat="50.9248396" lon="6.9739308">
      <time>2025-10-11T16:46:14Z</time>
    </trkpt>
    <trkpt lat="50.9250228" lon="6.9737887">
      <time>2025-10-11T16:46:17Z</time>
    </trkpt>
    <trkpt lat="50.9251467" lon="6.9737131">
      <time>2025-10-11T16:46:19Z</time>
    </trkpt>
    <trkpt lat="50.9253573" lon="6.9736243">
      <time>2025-10-11T16:46:22Z</time>
    </trkpt>
    <trkpt lat="50.9255001" lon="6.9735795">
      <time>2025-10-11T16:46:24Z</time>
    </trkpt>
    <trkpt lat="50.9255700" lon="6.9735435">
      <time>2025-10-11T16:46:25Z</time>
    </trkpt>
    <trkpt lat="50.9261033" lon="6.9732556">
      <time>2025-10-11T16:46:33Z</time>
    </trkpt>
    <trkpt lat="50.9262391" lon="6.9731948">
      <time>2025-10-11T16:46:35Z</time>
    </trkpt>
    <trkpt lat="50.9264272" lon="6.9730897">
      <time>2025-10-11T16:46:38Z</time>
    </trkpt>
    <trkpt lat="50.9266713" lon="6.9729159">
      <time>2025-10-11T16:46:42Z</time>
    </trkpt>
    <trkpt lat="50.9267987" lon="6.9728570">
      <time>2025-10-11T16:46:44Z</time>
    </trkpt>
    <trkpt lat="50.9269239" lon="6.9727978">
      <time>2025-10-11T16:46:46Z</time>
    </trkpt>
    <trkpt lat="50.9272596" lon="6.9726525">
      <time>2025-10-11T16:46:51Z</time>
    </trkpt>
    <trkpt lat="50.9273250" lon="6.9726248">
      <time>2025-10-11T16:46:52Z</time>
    </trkpt>
    <trkpt lat="50.9274634" lon="6.9725938">
      <time>2025-10-11T16:46:54Z</time>
    </trkpt>
    <trkpt lat="50.9275837" lon="6.9726774">
      <time>2025-10-11T16:46:56Z</time>
    </trkpt>
    <trkpt lat="50.9277134" lon="6.9729383">
      <time>2025-10-11T16:46:59Z</time>
    </trkpt>
    <trkpt lat="50.9279836" lon="6.9736253">
      <time>2025-10-11T16:47:06Z</time>
    </trkpt>
    <trkpt lat="50.9280772" lon="6.9738325">
      <time>2025-10-11T16:47:09Z</time>
    </trkpt>
    <trkpt lat="50.9280972" lon="6.9738869">
      <time>2025-10-11T16:47:10Z</time>
    </trkpt>
    <trkpt lat="50.9281090" lon="6.9739593">
      <time>2025-10-11T16:47:11Z</time>
    </trkpt>
    <trkpt lat="50.9281464" lon="6.9741123">
      <time>2025-10-11T16:47:13Z</time>
    </trkpt>
    <trkpt lat="50.9281723" lon="6.9741811">
      <time>2025-10-11T16:47:14Z</time>
    </trkpt>
    <trkpt lat="50.9282618" lon="6.9743710">
      <time>2025-10-11T16:47:17Z</time>
    </trkpt>
    <trkpt lat="50.9282961" lon="6.9744251">
      <time>2025-10-11T16:47:18Z</time>
    </trkpt>
    <trkpt lat="50.9283588" lon="6.9745200">
      <time>2025-10-11T16:47:20Z</time>
    </trkpt>
    <trkpt lat="50.9283854" lon="6.9745758">
      <time>2025-10-11T16:47:21Z</time>
    </trkpt>
    <trkpt lat="50.9284480" lon="6.9746791">
      <time>2025-10-11T16:47:24Z</time>
    </trkpt>
    <trkpt lat="50.9285075" lon="6.9746875">
      <time>2025-10-11T16:47:28Z</time>
    </trkpt>
    <trkpt lat="50.9285176" lon="6.9746745">
      <time>2025-10-11T16:47:29Z</time>
    </trkpt>
    <trkpt lat="50.9285324" lon="6.9746858">
      <time>2025-10-11T16:47:30Z</time>
    </trkpt>
    <trkpt lat="50.9285619" lon="6.9747535">
      <time>2025-10-11T16:47:33Z</time>
    </trkpt>
    <trkpt lat="50.9285755" lon="6.9747616">
      <time>2025-10-11T16:47:34Z</time>
    </trkpt>
    <trkpt lat="50.9286133" lon="6.9747586">
      <time>2025-10-11T16:47:37Z</time>
    </trkpt>
    <trkpt lat="50.9286588" lon="6.9748328">
      <time>2025-10-11T16:47:42Z</time>
    </trkpt>
    <trkpt lat="50.9286609" lon="6.9748332">
      <time>2025-10-11T16:47:50Z</time>
    </trkpt>
    <trkpt lat="50.9286609" lon="6.9748332">
      <time>2025-10-11T16:47:54Z</time>
    </trkpt>
    <trkpt lat="50.9286609" lon="6.9748332">
      <time>2025-10-11T16:47:57Z</time>
    </trkpt>
    <trkpt lat="50.9286609" lon="6.9748332">
      <time>2025-10-11T16:48:02Z</time>
    </trkpt>
    <trkpt lat="50.9286617" lon="6.9748416">
      <time>2025-10-11T16:48:07Z</time>
    </trkpt>
    <trkpt lat="50.9286831" lon="6.9748570">
      <time>2025-10-11T16:48:08Z</time>
    </trkpt>
    <trkpt lat="50.9287643" lon="6.9747416">
      <time>2025-10-11T16:48:11Z</time>
    </trkpt>
    <trkpt lat="50.9289481" lon="6.9743859">
      <time>2025-10-11T16:48:16Z</time>
    </trkpt>
    <trkpt lat="50.9291713" lon="6.9740127">
      <time>2025-10-11T16:48:21Z</time>
    </trkpt>
    <trkpt lat="50.9292677" lon="6.9738707">
      <time>2025-10-11T16:48:23Z</time>
    </trkpt>
    <trkpt lat="50.9296645" lon="6.9733857">
      <time>2025-10-11T16:48:30Z</time>
    </trkpt>
    <trkpt lat="50.9297248" lon="6.9733197">
      <time>2025-10-11T16:48:31Z</time>
    </trkpt>
    <trkpt lat="50.9301985" lon="6.9728912">
      <time>2025-10-11T16:48:39Z</time>
    </trkpt>
    <trkpt lat="50.9305682" lon="6.9726462">
      <time>2025-10-11T16:48:45Z</time>
    </trkpt>
    <trkpt lat="50.9306300" lon="6.9725917">
      <time>2025-10-11T16:48:46Z</time>
    </trkpt>
    <trkpt lat="50.9311435" lon="6.9721355">
      <time>2025-10-11T16:48:55Z</time>
    </trkpt>
    <trkpt lat="50.9312845" lon="6.9720509">
      <time>2025-10-11T16:48:58Z</time>
    </trkpt>
    <trkpt lat="50.9313695" lon="6.9719723">
      <time>2025-10-11T16:49:00Z</time>
    </trkpt>
    <trkpt lat="50.9314723" lon="6.9718940">
      <time>2025-10-11T16:49:01Z</time>
    </trkpt>
    <trkpt lat="50.9319043" lon="6.9716061">
      <time>2025-10-11T16:49:09Z</time>
    </trkpt>
    <trkpt lat="50.9320084" lon="6.9715919">
      <time>2025-10-11T16:49:11Z</time>
    </trkpt>
    <trkpt lat="50.9320408" lon="6.9715376">
      <time>2025-10-11T16:49:12Z</time>
    </trkpt>
    <trkpt lat="50.9321159" lon="6.9714528">
      <time>2025-10-11T16:49:14Z</time>
    </trkpt>
    <trkpt lat="50.9322045" lon="6.9713784">
      <time>2025-10-11T16:49:16Z</time>
    </trkpt>
    <trkpt lat="50.9325275" lon="6.9711982">
      <time>2025-10-11T16:49:22Z</time>
    </trkpt>
    <trkpt lat="50.9328614" lon="6.9710646">
      <time>2025-10-11T16:49:28Z</time>
    </trkpt>
    <trkpt lat="50.9331889" lon="6.9710130">
      <time>2025-10-11T16:49:34Z</time>
    </trkpt>
    <trkpt lat="50.9332473" lon="6.9710030">
      <time>2025-10-11T16:49:35Z</time>
    </trkpt>
    <trkpt lat="50.9336442" lon="6.9709199">
      <time>2025-10-11T16:49:42Z</time>
    </trkpt>
    <trkpt lat="50.9338238" lon="6.9708909">
      <time>2025-10-11T16:49:45Z</time>
    </trkpt>
    <trkpt lat="50.9338843" lon="6.9708892">
      <time>2025-10-11T16:49:46Z</time>
    </trkpt>
    <trkpt lat="50.9341718" lon="6.9708549">
      <time>2025-10-11T16:49:51Z</time>
    </trkpt>
    <trkpt lat="50.9342325" lon="6.9708576">
      <time>2025-10-11T16:49:52Z</time>
    </trkpt>
    <trkpt lat="50.9347699" lon="6.9708757">
      <time>2025-10-11T16:50:01Z</time>
    </trkpt>
    <trkpt lat="50.9348246" lon="6.9708767">
      <time>2025-10-11T16:50:02Z</time>
    </trkpt>
    <trkpt lat="50.9350723" lon="6.9709054">
      <time>2025-10-11T16:50:07Z</time>
    </trkpt>
    <trkpt lat="50.9351544" lon="6.9709199">
      <time>2025-10-11T16:50:09Z</time>
    </trkpt>
    <trkpt lat="50.9352451" lon="6.9709523">
      <time>2025-10-11T16:50:12Z</time>
    </trkpt>
    <trkpt lat="50.9352805" lon="6.9709509">
      <time>2025-10-11T16:50:14Z</time>
    </trkpt>
    <trkpt lat="50.9353965" lon="6.9709583">
      <time>2025-10-11T16:50:18Z</time>
    </trkpt>
    <trkpt lat="50.9356296" lon="6.9710202">
      <time>2025-10-11T16:50:23Z</time>
    </trkpt>
    <trkpt lat="50.9358772" lon="6.9710972">
      <time>2025-10-11T16:50:27Z</time>
    </trkpt>
    <trkpt lat="50.9359940" lon="6.9711436">
      <time>2025-10-11T16:50:29Z</time>
    </trkpt>
    <trkpt lat="50.9360492" lon="6.9711754">
      <time>2025-10-11T16:50:30Z</time>
    </trkpt>
    <trkpt lat="50.9362196" lon="6.9712207">
      <time>2025-10-11T16:50:34Z</time>
    </trkpt>
    <trkpt lat="50.9362390" lon="6.9712038">
      <time>2025-10-11T16:50:35Z</time>
    </trkpt>
    <trkpt lat="50.9362644" lon="6.9711033">
      <time>2025-10-11T16:50:38Z</time>
    </trkpt>
    <trkpt lat="50.9362625" lon="6.9710582">
      <time>2025-10-11T16:50:42Z</time>
    </trkpt>
    <trkpt lat="50.9362625" lon="6.9710582">
      <time>2025-10-11T16:50:53Z</time>
    </trkpt>
    <trkpt lat="50.9362569" lon="6.9709705">
      <time>2025-10-11T16:50:58Z</time>
    </trkpt>
    <trkpt lat="50.9362509" lon="6.9708592">
      <time>2025-10-11T16:51:00Z</time>
    </trkpt>
    <trkpt lat="50.9362624" lon="6.9707132">
      <time>2025-10-11T16:51:02Z</time>
    </trkpt>
    <trkpt lat="50.9362960" lon="6.9706582">
      <time>2025-10-11T16:51:03Z</time>
    </trkpt>
    <trkpt lat="50.9363459" lon="6.9706349">
      <time>2025-10-11T16:51:04Z</time>
    </trkpt>
    <trkpt lat="50.9363918" lon="6.9705996">
      <time>2025-10-11T16:51:05Z</time>
    </trkpt>
    <trkpt lat="50.9364177" lon="6.9705369">
      <time>2025-10-11T16:51:06Z</time>
    </trkpt>
    <trkpt lat="50.9364335" lon="6.9704618">
      <time>2025-10-11T16:51:07Z</time>
    </trkpt>
    <trkpt lat="50.9364331" lon="6.9703829">
      <time>2025-10-11T16:51:08Z</time>
    </trkpt>
    <trkpt lat="50.9364385" lon="6.9700400">
      <time>2025-10-11T16:51:12Z</time>
    </trkpt>
    <trkpt lat="50.9364395" lon="6.9699507">
      <time>2025-10-11T16:51:13Z</time>
    </trkpt>
    <trkpt lat="50.9364465" lon="6.9697743">
      <time>2025-10-11T16:51:15Z</time>
    </trkpt>
    <trkpt lat="50.9364542" lon="6.9695921">
      <time>2025-10-11T16:51:17Z</time>
    </trkpt>
    <trkpt lat="50.9364676" lon="6.9695045">
      <time>2025-10-11T16:51:18Z</time>
    </trkpt>
    <trkpt lat="50.9364792" lon="6.9693262">
      <time>2025-10-11T16:51:20Z</time>
    </trkpt>
    <trkpt lat="50.9364779" lon="6.9692248">
      <time>2025-10-11T16:51:21Z</time>
    </trkpt>
    <trkpt lat="50.9364659" lon="6.9690272">
      <time>2025-10-11T16:51:23Z</time>
    </trkpt>
    <trkpt lat="50.9364626" lon="6.9689291">
      <time>2025-10-11T16:51:24Z</time>
    </trkpt>
    <trkpt lat="50.9364585" lon="6.9687477">
      <time>2025-10-11T16:51:26Z</time>
    </trkpt>
    <trkpt lat="50.9364570" lon="6.9686471">
      <time>2025-10-11T16:51:27Z</time>
    </trkpt>
    <trkpt lat="50.9364574" lon="6.9685456">
      <time>2025-10-11T16:51:28Z</time>
    </trkpt>
    <trkpt lat="50.9364544" lon="6.9684468">
      <time>2025-10-11T16:51:29Z</time>
    </trkpt>
    <trkpt lat="50.9364511" lon="6.9683484">
      <time>2025-10-11T16:51:30Z</time>
    </trkpt>
    <trkpt lat="50.9364444" lon="6.9680682">
      <time>2025-10-11T16:51:33Z</time>
    </trkpt>
    <trkpt lat="50.9364393" lon="6.9678800">
      <time>2025-10-11T16:51:35Z</time>
    </trkpt>
    <trkpt lat="50.9364351" lon="6.9677889">
      <time>2025-10-11T16:51:36Z</time>
    </trkpt>
    <trkpt lat="50.9364161" lon="6.9675189">
      <time>2025-10-11T16:51:39Z</time>
    </trkpt>
    <trkpt lat="50.9364032" lon="6.9672677">
      <time>2025-10-11T16:51:42Z</time>
    </trkpt>
    <trkpt lat="50.9363889" lon="6.9670111">
      <time>2025-10-11T16:51:45Z</time>
    </trkpt>
    <trkpt lat="50.9363533" lon="6.9664352">
      <time>2025-10-11T16:51:52Z</time>
    </trkpt>
    <trkpt lat="50.9363351" lon="6.9661774">
      <time>2025-10-11T16:51:55Z</time>
    </trkpt>
    <trkpt lat="50.9363094" lon="6.9658363">
      <time>2025-10-11T16:51:59Z</time>
    </trkpt>
    <trkpt lat="50.9362984" lon="6.9656487">
      <time>2025-10-11T16:52:01Z</time>
    </trkpt>
    <trkpt lat="50.9362931" lon="6.9655518">
      <time>2025-10-11T16:52:02Z</time>
    </trkpt>
    <trkpt lat="50.9362807" lon="6.9652724">
      <time>2025-10-11T16:52:05Z</time>
    </trkpt>
    <trkpt lat="50.9362480" lon="6.9646781">
      <time>2025-10-11T16:52:11Z</time>
    </trkpt>
    <trkpt lat="50.9362269" lon="6.9642630">
      <time>2025-10-11T16:52:15Z</time>
    </trkpt>
    <trkpt lat="50.9362069" lon="6.9639442">
      <time>2025-10-11T16:52:18Z</time>
    </trkpt>
    <trkpt lat="50.9361837" lon="6.9636171">
      <time>2025-10-11T16:52:21Z</time>
    </trkpt>
    <trkpt lat="50.9361760" lon="6.9635117">
      <time>2025-10-11T16:52:22Z</time>
    </trkpt>
    <trkpt lat="50.9361616" lon="6.9632963">
      <time>2025-10-11T16:52:24Z</time>
    </trkpt>
    <trkpt lat="50.9361493" lon="6.9630811">
      <time>2025-10-11T16:52:26Z</time>
    </trkpt>
    <trkpt lat="50.9361442" lon="6.9629728">
      <time>2025-10-11T16:52:27Z</time>
    </trkpt>
    <trkpt lat="50.9361219" lon="6.9626486">
      <time>2025-10-11T16:52:30Z</time>
    </trkpt>
    <trkpt lat="50.9361131" lon="6.9625448">
      <time>2025-10-11T16:52:31Z</time>
    </trkpt>
    <trkpt lat="50.9360444" lon="6.9621447">
      <time>2025-10-11T16:52:35Z</time>
    </trkpt>
    <trkpt lat="50.9360216" lon="6.9620429">
      <time>2025-10-11T16:52:36Z</time>
    </trkpt>
    <trkpt lat="50.9359032" lon="6.9616717">
      <time>2025-10-11T16:52:40Z</time>
    </trkpt>
    <trkpt lat="50.9358667" lon="6.9615872">
      <time>2025-10-11T16:52:41Z</time>
    </trkpt>
    <trkpt lat="50.9356105" lon="6.9610399">
      <time>2025-10-11T16:52:48Z</time>
    </trkpt>
    <trkpt lat="50.9355685" lon="6.9609936">
      <time>2025-10-11T16:52:49Z</time>
    </trkpt>
    <trkpt lat="50.9355290" lon="6.9609680">
      <time>2025-10-11T16:52:50Z</time>
    </trkpt>
    <trkpt lat="50.9354994" lon="6.9609292">
      <time>2025-10-11T16:52:51Z</time>
    </trkpt>
    <trkpt lat="50.9354880" lon="6.9608811">
      <time>2025-10-11T16:52:52Z</time>
    </trkpt>
    <trkpt lat="50.9355039" lon="6.9608274">
      <time>2025-10-11T16:52:55Z</time>
    </trkpt>
    <trkpt lat="50.9355039" lon="6.9608276">
      <time>2025-10-11T16:52:59Z</time>
    </trkpt>
    <trkpt lat="50.9355039" lon="6.9608276">
      <time>2025-10-11T16:53:02Z</time>
    </trkpt>
    <trkpt lat="50.9355039" lon="6.9608276">
      <time>2025-10-11T16:53:12Z</time>
    </trkpt>
    <trkpt lat="50.9354961" lon="6.9608294">
      <time>2025-10-11T16:53:15Z</time>
    </trkpt>
    <trkpt lat="50.9354617" lon="6.9606602">
      <time>2025-10-11T16:53:19Z</time>
    </trkpt>
    <trkpt lat="50.9353685" lon="6.9604427">
      <time>2025-10-11T16:53:24Z</time>
    </trkpt>
    <trkpt lat="50.9353159" lon="6.9602600">
      <time>2025-10-11T16:53:29Z</time>
    </trkpt>
    <trkpt lat="50.9352527" lon="6.9600637">
      <time>2025-10-11T16:53:34Z</time>
    </trkpt>
    <trkpt lat="50.9352354" lon="6.9597638">
      <time>2025-10-11T16:53:39Z</time>
    </trkpt>
    <trkpt lat="50.9352163" lon="6.9595048">
      <time>2025-10-11T16:53:43Z</time>
    </trkpt>
    <trkpt lat="50.9352021" lon="6.9592985">
      <time>2025-10-11T16:53:46Z</time>
    </trkpt>
    <trkpt lat="50.9351969" lon="6.9592218">
      <time>2025-10-11T16:53:47Z</time>
    </trkpt>
    <trkpt lat="50.9351853" lon="6.9590260">
      <time>2025-10-11T16:53:50Z</time>
    </trkpt>
    <trkpt lat="50.9351898" lon="6.9587600">
      <time>2025-10-11T16:53:54Z</time>
    </trkpt>
    <trkpt lat="50.9351902" lon="6.9585665">
      <time>2025-10-11T16:53:57Z</time>
    </trkpt>
    <trkpt lat="50.9351838" lon="6.9583770">
      <time>2025-10-11T16:54:00Z</time>
    </trkpt>
    <trkpt lat="50.9351662" lon="6.9582370">
      <time>2025-10-11T16:54:03Z</time>
    </trkpt>
    <trkpt lat="50.9351537" lon="6.9581250">
      <time>2025-10-11T16:54:06Z</time>
    </trkpt>
    <trkpt lat="50.9351718" lon="6.9581041">
      <time>2025-10-11T16:54:08Z</time>
    </trkpt>
    <trkpt lat="50.9351613" lon="6.9581117">
      <time>2025-10-11T16:54:13Z</time>
    </trkpt>
    <trkpt lat="50.9351613" lon="6.9581117">
      <time>2025-10-11T16:54:25Z</time>
    </trkpt>
    <trkpt lat="50.9351613" lon="6.9581117">
      <time>2025-10-11T16:54:41Z</time>
    </trkpt>
    <trkpt lat="50.9351613" lon="6.9581117">
      <time>2025-10-11T16:54:50Z</time>
    </trkpt>
    <trkpt lat="50.9351802" lon="6.9581024">
      <time>2025-10-11T16:54:52Z</time>
    </trkpt>
    <trkpt lat="50.9352380" lon="6.9580836">
      <time>2025-10-11T16:54:54Z</time>
    </trkpt>
    <trkpt lat="50.9353471" lon="6.9580579">
      <time>2025-10-11T16:54:57Z</time>
    </trkpt>
    <trkpt lat="50.9353861" lon="6.9580296">
      <time>2025-10-11T16:54:58Z</time>
    </trkpt>
    <trkpt lat="50.9354110" lon="6.9579778">
      <time>2025-10-11T16:54:59Z</time>
    </trkpt>
    <trkpt lat="50.9354174" lon="6.9579130">
      <time>2025-10-11T16:55:00Z</time>
    </trkpt>
    <trkpt lat="50.9353846" lon="6.9577335">
      <time>2025-10-11T16:55:02Z</time>
    </trkpt>
    <trkpt lat="50.9353685" lon="6.9576307">
      <time>2025-10-11T16:55:03Z</time>
    </trkpt>
    <trkpt lat="50.9353347" lon="6.9574118">
      <time>2025-10-11T16:55:05Z</time>
    </trkpt>
    <trkpt lat="50.9353145" lon="6.9571701">
      <time>2025-10-11T16:55:07Z</time>
    </trkpt>
    <trkpt lat="50.9353043" lon="6.9570581">
      <time>2025-10-11T16:55:08Z</time>
    </trkpt>
    <trkpt lat="50.9352587" lon="6.9567289">
      <time>2025-10-11T16:55:11Z</time>
    </trkpt>
    <trkpt lat="50.9352316" lon="6.9565650">
      <time>2025-10-11T16:55:13Z</time>
    </trkpt>
    <trkpt lat="50.9352239" lon="6.9565108">
      <time>2025-10-11T16:55:14Z</time>
    </trkpt>
    <trkpt lat="50.9352040" lon="6.9563973">
      <time>2025-10-11T16:55:17Z</time>
    </trkpt>
    <trkpt lat="50.9351948" lon="6.9563518">
      <time>2025-10-11T16:55:20Z</time>
    </trkpt>
    <trkpt lat="50.9351948" lon="6.9563518">
      <time>2025-10-11T16:55:22Z</time>
    </trkpt>
    <trkpt lat="50.9351948" lon="6.9563518">
      <time>2025-10-11T16:55:33Z</time>
    </trkpt>
    <trkpt lat="50.9351948" lon="6.9563518">
      <time>2025-10-11T16:55:34Z</time>
    </trkpt>
    <trkpt lat="50.9351948" lon="6.9563518">
      <time>2025-10-11T16:55:35Z</time>
    </trkpt>
    <trkpt lat="50.9351948" lon="6.9563518">
      <time>2025-10-11T16:55:44Z</time>
    </trkpt>
    <trkpt lat="50.9351948" lon="6.9563518">
      <time>2025-10-11T16:55:45Z</time>
    </trkpt>
    <trkpt lat="50.9351948" lon="6.9563518">
      <time>2025-10-11T16:55:46Z</time>
    </trkpt>
    <trkpt lat="50.9351948" lon="6.9563518">
      <time>2025-10-11T16:55:47Z</time>
    </trkpt>
    <trkpt lat="50.9351948" lon="6.9563518">
      <time>2025-10-11T16:55:49Z</time>
    </trkpt>
    <trkpt lat="50.9351948" lon="6.9563518">
      <time>2025-10-11T16:55:56Z</time>
    </trkpt>
    <trkpt lat="50.9351992" lon="6.9563101">
      <time>2025-10-11T16:56:09Z</time>
    </trkpt>
    <trkpt lat="50.9351953" lon="6.9561450">
      <time>2025-10-11T16:56:12Z</time>
    </trkpt>
    <trkpt lat="50.9351700" lon="6.9558896">
      <time>2025-10-11T16:56:15Z</time>
    </trkpt>
    <trkpt lat="50.9351582" lon="6.9557916">
      <time>2025-10-11T16:56:16Z</time>
    </trkpt>
    <trkpt lat="50.9351324" lon="6.9555890">
      <time>2025-10-11T16:56:18Z</time>
    </trkpt>
    <trkpt lat="50.9351227" lon="6.9554846">
      <time>2025-10-11T16:56:19Z</time>
    </trkpt>
    <trkpt lat="50.9350928" lon="6.9550012">
      <time>2025-10-11T16:56:24Z</time>
    </trkpt>
    <trkpt lat="50.9350794" lon="6.9548028">
      <time>2025-10-11T16:56:26Z</time>
    </trkpt>
    <trkpt lat="50.9350995" lon="6.9545905">
      <time>2025-10-11T16:56:28Z</time>
    </trkpt>
    <trkpt lat="50.9352109" lon="6.9539823">
      <time>2025-10-11T16:56:34Z</time>
    </trkpt>
    <trkpt lat="50.9352721" lon="6.9535981">
      <time>2025-10-11T16:56:38Z</time>
    </trkpt>
    <trkpt lat="50.9352835" lon="6.9534555">
      <time>2025-10-11T16:56:40Z</time>
    </trkpt>
    <trkpt lat="50.9353497" lon="6.9531578">
      <time>2025-10-11T16:56:45Z</time>
    </trkpt>
    <trkpt lat="50.9353556" lon="6.9530981">
      <time>2025-10-11T16:56:46Z</time>
    </trkpt>
    <trkpt lat="50.9353840" lon="6.9529556">
      <time>2025-10-11T16:56:48Z</time>
    </trkpt>
    <trkpt lat="50.9353981" lon="6.9528775">
      <time>2025-10-11T16:56:49Z</time>
    </trkpt>
    <trkpt lat="50.9354128" lon="6.9527945">
      <time>2025-10-11T16:56:50Z</time>
    </trkpt>
    <trkpt lat="50.9354201" lon="6.9526996">
      <time>2025-10-11T16:56:51Z</time>
    </trkpt>
    <trkpt lat="50.9354426" lon="6.9523765">
      <time>2025-10-11T16:56:54Z</time>
    </trkpt>
    <trkpt lat="50.9354538" lon="6.9518184">
      <time>2025-10-11T16:56:59Z</time>
    </trkpt>
    <trkpt lat="50.9354442" lon="6.9516208">
      <time>2025-10-11T16:57:01Z</time>
    </trkpt>
    <trkpt lat="50.9354451" lon="6.9514269">
      <time>2025-10-11T16:57:03Z</time>
    </trkpt>
    <trkpt lat="50.9354533" lon="6.9511053">
      <time>2025-10-11T16:57:06Z</time>
    </trkpt>
    <trkpt lat="50.9354592" lon="6.9508925">
      <time>2025-10-11T16:57:08Z</time>
    </trkpt>
    <trkpt lat="50.9354620" lon="6.9507875">
      <time>2025-10-11T16:57:09Z</time>
    </trkpt>
    <trkpt lat="50.9354697" lon="6.9506821">
      <time>2025-10-11T16:57:10Z</time>
    </trkpt>
    <trkpt lat="50.9354766" lon="6.9505777">
      <time>2025-10-11T16:57:11Z</time>
    </trkpt>
    <trkpt lat="50.9354998" lon="6.9502700">
      <time>2025-10-11T16:57:14Z</time>
    </trkpt>
    <trkpt lat="50.9355172" lon="6.9499762">
      <time>2025-10-11T16:57:17Z</time>
    </trkpt>
    <trkpt lat="50.9355405" lon="6.9496793">
      <time>2025-10-11T16:57:20Z</time>
    </trkpt>
    <trkpt lat="50.9355669" lon="6.9494907">
      <time>2025-10-11T16:57:22Z</time>
    </trkpt>
    <trkpt lat="50.9356046" lon="6.9493144">
      <time>2025-10-11T16:57:24Z</time>
    </trkpt>
    <trkpt lat="50.9356735" lon="6.9491892">
      <time>2025-10-11T16:57:26Z</time>
    </trkpt>
    <trkpt lat="50.9357736" lon="6.9492072">
      <time>2025-10-11T16:57:28Z</time>
    </trkpt>
    <trkpt lat="50.9358305" lon="6.9492078">
      <time>2025-10-11T16:57:29Z</time>
    </trkpt>
    <trkpt lat="50.9359447" lon="6.9492321">
      <time>2025-10-11T16:57:31Z</time>
    </trkpt>
    <trkpt lat="50.9361092" lon="6.9492186">
      <time>2025-10-11T16:57:34Z</time>
    </trkpt>
    <trkpt lat="50.9361601" lon="6.9492027">
      <time>2025-10-11T16:57:35Z</time>
    </trkpt>
    <trkpt lat="50.9362507" lon="6.9491440">
      <time>2025-10-11T16:57:37Z</time>
    </trkpt>
    <trkpt lat="50.9362886" lon="6.9490946">
      <time>2025-10-11T16:57:38Z</time>
    </trkpt>
    <trkpt lat="50.9363195" lon="6.9490372">
      <time>2025-10-11T16:57:39Z</time>
    </trkpt>
    <trkpt lat="50.9363684" lon="6.9488739">
      <time>2025-10-11T16:57:42Z</time>
    </trkpt>
    <trkpt lat="50.9363827" lon="6.9486387">
      <time>2025-10-11T16:57:47Z</time>
    </trkpt>
    <trkpt lat="50.9363859" lon="6.9485958">
      <time>2025-10-11T16:57:48Z</time>
    </trkpt>
    <trkpt lat="50.9364138" lon="6.9482622">
      <time>2025-10-11T16:57:54Z</time>
    </trkpt>
    <trkpt lat="50.9364262" lon="6.9480371">
      <time>2025-10-11T16:57:58Z</time>
    </trkpt>
    <trkpt lat="50.9364313" lon="6.9479949">
      <time>2025-10-11T16:57:59Z</time>
    </trkpt>
    <trkpt lat="50.9364418" lon="6.9479385">
      <time>2025-10-11T16:58:01Z</time>
    </trkpt>
    <trkpt lat="50.9364517" lon="6.9479172">
      <time>2025-10-11T16:58:03Z</time>
    </trkpt>
    <trkpt lat="50.9364517" lon="6.9479172">
      <time>2025-10-11T16:58:11Z</time>
    </trkpt>
    <trkpt lat="50.9364517" lon="6.9479172">
      <time>2025-10-11T16:58:17Z</time>
    </trkpt>
    <trkpt lat="50.9364517" lon="6.9479172">
      <time>2025-10-11T16:58:23Z</time>
    </trkpt>
    <trkpt lat="50.9364532" lon="6.9478698">
      <time>2025-10-11T16:58:25Z</time>
    </trkpt>
    <trkpt lat="50.9364501" lon="6.9476911">
      <time>2025-10-11T16:58:30Z</time>
    </trkpt>
    <trkpt lat="50.9364542" lon="6.9474708">
      <time>2025-10-11T16:58:34Z</time>
    </trkpt>
    <trkpt lat="50.9364679" lon="6.9473523">
      <time>2025-10-11T16:58:37Z</time>
    </trkpt>
    <trkpt lat="50.9364849" lon="6.9470341">
      <time>2025-10-11T16:58:43Z</time>
    </trkpt>
    <trkpt lat="50.9365179" lon="6.9466779">
      <time>2025-10-11T16:58:50Z</time>
    </trkpt>
    <trkpt lat="50.9365288" lon="6.9465696">
      <time>2025-10-11T16:58:52Z</time>
    </trkpt>
    <trkpt lat="50.9365128" lon="6.9463531">
      <time>2025-10-11T16:58:56Z</time>
    </trkpt>
    <trkpt lat="50.9363968" lon="6.9462589">
      <time>2025-10-11T16:59:00Z</time>
    </trkpt>
    <trkpt lat="50.9362252" lon="6.9461316">
      <time>2025-10-11T16:59:06Z</time>
    </trkpt>
    <trkpt lat="50.9360580" lon="6.9459785">
      <time>2025-10-11T16:59:13Z</time>
    </trkpt>
    <trkpt lat="50.9360257" lon="6.9459444">
      <time>2025-10-11T16:59:18Z</time>
    </trkpt>
    <trkpt lat="50.9360169" lon="6.9459413">
      <time>2025-10-11T16:59:21Z</time>
    </trkpt>
    <trkpt lat="50.9359921" lon="6.9458835">
      <time>2025-10-11T16:59:23Z</time>
    </trkpt>
    <trkpt lat="50.9359834" lon="6.9455975">
      <time>2025-10-11T16:59:28Z</time>
    </trkpt>
    <trkpt lat="50.9360101" lon="6.9452939">
      <time>2025-10-11T16:59:33Z</time>
    </trkpt>
    <trkpt lat="50.9360177" lon="6.9449938">
      <time>2025-10-11T16:59:37Z</time>
    </trkpt>
    <trkpt lat="50.9360133" lon="6.9448353">
      <time>2025-10-11T16:59:39Z</time>
    </trkpt>
    <trkpt lat="50.9360139" lon="6.9443478">
      <time>2025-10-11T16:59:45Z</time>
    </trkpt>
    <trkpt lat="50.9359777" lon="6.9441243">
      <time>2025-10-11T16:59:48Z</time>
    </trkpt>
    <trkpt lat="50.9359766" lon="6.9440414">
      <time>2025-10-11T16:59:49Z</time>
    </trkpt>
    <trkpt lat="50.9359640" lon="6.9435087">
      <time>2025-10-11T16:59:55Z</time>
    </trkpt>
    <trkpt lat="50.9359526" lon="6.9431719">
      <time>2025-10-11T16:59:59Z</time>
    </trkpt>
    <trkpt lat="50.9359464" lon="6.9430147">
      <time>2025-10-11T17:00:01Z</time>
    </trkpt>
    <trkpt lat="50.9359519" lon="6.9427189">
      <time>2025-10-11T17:00:05Z</time>
    </trkpt>
    <trkpt lat="50.9359532" lon="6.9426695">
      <time>2025-10-11T17:00:06Z</time>
    </trkpt>
    <trkpt lat="50.9359557" lon="6.9425717">
      <time>2025-10-11T17:00:10Z</time>
    </trkpt>
    <trkpt lat="50.9359832" lon="6.9425560">
      <time>2025-10-11T17:00:14Z</time>
    </trkpt>
    <trkpt lat="50.9359923" lon="6.9425385">
      <time>2025-10-11T17:00:15Z</time>
    </trkpt>
    <trkpt lat="50.9359910" lon="6.9425227">
      <time>2025-10-11T17:00:17Z</time>
    </trkpt>
    <trkpt lat="50.9359568" lon="6.9425141">
      <time>2025-10-11T17:00:19Z</time>
    </trkpt>
    <trkpt lat="50.9359508" lon="6.9424573">
      <time>2025-10-11T17:00:20Z</time>
    </trkpt>
    <trkpt lat="50.9359523" lon="6.9423211">
      <time>2025-10-11T17:00:22Z</time>
    </trkpt>
    <trkpt lat="50.9359741" lon="6.9421631">
      <time>2025-10-11T17:00:24Z</time>
    </trkpt>
    <trkpt lat="50.9359968" lon="6.9420928">
      <time>2025-10-11T17:00:25Z</time>
    </trkpt>
    <trkpt lat="50.9360030" lon="6.9420197">
      <time>2025-10-11T17:00:26Z</time>
    </trkpt>
    <trkpt lat="50.9360135" lon="6.9419360">
      <time>2025-10-11T17:00:27Z</time>
    </trkpt>
    <trkpt lat="50.9360445" lon="6.9417149">
      <time>2025-10-11T17:00:30Z</time>
    </trkpt>
    <trkpt lat="50.9360566" lon="6.9416445">
      <time>2025-10-11T17:00:31Z</time>
    </trkpt>
    <trkpt lat="50.9360645" lon="6.9415754">
      <time>2025-10-11T17:00:32Z</time>
    </trkpt>
    <trkpt lat="50.9360782" lon="6.9415051">
      <time>2025-10-11T17:00:33Z</time>
    </trkpt>
    <trkpt lat="50.9360930" lon="6.9414342">
      <time>2025-10-11T17:00:34Z</time>
    </trkpt>
    <trkpt lat="50.9361188" lon="6.9412848">
      <time>2025-10-11T17:00:36Z</time>
    </trkpt>
    <trkpt lat="50.9361791" lon="6.9410647">
      <time>2025-10-11T17:00:39Z</time>
    </trkpt>
    <trkpt lat="50.9362738" lon="6.9407667">
      <time>2025-10-11T17:00:45Z</time>
    </trkpt>
    <trkpt lat="50.9363160" lon="6.9405666">
      <time>2025-10-11T17:00:50Z</time>
    </trkpt>
    <trkpt lat="50.9363869" lon="6.9404219">
      <time>2025-10-11T17:00:53Z</time>
    </trkpt>
    <trkpt lat="50.9363984" lon="6.9403550">
      <time>2025-10-11T17:00:54Z</time>
    </trkpt>
    <trkpt lat="50.9364104" lon="6.9402877">
      <time>2025-10-11T17:00:55Z</time>
    </trkpt>
    <trkpt lat="50.9364316" lon="6.9400182">
      <time>2025-10-11T17:00:58Z</time>
    </trkpt>
    <trkpt lat="50.9364225" lon="6.9397168">
      <time>2025-10-11T17:01:01Z</time>
    </trkpt>
    <trkpt lat="50.9364499" lon="6.9395233">
      <time>2025-10-11T17:01:03Z</time>
    </trkpt>
    <trkpt lat="50.9365012" lon="6.9392889">
      <time>2025-10-11T17:01:07Z</time>
    </trkpt>
    <trkpt lat="50.9365381" lon="6.9392580">
      <time>2025-10-11T17:01:08Z</time>
    </trkpt>
    <trkpt lat="50.9365836" lon="6.9391811">
      <time>2025-10-11T17:01:10Z</time>
    </trkpt>
    <trkpt lat="50.9366309" lon="6.9391062">
      <time>2025-10-11T17:01:12Z</time>
    </trkpt>
    <trkpt lat="50.9366981" lon="6.9390865">
      <time>2025-10-11T17:01:14Z</time>
    </trkpt>
    <trkpt lat="50.9368726" lon="6.9390784">
      <time>2025-10-11T17:01:18Z</time>
    </trkpt>
    <trkpt lat="50.9372068" lon="6.9391078">
      <time>2025-10-11T17:01:24Z</time>
    </trkpt>
    <trkpt lat="50.9372695" lon="6.9391201">
      <time>2025-10-11T17:01:25Z</time>
    </trkpt>
    <trkpt lat="50.9373906" lon="6.9391497">
      <time>2025-10-11T17:01:27Z</time>
    </trkpt>
    <trkpt lat="50.9379389" lon="6.9392491">
      <time>2025-10-11T17:01:35Z</time>
    </trkpt>
    <trkpt lat="50.9383505" lon="6.9393794">
      <time>2025-10-11T17:01:42Z</time>
    </trkpt>
    <trkpt lat="50.9384844" lon="6.9394055">
      <time>2025-10-11T17:01:45Z</time>
    </trkpt>
    <trkpt lat="50.9386417" lon="6.9394490">
      <time>2025-10-11T17:01:48Z</time>
    </trkpt>
    <trkpt lat="50.9387532" lon="6.9394620">
      <time>2025-10-11T17:01:50Z</time>
    </trkpt>
    <trkpt lat="50.9390271" lon="6.9395258">
      <time>2025-10-11T17:01:55Z</time>
    </trkpt>
    <trkpt lat="50.9392706" lon="6.9395620">
      <time>2025-10-11T17:01:59Z</time>
    </trkpt>
    <trkpt lat="50.9394557" lon="6.9396000">
      <time>2025-10-11T17:02:02Z</time>
    </trkpt>
    <trkpt lat="50.9397181" lon="6.9396422">
      <time>2025-10-11T17:02:06Z</time>
    </trkpt>
    <trkpt lat="50.9399539" lon="6.9397138">
      <time>2025-10-11T17:02:10Z</time>
    </trkpt>
    <trkpt lat="50.9404310" lon="6.9398231">
      <time>2025-10-11T17:02:18Z</time>
    </trkpt>
    <trkpt lat="50.9405893" lon="6.9398878">
      <time>2025-10-11T17:02:21Z</time>
    </trkpt>
    <trkpt lat="50.9409642" lon="6.9399961">
      <time>2025-10-11T17:02:27Z</time>
    </trkpt>
    <trkpt lat="50.9411454" lon="6.9400376">
      <time>2025-10-11T17:02:30Z</time>
    </trkpt>
    <trkpt lat="50.9415235" lon="6.9401271">
      <time>2025-10-11T17:02:36Z</time>
    </trkpt>
    <trkpt lat="50.9420505" lon="6.9402461">
      <time>2025-10-11T17:02:44Z</time>
    </trkpt>
    <trkpt lat="50.9421089" lon="6.9402607">
      <time>2025-10-11T17:02:45Z</time>
    </trkpt>
    <trkpt lat="50.9425929" lon="6.9404201">
      <time>2025-10-11T17:02:53Z</time>
    </trkpt>
    <trkpt lat="50.9427002" lon="6.9404980">
      <time>2025-10-11T17:02:57Z</time>
    </trkpt>
    <trkpt lat="50.9427264" lon="6.9405607">
      <time>2025-10-11T17:03:00Z</time>
    </trkpt>
    <trkpt lat="50.9427552" lon="6.9405528">
      <time>2025-10-11T17:03:02Z</time>
    </trkpt>
    <trkpt lat="50.9427624" lon="6.9405386">
      <time>2025-10-11T17:03:03Z</time>
    </trkpt>
    <trkpt lat="50.9427683" lon="6.9405303">
      <time>2025-10-11T17:03:06Z</time>
    </trkpt>
    <trkpt lat="50.9427683" lon="6.9405303">
      <time>2025-10-11T17:03:13Z</time>
    </trkpt>
    <trkpt lat="50.9427683" lon="6.9405303">
      <time>2025-10-11T17:03:19Z</time>
    </trkpt>
    <trkpt lat="50.9427683" lon="6.9405303">
      <time>2025-10-11T17:03:21Z</time>
    </trkpt>
    <trkpt lat="50.9427185" lon="6.9404699">
      <time>2025-10-11T17:03:28Z</time>
    </trkpt>
    <trkpt lat="50.9426976" lon="6.9403924">
      <time>2025-10-11T17:03:30Z</time>
    </trkpt>
    <trkpt lat="50.9427025" lon="6.9402502">
      <time>2025-10-11T17:03:36Z</time>
    </trkpt>
    <trkpt lat="50.9426804" lon="6.9401323">
      <time>2025-10-11T17:03:39Z</time>
    </trkpt>
    <trkpt lat="50.9426586" lon="6.9400884">
      <time>2025-10-11T17:03:40Z</time>
    </trkpt>
    <trkpt lat="50.9426413" lon="6.9400313">
      <time>2025-10-11T17:03:41Z</time>
    </trkpt>
    <trkpt lat="50.9426170" lon="6.9399799">
      <time>2025-10-11T17:03:42Z</time>
    </trkpt>
    <trkpt lat="50.9425694" lon="6.9398598">
      <time>2025-10-11T17:03:44Z</time>
    </trkpt>
    <trkpt lat="50.9424026" lon="6.9393645">
      <time>2025-10-11T17:03:51Z</time>
    </trkpt>
    <trkpt lat="50.9423815" lon="6.9392896">
      <time>2025-10-11T17:03:52Z</time>
    </trkpt>
    <trkpt lat="50.9423629" lon="6.9392128">
      <time>2025-10-11T17:03:53Z</time>
    </trkpt>
    <trkpt lat="50.9423439" lon="6.9391373">
      <time>2025-10-11T17:03:54Z</time>
    </trkpt>
    <trkpt lat="50.9422064" lon="6.9384258">
      <time>2025-10-11T17:04:03Z</time>
    </trkpt>
    <trkpt lat="50.9421580" lon="6.9380271">
      <time>2025-10-11T17:04:08Z</time>
    </trkpt>
    <trkpt lat="50.9421180" lon="6.9378926">
      <time>2025-10-11T17:04:10Z</time>
    </trkpt>
    <trkpt lat="50.9420970" lon="6.9378289">
      <time>2025-10-11T17:04:11Z</time>
    </trkpt>
    <trkpt lat="50.9420778" lon="6.9377530">
      <time>2025-10-11T17:04:12Z</time>
    </trkpt>
    <trkpt lat="50.9419732" lon="6.9373292">
      <time>2025-10-11T17:04:17Z</time>
    </trkpt>
    <trkpt lat="50.9417979" lon="6.9366208">
      <time>2025-10-11T17:04:26Z</time>
    </trkpt>
    <trkpt lat="50.9417974" lon="6.9365254">
      <time>2025-10-11T17:04:27Z</time>
    </trkpt>
    <trkpt lat="50.9418640" lon="6.9363149">
      <time>2025-10-11T17:04:29Z</time>
    </trkpt>
    <trkpt lat="50.9420636" lon="6.9358445">
      <time>2025-10-11T17:04:35Z</time>
    </trkpt>
    <trkpt lat="50.9421596" lon="6.9356810">
      <time>2025-10-11T17:04:39Z</time>
    </trkpt>
    <trkpt lat="50.9422235" lon="6.9355995">
      <time>2025-10-11T17:04:43Z</time>
    </trkpt>
    <trkpt lat="50.9423628" lon="6.9353681">
      <time>2025-10-11T17:04:48Z</time>
    </trkpt>
    <trkpt lat="50.9425575" lon="6.9348634">
      <time>2025-10-11T17:04:56Z</time>
    </trkpt>
    <trkpt lat="50.9425815" lon="6.9348170">
      <time>2025-10-11T17:04:57Z</time>
    </trkpt>
    <trkpt lat="50.9426911" lon="6.9344839">
      <time>2025-10-11T17:05:04Z</time>
    </trkpt>
    <trkpt lat="50.9427323" lon="6.9344105">
      <time>2025-10-11T17:05:10Z</time>
    </trkpt>
    <trkpt lat="50.9427449" lon="6.9343841">
      <time>2025-10-11T17:05:16Z</time>
    </trkpt>
    <trkpt lat="50.9428114" lon="6.9343074">
      <time>2025-10-11T17:05:21Z</time>
    </trkpt>
    <trkpt lat="50.9429358" lon="6.9341172">
      <time>2025-10-11T17:05:26Z</time>
    </trkpt>
    <trkpt lat="50.9430097" lon="6.9339528">
      <time>2025-10-11T17:05:32Z</time>
    </trkpt>
    <trkpt lat="50.9430650" lon="6.9337493">
      <time>2025-10-11T17:05:39Z</time>
    </trkpt>
    <trkpt lat="50.9432308" lon="6.9335596">
      <time>2025-10-11T17:05:41Z</time>
    </trkpt>
    <trkpt lat="50.9434284" lon="6.9333796">
      <time>2025-10-11T17:05:44Z</time>
    </trkpt>
    <trkpt lat="50.9434643" lon="6.9333162">
      <time>2025-10-11T17:05:45Z</time>
    </trkpt>
    <trkpt lat="50.9435007" lon="6.9332598">
      <time>2025-10-11T17:05:46Z</time>
    </trkpt>
    <trkpt lat="50.9436485" lon="6.9329581">
      <time>2025-10-11T17:05:51Z</time>
    </trkpt>
    <trkpt lat="50.9437707" lon="6.9326830">
      <time>2025-10-11T17:05:55Z</time>
    </trkpt>
    <trkpt lat="50.9438257" lon="6.9325465">
      <time>2025-10-11T17:05:57Z</time>
    </trkpt>
    <trkpt lat="50.9438765" lon="6.9324103">
      <time>2025-10-11T17:05:59Z</time>
    </trkpt>
    <trkpt lat="50.9439048" lon="6.9322766">
      <time>2025-10-11T17:06:01Z</time>
    </trkpt>
    <trkpt lat="50.9439617" lon="6.9320741">
      <time>2025-10-11T17:06:04Z</time>
    </trkpt>
    <trkpt lat="50.9440804" lon="6.9318312">
      <time>2025-10-11T17:06:08Z</time>
    </trkpt>
    <trkpt lat="50.9441205" lon="6.9317852">
      <time>2025-10-11T17:06:09Z</time>
    </trkpt>
    <trkpt lat="50.9441546" lon="6.9317337">
      <time>2025-10-11T17:06:10Z</time>
    </trkpt>
    <trkpt lat="50.9441835" lon="6.9316722">
      <time>2025-10-11T17:06:11Z</time>
    </trkpt>
    <trkpt lat="50.9442071" lon="6.9316089">
      <time>2025-10-11T17:06:12Z</time>
    </trkpt>
    <trkpt lat="50.9442302" lon="6.9315415">
      <time>2025-10-11T17:06:13Z</time>
    </trkpt>
    <trkpt lat="50.9443704" lon="6.9311364">
      <time>2025-10-11T17:06:19Z</time>
    </trkpt>
    <trkpt lat="50.9444156" lon="6.9309869">
      <time>2025-10-11T17:06:21Z</time>
    </trkpt>
    <trkpt lat="50.9445907" lon="6.9304512">
      <time>2025-10-11T17:06:28Z</time>
    </trkpt>
    <trkpt lat="50.9446603" lon="6.9302634">
      <time>2025-10-11T17:06:31Z</time>
    </trkpt>
    <trkpt lat="50.9447458" lon="6.9300085">
      <time>2025-10-11T17:06:35Z</time>
    </trkpt>
    <trkpt lat="50.9448732" lon="6.9296482">
      <time>2025-10-11T17:06:41Z</time>
    </trkpt>
    <trkpt lat="50.9448993" lon="6.9295808">
      <time>2025-10-11T17:06:42Z</time>
    </trkpt>
    <trkpt lat="50.9450278" lon="6.9292738">
      <time>2025-10-11T17:06:47Z</time>
    </trkpt>
    <trkpt lat="50.9450671" lon="6.9291326">
      <time>2025-10-11T17:06:49Z</time>
    </trkpt>
    <trkpt lat="50.9451243" lon="6.9289354">
      <time>2025-10-11T17:06:53Z</time>
    </trkpt>
    <trkpt lat="50.9451243" lon="6.9288924">
      <time>2025-10-11T17:06:57Z</time>
    </trkpt>
    <trkpt lat="50.9451239" lon="6.9288921">
      <time>2025-10-11T17:07:04Z</time>
    </trkpt>
    <trkpt lat="50.9450943" lon="6.9288552">
      <time>2025-10-11T17:07:10Z</time>
    </trkpt>
    <trkpt lat="50.9450436" lon="6.9287666">
      <time>2025-10-11T17:07:16Z</time>
    </trkpt>
    <trkpt lat="50.9450393" lon="6.9287647">
      <time>2025-10-11T17:07:25Z</time>
    </trkpt>
    <trkpt lat="50.9450393" lon="6.9287647">
      <time>2025-10-11T17:07:45Z</time>
    </trkpt>
    <trkpt lat="50.9450393" lon="6.9287647">
      <time>2025-10-11T17:07:55Z</time>
    </trkpt>
    <trkpt lat="50.9450393" lon="6.9287647">
      <time>2025-10-11T17:08:10Z</time>
    </trkpt>
    <trkpt lat="50.9450393" lon="6.9287647">
      <time>2025-10-11T17:08:12Z</time>
    </trkpt>
    <trkpt lat="50.9450393" lon="6.9287647">
      <time>2025-10-11T17:08:17Z</time>
    </trkpt>
    <trkpt lat="50.9450551" lon="6.9286963">
      <time>2025-10-11T17:08:30Z</time>
    </trkpt>
    <trkpt lat="50.9451174" lon="6.9284819">
      <time>2025-10-11T17:08:36Z</time>
    </trkpt>
    <trkpt lat="50.9451787" lon="6.9282559">
      <time>2025-10-11T17:08:40Z</time>
    </trkpt>
    <trkpt lat="50.9452648" lon="6.9279799">
      <time>2025-10-11T17:08:43Z</time>
    </trkpt>
    <trkpt lat="50.9452988" lon="6.9278750">
      <time>2025-10-11T17:08:44Z</time>
    </trkpt>
    <trkpt lat="50.9455127" lon="6.9271747">
      <time>2025-10-11T17:08:50Z</time>
    </trkpt>
    <trkpt lat="50.9458061" lon="6.9264085">
      <time>2025-10-11T17:08:57Z</time>
    </trkpt>
    <trkpt lat="50.9459373" lon="6.9259256">
      <time>2025-10-11T17:09:02Z</time>
    </trkpt>
    <trkpt lat="50.9460280" lon="6.9255973">
      <time>2025-10-11T17:09:07Z</time>
    </trkpt>
    <trkpt lat="50.9460738" lon="6.9254711">
      <time>2025-10-11T17:09:11Z</time>
    </trkpt>
    <trkpt lat="50.9461267" lon="6.9254113">
      <time>2025-10-11T17:09:17Z</time>
    </trkpt>
    <trkpt lat="50.9461734" lon="6.9253939">
      <time>2025-10-11T17:09:21Z</time>
    </trkpt>
    <trkpt lat="50.9462445" lon="6.9253503">
      <time>2025-10-11T17:09:24Z</time>
    </trkpt>
    <trkpt lat="50.9462609" lon="6.9252947">
      <time>2025-10-11T17:09:25Z</time>
    </trkpt>
    <trkpt lat="50.9463057" lon="6.9251354">
      <time>2025-10-11T17:09:27Z</time>
    </trkpt>
    <trkpt lat="50.9463641" lon="6.9249597">
      <time>2025-10-11T17:09:29Z</time>
    </trkpt>
    <trkpt lat="50.9463985" lon="6.9248620">
      <time>2025-10-11T17:09:30Z</time>
    </trkpt>
    <trkpt lat="50.9464629" lon="6.9246534">
      <time>2025-10-11T17:09:32Z</time>
    </trkpt>
    <trkpt lat="50.9467171" lon="6.9240256">
      <time>2025-10-11T17:09:38Z</time>
    </trkpt>
    <trkpt lat="50.9467579" lon="6.9239146">
      <time>2025-10-11T17:09:39Z</time>
    </trkpt>
    <trkpt lat="50.9468622" lon="6.9236255">
      <time>2025-10-11T17:09:42Z</time>
    </trkpt>
    <trkpt lat="50.9469102" lon="6.9234522">
      <time>2025-10-11T17:09:44Z</time>
    </trkpt>
    <trkpt lat="50.9469800" lon="6.9232196">
      <time>2025-10-11T17:09:48Z</time>
    </trkpt>
    <trkpt lat="50.9470762" lon="6.9231197">
      <time>2025-10-11T17:09:52Z</time>
    </trkpt>
    <trkpt lat="50.9472010" lon="6.9230065">
      <time>2025-10-11T17:09:57Z</time>
    </trkpt>
    <trkpt lat="50.9473776" lon="6.9226089">
      <time>2025-10-11T17:10:03Z</time>
    </trkpt>
    <trkpt lat="50.9474912" lon="6.9222696">
      <time>2025-10-11T17:10:07Z</time>
    </trkpt>
    <trkpt lat="50.9475261" lon="6.9221835">
      <time>2025-10-11T17:10:08Z</time>
    </trkpt>
    <trkpt lat="50.9475637" lon="6.9220823">
      <time>2025-10-11T17:10:09Z</time>
    </trkpt>
    <trkpt lat="50.9476015" lon="6.9219778">
      <time>2025-10-11T17:10:10Z</time>
    </trkpt>
    <trkpt lat="50.9477671" lon="6.9215956">
      <time>2025-10-11T17:10:14Z</time>
    </trkpt>
    <trkpt lat="50.9478850" lon="6.9213631">
      <time>2025-10-11T17:10:17Z</time>
    </trkpt>
    <trkpt lat="50.9480263" lon="6.9209182">
      <time>2025-10-11T17:10:21Z</time>
    </trkpt>
    <trkpt lat="50.9481657" lon="6.9206270">
      <time>2025-10-11T17:10:24Z</time>
    </trkpt>
    <trkpt lat="50.9482074" lon="6.9205518">
      <time>2025-10-11T17:10:25Z</time>
    </trkpt>
    <trkpt lat="50.9482715" lon="6.9203638">
      <time>2025-10-11T17:10:27Z</time>
    </trkpt>
    <trkpt lat="50.9483270" lon="6.9201693">
      <time>2025-10-11T17:10:29Z</time>
    </trkpt>
    <trkpt lat="50.9484016" lon="6.9199481">
      <time>2025-10-11T17:10:31Z</time>
    </trkpt>
    <trkpt lat="50.9484783" lon="6.9197406">
      <time>2025-10-11T17:10:33Z</time>
    </trkpt>
    <trkpt lat="50.9487823" lon="6.9190788">
      <time>2025-10-11T17:10:40Z</time>
    </trkpt>
    <trkpt lat="50.9491070" lon="6.9183096">
      <time>2025-10-11T17:10:48Z</time>
    </trkpt>
    <trkpt lat="50.9491497" lon="6.9182277">
      <time>2025-10-11T17:10:49Z</time>
    </trkpt>
    <trkpt lat="50.9492939" lon="6.9180037">
      <time>2025-10-11T17:10:53Z</time>
    </trkpt>
    <trkpt lat="50.9494818" lon="6.9176776">
      <time>2025-10-11T17:10:58Z</time>
    </trkpt>
    <trkpt lat="50.9496986" lon="6.9173620">
      <time>2025-10-11T17:11:03Z</time>
    </trkpt>
    <trkpt lat="50.9498103" lon="6.9171886">
      <time>2025-10-11T17:11:06Z</time>
    </trkpt>
    <trkpt lat="50.9499609" lon="6.9169667">
      <time>2025-10-11T17:11:11Z</time>
    </trkpt>
    <trkpt lat="50.9501170" lon="6.9168301">
      <time>2025-10-11T17:11:16Z</time>
    </trkpt>
    <trkpt lat="50.9502618" lon="6.9167151">
      <time>2025-10-11T17:11:19Z</time>
    </trkpt>
    <trkpt lat="50.9503835" lon="6.9165834">
      <time>2025-10-11T17:11:22Z</time>
    </trkpt>
    <trkpt lat="50.9504135" lon="6.9165271">
      <time>2025-10-11T17:11:23Z</time>
    </trkpt>
    <trkpt lat="50.9505332" lon="6.9163073">
      <time>2025-10-11T17:11:27Z</time>
    </trkpt>
    <trkpt lat="50.9505837" lon="6.9161391">
      <time>2025-10-11T17:11:31Z</time>
    </trkpt>
    <trkpt lat="50.9506401" lon="6.9159513">
      <time>2025-10-11T17:11:35Z</time>
    </trkpt>
    <trkpt lat="50.9507034" lon="6.9158506">
      <time>2025-10-11T17:11:37Z</time>
    </trkpt>
    <trkpt lat="50.9508575" lon="6.9157017">
      <time>2025-10-11T17:11:41Z</time>
    </trkpt>
    <trkpt lat="50.9510745" lon="6.9153694">
      <time>2025-10-11T17:11:48Z</time>
    </trkpt>
    <trkpt lat="50.9511358" lon="6.9152263">
      <time>2025-10-11T17:11:50Z</time>
    </trkpt>
    <trkpt lat="50.9512076" lon="6.9150171">
      <time>2025-10-11T17:11:54Z</time>
    </trkpt>
    <trkpt lat="50.9513127" lon="6.9149386">
      <time>2025-10-11T17:11:58Z</time>
    </trkpt>
    <trkpt lat="50.9514853" lon="6.9147427">
      <time>2025-10-11T17:12:00Z</time>
    </trkpt>
    <trkpt lat="50.9517480" lon="6.9142453">
      <time>2025-10-11T17:12:07Z</time>
    </trkpt>
    <trkpt lat="50.9518350" lon="6.9140619">
      <time>2025-10-11T17:12:10Z</time>
    </trkpt>
    <trkpt lat="50.9519033" lon="6.9139352">
      <time>2025-10-11T17:12:12Z</time>
    </trkpt>
    <trkpt lat="50.9521679" lon="6.9135128">
      <time>2025-10-11T17:12:19Z</time>
    </trkpt>
    <trkpt lat="50.9523228" lon="6.9133318">
      <time>2025-10-11T17:12:24Z</time>
    </trkpt>
    <trkpt lat="50.9523827" lon="6.9133144">
      <time>2025-10-11T17:12:26Z</time>
    </trkpt>
    <trkpt lat="50.9524220" lon="6.9132528">
      <time>2025-10-11T17:12:28Z</time>
    </trkpt>
    <trkpt lat="50.9525424" lon="6.9129446">
      <time>2025-10-11T17:12:34Z</time>
    </trkpt>
    <trkpt lat="50.9527382" lon="6.9126853">
      <time>2025-10-11T17:12:41Z</time>
    </trkpt>
    <trkpt lat="50.9529534" lon="6.9123685">
      <time>2025-10-11T17:12:47Z</time>
    </trkpt>
    <trkpt lat="50.9531404" lon="6.9121898">
      <time>2025-10-11T17:12:51Z</time>
    </trkpt>
    <trkpt lat="50.9532806" lon="6.9120123">
      <time>2025-10-11T17:12:54Z</time>
    </trkpt>
    <trkpt lat="50.9536273" lon="6.9114286">
      <time>2025-10-11T17:13:03Z</time>
    </trkpt>
    <trkpt lat="50.9539641" lon="6.9107918">
      <time>2025-10-11T17:13:12Z</time>
    </trkpt>
    <trkpt lat="50.9540368" lon="6.9106586">
      <time>2025-10-11T17:13:14Z</time>
    </trkpt>
    <trkpt lat="50.9541358" lon="6.9104545">
      <time>2025-10-11T17:13:17Z</time>
    </trkpt>
    <trkpt lat="50.9541723" lon="6.9103944">
      <time>2025-10-11T17:13:18Z</time>
    </trkpt>
    <trkpt lat="50.9542651" lon="6.9102329">
      <time>2025-10-11T17:13:21Z</time>
    </trkpt>
    <trkpt lat="50.9542811" lon="6.9101893">
      <time>2025-10-11T17:13:22Z</time>
    </trkpt>
    <trkpt lat="50.9544212" lon="6.9099452">
      <time>2025-10-11T17:13:27Z</time>
    </trkpt>
    <trkpt lat="50.9545019" lon="6.9098342">
      <time>2025-10-11T17:13:29Z</time>
    </trkpt>
    <trkpt lat="50.9546117" lon="6.9095471">
      <time>2025-10-11T17:13:33Z</time>
    </trkpt>
    <trkpt lat="50.9547272" lon="6.9091595">
      <time>2025-10-11T17:13:38Z</time>
    </trkpt>
    <trkpt lat="50.9547822" lon="6.9088810">
      <time>2025-10-11T17:13:41Z</time>
    </trkpt>
    <trkpt lat="50.9549975" lon="6.9082120">
      <time>2025-10-11T17:13:50Z</time>
    </trkpt>
    <trkpt lat="50.9552557" lon="6.9075552">
      <time>2025-10-11T17:13:59Z</time>
    </trkpt>
    <trkpt lat="50.9554882" lon="6.9068977">
      <time>2025-10-11T17:14:08Z</time>
    </trkpt>
    <trkpt lat="50.9555468" lon="6.9067424">
      <time>2025-10-11T17:14:10Z</time>
    </trkpt>
    <trkpt lat="50.9556957" lon="6.9063159">
      <time>2025-10-11T17:14:16Z</time>
    </trkpt>
    <trkpt lat="50.9557531" lon="6.9060721">
      <time>2025-10-11T17:14:19Z</time>
    </trkpt>
    <trkpt lat="50.9558269" lon="6.9058665">
      <time>2025-10-11T17:14:22Z</time>
    </trkpt>
    <trkpt lat="50.9558914" lon="6.9057627">
      <time>2025-10-11T17:14:24Z</time>
    </trkpt>
    <trkpt lat="50.9560325" lon="6.9053333">
      <time>2025-10-11T17:14:30Z</time>
    </trkpt>
    <trkpt lat="50.9561339" lon="6.9050553">
      <time>2025-10-11T17:14:34Z</time>
    </trkpt>
    <trkpt lat="50.9561802" lon="6.9049193">
      <time>2025-10-11T17:14:36Z</time>
    </trkpt>
    <trkpt lat="50.9562860" lon="6.9046181">
      <time>2025-10-11T17:14:42Z</time>
    </trkpt>
    <trkpt lat="50.9563470" lon="6.9043522">
      <time>2025-10-11T17:14:47Z</time>
    </trkpt>
    <trkpt lat="50.9565042" lon="6.9039019">
      <time>2025-10-11T17:14:54Z</time>
    </trkpt>
    <trkpt lat="50.9566674" lon="6.9034971">
      <time>2025-10-11T17:15:01Z</time>
    </trkpt>
    <trkpt lat="50.9567146" lon="6.9033619">
      <time>2025-10-11T17:15:05Z</time>
    </trkpt>
    <trkpt lat="50.9567541" lon="6.9032676">
      <time>2025-10-11T17:15:11Z</time>
    </trkpt>
    <trkpt lat="50.9567603" lon="6.9032541">
      <time>2025-10-11T17:15:17Z</time>
    </trkpt>
    <trkpt lat="50.9567603" lon="6.9032541">
      <time>2025-10-11T17:15:24Z</time>
    </trkpt>
    <trkpt lat="50.9567603" lon="6.9032541">
      <time>2025-10-11T17:15:30Z</time>
    </trkpt>
    <trkpt lat="50.9567603" lon="6.9032541">
      <time>2025-10-11T17:15:32Z</time>
    </trkpt>
    <trkpt lat="50.9567603" lon="6.9032541">
      <time>2025-10-11T17:15:34Z</time>
    </trkpt>
    <trkpt lat="50.9567603" lon="6.9032541">
      <time>2025-10-11T17:15:43Z</time>
    </trkpt>
    <trkpt lat="50.9567719" lon="6.9032711">
      <time>2025-10-11T17:15:48Z</time>
    </trkpt>
    <trkpt lat="50.9567969" lon="6.9032411">
      <time>2025-10-11T17:16:05Z</time>
    </trkpt>
    <trkpt lat="50.9568971" lon="6.9029861">
      <time>2025-10-11T17:16:10Z</time>
    </trkpt>
    <trkpt lat="50.9569815" lon="6.9025408">
      <time>2025-10-11T17:16:16Z</time>
    </trkpt>
    <trkpt lat="50.9570414" lon="6.9022975">
      <time>2025-10-11T17:16:19Z</time>
    </trkpt>
    <trkpt lat="50.9570593" lon="6.9022243">
      <time>2025-10-11T17:16:20Z</time>
    </trkpt>
    <trkpt lat="50.9570789" lon="6.9021561">
      <time>2025-10-11T17:16:21Z</time>
    </trkpt>
    <trkpt lat="50.9571002" lon="6.9020927">
      <time>2025-10-11T17:16:22Z</time>
    </trkpt>
    <trkpt lat="50.9571204" lon="6.9020238">
      <time>2025-10-11T17:16:23Z</time>
    </trkpt>
    <trkpt lat="50.9571615" lon="6.9018887">
      <time>2025-10-11T17:16:25Z</time>
    </trkpt>
    <trkpt lat="50.9572967" lon="6.9015659">
      <time>2025-10-11T17:16:30Z</time>
    </trkpt>
    <trkpt lat="50.9573829" lon="6.9014111">
      <time>2025-10-11T17:16:32Z</time>
    </trkpt>
    <trkpt lat="50.9574119" lon="6.9013050">
      <time>2025-10-11T17:16:33Z</time>
    </trkpt>
    <trkpt lat="50.9576462" lon="6.9006131">
      <time>2025-10-11T17:16:40Z</time>
    </trkpt>
    <trkpt lat="50.9578803" lon="6.9000844">
      <time>2025-10-11T17:16:46Z</time>
    </trkpt>
    <trkpt lat="50.9579616" lon="6.8999428">
      <time>2025-10-11T17:16:48Z</time>
    </trkpt>
    <trkpt lat="50.9580214" lon="6.8997673">
      <time>2025-10-11T17:16:50Z</time>
    </trkpt>
    <trkpt lat="50.9581721" lon="6.8994160">
      <time>2025-10-11T17:16:54Z</time>
    </trkpt>
    <trkpt lat="50.9582086" lon="6.8993312">
      <time>2025-10-11T17:16:55Z</time>
    </trkpt>
    <trkpt lat="50.9582477" lon="6.8992464">
      <time>2025-10-11T17:16:56Z</time>
    </trkpt>
    <trkpt lat="50.9582850" lon="6.8991654">
      <time>2025-10-11T17:16:57Z</time>
    </trkpt>
    <trkpt lat="50.9585814" lon="6.8985293">
      <time>2025-10-11T17:17:05Z</time>
    </trkpt>
    <trkpt lat="50.9586465" lon="6.8983771">
      <time>2025-10-11T17:17:07Z</time>
    </trkpt>
    <trkpt lat="50.9589548" lon="6.8977122">
      <time>2025-10-11T17:17:16Z</time>
    </trkpt>
    <trkpt lat="50.9592345" lon="6.8971087">
      <time>2025-10-11T17:17:24Z</time>
    </trkpt>
    <trkpt lat="50.9593041" lon="6.8969604">
      <time>2025-10-11T17:17:26Z</time>
    </trkpt>
    <trkpt lat="50.9595035" lon="6.8965355">
      <time>2025-10-11T17:17:32Z</time>
    </trkpt>
    <trkpt lat="50.9596357" lon="6.8962585">
      <time>2025-10-11T17:17:36Z</time>
    </trkpt>
    <trkpt lat="50.9598689" lon="6.8957609">
      <time>2025-10-11T17:17:43Z</time>
    </trkpt>
    <trkpt lat="50.9599053" lon="6.8956859">
      <time>2025-10-11T17:17:44Z</time>
    </trkpt>
    <trkpt lat="50.9601175" lon="6.8952545">
      <time>2025-10-11T17:17:50Z</time>
    </trkpt>
    <trkpt lat="50.9601976" lon="6.8951242">
      <time>2025-10-11T17:17:52Z</time>
    </trkpt>
    <trkpt lat="50.9602318" lon="6.8950459">
      <time>2025-10-11T17:17:53Z</time>
    </trkpt>
    <trkpt lat="50.9604082" lon="6.8946622">
      <time>2025-10-11T17:17:58Z</time>
    </trkpt>
    <trkpt lat="50.9607065" lon="6.8939928">
      <time>2025-10-11T17:18:07Z</time>
    </trkpt>
    <trkpt lat="50.9608615" lon="6.8936524">
      <time>2025-10-11T17:18:12Z</time>
    </trkpt>
    <trkpt lat="50.9609114" lon="6.8936219">
      <time>2025-10-11T17:18:13Z</time>
    </trkpt>
    <trkpt lat="50.9609997" lon="6.8935326">
      <time>2025-10-11T17:18:15Z</time>
    </trkpt>
    <trkpt lat="50.9611161" lon="6.8933700">
      <time>2025-10-11T17:18:18Z</time>
    </trkpt>
    <trkpt lat="50.9612920" lon="6.8930644">
      <time>2025-10-11T17:18:23Z</time>
    </trkpt>
    <trkpt lat="50.9613633" lon="6.8929396">
      <time>2025-10-11T17:18:25Z</time>
    </trkpt>
    <trkpt lat="50.9613968" lon="6.8928752">
      <time>2025-10-11T17:18:26Z</time>
    </trkpt>
    <trkpt lat="50.9615557" lon="6.8924650">
      <time>2025-10-11T17:18:32Z</time>
    </trkpt>
    <trkpt lat="50.9617793" lon="6.8919631">
      <time>2025-10-11T17:18:39Z</time>
    </trkpt>
    <trkpt lat="50.9618140" lon="6.8918937">
      <time>2025-10-11T17:18:40Z</time>
    </trkpt>
    <trkpt lat="50.9619196" lon="6.8916712">
      <time>2025-10-11T17:18:43Z</time>
    </trkpt>
    <trkpt lat="50.9620227" lon="6.8914504">
      <time>2025-10-11T17:18:46Z</time>
    </trkpt>
    <trkpt lat="50.9621289" lon="6.8912467">
      <time>2025-10-11T17:18:49Z</time>
    </trkpt>
    <trkpt lat="50.9623476" lon="6.8907748">
      <time>2025-10-11T17:18:56Z</time>
    </trkpt>
    <trkpt lat="50.9623752" lon="6.8907012">
      <time>2025-10-11T17:18:57Z</time>
    </trkpt>
    <trkpt lat="50.9624379" lon="6.8905718">
      <time>2025-10-11T17:18:59Z</time>
    </trkpt>
    <trkpt lat="50.9625014" lon="6.8904479">
      <time>2025-10-11T17:19:01Z</time>
    </trkpt>
    <trkpt lat="50.9625285" lon="6.8903862">
      <time>2025-10-11T17:19:02Z</time>
    </trkpt>
    <trkpt lat="50.9626798" lon="6.8898940">
      <time>2025-10-11T17:19:08Z</time>
    </trkpt>
    <trkpt lat="50.9627210" lon="6.8898256">
      <time>2025-10-11T17:19:09Z</time>
    </trkpt>
    <trkpt lat="50.9627967" lon="6.8896781">
      <time>2025-10-11T17:19:11Z</time>
    </trkpt>
    <trkpt lat="50.9628738" lon="6.8895719">
      <time>2025-10-11T17:19:12Z</time>
    </trkpt>
    <trkpt lat="50.9628902" lon="6.8894896">
      <time>2025-10-11T17:19:13Z</time>
    </trkpt>
    <trkpt lat="50.9629895" lon="6.8893105">
      <time>2025-10-11T17:19:16Z</time>
    </trkpt>
    <trkpt lat="50.9630743" lon="6.8892122">
      <time>2025-10-11T17:19:18Z</time>
    </trkpt>
    <trkpt lat="50.9631139" lon="6.8891587">
      <time>2025-10-11T17:19:19Z</time>
    </trkpt>
    <trkpt lat="50.9631547" lon="6.8891029">
      <time>2025-10-11T17:19:20Z</time>
    </trkpt>
    <trkpt lat="50.9631915" lon="6.8890458">
      <time>2025-10-11T17:19:21Z</time>
    </trkpt>
    <trkpt lat="50.9632250" lon="6.8889827">
      <time>2025-10-11T17:19:22Z</time>
    </trkpt>
    <trkpt lat="50.9632912" lon="6.8888522">
      <time>2025-10-11T17:19:24Z</time>
    </trkpt>
    <trkpt lat="50.9634939" lon="6.8884553">
      <time>2025-10-11T17:19:30Z</time>
    </trkpt>
    <trkpt lat="50.9635265" lon="6.8883898">
      <time>2025-10-11T17:19:31Z</time>
    </trkpt>
    <trkpt lat="50.9635527" lon="6.8883376">
      <time>2025-10-11T17:19:32Z</time>
    </trkpt>
    <trkpt lat="50.9635690" lon="6.8882889">
      <time>2025-10-11T17:19:33Z</time>
    </trkpt>
    <trkpt lat="50.9635773" lon="6.8881413">
      <time>2025-10-11T17:19:36Z</time>
    </trkpt>
    <trkpt lat="50.9635360" lon="6.8881130">
      <time>2025-10-11T17:19:38Z</time>
    </trkpt>
    <trkpt lat="50.9635159" lon="6.8881069">
      <time>2025-10-11T17:19:39Z</time>
    </trkpt>
    <trkpt lat="50.9634100" lon="6.8880396">
      <time>2025-10-11T17:19:45Z</time>
    </trkpt>
    <trkpt lat="50.9634089" lon="6.8880360">
      <time>2025-10-11T17:19:46Z</time>
    </trkpt>
    <trkpt lat="50.9634089" lon="6.8880360">
      <time>2025-10-11T17:19:52Z</time>
    </trkpt>
    <trkpt lat="50.9633946" lon="6.8880117">
      <time>2025-10-11T17:19:58Z</time>
    </trkpt>
    <trkpt lat="50.9633946" lon="6.8880117">
      <time>2025-10-11T17:20:04Z</time>
    </trkpt>
    <trkpt lat="50.9633946" lon="6.8880117">
      <time>2025-10-11T17:20:06Z</time>
    </trkpt>
    <trkpt lat="50.9633946" lon="6.8880117">
      <time>2025-10-11T17:20:09Z</time>
    </trkpt>
    <trkpt lat="50.9633946" lon="6.8880117">
      <time>2025-10-11T17:20:14Z</time>
    </trkpt>
    <trkpt lat="50.9633762" lon="6.8879486">
      <time>2025-10-11T17:20:24Z</time>
    </trkpt>
    <trkpt lat="50.9633869" lon="6.8878693">
      <time>2025-10-11T17:20:26Z</time>
    </trkpt>
    <trkpt lat="50.9634029" lon="6.8878311">
      <time>2025-10-11T17:20:27Z</time>
    </trkpt>
    <trkpt lat="50.9635309" lon="6.8875600">
      <time>2025-10-11T17:20:33Z</time>
    </trkpt>
    <trkpt lat="50.9635597" lon="6.8875084">
      <time>2025-10-11T17:20:34Z</time>
    </trkpt>
    <trkpt lat="50.9637469" lon="6.8871403">
      <time>2025-10-11T17:20:41Z</time>
    </trkpt>
    <trkpt lat="50.9639950" lon="6.8866431">
      <time>2025-10-11T17:20:50Z</time>
    </trkpt>
    <trkpt lat="50.9642350" lon="6.8862123">
      <time>2025-10-11T17:20:58Z</time>
    </trkpt>
    <trkpt lat="50.9644406" lon="6.8857589">
      <time>2025-10-11T17:21:06Z</time>
    </trkpt>
    <trkpt lat="50.9645506" lon="6.8855213">
      <time>2025-10-11T17:21:10Z</time>
    </trkpt>
    <trkpt lat="50.9646883" lon="6.8852584">
      <time>2025-10-11T17:21:15Z</time>
    </trkpt>
    <trkpt lat="50.9648601" lon="6.8848619">
      <time>2025-10-11T17:21:22Z</time>
    </trkpt>
    <trkpt lat="50.9649164" lon="6.8847329">
      <time>2025-10-11T17:21:24Z</time>
    </trkpt>
    <trkpt lat="50.9650633" lon="6.8844186">
      <time>2025-10-11T17:21:29Z</time>
    </trkpt>
    <trkpt lat="50.9650940" lon="6.8843529">
      <time>2025-10-11T17:21:30Z</time>
    </trkpt>
    <trkpt lat="50.9651847" lon="6.8841573">
      <time>2025-10-11T17:21:33Z</time>
    </trkpt>
    <trkpt lat="50.9654190" lon="6.8836545">
      <time>2025-10-11T17:21:41Z</time>
    </trkpt>
    <trkpt lat="50.9656133" lon="6.8832080">
      <time>2025-10-11T17:21:48Z</time>
    </trkpt>
    <trkpt lat="50.9658440" lon="6.8827431">
      <time>2025-10-11T17:21:56Z</time>
    </trkpt>
    <trkpt lat="50.9660025" lon="6.8823835">
      <time>2025-10-11T17:22:02Z</time>
    </trkpt>
    <trkpt lat="50.9661788" lon="6.8819562">
      <time>2025-10-11T17:22:09Z</time>
    </trkpt>
    <trkpt lat="50.9663122" lon="6.8815474">
      <time>2025-10-11T17:22:16Z</time>
    </trkpt>
    <trkpt lat="50.9663341" lon="6.8813681">
      <time>2025-10-11T17:22:19Z</time>
    </trkpt>
    <trkpt lat="50.9663264" lon="6.8812972">
      <time>2025-10-11T17:22:20Z</time>
    </trkpt>
    <trkpt lat="50.9663098" lon="6.8812396">
      <time>2025-10-11T17:22:21Z</time>
    </trkpt>
    <trkpt lat="50.9662440" lon="6.8811463">
      <time>2025-10-11T17:22:23Z</time>
    </trkpt>
    <trkpt lat="50.9660754" lon="6.8809704">
      <time>2025-10-11T17:22:27Z</time>
    </trkpt>
    <trkpt lat="50.9659867" lon="6.8808787">
      <time>2025-10-11T17:22:29Z</time>
    </trkpt>
    <trkpt lat="50.9658135" lon="6.8807129">
      <time>2025-10-11T17:22:34Z</time>
    </trkpt>
    <trkpt lat="50.9656803" lon="6.8805195">
      <time>2025-10-11T17:22:40Z</time>
    </trkpt>
    <trkpt lat="50.9656309" lon="6.8804171">
      <time>2025-10-11T17:22:42Z</time>
    </trkpt>
    <trkpt lat="50.9655398" lon="6.8802775">
      <time>2025-10-11T17:22:45Z</time>
    </trkpt>
    <trkpt lat="50.9652580" lon="6.8799784">
      <time>2025-10-11T17:22:52Z</time>
    </trkpt>
    <trkpt lat="50.9651254" lon="6.8798248">
      <time>2025-10-11T17:22:55Z</time>
    </trkpt>
    <trkpt lat="50.9649414" lon="6.8796102">
      <time>2025-10-11T17:22:59Z</time>
    </trkpt>
    <trkpt lat="50.9645586" lon="6.8791190">
      <time>2025-10-11T17:23:08Z</time>
    </trkpt>
    <trkpt lat="50.9642937" lon="6.8787648">
      <time>2025-10-11T17:23:14Z</time>
    </trkpt>
    <trkpt lat="50.9641675" lon="6.8785873">
      <time>2025-10-11T17:23:17Z</time>
    </trkpt>
    <trkpt lat="50.9639341" lon="6.8782271">
      <time>2025-10-11T17:23:23Z</time>
    </trkpt>
    <trkpt lat="50.9636324" lon="6.8777731">
      <time>2025-10-11T17:23:31Z</time>
    </trkpt>
    <trkpt lat="50.9633766" lon="6.8773236">
      <time>2025-10-11T17:23:39Z</time>
    </trkpt>
    <trkpt lat="50.9632170" lon="6.8770496">
      <time>2025-10-11T17:23:44Z</time>
    </trkpt>
    <trkpt lat="50.9631726" lon="6.8769378">
      <time>2025-10-11T17:23:46Z</time>
    </trkpt>
    <trkpt lat="50.9631444" lon="6.8766330">
      <time>2025-10-11T17:23:51Z</time>
    </trkpt>
    <trkpt lat="50.9631779" lon="6.8765097">
      <time>2025-10-11T17:23:53Z</time>
    </trkpt>
    <trkpt lat="50.9632124" lon="6.8763887">
      <time>2025-10-11T17:23:55Z</time>
    </trkpt>
    <trkpt lat="50.9632434" lon="6.8762615">
      <time>2025-10-11T17:23:57Z</time>
    </trkpt>
    <trkpt lat="50.9633381" lon="6.8759619">
      <time>2025-10-11T17:24:03Z</time>
    </trkpt>
    <trkpt lat="50.9633663" lon="6.8759603">
      <time>2025-10-11T17:24:04Z</time>
    </trkpt>
    <trkpt lat="50.9633886" lon="6.8759659">
      <time>2025-10-11T17:24:05Z</time>
    </trkpt>
    <trkpt lat="50.9634132" lon="6.8759691">
      <time>2025-10-11T17:24:06Z</time>
    </trkpt>
    <trkpt lat="50.9634397" lon="6.8759702">
      <time>2025-10-11T17:24:10Z</time>
    </trkpt>
    <trkpt lat="50.9634473" lon="6.8759752">
      <time>2025-10-11T17:24:12Z</time>
    </trkpt>
    <trkpt lat="50.9634524" lon="6.8760243">
      <time>2025-10-11T17:24:14Z</time>
    </trkpt>
    <trkpt lat="50.9634092" lon="6.8760897">
      <time>2025-10-11T17:24:17Z</time>
    </trkpt>
  </trkseg></trk>
</gpx>
