<?xml version="1.0" encoding="UTF-8"?>
<gpx version="1.1" creator="Diary FIT converter" xmlns="http://www.topografix.com/GPX/1/1">
  <trk><name>Cycling</name><trkseg>
    <trkpt lat="50.9525603" lon="6.9928394">
      <ele>55.4</ele>
      <time>2019-02-04T09:47:38Z</time>
    </trkpt>
    <trkpt lat="50.9523618" lon="6.9937113">
      <ele>49.4</ele>
      <time>2019-02-04T09:47:53Z</time>
    </trkpt>
    <trkpt lat="50.9523173" lon="6.9939497">
      <ele>47.4</ele>
      <time>2019-02-04T09:47:56Z</time>
    </trkpt>
    <trkpt lat="50.9522798" lon="6.9942115">
      <ele>46.8</ele>
      <time>2019-02-04T09:47:59Z</time>
    </trkpt>
    <trkpt lat="50.9522360" lon="6.9943889">
      <ele>46.2</ele>
      <time>2019-02-04T09:48:00Z</time>
    </trkpt>
    <trkpt lat="50.9522360" lon="6.9943889">
      <ele>46.2</ele>
      <time>2019-02-04T09:48:01Z</time>
    </trkpt>
    <trkpt lat="50.9522029" lon="6.9945777">
      <ele>45.8</ele>
      <time>2019-02-04T09:48:02Z</time>
    </trkpt>
    <trkpt lat="50.9522029" lon="6.9945777">
      <ele>45.8</ele>
      <time>2019-02-04T09:48:03Z</time>
    </trkpt>
    <trkpt lat="50.9521927" lon="6.9947619">
      <ele>45.6</ele>
      <time>2019-02-04T09:48:04Z</time>
    </trkpt>
    <trkpt lat="50.9521927" lon="6.9947619">
      <ele>45.6</ele>
      <time>2019-02-04T09:48:05Z</time>
    </trkpt>
    <trkpt lat="50.9522329" lon="6.9949404">
      <ele>45.6</ele>
      <time>2019-02-04T09:48:06Z</time>
    </trkpt>
    <trkpt lat="50.9522329" lon="6.9949404">
      <ele>45.6</ele>
      <time>2019-02-04T09:48:07Z</time>
    </trkpt>
    <trkpt lat="50.9522866" lon="6.9951278">
      <ele>45.4</ele>
      <time>2019-02-04T09:48:08Z</time>
    </trkpt>
    <trkpt lat="50.9522866" lon="6.9951278">
      <ele>45.4</ele>
      <time>2019-02-04T09:48:09Z</time>
    </trkpt>
    <trkpt lat="50.9525782" lon="6.9959137">
      <ele>44.0</ele>
      <time>2019-02-04T09:48:17Z</time>
    </trkpt>
    <trkpt lat="50.9526905" lon="6.9962171">
      <ele>43.4</ele>
      <time>2019-02-04T09:48:20Z</time>
    </trkpt>
    <trkpt lat="50.9527628" lon="6.9964094">
      <ele>42.4</ele>
      <time>2019-02-04T09:48:22Z</time>
    </trkpt>
    <trkpt lat="50.9529886" lon="6.9968685">
      <ele>41.4</ele>
      <time>2019-02-04T09:48:27Z</time>
    </trkpt>
    <trkpt lat="50.9530388" lon="6.9969561">
      <ele>41.2</ele>
      <time>2019-02-04T09:48:28Z</time>
    </trkpt>
    <trkpt lat="50.9531461" lon="6.9971313">
      <ele>40.8</ele>
      <time>2019-02-04T09:48:29Z</time>
    </trkpt>
    <trkpt lat="50.9534882" lon="6.9975960">
      <ele>39.8</ele>
      <time>2019-02-04T09:48:36Z</time>
    </trkpt>
    <trkpt lat="50.9535415" lon="6.9976646">
      <ele>39.4</ele>
      <time>2019-02-04T09:48:37Z</time>
    </trkpt>
    <trkpt lat="50.9537334" lon="6.9979472">
      <ele>38.6</ele>
      <time>2019-02-04T09:48:41Z</time>
    </trkpt>
    <trkpt lat="50.9538106" lon="6.9981059">
      <ele>38.0</ele>
      <time>2019-02-04T09:48:42Z</time>
    </trkpt>
    <trkpt lat="50.9538106" lon="6.9981059">
      <ele>38.0</ele>
      <time>2019-02-04T09:48:43Z</time>
    </trkpt>
    <trkpt lat="50.9538931" lon="6.9982351">
      <ele>37.6</ele>
      <time>2019-02-04T09:48:44Z</time>
    </trkpt>
    <trkpt lat="50.9538931" lon="6.9982351">
      <ele>37.6</ele>
      <time>2019-02-04T09:48:45Z</time>
    </trkpt>
    <trkpt lat="50.9539395" lon="6.9982804">
      <ele>37.6</ele>
      <time>2019-02-04T09:48:46Z</time>
    </trkpt>
    <trkpt lat="50.9540842" lon="6.9983973">
      <ele>37.6</ele>
      <time>2019-02-04T09:48:49Z</time>
    </trkpt>
    <trkpt lat="50.9541242" lon="6.9984500">
      <ele>37.6</ele>
      <time>2019-02-04T09:48:50Z</time>
    </trkpt>
    <trkpt lat="50.9541743" lon="6.9985840">
      <ele>37.4</ele>
      <time>2019-02-04T09:48:51Z</time>
    </trkpt>
    <trkpt lat="50.9541887" lon="6.9986559">
      <ele>37.6</ele>
      <time>2019-02-04T09:48:53Z</time>
    </trkpt>
    <trkpt lat="50.9541915" lon="6.9988781">
      <ele>36.2</ele>
      <time>2019-02-04T09:48:56Z</time>
    </trkpt>
    <trkpt lat="50.9541852" lon="6.9989979">
      <ele>35.2</ele>
      <time>2019-02-04T09:48:58Z</time>
    </trkpt>
    <trkpt lat="50.9542049" lon="6.9991827">
      <ele>34.4</ele>
      <time>2019-02-04T09:49:02Z</time>
    </trkpt>
    <trkpt lat="50.9543116" lon="6.9992800">
      <ele>33.8</ele>
      <time>2019-02-04T09:49:05Z</time>
    </trkpt>
    <trkpt lat="50.9545709" lon="6.9994461">
      <ele>32.4</ele>
      <time>2019-02-04T09:49:11Z</time>
    </trkpt>
    <trkpt lat="50.9548852" lon="6.9996328">
      <ele>32.4</ele>
      <time>2019-02-04T09:49:18Z</time>
    </trkpt>
    <trkpt lat="50.9550266" lon="6.9996921">
      <ele>33.8</ele>
      <time>2019-02-04T09:49:22Z</time>
    </trkpt>
    <trkpt lat="50.9550803" lon="6.9997375">
      <ele>35.0</ele>
      <time>2019-02-04T09:49:24Z</time>
    </trkpt>
    <trkpt lat="50.9552118" lon="6.9998372">
      <ele>33.8</ele>
      <time>2019-02-04T09:49:28Z</time>
    </trkpt>
    <trkpt lat="50.9554725" lon="6.9999179">
      <ele>32.8</ele>
      <time>2019-02-04T09:49:44Z</time>
    </trkpt>
    <trkpt lat="50.9554801" lon="6.9999154">
      <ele>34.8</ele>
      <time>2019-02-04T09:49:50Z</time>
    </trkpt>
    <trkpt lat="50.9554813" lon="6.9999255">
      <ele>37.0</ele>
      <time>2019-02-04T09:49:57Z</time>
    </trkpt>
    <trkpt lat="50.9554797" lon="6.9999257">
      <ele>37.0</ele>
      <time>2019-02-04T09:50:03Z</time>
    </trkpt>
    <trkpt lat="50.9554766" lon="6.9999200">
      <ele>37.0</ele>
      <time>2019-02-04T09:50:06Z</time>
    </trkpt>
    <trkpt lat="50.9554740" lon="6.9999178">
      <ele>36.8</ele>
      <time>2019-02-04T09:50:10Z</time>
    </trkpt>
    <trkpt lat="50.9554744" lon="6.9999172">
      <ele>36.8</ele>
      <time>2019-02-04T09:50:14Z</time>
    </trkpt>
    <trkpt lat="50.9554714" lon="6.9999153">
      <ele>36.8</ele>
      <time>2019-02-04T09:50:17Z</time>
    </trkpt>
    <trkpt lat="50.9554707" lon="6.9999096">
      <ele>36.8</ele>
      <time>2019-02-04T09:50:20Z</time>
    </trkpt>
    <trkpt lat="50.9554652" lon="6.9999403">
      <ele>37.0</ele>
      <time>2019-02-04T09:50:23Z</time>
    </trkpt>
    <trkpt lat="50.9554517" lon="7.0000225">
      <ele>37.0</ele>
      <time>2019-02-04T09:50:26Z</time>
    </trkpt>
    <trkpt lat="50.9554435" lon="7.0000852">
      <ele>37.2</ele>
      <time>2019-02-04T09:50:29Z</time>
    </trkpt>
    <trkpt lat="50.9554119" lon="7.0000900">
      <ele>37.2</ele>
      <time>2019-02-04T09:50:33Z</time>
    </trkpt>
    <trkpt lat="50.9554018" lon="7.0001405">
      <ele>37.4</ele>
      <time>2019-02-04T09:50:36Z</time>
    </trkpt>
    <trkpt lat="50.9553945" lon="7.0002525">
      <ele>37.4</ele>
      <time>2019-02-04T09:50:40Z</time>
    </trkpt>
    <trkpt lat="50.9554609" lon="7.0003271">
      <ele>37.4</ele>
      <time>2019-02-04T09:50:43Z</time>
    </trkpt>
    <trkpt lat="50.9556398" lon="7.0004421">
      <ele>37.4</ele>
      <time>2019-02-04T09:50:48Z</time>
    </trkpt>
    <trkpt lat="50.9558401" lon="7.0006064">
      <ele>37.4</ele>
      <time>2019-02-04T09:50:54Z</time>
    </trkpt>
    <trkpt lat="50.9559010" lon="7.0006536">
      <ele>37.4</ele>
      <time>2019-02-04T09:50:56Z</time>
    </trkpt>
    <trkpt lat="50.9559313" lon="7.0006726">
      <ele>37.4</ele>
      <time>2019-02-04T09:50:57Z</time>
    </trkpt>
    <trkpt lat="50.9559890" lon="7.0007088">
      <ele>37.6</ele>
      <time>2019-02-04T09:50:58Z</time>
    </trkpt>
    <trkpt lat="50.9559890" lon="7.0007088">
      <ele>37.6</ele>
      <time>2019-02-04T09:50:59Z</time>
    </trkpt>
    <trkpt lat="50.9560140" lon="7.0007207">
      <ele>37.6</ele>
      <time>2019-02-04T09:51:00Z</time>
    </trkpt>
    <trkpt lat="50.9560542" lon="7.0007253">
      <ele>37.2</ele>
      <time>2019-02-04T09:51:06Z</time>
    </trkpt>
    <trkpt lat="50.9560775" lon="7.0007485">
      <ele>37.0</ele>
      <time>2019-02-04T09:51:08Z</time>
    </trkpt>
    <trkpt lat="50.9562718" lon="7.0008628">
      <ele>37.4</ele>
      <time>2019-02-04T09:51:14Z</time>
    </trkpt>
    <trkpt lat="50.9563145" lon="7.0008850">
      <ele>37.6</ele>
      <time>2019-02-04T09:51:15Z</time>
    </trkpt>
    <trkpt lat="50.9564028" lon="7.0009419">
      <ele>37.8</ele>
      <time>2019-02-04T09:51:16Z</time>
    </trkpt>
    <trkpt lat="50.9569449" lon="7.0012091">
      <ele>38.2</ele>
      <time>2019-02-04T09:51:27Z</time>
    </trkpt>
    <trkpt lat="50.9574421" lon="7.0013724">
      <ele>39.6</ele>
      <time>2019-02-04T09:51:35Z</time>
    </trkpt>
    <trkpt lat="50.9579623" lon="7.0016180">
      <ele>42.0</ele>
      <time>2019-02-04T09:51:43Z</time>
    </trkpt>
    <trkpt lat="50.9582288" lon="7.0017652">
      <ele>42.2</ele>
      <time>2019-02-04T09:51:47Z</time>
    </trkpt>
    <trkpt lat="50.9583706" lon="7.0018395">
      <ele>42.2</ele>
      <time>2019-02-04T09:51:49Z</time>
    </trkpt>
    <trkpt lat="50.9585113" lon="7.0019160">
      <ele>42.0</ele>
      <time>2019-02-04T09:51:50Z</time>
    </trkpt>
    <trkpt lat="50.9587746" lon="7.0020676">
      <ele>41.8</ele>
      <time>2019-02-04T09:51:55Z</time>
    </trkpt>
    <trkpt lat="50.9589044" lon="7.0021514">
      <ele>41.6</ele>
      <time>2019-02-04T09:51:57Z</time>
    </trkpt>
    <trkpt lat="50.9589727" lon="7.0021918">
      <ele>41.4</ele>
      <time>2019-02-04T09:51:58Z</time>
    </trkpt>
    <trkpt lat="50.9591006" lon="7.0022731">
      <ele>40.8</ele>
      <time>2019-02-04T09:51:59Z</time>
    </trkpt>
    <trkpt lat="50.9591006" lon="7.0022731">
      <ele>40.8</ele>
      <time>2019-02-04T09:52:00Z</time>
    </trkpt>
    <trkpt lat="50.9591640" lon="7.0023146">
      <ele>40.6</ele>
      <time>2019-02-04T09:52:01Z</time>
    </trkpt>
    <trkpt lat="50.9597201" lon="7.0026958">
      <ele>39.4</ele>
      <time>2019-02-04T09:52:10Z</time>
    </trkpt>
    <trkpt lat="50.9600242" lon="7.0028929">
      <ele>38.8</ele>
      <time>2019-02-04T09:52:15Z</time>
    </trkpt>
    <trkpt lat="50.9601587" lon="7.0031147">
      <ele>38.4</ele>
      <time>2019-02-04T09:52:18Z</time>
    </trkpt>
    <trkpt lat="50.9602416" lon="7.0032566">
      <ele>38.4</ele>
      <time>2019-02-04T09:52:20Z</time>
    </trkpt>
    <trkpt lat="50.9603908" lon="7.0033810">
      <ele>38.6</ele>
      <time>2019-02-04T09:52:23Z</time>
    </trkpt>
    <trkpt lat="50.9605506" lon="7.0034727">
      <ele>38.6</ele>
      <time>2019-02-04T09:52:26Z</time>
    </trkpt>
    <trkpt lat="50.9606444" lon="7.0035272">
      <ele>38.8</ele>
      <time>2019-02-04T09:52:28Z</time>
    </trkpt>
    <trkpt lat="50.9611115" lon="7.0038515">
      <ele>39.0</ele>
      <time>2019-02-04T09:52:39Z</time>
    </trkpt>
    <trkpt lat="50.9613255" lon="7.0039481">
      <ele>37.8</ele>
      <time>2019-02-04T09:52:45Z</time>
    </trkpt>
    <trkpt lat="50.9613286" lon="7.0044278">
      <ele>35.4</ele>
      <time>2019-02-04T09:52:53Z</time>
    </trkpt>
    <trkpt lat="50.9613395" lon="7.0046898">
      <ele>34.4</ele>
      <time>2019-02-04T09:52:57Z</time>
    </trkpt>
    <trkpt lat="50.9613390" lon="7.0049571">
      <ele>34.6</ele>
      <time>2019-02-04T09:53:01Z</time>
    </trkpt>
    <trkpt lat="50.9613623" lon="7.0050755">
      <ele>34.4</ele>
      <time>2019-02-04T09:53:02Z</time>
    </trkpt>
    <trkpt lat="50.9613623" lon="7.0050755">
      <ele>34.4</ele>
      <time>2019-02-04T09:53:03Z</time>
    </trkpt>
    <trkpt lat="50.9614201" lon="7.0051776">
      <ele>37.4</ele>
      <time>2019-02-04T09:53:05Z</time>
    </trkpt>
    <trkpt lat="50.9615237" lon="7.0054092">
      <ele>39.8</ele>
      <time>2019-02-04T09:53:10Z</time>
    </trkpt>
    <trkpt lat="50.9615329" lon="7.0054348">
      <ele>39.6</ele>
      <time>2019-02-04T09:53:11Z</time>
    </trkpt>
    <trkpt lat="50.9615581" lon="7.0055103">
      <ele>41.8</ele>
      <time>2019-02-04T09:53:14Z</time>
    </trkpt>
    <trkpt lat="50.9615633" lon="7.0055741">
      <ele>41.4</ele>
      <time>2019-02-04T09:53:15Z</time>
    </trkpt>
    <trkpt lat="50.9615676" lon="7.0056093">
      <ele>41.6</ele>
      <time>2019-02-04T09:53:17Z</time>
    </trkpt>
    <trkpt lat="50.9615990" lon="7.0056626">
      <ele>40.8</ele>
      <time>2019-02-04T09:53:18Z</time>
    </trkpt>
    <trkpt lat="50.9616255" lon="7.0056777">
      <ele>40.4</ele>
      <time>2019-02-04T09:53:20Z</time>
    </trkpt>
    <trkpt lat="50.9616869" lon="7.0056837">
      <ele>41.0</ele>
      <time>2019-02-04T09:53:21Z</time>
    </trkpt>
    <trkpt lat="50.9617207" lon="7.0056767">
      <ele>41.2</ele>
      <time>2019-02-04T09:53:23Z</time>
    </trkpt>
    <trkpt lat="50.9618865" lon="7.0056647">
      <ele>39.8</ele>
      <time>2019-02-04T09:53:28Z</time>
    </trkpt>
    <trkpt lat="50.9619136" lon="7.0056787">
      <ele>40.0</ele>
      <time>2019-02-04T09:53:29Z</time>
    </trkpt>
    <trkpt lat="50.9620570" lon="7.0056783">
      <ele>49.8</ele>
      <time>2019-02-04T09:53:36Z</time>
    </trkpt>
    <trkpt lat="50.9621214" lon="7.0056759">
      <ele>53.6</ele>
      <time>2019-02-04T09:53:39Z</time>
    </trkpt>
    <trkpt lat="50.9624378" lon="7.0057741">
      <ele>60.2</ele>
      <time>2019-02-04T09:53:51Z</time>
    </trkpt>
    <trkpt lat="50.9624949" lon="7.0061122">
      <ele>56.2</ele>
      <time>2019-02-04T09:53:58Z</time>
    </trkpt>
    <trkpt lat="50.9624430" lon="7.0063013">
      <ele>44.0</ele>
      <time>2019-02-04T10:59:41Z</time>
    </trkpt>
    <trkpt lat="50.9624907" lon="7.0059755">
      <ele>38.4</ele>
      <time>2019-02-04T10:59:49Z</time>
    </trkpt>
    <trkpt lat="50.9624866" lon="7.0058950">
      <ele>41.6</ele>
      <time>2019-02-04T10:59:51Z</time>
    </trkpt>
    <trkpt lat="50.9624717" lon="7.0058461">
      <ele>41.6</ele>
      <time>2019-02-04T10:59:53Z</time>
    </trkpt>
    <trkpt lat="50.9623524" lon="7.0057982">
      <ele>46.2</ele>
      <time>2019-02-04T10:59:58Z</time>
    </trkpt>
    <trkpt lat="50.9623242" lon="7.0057896">
      <ele>48.2</ele>
      <time>2019-02-04T10:59:59Z</time>
    </trkpt>
    <trkpt lat="50.9623042" lon="7.0057829">
      <ele>48.8</ele>
      <time>2019-02-04T11:00:00Z</time>
    </trkpt>
    <trkpt lat="50.9622510" lon="7.0057575">
      <ele>52.6</ele>
      <time>2019-02-04T11:00:02Z</time>
    </trkpt>
    <trkpt lat="50.9621694" lon="7.0057155">
      <ele>59.2</ele>
      <time>2019-02-04T11:00:05Z</time>
    </trkpt>
    <trkpt lat="50.9621356" lon="7.0057018">
      <ele>60.4</ele>
      <time>2019-02-04T11:00:07Z</time>
    </trkpt>
    <trkpt lat="50.9620996" lon="7.0056791">
      <ele>61.4</ele>
      <time>2019-02-04T11:00:08Z</time>
    </trkpt>
    <trkpt lat="50.9617824" lon="7.0055221">
      <ele>61.6</ele>
      <time>2019-02-04T11:00:20Z</time>
    </trkpt>
    <trkpt lat="50.9617431" lon="7.0055153">
      <ele>60.6</ele>
      <time>2019-02-04T11:00:23Z</time>
    </trkpt>
    <trkpt lat="50.9616943" lon="7.0055261">
      <ele>61.0</ele>
      <time>2019-02-04T11:00:28Z</time>
    </trkpt>
    <trkpt lat="50.9615328" lon="7.0056135">
      <ele>61.8</ele>
      <time>2019-02-04T11:00:39Z</time>
    </trkpt>
    <trkpt lat="50.9612032" lon="7.0050951">
      <ele>52.2</ele>
      <time>2019-02-04T11:00:54Z</time>
    </trkpt>
    <trkpt lat="50.9609258" lon="7.0049691">
      <ele>49.6</ele>
      <time>2019-02-04T11:01:01Z</time>
    </trkpt>
    <trkpt lat="50.9608078" lon="7.0050105">
      <ele>48.8</ele>
      <time>2019-02-04T11:01:04Z</time>
    </trkpt>
    <trkpt lat="50.9607223" lon="7.0050656">
      <ele>48.2</ele>
      <time>2019-02-04T11:01:06Z</time>
    </trkpt>
    <trkpt lat="50.9606356" lon="7.0050535">
      <ele>47.4</ele>
      <time>2019-02-04T11:01:08Z</time>
    </trkpt>
    <trkpt lat="50.9606022" lon="7.0050127">
      <ele>47.2</ele>
      <time>2019-02-04T11:01:09Z</time>
    </trkpt>
    <trkpt lat="50.9605708" lon="7.0049581">
      <ele>46.8</ele>
      <time>2019-02-04T11:01:10Z</time>
    </trkpt>
    <trkpt lat="50.9605342" lon="7.0048231">
      <ele>46.0</ele>
      <time>2019-02-04T11:01:12Z</time>
    </trkpt>
    <trkpt lat="50.9605661" lon="7.0041516">
      <ele>42.6</ele>
      <time>2019-02-04T11:01:22Z</time>
    </trkpt>
    <trkpt lat="50.9605832" lon="7.0040259">
      <ele>41.6</ele>
      <time>2019-02-04T11:01:24Z</time>
    </trkpt>
    <trkpt lat="50.9606566" lon="7.0037283">
      <ele>38.8</ele>
      <time>2019-02-04T11:01:29Z</time>
    </trkpt>
    <trkpt lat="50.9606718" lon="7.0036312">
      <ele>38.2</ele>
      <time>2019-02-04T11:01:31Z</time>
    </trkpt>
    <trkpt lat="50.9606573" lon="7.0035868">
      <ele>37.8</ele>
      <time>2019-02-04T11:01:32Z</time>
    </trkpt>
    <trkpt lat="50.9605877" lon="7.0035037">
      <ele>37.0</ele>
      <time>2019-02-04T11:01:34Z</time>
    </trkpt>
    <trkpt lat="50.9604927" lon="7.0034488">
      <ele>36.6</ele>
      <time>2019-02-04T11:01:36Z</time>
    </trkpt>
    <trkpt lat="50.9602967" lon="7.0033170">
      <ele>35.2</ele>
      <time>2019-02-04T11:01:40Z</time>
    </trkpt>
    <trkpt lat="50.9602420" lon="7.0032841">
      <ele>34.6</ele>
      <time>2019-02-04T11:01:41Z</time>
    </trkpt>
    <trkpt lat="50.9601881" lon="7.0032484">
      <ele>34.0</ele>
      <time>2019-02-04T11:01:42Z</time>
    </trkpt>
    <trkpt lat="50.9601406" lon="7.0032066">
      <ele>33.6</ele>
      <time>2019-02-04T11:01:43Z</time>
    </trkpt>
    <trkpt lat="50.9600967" lon="7.0031508">
      <ele>33.0</ele>
      <time>2019-02-04T11:01:44Z</time>
    </trkpt>
    <trkpt lat="50.9600631" lon="7.0030752">
      <ele>32.4</ele>
      <time>2019-02-04T11:01:45Z</time>
    </trkpt>
    <trkpt lat="50.9600286" lon="7.0030037">
      <ele>31.8</ele>
      <time>2019-02-04T11:01:46Z</time>
    </trkpt>
    <trkpt lat="50.9599892" lon="7.0029390">
      <ele>31.4</ele>
      <time>2019-02-04T11:01:47Z</time>
    </trkpt>
    <trkpt lat="50.9599009" lon="7.0028451">
      <ele>30.6</ele>
      <time>2019-02-04T11:01:49Z</time>
    </trkpt>
    <trkpt lat="50.9597088" lon="7.0027250">
      <ele>29.0</ele>
      <time>2019-02-04T11:01:53Z</time>
    </trkpt>
    <trkpt lat="50.9595834" lon="7.0026121">
      <ele>27.0</ele>
      <time>2019-02-04T11:01:57Z</time>
    </trkpt>
    <trkpt lat="50.9595767" lon="7.0025775">
      <ele>26.6</ele>
      <time>2019-02-04T11:01:58Z</time>
    </trkpt>
    <trkpt lat="50.9595942" lon="7.0024331">
      <ele>25.0</ele>
      <time>2019-02-04T11:02:03Z</time>
    </trkpt>
    <trkpt lat="50.9596337" lon="7.0023904">
      <ele>24.0</ele>
      <time>2019-02-04T11:02:06Z</time>
    </trkpt>
    <trkpt lat="50.9595576" lon="7.0021937">
      <ele>22.4</ele>
      <time>2019-02-04T11:02:11Z</time>
    </trkpt>
    <trkpt lat="50.9590438" lon="7.0018772">
      <ele>20.8</ele>
      <time>2019-02-04T11:02:21Z</time>
    </trkpt>
    <trkpt lat="50.9588582" lon="7.0017656">
      <ele>20.2</ele>
      <time>2019-02-04T11:02:24Z</time>
    </trkpt>
    <trkpt lat="50.9587430" lon="7.0016916">
      <ele>20.0</ele>
      <time>2019-02-04T11:02:26Z</time>
    </trkpt>
    <trkpt lat="50.9586827" lon="7.0016584">
      <ele>19.6</ele>
      <time>2019-02-04T11:02:27Z</time>
    </trkpt>
    <trkpt lat="50.9586205" lon="7.0016261">
      <ele>19.2</ele>
      <time>2019-02-04T11:02:28Z</time>
    </trkpt>
    <trkpt lat="50.9585594" lon="7.0015900">
      <ele>18.8</ele>
      <time>2019-02-04T11:02:29Z</time>
    </trkpt>
    <trkpt lat="50.9584996" lon="7.0015523">
      <ele>18.4</ele>
      <time>2019-02-04T11:02:30Z</time>
    </trkpt>
    <trkpt lat="50.9579747" lon="7.0012311">
      <ele>16.0</ele>
      <time>2019-02-04T11:02:39Z</time>
    </trkpt>
    <trkpt lat="50.9577597" lon="7.0011069">
      <ele>15.0</ele>
      <time>2019-02-04T11:02:43Z</time>
    </trkpt>
    <trkpt lat="50.9577048" lon="7.0010712">
      <ele>14.6</ele>
      <time>2019-02-04T11:02:44Z</time>
    </trkpt>
    <trkpt lat="50.9576500" lon="7.0010452">
      <ele>14.2</ele>
      <time>2019-02-04T11:02:45Z</time>
    </trkpt>
    <trkpt lat="50.9574834" lon="7.0009871">
      <ele>13.2</ele>
      <time>2019-02-04T11:02:48Z</time>
    </trkpt>
    <trkpt lat="50.9570979" lon="7.0008189">
      <ele>13.6</ele>
      <time>2019-02-04T11:02:55Z</time>
    </trkpt>
    <trkpt lat="50.9569873" lon="7.0007697">
      <ele>13.8</ele>
      <time>2019-02-04T11:02:57Z</time>
    </trkpt>
    <trkpt lat="50.9568771" lon="7.0006917">
      <ele>13.6</ele>
      <time>2019-02-04T11:02:59Z</time>
    </trkpt>
    <trkpt lat="50.9568250" lon="7.0006491">
      <ele>13.4</ele>
      <time>2019-02-04T11:03:00Z</time>
    </trkpt>
    <trkpt lat="50.9567687" lon="7.0006180">
      <ele>13.4</ele>
      <time>2019-02-04T11:03:01Z</time>
    </trkpt>
    <trkpt lat="50.9562592" lon="7.0003667">
      <ele>13.6</ele>
      <time>2019-02-04T11:03:10Z</time>
    </trkpt>
    <trkpt lat="50.9558201" lon="7.0001886">
      <ele>13.0</ele>
      <time>2019-02-04T11:03:18Z</time>
    </trkpt>
    <trkpt lat="50.9552794" lon="6.9998833">
      <ele>12.4</ele>
      <time>2019-02-04T11:03:28Z</time>
    </trkpt>
    <trkpt lat="50.9550739" lon="6.9997516">
      <ele>11.4</ele>
      <time>2019-02-04T11:03:32Z</time>
    </trkpt>
    <trkpt lat="50.9545620" lon="6.9994231">
      <ele>11.6</ele>
      <time>2019-02-04T11:03:42Z</time>
    </trkpt>
    <trkpt lat="50.9541316" lon="6.9991085">
      <ele>10.2</ele>
      <time>2019-02-04T11:03:52Z</time>
    </trkpt>
    <trkpt lat="50.9540723" lon="6.9989731">
      <ele>11.0</ele>
      <time>2019-02-04T11:03:55Z</time>
    </trkpt>
    <trkpt lat="50.9539591" lon="6.9982561">
      <ele>10.0</ele>
      <time>2019-02-04T11:04:10Z</time>
    </trkpt>
    <trkpt lat="50.9537903" lon="6.9981049">
      <ele>9.2</ele>
      <time>2019-02-04T11:04:14Z</time>
    </trkpt>
    <trkpt lat="50.9537471" lon="6.9979610">
      <ele>10.0</ele>
      <time>2019-02-04T11:04:16Z</time>
    </trkpt>
    <trkpt lat="50.9536028" lon="6.9976506">
      <ele>11.0</ele>
      <time>2019-02-04T11:04:21Z</time>
    </trkpt>
    <trkpt lat="50.9534401" lon="6.9974380">
      <ele>11.6</ele>
      <time>2019-02-04T11:04:25Z</time>
    </trkpt>
    <trkpt lat="50.9530404" lon="6.9968622">
      <ele>12.6</ele>
      <time>2019-02-04T11:04:35Z</time>
    </trkpt>
    <trkpt lat="50.9526768" lon="6.9961772">
      <ele>12.8</ele>
      <time>2019-02-04T11:04:46Z</time>
    </trkpt>
    <trkpt lat="50.9525840" lon="6.9959774">
      <ele>13.0</ele>
      <time>2019-02-04T11:04:49Z</time>
    </trkpt>
    <trkpt lat="50.9524644" lon="6.9956952">
      <ele>14.0</ele>
      <time>2019-02-04T11:04:53Z</time>
    </trkpt>
    <trkpt lat="50.9523195" lon="6.9952614">
      <ele>18.2</ele>
      <time>2019-02-04T11:04:59Z</time>
    </trkpt>
    <trkpt lat="50.9521153" lon="6.9946859">
      <ele>25.6</ele>
      <time>2019-02-04T11:05:07Z</time>
    </trkpt>
    <trkpt lat="50.9521019" lon="6.9945305">
      <ele>27.6</ele>
      <time>2019-02-04T11:05:09Z</time>
    </trkpt>
    <trkpt lat="50.9521399" lon="6.9942814">
      <ele>28.2</ele>
      <time>2019-02-04T11:05:12Z</time>
    </trkpt>
    <trkpt lat="50.9521655" lon="6.9941975">
      <ele>29.2</ele>
      <time>2019-02-04T11:05:13Z</time>
    </trkpt>
    <trkpt lat="50.9523674" lon="6.9933941">
      <ele>33.6</ele>
      <time>2019-02-04T11:05:23Z</time>
    </trkpt>
    <trkpt lat="50.9524786" lon="6.9927373">
      <ele>34.0</ele>
      <time>2019-02-04T11:05:32Z</time>
    </trkpt>
    <trkpt lat="50.9524872" lon="6.9926613">
      <ele>33.8</ele>
      <time>2019-02-04T11:05:36Z</time>
    </trkpt>
    <trkpt lat="50.9524472" lon="6.9926137">
      <ele>34.0</ele>
      <time>2019-02-04T11:05:40Z</time>
    </trkpt>
    <trkpt lat="50.9520495" lon="6.9924876">
      <ele>35.6</ele>
      <time>2019-02-04T11:05:53Z</time>
    </trkpt>
  </trkseg></trk>
</gpx>
