<?xml version="1.0" encoding="UTF-8"?>
<gpx version="1.1" creator="Diary FIT converter" xmlns="http://www.topografix.com/GPX/1/1">
  <trk><name>Running</name><trkseg>
    <trkpt lat="50.9630677" lon="6.8760739">
      <time>2021-08-17T16:57:23Z</time>
    </trkpt>
    <trkpt lat="50.9630677" lon="6.8760739">
      <time>2021-08-17T16:57:24Z</time>
    </trkpt>
    <trkpt lat="50.9631923" lon="6.8763757">
      <time>2021-08-17T16:57:26Z</time>
    </trkpt>
    <trkpt lat="50.9631827" lon="6.8764273">
      <time>2021-08-17T16:57:28Z</time>
    </trkpt>
    <trkpt lat="50.9631358" lon="6.8764857">
      <time>2021-08-17T16:57:31Z</time>
    </trkpt>
    <trkpt lat="50.9630730" lon="6.8765431">
      <time>2021-08-17T16:57:34Z</time>
    </trkpt>
    <trkpt lat="50.9630557" lon="6.8765565">
      <time>2021-08-17T16:57:35Z</time>
    </trkpt>
    <trkpt lat="50.9630201" lon="6.8765853">
      <time>2021-08-17T16:57:38Z</time>
    </trkpt>
    <trkpt lat="50.9629173" lon="6.8765695">
      <time>2021-08-17T16:57:40Z</time>
    </trkpt>
    <trkpt lat="50.9628466" lon="6.8765567">
      <time>2021-08-17T16:57:42Z</time>
    </trkpt>
    <trkpt lat="50.9626953" lon="6.8765270">
      <time>2021-08-17T16:57:47Z</time>
    </trkpt>
    <trkpt lat="50.9626820" lon="6.8765390">
      <time>2021-08-17T16:57:48Z</time>
    </trkpt>
    <trkpt lat="50.9626165" lon="6.8766378">
      <time>2021-08-17T16:57:52Z</time>
    </trkpt>
    <trkpt lat="50.9625872" lon="6.8766491">
      <time>2021-08-17T16:57:53Z</time>
    </trkpt>
    <trkpt lat="50.9624926" lon="6.8766403">
      <time>2021-08-17T16:57:56Z</time>
    </trkpt>
    <trkpt lat="50.9624132" lon="6.8766274">
      <time>2021-08-17T16:57:59Z</time>
    </trkpt>
    <trkpt lat="50.9622773" lon="6.8766331">
      <time>2021-08-17T16:58:03Z</time>
    </trkpt>
    <trkpt lat="50.9622419" lon="6.8766388">
      <time>2021-08-17T16:58:04Z</time>
    </trkpt>
    <trkpt lat="50.9620881" lon="6.8767123">
      <time>2021-08-17T16:58:10Z</time>
    </trkpt>
    <trkpt lat="50.9620027" lon="6.8766750">
      <time>2021-08-17T16:58:15Z</time>
    </trkpt>
    <trkpt lat="50.9619154" lon="6.8766283">
      <time>2021-08-17T16:58:23Z</time>
    </trkpt>
    <trkpt lat="50.9619087" lon="6.8766314">
      <time>2021-08-17T16:58:24Z</time>
    </trkpt>
    <trkpt lat="50.9619269" lon="6.8767311">
      <time>2021-08-17T16:58:28Z</time>
    </trkpt>
    <trkpt lat="50.9619324" lon="6.8769114">
      <time>2021-08-17T16:58:34Z</time>
    </trkpt>
    <trkpt lat="50.9619174" lon="6.8770416">
      <time>2021-08-17T16:58:38Z</time>
    </trkpt>
    <trkpt lat="50.9619000" lon="6.8770799">
      <time>2021-08-17T16:58:40Z</time>
    </trkpt>
    <trkpt lat="50.9617539" lon="6.8771998">
      <time>2021-08-17T16:58:47Z</time>
    </trkpt>
    <trkpt lat="50.9616705" lon="6.8772397">
      <time>2021-08-17T16:58:51Z</time>
    </trkpt>
    <trkpt lat="50.9616308" lon="6.8772423">
      <time>2021-08-17T16:58:53Z</time>
    </trkpt>
    <trkpt lat="50.9615758" lon="6.8772487">
      <time>2021-08-17T16:58:56Z</time>
    </trkpt>
    <trkpt lat="50.9614830" lon="6.8773004">
      <time>2021-08-17T16:59:00Z</time>
    </trkpt>
    <trkpt lat="50.9613532" lon="6.8773804">
      <time>2021-08-17T16:59:04Z</time>
    </trkpt>
    <trkpt lat="50.9612872" lon="6.8774091">
      <time>2021-08-17T16:59:07Z</time>
    </trkpt>
    <trkpt lat="50.9611329" lon="6.8775285">
      <time>2021-08-17T16:59:15Z</time>
    </trkpt>
    <trkpt lat="50.9610867" lon="6.8776036">
      <time>2021-08-17T16:59:20Z</time>
    </trkpt>
    <trkpt lat="50.9609300" lon="6.8776613">
      <time>2021-08-17T16:59:26Z</time>
    </trkpt>
    <trkpt lat="50.9608596" lon="6.8776770">
      <time>2021-08-17T16:59:29Z</time>
    </trkpt>
    <trkpt lat="50.9607689" lon="6.8776973">
      <time>2021-08-17T16:59:32Z</time>
    </trkpt>
    <trkpt lat="50.9606523" lon="6.8777247">
      <time>2021-08-17T16:59:38Z</time>
    </trkpt>
    <trkpt lat="50.9605065" lon="6.8777720">
      <time>2021-08-17T16:59:45Z</time>
    </trkpt>
    <trkpt lat="50.9603886" lon="6.8777357">
      <time>2021-08-17T16:59:52Z</time>
    </trkpt>
    <trkpt lat="50.9602272" lon="6.8777063">
      <time>2021-08-17T17:00:00Z</time>
    </trkpt>
    <trkpt lat="50.9600724" lon="6.8776003">
      <time>2021-08-17T17:00:08Z</time>
    </trkpt>
    <trkpt lat="50.9599369" lon="6.8774598">
      <time>2021-08-17T17:00:16Z</time>
    </trkpt>
    <trkpt lat="50.9597751" lon="6.8772735">
      <time>2021-08-17T17:00:25Z</time>
    </trkpt>
    <trkpt lat="50.9597596" lon="6.8772537">
      <time>2021-08-17T17:00:26Z</time>
    </trkpt>
    <trkpt lat="50.9597366" lon="6.8772073">
      <time>2021-08-17T17:00:28Z</time>
    </trkpt>
    <trkpt lat="50.9597080" lon="6.8770734">
      <time>2021-08-17T17:00:32Z</time>
    </trkpt>
    <trkpt lat="50.9597049" lon="6.8770198">
      <time>2021-08-17T17:00:34Z</time>
    </trkpt>
    <trkpt lat="50.9597237" lon="6.8769064">
      <time>2021-08-17T17:00:38Z</time>
    </trkpt>
    <trkpt lat="50.9597388" lon="6.8767719">
      <time>2021-08-17T17:00:43Z</time>
    </trkpt>
    <trkpt lat="50.9597285" lon="6.8766966">
      <time>2021-08-17T17:00:45Z</time>
    </trkpt>
    <trkpt lat="50.9596954" lon="6.8765174">
      <time>2021-08-17T17:00:50Z</time>
    </trkpt>
    <trkpt lat="50.9596852" lon="6.8764342">
      <time>2021-08-17T17:00:53Z</time>
    </trkpt>
    <trkpt lat="50.9596118" lon="6.8761524">
      <time>2021-08-17T17:01:01Z</time>
    </trkpt>
    <trkpt lat="50.9595855" lon="6.8759477">
      <time>2021-08-17T17:01:08Z</time>
    </trkpt>
    <trkpt lat="50.9595578" lon="6.8757206">
      <time>2021-08-17T17:01:15Z</time>
    </trkpt>
    <trkpt lat="50.9595384" lon="6.8754187">
      <time>2021-08-17T17:01:24Z</time>
    </trkpt>
    <trkpt lat="50.9595484" lon="6.8752586">
      <time>2021-08-17T17:01:29Z</time>
    </trkpt>
    <trkpt lat="50.9595500" lon="6.8752176">
      <time>2021-08-17T17:01:30Z</time>
    </trkpt>
    <trkpt lat="50.9595548" lon="6.8751073">
      <time>2021-08-17T17:01:32Z</time>
    </trkpt>
    <trkpt lat="50.9595841" lon="6.8749241">
      <time>2021-08-17T17:01:39Z</time>
    </trkpt>
    <trkpt lat="50.9595705" lon="6.8746631">
      <time>2021-08-17T17:01:47Z</time>
    </trkpt>
    <trkpt lat="50.9595689" lon="6.8745846">
      <time>2021-08-17T17:01:49Z</time>
    </trkpt>
    <trkpt lat="50.9595848" lon="6.8743911">
      <time>2021-08-17T17:01:55Z</time>
    </trkpt>
    <trkpt lat="50.9595980" lon="6.8742898">
      <time>2021-08-17T17:01:58Z</time>
    </trkpt>
    <trkpt lat="50.9596054" lon="6.8741753">
      <time>2021-08-17T17:02:01Z</time>
    </trkpt>
    <trkpt lat="50.9596128" lon="6.8738864">
      <time>2021-08-17T17:02:09Z</time>
    </trkpt>
    <trkpt lat="50.9596182" lon="6.8738161">
      <time>2021-08-17T17:02:11Z</time>
    </trkpt>
    <trkpt lat="50.9596059" lon="6.8735523">
      <time>2021-08-17T17:02:18Z</time>
    </trkpt>
    <trkpt lat="50.9595930" lon="6.8733527">
      <time>2021-08-17T17:02:25Z</time>
    </trkpt>
    <trkpt lat="50.9595708" lon="6.8731800">
      <time>2021-08-17T17:02:32Z</time>
    </trkpt>
    <trkpt lat="50.9595703" lon="6.8731403">
      <time>2021-08-17T17:02:34Z</time>
    </trkpt>
    <trkpt lat="50.9595689" lon="6.8730546">
      <time>2021-08-17T17:02:37Z</time>
    </trkpt>
    <trkpt lat="50.9595353" lon="6.8728881">
      <time>2021-08-17T17:02:42Z</time>
    </trkpt>
    <trkpt lat="50.9594727" lon="6.8725745">
      <time>2021-08-17T17:02:50Z</time>
    </trkpt>
    <trkpt lat="50.9594295" lon="6.8723514">
      <time>2021-08-17T17:02:56Z</time>
    </trkpt>
    <trkpt lat="50.9594012" lon="6.8721471">
      <time>2021-08-17T17:03:02Z</time>
    </trkpt>
    <trkpt lat="50.9593451" lon="6.8718643">
      <time>2021-08-17T17:03:10Z</time>
    </trkpt>
    <trkpt lat="50.9593391" lon="6.8718329">
      <time>2021-08-17T17:03:11Z</time>
    </trkpt>
    <trkpt lat="50.9592790" lon="6.8716089">
      <time>2021-08-17T17:03:19Z</time>
    </trkpt>
    <trkpt lat="50.9592267" lon="6.8714513">
      <time>2021-08-17T17:03:26Z</time>
    </trkpt>
    <trkpt lat="50.9591563" lon="6.8712657">
      <time>2021-08-17T17:03:33Z</time>
    </trkpt>
    <trkpt lat="50.9591424" lon="6.8712356">
      <time>2021-08-17T17:03:34Z</time>
    </trkpt>
    <trkpt lat="50.9590617" lon="6.8710546">
      <time>2021-08-17T17:03:41Z</time>
    </trkpt>
    <trkpt lat="50.9590617" lon="6.8710546">
      <time>2021-08-17T17:03:42Z</time>
    </trkpt>
    <trkpt lat="50.9589524" lon="6.8709316">
      <time>2021-08-17T17:03:50Z</time>
    </trkpt>
    <trkpt lat="50.9589371" lon="6.8709317">
      <time>2021-08-17T17:03:51Z</time>
    </trkpt>
    <trkpt lat="50.9588519" lon="6.8709378">
      <time>2021-08-17T17:03:55Z</time>
    </trkpt>
    <trkpt lat="50.9586696" lon="6.8709189">
      <time>2021-08-17T17:04:04Z</time>
    </trkpt>
    <trkpt lat="50.9586696" lon="6.8709189">
      <time>2021-08-17T17:04:05Z</time>
    </trkpt>
    <trkpt lat="50.9585579" lon="6.8708878">
      <time>2021-08-17T17:04:11Z</time>
    </trkpt>
    <trkpt lat="50.9584108" lon="6.8708214">
      <time>2021-08-17T17:04:19Z</time>
    </trkpt>
    <trkpt lat="50.9584108" lon="6.8708214">
      <time>2021-08-17T17:04:20Z</time>
    </trkpt>
    <trkpt lat="50.9582867" lon="6.8706976">
      <time>2021-08-17T17:04:28Z</time>
    </trkpt>
    <trkpt lat="50.9582438" lon="6.8706420">
      <time>2021-08-17T17:04:31Z</time>
    </trkpt>
    <trkpt lat="50.9581998" lon="6.8705742">
      <time>2021-08-17T17:04:34Z</time>
    </trkpt>
    <trkpt lat="50.9581909" lon="6.8705140">
      <time>2021-08-17T17:04:36Z</time>
    </trkpt>
    <trkpt lat="50.9581934" lon="6.8704843">
      <time>2021-08-17T17:04:37Z</time>
    </trkpt>
    <trkpt lat="50.9582316" lon="6.8702398">
      <time>2021-08-17T17:04:45Z</time>
    </trkpt>
    <trkpt lat="50.9582677" lon="6.8700311">
      <time>2021-08-17T17:04:51Z</time>
    </trkpt>
    <trkpt lat="50.9582894" lon="6.8699383">
      <time>2021-08-17T17:04:54Z</time>
    </trkpt>
    <trkpt lat="50.9583111" lon="6.8698347">
      <time>2021-08-17T17:04:58Z</time>
    </trkpt>
    <trkpt lat="50.9583241" lon="6.8696368">
      <time>2021-08-17T17:05:04Z</time>
    </trkpt>
    <trkpt lat="50.9583748" lon="6.8693908">
      <time>2021-08-17T17:05:11Z</time>
    </trkpt>
    <trkpt lat="50.9584483" lon="6.8691133">
      <time>2021-08-17T17:05:19Z</time>
    </trkpt>
    <trkpt lat="50.9584864" lon="6.8688606">
      <time>2021-08-17T17:05:27Z</time>
    </trkpt>
    <trkpt lat="50.9584151" lon="6.8687791">
      <time>2021-08-17T17:05:32Z</time>
    </trkpt>
    <trkpt lat="50.9583905" lon="6.8687776">
      <time>2021-08-17T17:05:33Z</time>
    </trkpt>
    <trkpt lat="50.9583671" lon="6.8687850">
      <time>2021-08-17T17:05:37Z</time>
    </trkpt>
    <trkpt lat="50.9583464" lon="6.8687900">
      <time>2021-08-17T17:05:40Z</time>
    </trkpt>
    <trkpt lat="50.9583448" lon="6.8687850">
      <time>2021-08-17T17:05:42Z</time>
    </trkpt>
    <trkpt lat="50.9583435" lon="6.8687778">
      <time>2021-08-17T17:05:45Z</time>
    </trkpt>
    <trkpt lat="50.9582798" lon="6.8684849">
      <time>2021-08-17T17:06:37Z</time>
    </trkpt>
    <trkpt lat="50.9582789" lon="6.8684552">
      <time>2021-08-17T17:06:38Z</time>
    </trkpt>
    <trkpt lat="50.9582862" lon="6.8684274">
      <time>2021-08-17T17:06:39Z</time>
    </trkpt>
    <trkpt lat="50.9583331" lon="6.8683833">
      <time>2021-08-17T17:06:42Z</time>
    </trkpt>
    <trkpt lat="50.9583763" lon="6.8683688">
      <time>2021-08-17T17:06:44Z</time>
    </trkpt>
    <trkpt lat="50.9584312" lon="6.8683385">
      <time>2021-08-17T17:06:47Z</time>
    </trkpt>
    <trkpt lat="50.9585131" lon="6.8682569">
      <time>2021-08-17T17:06:51Z</time>
    </trkpt>
    <trkpt lat="50.9586408" lon="6.8681271">
      <time>2021-08-17T17:06:56Z</time>
    </trkpt>
    <trkpt lat="50.9586568" lon="6.8680630">
      <time>2021-08-17T17:06:58Z</time>
    </trkpt>
    <trkpt lat="50.9586820" lon="6.8679790">
      <time>2021-08-17T17:07:01Z</time>
    </trkpt>
    <trkpt lat="50.9587225" lon="6.8678451">
      <time>2021-08-17T17:07:05Z</time>
    </trkpt>
    <trkpt lat="50.9587506" lon="6.8675758">
      <time>2021-08-17T17:07:12Z</time>
    </trkpt>
    <trkpt lat="50.9587425" lon="6.8675156">
      <time>2021-08-17T17:07:14Z</time>
    </trkpt>
    <trkpt lat="50.9587260" lon="6.8674960">
      <time>2021-08-17T17:07:15Z</time>
    </trkpt>
    <trkpt lat="50.9587054" lon="6.8674830">
      <time>2021-08-17T17:07:16Z</time>
    </trkpt>
    <trkpt lat="50.9586619" lon="6.8674822">
      <time>2021-08-17T17:07:18Z</time>
    </trkpt>
    <trkpt lat="50.9585992" lon="6.8675254">
      <time>2021-08-17T17:07:21Z</time>
    </trkpt>
    <trkpt lat="50.9584665" lon="6.8675969">
      <time>2021-08-17T17:07:28Z</time>
    </trkpt>
    <trkpt lat="50.9583734" lon="6.8676321">
      <time>2021-08-17T17:07:33Z</time>
    </trkpt>
    <trkpt lat="50.9583630" lon="6.8676390">
      <time>2021-08-17T17:07:34Z</time>
    </trkpt>
    <trkpt lat="50.9583462" lon="6.8676480">
      <time>2021-08-17T17:07:35Z</time>
    </trkpt>
    <trkpt lat="50.9582568" lon="6.8677067">
      <time>2021-08-17T17:07:40Z</time>
    </trkpt>
    <trkpt lat="50.9581843" lon="6.8677393">
      <time>2021-08-17T17:07:44Z</time>
    </trkpt>
    <trkpt lat="50.9581486" lon="6.8677456">
      <time>2021-08-17T17:07:46Z</time>
    </trkpt>
    <trkpt lat="50.9580988" lon="6.8677557">
      <time>2021-08-17T17:07:49Z</time>
    </trkpt>
    <trkpt lat="50.9579786" lon="6.8678090">
      <time>2021-08-17T17:07:57Z</time>
    </trkpt>
    <trkpt lat="50.9578409" lon="6.8678929">
      <time>2021-08-17T17:08:05Z</time>
    </trkpt>
    <trkpt lat="50.9576829" lon="6.8679145">
      <time>2021-08-17T17:08:12Z</time>
    </trkpt>
    <trkpt lat="50.9575150" lon="6.8679885">
      <time>2021-08-17T17:08:19Z</time>
    </trkpt>
    <trkpt lat="50.9574019" lon="6.8680447">
      <time>2021-08-17T17:08:24Z</time>
    </trkpt>
    <trkpt lat="50.9572214" lon="6.8680913">
      <time>2021-08-17T17:08:31Z</time>
    </trkpt>
    <trkpt lat="50.9570418" lon="6.8681129">
      <time>2021-08-17T17:08:39Z</time>
    </trkpt>
    <trkpt lat="50.9568985" lon="6.8681465">
      <time>2021-08-17T17:08:45Z</time>
    </trkpt>
    <trkpt lat="50.9567354" lon="6.8681801">
      <time>2021-08-17T17:08:52Z</time>
    </trkpt>
    <trkpt lat="50.9565953" lon="6.8682151">
      <time>2021-08-17T17:08:58Z</time>
    </trkpt>
    <trkpt lat="50.9565208" lon="6.8682289">
      <time>2021-08-17T17:09:01Z</time>
    </trkpt>
    <trkpt lat="50.9564897" lon="6.8682397">
      <time>2021-08-17T17:09:03Z</time>
    </trkpt>
    <trkpt lat="50.9563614" lon="6.8682852">
      <time>2021-08-17T17:09:09Z</time>
    </trkpt>
    <trkpt lat="50.9561812" lon="6.8683298">
      <time>2021-08-17T17:09:17Z</time>
    </trkpt>
    <trkpt lat="50.9560408" lon="6.8683613">
      <time>2021-08-17T17:09:24Z</time>
    </trkpt>
    <trkpt lat="50.9559034" lon="6.8683901">
      <time>2021-08-17T17:09:31Z</time>
    </trkpt>
    <trkpt lat="50.9558139" lon="6.8684116">
      <time>2021-08-17T17:09:35Z</time>
    </trkpt>
    <trkpt lat="50.9557562" lon="6.8684169">
      <time>2021-08-17T17:09:37Z</time>
    </trkpt>
    <trkpt lat="50.9556666" lon="6.8684195">
      <time>2021-08-17T17:09:41Z</time>
    </trkpt>
    <trkpt lat="50.9556415" lon="6.8684260">
      <time>2021-08-17T17:09:42Z</time>
    </trkpt>
    <trkpt lat="50.9554917" lon="6.8684248">
      <time>2021-08-17T17:09:48Z</time>
    </trkpt>
    <trkpt lat="50.9554225" lon="6.8684535">
      <time>2021-08-17T17:09:49Z</time>
    </trkpt>
    <trkpt lat="50.9553422" lon="6.8684886">
      <time>2021-08-17T17:09:52Z</time>
    </trkpt>
    <trkpt lat="50.9551754" lon="6.8684935">
      <time>2021-08-17T17:09:56Z</time>
    </trkpt>
    <trkpt lat="50.9549851" lon="6.8684986">
      <time>2021-08-17T17:10:00Z</time>
    </trkpt>
    <trkpt lat="50.9549169" lon="6.8685072">
      <time>2021-08-17T17:10:02Z</time>
    </trkpt>
    <trkpt lat="50.9547710" lon="6.8685097">
      <time>2021-08-17T17:10:08Z</time>
    </trkpt>
    <trkpt lat="50.9546636" lon="6.8685190">
      <time>2021-08-17T17:10:12Z</time>
    </trkpt>
    <trkpt lat="50.9546143" lon="6.8685107">
      <time>2021-08-17T17:10:14Z</time>
    </trkpt>
    <trkpt lat="50.9545784" lon="6.8685064">
      <time>2021-08-17T17:10:16Z</time>
    </trkpt>
    <trkpt lat="50.9544303" lon="6.8685005">
      <time>2021-08-17T17:10:23Z</time>
    </trkpt>
    <trkpt lat="50.9543754" lon="6.8685119">
      <time>2021-08-17T17:10:25Z</time>
    </trkpt>
    <trkpt lat="50.9542330" lon="6.8685360">
      <time>2021-08-17T17:10:31Z</time>
    </trkpt>
    <trkpt lat="50.9541855" lon="6.8685676">
      <time>2021-08-17T17:10:34Z</time>
    </trkpt>
    <trkpt lat="50.9541511" lon="6.8685758">
      <time>2021-08-17T17:10:36Z</time>
    </trkpt>
    <trkpt lat="50.9540923" lon="6.8685853">
      <time>2021-08-17T17:10:39Z</time>
    </trkpt>
    <trkpt lat="50.9539707" lon="6.8686360">
      <time>2021-08-17T17:10:45Z</time>
    </trkpt>
    <trkpt lat="50.9538210" lon="6.8686811">
      <time>2021-08-17T17:10:53Z</time>
    </trkpt>
    <trkpt lat="50.9537569" lon="6.8687024">
      <time>2021-08-17T17:10:56Z</time>
    </trkpt>
    <trkpt lat="50.9536540" lon="6.8687486">
      <time>2021-08-17T17:11:02Z</time>
    </trkpt>
    <trkpt lat="50.9535101" lon="6.8688061">
      <time>2021-08-17T17:11:10Z</time>
    </trkpt>
    <trkpt lat="50.9534105" lon="6.8688473">
      <time>2021-08-17T17:11:15Z</time>
    </trkpt>
    <trkpt lat="50.9533051" lon="6.8688852">
      <time>2021-08-17T17:11:20Z</time>
    </trkpt>
    <trkpt lat="50.9531984" lon="6.8688951">
      <time>2021-08-17T17:11:25Z</time>
    </trkpt>
    <trkpt lat="50.9531200" lon="6.8687600">
      <time>2021-08-17T17:11:31Z</time>
    </trkpt>
    <trkpt lat="50.9530819" lon="6.8684946">
      <time>2021-08-17T17:11:40Z</time>
    </trkpt>
    <trkpt lat="50.9530353" lon="6.8681916">
      <time>2021-08-17T17:11:50Z</time>
    </trkpt>
    <trkpt lat="50.9530332" lon="6.8681672">
      <time>2021-08-17T17:11:51Z</time>
    </trkpt>
    <trkpt lat="50.9529966" lon="6.8678716">
      <time>2021-08-17T17:12:00Z</time>
    </trkpt>
    <trkpt lat="50.9529879" lon="6.8678048">
      <time>2021-08-17T17:12:02Z</time>
    </trkpt>
    <trkpt lat="50.9529420" lon="6.8675120">
      <time>2021-08-17T17:12:11Z</time>
    </trkpt>
    <trkpt lat="50.9529132" lon="6.8673084">
      <time>2021-08-17T17:12:17Z</time>
    </trkpt>
    <trkpt lat="50.9528996" lon="6.8672053">
      <time>2021-08-17T17:12:20Z</time>
    </trkpt>
    <trkpt lat="50.9528649" lon="6.8669333">
      <time>2021-08-17T17:12:28Z</time>
    </trkpt>
    <trkpt lat="50.9528265" lon="6.8666274">
      <time>2021-08-17T17:12:37Z</time>
    </trkpt>
    <trkpt lat="50.9528182" lon="6.8665610">
      <time>2021-08-17T17:12:39Z</time>
    </trkpt>
    <trkpt lat="50.9527815" lon="6.8662629">
      <time>2021-08-17T17:12:48Z</time>
    </trkpt>
    <trkpt lat="50.9527664" lon="6.8661314">
      <time>2021-08-17T17:12:52Z</time>
    </trkpt>
    <trkpt lat="50.9527361" lon="6.8659070">
      <time>2021-08-17T17:12:59Z</time>
    </trkpt>
    <trkpt lat="50.9527034" lon="6.8656632">
      <time>2021-08-17T17:13:06Z</time>
    </trkpt>
    <trkpt lat="50.9526538" lon="6.8654627">
      <time>2021-08-17T17:13:13Z</time>
    </trkpt>
    <trkpt lat="50.9526053" lon="6.8652329">
      <time>2021-08-17T17:13:22Z</time>
    </trkpt>
    <trkpt lat="50.9525551" lon="6.8649571">
      <time>2021-08-17T17:13:31Z</time>
    </trkpt>
    <trkpt lat="50.9525536" lon="6.8649178">
      <time>2021-08-17T17:13:32Z</time>
    </trkpt>
    <trkpt lat="50.9526230" lon="6.8647357">
      <time>2021-08-17T17:13:38Z</time>
    </trkpt>
    <trkpt lat="50.9527716" lon="6.8646407">
      <time>2021-08-17T17:13:45Z</time>
    </trkpt>
    <trkpt lat="50.9529580" lon="6.8646577">
      <time>2021-08-17T17:13:53Z</time>
    </trkpt>
    <trkpt lat="50.9530911" lon="6.8646194">
      <time>2021-08-17T17:14:00Z</time>
    </trkpt>
    <trkpt lat="50.9532206" lon="6.8645914">
      <time>2021-08-17T17:14:06Z</time>
    </trkpt>
    <trkpt lat="50.9532567" lon="6.8645803">
      <time>2021-08-17T17:14:08Z</time>
    </trkpt>
    <trkpt lat="50.9533893" lon="6.8645691">
      <time>2021-08-17T17:14:15Z</time>
    </trkpt>
    <trkpt lat="50.9535548" lon="6.8645422">
      <time>2021-08-17T17:14:23Z</time>
    </trkpt>
    <trkpt lat="50.9535691" lon="6.8645251">
      <time>2021-08-17T17:14:24Z</time>
    </trkpt>
    <trkpt lat="50.9536422" lon="6.8644961">
      <time>2021-08-17T17:14:28Z</time>
    </trkpt>
    <trkpt lat="50.9537706" lon="6.8644821">
      <time>2021-08-17T17:14:34Z</time>
    </trkpt>
    <trkpt lat="50.9538864" lon="6.8644352">
      <time>2021-08-17T17:14:41Z</time>
    </trkpt>
    <trkpt lat="50.9540468" lon="6.8643967">
      <time>2021-08-17T17:14:47Z</time>
    </trkpt>
    <trkpt lat="50.9542223" lon="6.8643252">
      <time>2021-08-17T17:14:55Z</time>
    </trkpt>
    <trkpt lat="50.9542757" lon="6.8643121">
      <time>2021-08-17T17:14:57Z</time>
    </trkpt>
    <trkpt lat="50.9544724" lon="6.8642597">
      <time>2021-08-17T17:15:06Z</time>
    </trkpt>
    <trkpt lat="50.9544918" lon="6.8642498">
      <time>2021-08-17T17:15:07Z</time>
    </trkpt>
    <trkpt lat="50.9546753" lon="6.8641915">
      <time>2021-08-17T17:15:16Z</time>
    </trkpt>
    <trkpt lat="50.9548329" lon="6.8641425">
      <time>2021-08-17T17:15:23Z</time>
    </trkpt>
    <trkpt lat="50.9548789" lon="6.8641176">
      <time>2021-08-17T17:15:25Z</time>
    </trkpt>
    <trkpt lat="50.9549904" lon="6.8640843">
      <time>2021-08-17T17:15:30Z</time>
    </trkpt>
    <trkpt lat="50.9550939" lon="6.8640568">
      <time>2021-08-17T17:15:35Z</time>
    </trkpt>
    <trkpt lat="50.9551108" lon="6.8640563">
      <time>2021-08-17T17:15:36Z</time>
    </trkpt>
    <trkpt lat="50.9552864" lon="6.8640302">
      <time>2021-08-17T17:15:45Z</time>
    </trkpt>
    <trkpt lat="50.9554777" lon="6.8639688">
      <time>2021-08-17T17:15:55Z</time>
    </trkpt>
    <trkpt lat="50.9556321" lon="6.8639137">
      <time>2021-08-17T17:16:02Z</time>
    </trkpt>
    <trkpt lat="50.9557001" lon="6.8638936">
      <time>2021-08-17T17:16:05Z</time>
    </trkpt>
    <trkpt lat="50.9557901" lon="6.8638691">
      <time>2021-08-17T17:16:09Z</time>
    </trkpt>
    <trkpt lat="50.9559346" lon="6.8638347">
      <time>2021-08-17T17:16:16Z</time>
    </trkpt>
    <trkpt lat="50.9561357" lon="6.8637719">
      <time>2021-08-17T17:16:25Z</time>
    </trkpt>
    <trkpt lat="50.9563250" lon="6.8637064">
      <time>2021-08-17T17:16:34Z</time>
    </trkpt>
    <trkpt lat="50.9563449" lon="6.8636972">
      <time>2021-08-17T17:16:35Z</time>
    </trkpt>
    <trkpt lat="50.9565169" lon="6.8636237">
      <time>2021-08-17T17:16:44Z</time>
    </trkpt>
    <trkpt lat="50.9566695" lon="6.8635783">
      <time>2021-08-17T17:16:52Z</time>
    </trkpt>
    <trkpt lat="50.9568530" lon="6.8635288">
      <time>2021-08-17T17:17:02Z</time>
    </trkpt>
    <trkpt lat="50.9570173" lon="6.8634689">
      <time>2021-08-17T17:17:11Z</time>
    </trkpt>
    <trkpt lat="50.9570915" lon="6.8634367">
      <time>2021-08-17T17:17:15Z</time>
    </trkpt>
    <trkpt lat="50.9571438" lon="6.8634204">
      <time>2021-08-17T17:17:18Z</time>
    </trkpt>
    <trkpt lat="50.9572697" lon="6.8633601">
      <time>2021-08-17T17:17:25Z</time>
    </trkpt>
    <trkpt lat="50.9574036" lon="6.8633420">
      <time>2021-08-17T17:17:33Z</time>
    </trkpt>
    <trkpt lat="50.9574224" lon="6.8633412">
      <time>2021-08-17T17:17:34Z</time>
    </trkpt>
    <trkpt lat="50.9576010" lon="6.8632845">
      <time>2021-08-17T17:17:45Z</time>
    </trkpt>
    <trkpt lat="50.9577673" lon="6.8632281">
      <time>2021-08-17T17:17:54Z</time>
    </trkpt>
    <trkpt lat="50.9579681" lon="6.8631776">
      <time>2021-08-17T17:18:05Z</time>
    </trkpt>
    <trkpt lat="50.9579838" lon="6.8631648">
      <time>2021-08-17T17:18:06Z</time>
    </trkpt>
    <trkpt lat="50.9580736" lon="6.8630746">
      <time>2021-08-17T17:18:12Z</time>
    </trkpt>
    <trkpt lat="50.9581138" lon="6.8630297">
      <time>2021-08-17T17:18:16Z</time>
    </trkpt>
    <trkpt lat="50.9581366" lon="6.8630049">
      <time>2021-08-17T17:18:18Z</time>
    </trkpt>
    <trkpt lat="50.9582291" lon="6.8629602">
      <time>2021-08-17T17:18:27Z</time>
    </trkpt>
    <trkpt lat="50.9582511" lon="6.8629557">
      <time>2021-08-17T17:18:29Z</time>
    </trkpt>
    <trkpt lat="50.9582855" lon="6.8629193">
      <time>2021-08-17T17:18:35Z</time>
    </trkpt>
    <trkpt lat="50.9583016" lon="6.8629136">
      <time>2021-08-17T17:18:36Z</time>
    </trkpt>
    <trkpt lat="50.9583962" lon="6.8628976">
      <time>2021-08-17T17:18:43Z</time>
    </trkpt>
    <trkpt lat="50.9585081" lon="6.8628307">
      <time>2021-08-17T17:18:50Z</time>
    </trkpt>
    <trkpt lat="50.9585719" lon="6.8627923">
      <time>2021-08-17T17:18:56Z</time>
    </trkpt>
    <trkpt lat="50.9585909" lon="6.8627779">
      <time>2021-08-17T17:18:57Z</time>
    </trkpt>
    <trkpt lat="50.9587298" lon="6.8626778">
      <time>2021-08-17T17:19:03Z</time>
    </trkpt>
    <trkpt lat="50.9588106" lon="6.8626244">
      <time>2021-08-17T17:19:07Z</time>
    </trkpt>
    <trkpt lat="50.9588539" lon="6.8626024">
      <time>2021-08-17T17:19:10Z</time>
    </trkpt>
    <trkpt lat="50.9589556" lon="6.8625243">
      <time>2021-08-17T17:19:14Z</time>
    </trkpt>
    <trkpt lat="50.9590345" lon="6.8624758">
      <time>2021-08-17T17:19:18Z</time>
    </trkpt>
    <trkpt lat="50.9592050" lon="6.8623567">
      <time>2021-08-17T17:19:27Z</time>
    </trkpt>
    <trkpt lat="50.9592309" lon="6.8623499">
      <time>2021-08-17T17:19:28Z</time>
    </trkpt>
    <trkpt lat="50.9593462" lon="6.8623347">
      <time>2021-08-17T17:19:33Z</time>
    </trkpt>
    <trkpt lat="50.9593990" lon="6.8623639">
      <time>2021-08-17T17:19:35Z</time>
    </trkpt>
    <trkpt lat="50.9594151" lon="6.8624546">
      <time>2021-08-17T17:19:38Z</time>
    </trkpt>
    <trkpt lat="50.9594169" lon="6.8625217">
      <time>2021-08-17T17:19:40Z</time>
    </trkpt>
    <trkpt lat="50.9594229" lon="6.8628287">
      <time>2021-08-17T17:19:49Z</time>
    </trkpt>
    <trkpt lat="50.9594167" lon="6.8630952">
      <time>2021-08-17T17:19:57Z</time>
    </trkpt>
    <trkpt lat="50.9594359" lon="6.8633076">
      <time>2021-08-17T17:20:03Z</time>
    </trkpt>
    <trkpt lat="50.9594421" lon="6.8636088">
      <time>2021-08-17T17:20:13Z</time>
    </trkpt>
    <trkpt lat="50.9594660" lon="6.8638512">
      <time>2021-08-17T17:20:21Z</time>
    </trkpt>
    <trkpt lat="50.9595021" lon="6.8641315">
      <time>2021-08-17T17:20:30Z</time>
    </trkpt>
    <trkpt lat="50.9595078" lon="6.8643823">
      <time>2021-08-17T17:20:38Z</time>
    </trkpt>
    <trkpt lat="50.9595275" lon="6.8646111">
      <time>2021-08-17T17:20:45Z</time>
    </trkpt>
    <trkpt lat="50.9595311" lon="6.8648074">
      <time>2021-08-17T17:20:52Z</time>
    </trkpt>
    <trkpt lat="50.9595355" lon="6.8650717">
      <time>2021-08-17T17:20:59Z</time>
    </trkpt>
    <trkpt lat="50.9595140" lon="6.8652706">
      <time>2021-08-17T17:21:06Z</time>
    </trkpt>
    <trkpt lat="50.9594498" lon="6.8655448">
      <time>2021-08-17T17:21:14Z</time>
    </trkpt>
    <trkpt lat="50.9593877" lon="6.8658212">
      <time>2021-08-17T17:21:23Z</time>
    </trkpt>
    <trkpt lat="50.9593439" lon="6.8659442">
      <time>2021-08-17T17:21:27Z</time>
    </trkpt>
    <trkpt lat="50.9592918" lon="6.8661604">
      <time>2021-08-17T17:21:35Z</time>
    </trkpt>
    <trkpt lat="50.9592084" lon="6.8664135">
      <time>2021-08-17T17:21:44Z</time>
    </trkpt>
    <trkpt lat="50.9592042" lon="6.8664412">
      <time>2021-08-17T17:21:45Z</time>
    </trkpt>
    <trkpt lat="50.9591240" lon="6.8667126">
      <time>2021-08-17T17:21:55Z</time>
    </trkpt>
    <trkpt lat="50.9590602" lon="6.8669559">
      <time>2021-08-17T17:22:03Z</time>
    </trkpt>
    <trkpt lat="50.9590110" lon="6.8671660">
      <time>2021-08-17T17:22:10Z</time>
    </trkpt>
    <trkpt lat="50.9589664" lon="6.8673769">
      <time>2021-08-17T17:22:17Z</time>
    </trkpt>
    <trkpt lat="50.9589490" lon="6.8674735">
      <time>2021-08-17T17:22:20Z</time>
    </trkpt>
    <trkpt lat="50.9589031" lon="6.8677532">
      <time>2021-08-17T17:22:29Z</time>
    </trkpt>
    <trkpt lat="50.9588940" lon="6.8677849">
      <time>2021-08-17T17:22:30Z</time>
    </trkpt>
    <trkpt lat="50.9588755" lon="6.8680215">
      <time>2021-08-17T17:22:37Z</time>
    </trkpt>
    <trkpt lat="50.9588510" lon="6.8681969">
      <time>2021-08-17T17:22:43Z</time>
    </trkpt>
    <trkpt lat="50.9587245" lon="6.8683251">
      <time>2021-08-17T17:22:50Z</time>
    </trkpt>
    <trkpt lat="50.9585469" lon="6.8683852">
      <time>2021-08-17T17:22:58Z</time>
    </trkpt>
    <trkpt lat="50.9585218" lon="6.8683857">
      <time>2021-08-17T17:23:00Z</time>
    </trkpt>
    <trkpt lat="50.9585059" lon="6.8683947">
      <time>2021-08-17T17:23:02Z</time>
    </trkpt>
    <trkpt lat="50.9584915" lon="6.8684168">
      <time>2021-08-17T17:23:05Z</time>
    </trkpt>
    <trkpt lat="50.9584902" lon="6.8684351">
      <time>2021-08-17T17:23:09Z</time>
    </trkpt>
    <trkpt lat="50.9585262" lon="6.8686790">
      <time>2021-08-17T17:23:18Z</time>
    </trkpt>
    <trkpt lat="50.9585294" lon="6.8687077">
      <time>2021-08-17T17:23:19Z</time>
    </trkpt>
    <trkpt lat="50.9585745" lon="6.8687742">
      <time>2021-08-17T17:23:23Z</time>
    </trkpt>
    <trkpt lat="50.9586557" lon="6.8688494">
      <time>2021-08-17T17:23:29Z</time>
    </trkpt>
    <trkpt lat="50.9586681" lon="6.8688907">
      <time>2021-08-17T17:23:30Z</time>
    </trkpt>
    <trkpt lat="50.9586633" lon="6.8689492">
      <time>2021-08-17T17:23:33Z</time>
    </trkpt>
    <trkpt lat="50.9586416" lon="6.8690463">
      <time>2021-08-17T17:23:39Z</time>
    </trkpt>
    <trkpt lat="50.9586385" lon="6.8690479">
      <time>2021-08-17T17:23:40Z</time>
    </trkpt>
    <trkpt lat="50.9586247" lon="6.8690337">
      <time>2021-08-17T17:23:44Z</time>
    </trkpt>
    <trkpt lat="50.9586213" lon="6.8690314">
      <time>2021-08-17T17:23:45Z</time>
    </trkpt>
    <trkpt lat="50.9586225" lon="6.8690313">
      <time>2021-08-17T17:23:46Z</time>
    </trkpt>
    <trkpt lat="50.9586258" lon="6.8690457">
      <time>2021-08-17T17:23:50Z</time>
    </trkpt>
    <trkpt lat="50.9586446" lon="6.8693836">
      <time>2021-08-17T17:27:23Z</time>
    </trkpt>
    <trkpt lat="50.9586317" lon="6.8694242">
      <time>2021-08-17T17:27:24Z</time>
    </trkpt>
    <trkpt lat="50.9586143" lon="6.8695253">
      <time>2021-08-17T17:27:26Z</time>
    </trkpt>
    <trkpt lat="50.9586038" lon="6.8696054">
      <time>2021-08-17T17:27:28Z</time>
    </trkpt>
    <trkpt lat="50.9585940" lon="6.8696671">
      <time>2021-08-17T17:27:30Z</time>
    </trkpt>
    <trkpt lat="50.9585705" lon="6.8697875">
      <time>2021-08-17T17:27:34Z</time>
    </trkpt>
    <trkpt lat="50.9585646" lon="6.8698689">
      <time>2021-08-17T17:27:36Z</time>
    </trkpt>
    <trkpt lat="50.9584986" lon="6.8700992">
      <time>2021-08-17T17:27:42Z</time>
    </trkpt>
    <trkpt lat="50.9584335" lon="6.8703603">
      <time>2021-08-17T17:27:50Z</time>
    </trkpt>
    <trkpt lat="50.9584109" lon="6.8705630">
      <time>2021-08-17T17:27:55Z</time>
    </trkpt>
    <trkpt lat="50.9584174" lon="6.8705937">
      <time>2021-08-17T17:27:56Z</time>
    </trkpt>
    <trkpt lat="50.9585324" lon="6.8707947">
      <time>2021-08-17T17:28:04Z</time>
    </trkpt>
    <trkpt lat="50.9586179" lon="6.8708267">
      <time>2021-08-17T17:28:08Z</time>
    </trkpt>
    <trkpt lat="50.9586606" lon="6.8708370">
      <time>2021-08-17T17:28:10Z</time>
    </trkpt>
    <trkpt lat="50.9586821" lon="6.8708459">
      <time>2021-08-17T17:28:11Z</time>
    </trkpt>
    <trkpt lat="50.9587442" lon="6.8708659">
      <time>2021-08-17T17:28:14Z</time>
    </trkpt>
    <trkpt lat="50.9588147" lon="6.8708531">
      <time>2021-08-17T17:28:18Z</time>
    </trkpt>
    <trkpt lat="50.9589810" lon="6.8708655">
      <time>2021-08-17T17:28:25Z</time>
    </trkpt>
    <trkpt lat="50.9590711" lon="6.8708866">
      <time>2021-08-17T17:28:29Z</time>
    </trkpt>
    <trkpt lat="50.9590851" lon="6.8708946">
      <time>2021-08-17T17:28:30Z</time>
    </trkpt>
    <trkpt lat="50.9591978" lon="6.8710065">
      <time>2021-08-17T17:28:37Z</time>
    </trkpt>
    <trkpt lat="50.9592959" lon="6.8711931">
      <time>2021-08-17T17:28:43Z</time>
    </trkpt>
    <trkpt lat="50.9594044" lon="6.8714445">
      <time>2021-08-17T17:28:51Z</time>
    </trkpt>
    <trkpt lat="50.9594146" lon="6.8714799">
      <time>2021-08-17T17:28:52Z</time>
    </trkpt>
    <trkpt lat="50.9594909" lon="6.8717213">
      <time>2021-08-17T17:29:00Z</time>
    </trkpt>
    <trkpt lat="50.9595417" lon="6.8718980">
      <time>2021-08-17T17:29:06Z</time>
    </trkpt>
    <trkpt lat="50.9595964" lon="6.8720727">
      <time>2021-08-17T17:29:11Z</time>
    </trkpt>
    <trkpt lat="50.9596136" lon="6.8721427">
      <time>2021-08-17T17:29:13Z</time>
    </trkpt>
    <trkpt lat="50.9596536" lon="6.8723959">
      <time>2021-08-17T17:29:20Z</time>
    </trkpt>
    <trkpt lat="50.9596779" lon="6.8725688">
      <time>2021-08-17T17:29:25Z</time>
    </trkpt>
    <trkpt lat="50.9596875" lon="6.8726003">
      <time>2021-08-17T17:29:26Z</time>
    </trkpt>
    <trkpt lat="50.9597328" lon="6.8728311">
      <time>2021-08-17T17:29:34Z</time>
    </trkpt>
    <trkpt lat="50.9597725" lon="6.8729968">
      <time>2021-08-17T17:29:39Z</time>
    </trkpt>
    <trkpt lat="50.9598021" lon="6.8732351">
      <time>2021-08-17T17:29:46Z</time>
    </trkpt>
    <trkpt lat="50.9598239" lon="6.8734385">
      <time>2021-08-17T17:29:53Z</time>
    </trkpt>
    <trkpt lat="50.9598319" lon="6.8735669">
      <time>2021-08-17T17:29:55Z</time>
    </trkpt>
    <trkpt lat="50.9598340" lon="6.8737772">
      <time>2021-08-17T17:30:00Z</time>
    </trkpt>
    <trkpt lat="50.9598362" lon="6.8739785">
      <time>2021-08-17T17:30:06Z</time>
    </trkpt>
    <trkpt lat="50.9598383" lon="6.8742476">
      <time>2021-08-17T17:30:13Z</time>
    </trkpt>
    <trkpt lat="50.9597943" lon="6.8744983">
      <time>2021-08-17T17:30:21Z</time>
    </trkpt>
    <trkpt lat="50.9597699" lon="6.8748086">
      <time>2021-08-17T17:30:29Z</time>
    </trkpt>
    <trkpt lat="50.9597764" lon="6.8750864">
      <time>2021-08-17T17:30:37Z</time>
    </trkpt>
    <trkpt lat="50.9597632" lon="6.8753106">
      <time>2021-08-17T17:30:43Z</time>
    </trkpt>
    <trkpt lat="50.9597875" lon="6.8756074">
      <time>2021-08-17T17:30:51Z</time>
    </trkpt>
    <trkpt lat="50.9597792" lon="6.8757898">
      <time>2021-08-17T17:30:56Z</time>
    </trkpt>
    <trkpt lat="50.9597819" lon="6.8758655">
      <time>2021-08-17T17:30:58Z</time>
    </trkpt>
    <trkpt lat="50.9598176" lon="6.8761413">
      <time>2021-08-17T17:31:05Z</time>
    </trkpt>
    <trkpt lat="50.9598396" lon="6.8763311">
      <time>2021-08-17T17:31:10Z</time>
    </trkpt>
    <trkpt lat="50.9598564" lon="6.8764301">
      <time>2021-08-17T17:31:13Z</time>
    </trkpt>
    <trkpt lat="50.9599061" lon="6.8767102">
      <time>2021-08-17T17:31:20Z</time>
    </trkpt>
    <trkpt lat="50.9599121" lon="6.8769826">
      <time>2021-08-17T17:31:27Z</time>
    </trkpt>
    <trkpt lat="50.9598655" lon="6.8772233">
      <time>2021-08-17T17:31:33Z</time>
    </trkpt>
    <trkpt lat="50.9598743" lon="6.8772934">
      <time>2021-08-17T17:31:35Z</time>
    </trkpt>
    <trkpt lat="50.9599158" lon="6.8773975">
      <time>2021-08-17T17:31:38Z</time>
    </trkpt>
    <trkpt lat="50.9600272" lon="6.8775542">
      <time>2021-08-17T17:31:45Z</time>
    </trkpt>
    <trkpt lat="50.9600457" lon="6.8775748">
      <time>2021-08-17T17:31:46Z</time>
    </trkpt>
    <trkpt lat="50.9601755" lon="6.8777303">
      <time>2021-08-17T17:31:53Z</time>
    </trkpt>
    <trkpt lat="50.9603014" lon="6.8777962">
      <time>2021-08-17T17:31:59Z</time>
    </trkpt>
    <trkpt lat="50.9603206" lon="6.8777904">
      <time>2021-08-17T17:32:00Z</time>
    </trkpt>
    <trkpt lat="50.9604432" lon="6.8777266">
      <time>2021-08-17T17:32:06Z</time>
    </trkpt>
    <trkpt lat="50.9606140" lon="6.8776538">
      <time>2021-08-17T17:32:14Z</time>
    </trkpt>
    <trkpt lat="50.9607989" lon="6.8776013">
      <time>2021-08-17T17:32:22Z</time>
    </trkpt>
    <trkpt lat="50.9609909" lon="6.8775635">
      <time>2021-08-17T17:32:31Z</time>
    </trkpt>
    <trkpt lat="50.9610105" lon="6.8775496">
      <time>2021-08-17T17:32:32Z</time>
    </trkpt>
    <trkpt lat="50.9611531" lon="6.8774838">
      <time>2021-08-17T17:32:39Z</time>
    </trkpt>
    <trkpt lat="50.9612482" lon="6.8774475">
      <time>2021-08-17T17:32:44Z</time>
    </trkpt>
    <trkpt lat="50.9613660" lon="6.8773518">
      <time>2021-08-17T17:32:49Z</time>
    </trkpt>
    <trkpt lat="50.9615280" lon="6.8772456">
      <time>2021-08-17T17:32:55Z</time>
    </trkpt>
    <trkpt lat="50.9616892" lon="6.8771454">
      <time>2021-08-17T17:33:03Z</time>
    </trkpt>
    <trkpt lat="50.9617891" lon="6.8770883">
      <time>2021-08-17T17:33:08Z</time>
    </trkpt>
    <trkpt lat="50.9618371" lon="6.8770542">
      <time>2021-08-17T17:33:10Z</time>
    </trkpt>
    <trkpt lat="50.9619663" lon="6.8768598">
      <time>2021-08-17T17:33:19Z</time>
    </trkpt>
    <trkpt lat="50.9619900" lon="6.8765958">
      <time>2021-08-17T17:33:25Z</time>
    </trkpt>
    <trkpt lat="50.9620617" lon="6.8764352">
      <time>2021-08-17T17:33:31Z</time>
    </trkpt>
    <trkpt lat="50.9621923" lon="6.8764199">
      <time>2021-08-17T17:33:38Z</time>
    </trkpt>
    <trkpt lat="50.9622745" lon="6.8764524">
      <time>2021-08-17T17:33:42Z</time>
    </trkpt>
    <trkpt lat="50.9622942" lon="6.8764575">
      <time>2021-08-17T17:33:43Z</time>
    </trkpt>
    <trkpt lat="50.9624222" lon="6.8764762">
      <time>2021-08-17T17:33:49Z</time>
    </trkpt>
    <trkpt lat="50.9624494" lon="6.8764803">
      <time>2021-08-17T17:33:50Z</time>
    </trkpt>
    <trkpt lat="50.9626080" lon="6.8765050">
      <time>2021-08-17T17:33:57Z</time>
    </trkpt>
    <trkpt lat="50.9627045" lon="6.8764620">
      <time>2021-08-17T17:34:01Z</time>
    </trkpt>
    <trkpt lat="50.9627364" lon="6.8764165">
      <time>2021-08-17T17:34:03Z</time>
    </trkpt>
    <trkpt lat="50.9628840" lon="6.8763520">
      <time>2021-08-17T17:34:10Z</time>
    </trkpt>
    <trkpt lat="50.9630229" lon="6.8763716">
      <time>2021-08-17T17:34:16Z</time>
    </trkpt>
    <trkpt lat="50.9630472" lon="6.8763772">
      <time>2021-08-17T17:34:17Z</time>
    </trkpt>
    <trkpt lat="50.9631468" lon="6.8764038">
      <time>2021-08-17T17:34:21Z</time>
    </trkpt>
    <trkpt lat="50.9631877" lon="6.8763597">
      <time>2021-08-17T17:34:23Z</time>
    </trkpt>
    <trkpt lat="50.9632542" lon="6.8761699">
      <time>2021-08-17T17:34:29Z</time>
    </trkpt>
    <trkpt lat="50.9632972" lon="6.8760421">
      <time>2021-08-17T17:34:33Z</time>
    </trkpt>
    <trkpt lat="50.9633366" lon="6.8760104">
      <time>2021-08-17T17:34:35Z</time>
    </trkpt>
    <trkpt lat="50.9634126" lon="6.8759930">
      <time>2021-08-17T17:34:41Z</time>
    </trkpt>
  </trkseg></trk>
</gpx>
