<?xml version="1.0" encoding="UTF-8"?>
<gpx version="1.1" creator="Diary FIT converter" xmlns="http://www.topografix.com/GPX/1/1">
  <trk><name>Cycling</name><trkseg>
    <trkpt lat="50.9632979" lon="6.8772883">
      <time>2025-07-16T16:46:39Z</time>
    </trkpt>
    <trkpt lat="50.9632928" lon="6.8772339">
      <time>2025-07-16T16:46:41Z</time>
    </trkpt>
    <trkpt lat="50.9632084" lon="6.8772368">
      <time>2025-07-16T16:46:42Z</time>
    </trkpt>
    <trkpt lat="50.9631610" lon="6.8769685">
      <time>2025-07-16T16:46:46Z</time>
    </trkpt>
    <trkpt lat="50.9631486" lon="6.8768986">
      <time>2025-07-16T16:46:47Z</time>
    </trkpt>
    <trkpt lat="50.9631346" lon="6.8768222">
      <time>2025-07-16T16:46:48Z</time>
    </trkpt>
    <trkpt lat="50.9631242" lon="6.8767472">
      <time>2025-07-16T16:46:49Z</time>
    </trkpt>
    <trkpt lat="50.9631193" lon="6.8766771">
      <time>2025-07-16T16:46:50Z</time>
    </trkpt>
    <trkpt lat="50.9631227" lon="6.8766152">
      <time>2025-07-16T16:46:51Z</time>
    </trkpt>
    <trkpt lat="50.9631365" lon="6.8765476">
      <time>2025-07-16T16:46:52Z</time>
    </trkpt>
    <trkpt lat="50.9631731" lon="6.8764137">
      <time>2025-07-16T16:46:54Z</time>
    </trkpt>
    <trkpt lat="50.9632396" lon="6.8761489">
      <time>2025-07-16T16:46:58Z</time>
    </trkpt>
    <trkpt lat="50.9633497" lon="6.8756059">
      <time>2025-07-16T16:47:06Z</time>
    </trkpt>
    <trkpt lat="50.9635042" lon="6.8748665">
      <time>2025-07-16T16:47:16Z</time>
    </trkpt>
    <trkpt lat="50.9635490" lon="6.8746324">
      <time>2025-07-16T16:47:19Z</time>
    </trkpt>
    <trkpt lat="50.9636063" lon="6.8743960">
      <time>2025-07-16T16:47:22Z</time>
    </trkpt>
    <trkpt lat="50.9636259" lon="6.8743221">
      <time>2025-07-16T16:47:23Z</time>
    </trkpt>
    <trkpt lat="50.9637088" lon="6.8739503">
      <time>2025-07-16T16:47:28Z</time>
    </trkpt>
    <trkpt lat="50.9637422" lon="6.8738058">
      <time>2025-07-16T16:47:30Z</time>
    </trkpt>
    <trkpt lat="50.9638293" lon="6.8733603">
      <time>2025-07-16T16:47:36Z</time>
    </trkpt>
    <trkpt lat="50.9638958" lon="6.8728263">
      <time>2025-07-16T16:47:43Z</time>
    </trkpt>
    <trkpt lat="50.9639136" lon="6.8725928">
      <time>2025-07-16T16:47:46Z</time>
    </trkpt>
    <trkpt lat="50.9639254" lon="6.8723553">
      <time>2025-07-16T16:47:49Z</time>
    </trkpt>
    <trkpt lat="50.9639370" lon="6.8721206">
      <time>2025-07-16T16:47:52Z</time>
    </trkpt>
    <trkpt lat="50.9639381" lon="6.8720429">
      <time>2025-07-16T16:47:53Z</time>
    </trkpt>
    <trkpt lat="50.9638965" lon="6.8719326">
      <time>2025-07-16T16:47:55Z</time>
    </trkpt>
    <trkpt lat="50.9638635" lon="6.8718982">
      <time>2025-07-16T16:47:56Z</time>
    </trkpt>
    <trkpt lat="50.9638243" lon="6.8718871">
      <time>2025-07-16T16:47:57Z</time>
    </trkpt>
    <trkpt lat="50.9636849" lon="6.8718627">
      <time>2025-07-16T16:48:00Z</time>
    </trkpt>
    <trkpt lat="50.9635876" lon="6.8718565">
      <time>2025-07-16T16:48:02Z</time>
    </trkpt>
    <trkpt lat="50.9634858" lon="6.8718584">
      <time>2025-07-16T16:48:04Z</time>
    </trkpt>
    <trkpt lat="50.9633377" lon="6.8718550">
      <time>2025-07-16T16:48:07Z</time>
    </trkpt>
    <trkpt lat="50.9632919" lon="6.8718332">
      <time>2025-07-16T16:48:08Z</time>
    </trkpt>
    <trkpt lat="50.9629832" lon="6.8717935">
      <time>2025-07-16T16:48:14Z</time>
    </trkpt>
    <trkpt lat="50.9625874" lon="6.8717741">
      <time>2025-07-16T16:48:22Z</time>
    </trkpt>
    <trkpt lat="50.9621759" lon="6.8718436">
      <time>2025-07-16T16:48:30Z</time>
    </trkpt>
    <trkpt lat="50.9619559" lon="6.8718945">
      <time>2025-07-16T16:48:34Z</time>
    </trkpt>
    <trkpt lat="50.9618385" lon="6.8719276">
      <time>2025-07-16T16:48:36Z</time>
    </trkpt>
    <trkpt lat="50.9614529" lon="6.8720767">
      <time>2025-07-16T16:48:43Z</time>
    </trkpt>
    <trkpt lat="50.9609907" lon="6.8722996">
      <time>2025-07-16T16:48:51Z</time>
    </trkpt>
    <trkpt lat="50.9606156" lon="6.8725613">
      <time>2025-07-16T16:48:58Z</time>
    </trkpt>
    <trkpt lat="50.9604532" lon="6.8726630">
      <time>2025-07-16T16:49:01Z</time>
    </trkpt>
    <trkpt lat="50.9603436" lon="6.8727195">
      <time>2025-07-16T16:49:03Z</time>
    </trkpt>
    <trkpt lat="50.9601848" lon="6.8728135">
      <time>2025-07-16T16:49:06Z</time>
    </trkpt>
    <trkpt lat="50.9598614" lon="6.8730070">
      <time>2025-07-16T16:49:12Z</time>
    </trkpt>
    <trkpt lat="50.9597582" lon="6.8730637">
      <time>2025-07-16T16:49:14Z</time>
    </trkpt>
    <trkpt lat="50.9596123" lon="6.8731494">
      <time>2025-07-16T16:49:17Z</time>
    </trkpt>
    <trkpt lat="50.9595186" lon="6.8731997">
      <time>2025-07-16T16:49:19Z</time>
    </trkpt>
    <trkpt lat="50.9594709" lon="6.8732175">
      <time>2025-07-16T16:49:20Z</time>
    </trkpt>
    <trkpt lat="50.9592993" lon="6.8732760">
      <time>2025-07-16T16:49:23Z</time>
    </trkpt>
    <trkpt lat="50.9592388" lon="6.8732932">
      <time>2025-07-16T16:49:24Z</time>
    </trkpt>
    <trkpt lat="50.9589939" lon="6.8732791">
      <time>2025-07-16T16:49:28Z</time>
    </trkpt>
    <trkpt lat="50.9585633" lon="6.8732154">
      <time>2025-07-16T16:49:35Z</time>
    </trkpt>
    <trkpt lat="50.9584406" lon="6.8732189">
      <time>2025-07-16T16:49:37Z</time>
    </trkpt>
    <trkpt lat="50.9582037" lon="6.8732260">
      <time>2025-07-16T16:49:41Z</time>
    </trkpt>
    <trkpt lat="50.9581101" lon="6.8731461">
      <time>2025-07-16T16:49:43Z</time>
    </trkpt>
    <trkpt lat="50.9580920" lon="6.8729846">
      <time>2025-07-16T16:49:45Z</time>
    </trkpt>
    <trkpt lat="50.9581204" lon="6.8725674">
      <time>2025-07-16T16:49:50Z</time>
    </trkpt>
    <trkpt lat="50.9581656" lon="6.8716959">
      <time>2025-07-16T16:50:00Z</time>
    </trkpt>
    <trkpt lat="50.9582515" lon="6.8710103">
      <time>2025-07-16T16:50:08Z</time>
    </trkpt>
    <trkpt lat="50.9583390" lon="6.8705375">
      <time>2025-07-16T16:50:15Z</time>
    </trkpt>
    <trkpt lat="50.9583815" lon="6.8702919">
      <time>2025-07-16T16:50:19Z</time>
    </trkpt>
    <trkpt lat="50.9584580" lon="6.8699034">
      <time>2025-07-16T16:50:25Z</time>
    </trkpt>
    <trkpt lat="50.9585619" lon="6.8694415">
      <time>2025-07-16T16:50:32Z</time>
    </trkpt>
    <trkpt lat="50.9585774" lon="6.8693837">
      <time>2025-07-16T16:50:33Z</time>
    </trkpt>
    <trkpt lat="50.9587046" lon="6.8688845">
      <time>2025-07-16T16:50:42Z</time>
    </trkpt>
    <trkpt lat="50.9586817" lon="6.8687887">
      <time>2025-07-16T16:50:44Z</time>
    </trkpt>
    <trkpt lat="50.9586587" lon="6.8687685">
      <time>2025-07-16T16:50:45Z</time>
    </trkpt>
    <trkpt lat="50.9585459" lon="6.8687096">
      <time>2025-07-16T16:50:51Z</time>
    </trkpt>
    <trkpt lat="50.9585408" lon="6.8687062">
      <time>2025-07-16T16:50:54Z</time>
    </trkpt>
    <trkpt lat="50.9585207" lon="6.8686554">
      <time>2025-07-16T16:51:34Z</time>
    </trkpt>
    <trkpt lat="50.9585127" lon="6.8685998">
      <time>2025-07-16T16:51:35Z</time>
    </trkpt>
    <trkpt lat="50.9584671" lon="6.8684346">
      <time>2025-07-16T16:51:38Z</time>
    </trkpt>
    <trkpt lat="50.9584704" lon="6.8683800">
      <time>2025-07-16T16:51:39Z</time>
    </trkpt>
    <trkpt lat="50.9584970" lon="6.8683443">
      <time>2025-07-16T16:51:40Z</time>
    </trkpt>
    <trkpt lat="50.9586646" lon="6.8682637">
      <time>2025-07-16T16:51:44Z</time>
    </trkpt>
    <trkpt lat="50.9587169" lon="6.8682295">
      <time>2025-07-16T16:51:45Z</time>
    </trkpt>
    <trkpt lat="50.9588052" lon="6.8680958">
      <time>2025-07-16T16:51:47Z</time>
    </trkpt>
    <trkpt lat="50.9588820" lon="6.8678102">
      <time>2025-07-16T16:51:50Z</time>
    </trkpt>
    <trkpt lat="50.9589931" lon="6.8673471">
      <time>2025-07-16T16:51:55Z</time>
    </trkpt>
    <trkpt lat="50.9590186" lon="6.8672633">
      <time>2025-07-16T16:51:56Z</time>
    </trkpt>
    <trkpt lat="50.9590458" lon="6.8671866">
      <time>2025-07-16T16:51:57Z</time>
    </trkpt>
    <trkpt lat="50.9591910" lon="6.8667402">
      <time>2025-07-16T16:52:03Z</time>
    </trkpt>
    <trkpt lat="50.9592646" lon="6.8665246">
      <time>2025-07-16T16:52:06Z</time>
    </trkpt>
    <trkpt lat="50.9593945" lon="6.8660819">
      <time>2025-07-16T16:52:12Z</time>
    </trkpt>
    <trkpt lat="50.9594594" lon="6.8658585">
      <time>2025-07-16T16:52:15Z</time>
    </trkpt>
    <trkpt lat="50.9594820" lon="6.8657865">
      <time>2025-07-16T16:52:16Z</time>
    </trkpt>
    <trkpt lat="50.9595046" lon="6.8657086">
      <time>2025-07-16T16:52:17Z</time>
    </trkpt>
    <trkpt lat="50.9595593" lon="6.8654683">
      <time>2025-07-16T16:52:20Z</time>
    </trkpt>
    <trkpt lat="50.9596060" lon="6.8652159">
      <time>2025-07-16T16:52:23Z</time>
    </trkpt>
    <trkpt lat="50.9596191" lon="6.8651302">
      <time>2025-07-16T16:52:24Z</time>
    </trkpt>
    <trkpt lat="50.9596494" lon="6.8649628">
      <time>2025-07-16T16:52:26Z</time>
    </trkpt>
    <trkpt lat="50.9596570" lon="6.8648772">
      <time>2025-07-16T16:52:27Z</time>
    </trkpt>
    <trkpt lat="50.9596588" lon="6.8645467">
      <time>2025-07-16T16:52:31Z</time>
    </trkpt>
    <trkpt lat="50.9596394" lon="6.8642968">
      <time>2025-07-16T16:52:34Z</time>
    </trkpt>
    <trkpt lat="50.9596221" lon="6.8639284">
      <time>2025-07-16T16:52:38Z</time>
    </trkpt>
    <trkpt lat="50.9595438" lon="6.8631460">
      <time>2025-07-16T16:52:47Z</time>
    </trkpt>
    <trkpt lat="50.9595531" lon="6.8626261">
      <time>2025-07-16T16:52:53Z</time>
    </trkpt>
    <trkpt lat="50.9595469" lon="6.8624584">
      <time>2025-07-16T16:52:55Z</time>
    </trkpt>
    <trkpt lat="50.9594894" lon="6.8623117">
      <time>2025-07-16T16:52:57Z</time>
    </trkpt>
    <trkpt lat="50.9593892" lon="6.8622640">
      <time>2025-07-16T16:52:59Z</time>
    </trkpt>
    <trkpt lat="50.9593422" lon="6.8622790">
      <time>2025-07-16T16:53:00Z</time>
    </trkpt>
    <trkpt lat="50.9590619" lon="6.8624661">
      <time>2025-07-16T16:53:05Z</time>
    </trkpt>
    <trkpt lat="50.9586825" lon="6.8627458">
      <time>2025-07-16T16:53:12Z</time>
    </trkpt>
    <trkpt lat="50.9582967" lon="6.8629830">
      <time>2025-07-16T16:53:19Z</time>
    </trkpt>
    <trkpt lat="50.9582435" lon="6.8630026">
      <time>2025-07-16T16:53:20Z</time>
    </trkpt>
    <trkpt lat="50.9578824" lon="6.8631277">
      <time>2025-07-16T16:53:26Z</time>
    </trkpt>
    <trkpt lat="50.9573408" lon="6.8632867">
      <time>2025-07-16T16:53:35Z</time>
    </trkpt>
    <trkpt lat="50.9572143" lon="6.8633266">
      <time>2025-07-16T16:53:37Z</time>
    </trkpt>
    <trkpt lat="50.9569704" lon="6.8634078">
      <time>2025-07-16T16:53:41Z</time>
    </trkpt>
    <trkpt lat="50.9566649" lon="6.8634936">
      <time>2025-07-16T16:53:46Z</time>
    </trkpt>
    <trkpt lat="50.9566044" lon="6.8635117">
      <time>2025-07-16T16:53:47Z</time>
    </trkpt>
    <trkpt lat="50.9560496" lon="6.8636833">
      <time>2025-07-16T16:53:56Z</time>
    </trkpt>
    <trkpt lat="50.9559858" lon="6.8637011">
      <time>2025-07-16T16:53:57Z</time>
    </trkpt>
    <trkpt lat="50.9554255" lon="6.8638815">
      <time>2025-07-16T16:54:06Z</time>
    </trkpt>
    <trkpt lat="50.9548714" lon="6.8640462">
      <time>2025-07-16T16:54:15Z</time>
    </trkpt>
    <trkpt lat="50.9547431" lon="6.8640909">
      <time>2025-07-16T16:54:17Z</time>
    </trkpt>
    <trkpt lat="50.9544213" lon="6.8641904">
      <time>2025-07-16T16:54:22Z</time>
    </trkpt>
    <trkpt lat="50.9542967" lon="6.8642345">
      <time>2025-07-16T16:54:24Z</time>
    </trkpt>
    <trkpt lat="50.9541117" lon="6.8642948">
      <time>2025-07-16T16:54:27Z</time>
    </trkpt>
    <trkpt lat="50.9536907" lon="6.8644308">
      <time>2025-07-16T16:54:34Z</time>
    </trkpt>
    <trkpt lat="50.9535113" lon="6.8644840">
      <time>2025-07-16T16:54:37Z</time>
    </trkpt>
    <trkpt lat="50.9530437" lon="6.8645298">
      <time>2025-07-16T16:54:45Z</time>
    </trkpt>
    <trkpt lat="50.9528115" lon="6.8644944">
      <time>2025-07-16T16:54:51Z</time>
    </trkpt>
    <trkpt lat="50.9527603" lon="6.8644835">
      <time>2025-07-16T16:54:53Z</time>
    </trkpt>
    <trkpt lat="50.9527222" lon="6.8644779">
      <time>2025-07-16T16:54:54Z</time>
    </trkpt>
    <trkpt lat="50.9526782" lon="6.8644709">
      <time>2025-07-16T16:54:55Z</time>
    </trkpt>
    <trkpt lat="50.9525751" lon="6.8644756">
      <time>2025-07-16T16:54:57Z</time>
    </trkpt>
    <trkpt lat="50.9524617" lon="6.8645339">
      <time>2025-07-16T16:54:59Z</time>
    </trkpt>
    <trkpt lat="50.9523094" lon="6.8646658">
      <time>2025-07-16T16:55:02Z</time>
    </trkpt>
    <trkpt lat="50.9522211" lon="6.8647879">
      <time>2025-07-16T16:55:04Z</time>
    </trkpt>
    <trkpt lat="50.9521407" lon="6.8649336">
      <time>2025-07-16T16:55:06Z</time>
    </trkpt>
    <trkpt lat="50.9520760" lon="6.8650994">
      <time>2025-07-16T16:55:08Z</time>
    </trkpt>
    <trkpt lat="50.9520479" lon="6.8651900">
      <time>2025-07-16T16:55:09Z</time>
    </trkpt>
    <trkpt lat="50.9519125" lon="6.8656701">
      <time>2025-07-16T16:55:14Z</time>
    </trkpt>
    <trkpt lat="50.9518725" lon="6.8657532">
      <time>2025-07-16T16:55:15Z</time>
    </trkpt>
    <trkpt lat="50.9515282" lon="6.8664402">
      <time>2025-07-16T16:55:23Z</time>
    </trkpt>
    <trkpt lat="50.9514818" lon="6.8665231">
      <time>2025-07-16T16:55:24Z</time>
    </trkpt>
    <trkpt lat="50.9511040" lon="6.8671439">
      <time>2025-07-16T16:55:32Z</time>
    </trkpt>
    <trkpt lat="50.9510541" lon="6.8672160">
      <time>2025-07-16T16:55:33Z</time>
    </trkpt>
    <trkpt lat="50.9506144" lon="6.8678523">
      <time>2025-07-16T16:55:42Z</time>
    </trkpt>
    <trkpt lat="50.9505759" lon="6.8679231">
      <time>2025-07-16T16:55:43Z</time>
    </trkpt>
    <trkpt lat="50.9505233" lon="6.8680865">
      <time>2025-07-16T16:55:45Z</time>
    </trkpt>
    <trkpt lat="50.9505094" lon="6.8681681">
      <time>2025-07-16T16:55:46Z</time>
    </trkpt>
    <trkpt lat="50.9505008" lon="6.8682576">
      <time>2025-07-16T16:55:47Z</time>
    </trkpt>
    <trkpt lat="50.9504630" lon="6.8686640">
      <time>2025-07-16T16:55:51Z</time>
    </trkpt>
    <trkpt lat="50.9503643" lon="6.8692369">
      <time>2025-07-16T16:55:57Z</time>
    </trkpt>
    <trkpt lat="50.9502842" lon="6.8697079">
      <time>2025-07-16T16:56:02Z</time>
    </trkpt>
    <trkpt lat="50.9502746" lon="6.8698899">
      <time>2025-07-16T16:56:04Z</time>
    </trkpt>
    <trkpt lat="50.9502489" lon="6.8700698">
      <time>2025-07-16T16:56:06Z</time>
    </trkpt>
    <trkpt lat="50.9502066" lon="6.8703357">
      <time>2025-07-16T16:56:09Z</time>
    </trkpt>
    <trkpt lat="50.9500849" lon="6.8709715">
      <time>2025-07-16T16:56:16Z</time>
    </trkpt>
    <trkpt lat="50.9499928" lon="6.8710415">
      <time>2025-07-16T16:56:18Z</time>
    </trkpt>
    <trkpt lat="50.9499433" lon="6.8710455">
      <time>2025-07-16T16:56:19Z</time>
    </trkpt>
    <trkpt lat="50.9497983" lon="6.8710953">
      <time>2025-07-16T16:56:22Z</time>
    </trkpt>
    <trkpt lat="50.9497460" lon="6.8711127">
      <time>2025-07-16T16:56:23Z</time>
    </trkpt>
    <trkpt lat="50.9495371" lon="6.8711688">
      <time>2025-07-16T16:56:27Z</time>
    </trkpt>
    <trkpt lat="50.9494382" lon="6.8712059">
      <time>2025-07-16T16:56:29Z</time>
    </trkpt>
    <trkpt lat="50.9493538" lon="6.8712796">
      <time>2025-07-16T16:56:31Z</time>
    </trkpt>
    <trkpt lat="50.9492828" lon="6.8713886">
      <time>2025-07-16T16:56:33Z</time>
    </trkpt>
    <trkpt lat="50.9491060" lon="6.8716566">
      <time>2025-07-16T16:56:37Z</time>
    </trkpt>
    <trkpt lat="50.9490574" lon="6.8717238">
      <time>2025-07-16T16:56:38Z</time>
    </trkpt>
    <trkpt lat="50.9487837" lon="6.8721145">
      <time>2025-07-16T16:56:44Z</time>
    </trkpt>
    <trkpt lat="50.9486381" lon="6.8722727">
      <time>2025-07-16T16:56:47Z</time>
    </trkpt>
    <trkpt lat="50.9485809" lon="6.8723076">
      <time>2025-07-16T16:56:48Z</time>
    </trkpt>
    <trkpt lat="50.9484361" lon="6.8724097">
      <time>2025-07-16T16:56:51Z</time>
    </trkpt>
    <trkpt lat="50.9483348" lon="6.8724606">
      <time>2025-07-16T16:56:53Z</time>
    </trkpt>
    <trkpt lat="50.9481701" lon="6.8725472">
      <time>2025-07-16T16:56:56Z</time>
    </trkpt>
    <trkpt lat="50.9480136" lon="6.8726464">
      <time>2025-07-16T16:56:59Z</time>
    </trkpt>
    <trkpt lat="50.9477791" lon="6.8727784">
      <time>2025-07-16T16:57:04Z</time>
    </trkpt>
    <trkpt lat="50.9477318" lon="6.8728006">
      <time>2025-07-16T16:57:05Z</time>
    </trkpt>
    <trkpt lat="50.9474127" lon="6.8729605">
      <time>2025-07-16T16:57:12Z</time>
    </trkpt>
    <trkpt lat="50.9473972" lon="6.8730037">
      <time>2025-07-16T16:57:13Z</time>
    </trkpt>
    <trkpt lat="50.9473921" lon="6.8731358">
      <time>2025-07-16T16:57:15Z</time>
    </trkpt>
    <trkpt lat="50.9473882" lon="6.8734882">
      <time>2025-07-16T16:57:19Z</time>
    </trkpt>
    <trkpt lat="50.9473910" lon="6.8735918">
      <time>2025-07-16T16:57:20Z</time>
    </trkpt>
    <trkpt lat="50.9473757" lon="6.8738970">
      <time>2025-07-16T16:57:23Z</time>
    </trkpt>
    <trkpt lat="50.9473468" lon="6.8740823">
      <time>2025-07-16T16:57:25Z</time>
    </trkpt>
    <trkpt lat="50.9473120" lon="6.8742447">
      <time>2025-07-16T16:57:27Z</time>
    </trkpt>
    <trkpt lat="50.9472969" lon="6.8743055">
      <time>2025-07-16T16:57:28Z</time>
    </trkpt>
    <trkpt lat="50.9472860" lon="6.8743683">
      <time>2025-07-16T16:57:29Z</time>
    </trkpt>
    <trkpt lat="50.9472874" lon="6.8744138">
      <time>2025-07-16T16:57:30Z</time>
    </trkpt>
    <trkpt lat="50.9473050" lon="6.8744476">
      <time>2025-07-16T16:57:31Z</time>
    </trkpt>
    <trkpt lat="50.9473325" lon="6.8744485">
      <time>2025-07-16T16:57:32Z</time>
    </trkpt>
    <trkpt lat="50.9473636" lon="6.8744212">
      <time>2025-07-16T16:57:33Z</time>
    </trkpt>
    <trkpt lat="50.9474270" lon="6.8744300">
      <time>2025-07-16T16:57:35Z</time>
    </trkpt>
    <trkpt lat="50.9474244" lon="6.8744839">
      <time>2025-07-16T16:57:36Z</time>
    </trkpt>
    <trkpt lat="50.9473325" lon="6.8745792">
      <time>2025-07-16T16:57:39Z</time>
    </trkpt>
    <trkpt lat="50.9472455" lon="6.8746466">
      <time>2025-07-16T16:57:41Z</time>
    </trkpt>
    <trkpt lat="50.9471963" lon="6.8746744">
      <time>2025-07-16T16:57:42Z</time>
    </trkpt>
    <trkpt lat="50.9471268" lon="6.8747214">
      <time>2025-07-16T16:57:43Z</time>
    </trkpt>
    <trkpt lat="50.9470338" lon="6.8747742">
      <time>2025-07-16T16:57:44Z</time>
    </trkpt>
    <trkpt lat="50.9468100" lon="6.8748615">
      <time>2025-07-16T16:57:47Z</time>
    </trkpt>
    <trkpt lat="50.9467261" lon="6.8748850">
      <time>2025-07-16T16:57:48Z</time>
    </trkpt>
    <trkpt lat="50.9465574" lon="6.8749017">
      <time>2025-07-16T16:57:50Z</time>
    </trkpt>
    <trkpt lat="50.9463941" lon="6.8749017">
      <time>2025-07-16T16:57:52Z</time>
    </trkpt>
    <trkpt lat="50.9463188" lon="6.8749035">
      <time>2025-07-16T16:57:53Z</time>
    </trkpt>
    <trkpt lat="50.9461284" lon="6.8748998">
      <time>2025-07-16T16:57:56Z</time>
    </trkpt>
    <trkpt lat="50.9460732" lon="6.8748887">
      <time>2025-07-16T16:57:57Z</time>
    </trkpt>
    <trkpt lat="50.9460192" lon="6.8748751">
      <time>2025-07-16T16:57:58Z</time>
    </trkpt>
    <trkpt lat="50.9459241" lon="6.8748549">
      <time>2025-07-16T16:58:00Z</time>
    </trkpt>
    <trkpt lat="50.9458154" lon="6.8748308">
      <time>2025-07-16T16:58:03Z</time>
    </trkpt>
    <trkpt lat="50.9457417" lon="6.8748461">
      <time>2025-07-16T16:58:06Z</time>
    </trkpt>
    <trkpt lat="50.9457243" lon="6.8748743">
      <time>2025-07-16T16:58:07Z</time>
    </trkpt>
    <trkpt lat="50.9456970" lon="6.8749023">
      <time>2025-07-16T16:58:08Z</time>
    </trkpt>
    <trkpt lat="50.9456189" lon="6.8749154">
      <time>2025-07-16T16:58:10Z</time>
    </trkpt>
    <trkpt lat="50.9455741" lon="6.8749129">
      <time>2025-07-16T16:58:11Z</time>
    </trkpt>
    <trkpt lat="50.9454796" lon="6.8749021">
      <time>2025-07-16T16:58:13Z</time>
    </trkpt>
    <trkpt lat="50.9452202" lon="6.8748848">
      <time>2025-07-16T16:58:18Z</time>
    </trkpt>
    <trkpt lat="50.9451671" lon="6.8748823">
      <time>2025-07-16T16:58:19Z</time>
    </trkpt>
    <trkpt lat="50.9447083" lon="6.8749259">
      <time>2025-07-16T16:58:27Z</time>
    </trkpt>
    <trkpt lat="50.9444249" lon="6.8750506">
      <time>2025-07-16T16:58:32Z</time>
    </trkpt>
    <trkpt lat="50.9441387" lon="6.8752231">
      <time>2025-07-16T16:58:37Z</time>
    </trkpt>
    <trkpt lat="50.9440118" lon="6.8752961">
      <time>2025-07-16T16:58:39Z</time>
    </trkpt>
    <trkpt lat="50.9439538" lon="6.8753440">
      <time>2025-07-16T16:58:40Z</time>
    </trkpt>
    <trkpt lat="50.9437947" lon="6.8755200">
      <time>2025-07-16T16:58:43Z</time>
    </trkpt>
    <trkpt lat="50.9437411" lon="6.8755850">
      <time>2025-07-16T16:58:44Z</time>
    </trkpt>
    <trkpt lat="50.9435296" lon="6.8758894">
      <time>2025-07-16T16:58:48Z</time>
    </trkpt>
    <trkpt lat="50.9434429" lon="6.8760095">
      <time>2025-07-16T16:58:50Z</time>
    </trkpt>
    <trkpt lat="50.9430984" lon="6.8764609">
      <time>2025-07-16T16:58:57Z</time>
    </trkpt>
    <trkpt lat="50.9428605" lon="6.8767983">
      <time>2025-07-16T16:59:02Z</time>
    </trkpt>
    <trkpt lat="50.9427151" lon="6.8769991">
      <time>2025-07-16T16:59:05Z</time>
    </trkpt>
    <trkpt lat="50.9423141" lon="6.8775534">
      <time>2025-07-16T16:59:13Z</time>
    </trkpt>
    <trkpt lat="50.9419074" lon="6.8780971">
      <time>2025-07-16T16:59:21Z</time>
    </trkpt>
    <trkpt lat="50.9415024" lon="6.8786475">
      <time>2025-07-16T16:59:29Z</time>
    </trkpt>
    <trkpt lat="50.9414554" lon="6.8787103">
      <time>2025-07-16T16:59:30Z</time>
    </trkpt>
    <trkpt lat="50.9411866" lon="6.8790764">
      <time>2025-07-16T16:59:36Z</time>
    </trkpt>
    <trkpt lat="50.9411418" lon="6.8791220">
      <time>2025-07-16T16:59:37Z</time>
    </trkpt>
    <trkpt lat="50.9409695" lon="6.8793460">
      <time>2025-07-16T16:59:41Z</time>
    </trkpt>
    <trkpt lat="50.9408776" lon="6.8794774">
      <time>2025-07-16T16:59:43Z</time>
    </trkpt>
    <trkpt lat="50.9406612" lon="6.8797509">
      <time>2025-07-16T16:59:47Z</time>
    </trkpt>
    <trkpt lat="50.9404818" lon="6.8799333">
      <time>2025-07-16T16:59:50Z</time>
    </trkpt>
    <trkpt lat="50.9402304" lon="6.8801561">
      <time>2025-07-16T16:59:54Z</time>
    </trkpt>
    <trkpt lat="50.9399850" lon="6.8803764">
      <time>2025-07-16T16:59:58Z</time>
    </trkpt>
    <trkpt lat="50.9399235" lon="6.8804314">
      <time>2025-07-16T16:59:59Z</time>
    </trkpt>
    <trkpt lat="50.9394535" lon="6.8808188">
      <time>2025-07-16T17:00:07Z</time>
    </trkpt>
    <trkpt lat="50.9389711" lon="6.8812462">
      <time>2025-07-16T17:00:16Z</time>
    </trkpt>
    <trkpt lat="50.9385736" lon="6.8816366">
      <time>2025-07-16T17:00:24Z</time>
    </trkpt>
    <trkpt lat="50.9384504" lon="6.8817085">
      <time>2025-07-16T17:00:26Z</time>
    </trkpt>
    <trkpt lat="50.9382251" lon="6.8818856">
      <time>2025-07-16T17:00:30Z</time>
    </trkpt>
    <trkpt lat="50.9381689" lon="6.8819260">
      <time>2025-07-16T17:00:31Z</time>
    </trkpt>
    <trkpt lat="50.9381072" lon="6.8819582">
      <time>2025-07-16T17:00:32Z</time>
    </trkpt>
    <trkpt lat="50.9379346" lon="6.8820392">
      <time>2025-07-16T17:00:35Z</time>
    </trkpt>
    <trkpt lat="50.9378767" lon="6.8820313">
      <time>2025-07-16T17:00:36Z</time>
    </trkpt>
    <trkpt lat="50.9378223" lon="6.8820157">
      <time>2025-07-16T17:00:37Z</time>
    </trkpt>
    <trkpt lat="50.9375921" lon="6.8819858">
      <time>2025-07-16T17:00:42Z</time>
    </trkpt>
    <trkpt lat="50.9375495" lon="6.8819981">
      <time>2025-07-16T17:00:43Z</time>
    </trkpt>
    <trkpt lat="50.9374506" lon="6.8820998">
      <time>2025-07-16T17:00:46Z</time>
    </trkpt>
    <trkpt lat="50.9372230" lon="6.8822400">
      <time>2025-07-16T17:00:51Z</time>
    </trkpt>
    <trkpt lat="50.9371713" lon="6.8822724">
      <time>2025-07-16T17:00:52Z</time>
    </trkpt>
    <trkpt lat="50.9371198" lon="6.8823151">
      <time>2025-07-16T17:00:53Z</time>
    </trkpt>
    <trkpt lat="50.9370177" lon="6.8824296">
      <time>2025-07-16T17:00:55Z</time>
    </trkpt>
    <trkpt lat="50.9368211" lon="6.8826541">
      <time>2025-07-16T17:00:59Z</time>
    </trkpt>
    <trkpt lat="50.9367630" lon="6.8827835">
      <time>2025-07-16T17:01:01Z</time>
    </trkpt>
    <trkpt lat="50.9367460" lon="6.8828554">
      <time>2025-07-16T17:01:02Z</time>
    </trkpt>
    <trkpt lat="50.9367387" lon="6.8829320">
      <time>2025-07-16T17:01:03Z</time>
    </trkpt>
    <trkpt lat="50.9367229" lon="6.8830816">
      <time>2025-07-16T17:01:05Z</time>
    </trkpt>
    <trkpt lat="50.9366518" lon="6.8832045">
      <time>2025-07-16T17:01:07Z</time>
    </trkpt>
    <trkpt lat="50.9363722" lon="6.8835493">
      <time>2025-07-16T17:01:14Z</time>
    </trkpt>
    <trkpt lat="50.9363239" lon="6.8835985">
      <time>2025-07-16T17:01:15Z</time>
    </trkpt>
    <trkpt lat="50.9361243" lon="6.8837935">
      <time>2025-07-16T17:01:19Z</time>
    </trkpt>
    <trkpt lat="50.9357932" lon="6.8841833">
      <time>2025-07-16T17:01:26Z</time>
    </trkpt>
    <trkpt lat="50.9355753" lon="6.8845220">
      <time>2025-07-16T17:01:31Z</time>
    </trkpt>
    <trkpt lat="50.9354405" lon="6.8847055">
      <time>2025-07-16T17:01:34Z</time>
    </trkpt>
    <trkpt lat="50.9351152" lon="6.8851428">
      <time>2025-07-16T17:01:41Z</time>
    </trkpt>
    <trkpt lat="50.9348239" lon="6.8854855">
      <time>2025-07-16T17:01:47Z</time>
    </trkpt>
    <trkpt lat="50.9347058" lon="6.8856350">
      <time>2025-07-16T17:01:50Z</time>
    </trkpt>
    <trkpt lat="50.9345889" lon="6.8857637">
      <time>2025-07-16T17:01:53Z</time>
    </trkpt>
    <trkpt lat="50.9344210" lon="6.8859235">
      <time>2025-07-16T17:01:57Z</time>
    </trkpt>
    <trkpt lat="50.9343812" lon="6.8859612">
      <time>2025-07-16T17:01:58Z</time>
    </trkpt>
    <trkpt lat="50.9342481" lon="6.8861030">
      <time>2025-07-16T17:02:02Z</time>
    </trkpt>
    <trkpt lat="50.9341951" lon="6.8861386">
      <time>2025-07-16T17:02:04Z</time>
    </trkpt>
    <trkpt lat="50.9341542" lon="6.8861500">
      <time>2025-07-16T17:02:08Z</time>
    </trkpt>
    <trkpt lat="50.9341440" lon="6.8861542">
      <time>2025-07-16T17:02:09Z</time>
    </trkpt>
    <trkpt lat="50.9341655" lon="6.8861286">
      <time>2025-07-16T17:02:20Z</time>
    </trkpt>
    <trkpt lat="50.9341471" lon="6.8861443">
      <time>2025-07-16T17:02:21Z</time>
    </trkpt>
    <trkpt lat="50.9340422" lon="6.8862194">
      <time>2025-07-16T17:02:24Z</time>
    </trkpt>
    <trkpt lat="50.9340033" lon="6.8862472">
      <time>2025-07-16T17:02:25Z</time>
    </trkpt>
    <trkpt lat="50.9337202" lon="6.8864418">
      <time>2025-07-16T17:02:31Z</time>
    </trkpt>
    <trkpt lat="50.9336701" lon="6.8864652">
      <time>2025-07-16T17:02:32Z</time>
    </trkpt>
    <trkpt lat="50.9334279" lon="6.8865477">
      <time>2025-07-16T17:02:37Z</time>
    </trkpt>
    <trkpt lat="50.9332986" lon="6.8865685">
      <time>2025-07-16T17:02:40Z</time>
    </trkpt>
    <trkpt lat="50.9331756" lon="6.8865917">
      <time>2025-07-16T17:02:43Z</time>
    </trkpt>
    <trkpt lat="50.9330910" lon="6.8866090">
      <time>2025-07-16T17:02:45Z</time>
    </trkpt>
    <trkpt lat="50.9328423" lon="6.8866513">
      <time>2025-07-16T17:02:51Z</time>
    </trkpt>
    <trkpt lat="50.9325779" lon="6.8867409">
      <time>2025-07-16T17:02:57Z</time>
    </trkpt>
    <trkpt lat="50.9324967" lon="6.8867827">
      <time>2025-07-16T17:02:59Z</time>
    </trkpt>
    <trkpt lat="50.9323435" lon="6.8868349">
      <time>2025-07-16T17:03:03Z</time>
    </trkpt>
    <trkpt lat="50.9322639" lon="6.8868783">
      <time>2025-07-16T17:03:05Z</time>
    </trkpt>
    <trkpt lat="50.9321718" lon="6.8869402">
      <time>2025-07-16T17:03:07Z</time>
    </trkpt>
    <trkpt lat="50.9320854" lon="6.8869954">
      <time>2025-07-16T17:03:09Z</time>
    </trkpt>
    <trkpt lat="50.9319894" lon="6.8870454">
      <time>2025-07-16T17:03:11Z</time>
    </trkpt>
    <trkpt lat="50.9318393" lon="6.8871096">
      <time>2025-07-16T17:03:14Z</time>
    </trkpt>
    <trkpt lat="50.9318005" lon="6.8871251">
      <time>2025-07-16T17:03:15Z</time>
    </trkpt>
    <trkpt lat="50.9316729" lon="6.8871680">
      <time>2025-07-16T17:03:18Z</time>
    </trkpt>
    <trkpt lat="50.9315289" lon="6.8872365">
      <time>2025-07-16T17:03:21Z</time>
    </trkpt>
    <trkpt lat="50.9313446" lon="6.8873093">
      <time>2025-07-16T17:03:24Z</time>
    </trkpt>
    <trkpt lat="50.9312105" lon="6.8873326">
      <time>2025-07-16T17:03:26Z</time>
    </trkpt>
    <trkpt lat="50.9309407" lon="6.8873849">
      <time>2025-07-16T17:03:30Z</time>
    </trkpt>
    <trkpt lat="50.9307449" lon="6.8874124">
      <time>2025-07-16T17:03:33Z</time>
    </trkpt>
    <trkpt lat="50.9306179" lon="6.8874274">
      <time>2025-07-16T17:03:35Z</time>
    </trkpt>
    <trkpt lat="50.9304355" lon="6.8874555">
      <time>2025-07-16T17:03:38Z</time>
    </trkpt>
    <trkpt lat="50.9303178" lon="6.8875030">
      <time>2025-07-16T17:03:40Z</time>
    </trkpt>
    <trkpt lat="50.9301529" lon="6.8875962">
      <time>2025-07-16T17:03:43Z</time>
    </trkpt>
    <trkpt lat="50.9300294" lon="6.8876529">
      <time>2025-07-16T17:03:45Z</time>
    </trkpt>
    <trkpt lat="50.9299746" lon="6.8876766">
      <time>2025-07-16T17:03:46Z</time>
    </trkpt>
    <trkpt lat="50.9298418" lon="6.8877346">
      <time>2025-07-16T17:03:48Z</time>
    </trkpt>
    <trkpt lat="50.9297219" lon="6.8877913">
      <time>2025-07-16T17:03:50Z</time>
    </trkpt>
    <trkpt lat="50.9296100" lon="6.8878486">
      <time>2025-07-16T17:03:52Z</time>
    </trkpt>
    <trkpt lat="50.9294311" lon="6.8879227">
      <time>2025-07-16T17:03:55Z</time>
    </trkpt>
    <trkpt lat="50.9291297" lon="6.8880388">
      <time>2025-07-16T17:04:00Z</time>
    </trkpt>
    <trkpt lat="50.9290141" lon="6.8880869">
      <time>2025-07-16T17:04:02Z</time>
    </trkpt>
    <trkpt lat="50.9286610" lon="6.8882895">
      <time>2025-07-16T17:04:08Z</time>
    </trkpt>
    <trkpt lat="50.9285450" lon="6.8883705">
      <time>2025-07-16T17:04:10Z</time>
    </trkpt>
    <trkpt lat="50.9281918" lon="6.8885819">
      <time>2025-07-16T17:04:16Z</time>
    </trkpt>
    <trkpt lat="50.9281361" lon="6.8886138">
      <time>2025-07-16T17:04:17Z</time>
    </trkpt>
    <trkpt lat="50.9280733" lon="6.8886237">
      <time>2025-07-16T17:04:18Z</time>
    </trkpt>
    <trkpt lat="50.9279538" lon="6.8886557">
      <time>2025-07-16T17:04:20Z</time>
    </trkpt>
    <trkpt lat="50.9278938" lon="6.8886856">
      <time>2025-07-16T17:04:21Z</time>
    </trkpt>
    <trkpt lat="50.9275830" lon="6.8888488">
      <time>2025-07-16T17:04:26Z</time>
    </trkpt>
    <trkpt lat="50.9272948" lon="6.8889837">
      <time>2025-07-16T17:04:31Z</time>
    </trkpt>
    <trkpt lat="50.9271879" lon="6.8890349">
      <time>2025-07-16T17:04:33Z</time>
    </trkpt>
    <trkpt lat="50.9269186" lon="6.8891635">
      <time>2025-07-16T17:04:38Z</time>
    </trkpt>
    <trkpt lat="50.9265681" lon="6.8893108">
      <time>2025-07-16T17:04:44Z</time>
    </trkpt>
    <trkpt lat="50.9262048" lon="6.8894538">
      <time>2025-07-16T17:04:50Z</time>
    </trkpt>
    <trkpt lat="50.9256622" lon="6.8896438">
      <time>2025-07-16T17:04:59Z</time>
    </trkpt>
    <trkpt lat="50.9253858" lon="6.8897288">
      <time>2025-07-16T17:05:04Z</time>
    </trkpt>
    <trkpt lat="50.9253391" lon="6.8897598">
      <time>2025-07-16T17:05:05Z</time>
    </trkpt>
    <trkpt lat="50.9253012" lon="6.8898082">
      <time>2025-07-16T17:05:06Z</time>
    </trkpt>
    <trkpt lat="50.9251985" lon="6.8899522">
      <time>2025-07-16T17:05:09Z</time>
    </trkpt>
    <trkpt lat="50.9250581" lon="6.8901276">
      <time>2025-07-16T17:05:13Z</time>
    </trkpt>
    <trkpt lat="50.9250214" lon="6.8901531">
      <time>2025-07-16T17:05:14Z</time>
    </trkpt>
    <trkpt lat="50.9249871" lon="6.8901706">
      <time>2025-07-16T17:05:15Z</time>
    </trkpt>
    <trkpt lat="50.9249135" lon="6.8901093">
      <time>2025-07-16T17:05:18Z</time>
    </trkpt>
    <trkpt lat="50.9248893" lon="6.8900742">
      <time>2025-07-16T17:05:19Z</time>
    </trkpt>
    <trkpt lat="50.9247814" lon="6.8899023">
      <time>2025-07-16T17:05:23Z</time>
    </trkpt>
    <trkpt lat="50.9247457" lon="6.8897817">
      <time>2025-07-16T17:05:25Z</time>
    </trkpt>
    <trkpt lat="50.9247293" lon="6.8896440">
      <time>2025-07-16T17:05:27Z</time>
    </trkpt>
    <trkpt lat="50.9247167" lon="6.8894319">
      <time>2025-07-16T17:05:30Z</time>
    </trkpt>
    <trkpt lat="50.9246949" lon="6.8892120">
      <time>2025-07-16T17:05:33Z</time>
    </trkpt>
    <trkpt lat="50.9246598" lon="6.8888278">
      <time>2025-07-16T17:05:38Z</time>
    </trkpt>
    <trkpt lat="50.9246165" lon="6.8883427">
      <time>2025-07-16T17:05:44Z</time>
    </trkpt>
    <trkpt lat="50.9246001" lon="6.8881840">
      <time>2025-07-16T17:05:46Z</time>
    </trkpt>
    <trkpt lat="50.9245580" lon="6.8876002">
      <time>2025-07-16T17:05:53Z</time>
    </trkpt>
    <trkpt lat="50.9245316" lon="6.8872879">
      <time>2025-07-16T17:05:57Z</time>
    </trkpt>
    <trkpt lat="50.9245079" lon="6.8868673">
      <time>2025-07-16T17:06:02Z</time>
    </trkpt>
    <trkpt lat="50.9244778" lon="6.8864785">
      <time>2025-07-16T17:06:07Z</time>
    </trkpt>
    <trkpt lat="50.9244498" lon="6.8860831">
      <time>2025-07-16T17:06:12Z</time>
    </trkpt>
    <trkpt lat="50.9244354" lon="6.8860069">
      <time>2025-07-16T17:06:13Z</time>
    </trkpt>
    <trkpt lat="50.9244303" lon="6.8857594">
      <time>2025-07-16T17:06:16Z</time>
    </trkpt>
    <trkpt lat="50.9244334" lon="6.8856695">
      <time>2025-07-16T17:06:17Z</time>
    </trkpt>
    <trkpt lat="50.9244506" lon="6.8852357">
      <time>2025-07-16T17:06:22Z</time>
    </trkpt>
    <trkpt lat="50.9244610" lon="6.8850606">
      <time>2025-07-16T17:06:24Z</time>
    </trkpt>
    <trkpt lat="50.9244917" lon="6.8843586">
      <time>2025-07-16T17:06:32Z</time>
    </trkpt>
    <trkpt lat="50.9245266" lon="6.8836487">
      <time>2025-07-16T17:06:40Z</time>
    </trkpt>
    <trkpt lat="50.9245314" lon="6.8834785">
      <time>2025-07-16T17:06:42Z</time>
    </trkpt>
    <trkpt lat="50.9245691" lon="6.8827601">
      <time>2025-07-16T17:06:50Z</time>
    </trkpt>
    <trkpt lat="50.9246110" lon="6.8819372">
      <time>2025-07-16T17:06:59Z</time>
    </trkpt>
    <trkpt lat="50.9246468" lon="6.8813323">
      <time>2025-07-16T17:07:06Z</time>
    </trkpt>
    <trkpt lat="50.9246508" lon="6.8812444">
      <time>2025-07-16T17:07:07Z</time>
    </trkpt>
    <trkpt lat="50.9246720" lon="6.8808421">
      <time>2025-07-16T17:07:12Z</time>
    </trkpt>
    <trkpt lat="50.9246778" lon="6.8806786">
      <time>2025-07-16T17:07:14Z</time>
    </trkpt>
    <trkpt lat="50.9247001" lon="6.8802625">
      <time>2025-07-16T17:07:20Z</time>
    </trkpt>
    <trkpt lat="50.9246784" lon="6.8802530">
      <time>2025-07-16T17:07:21Z</time>
    </trkpt>
    <trkpt lat="50.9246285" lon="6.8802703">
      <time>2025-07-16T17:07:23Z</time>
    </trkpt>
    <trkpt lat="50.9245991" lon="6.8802418">
      <time>2025-07-16T17:07:24Z</time>
    </trkpt>
    <trkpt lat="50.9245900" lon="6.8801293">
      <time>2025-07-16T17:07:26Z</time>
    </trkpt>
    <trkpt lat="50.9245941" lon="6.8800606">
      <time>2025-07-16T17:07:27Z</time>
    </trkpt>
    <trkpt lat="50.9245999" lon="6.8798994">
      <time>2025-07-16T17:07:29Z</time>
    </trkpt>
    <trkpt lat="50.9246064" lon="6.8798093">
      <time>2025-07-16T17:07:30Z</time>
    </trkpt>
    <trkpt lat="50.9246063" lon="6.8793294">
      <time>2025-07-16T17:07:35Z</time>
    </trkpt>
    <trkpt lat="50.9246176" lon="6.8792159">
      <time>2025-07-16T17:07:36Z</time>
    </trkpt>
    <trkpt lat="50.9246227" lon="6.8789175">
      <time>2025-07-16T17:07:39Z</time>
    </trkpt>
    <trkpt lat="50.9245839" lon="6.8784208">
      <time>2025-07-16T17:07:44Z</time>
    </trkpt>
    <trkpt lat="50.9245710" lon="6.8783253">
      <time>2025-07-16T17:07:45Z</time>
    </trkpt>
    <trkpt lat="50.9245306" lon="6.8781288">
      <time>2025-07-16T17:07:47Z</time>
    </trkpt>
    <trkpt lat="50.9244649" lon="6.8778421">
      <time>2025-07-16T17:07:50Z</time>
    </trkpt>
    <trkpt lat="50.9244288" lon="6.8776571">
      <time>2025-07-16T17:07:52Z</time>
    </trkpt>
    <trkpt lat="50.9243908" lon="6.8774751">
      <time>2025-07-16T17:07:54Z</time>
    </trkpt>
    <trkpt lat="50.9243158" lon="6.8770390">
      <time>2025-07-16T17:07:59Z</time>
    </trkpt>
    <trkpt lat="50.9242903" lon="6.8768771">
      <time>2025-07-16T17:08:01Z</time>
    </trkpt>
    <trkpt lat="50.9242689" lon="6.8768080">
      <time>2025-07-16T17:08:02Z</time>
    </trkpt>
    <trkpt lat="50.9242196" lon="6.8766735">
      <time>2025-07-16T17:08:04Z</time>
    </trkpt>
    <trkpt lat="50.9241811" lon="6.8765281">
      <time>2025-07-16T17:08:06Z</time>
    </trkpt>
    <trkpt lat="50.9241251" lon="6.8762509">
      <time>2025-07-16T17:08:10Z</time>
    </trkpt>
    <trkpt lat="50.9240793" lon="6.8760717">
      <time>2025-07-16T17:08:13Z</time>
    </trkpt>
    <trkpt lat="50.9240594" lon="6.8758939">
      <time>2025-07-16T17:08:16Z</time>
    </trkpt>
    <trkpt lat="50.9240365" lon="6.8756986">
      <time>2025-07-16T17:08:19Z</time>
    </trkpt>
    <trkpt lat="50.9240013" lon="6.8755617">
      <time>2025-07-16T17:08:21Z</time>
    </trkpt>
    <trkpt lat="50.9239177" lon="6.8751603">
      <time>2025-07-16T17:08:26Z</time>
    </trkpt>
    <trkpt lat="50.9238781" lon="6.8748927">
      <time>2025-07-16T17:08:29Z</time>
    </trkpt>
    <trkpt lat="50.9238601" lon="6.8748108">
      <time>2025-07-16T17:08:30Z</time>
    </trkpt>
    <trkpt lat="50.9238408" lon="6.8747253">
      <time>2025-07-16T17:08:31Z</time>
    </trkpt>
    <trkpt lat="50.9238105" lon="6.8745526">
      <time>2025-07-16T17:08:33Z</time>
    </trkpt>
    <trkpt lat="50.9237352" lon="6.8741893">
      <time>2025-07-16T17:08:37Z</time>
    </trkpt>
    <trkpt lat="50.9236294" lon="6.8736660">
      <time>2025-07-16T17:08:43Z</time>
    </trkpt>
    <trkpt lat="50.9235921" lon="6.8734873">
      <time>2025-07-16T17:08:45Z</time>
    </trkpt>
    <trkpt lat="50.9235564" lon="6.8733099">
      <time>2025-07-16T17:08:47Z</time>
    </trkpt>
    <trkpt lat="50.9234104" lon="6.8726060">
      <time>2025-07-16T17:08:55Z</time>
    </trkpt>
    <trkpt lat="50.9232714" lon="6.8718927">
      <time>2025-07-16T17:09:03Z</time>
    </trkpt>
    <trkpt lat="50.9231026" lon="6.8710629">
      <time>2025-07-16T17:09:12Z</time>
    </trkpt>
    <trkpt lat="50.9229270" lon="6.8702130">
      <time>2025-07-16T17:09:21Z</time>
    </trkpt>
    <trkpt lat="50.9228890" lon="6.8700286">
      <time>2025-07-16T17:09:23Z</time>
    </trkpt>
    <trkpt lat="50.9227618" lon="6.8693979">
      <time>2025-07-16T17:09:30Z</time>
    </trkpt>
    <trkpt lat="50.9226087" lon="6.8686024">
      <time>2025-07-16T17:09:39Z</time>
    </trkpt>
    <trkpt lat="50.9225545" lon="6.8683477">
      <time>2025-07-16T17:09:42Z</time>
    </trkpt>
    <trkpt lat="50.9225181" lon="6.8681600">
      <time>2025-07-16T17:09:44Z</time>
    </trkpt>
    <trkpt lat="50.9224982" lon="6.8680621">
      <time>2025-07-16T17:09:45Z</time>
    </trkpt>
    <trkpt lat="50.9224638" lon="6.8678794">
      <time>2025-07-16T17:09:47Z</time>
    </trkpt>
    <trkpt lat="50.9223901" lon="6.8675275">
      <time>2025-07-16T17:09:51Z</time>
    </trkpt>
    <trkpt lat="50.9223567" lon="6.8673546">
      <time>2025-07-16T17:09:53Z</time>
    </trkpt>
    <trkpt lat="50.9222119" lon="6.8666747">
      <time>2025-07-16T17:10:01Z</time>
    </trkpt>
    <trkpt lat="50.9221725" lon="6.8665036">
      <time>2025-07-16T17:10:03Z</time>
    </trkpt>
    <trkpt lat="50.9221537" lon="6.8664133">
      <time>2025-07-16T17:10:04Z</time>
    </trkpt>
    <trkpt lat="50.9221106" lon="6.8662294">
      <time>2025-07-16T17:10:06Z</time>
    </trkpt>
    <trkpt lat="50.9220978" lon="6.8661434">
      <time>2025-07-16T17:10:07Z</time>
    </trkpt>
    <trkpt lat="50.9219654" lon="6.8655095">
      <time>2025-07-16T17:10:14Z</time>
    </trkpt>
    <trkpt lat="50.9219060" lon="6.8652314">
      <time>2025-07-16T17:10:17Z</time>
    </trkpt>
    <trkpt lat="50.9217945" lon="6.8646613">
      <time>2025-07-16T17:10:23Z</time>
    </trkpt>
    <trkpt lat="50.9216662" lon="6.8640225">
      <time>2025-07-16T17:10:30Z</time>
    </trkpt>
    <trkpt lat="50.9215045" lon="6.8632126">
      <time>2025-07-16T17:10:39Z</time>
    </trkpt>
    <trkpt lat="50.9213260" lon="6.8623583">
      <time>2025-07-16T17:10:48Z</time>
    </trkpt>
    <trkpt lat="50.9212880" lon="6.8621727">
      <time>2025-07-16T17:10:50Z</time>
    </trkpt>
    <trkpt lat="50.9211260" lon="6.8613775">
      <time>2025-07-16T17:10:59Z</time>
    </trkpt>
    <trkpt lat="50.9209848" lon="6.8606575">
      <time>2025-07-16T17:11:07Z</time>
    </trkpt>
    <trkpt lat="50.9208374" lon="6.8598587">
      <time>2025-07-16T17:11:16Z</time>
    </trkpt>
    <trkpt lat="50.9206759" lon="6.8591008">
      <time>2025-07-16T17:11:24Z</time>
    </trkpt>
    <trkpt lat="50.9206073" lon="6.8587399">
      <time>2025-07-16T17:11:28Z</time>
    </trkpt>
    <trkpt lat="50.9205990" lon="6.8585492">
      <time>2025-07-16T17:11:30Z</time>
    </trkpt>
    <trkpt lat="50.9205869" lon="6.8584581">
      <time>2025-07-16T17:11:31Z</time>
    </trkpt>
    <trkpt lat="50.9205152" lon="6.8581089">
      <time>2025-07-16T17:11:35Z</time>
    </trkpt>
    <trkpt lat="50.9203782" lon="6.8574111">
      <time>2025-07-16T17:11:43Z</time>
    </trkpt>
    <trkpt lat="50.9203576" lon="6.8573401">
      <time>2025-07-16T17:11:44Z</time>
    </trkpt>
    <trkpt lat="50.9203000" lon="6.8571382">
      <time>2025-07-16T17:11:47Z</time>
    </trkpt>
    <trkpt lat="50.9202487" lon="6.8570268">
      <time>2025-07-16T17:11:49Z</time>
    </trkpt>
    <trkpt lat="50.9202178" lon="6.8569694">
      <time>2025-07-16T17:11:51Z</time>
    </trkpt>
    <trkpt lat="50.9202147" lon="6.8569298">
      <time>2025-07-16T17:11:52Z</time>
    </trkpt>
    <trkpt lat="50.9201904" lon="6.8567125">
      <time>2025-07-16T17:11:56Z</time>
    </trkpt>
    <trkpt lat="50.9201413" lon="6.8565742">
      <time>2025-07-16T17:11:58Z</time>
    </trkpt>
    <trkpt lat="50.9201340" lon="6.8564202">
      <time>2025-07-16T17:12:00Z</time>
    </trkpt>
    <trkpt lat="50.9201203" lon="6.8562637">
      <time>2025-07-16T17:12:02Z</time>
    </trkpt>
    <trkpt lat="50.9200738" lon="6.8560406">
      <time>2025-07-16T17:12:05Z</time>
    </trkpt>
    <trkpt lat="50.9199836" lon="6.8555694">
      <time>2025-07-16T17:12:11Z</time>
    </trkpt>
    <trkpt lat="50.9199526" lon="6.8554166">
      <time>2025-07-16T17:12:13Z</time>
    </trkpt>
    <trkpt lat="50.9198534" lon="6.8549397">
      <time>2025-07-16T17:12:19Z</time>
    </trkpt>
    <trkpt lat="50.9197656" lon="6.8544437">
      <time>2025-07-16T17:12:25Z</time>
    </trkpt>
    <trkpt lat="50.9197563" lon="6.8543643">
      <time>2025-07-16T17:12:26Z</time>
    </trkpt>
    <trkpt lat="50.9197397" lon="6.8542878">
      <time>2025-07-16T17:12:27Z</time>
    </trkpt>
    <trkpt lat="50.9196768" lon="6.8540499">
      <time>2025-07-16T17:12:30Z</time>
    </trkpt>
    <trkpt lat="50.9196583" lon="6.8539765">
      <time>2025-07-16T17:12:31Z</time>
    </trkpt>
    <trkpt lat="50.9195774" lon="6.8535302">
      <time>2025-07-16T17:12:37Z</time>
    </trkpt>
    <trkpt lat="50.9194474" lon="6.8528995">
      <time>2025-07-16T17:12:45Z</time>
    </trkpt>
    <trkpt lat="50.9194312" lon="6.8528205">
      <time>2025-07-16T17:12:46Z</time>
    </trkpt>
    <trkpt lat="50.9193184" lon="6.8522458">
      <time>2025-07-16T17:12:53Z</time>
    </trkpt>
    <trkpt lat="50.9192507" lon="6.8519639">
      <time>2025-07-16T17:12:57Z</time>
    </trkpt>
    <trkpt lat="50.9192202" lon="6.8518449">
      <time>2025-07-16T17:12:59Z</time>
    </trkpt>
    <trkpt lat="50.9191455" lon="6.8515961">
      <time>2025-07-16T17:13:05Z</time>
    </trkpt>
    <trkpt lat="50.9190258" lon="6.8516488">
      <time>2025-07-16T17:13:10Z</time>
    </trkpt>
    <trkpt lat="50.9188870" lon="6.8517119">
      <time>2025-07-16T17:13:15Z</time>
    </trkpt>
    <trkpt lat="50.9188808" lon="6.8517209">
      <time>2025-07-16T17:13:16Z</time>
    </trkpt>
    <trkpt lat="50.9188793" lon="6.8517330">
      <time>2025-07-16T17:13:17Z</time>
    </trkpt>
    <trkpt lat="50.9190528" lon="6.8516425">
      <time>2025-07-16T17:57:26Z</time>
    </trkpt>
    <trkpt lat="50.9190478" lon="6.8516356">
      <time>2025-07-16T17:57:27Z</time>
    </trkpt>
    <trkpt lat="50.9190601" lon="6.8516120">
      <time>2025-07-16T17:57:29Z</time>
    </trkpt>
    <trkpt lat="50.9191173" lon="6.8515607">
      <time>2025-07-16T17:57:31Z</time>
    </trkpt>
    <trkpt lat="50.9191869" lon="6.8515504">
      <time>2025-07-16T17:57:33Z</time>
    </trkpt>
    <trkpt lat="50.9192075" lon="6.8516059">
      <time>2025-07-16T17:57:34Z</time>
    </trkpt>
    <trkpt lat="50.9192332" lon="6.8517463">
      <time>2025-07-16T17:57:36Z</time>
    </trkpt>
    <trkpt lat="50.9193260" lon="6.8521122">
      <time>2025-07-16T17:57:41Z</time>
    </trkpt>
    <trkpt lat="50.9194511" lon="6.8526361">
      <time>2025-07-16T17:57:48Z</time>
    </trkpt>
    <trkpt lat="50.9195692" lon="6.8531812">
      <time>2025-07-16T17:57:55Z</time>
    </trkpt>
    <trkpt lat="50.9196324" lon="6.8534910">
      <time>2025-07-16T17:57:59Z</time>
    </trkpt>
    <trkpt lat="50.9196471" lon="6.8535702">
      <time>2025-07-16T17:58:00Z</time>
    </trkpt>
    <trkpt lat="50.9196600" lon="6.8536511">
      <time>2025-07-16T17:58:01Z</time>
    </trkpt>
    <trkpt lat="50.9196693" lon="6.8537317">
      <time>2025-07-16T17:58:02Z</time>
    </trkpt>
    <trkpt lat="50.9196736" lon="6.8538136">
      <time>2025-07-16T17:58:03Z</time>
    </trkpt>
    <trkpt lat="50.9196819" lon="6.8538906">
      <time>2025-07-16T17:58:04Z</time>
    </trkpt>
    <trkpt lat="50.9197348" lon="6.8541281">
      <time>2025-07-16T17:58:07Z</time>
    </trkpt>
    <trkpt lat="50.9197728" lon="6.8542799">
      <time>2025-07-16T17:58:09Z</time>
    </trkpt>
    <trkpt lat="50.9198038" lon="6.8544326">
      <time>2025-07-16T17:58:11Z</time>
    </trkpt>
    <trkpt lat="50.9198733" lon="6.8548216">
      <time>2025-07-16T17:58:16Z</time>
    </trkpt>
    <trkpt lat="50.9199773" lon="6.8553799">
      <time>2025-07-16T17:58:23Z</time>
    </trkpt>
    <trkpt lat="50.9199936" lon="6.8554542">
      <time>2025-07-16T17:58:24Z</time>
    </trkpt>
    <trkpt lat="50.9201156" lon="6.8560108">
      <time>2025-07-16T17:58:31Z</time>
    </trkpt>
    <trkpt lat="50.9202058" lon="6.8565593">
      <time>2025-07-16T17:58:38Z</time>
    </trkpt>
    <trkpt lat="50.9202424" lon="6.8568755">
      <time>2025-07-16T17:58:42Z</time>
    </trkpt>
    <trkpt lat="50.9202715" lon="6.8570129">
      <time>2025-07-16T17:58:44Z</time>
    </trkpt>
    <trkpt lat="50.9203240" lon="6.8571447">
      <time>2025-07-16T17:58:46Z</time>
    </trkpt>
    <trkpt lat="50.9203675" lon="6.8573161">
      <time>2025-07-16T17:58:48Z</time>
    </trkpt>
    <trkpt lat="50.9205177" lon="6.8579785">
      <time>2025-07-16T17:58:55Z</time>
    </trkpt>
    <trkpt lat="50.9205374" lon="6.8580785">
      <time>2025-07-16T17:58:56Z</time>
    </trkpt>
    <trkpt lat="50.9206255" lon="6.8585473">
      <time>2025-07-16T17:59:01Z</time>
    </trkpt>
    <trkpt lat="50.9206311" lon="6.8586442">
      <time>2025-07-16T17:59:02Z</time>
    </trkpt>
    <trkpt lat="50.9207238" lon="6.8591811">
      <time>2025-07-16T17:59:08Z</time>
    </trkpt>
    <trkpt lat="50.9207587" lon="6.8593493">
      <time>2025-07-16T17:59:10Z</time>
    </trkpt>
    <trkpt lat="50.9208057" lon="6.8596059">
      <time>2025-07-16T17:59:13Z</time>
    </trkpt>
    <trkpt lat="50.9208244" lon="6.8596973">
      <time>2025-07-16T17:59:14Z</time>
    </trkpt>
    <trkpt lat="50.9208436" lon="6.8597945">
      <time>2025-07-16T17:59:15Z</time>
    </trkpt>
    <trkpt lat="50.9209636" lon="6.8604354">
      <time>2025-07-16T17:59:22Z</time>
    </trkpt>
    <trkpt lat="50.9211238" lon="6.8612441">
      <time>2025-07-16T17:59:31Z</time>
    </trkpt>
    <trkpt lat="50.9213059" lon="6.8621472">
      <time>2025-07-16T17:59:41Z</time>
    </trkpt>
    <trkpt lat="50.9214413" lon="6.8627960">
      <time>2025-07-16T17:59:48Z</time>
    </trkpt>
    <trkpt lat="50.9214590" lon="6.8628844">
      <time>2025-07-16T17:59:49Z</time>
    </trkpt>
    <trkpt lat="50.9215994" lon="6.8636117">
      <time>2025-07-16T17:59:57Z</time>
    </trkpt>
    <trkpt lat="50.9217173" lon="6.8641447">
      <time>2025-07-16T18:00:03Z</time>
    </trkpt>
    <trkpt lat="50.9218235" lon="6.8646937">
      <time>2025-07-16T18:00:09Z</time>
    </trkpt>
    <trkpt lat="50.9219492" lon="6.8653102">
      <time>2025-07-16T18:00:16Z</time>
    </trkpt>
    <trkpt lat="50.9219915" lon="6.8654839">
      <time>2025-07-16T18:00:18Z</time>
    </trkpt>
    <trkpt lat="50.9220665" lon="6.8658347">
      <time>2025-07-16T18:00:22Z</time>
    </trkpt>
    <trkpt lat="50.9221645" lon="6.8662989">
      <time>2025-07-16T18:00:27Z</time>
    </trkpt>
    <trkpt lat="50.9223071" lon="6.8670507">
      <time>2025-07-16T18:00:35Z</time>
    </trkpt>
    <trkpt lat="50.9224856" lon="6.8679528">
      <time>2025-07-16T18:00:44Z</time>
    </trkpt>
    <trkpt lat="50.9226131" lon="6.8685510">
      <time>2025-07-16T18:00:50Z</time>
    </trkpt>
    <trkpt lat="50.9227304" lon="6.8691462">
      <time>2025-07-16T18:00:56Z</time>
    </trkpt>
    <trkpt lat="50.9228671" lon="6.8698489">
      <time>2025-07-16T18:01:03Z</time>
    </trkpt>
    <trkpt lat="50.9229986" lon="6.8705083">
      <time>2025-07-16T18:01:10Z</time>
    </trkpt>
    <trkpt lat="50.9231410" lon="6.8711748">
      <time>2025-07-16T18:01:17Z</time>
    </trkpt>
    <trkpt lat="50.9231626" lon="6.8712608">
      <time>2025-07-16T18:01:18Z</time>
    </trkpt>
    <trkpt lat="50.9232687" lon="6.8718000">
      <time>2025-07-16T18:01:24Z</time>
    </trkpt>
    <trkpt lat="50.9233806" lon="6.8723687">
      <time>2025-07-16T18:01:30Z</time>
    </trkpt>
    <trkpt lat="50.9235241" lon="6.8730552">
      <time>2025-07-16T18:01:37Z</time>
    </trkpt>
    <trkpt lat="50.9235804" lon="6.8733358">
      <time>2025-07-16T18:01:40Z</time>
    </trkpt>
    <trkpt lat="50.9236196" lon="6.8735312">
      <time>2025-07-16T18:01:42Z</time>
    </trkpt>
    <trkpt lat="50.9237522" lon="6.8741359">
      <time>2025-07-16T18:01:48Z</time>
    </trkpt>
    <trkpt lat="50.9238008" lon="6.8743415">
      <time>2025-07-16T18:01:50Z</time>
    </trkpt>
    <trkpt lat="50.9238627" lon="6.8746604">
      <time>2025-07-16T18:01:53Z</time>
    </trkpt>
    <trkpt lat="50.9238889" lon="6.8747643">
      <time>2025-07-16T18:01:54Z</time>
    </trkpt>
    <trkpt lat="50.9240382" lon="6.8754778">
      <time>2025-07-16T18:02:01Z</time>
    </trkpt>
    <trkpt lat="50.9240880" lon="6.8757317">
      <time>2025-07-16T18:02:05Z</time>
    </trkpt>
    <trkpt lat="50.9240630" lon="6.8757940">
      <time>2025-07-16T18:02:10Z</time>
    </trkpt>
    <trkpt lat="50.9240617" lon="6.8757977">
      <time>2025-07-16T18:02:11Z</time>
    </trkpt>
    <trkpt lat="50.9240686" lon="6.8758866">
      <time>2025-07-16T18:02:26Z</time>
    </trkpt>
    <trkpt lat="50.9240802" lon="6.8759363">
      <time>2025-07-16T18:02:27Z</time>
    </trkpt>
    <trkpt lat="50.9241688" lon="6.8762306">
      <time>2025-07-16T18:02:33Z</time>
    </trkpt>
    <trkpt lat="50.9241907" lon="6.8763639">
      <time>2025-07-16T18:02:35Z</time>
    </trkpt>
    <trkpt lat="50.9242339" lon="6.8765735">
      <time>2025-07-16T18:02:38Z</time>
    </trkpt>
    <trkpt lat="50.9243078" lon="6.8768549">
      <time>2025-07-16T18:02:42Z</time>
    </trkpt>
    <trkpt lat="50.9243251" lon="6.8769375">
      <time>2025-07-16T18:02:43Z</time>
    </trkpt>
    <trkpt lat="50.9244447" lon="6.8774486">
      <time>2025-07-16T18:02:49Z</time>
    </trkpt>
    <trkpt lat="50.9245096" lon="6.8777131">
      <time>2025-07-16T18:02:52Z</time>
    </trkpt>
    <trkpt lat="50.9245672" lon="6.8779764">
      <time>2025-07-16T18:02:55Z</time>
    </trkpt>
    <trkpt lat="50.9246713" lon="6.8786834">
      <time>2025-07-16T18:03:03Z</time>
    </trkpt>
    <trkpt lat="50.9246820" lon="6.8790588">
      <time>2025-07-16T18:03:07Z</time>
    </trkpt>
    <trkpt lat="50.9246794" lon="6.8792471">
      <time>2025-07-16T18:03:09Z</time>
    </trkpt>
    <trkpt lat="50.9246624" lon="6.8797771">
      <time>2025-07-16T18:03:15Z</time>
    </trkpt>
    <trkpt lat="50.9245996" lon="6.8805169">
      <time>2025-07-16T18:03:23Z</time>
    </trkpt>
    <trkpt lat="50.9245906" lon="6.8807052">
      <time>2025-07-16T18:03:25Z</time>
    </trkpt>
    <trkpt lat="50.9245804" lon="6.8810937">
      <time>2025-07-16T18:03:29Z</time>
    </trkpt>
    <trkpt lat="50.9245314" lon="6.8819069">
      <time>2025-07-16T18:03:37Z</time>
    </trkpt>
    <trkpt lat="50.9245098" lon="6.8822012">
      <time>2025-07-16T18:03:40Z</time>
    </trkpt>
    <trkpt lat="50.9245030" lon="6.8824038">
      <time>2025-07-16T18:03:42Z</time>
    </trkpt>
    <trkpt lat="50.9244697" lon="6.8829873">
      <time>2025-07-16T18:03:48Z</time>
    </trkpt>
    <trkpt lat="50.9244581" lon="6.8831890">
      <time>2025-07-16T18:03:50Z</time>
    </trkpt>
    <trkpt lat="50.9244478" lon="6.8833815">
      <time>2025-07-16T18:03:52Z</time>
    </trkpt>
    <trkpt lat="50.9244390" lon="6.8835745">
      <time>2025-07-16T18:03:54Z</time>
    </trkpt>
    <trkpt lat="50.9244348" lon="6.8836680">
      <time>2025-07-16T18:03:55Z</time>
    </trkpt>
    <trkpt lat="50.9244346" lon="6.8838621">
      <time>2025-07-16T18:03:57Z</time>
    </trkpt>
    <trkpt lat="50.9244330" lon="6.8840556">
      <time>2025-07-16T18:03:59Z</time>
    </trkpt>
    <trkpt lat="50.9244246" lon="6.8843412">
      <time>2025-07-16T18:04:02Z</time>
    </trkpt>
    <trkpt lat="50.9243953" lon="6.8850128">
      <time>2025-07-16T18:04:09Z</time>
    </trkpt>
    <trkpt lat="50.9243547" lon="6.8858644">
      <time>2025-07-16T18:04:18Z</time>
    </trkpt>
    <trkpt lat="50.9243781" lon="6.8863730">
      <time>2025-07-16T18:04:23Z</time>
    </trkpt>
    <trkpt lat="50.9243958" lon="6.8865870">
      <time>2025-07-16T18:04:25Z</time>
    </trkpt>
    <trkpt lat="50.9244406" lon="6.8873519">
      <time>2025-07-16T18:04:32Z</time>
    </trkpt>
    <trkpt lat="50.9244789" lon="6.8881125">
      <time>2025-07-16T18:04:39Z</time>
    </trkpt>
    <trkpt lat="50.9245126" lon="6.8885319">
      <time>2025-07-16T18:04:43Z</time>
    </trkpt>
    <trkpt lat="50.9245372" lon="6.8888453">
      <time>2025-07-16T18:04:46Z</time>
    </trkpt>
    <trkpt lat="50.9245812" lon="6.8895115">
      <time>2025-07-16T18:04:53Z</time>
    </trkpt>
    <trkpt lat="50.9245870" lon="6.8896098">
      <time>2025-07-16T18:04:54Z</time>
    </trkpt>
    <trkpt lat="50.9245964" lon="6.8897999">
      <time>2025-07-16T18:04:56Z</time>
    </trkpt>
    <trkpt lat="50.9246028" lon="6.8900037">
      <time>2025-07-16T18:04:59Z</time>
    </trkpt>
    <trkpt lat="50.9246025" lon="6.8901572">
      <time>2025-07-16T18:05:05Z</time>
    </trkpt>
    <trkpt lat="50.9245956" lon="6.8902078">
      <time>2025-07-16T18:05:10Z</time>
    </trkpt>
    <trkpt lat="50.9246211" lon="6.8902207">
      <time>2025-07-16T18:05:48Z</time>
    </trkpt>
    <trkpt lat="50.9246774" lon="6.8902286">
      <time>2025-07-16T18:05:50Z</time>
    </trkpt>
    <trkpt lat="50.9248449" lon="6.8901816">
      <time>2025-07-16T18:05:54Z</time>
    </trkpt>
    <trkpt lat="50.9249864" lon="6.8901297">
      <time>2025-07-16T18:05:57Z</time>
    </trkpt>
    <trkpt lat="50.9250741" lon="6.8900596">
      <time>2025-07-16T18:05:59Z</time>
    </trkpt>
    <trkpt lat="50.9252526" lon="6.8897902">
      <time>2025-07-16T18:06:04Z</time>
    </trkpt>
    <trkpt lat="50.9253337" lon="6.8896964">
      <time>2025-07-16T18:06:06Z</time>
    </trkpt>
    <trkpt lat="50.9254295" lon="6.8896548">
      <time>2025-07-16T18:06:08Z</time>
    </trkpt>
    <trkpt lat="50.9257888" lon="6.8895150">
      <time>2025-07-16T18:06:15Z</time>
    </trkpt>
    <trkpt lat="50.9262013" lon="6.8893721">
      <time>2025-07-16T18:06:23Z</time>
    </trkpt>
    <trkpt lat="50.9264071" lon="6.8893052">
      <time>2025-07-16T18:06:27Z</time>
    </trkpt>
    <trkpt lat="50.9265626" lon="6.8892384">
      <time>2025-07-16T18:06:30Z</time>
    </trkpt>
    <trkpt lat="50.9269815" lon="6.8890559">
      <time>2025-07-16T18:06:38Z</time>
    </trkpt>
    <trkpt lat="50.9270316" lon="6.8890244">
      <time>2025-07-16T18:06:39Z</time>
    </trkpt>
    <trkpt lat="50.9271831" lon="6.8889571">
      <time>2025-07-16T18:06:42Z</time>
    </trkpt>
    <trkpt lat="50.9272902" lon="6.8889057">
      <time>2025-07-16T18:06:44Z</time>
    </trkpt>
    <trkpt lat="50.9273434" lon="6.8888828">
      <time>2025-07-16T18:06:45Z</time>
    </trkpt>
    <trkpt lat="50.9274006" lon="6.8888599">
      <time>2025-07-16T18:06:46Z</time>
    </trkpt>
    <trkpt lat="50.9274562" lon="6.8888359">
      <time>2025-07-16T18:06:47Z</time>
    </trkpt>
    <trkpt lat="50.9275076" lon="6.8888131">
      <time>2025-07-16T18:06:48Z</time>
    </trkpt>
    <trkpt lat="50.9275591" lon="6.8887852">
      <time>2025-07-16T18:06:49Z</time>
    </trkpt>
    <trkpt lat="50.9276112" lon="6.8887552">
      <time>2025-07-16T18:06:50Z</time>
    </trkpt>
    <trkpt lat="50.9279323" lon="6.8885835">
      <time>2025-07-16T18:06:56Z</time>
    </trkpt>
    <trkpt lat="50.9279879" lon="6.8885725">
      <time>2025-07-16T18:06:57Z</time>
    </trkpt>
    <trkpt lat="50.9281459" lon="6.8885262">
      <time>2025-07-16T18:07:00Z</time>
    </trkpt>
    <trkpt lat="50.9282006" lon="6.8884978">
      <time>2025-07-16T18:07:01Z</time>
    </trkpt>
    <trkpt lat="50.9284576" lon="6.8883415">
      <time>2025-07-16T18:07:06Z</time>
    </trkpt>
    <trkpt lat="50.9288340" lon="6.8881489">
      <time>2025-07-16T18:07:13Z</time>
    </trkpt>
    <trkpt lat="50.9291305" lon="6.8880356">
      <time>2025-07-16T18:07:18Z</time>
    </trkpt>
    <trkpt lat="50.9292541" lon="6.8879796">
      <time>2025-07-16T18:07:20Z</time>
    </trkpt>
    <trkpt lat="50.9296679" lon="6.8877560">
      <time>2025-07-16T18:07:27Z</time>
    </trkpt>
    <trkpt lat="50.9299572" lon="6.8876066">
      <time>2025-07-16T18:07:31Z</time>
    </trkpt>
    <trkpt lat="50.9301015" lon="6.8875337">
      <time>2025-07-16T18:07:33Z</time>
    </trkpt>
    <trkpt lat="50.9303770" lon="6.8873938">
      <time>2025-07-16T18:07:37Z</time>
    </trkpt>
    <trkpt lat="50.9304439" lon="6.8873750">
      <time>2025-07-16T18:07:38Z</time>
    </trkpt>
    <trkpt lat="50.9305127" lon="6.8873653">
      <time>2025-07-16T18:07:39Z</time>
    </trkpt>
    <trkpt lat="50.9306482" lon="6.8873403">
      <time>2025-07-16T18:07:41Z</time>
    </trkpt>
    <trkpt lat="50.9308391" lon="6.8873124">
      <time>2025-07-16T18:07:44Z</time>
    </trkpt>
    <trkpt lat="50.9309027" lon="6.8872984">
      <time>2025-07-16T18:07:45Z</time>
    </trkpt>
    <trkpt lat="50.9311643" lon="6.8872610">
      <time>2025-07-16T18:07:49Z</time>
    </trkpt>
    <trkpt lat="50.9312822" lon="6.8872384">
      <time>2025-07-16T18:07:51Z</time>
    </trkpt>
    <trkpt lat="50.9313406" lon="6.8872130">
      <time>2025-07-16T18:07:52Z</time>
    </trkpt>
    <trkpt lat="50.9313971" lon="6.8871904">
      <time>2025-07-16T18:07:53Z</time>
    </trkpt>
    <trkpt lat="50.9315737" lon="6.8871043">
      <time>2025-07-16T18:07:56Z</time>
    </trkpt>
    <trkpt lat="50.9316339" lon="6.8870787">
      <time>2025-07-16T18:07:57Z</time>
    </trkpt>
    <trkpt lat="50.9317445" lon="6.8870354">
      <time>2025-07-16T18:07:59Z</time>
    </trkpt>
    <trkpt lat="50.9318991" lon="6.8869727">
      <time>2025-07-16T18:08:02Z</time>
    </trkpt>
    <trkpt lat="50.9320056" lon="6.8869381">
      <time>2025-07-16T18:08:04Z</time>
    </trkpt>
    <trkpt lat="50.9320544" lon="6.8869120">
      <time>2025-07-16T18:08:05Z</time>
    </trkpt>
    <trkpt lat="50.9321061" lon="6.8868718">
      <time>2025-07-16T18:08:06Z</time>
    </trkpt>
    <trkpt lat="50.9323602" lon="6.8867082">
      <time>2025-07-16T18:08:11Z</time>
    </trkpt>
    <trkpt lat="50.9325677" lon="6.8866001">
      <time>2025-07-16T18:08:15Z</time>
    </trkpt>
    <trkpt lat="50.9326188" lon="6.8865833">
      <time>2025-07-16T18:08:16Z</time>
    </trkpt>
    <trkpt lat="50.9328388" lon="6.8865279">
      <time>2025-07-16T18:08:20Z</time>
    </trkpt>
    <trkpt lat="50.9329401" lon="6.8864993">
      <time>2025-07-16T18:08:22Z</time>
    </trkpt>
    <trkpt lat="50.9331745" lon="6.8864399">
      <time>2025-07-16T18:08:26Z</time>
    </trkpt>
    <trkpt lat="50.9332383" lon="6.8864240">
      <time>2025-07-16T18:08:27Z</time>
    </trkpt>
    <trkpt lat="50.9334431" lon="6.8863682">
      <time>2025-07-16T18:08:30Z</time>
    </trkpt>
    <trkpt lat="50.9335777" lon="6.8863401">
      <time>2025-07-16T18:08:32Z</time>
    </trkpt>
    <trkpt lat="50.9336933" lon="6.8862992">
      <time>2025-07-16T18:08:34Z</time>
    </trkpt>
    <trkpt lat="50.9337586" lon="6.8862773">
      <time>2025-07-16T18:08:36Z</time>
    </trkpt>
    <trkpt lat="50.9338057" lon="6.8862464">
      <time>2025-07-16T18:08:38Z</time>
    </trkpt>
    <trkpt lat="50.9338720" lon="6.8862249">
      <time>2025-07-16T18:08:41Z</time>
    </trkpt>
    <trkpt lat="50.9339577" lon="6.8861952">
      <time>2025-07-16T18:08:46Z</time>
    </trkpt>
    <trkpt lat="50.9340218" lon="6.8861645">
      <time>2025-07-16T18:08:52Z</time>
    </trkpt>
    <trkpt lat="50.9340245" lon="6.8861593">
      <time>2025-07-16T18:08:54Z</time>
    </trkpt>
    <trkpt lat="50.9340449" lon="6.8861659">
      <time>2025-07-16T18:09:10Z</time>
    </trkpt>
    <trkpt lat="50.9340705" lon="6.8861419">
      <time>2025-07-16T18:09:11Z</time>
    </trkpt>
    <trkpt lat="50.9341013" lon="6.8861086">
      <time>2025-07-16T18:09:12Z</time>
    </trkpt>
    <trkpt lat="50.9342561" lon="6.8859832">
      <time>2025-07-16T18:09:16Z</time>
    </trkpt>
    <trkpt lat="50.9344485" lon="6.8857831">
      <time>2025-07-16T18:09:20Z</time>
    </trkpt>
    <trkpt lat="50.9344977" lon="6.8857306">
      <time>2025-07-16T18:09:21Z</time>
    </trkpt>
    <trkpt lat="50.9345477" lon="6.8856856">
      <time>2025-07-16T18:09:22Z</time>
    </trkpt>
    <trkpt lat="50.9347651" lon="6.8854143">
      <time>2025-07-16T18:09:27Z</time>
    </trkpt>
    <trkpt lat="50.9349888" lon="6.8851507">
      <time>2025-07-16T18:09:32Z</time>
    </trkpt>
    <trkpt lat="50.9351672" lon="6.8849445">
      <time>2025-07-16T18:09:36Z</time>
    </trkpt>
    <trkpt lat="50.9353349" lon="6.8847198">
      <time>2025-07-16T18:09:40Z</time>
    </trkpt>
    <trkpt lat="50.9355638" lon="6.8844300">
      <time>2025-07-16T18:09:45Z</time>
    </trkpt>
    <trkpt lat="50.9356955" lon="6.8842567">
      <time>2025-07-16T18:09:48Z</time>
    </trkpt>
    <trkpt lat="50.9359820" lon="6.8838802">
      <time>2025-07-16T18:09:54Z</time>
    </trkpt>
    <trkpt lat="50.9361384" lon="6.8837242">
      <time>2025-07-16T18:09:57Z</time>
    </trkpt>
    <trkpt lat="50.9364812" lon="6.8833341">
      <time>2025-07-16T18:10:04Z</time>
    </trkpt>
    <trkpt lat="50.9366468" lon="6.8831004">
      <time>2025-07-16T18:10:08Z</time>
    </trkpt>
    <trkpt lat="50.9366765" lon="6.8830343">
      <time>2025-07-16T18:10:09Z</time>
    </trkpt>
    <trkpt lat="50.9366801" lon="6.8828886">
      <time>2025-07-16T18:10:11Z</time>
    </trkpt>
    <trkpt lat="50.9366916" lon="6.8828118">
      <time>2025-07-16T18:10:12Z</time>
    </trkpt>
    <trkpt lat="50.9367377" lon="6.8826764">
      <time>2025-07-16T18:10:14Z</time>
    </trkpt>
    <trkpt lat="50.9368097" lon="6.8825743">
      <time>2025-07-16T18:10:16Z</time>
    </trkpt>
    <trkpt lat="50.9370557" lon="6.8823285">
      <time>2025-07-16T18:10:21Z</time>
    </trkpt>
    <trkpt lat="50.9371997" lon="6.8822245">
      <time>2025-07-16T18:10:24Z</time>
    </trkpt>
    <trkpt lat="50.9372370" lon="6.8821994">
      <time>2025-07-16T18:10:25Z</time>
    </trkpt>
    <trkpt lat="50.9372696" lon="6.8821607">
      <time>2025-07-16T18:10:26Z</time>
    </trkpt>
    <trkpt lat="50.9373073" lon="6.8821281">
      <time>2025-07-16T18:10:27Z</time>
    </trkpt>
    <trkpt lat="50.9373468" lon="6.8821002">
      <time>2025-07-16T18:10:28Z</time>
    </trkpt>
    <trkpt lat="50.9373820" lon="6.8820801">
      <time>2025-07-16T18:10:29Z</time>
    </trkpt>
    <trkpt lat="50.9374148" lon="6.8820687">
      <time>2025-07-16T18:10:30Z</time>
    </trkpt>
    <trkpt lat="50.9374723" lon="6.8820282">
      <time>2025-07-16T18:10:33Z</time>
    </trkpt>
    <trkpt lat="50.9374782" lon="6.8820089">
      <time>2025-07-16T18:10:34Z</time>
    </trkpt>
    <trkpt lat="50.9374907" lon="6.8820011">
      <time>2025-07-16T18:10:35Z</time>
    </trkpt>
    <trkpt lat="50.9375396" lon="6.8820080">
      <time>2025-07-16T18:10:39Z</time>
    </trkpt>
    <trkpt lat="50.9375398" lon="6.8820124">
      <time>2025-07-16T18:10:41Z</time>
    </trkpt>
    <trkpt lat="50.9375910" lon="6.8820106">
      <time>2025-07-16T18:12:06Z</time>
    </trkpt>
    <trkpt lat="50.9376257" lon="6.8820156">
      <time>2025-07-16T18:12:07Z</time>
    </trkpt>
    <trkpt lat="50.9378220" lon="6.8820118">
      <time>2025-07-16T18:12:12Z</time>
    </trkpt>
    <trkpt lat="50.9378615" lon="6.8820332">
      <time>2025-07-16T18:12:13Z</time>
    </trkpt>
    <trkpt lat="50.9379387" lon="6.8820842">
      <time>2025-07-16T18:12:15Z</time>
    </trkpt>
    <trkpt lat="50.9380313" lon="6.8820616">
      <time>2025-07-16T18:12:17Z</time>
    </trkpt>
    <trkpt lat="50.9382302" lon="6.8818682">
      <time>2025-07-16T18:12:21Z</time>
    </trkpt>
    <trkpt lat="50.9387042" lon="6.8814392">
      <time>2025-07-16T18:12:30Z</time>
    </trkpt>
    <trkpt lat="50.9389734" lon="6.8811995">
      <time>2025-07-16T18:12:35Z</time>
    </trkpt>
    <trkpt lat="50.9391391" lon="6.8810786">
      <time>2025-07-16T18:12:38Z</time>
    </trkpt>
    <trkpt lat="50.9393060" lon="6.8809414">
      <time>2025-07-16T18:12:41Z</time>
    </trkpt>
    <trkpt lat="50.9395753" lon="6.8807186">
      <time>2025-07-16T18:12:46Z</time>
    </trkpt>
    <trkpt lat="50.9398538" lon="6.8804896">
      <time>2025-07-16T18:12:51Z</time>
    </trkpt>
    <trkpt lat="50.9399652" lon="6.8803962">
      <time>2025-07-16T18:12:53Z</time>
    </trkpt>
    <trkpt lat="50.9403479" lon="6.8801084">
      <time>2025-07-16T18:13:00Z</time>
    </trkpt>
    <trkpt lat="50.9403982" lon="6.8800741">
      <time>2025-07-16T18:13:01Z</time>
    </trkpt>
    <trkpt lat="50.9404880" lon="6.8799852">
      <time>2025-07-16T18:13:03Z</time>
    </trkpt>
    <trkpt lat="50.9405664" lon="6.8798807">
      <time>2025-07-16T18:13:05Z</time>
    </trkpt>
    <trkpt lat="50.9407729" lon="6.8795788">
      <time>2025-07-16T18:13:11Z</time>
    </trkpt>
    <trkpt lat="50.9408362" lon="6.8794869">
      <time>2025-07-16T18:13:13Z</time>
    </trkpt>
    <trkpt lat="50.9409641" lon="6.8793263">
      <time>2025-07-16T18:13:16Z</time>
    </trkpt>
    <trkpt lat="50.9412707" lon="6.8789282">
      <time>2025-07-16T18:13:22Z</time>
    </trkpt>
    <trkpt lat="50.9413274" lon="6.8788585">
      <time>2025-07-16T18:13:23Z</time>
    </trkpt>
    <trkpt lat="50.9416805" lon="6.8783872">
      <time>2025-07-16T18:13:29Z</time>
    </trkpt>
    <trkpt lat="50.9421075" lon="6.8777857">
      <time>2025-07-16T18:13:36Z</time>
    </trkpt>
    <trkpt lat="50.9424034" lon="6.8773677">
      <time>2025-07-16T18:13:41Z</time>
    </trkpt>
    <trkpt lat="50.9425249" lon="6.8771993">
      <time>2025-07-16T18:13:43Z</time>
    </trkpt>
    <trkpt lat="50.9428642" lon="6.8767210">
      <time>2025-07-16T18:13:49Z</time>
    </trkpt>
    <trkpt lat="50.9432884" lon="6.8761345">
      <time>2025-07-16T18:13:57Z</time>
    </trkpt>
    <trkpt lat="50.9434862" lon="6.8758461">
      <time>2025-07-16T18:14:01Z</time>
    </trkpt>
    <trkpt lat="50.9435866" lon="6.8756998">
      <time>2025-07-16T18:14:03Z</time>
    </trkpt>
    <trkpt lat="50.9436375" lon="6.8756269">
      <time>2025-07-16T18:14:04Z</time>
    </trkpt>
    <trkpt lat="50.9436924" lon="6.8755617">
      <time>2025-07-16T18:14:05Z</time>
    </trkpt>
    <trkpt lat="50.9438760" lon="6.8753978">
      <time>2025-07-16T18:14:08Z</time>
    </trkpt>
    <trkpt lat="50.9439344" lon="6.8753395">
      <time>2025-07-16T18:14:09Z</time>
    </trkpt>
    <trkpt lat="50.9442338" lon="6.8751195">
      <time>2025-07-16T18:14:14Z</time>
    </trkpt>
    <trkpt lat="50.9443557" lon="6.8750530">
      <time>2025-07-16T18:14:16Z</time>
    </trkpt>
    <trkpt lat="50.9446595" lon="6.8749341">
      <time>2025-07-16T18:14:21Z</time>
    </trkpt>
    <trkpt lat="50.9447863" lon="6.8749115">
      <time>2025-07-16T18:14:23Z</time>
    </trkpt>
    <trkpt lat="50.9451748" lon="6.8748817">
      <time>2025-07-16T18:14:29Z</time>
    </trkpt>
    <trkpt lat="50.9454942" lon="6.8749017">
      <time>2025-07-16T18:14:35Z</time>
    </trkpt>
    <trkpt lat="50.9455819" lon="6.8749081">
      <time>2025-07-16T18:14:37Z</time>
    </trkpt>
    <trkpt lat="50.9456822" lon="6.8748519">
      <time>2025-07-16T18:14:40Z</time>
    </trkpt>
    <trkpt lat="50.9457376" lon="6.8748113">
      <time>2025-07-16T18:14:43Z</time>
    </trkpt>
    <trkpt lat="50.9457611" lon="6.8748217">
      <time>2025-07-16T18:14:44Z</time>
    </trkpt>
    <trkpt lat="50.9459408" lon="6.8748419">
      <time>2025-07-16T18:14:49Z</time>
    </trkpt>
    <trkpt lat="50.9460479" lon="6.8748417">
      <time>2025-07-16T18:14:51Z</time>
    </trkpt>
    <trkpt lat="50.9462429" lon="6.8748520">
      <time>2025-07-16T18:14:54Z</time>
    </trkpt>
    <trkpt lat="50.9463905" lon="6.8748600">
      <time>2025-07-16T18:14:56Z</time>
    </trkpt>
    <trkpt lat="50.9465342" lon="6.8748678">
      <time>2025-07-16T18:14:58Z</time>
    </trkpt>
    <trkpt lat="50.9466728" lon="6.8748499">
      <time>2025-07-16T18:15:00Z</time>
    </trkpt>
    <trkpt lat="50.9468813" lon="6.8747784">
      <time>2025-07-16T18:15:03Z</time>
    </trkpt>
    <trkpt lat="50.9469932" lon="6.8747293">
      <time>2025-07-16T18:15:05Z</time>
    </trkpt>
    <trkpt lat="50.9471471" lon="6.8746799">
      <time>2025-07-16T18:15:08Z</time>
    </trkpt>
    <trkpt lat="50.9472889" lon="6.8746113">
      <time>2025-07-16T18:15:11Z</time>
    </trkpt>
    <trkpt lat="50.9473062" lon="6.8745728">
      <time>2025-07-16T18:15:12Z</time>
    </trkpt>
    <trkpt lat="50.9473855" lon="6.8744806">
      <time>2025-07-16T18:15:15Z</time>
    </trkpt>
    <trkpt lat="50.9473759" lon="6.8744234">
      <time>2025-07-16T18:15:17Z</time>
    </trkpt>
    <trkpt lat="50.9473627" lon="6.8744359">
      <time>2025-07-16T18:15:18Z</time>
    </trkpt>
    <trkpt lat="50.9472815" lon="6.8744620">
      <time>2025-07-16T18:15:21Z</time>
    </trkpt>
    <trkpt lat="50.9472595" lon="6.8744185">
      <time>2025-07-16T18:15:22Z</time>
    </trkpt>
    <trkpt lat="50.9472750" lon="6.8742787">
      <time>2025-07-16T18:15:25Z</time>
    </trkpt>
    <trkpt lat="50.9473050" lon="6.8741541">
      <time>2025-07-16T18:15:28Z</time>
    </trkpt>
    <trkpt lat="50.9473389" lon="6.8740030">
      <time>2025-07-16T18:15:31Z</time>
    </trkpt>
    <trkpt lat="50.9473672" lon="6.8736979">
      <time>2025-07-16T18:15:36Z</time>
    </trkpt>
    <trkpt lat="50.9473667" lon="6.8736373">
      <time>2025-07-16T18:15:37Z</time>
    </trkpt>
    <trkpt lat="50.9473625" lon="6.8735044">
      <time>2025-07-16T18:15:39Z</time>
    </trkpt>
    <trkpt lat="50.9473618" lon="6.8734378">
      <time>2025-07-16T18:15:40Z</time>
    </trkpt>
    <trkpt lat="50.9473564" lon="6.8732960">
      <time>2025-07-16T18:15:42Z</time>
    </trkpt>
    <trkpt lat="50.9473537" lon="6.8731642">
      <time>2025-07-16T18:15:44Z</time>
    </trkpt>
    <trkpt lat="50.9473750" lon="6.8729324">
      <time>2025-07-16T18:15:48Z</time>
    </trkpt>
    <trkpt lat="50.9474025" lon="6.8729034">
      <time>2025-07-16T18:15:49Z</time>
    </trkpt>
    <trkpt lat="50.9474696" lon="6.8728594">
      <time>2025-07-16T18:15:51Z</time>
    </trkpt>
    <trkpt lat="50.9476402" lon="6.8727531">
      <time>2025-07-16T18:15:56Z</time>
    </trkpt>
    <trkpt lat="50.9476726" lon="6.8727314">
      <time>2025-07-16T18:15:57Z</time>
    </trkpt>
    <trkpt lat="50.9479202" lon="6.8725817">
      <time>2025-07-16T18:16:04Z</time>
    </trkpt>
    <trkpt lat="50.9481445" lon="6.8724452">
      <time>2025-07-16T18:16:10Z</time>
    </trkpt>
    <trkpt lat="50.9482734" lon="6.8723636">
      <time>2025-07-16T18:16:13Z</time>
    </trkpt>
    <trkpt lat="50.9483673" lon="6.8723081">
      <time>2025-07-16T18:16:15Z</time>
    </trkpt>
    <trkpt lat="50.9484566" lon="6.8722511">
      <time>2025-07-16T18:16:17Z</time>
    </trkpt>
    <trkpt lat="50.9485016" lon="6.8722138">
      <time>2025-07-16T18:16:18Z</time>
    </trkpt>
    <trkpt lat="50.9485940" lon="6.8721269">
      <time>2025-07-16T18:16:20Z</time>
    </trkpt>
    <trkpt lat="50.9487688" lon="6.8719036">
      <time>2025-07-16T18:16:24Z</time>
    </trkpt>
    <trkpt lat="50.9488130" lon="6.8718546">
      <time>2025-07-16T18:16:25Z</time>
    </trkpt>
    <trkpt lat="50.9488450" lon="6.8718005">
      <time>2025-07-16T18:16:26Z</time>
    </trkpt>
    <trkpt lat="50.9490484" lon="6.8715162">
      <time>2025-07-16T18:16:31Z</time>
    </trkpt>
    <trkpt lat="50.9492622" lon="6.8711891">
      <time>2025-07-16T18:16:37Z</time>
    </trkpt>
    <trkpt lat="50.9493090" lon="6.8711443">
      <time>2025-07-16T18:16:38Z</time>
    </trkpt>
    <trkpt lat="50.9494140" lon="6.8710769">
      <time>2025-07-16T18:16:40Z</time>
    </trkpt>
    <trkpt lat="50.9494756" lon="6.8710673">
      <time>2025-07-16T18:16:41Z</time>
    </trkpt>
    <trkpt lat="50.9497099" lon="6.8709955">
      <time>2025-07-16T18:16:45Z</time>
    </trkpt>
    <trkpt lat="50.9499216" lon="6.8709596">
      <time>2025-07-16T18:16:49Z</time>
    </trkpt>
    <trkpt lat="50.9500278" lon="6.8708966">
      <time>2025-07-16T18:16:52Z</time>
    </trkpt>
    <trkpt lat="50.9500425" lon="6.8708383">
      <time>2025-07-16T18:16:53Z</time>
    </trkpt>
    <trkpt lat="50.9500566" lon="6.8707692">
      <time>2025-07-16T18:16:54Z</time>
    </trkpt>
    <trkpt lat="50.9501266" lon="6.8704608">
      <time>2025-07-16T18:16:58Z</time>
    </trkpt>
    <trkpt lat="50.9502254" lon="6.8698635">
      <time>2025-07-16T18:17:05Z</time>
    </trkpt>
    <trkpt lat="50.9502779" lon="6.8695156">
      <time>2025-07-16T18:17:09Z</time>
    </trkpt>
    <trkpt lat="50.9503230" lon="6.8691938">
      <time>2025-07-16T18:17:13Z</time>
    </trkpt>
    <trkpt lat="50.9503690" lon="6.8689608">
      <time>2025-07-16T18:17:16Z</time>
    </trkpt>
    <trkpt lat="50.9503790" lon="6.8688800">
      <time>2025-07-16T18:17:17Z</time>
    </trkpt>
    <trkpt lat="50.9504043" lon="6.8687219">
      <time>2025-07-16T18:17:19Z</time>
    </trkpt>
    <trkpt lat="50.9504404" lon="6.8684029">
      <time>2025-07-16T18:17:23Z</time>
    </trkpt>
    <trkpt lat="50.9504497" lon="6.8682478">
      <time>2025-07-16T18:17:25Z</time>
    </trkpt>
    <trkpt lat="50.9504639" lon="6.8681687">
      <time>2025-07-16T18:17:26Z</time>
    </trkpt>
    <trkpt lat="50.9505237" lon="6.8679418">
      <time>2025-07-16T18:17:29Z</time>
    </trkpt>
    <trkpt lat="50.9505657" lon="6.8678864">
      <time>2025-07-16T18:17:30Z</time>
    </trkpt>
    <trkpt lat="50.9506073" lon="6.8678375">
      <time>2025-07-16T18:17:31Z</time>
    </trkpt>
    <trkpt lat="50.9508153" lon="6.8675674">
      <time>2025-07-16T18:17:36Z</time>
    </trkpt>
    <trkpt lat="50.9509924" lon="6.8673273">
      <time>2025-07-16T18:17:40Z</time>
    </trkpt>
    <trkpt lat="50.9510836" lon="6.8671822">
      <time>2025-07-16T18:17:42Z</time>
    </trkpt>
    <trkpt lat="50.9513898" lon="6.8666839">
      <time>2025-07-16T18:17:48Z</time>
    </trkpt>
    <trkpt lat="50.9514889" lon="6.8665138">
      <time>2025-07-16T18:17:50Z</time>
    </trkpt>
    <trkpt lat="50.9516258" lon="6.8662533">
      <time>2025-07-16T18:17:53Z</time>
    </trkpt>
    <trkpt lat="50.9517149" lon="6.8660801">
      <time>2025-07-16T18:17:55Z</time>
    </trkpt>
    <trkpt lat="50.9517956" lon="6.8659098">
      <time>2025-07-16T18:17:57Z</time>
    </trkpt>
    <trkpt lat="50.9519140" lon="6.8656625">
      <time>2025-07-16T18:18:00Z</time>
    </trkpt>
    <trkpt lat="50.9519445" lon="6.8655715">
      <time>2025-07-16T18:18:01Z</time>
    </trkpt>
    <trkpt lat="50.9519642" lon="6.8654730">
      <time>2025-07-16T18:18:02Z</time>
    </trkpt>
    <trkpt lat="50.9520070" lon="6.8652914">
      <time>2025-07-16T18:18:04Z</time>
    </trkpt>
    <trkpt lat="50.9520561" lon="6.8651237">
      <time>2025-07-16T18:18:06Z</time>
    </trkpt>
    <trkpt lat="50.9521210" lon="6.8649905">
      <time>2025-07-16T18:18:08Z</time>
    </trkpt>
    <trkpt lat="50.9522562" lon="6.8647876">
      <time>2025-07-16T18:18:11Z</time>
    </trkpt>
    <trkpt lat="50.9522835" lon="6.8647570">
      <time>2025-07-16T18:18:13Z</time>
    </trkpt>
    <trkpt lat="50.9523938" lon="6.8646774">
      <time>2025-07-16T18:18:18Z</time>
    </trkpt>
    <trkpt lat="50.9524447" lon="6.8646489">
      <time>2025-07-16T18:18:23Z</time>
    </trkpt>
    <trkpt lat="50.9524913" lon="6.8646349">
      <time>2025-07-16T18:20:32Z</time>
    </trkpt>
    <trkpt lat="50.9525084" lon="6.8646336">
      <time>2025-07-16T18:20:33Z</time>
    </trkpt>
    <trkpt lat="50.9525227" lon="6.8646499">
      <time>2025-07-16T18:20:34Z</time>
    </trkpt>
    <trkpt lat="50.9525224" lon="6.8646482">
      <time>2025-07-16T18:20:35Z</time>
    </trkpt>
    <trkpt lat="50.9525502" lon="6.8646413">
      <time>2025-07-16T18:20:49Z</time>
    </trkpt>
    <trkpt lat="50.9526214" lon="6.8646410">
      <time>2025-07-16T18:20:51Z</time>
    </trkpt>
    <trkpt lat="50.9527784" lon="6.8645686">
      <time>2025-07-16T18:20:55Z</time>
    </trkpt>
    <trkpt lat="50.9528241" lon="6.8645590">
      <time>2025-07-16T18:20:56Z</time>
    </trkpt>
    <trkpt lat="50.9530736" lon="6.8645541">
      <time>2025-07-16T18:21:00Z</time>
    </trkpt>
    <trkpt lat="50.9531278" lon="6.8645536">
      <time>2025-07-16T18:21:01Z</time>
    </trkpt>
    <trkpt lat="50.9535798" lon="6.8644857">
      <time>2025-07-16T18:21:10Z</time>
    </trkpt>
    <trkpt lat="50.9540982" lon="6.8643381">
      <time>2025-07-16T18:21:19Z</time>
    </trkpt>
    <trkpt lat="50.9546663" lon="6.8641511">
      <time>2025-07-16T18:21:29Z</time>
    </trkpt>
    <trkpt lat="50.9547196" lon="6.8641351">
      <time>2025-07-16T18:21:30Z</time>
    </trkpt>
    <trkpt lat="50.9551026" lon="6.8640083">
      <time>2025-07-16T18:21:37Z</time>
    </trkpt>
    <trkpt lat="50.9553125" lon="6.8639469">
      <time>2025-07-16T18:21:41Z</time>
    </trkpt>
    <trkpt lat="50.9555800" lon="6.8638565">
      <time>2025-07-16T18:21:46Z</time>
    </trkpt>
    <trkpt lat="50.9556901" lon="6.8638203">
      <time>2025-07-16T18:21:48Z</time>
    </trkpt>
    <trkpt lat="50.9557451" lon="6.8638045">
      <time>2025-07-16T18:21:49Z</time>
    </trkpt>
    <trkpt lat="50.9559030" lon="6.8637569">
      <time>2025-07-16T18:21:51Z</time>
    </trkpt>
    <trkpt lat="50.9561621" lon="6.8636728">
      <time>2025-07-16T18:21:57Z</time>
    </trkpt>
    <trkpt lat="50.9563203" lon="6.8636256">
      <time>2025-07-16T18:22:00Z</time>
    </trkpt>
    <trkpt lat="50.9566915" lon="6.8635147">
      <time>2025-07-16T18:22:07Z</time>
    </trkpt>
    <trkpt lat="50.9572682" lon="6.8633315">
      <time>2025-07-16T18:22:18Z</time>
    </trkpt>
    <trkpt lat="50.9578133" lon="6.8631477">
      <time>2025-07-16T18:22:28Z</time>
    </trkpt>
    <trkpt lat="50.9579817" lon="6.8630963">
      <time>2025-07-16T18:22:30Z</time>
    </trkpt>
    <trkpt lat="50.9580405" lon="6.8630758">
      <time>2025-07-16T18:22:31Z</time>
    </trkpt>
    <trkpt lat="50.9582718" lon="6.8629790">
      <time>2025-07-16T18:22:36Z</time>
    </trkpt>
    <trkpt lat="50.9583872" lon="6.8629215">
      <time>2025-07-16T18:22:38Z</time>
    </trkpt>
    <trkpt lat="50.9587025" lon="6.8626978">
      <time>2025-07-16T18:22:44Z</time>
    </trkpt>
    <trkpt lat="50.9589064" lon="6.8625364">
      <time>2025-07-16T18:22:48Z</time>
    </trkpt>
    <trkpt lat="50.9589608" lon="6.8625031">
      <time>2025-07-16T18:22:49Z</time>
    </trkpt>
    <trkpt lat="50.9590151" lon="6.8624625">
      <time>2025-07-16T18:22:50Z</time>
    </trkpt>
    <trkpt lat="50.9592695" lon="6.8622858">
      <time>2025-07-16T18:22:55Z</time>
    </trkpt>
    <trkpt lat="50.9593617" lon="6.8622469">
      <time>2025-07-16T18:22:57Z</time>
    </trkpt>
    <trkpt lat="50.9594546" lon="6.8622929">
      <time>2025-07-16T18:22:59Z</time>
    </trkpt>
    <trkpt lat="50.9594980" lon="6.8624246">
      <time>2025-07-16T18:23:01Z</time>
    </trkpt>
    <trkpt lat="50.9594995" lon="6.8625101">
      <time>2025-07-16T18:23:02Z</time>
    </trkpt>
    <trkpt lat="50.9595129" lon="6.8627856">
      <time>2025-07-16T18:23:05Z</time>
    </trkpt>
    <trkpt lat="50.9595088" lon="6.8628927">
      <time>2025-07-16T18:23:06Z</time>
    </trkpt>
    <trkpt lat="50.9595245" lon="6.8633984">
      <time>2025-07-16T18:23:11Z</time>
    </trkpt>
    <trkpt lat="50.9595367" lon="6.8635009">
      <time>2025-07-16T18:23:12Z</time>
    </trkpt>
    <trkpt lat="50.9596156" lon="6.8642568">
      <time>2025-07-16T18:23:20Z</time>
    </trkpt>
    <trkpt lat="50.9596224" lon="6.8643441">
      <time>2025-07-16T18:23:21Z</time>
    </trkpt>
    <trkpt lat="50.9596427" lon="6.8646815">
      <time>2025-07-16T18:23:25Z</time>
    </trkpt>
    <trkpt lat="50.9596297" lon="6.8649481">
      <time>2025-07-16T18:23:28Z</time>
    </trkpt>
    <trkpt lat="50.9595513" lon="6.8653065">
      <time>2025-07-16T18:23:32Z</time>
    </trkpt>
    <trkpt lat="50.9595310" lon="6.8653974">
      <time>2025-07-16T18:23:33Z</time>
    </trkpt>
    <trkpt lat="50.9593624" lon="6.8660473">
      <time>2025-07-16T18:23:40Z</time>
    </trkpt>
    <trkpt lat="50.9593061" lon="6.8662391">
      <time>2025-07-16T18:23:42Z</time>
    </trkpt>
    <trkpt lat="50.9592204" lon="6.8665215">
      <time>2025-07-16T18:23:45Z</time>
    </trkpt>
    <trkpt lat="50.9590176" lon="6.8672232">
      <time>2025-07-16T18:23:52Z</time>
    </trkpt>
    <trkpt lat="50.9589893" lon="6.8673308">
      <time>2025-07-16T18:23:53Z</time>
    </trkpt>
    <trkpt lat="50.9588993" lon="6.8677508">
      <time>2025-07-16T18:23:57Z</time>
    </trkpt>
    <trkpt lat="50.9588597" lon="6.8679480">
      <time>2025-07-16T18:23:59Z</time>
    </trkpt>
    <trkpt lat="50.9588339" lon="6.8680419">
      <time>2025-07-16T18:24:00Z</time>
    </trkpt>
    <trkpt lat="50.9587608" lon="6.8681889">
      <time>2025-07-16T18:24:02Z</time>
    </trkpt>
    <trkpt lat="50.9587154" lon="6.8682383">
      <time>2025-07-16T18:24:03Z</time>
    </trkpt>
    <trkpt lat="50.9586699" lon="6.8682721">
      <time>2025-07-16T18:24:04Z</time>
    </trkpt>
    <trkpt lat="50.9585417" lon="6.8683400">
      <time>2025-07-16T18:24:07Z</time>
    </trkpt>
    <trkpt lat="50.9584638" lon="6.8683837">
      <time>2025-07-16T18:24:11Z</time>
    </trkpt>
    <trkpt lat="50.9584660" lon="6.8683947">
      <time>2025-07-16T18:24:12Z</time>
    </trkpt>
    <trkpt lat="50.9584930" lon="6.8684926">
      <time>2025-07-16T18:24:15Z</time>
    </trkpt>
    <trkpt lat="50.9585162" lon="6.8686882">
      <time>2025-07-16T18:24:19Z</time>
    </trkpt>
    <trkpt lat="50.9586039" lon="6.8687184">
      <time>2025-07-16T18:24:22Z</time>
    </trkpt>
    <trkpt lat="50.9586117" lon="6.8686970">
      <time>2025-07-16T18:24:24Z</time>
    </trkpt>
    <trkpt lat="50.9586117" lon="6.8686916">
      <time>2025-07-16T18:24:25Z</time>
    </trkpt>
    <trkpt lat="50.9586061" lon="6.8686943">
      <time>2025-07-16T18:24:27Z</time>
    </trkpt>
    <trkpt lat="50.9586906" lon="6.8687769">
      <time>2025-07-16T18:24:45Z</time>
    </trkpt>
    <trkpt lat="50.9586980" lon="6.8688071">
      <time>2025-07-16T18:24:46Z</time>
    </trkpt>
    <trkpt lat="50.9587085" lon="6.8688398">
      <time>2025-07-16T18:24:49Z</time>
    </trkpt>
    <trkpt lat="50.9586931" lon="6.8688728">
      <time>2025-07-16T18:25:06Z</time>
    </trkpt>
    <trkpt lat="50.9586411" lon="6.8690336">
      <time>2025-07-16T18:25:10Z</time>
    </trkpt>
    <trkpt lat="50.9586158" lon="6.8691706">
      <time>2025-07-16T18:25:12Z</time>
    </trkpt>
    <trkpt lat="50.9585489" lon="6.8694408">
      <time>2025-07-16T18:25:16Z</time>
    </trkpt>
    <trkpt lat="50.9584845" lon="6.8696957">
      <time>2025-07-16T18:25:20Z</time>
    </trkpt>
    <trkpt lat="50.9584547" lon="6.8698530">
      <time>2025-07-16T18:25:22Z</time>
    </trkpt>
    <trkpt lat="50.9584453" lon="6.8699403">
      <time>2025-07-16T18:25:23Z</time>
    </trkpt>
    <trkpt lat="50.9584337" lon="6.8700232">
      <time>2025-07-16T18:25:24Z</time>
    </trkpt>
    <trkpt lat="50.9583411" lon="6.8705128">
      <time>2025-07-16T18:25:30Z</time>
    </trkpt>
    <trkpt lat="50.9583214" lon="6.8705928">
      <time>2025-07-16T18:25:31Z</time>
    </trkpt>
    <trkpt lat="50.9582542" lon="6.8709144">
      <time>2025-07-16T18:25:35Z</time>
    </trkpt>
    <trkpt lat="50.9582352" lon="6.8709956">
      <time>2025-07-16T18:25:36Z</time>
    </trkpt>
    <trkpt lat="50.9581493" lon="6.8716902">
      <time>2025-07-16T18:25:44Z</time>
    </trkpt>
    <trkpt lat="50.9581052" lon="6.8722412">
      <time>2025-07-16T18:25:50Z</time>
    </trkpt>
    <trkpt lat="50.9580931" lon="6.8724243">
      <time>2025-07-16T18:25:52Z</time>
    </trkpt>
    <trkpt lat="50.9580840" lon="6.8725993">
      <time>2025-07-16T18:25:54Z</time>
    </trkpt>
    <trkpt lat="50.9580749" lon="6.8726886">
      <time>2025-07-16T18:25:55Z</time>
    </trkpt>
    <trkpt lat="50.9580570" lon="6.8729388">
      <time>2025-07-16T18:25:58Z</time>
    </trkpt>
    <trkpt lat="50.9580524" lon="6.8730969">
      <time>2025-07-16T18:26:00Z</time>
    </trkpt>
    <trkpt lat="50.9581092" lon="6.8732106">
      <time>2025-07-16T18:26:02Z</time>
    </trkpt>
    <trkpt lat="50.9582032" lon="6.8732296">
      <time>2025-07-16T18:26:04Z</time>
    </trkpt>
    <trkpt lat="50.9582587" lon="6.8732311">
      <time>2025-07-16T18:26:05Z</time>
    </trkpt>
    <trkpt lat="50.9584855" lon="6.8732407">
      <time>2025-07-16T18:26:09Z</time>
    </trkpt>
    <trkpt lat="50.9585466" lon="6.8732411">
      <time>2025-07-16T18:26:10Z</time>
    </trkpt>
    <trkpt lat="50.9586738" lon="6.8732535">
      <time>2025-07-16T18:26:12Z</time>
    </trkpt>
    <trkpt lat="50.9587387" lon="6.8732589">
      <time>2025-07-16T18:26:13Z</time>
    </trkpt>
    <trkpt lat="50.9588631" lon="6.8732657">
      <time>2025-07-16T18:26:15Z</time>
    </trkpt>
    <trkpt lat="50.9591524" lon="6.8732786">
      <time>2025-07-16T18:26:20Z</time>
    </trkpt>
    <trkpt lat="50.9592681" lon="6.8732679">
      <time>2025-07-16T18:26:22Z</time>
    </trkpt>
    <trkpt lat="50.9593268" lon="6.8732582">
      <time>2025-07-16T18:26:23Z</time>
    </trkpt>
    <trkpt lat="50.9594414" lon="6.8732157">
      <time>2025-07-16T18:26:25Z</time>
    </trkpt>
    <trkpt lat="50.9595493" lon="6.8731647">
      <time>2025-07-16T18:26:27Z</time>
    </trkpt>
    <trkpt lat="50.9598652" lon="6.8729706">
      <time>2025-07-16T18:26:33Z</time>
    </trkpt>
    <trkpt lat="50.9599222" lon="6.8729319">
      <time>2025-07-16T18:26:34Z</time>
    </trkpt>
    <trkpt lat="50.9601643" lon="6.8728096">
      <time>2025-07-16T18:26:38Z</time>
    </trkpt>
    <trkpt lat="50.9605402" lon="6.8725917">
      <time>2025-07-16T18:26:44Z</time>
    </trkpt>
    <trkpt lat="50.9606008" lon="6.8725512">
      <time>2025-07-16T18:26:45Z</time>
    </trkpt>
    <trkpt lat="50.9606589" lon="6.8725118">
      <time>2025-07-16T18:26:46Z</time>
    </trkpt>
    <trkpt lat="50.9607199" lon="6.8724773">
      <time>2025-07-16T18:26:47Z</time>
    </trkpt>
    <trkpt lat="50.9607816" lon="6.8724355">
      <time>2025-07-16T18:26:48Z</time>
    </trkpt>
    <trkpt lat="50.9608412" lon="6.8723974">
      <time>2025-07-16T18:26:49Z</time>
    </trkpt>
    <trkpt lat="50.9609027" lon="6.8723647">
      <time>2025-07-16T18:26:50Z</time>
    </trkpt>
    <trkpt lat="50.9610214" lon="6.8723009">
      <time>2025-07-16T18:26:52Z</time>
    </trkpt>
    <trkpt lat="50.9612054" lon="6.8722051">
      <time>2025-07-16T18:26:55Z</time>
    </trkpt>
    <trkpt lat="50.9617332" lon="6.8719838">
      <time>2025-07-16T18:27:04Z</time>
    </trkpt>
    <trkpt lat="50.9622572" lon="6.8718532">
      <time>2025-07-16T18:27:13Z</time>
    </trkpt>
    <trkpt lat="50.9626816" lon="6.8717933">
      <time>2025-07-16T18:27:20Z</time>
    </trkpt>
    <trkpt lat="50.9631163" lon="6.8718095">
      <time>2025-07-16T18:27:27Z</time>
    </trkpt>
    <trkpt lat="50.9635292" lon="6.8718381">
      <time>2025-07-16T18:27:34Z</time>
    </trkpt>
    <trkpt lat="50.9638003" lon="6.8718784">
      <time>2025-07-16T18:27:39Z</time>
    </trkpt>
    <trkpt lat="50.9638560" lon="6.8719255">
      <time>2025-07-16T18:27:40Z</time>
    </trkpt>
    <trkpt lat="50.9639014" lon="6.8720021">
      <time>2025-07-16T18:27:41Z</time>
    </trkpt>
    <trkpt lat="50.9639348" lon="6.8721878">
      <time>2025-07-16T18:27:43Z</time>
    </trkpt>
    <trkpt lat="50.9639186" lon="6.8727381">
      <time>2025-07-16T18:27:49Z</time>
    </trkpt>
    <trkpt lat="50.9639023" lon="6.8729300">
      <time>2025-07-16T18:27:51Z</time>
    </trkpt>
    <trkpt lat="50.9638451" lon="6.8733190">
      <time>2025-07-16T18:27:55Z</time>
    </trkpt>
    <trkpt lat="50.9637113" lon="6.8738695">
      <time>2025-07-16T18:28:01Z</time>
    </trkpt>
    <trkpt lat="50.9636921" lon="6.8739591">
      <time>2025-07-16T18:28:02Z</time>
    </trkpt>
    <trkpt lat="50.9635911" lon="6.8744593">
      <time>2025-07-16T18:28:08Z</time>
    </trkpt>
    <trkpt lat="50.9634329" lon="6.8751600">
      <time>2025-07-16T18:28:16Z</time>
    </trkpt>
    <trkpt lat="50.9633944" lon="6.8753284">
      <time>2025-07-16T18:28:18Z</time>
    </trkpt>
    <trkpt lat="50.9633587" lon="6.8754944">
      <time>2025-07-16T18:28:20Z</time>
    </trkpt>
    <trkpt lat="50.9633333" lon="6.8756633">
      <time>2025-07-16T18:28:22Z</time>
    </trkpt>
    <trkpt lat="50.9632954" lon="6.8758473">
      <time>2025-07-16T18:28:24Z</time>
    </trkpt>
    <trkpt lat="50.9632713" lon="6.8759374">
      <time>2025-07-16T18:28:25Z</time>
    </trkpt>
    <trkpt lat="50.9631150" lon="6.8766549">
      <time>2025-07-16T18:28:33Z</time>
    </trkpt>
    <trkpt lat="50.9631299" lon="6.8768295">
      <time>2025-07-16T18:28:35Z</time>
    </trkpt>
    <trkpt lat="50.9631518" lon="6.8769128">
      <time>2025-07-16T18:28:36Z</time>
    </trkpt>
    <trkpt lat="50.9631796" lon="6.8769861">
      <time>2025-07-16T18:28:37Z</time>
    </trkpt>
    <trkpt lat="50.9632369" lon="6.8771045">
      <time>2025-07-16T18:28:39Z</time>
    </trkpt>
    <trkpt lat="50.9632763" lon="6.8771361">
      <time>2025-07-16T18:28:40Z</time>
    </trkpt>
    <trkpt lat="50.9633888" lon="6.8772432">
      <time>2025-07-16T18:28:43Z</time>
    </trkpt>
    <trkpt lat="50.9634162" lon="6.8772736">
      <time>2025-07-16T18:28:44Z</time>
    </trkpt>
    <trkpt lat="50.9634562" lon="6.8772722">
      <time>2025-07-16T18:28:46Z</time>
    </trkpt>
    <trkpt lat="50.9634574" lon="6.8772528">
      <time>2025-07-16T18:28:47Z</time>
    </trkpt>
    <trkpt lat="50.9634576" lon="6.8772366">
      <time>2025-07-16T18:28:48Z</time>
    </trkpt>
    <trkpt lat="50.9634597" lon="6.8771601">
      <time>2025-07-16T18:28:52Z</time>
    </trkpt>
    <trkpt lat="50.9634462" lon="6.8771630">
      <time>2025-07-16T18:28:56Z</time>
    </trkpt>
    <trkpt lat="50.9634508" lon="6.8768796">
      <time>2025-07-16T18:32:57Z</time>
    </trkpt>
    <trkpt lat="50.9634622" lon="6.8770010">
      <time>2025-07-16T18:33:00Z</time>
    </trkpt>
  </trkseg></trk>
</gpx>
