<?xml version="1.0" encoding="UTF-8"?>
<gpx version="1.1" creator="Diary FIT converter" xmlns="http://www.topografix.com/GPX/1/1">
  <trk><name>Running</name><trkseg>
    <trkpt lat="50.9643480" lon="6.8767250">
      <time>2021-01-28T05:15:00Z</time>
    </trkpt>
    <trkpt lat="50.9643993" lon="6.8765843">
      <time>2021-01-28T05:15:03Z</time>
    </trkpt>
    <trkpt lat="50.9643992" lon="6.8764699">
      <time>2021-01-28T05:15:04Z</time>
    </trkpt>
    <trkpt lat="50.9643613" lon="6.8763570">
      <time>2021-01-28T05:15:05Z</time>
    </trkpt>
    <trkpt lat="50.9643521" lon="6.8761718">
      <time>2021-01-28T05:15:08Z</time>
    </trkpt>
    <trkpt lat="50.9643912" lon="6.8758694">
      <time>2021-01-28T05:15:15Z</time>
    </trkpt>
    <trkpt lat="50.9643946" lon="6.8756846">
      <time>2021-01-28T05:15:19Z</time>
    </trkpt>
    <trkpt lat="50.9644068" lon="6.8755570">
      <time>2021-01-28T05:15:22Z</time>
    </trkpt>
    <trkpt lat="50.9644645" lon="6.8752857">
      <time>2021-01-28T05:15:29Z</time>
    </trkpt>
    <trkpt lat="50.9645259" lon="6.8750050">
      <time>2021-01-28T05:15:37Z</time>
    </trkpt>
    <trkpt lat="50.9645704" lon="6.8747729">
      <time>2021-01-28T05:15:44Z</time>
    </trkpt>
    <trkpt lat="50.9646698" lon="6.8744737">
      <time>2021-01-28T05:15:53Z</time>
    </trkpt>
    <trkpt lat="50.9646828" lon="6.8744441">
      <time>2021-01-28T05:15:54Z</time>
    </trkpt>
    <trkpt lat="50.9647840" lon="6.8742088">
      <time>2021-01-28T05:16:01Z</time>
    </trkpt>
    <trkpt lat="50.9648093" lon="6.8741456">
      <time>2021-01-28T05:16:04Z</time>
    </trkpt>
    <trkpt lat="50.9649150" lon="6.8738855">
      <time>2021-01-28T05:16:11Z</time>
    </trkpt>
    <trkpt lat="50.9649318" lon="6.8738581">
      <time>2021-01-28T05:16:12Z</time>
    </trkpt>
    <trkpt lat="50.9650475" lon="6.8736373">
      <time>2021-01-28T05:16:20Z</time>
    </trkpt>
    <trkpt lat="50.9650635" lon="6.8736089">
      <time>2021-01-28T05:16:21Z</time>
    </trkpt>
    <trkpt lat="50.9651934" lon="6.8733930">
      <time>2021-01-28T05:16:29Z</time>
    </trkpt>
    <trkpt lat="50.9653051" lon="6.8731505">
      <time>2021-01-28T05:16:38Z</time>
    </trkpt>
    <trkpt lat="50.9653167" lon="6.8731254">
      <time>2021-01-28T05:16:39Z</time>
    </trkpt>
    <trkpt lat="50.9654397" lon="6.8728887">
      <time>2021-01-28T05:16:46Z</time>
    </trkpt>
    <trkpt lat="50.9654515" lon="6.8728625">
      <time>2021-01-28T05:16:47Z</time>
    </trkpt>
    <trkpt lat="50.9655607" lon="6.8726815">
      <time>2021-01-28T05:16:54Z</time>
    </trkpt>
    <trkpt lat="50.9656525" lon="6.8724612">
      <time>2021-01-28T05:17:01Z</time>
    </trkpt>
    <trkpt lat="50.9657110" lon="6.8723317">
      <time>2021-01-28T05:17:06Z</time>
    </trkpt>
    <trkpt lat="50.9657028" lon="6.8723106">
      <time>2021-01-28T05:17:07Z</time>
    </trkpt>
    <trkpt lat="50.9656467" lon="6.8722653">
      <time>2021-01-28T05:17:10Z</time>
    </trkpt>
    <trkpt lat="50.9656526" lon="6.8720995">
      <time>2021-01-28T05:17:15Z</time>
    </trkpt>
    <trkpt lat="50.9656654" lon="6.8717928">
      <time>2021-01-28T05:17:23Z</time>
    </trkpt>
    <trkpt lat="50.9656753" lon="6.8716466">
      <time>2021-01-28T05:17:27Z</time>
    </trkpt>
    <trkpt lat="50.9656601" lon="6.8713912">
      <time>2021-01-28T05:17:34Z</time>
    </trkpt>
    <trkpt lat="50.9656718" lon="6.8711022">
      <time>2021-01-28T05:17:42Z</time>
    </trkpt>
    <trkpt lat="50.9656628" lon="6.8709412">
      <time>2021-01-28T05:17:47Z</time>
    </trkpt>
    <trkpt lat="50.9656547" lon="6.8708757">
      <time>2021-01-28T05:17:49Z</time>
    </trkpt>
    <trkpt lat="50.9656763" lon="6.8707552">
      <time>2021-01-28T05:17:52Z</time>
    </trkpt>
    <trkpt lat="50.9657100" lon="6.8706577">
      <time>2021-01-28T05:17:54Z</time>
    </trkpt>
    <trkpt lat="50.9658021" lon="6.8704837">
      <time>2021-01-28T05:17:59Z</time>
    </trkpt>
    <trkpt lat="50.9658956" lon="6.8703059">
      <time>2021-01-28T05:18:05Z</time>
    </trkpt>
    <trkpt lat="50.9659947" lon="6.8700666">
      <time>2021-01-28T05:18:13Z</time>
    </trkpt>
    <trkpt lat="50.9660902" lon="6.8699421">
      <time>2021-01-28T05:18:18Z</time>
    </trkpt>
    <trkpt lat="50.9661871" lon="6.8697840">
      <time>2021-01-28T05:18:24Z</time>
    </trkpt>
    <trkpt lat="50.9662363" lon="6.8695824">
      <time>2021-01-28T05:18:30Z</time>
    </trkpt>
    <trkpt lat="50.9662566" lon="6.8693763">
      <time>2021-01-28T05:18:35Z</time>
    </trkpt>
    <trkpt lat="50.9663563" lon="6.8691370">
      <time>2021-01-28T05:18:42Z</time>
    </trkpt>
    <trkpt lat="50.9663818" lon="6.8689261">
      <time>2021-01-28T05:18:47Z</time>
    </trkpt>
    <trkpt lat="50.9663877" lon="6.8688896">
      <time>2021-01-28T05:18:48Z</time>
    </trkpt>
    <trkpt lat="50.9663502" lon="6.8686388">
      <time>2021-01-28T05:18:55Z</time>
    </trkpt>
    <trkpt lat="50.9661938" lon="6.8684819">
      <time>2021-01-28T05:19:03Z</time>
    </trkpt>
    <trkpt lat="50.9661744" lon="6.8684689">
      <time>2021-01-28T05:19:04Z</time>
    </trkpt>
    <trkpt lat="50.9659726" lon="6.8683994">
      <time>2021-01-28T05:19:13Z</time>
    </trkpt>
    <trkpt lat="50.9657700" lon="6.8683770">
      <time>2021-01-28T05:19:21Z</time>
    </trkpt>
    <trkpt lat="50.9657083" lon="6.8683636">
      <time>2021-01-28T05:19:23Z</time>
    </trkpt>
    <trkpt lat="50.9655137" lon="6.8682956">
      <time>2021-01-28T05:19:31Z</time>
    </trkpt>
    <trkpt lat="50.9653959" lon="6.8682643">
      <time>2021-01-28T05:19:36Z</time>
    </trkpt>
    <trkpt lat="50.9652942" lon="6.8682327">
      <time>2021-01-28T05:19:40Z</time>
    </trkpt>
    <trkpt lat="50.9651386" lon="6.8681936">
      <time>2021-01-28T05:19:46Z</time>
    </trkpt>
    <trkpt lat="50.9650769" lon="6.8681713">
      <time>2021-01-28T05:19:49Z</time>
    </trkpt>
    <trkpt lat="50.9650373" lon="6.8681629">
      <time>2021-01-28T05:19:51Z</time>
    </trkpt>
    <trkpt lat="50.9648572" lon="6.8680984">
      <time>2021-01-28T05:19:59Z</time>
    </trkpt>
    <trkpt lat="50.9648374" lon="6.8680894">
      <time>2021-01-28T05:20:00Z</time>
    </trkpt>
    <trkpt lat="50.9646470" lon="6.8680072">
      <time>2021-01-28T05:20:08Z</time>
    </trkpt>
    <trkpt lat="50.9646204" lon="6.8679979">
      <time>2021-01-28T05:20:09Z</time>
    </trkpt>
    <trkpt lat="50.9644371" lon="6.8679572">
      <time>2021-01-28T05:20:17Z</time>
    </trkpt>
    <trkpt lat="50.9643537" lon="6.8679210">
      <time>2021-01-28T05:20:23Z</time>
    </trkpt>
    <trkpt lat="50.9643253" lon="6.8679134">
      <time>2021-01-28T05:20:25Z</time>
    </trkpt>
    <trkpt lat="50.9642435" lon="6.8679029">
      <time>2021-01-28T05:20:28Z</time>
    </trkpt>
    <trkpt lat="50.9642099" lon="6.8678961">
      <time>2021-01-28T05:20:31Z</time>
    </trkpt>
    <trkpt lat="50.9642253" lon="6.8678976">
      <time>2021-01-28T05:20:32Z</time>
    </trkpt>
    <trkpt lat="50.9643932" lon="6.8678990">
      <time>2021-01-28T05:20:38Z</time>
    </trkpt>
    <trkpt lat="50.9645288" lon="6.8679399">
      <time>2021-01-28T05:20:44Z</time>
    </trkpt>
    <trkpt lat="50.9645528" lon="6.8679477">
      <time>2021-01-28T05:20:45Z</time>
    </trkpt>
    <trkpt lat="50.9646580" lon="6.8679927">
      <time>2021-01-28T05:20:50Z</time>
    </trkpt>
    <trkpt lat="50.9648093" lon="6.8681600">
      <time>2021-01-28T05:20:57Z</time>
    </trkpt>
    <trkpt lat="50.9648690" lon="6.8682795">
      <time>2021-01-28T05:21:01Z</time>
    </trkpt>
    <trkpt lat="50.9649540" lon="6.8682979">
      <time>2021-01-28T05:21:04Z</time>
    </trkpt>
    <trkpt lat="50.9651354" lon="6.8683558">
      <time>2021-01-28T05:21:10Z</time>
    </trkpt>
    <trkpt lat="50.9652164" lon="6.8683688">
      <time>2021-01-28T05:21:13Z</time>
    </trkpt>
    <trkpt lat="50.9653908" lon="6.8684158">
      <time>2021-01-28T05:21:20Z</time>
    </trkpt>
    <trkpt lat="50.9655805" lon="6.8684503">
      <time>2021-01-28T05:21:28Z</time>
    </trkpt>
    <trkpt lat="50.9657616" lon="6.8685283">
      <time>2021-01-28T05:21:35Z</time>
    </trkpt>
    <trkpt lat="50.9657845" lon="6.8685338">
      <time>2021-01-28T05:21:36Z</time>
    </trkpt>
    <trkpt lat="50.9658258" lon="6.8685580">
      <time>2021-01-28T05:21:38Z</time>
    </trkpt>
    <trkpt lat="50.9659370" lon="6.8685991">
      <time>2021-01-28T05:21:43Z</time>
    </trkpt>
    <trkpt lat="50.9660256" lon="6.8686434">
      <time>2021-01-28T05:21:48Z</time>
    </trkpt>
    <trkpt lat="50.9660798" lon="6.8686688">
      <time>2021-01-28T05:21:51Z</time>
    </trkpt>
    <trkpt lat="50.9660920" lon="6.8686714">
      <time>2021-01-28T05:21:52Z</time>
    </trkpt>
    <trkpt lat="50.9661267" lon="6.8687706">
      <time>2021-01-28T05:21:56Z</time>
    </trkpt>
    <trkpt lat="50.9661529" lon="6.8689712">
      <time>2021-01-28T05:22:00Z</time>
    </trkpt>
    <trkpt lat="50.9661482" lon="6.8691287">
      <time>2021-01-28T05:22:04Z</time>
    </trkpt>
    <trkpt lat="50.9661863" lon="6.8693905">
      <time>2021-01-28T05:22:11Z</time>
    </trkpt>
    <trkpt lat="50.9662162" lon="6.8695280">
      <time>2021-01-28T05:22:15Z</time>
    </trkpt>
    <trkpt lat="50.9662096" lon="6.8695671">
      <time>2021-01-28T05:22:16Z</time>
    </trkpt>
    <trkpt lat="50.9661933" lon="6.8695987">
      <time>2021-01-28T05:22:17Z</time>
    </trkpt>
    <trkpt lat="50.9661651" lon="6.8697169">
      <time>2021-01-28T05:22:20Z</time>
    </trkpt>
    <trkpt lat="50.9661311" lon="6.8698912">
      <time>2021-01-28T05:22:25Z</time>
    </trkpt>
    <trkpt lat="50.9661249" lon="6.8699231">
      <time>2021-01-28T05:22:26Z</time>
    </trkpt>
    <trkpt lat="50.9661103" lon="6.8699895">
      <time>2021-01-28T05:22:28Z</time>
    </trkpt>
    <trkpt lat="50.9660762" lon="6.8700862">
      <time>2021-01-28T05:22:31Z</time>
    </trkpt>
    <trkpt lat="50.9660449" lon="6.8701492">
      <time>2021-01-28T05:22:33Z</time>
    </trkpt>
    <trkpt lat="50.9659935" lon="6.8702606">
      <time>2021-01-28T05:22:37Z</time>
    </trkpt>
    <trkpt lat="50.9659097" lon="6.8704941">
      <time>2021-01-28T05:22:45Z</time>
    </trkpt>
    <trkpt lat="50.9658166" lon="6.8706885">
      <time>2021-01-28T05:22:52Z</time>
    </trkpt>
    <trkpt lat="50.9657208" lon="6.8708773">
      <time>2021-01-28T05:22:59Z</time>
    </trkpt>
    <trkpt lat="50.9656756" lon="6.8710321">
      <time>2021-01-28T05:23:04Z</time>
    </trkpt>
    <trkpt lat="50.9656521" lon="6.8711593">
      <time>2021-01-28T05:23:08Z</time>
    </trkpt>
    <trkpt lat="50.9656463" lon="6.8711862">
      <time>2021-01-28T05:23:09Z</time>
    </trkpt>
    <trkpt lat="50.9656131" lon="6.8713797">
      <time>2021-01-28T05:23:16Z</time>
    </trkpt>
    <trkpt lat="50.9655595" lon="6.8715789">
      <time>2021-01-28T05:23:23Z</time>
    </trkpt>
    <trkpt lat="50.9655112" lon="6.8717272">
      <time>2021-01-28T05:23:28Z</time>
    </trkpt>
    <trkpt lat="50.9654753" lon="6.8718771">
      <time>2021-01-28T05:23:33Z</time>
    </trkpt>
    <trkpt lat="50.9654511" lon="6.8719390">
      <time>2021-01-28T05:23:35Z</time>
    </trkpt>
    <trkpt lat="50.9653882" lon="6.8720674">
      <time>2021-01-28T05:23:39Z</time>
    </trkpt>
    <trkpt lat="50.9653685" lon="6.8721317">
      <time>2021-01-28T05:23:41Z</time>
    </trkpt>
    <trkpt lat="50.9653693" lon="6.8721462">
      <time>2021-01-28T05:23:42Z</time>
    </trkpt>
    <trkpt lat="50.9654007" lon="6.8721437">
      <time>2021-01-28T05:23:44Z</time>
    </trkpt>
    <trkpt lat="50.9655696" lon="6.8722458">
      <time>2021-01-28T05:23:51Z</time>
    </trkpt>
    <trkpt lat="50.9656789" lon="6.8722264">
      <time>2021-01-28T05:23:57Z</time>
    </trkpt>
    <trkpt lat="50.9656883" lon="6.8720309">
      <time>2021-01-28T05:24:02Z</time>
    </trkpt>
    <trkpt lat="50.9656778" lon="6.8717418">
      <time>2021-01-28T05:24:09Z</time>
    </trkpt>
    <trkpt lat="50.9656845" lon="6.8714887">
      <time>2021-01-28T05:24:16Z</time>
    </trkpt>
    <trkpt lat="50.9656742" lon="6.8712037">
      <time>2021-01-28T05:24:23Z</time>
    </trkpt>
    <trkpt lat="50.9656749" lon="6.8711105">
      <time>2021-01-28T05:24:25Z</time>
    </trkpt>
    <trkpt lat="50.9656777" lon="6.8709911">
      <time>2021-01-28T05:24:29Z</time>
    </trkpt>
    <trkpt lat="50.9656733" lon="6.8709413">
      <time>2021-01-28T05:24:31Z</time>
    </trkpt>
    <trkpt lat="50.9656594" lon="6.8708432">
      <time>2021-01-28T05:24:34Z</time>
    </trkpt>
    <trkpt lat="50.9656716" lon="6.8707726">
      <time>2021-01-28T05:24:36Z</time>
    </trkpt>
    <trkpt lat="50.9657754" lon="6.8705473">
      <time>2021-01-28T05:24:43Z</time>
    </trkpt>
    <trkpt lat="50.9658555" lon="6.8703816">
      <time>2021-01-28T05:24:48Z</time>
    </trkpt>
    <trkpt lat="50.9659160" lon="6.8702526">
      <time>2021-01-28T05:24:52Z</time>
    </trkpt>
    <trkpt lat="50.9660325" lon="6.8700310">
      <time>2021-01-28T05:25:00Z</time>
    </trkpt>
    <trkpt lat="50.9660950" lon="6.8699009">
      <time>2021-01-28T05:25:05Z</time>
    </trkpt>
    <trkpt lat="50.9661906" lon="6.8696973">
      <time>2021-01-28T05:25:11Z</time>
    </trkpt>
    <trkpt lat="50.9662492" lon="6.8695098">
      <time>2021-01-28T05:25:17Z</time>
    </trkpt>
    <trkpt lat="50.9663140" lon="6.8693114">
      <time>2021-01-28T05:25:24Z</time>
    </trkpt>
    <trkpt lat="50.9663526" lon="6.8691779">
      <time>2021-01-28T05:25:28Z</time>
    </trkpt>
    <trkpt lat="50.9664369" lon="6.8689802">
      <time>2021-01-28T05:25:35Z</time>
    </trkpt>
    <trkpt lat="50.9664538" lon="6.8688825">
      <time>2021-01-28T05:25:38Z</time>
    </trkpt>
    <trkpt lat="50.9664440" lon="6.8687987">
      <time>2021-01-28T05:25:40Z</time>
    </trkpt>
    <trkpt lat="50.9663520" lon="6.8686708">
      <time>2021-01-28T05:25:45Z</time>
    </trkpt>
    <trkpt lat="50.9661853" lon="6.8685022">
      <time>2021-01-28T05:25:53Z</time>
    </trkpt>
    <trkpt lat="50.9661718" lon="6.8684941">
      <time>2021-01-28T05:25:54Z</time>
    </trkpt>
    <trkpt lat="50.9659619" lon="6.8684459">
      <time>2021-01-28T05:26:01Z</time>
    </trkpt>
    <trkpt lat="50.9659310" lon="6.8684492">
      <time>2021-01-28T05:26:02Z</time>
    </trkpt>
    <trkpt lat="50.9657390" lon="6.8683765">
      <time>2021-01-28T05:26:10Z</time>
    </trkpt>
    <trkpt lat="50.9656884" lon="6.8683620">
      <time>2021-01-28T05:26:12Z</time>
    </trkpt>
    <trkpt lat="50.9654916" lon="6.8683127">
      <time>2021-01-28T05:26:20Z</time>
    </trkpt>
    <trkpt lat="50.9654511" lon="6.8682959">
      <time>2021-01-28T05:26:22Z</time>
    </trkpt>
    <trkpt lat="50.9652560" lon="6.8682418">
      <time>2021-01-28T05:26:31Z</time>
    </trkpt>
    <trkpt lat="50.9650803" lon="6.8681761">
      <time>2021-01-28T05:26:39Z</time>
    </trkpt>
    <trkpt lat="50.9650589" lon="6.8681651">
      <time>2021-01-28T05:26:40Z</time>
    </trkpt>
    <trkpt lat="50.9649202" lon="6.8681037">
      <time>2021-01-28T05:26:47Z</time>
    </trkpt>
    <trkpt lat="50.9648105" lon="6.8680785">
      <time>2021-01-28T05:26:53Z</time>
    </trkpt>
    <trkpt lat="50.9647988" lon="6.8681031">
      <time>2021-01-28T05:26:54Z</time>
    </trkpt>
    <trkpt lat="50.9647987" lon="6.8681335">
      <time>2021-01-28T05:26:55Z</time>
    </trkpt>
    <trkpt lat="50.9648149" lon="6.8681927">
      <time>2021-01-28T05:26:57Z</time>
    </trkpt>
    <trkpt lat="50.9648343" lon="6.8682215">
      <time>2021-01-28T05:26:58Z</time>
    </trkpt>
    <trkpt lat="50.9648671" lon="6.8682594">
      <time>2021-01-28T05:27:00Z</time>
    </trkpt>
    <trkpt lat="50.9649623" lon="6.8683087">
      <time>2021-01-28T05:27:04Z</time>
    </trkpt>
    <trkpt lat="50.9651340" lon="6.8683699">
      <time>2021-01-28T05:27:11Z</time>
    </trkpt>
    <trkpt lat="50.9652009" lon="6.8683966">
      <time>2021-01-28T05:27:14Z</time>
    </trkpt>
    <trkpt lat="50.9653395" lon="6.8684313">
      <time>2021-01-28T05:27:21Z</time>
    </trkpt>
    <trkpt lat="50.9655420" lon="6.8684679">
      <time>2021-01-28T05:27:29Z</time>
    </trkpt>
    <trkpt lat="50.9655905" lon="6.8684826">
      <time>2021-01-28T05:27:31Z</time>
    </trkpt>
    <trkpt lat="50.9657735" lon="6.8685284">
      <time>2021-01-28T05:27:38Z</time>
    </trkpt>
    <trkpt lat="50.9659544" lon="6.8686110">
      <time>2021-01-28T05:27:45Z</time>
    </trkpt>
    <trkpt lat="50.9659793" lon="6.8686245">
      <time>2021-01-28T05:27:46Z</time>
    </trkpt>
    <trkpt lat="50.9661373" lon="6.8687169">
      <time>2021-01-28T05:27:53Z</time>
    </trkpt>
    <trkpt lat="50.9661619" lon="6.8689174">
      <time>2021-01-28T05:27:58Z</time>
    </trkpt>
    <trkpt lat="50.9661545" lon="6.8692432">
      <time>2021-01-28T05:28:05Z</time>
    </trkpt>
    <trkpt lat="50.9661881" lon="6.8694667">
      <time>2021-01-28T05:28:11Z</time>
    </trkpt>
    <trkpt lat="50.9662274" lon="6.8695770">
      <time>2021-01-28T05:28:16Z</time>
    </trkpt>
    <trkpt lat="50.9661687" lon="6.8697457">
      <time>2021-01-28T05:28:21Z</time>
    </trkpt>
    <trkpt lat="50.9661532" lon="6.8697995">
      <time>2021-01-28T05:28:23Z</time>
    </trkpt>
    <trkpt lat="50.9660964" lon="6.8701078">
      <time>2021-01-28T05:28:31Z</time>
    </trkpt>
    <trkpt lat="50.9660086" lon="6.8703238">
      <time>2021-01-28T05:28:38Z</time>
    </trkpt>
    <trkpt lat="50.9658879" lon="6.8705527">
      <time>2021-01-28T05:28:46Z</time>
    </trkpt>
    <trkpt lat="50.9658572" lon="6.8705993">
      <time>2021-01-28T05:28:48Z</time>
    </trkpt>
    <trkpt lat="50.9657551" lon="6.8707785">
      <time>2021-01-28T05:28:55Z</time>
    </trkpt>
    <trkpt lat="50.9656875" lon="6.8709739">
      <time>2021-01-28T05:29:01Z</time>
    </trkpt>
    <trkpt lat="50.9656443" lon="6.8711542">
      <time>2021-01-28T05:29:07Z</time>
    </trkpt>
    <trkpt lat="50.9655928" lon="6.8713831">
      <time>2021-01-28T05:29:14Z</time>
    </trkpt>
    <trkpt lat="50.9655582" lon="6.8715772">
      <time>2021-01-28T05:29:20Z</time>
    </trkpt>
    <trkpt lat="50.9654968" lon="6.8717320">
      <time>2021-01-28T05:29:25Z</time>
    </trkpt>
    <trkpt lat="50.9654417" lon="6.8719128">
      <time>2021-01-28T05:29:31Z</time>
    </trkpt>
    <trkpt lat="50.9654138" lon="6.8721293">
      <time>2021-01-28T05:29:38Z</time>
    </trkpt>
    <trkpt lat="50.9654996" lon="6.8721554">
      <time>2021-01-28T05:29:43Z</time>
    </trkpt>
    <trkpt lat="50.9656787" lon="6.8722577">
      <time>2021-01-28T05:29:51Z</time>
    </trkpt>
    <trkpt lat="50.9657090" lon="6.8722202">
      <time>2021-01-28T05:29:53Z</time>
    </trkpt>
    <trkpt lat="50.9657059" lon="6.8721477">
      <time>2021-01-28T05:29:55Z</time>
    </trkpt>
    <trkpt lat="50.9656929" lon="6.8718588">
      <time>2021-01-28T05:30:02Z</time>
    </trkpt>
    <trkpt lat="50.9656796" lon="6.8715682">
      <time>2021-01-28T05:30:09Z</time>
    </trkpt>
    <trkpt lat="50.9656813" lon="6.8714929">
      <time>2021-01-28T05:30:11Z</time>
    </trkpt>
    <trkpt lat="50.9656772" lon="6.8711997">
      <time>2021-01-28T05:30:19Z</time>
    </trkpt>
    <trkpt lat="50.9656797" lon="6.8710089">
      <time>2021-01-28T05:30:24Z</time>
    </trkpt>
    <trkpt lat="50.9656659" lon="6.8709186">
      <time>2021-01-28T05:30:27Z</time>
    </trkpt>
    <trkpt lat="50.9656767" lon="6.8706891">
      <time>2021-01-28T05:30:34Z</time>
    </trkpt>
    <trkpt lat="50.9657364" lon="6.8705884">
      <time>2021-01-28T05:30:38Z</time>
    </trkpt>
    <trkpt lat="50.9657786" lon="6.8704941">
      <time>2021-01-28T05:30:41Z</time>
    </trkpt>
    <trkpt lat="50.9658692" lon="6.8702638">
      <time>2021-01-28T05:30:48Z</time>
    </trkpt>
    <trkpt lat="50.9659225" lon="6.8700609">
      <time>2021-01-28T05:30:53Z</time>
    </trkpt>
    <trkpt lat="50.9659864" lon="6.8699202">
      <time>2021-01-28T05:30:58Z</time>
    </trkpt>
    <trkpt lat="50.9659966" lon="6.8698938">
      <time>2021-01-28T05:30:59Z</time>
    </trkpt>
    <trkpt lat="50.9660279" lon="6.8698033">
      <time>2021-01-28T05:31:02Z</time>
    </trkpt>
    <trkpt lat="50.9661168" lon="6.8696418">
      <time>2021-01-28T05:31:07Z</time>
    </trkpt>
    <trkpt lat="50.9661714" lon="6.8694944">
      <time>2021-01-28T05:31:11Z</time>
    </trkpt>
    <trkpt lat="50.9662220" lon="6.8694147">
      <time>2021-01-28T05:31:14Z</time>
    </trkpt>
    <trkpt lat="50.9662636" lon="6.8692740">
      <time>2021-01-28T05:31:18Z</time>
    </trkpt>
    <trkpt lat="50.9663018" lon="6.8691494">
      <time>2021-01-28T05:31:22Z</time>
    </trkpt>
    <trkpt lat="50.9663631" lon="6.8689551">
      <time>2021-01-28T05:31:28Z</time>
    </trkpt>
    <trkpt lat="50.9664050" lon="6.8688158">
      <time>2021-01-28T05:31:32Z</time>
    </trkpt>
    <trkpt lat="50.9664145" lon="6.8686701">
      <time>2021-01-28T05:31:36Z</time>
    </trkpt>
    <trkpt lat="50.9663942" lon="6.8686493">
      <time>2021-01-28T05:31:37Z</time>
    </trkpt>
    <trkpt lat="50.9662566" lon="6.8685511">
      <time>2021-01-28T05:31:44Z</time>
    </trkpt>
    <trkpt lat="50.9660865" lon="6.8684584">
      <time>2021-01-28T05:31:52Z</time>
    </trkpt>
    <trkpt lat="50.9659042" lon="6.8684057">
      <time>2021-01-28T05:32:00Z</time>
    </trkpt>
    <trkpt lat="50.9658406" lon="6.8683814">
      <time>2021-01-28T05:32:03Z</time>
    </trkpt>
    <trkpt lat="50.9656460" lon="6.8683235">
      <time>2021-01-28T05:32:12Z</time>
    </trkpt>
    <trkpt lat="50.9655177" lon="6.8683014">
      <time>2021-01-28T05:32:17Z</time>
    </trkpt>
    <trkpt lat="50.9653600" lon="6.8682561">
      <time>2021-01-28T05:32:24Z</time>
    </trkpt>
    <trkpt lat="50.9651961" lon="6.8682043">
      <time>2021-01-28T05:32:31Z</time>
    </trkpt>
    <trkpt lat="50.9650933" lon="6.8681320">
      <time>2021-01-28T05:32:37Z</time>
    </trkpt>
    <trkpt lat="50.9649269" lon="6.8680867">
      <time>2021-01-28T05:32:44Z</time>
    </trkpt>
    <trkpt lat="50.9647791" lon="6.8680965">
      <time>2021-01-28T05:32:50Z</time>
    </trkpt>
    <trkpt lat="50.9647764" lon="6.8681472">
      <time>2021-01-28T05:32:52Z</time>
    </trkpt>
    <trkpt lat="50.9648028" lon="6.8681996">
      <time>2021-01-28T05:32:54Z</time>
    </trkpt>
    <trkpt lat="50.9649308" lon="6.8683151">
      <time>2021-01-28T05:33:01Z</time>
    </trkpt>
    <trkpt lat="50.9651331" lon="6.8683729">
      <time>2021-01-28T05:33:09Z</time>
    </trkpt>
    <trkpt lat="50.9652839" lon="6.8684033">
      <time>2021-01-28T05:33:16Z</time>
    </trkpt>
    <trkpt lat="50.9654685" lon="6.8684283">
      <time>2021-01-28T05:33:24Z</time>
    </trkpt>
    <trkpt lat="50.9656495" lon="6.8684800">
      <time>2021-01-28T05:33:32Z</time>
    </trkpt>
    <trkpt lat="50.9657612" lon="6.8685238">
      <time>2021-01-28T05:33:37Z</time>
    </trkpt>
    <trkpt lat="50.9658137" lon="6.8685438">
      <time>2021-01-28T05:33:39Z</time>
    </trkpt>
    <trkpt lat="50.9659504" lon="6.8686045">
      <time>2021-01-28T05:33:45Z</time>
    </trkpt>
    <trkpt lat="50.9660717" lon="6.8686734">
      <time>2021-01-28T05:33:51Z</time>
    </trkpt>
    <trkpt lat="50.9661534" lon="6.8688237">
      <time>2021-01-28T05:33:55Z</time>
    </trkpt>
    <trkpt lat="50.9661568" lon="6.8689227">
      <time>2021-01-28T05:33:57Z</time>
    </trkpt>
    <trkpt lat="50.9661702" lon="6.8691804">
      <time>2021-01-28T05:34:03Z</time>
    </trkpt>
    <trkpt lat="50.9662200" lon="6.8694177">
      <time>2021-01-28T05:34:09Z</time>
    </trkpt>
    <trkpt lat="50.9662528" lon="6.8695824">
      <time>2021-01-28T05:34:14Z</time>
    </trkpt>
    <trkpt lat="50.9662376" lon="6.8696198">
      <time>2021-01-28T05:34:15Z</time>
    </trkpt>
    <trkpt lat="50.9661689" lon="6.8697854">
      <time>2021-01-28T05:34:20Z</time>
    </trkpt>
    <trkpt lat="50.9661661" lon="6.8698223">
      <time>2021-01-28T05:34:21Z</time>
    </trkpt>
    <trkpt lat="50.9660894" lon="6.8700845">
      <time>2021-01-28T05:34:28Z</time>
    </trkpt>
    <trkpt lat="50.9659735" lon="6.8702764">
      <time>2021-01-28T05:34:34Z</time>
    </trkpt>
    <trkpt lat="50.9658473" lon="6.8704960">
      <time>2021-01-28T05:34:42Z</time>
    </trkpt>
    <trkpt lat="50.9658291" lon="6.8705283">
      <time>2021-01-28T05:34:43Z</time>
    </trkpt>
    <trkpt lat="50.9657498" lon="6.8707102">
      <time>2021-01-28T05:34:49Z</time>
    </trkpt>
    <trkpt lat="50.9657291" lon="6.8709381">
      <time>2021-01-28T05:34:56Z</time>
    </trkpt>
    <trkpt lat="50.9657294" lon="6.8711871">
      <time>2021-01-28T05:35:03Z</time>
    </trkpt>
    <trkpt lat="50.9657187" lon="6.8714843">
      <time>2021-01-28T05:35:10Z</time>
    </trkpt>
    <trkpt lat="50.9657203" lon="6.8715264">
      <time>2021-01-28T05:35:11Z</time>
    </trkpt>
    <trkpt lat="50.9656910" lon="6.8717947">
      <time>2021-01-28T05:35:18Z</time>
    </trkpt>
    <trkpt lat="50.9657105" lon="6.8719898">
      <time>2021-01-28T05:35:23Z</time>
    </trkpt>
    <trkpt lat="50.9656939" lon="6.8720508">
      <time>2021-01-28T05:35:25Z</time>
    </trkpt>
    <trkpt lat="50.9657482" lon="6.8722952">
      <time>2021-01-28T05:35:32Z</time>
    </trkpt>
    <trkpt lat="50.9657616" lon="6.8723504">
      <time>2021-01-28T05:35:34Z</time>
    </trkpt>
    <trkpt lat="50.9657409" lon="6.8724083">
      <time>2021-01-28T05:35:36Z</time>
    </trkpt>
    <trkpt lat="50.9656196" lon="6.8726265">
      <time>2021-01-28T05:35:44Z</time>
    </trkpt>
    <trkpt lat="50.9656040" lon="6.8726529">
      <time>2021-01-28T05:35:45Z</time>
    </trkpt>
    <trkpt lat="50.9655165" lon="6.8728184">
      <time>2021-01-28T05:35:50Z</time>
    </trkpt>
    <trkpt lat="50.9654844" lon="6.8728853">
      <time>2021-01-28T05:35:52Z</time>
    </trkpt>
    <trkpt lat="50.9654139" lon="6.8730593">
      <time>2021-01-28T05:35:58Z</time>
    </trkpt>
    <trkpt lat="50.9652738" lon="6.8732722">
      <time>2021-01-28T05:36:06Z</time>
    </trkpt>
    <trkpt lat="50.9651501" lon="6.8734735">
      <time>2021-01-28T05:36:13Z</time>
    </trkpt>
    <trkpt lat="50.9650251" lon="6.8736671">
      <time>2021-01-28T05:36:20Z</time>
    </trkpt>
    <trkpt lat="50.9649385" lon="6.8738212">
      <time>2021-01-28T05:36:26Z</time>
    </trkpt>
    <trkpt lat="50.9648562" lon="6.8739869">
      <time>2021-01-28T05:36:32Z</time>
    </trkpt>
    <trkpt lat="50.9647619" lon="6.8742310">
      <time>2021-01-28T05:36:40Z</time>
    </trkpt>
    <trkpt lat="50.9647490" lon="6.8743018">
      <time>2021-01-28T05:36:42Z</time>
    </trkpt>
    <trkpt lat="50.9646584" lon="6.8745889">
      <time>2021-01-28T05:36:51Z</time>
    </trkpt>
    <trkpt lat="50.9645682" lon="6.8748197">
      <time>2021-01-28T05:36:58Z</time>
    </trkpt>
    <trkpt lat="50.9645086" lon="6.8750051">
      <time>2021-01-28T05:37:04Z</time>
    </trkpt>
    <trkpt lat="50.9644685" lon="6.8751531">
      <time>2021-01-28T05:37:08Z</time>
    </trkpt>
    <trkpt lat="50.9644656" lon="6.8751894">
      <time>2021-01-28T05:37:09Z</time>
    </trkpt>
    <trkpt lat="50.9644522" lon="6.8754230">
      <time>2021-01-28T05:37:15Z</time>
    </trkpt>
    <trkpt lat="50.9643955" lon="6.8756508">
      <time>2021-01-28T05:37:21Z</time>
    </trkpt>
    <trkpt lat="50.9643646" lon="6.8758969">
      <time>2021-01-28T05:37:28Z</time>
    </trkpt>
    <trkpt lat="50.9643289" lon="6.8761476">
      <time>2021-01-28T05:37:35Z</time>
    </trkpt>
    <trkpt lat="50.9642660" lon="6.8763234">
      <time>2021-01-28T05:37:40Z</time>
    </trkpt>
    <trkpt lat="50.9642098" lon="6.8765705">
      <time>2021-01-28T05:37:47Z</time>
    </trkpt>
    <trkpt lat="50.9641460" lon="6.8768655">
      <time>2021-01-28T05:37:55Z</time>
    </trkpt>
    <trkpt lat="50.9641163" lon="6.8770418">
      <time>2021-01-28T05:38:00Z</time>
    </trkpt>
    <trkpt lat="50.9641064" lon="6.8772210">
      <time>2021-01-28T05:38:05Z</time>
    </trkpt>
    <trkpt lat="50.9640635" lon="6.8773858">
      <time>2021-01-28T05:38:10Z</time>
    </trkpt>
    <trkpt lat="50.9639602" lon="6.8776313">
      <time>2021-01-28T05:38:18Z</time>
    </trkpt>
    <trkpt lat="50.9638802" lon="6.8778607">
      <time>2021-01-28T05:38:25Z</time>
    </trkpt>
    <trkpt lat="50.9638190" lon="6.8779231">
      <time>2021-01-28T05:38:28Z</time>
    </trkpt>
    <trkpt lat="50.9637951" lon="6.8779122">
      <time>2021-01-28T05:38:29Z</time>
    </trkpt>
    <trkpt lat="50.9636800" lon="6.8778206">
      <time>2021-01-28T05:38:34Z</time>
    </trkpt>
    <trkpt lat="50.9635319" lon="6.8777449">
      <time>2021-01-28T05:38:41Z</time>
    </trkpt>
    <trkpt lat="50.9634886" lon="6.8776350">
      <time>2021-01-28T05:38:45Z</time>
    </trkpt>
    <trkpt lat="50.9634896" lon="6.8775931">
      <time>2021-01-28T05:38:47Z</time>
    </trkpt>
    <trkpt lat="50.9634887" lon="6.8775710">
      <time>2021-01-28T05:38:48Z</time>
    </trkpt>
    <trkpt lat="50.9634795" lon="6.8774588">
      <time>2021-01-28T05:38:52Z</time>
    </trkpt>
    <trkpt lat="50.9634537" lon="6.8774218">
      <time>2021-01-28T05:38:54Z</time>
    </trkpt>
    <trkpt lat="50.9634154" lon="6.8773683">
      <time>2021-01-28T05:38:56Z</time>
    </trkpt>
    <trkpt lat="50.9633661" lon="6.8771169">
      <time>2021-01-28T05:39:03Z</time>
    </trkpt>
    <trkpt lat="50.9632069" lon="6.8769659">
      <time>2021-01-28T05:39:09Z</time>
    </trkpt>
    <trkpt lat="50.9631659" lon="6.8769070">
      <time>2021-01-28T05:39:11Z</time>
    </trkpt>
    <trkpt lat="50.9630148" lon="6.8767780">
      <time>2021-01-28T05:39:19Z</time>
    </trkpt>
    <trkpt lat="50.9629116" lon="6.8767020">
      <time>2021-01-28T05:39:23Z</time>
    </trkpt>
    <trkpt lat="50.9628904" lon="6.8766790">
      <time>2021-01-28T05:39:24Z</time>
    </trkpt>
    <trkpt lat="50.9627230" lon="6.8765725">
      <time>2021-01-28T05:39:30Z</time>
    </trkpt>
    <trkpt lat="50.9626707" lon="6.8765461">
      <time>2021-01-28T05:39:32Z</time>
    </trkpt>
    <trkpt lat="50.9624988" lon="6.8764688">
      <time>2021-01-28T05:39:39Z</time>
    </trkpt>
    <trkpt lat="50.9623677" lon="6.8764343">
      <time>2021-01-28T05:39:45Z</time>
    </trkpt>
    <trkpt lat="50.9622166" lon="6.8763910">
      <time>2021-01-28T05:39:52Z</time>
    </trkpt>
    <trkpt lat="50.9621429" lon="6.8763674">
      <time>2021-01-28T05:39:55Z</time>
    </trkpt>
    <trkpt lat="50.9621274" lon="6.8763461">
      <time>2021-01-28T05:39:56Z</time>
    </trkpt>
    <trkpt lat="50.9621073" lon="6.8763315">
      <time>2021-01-28T05:39:57Z</time>
    </trkpt>
    <trkpt lat="50.9620562" lon="6.8763756">
      <time>2021-01-28T05:40:01Z</time>
    </trkpt>
    <trkpt lat="50.9620523" lon="6.8766440">
      <time>2021-01-28T05:40:07Z</time>
    </trkpt>
    <trkpt lat="50.9620914" lon="6.8769556">
      <time>2021-01-28T05:40:15Z</time>
    </trkpt>
    <trkpt lat="50.9620946" lon="6.8771869">
      <time>2021-01-28T05:40:21Z</time>
    </trkpt>
    <trkpt lat="50.9620929" lon="6.8772954">
      <time>2021-01-28T05:40:24Z</time>
    </trkpt>
    <trkpt lat="50.9621068" lon="6.8774243">
      <time>2021-01-28T05:40:28Z</time>
    </trkpt>
    <trkpt lat="50.9620747" lon="6.8775992">
      <time>2021-01-28T05:40:33Z</time>
    </trkpt>
    <trkpt lat="50.9620371" lon="6.8778811">
      <time>2021-01-28T05:40:40Z</time>
    </trkpt>
    <trkpt lat="50.9620362" lon="6.8779173">
      <time>2021-01-28T05:40:41Z</time>
    </trkpt>
    <trkpt lat="50.9620275" lon="6.8780012">
      <time>2021-01-28T05:40:43Z</time>
    </trkpt>
    <trkpt lat="50.9620299" lon="6.8782322">
      <time>2021-01-28T05:40:48Z</time>
    </trkpt>
    <trkpt lat="50.9620337" lon="6.8785541">
      <time>2021-01-28T05:40:56Z</time>
    </trkpt>
    <trkpt lat="50.9620423" lon="6.8787330">
      <time>2021-01-28T05:41:01Z</time>
    </trkpt>
    <trkpt lat="50.9620571" lon="6.8787467">
      <time>2021-01-28T05:41:02Z</time>
    </trkpt>
    <trkpt lat="50.9621579" lon="6.8787785">
      <time>2021-01-28T05:41:08Z</time>
    </trkpt>
    <trkpt lat="50.9622745" lon="6.8788175">
      <time>2021-01-28T05:41:14Z</time>
    </trkpt>
    <trkpt lat="50.9623165" lon="6.8788254">
      <time>2021-01-28T05:41:16Z</time>
    </trkpt>
    <trkpt lat="50.9624931" lon="6.8788989">
      <time>2021-01-28T05:41:24Z</time>
    </trkpt>
    <trkpt lat="50.9625156" lon="6.8789077">
      <time>2021-01-28T05:41:25Z</time>
    </trkpt>
    <trkpt lat="50.9627003" lon="6.8789946">
      <time>2021-01-28T05:41:34Z</time>
    </trkpt>
    <trkpt lat="50.9627788" lon="6.8791200">
      <time>2021-01-28T05:41:39Z</time>
    </trkpt>
    <trkpt lat="50.9627884" lon="6.8791853">
      <time>2021-01-28T05:41:41Z</time>
    </trkpt>
    <trkpt lat="50.9627380" lon="6.8794369">
      <time>2021-01-28T05:41:47Z</time>
    </trkpt>
    <trkpt lat="50.9627281" lon="6.8797108">
      <time>2021-01-28T05:41:54Z</time>
    </trkpt>
    <trkpt lat="50.9627057" lon="6.8800101">
      <time>2021-01-28T05:42:02Z</time>
    </trkpt>
    <trkpt lat="50.9626562" lon="6.8802806">
      <time>2021-01-28T05:42:09Z</time>
    </trkpt>
    <trkpt lat="50.9626154" lon="6.8805840">
      <time>2021-01-28T05:42:17Z</time>
    </trkpt>
    <trkpt lat="50.9626034" lon="6.8806982">
      <time>2021-01-28T05:42:20Z</time>
    </trkpt>
    <trkpt lat="50.9625704" lon="6.8810059">
      <time>2021-01-28T05:42:28Z</time>
    </trkpt>
    <trkpt lat="50.9625299" lon="6.8813108">
      <time>2021-01-28T05:42:36Z</time>
    </trkpt>
    <trkpt lat="50.9625245" lon="6.8813891">
      <time>2021-01-28T05:42:38Z</time>
    </trkpt>
    <trkpt lat="50.9624728" lon="6.8816873">
      <time>2021-01-28T05:42:46Z</time>
    </trkpt>
    <trkpt lat="50.9624575" lon="6.8817539">
      <time>2021-01-28T05:42:48Z</time>
    </trkpt>
    <trkpt lat="50.9624107" lon="6.8820402">
      <time>2021-01-28T05:42:56Z</time>
    </trkpt>
    <trkpt lat="50.9623863" lon="6.8822719">
      <time>2021-01-28T05:43:03Z</time>
    </trkpt>
    <trkpt lat="50.9623501" lon="6.8824975">
      <time>2021-01-28T05:43:10Z</time>
    </trkpt>
    <trkpt lat="50.9623242" lon="6.8826743">
      <time>2021-01-28T05:43:15Z</time>
    </trkpt>
    <trkpt lat="50.9622937" lon="6.8828395">
      <time>2021-01-28T05:43:20Z</time>
    </trkpt>
    <trkpt lat="50.9622682" lon="6.8830609">
      <time>2021-01-28T05:43:27Z</time>
    </trkpt>
    <trkpt lat="50.9622317" lon="6.8832724">
      <time>2021-01-28T05:43:33Z</time>
    </trkpt>
    <trkpt lat="50.9622168" lon="6.8835044">
      <time>2021-01-28T05:43:39Z</time>
    </trkpt>
    <trkpt lat="50.9621624" lon="6.8837764">
      <time>2021-01-28T05:43:46Z</time>
    </trkpt>
    <trkpt lat="50.9621493" lon="6.8838137">
      <time>2021-01-28T05:43:47Z</time>
    </trkpt>
    <trkpt lat="50.9621229" lon="6.8840554">
      <time>2021-01-28T05:43:53Z</time>
    </trkpt>
    <trkpt lat="50.9620596" lon="6.8842387">
      <time>2021-01-28T05:43:58Z</time>
    </trkpt>
    <trkpt lat="50.9620383" lon="6.8842566">
      <time>2021-01-28T05:43:59Z</time>
    </trkpt>
    <trkpt lat="50.9620185" lon="6.8842600">
      <time>2021-01-28T05:44:00Z</time>
    </trkpt>
    <trkpt lat="50.9619952" lon="6.8842199">
      <time>2021-01-28T05:44:02Z</time>
    </trkpt>
    <trkpt lat="50.9619864" lon="6.8841898">
      <time>2021-01-28T05:44:03Z</time>
    </trkpt>
    <trkpt lat="50.9619286" lon="6.8839719">
      <time>2021-01-28T05:44:10Z</time>
    </trkpt>
    <trkpt lat="50.9618457" lon="6.8836855">
      <time>2021-01-28T05:44:18Z</time>
    </trkpt>
    <trkpt lat="50.9618383" lon="6.8836498">
      <time>2021-01-28T05:44:19Z</time>
    </trkpt>
    <trkpt lat="50.9617969" lon="6.8834475">
      <time>2021-01-28T05:44:25Z</time>
    </trkpt>
    <trkpt lat="50.9617336" lon="6.8832335">
      <time>2021-01-28T05:44:31Z</time>
    </trkpt>
    <trkpt lat="50.9616700" lon="6.8829658">
      <time>2021-01-28T05:44:38Z</time>
    </trkpt>
    <trkpt lat="50.9616570" lon="6.8829212">
      <time>2021-01-28T05:44:39Z</time>
    </trkpt>
    <trkpt lat="50.9615721" lon="6.8826828">
      <time>2021-01-28T05:44:46Z</time>
    </trkpt>
    <trkpt lat="50.9614884" lon="6.8823871">
      <time>2021-01-28T05:44:55Z</time>
    </trkpt>
    <trkpt lat="50.9614150" lon="6.8820822">
      <time>2021-01-28T05:45:03Z</time>
    </trkpt>
    <trkpt lat="50.9614060" lon="6.8820453">
      <time>2021-01-28T05:45:04Z</time>
    </trkpt>
    <trkpt lat="50.9613400" lon="6.8817677">
      <time>2021-01-28T05:45:12Z</time>
    </trkpt>
    <trkpt lat="50.9613306" lon="6.8817330">
      <time>2021-01-28T05:45:13Z</time>
    </trkpt>
    <trkpt lat="50.9612481" lon="6.8814413">
      <time>2021-01-28T05:45:21Z</time>
    </trkpt>
    <trkpt lat="50.9612199" lon="6.8813646">
      <time>2021-01-28T05:45:23Z</time>
    </trkpt>
    <trkpt lat="50.9611411" lon="6.8810677">
      <time>2021-01-28T05:45:31Z</time>
    </trkpt>
    <trkpt lat="50.9610675" lon="6.8808078">
      <time>2021-01-28T05:45:38Z</time>
    </trkpt>
    <trkpt lat="50.9610375" lon="6.8806952">
      <time>2021-01-28T05:45:41Z</time>
    </trkpt>
    <trkpt lat="50.9609624" lon="6.8804332">
      <time>2021-01-28T05:45:48Z</time>
    </trkpt>
    <trkpt lat="50.9609294" lon="6.8803201">
      <time>2021-01-28T05:45:51Z</time>
    </trkpt>
    <trkpt lat="50.9608457" lon="6.8800306">
      <time>2021-01-28T05:45:59Z</time>
    </trkpt>
    <trkpt lat="50.9607800" lon="6.8797635">
      <time>2021-01-28T05:46:06Z</time>
    </trkpt>
    <trkpt lat="50.9607632" lon="6.8796842">
      <time>2021-01-28T05:46:08Z</time>
    </trkpt>
    <trkpt lat="50.9607431" lon="6.8795672">
      <time>2021-01-28T05:46:11Z</time>
    </trkpt>
    <trkpt lat="50.9607234" lon="6.8793035">
      <time>2021-01-28T05:46:17Z</time>
    </trkpt>
    <trkpt lat="50.9607791" lon="6.8790339">
      <time>2021-01-28T05:46:24Z</time>
    </trkpt>
    <trkpt lat="50.9608765" lon="6.8788048">
      <time>2021-01-28T05:46:31Z</time>
    </trkpt>
    <trkpt lat="50.9610165" lon="6.8786130">
      <time>2021-01-28T05:46:38Z</time>
    </trkpt>
    <trkpt lat="50.9611319" lon="6.8784991">
      <time>2021-01-28T05:46:44Z</time>
    </trkpt>
    <trkpt lat="50.9612699" lon="6.8784013">
      <time>2021-01-28T05:46:51Z</time>
    </trkpt>
    <trkpt lat="50.9614322" lon="6.8784456">
      <time>2021-01-28T05:46:58Z</time>
    </trkpt>
    <trkpt lat="50.9616051" lon="6.8785348">
      <time>2021-01-28T05:47:05Z</time>
    </trkpt>
    <trkpt lat="50.9616327" lon="6.8785396">
      <time>2021-01-28T05:47:06Z</time>
    </trkpt>
    <trkpt lat="50.9618223" lon="6.8785796">
      <time>2021-01-28T05:47:14Z</time>
    </trkpt>
    <trkpt lat="50.9618726" lon="6.8786037">
      <time>2021-01-28T05:47:16Z</time>
    </trkpt>
    <trkpt lat="50.9620543" lon="6.8786569">
      <time>2021-01-28T05:47:23Z</time>
    </trkpt>
    <trkpt lat="50.9620797" lon="6.8786641">
      <time>2021-01-28T05:47:24Z</time>
    </trkpt>
    <trkpt lat="50.9622741" lon="6.8787590">
      <time>2021-01-28T05:47:31Z</time>
    </trkpt>
    <trkpt lat="50.9624632" lon="6.8788527">
      <time>2021-01-28T05:47:39Z</time>
    </trkpt>
    <trkpt lat="50.9624886" lon="6.8788617">
      <time>2021-01-28T05:47:40Z</time>
    </trkpt>
    <trkpt lat="50.9626697" lon="6.8789357">
      <time>2021-01-28T05:47:47Z</time>
    </trkpt>
    <trkpt lat="50.9628016" lon="6.8790463">
      <time>2021-01-28T05:47:53Z</time>
    </trkpt>
    <trkpt lat="50.9628113" lon="6.8792713">
      <time>2021-01-28T05:47:58Z</time>
    </trkpt>
    <trkpt lat="50.9627956" lon="6.8795648">
      <time>2021-01-28T05:48:05Z</time>
    </trkpt>
    <trkpt lat="50.9627817" lon="6.8796779">
      <time>2021-01-28T05:48:08Z</time>
    </trkpt>
    <trkpt lat="50.9627596" lon="6.8798513">
      <time>2021-01-28T05:48:13Z</time>
    </trkpt>
    <trkpt lat="50.9627312" lon="6.8800385">
      <time>2021-01-28T05:48:18Z</time>
    </trkpt>
    <trkpt lat="50.9626827" lon="6.8803437">
      <time>2021-01-28T05:48:26Z</time>
    </trkpt>
    <trkpt lat="50.9626745" lon="6.8803829">
      <time>2021-01-28T05:48:27Z</time>
    </trkpt>
    <trkpt lat="50.9626172" lon="6.8806848">
      <time>2021-01-28T05:48:35Z</time>
    </trkpt>
    <trkpt lat="50.9626132" lon="6.8807254">
      <time>2021-01-28T05:48:36Z</time>
    </trkpt>
    <trkpt lat="50.9625716" lon="6.8810191">
      <time>2021-01-28T05:48:44Z</time>
    </trkpt>
    <trkpt lat="50.9625659" lon="6.8810568">
      <time>2021-01-28T05:48:45Z</time>
    </trkpt>
    <trkpt lat="50.9625265" lon="6.8813457">
      <time>2021-01-28T05:48:53Z</time>
    </trkpt>
    <trkpt lat="50.9625239" lon="6.8813862">
      <time>2021-01-28T05:48:54Z</time>
    </trkpt>
    <trkpt lat="50.9624751" lon="6.8816718">
      <time>2021-01-28T05:49:02Z</time>
    </trkpt>
    <trkpt lat="50.9624591" lon="6.8817358">
      <time>2021-01-28T05:49:04Z</time>
    </trkpt>
    <trkpt lat="50.9624199" lon="6.8820393">
      <time>2021-01-28T05:49:13Z</time>
    </trkpt>
    <trkpt lat="50.9624107" lon="6.8822443">
      <time>2021-01-28T05:49:19Z</time>
    </trkpt>
    <trkpt lat="50.9623737" lon="6.8825264">
      <time>2021-01-28T05:49:27Z</time>
    </trkpt>
    <trkpt lat="50.9623702" lon="6.8825601">
      <time>2021-01-28T05:49:28Z</time>
    </trkpt>
    <trkpt lat="50.9623373" lon="6.8827593">
      <time>2021-01-28T05:49:34Z</time>
    </trkpt>
    <trkpt lat="50.9622752" lon="6.8830380">
      <time>2021-01-28T05:49:42Z</time>
    </trkpt>
    <trkpt lat="50.9622648" lon="6.8832823">
      <time>2021-01-28T05:49:50Z</time>
    </trkpt>
    <trkpt lat="50.9622196" lon="6.8835174">
      <time>2021-01-28T05:49:56Z</time>
    </trkpt>
    <trkpt lat="50.9621781" lon="6.8837910">
      <time>2021-01-28T05:50:03Z</time>
    </trkpt>
    <trkpt lat="50.9621568" lon="6.8840115">
      <time>2021-01-28T05:50:09Z</time>
    </trkpt>
    <trkpt lat="50.9621170" lon="6.8842525">
      <time>2021-01-28T05:50:15Z</time>
    </trkpt>
    <trkpt lat="50.9620926" lon="6.8842734">
      <time>2021-01-28T05:50:16Z</time>
    </trkpt>
    <trkpt lat="50.9620480" lon="6.8842460">
      <time>2021-01-28T05:50:18Z</time>
    </trkpt>
    <trkpt lat="50.9619912" lon="6.8840576">
      <time>2021-01-28T05:50:24Z</time>
    </trkpt>
    <trkpt lat="50.9619065" lon="6.8838012">
      <time>2021-01-28T05:50:31Z</time>
    </trkpt>
    <trkpt lat="50.9618861" lon="6.8837244">
      <time>2021-01-28T05:50:33Z</time>
    </trkpt>
    <trkpt lat="50.9618073" lon="6.8834365">
      <time>2021-01-28T05:50:41Z</time>
    </trkpt>
    <trkpt lat="50.9617546" lon="6.8832608">
      <time>2021-01-28T05:50:46Z</time>
    </trkpt>
    <trkpt lat="50.9616741" lon="6.8830056">
      <time>2021-01-28T05:50:53Z</time>
    </trkpt>
    <trkpt lat="50.9616620" lon="6.8829611">
      <time>2021-01-28T05:50:54Z</time>
    </trkpt>
    <trkpt lat="50.9615765" lon="6.8827212">
      <time>2021-01-28T05:51:01Z</time>
    </trkpt>
    <trkpt lat="50.9614971" lon="6.8824580">
      <time>2021-01-28T05:51:08Z</time>
    </trkpt>
    <trkpt lat="50.9614921" lon="6.8824217">
      <time>2021-01-28T05:51:09Z</time>
    </trkpt>
    <trkpt lat="50.9614881" lon="6.8823585">
      <time>2021-01-28T05:51:11Z</time>
    </trkpt>
    <trkpt lat="50.9614659" lon="6.8822773">
      <time>2021-01-28T05:51:13Z</time>
    </trkpt>
    <trkpt lat="50.9613979" lon="6.8819893">
      <time>2021-01-28T05:51:20Z</time>
    </trkpt>
    <trkpt lat="50.9613198" lon="6.8817321">
      <time>2021-01-28T05:51:27Z</time>
    </trkpt>
    <trkpt lat="50.9612875" lon="6.8816199">
      <time>2021-01-28T05:51:30Z</time>
    </trkpt>
    <trkpt lat="50.9612194" lon="6.8813137">
      <time>2021-01-28T05:51:38Z</time>
    </trkpt>
    <trkpt lat="50.9612091" lon="6.8812833">
      <time>2021-01-28T05:51:39Z</time>
    </trkpt>
    <trkpt lat="50.9611366" lon="6.8810131">
      <time>2021-01-28T05:51:46Z</time>
    </trkpt>
    <trkpt lat="50.9611121" lon="6.8809094">
      <time>2021-01-28T05:51:49Z</time>
    </trkpt>
    <trkpt lat="50.9610359" lon="6.8806153">
      <time>2021-01-28T05:51:57Z</time>
    </trkpt>
    <trkpt lat="50.9609629" lon="6.8803236">
      <time>2021-01-28T05:52:05Z</time>
    </trkpt>
    <trkpt lat="50.9608701" lon="6.8800368">
      <time>2021-01-28T05:52:13Z</time>
    </trkpt>
    <trkpt lat="50.9608585" lon="6.8799996">
      <time>2021-01-28T05:52:14Z</time>
    </trkpt>
    <trkpt lat="50.9607989" lon="6.8797324">
      <time>2021-01-28T05:52:21Z</time>
    </trkpt>
    <trkpt lat="50.9607564" lon="6.8794412">
      <time>2021-01-28T05:52:29Z</time>
    </trkpt>
    <trkpt lat="50.9607536" lon="6.8793522">
      <time>2021-01-28T05:52:31Z</time>
    </trkpt>
    <trkpt lat="50.9607894" lon="6.8791191">
      <time>2021-01-28T05:52:37Z</time>
    </trkpt>
    <trkpt lat="50.9608476" lon="6.8788706">
      <time>2021-01-28T05:52:44Z</time>
    </trkpt>
    <trkpt lat="50.9609331" lon="6.8787071">
      <time>2021-01-28T05:52:50Z</time>
    </trkpt>
    <trkpt lat="50.9610268" lon="6.8785762">
      <time>2021-01-28T05:52:56Z</time>
    </trkpt>
    <trkpt lat="50.9610810" lon="6.8784884">
      <time>2021-01-28T05:53:00Z</time>
    </trkpt>
    <trkpt lat="50.9611398" lon="6.8784373">
      <time>2021-01-28T05:53:02Z</time>
    </trkpt>
    <trkpt lat="50.9612727" lon="6.8783952">
      <time>2021-01-28T05:53:08Z</time>
    </trkpt>
    <trkpt lat="50.9614198" lon="6.8784261">
      <time>2021-01-28T05:53:14Z</time>
    </trkpt>
    <trkpt lat="50.9615948" lon="6.8785025">
      <time>2021-01-28T05:53:22Z</time>
    </trkpt>
    <trkpt lat="50.9617725" lon="6.8785883">
      <time>2021-01-28T05:53:30Z</time>
    </trkpt>
    <trkpt lat="50.9619421" lon="6.8786585">
      <time>2021-01-28T05:53:38Z</time>
    </trkpt>
    <trkpt lat="50.9619834" lon="6.8786822">
      <time>2021-01-28T05:53:40Z</time>
    </trkpt>
    <trkpt lat="50.9621496" lon="6.8787488">
      <time>2021-01-28T05:53:48Z</time>
    </trkpt>
    <trkpt lat="50.9623420" lon="6.8788307">
      <time>2021-01-28T05:53:55Z</time>
    </trkpt>
    <trkpt lat="50.9623723" lon="6.8788447">
      <time>2021-01-28T05:53:56Z</time>
    </trkpt>
    <trkpt lat="50.9625356" lon="6.8789031">
      <time>2021-01-28T05:54:02Z</time>
    </trkpt>
    <trkpt lat="50.9627314" lon="6.8789818">
      <time>2021-01-28T05:54:10Z</time>
    </trkpt>
    <trkpt lat="50.9627832" lon="6.8790209">
      <time>2021-01-28T05:54:12Z</time>
    </trkpt>
    <trkpt lat="50.9628043" lon="6.8790525">
      <time>2021-01-28T05:54:13Z</time>
    </trkpt>
    <trkpt lat="50.9628524" lon="6.8792056">
      <time>2021-01-28T05:54:17Z</time>
    </trkpt>
    <trkpt lat="50.9628226" lon="6.8795082">
      <time>2021-01-28T05:54:25Z</time>
    </trkpt>
    <trkpt lat="50.9628152" lon="6.8795420">
      <time>2021-01-28T05:54:26Z</time>
    </trkpt>
    <trkpt lat="50.9627689" lon="6.8798410">
      <time>2021-01-28T05:54:34Z</time>
    </trkpt>
    <trkpt lat="50.9627272" lon="6.8801435">
      <time>2021-01-28T05:54:42Z</time>
    </trkpt>
    <trkpt lat="50.9626867" lon="6.8804624">
      <time>2021-01-28T05:54:50Z</time>
    </trkpt>
    <trkpt lat="50.9626430" lon="6.8807486">
      <time>2021-01-28T05:54:57Z</time>
    </trkpt>
    <trkpt lat="50.9626288" lon="6.8808653">
      <time>2021-01-28T05:55:00Z</time>
    </trkpt>
    <trkpt lat="50.9625887" lon="6.8811783">
      <time>2021-01-28T05:55:08Z</time>
    </trkpt>
    <trkpt lat="50.9625823" lon="6.8812155">
      <time>2021-01-28T05:55:09Z</time>
    </trkpt>
    <trkpt lat="50.9625366" lon="6.8815099">
      <time>2021-01-28T05:55:17Z</time>
    </trkpt>
    <trkpt lat="50.9625228" lon="6.8815847">
      <time>2021-01-28T05:55:19Z</time>
    </trkpt>
    <trkpt lat="50.9624636" lon="6.8818686">
      <time>2021-01-28T05:55:27Z</time>
    </trkpt>
    <trkpt lat="50.9624529" lon="6.8819422">
      <time>2021-01-28T05:55:29Z</time>
    </trkpt>
    <trkpt lat="50.9624114" lon="6.8822397">
      <time>2021-01-28T05:55:38Z</time>
    </trkpt>
    <trkpt lat="50.9624069" lon="6.8822774">
      <time>2021-01-28T05:55:39Z</time>
    </trkpt>
    <trkpt lat="50.9623592" lon="6.8825901">
      <time>2021-01-28T05:55:47Z</time>
    </trkpt>
    <trkpt lat="50.9623486" lon="6.8826252">
      <time>2021-01-28T05:55:48Z</time>
    </trkpt>
    <trkpt lat="50.9622875" lon="6.8829137">
      <time>2021-01-28T05:55:56Z</time>
    </trkpt>
    <trkpt lat="50.9622820" lon="6.8829497">
      <time>2021-01-28T05:55:57Z</time>
    </trkpt>
    <trkpt lat="50.9622707" lon="6.8832016">
      <time>2021-01-28T05:56:04Z</time>
    </trkpt>
    <trkpt lat="50.9622308" lon="6.8834672">
      <time>2021-01-28T05:56:12Z</time>
    </trkpt>
    <trkpt lat="50.9621823" lon="6.8837671">
      <time>2021-01-28T05:56:20Z</time>
    </trkpt>
    <trkpt lat="50.9621543" lon="6.8839964">
      <time>2021-01-28T05:56:26Z</time>
    </trkpt>
    <trkpt lat="50.9621134" lon="6.8842091">
      <time>2021-01-28T05:56:31Z</time>
    </trkpt>
    <trkpt lat="50.9620811" lon="6.8842225">
      <time>2021-01-28T05:56:33Z</time>
    </trkpt>
    <trkpt lat="50.9620659" lon="6.8842136">
      <time>2021-01-28T05:56:34Z</time>
    </trkpt>
    <trkpt lat="50.9620234" lon="6.8841183">
      <time>2021-01-28T05:56:37Z</time>
    </trkpt>
    <trkpt lat="50.9619643" lon="6.8839319">
      <time>2021-01-28T05:56:42Z</time>
    </trkpt>
    <trkpt lat="50.9618891" lon="6.8836915">
      <time>2021-01-28T05:56:49Z</time>
    </trkpt>
    <trkpt lat="50.9618159" lon="6.8834035">
      <time>2021-01-28T05:56:57Z</time>
    </trkpt>
    <trkpt lat="50.9617397" lon="6.8831879">
      <time>2021-01-28T05:57:03Z</time>
    </trkpt>
    <trkpt lat="50.9616564" lon="6.8829073">
      <time>2021-01-28T05:57:10Z</time>
    </trkpt>
    <trkpt lat="50.9616292" lon="6.8828304">
      <time>2021-01-28T05:57:12Z</time>
    </trkpt>
    <trkpt lat="50.9615553" lon="6.8826038">
      <time>2021-01-28T05:57:19Z</time>
    </trkpt>
    <trkpt lat="50.9614699" lon="6.8823197">
      <time>2021-01-28T05:57:26Z</time>
    </trkpt>
    <trkpt lat="50.9614635" lon="6.8822532">
      <time>2021-01-28T05:57:28Z</time>
    </trkpt>
    <trkpt lat="50.9613864" lon="6.8819553">
      <time>2021-01-28T05:57:36Z</time>
    </trkpt>
    <trkpt lat="50.9613607" lon="6.8818912">
      <time>2021-01-28T05:57:38Z</time>
    </trkpt>
    <trkpt lat="50.9612933" lon="6.8815929">
      <time>2021-01-28T05:57:46Z</time>
    </trkpt>
    <trkpt lat="50.9612852" lon="6.8815558">
      <time>2021-01-28T05:57:47Z</time>
    </trkpt>
    <trkpt lat="50.9612083" lon="6.8812819">
      <time>2021-01-28T05:57:55Z</time>
    </trkpt>
    <trkpt lat="50.9611975" lon="6.8812465">
      <time>2021-01-28T05:57:56Z</time>
    </trkpt>
    <trkpt lat="50.9611187" lon="6.8809692">
      <time>2021-01-28T05:58:04Z</time>
    </trkpt>
    <trkpt lat="50.9610888" lon="6.8808636">
      <time>2021-01-28T05:58:07Z</time>
    </trkpt>
    <trkpt lat="50.9610213" lon="6.8805951">
      <time>2021-01-28T05:58:14Z</time>
    </trkpt>
    <trkpt lat="50.9609976" lon="6.8805134">
      <time>2021-01-28T05:58:16Z</time>
    </trkpt>
    <trkpt lat="50.9609425" lon="6.8803105">
      <time>2021-01-28T05:58:21Z</time>
    </trkpt>
    <trkpt lat="50.9608857" lon="6.8801195">
      <time>2021-01-28T05:58:26Z</time>
    </trkpt>
    <trkpt lat="50.9608174" lon="6.8798408">
      <time>2021-01-28T05:58:33Z</time>
    </trkpt>
    <trkpt lat="50.9607931" lon="6.8797207">
      <time>2021-01-28T05:58:36Z</time>
    </trkpt>
    <trkpt lat="50.9607656" lon="6.8794136">
      <time>2021-01-28T05:58:43Z</time>
    </trkpt>
    <trkpt lat="50.9607985" lon="6.8791380">
      <time>2021-01-28T05:58:49Z</time>
    </trkpt>
    <trkpt lat="50.9608128" lon="6.8791016">
      <time>2021-01-28T05:58:50Z</time>
    </trkpt>
    <trkpt lat="50.9608964" lon="6.8788479">
      <time>2021-01-28T05:58:57Z</time>
    </trkpt>
    <trkpt lat="50.9609798" lon="6.8786612">
      <time>2021-01-28T05:59:03Z</time>
    </trkpt>
    <trkpt lat="50.9610287" lon="6.8785502">
      <time>2021-01-28T05:59:08Z</time>
    </trkpt>
    <trkpt lat="50.9610375" lon="6.8785290">
      <time>2021-01-28T05:59:09Z</time>
    </trkpt>
    <trkpt lat="50.9611050" lon="6.8784549">
      <time>2021-01-28T05:59:13Z</time>
    </trkpt>
    <trkpt lat="50.9613006" lon="6.8784466">
      <time>2021-01-28T05:59:20Z</time>
    </trkpt>
    <trkpt lat="50.9614870" lon="6.8785000">
      <time>2021-01-28T05:59:27Z</time>
    </trkpt>
    <trkpt lat="50.9615110" lon="6.8785043">
      <time>2021-01-28T05:59:28Z</time>
    </trkpt>
    <trkpt lat="50.9617091" lon="6.8785634">
      <time>2021-01-28T05:59:36Z</time>
    </trkpt>
    <trkpt lat="50.9618675" lon="6.8786237">
      <time>2021-01-28T05:59:42Z</time>
    </trkpt>
    <trkpt lat="50.9619981" lon="6.8785938">
      <time>2021-01-28T05:59:48Z</time>
    </trkpt>
    <trkpt lat="50.9620313" lon="6.8783661">
      <time>2021-01-28T05:59:54Z</time>
    </trkpt>
    <trkpt lat="50.9620555" lon="6.8781833">
      <time>2021-01-28T05:59:59Z</time>
    </trkpt>
    <trkpt lat="50.9620507" lon="6.8780711">
      <time>2021-01-28T06:00:02Z</time>
    </trkpt>
    <trkpt lat="50.9620555" lon="6.8777770">
      <time>2021-01-28T06:00:09Z</time>
    </trkpt>
    <trkpt lat="50.9620546" lon="6.8777376">
      <time>2021-01-28T06:00:10Z</time>
    </trkpt>
    <trkpt lat="50.9620581" lon="6.8775564">
      <time>2021-01-28T06:00:15Z</time>
    </trkpt>
    <trkpt lat="50.9620518" lon="6.8775097">
      <time>2021-01-28T06:00:16Z</time>
    </trkpt>
    <trkpt lat="50.9620331" lon="6.8771791">
      <time>2021-01-28T06:00:24Z</time>
    </trkpt>
    <trkpt lat="50.9620141" lon="6.8768525">
      <time>2021-01-28T06:00:31Z</time>
    </trkpt>
    <trkpt lat="50.9620310" lon="6.8765387">
      <time>2021-01-28T06:00:38Z</time>
    </trkpt>
    <trkpt lat="50.9620698" lon="6.8762995">
      <time>2021-01-28T06:00:44Z</time>
    </trkpt>
    <trkpt lat="50.9620839" lon="6.8762747">
      <time>2021-01-28T06:00:45Z</time>
    </trkpt>
    <trkpt lat="50.9622016" lon="6.8762978">
      <time>2021-01-28T06:00:50Z</time>
    </trkpt>
    <trkpt lat="50.9622232" lon="6.8763253">
      <time>2021-01-28T06:00:51Z</time>
    </trkpt>
    <trkpt lat="50.9622740" lon="6.8763958">
      <time>2021-01-28T06:00:54Z</time>
    </trkpt>
    <trkpt lat="50.9624249" lon="6.8764581">
      <time>2021-01-28T06:01:00Z</time>
    </trkpt>
    <trkpt lat="50.9626234" lon="6.8764522">
      <time>2021-01-28T06:01:06Z</time>
    </trkpt>
    <trkpt lat="50.9626556" lon="6.8764557">
      <time>2021-01-28T06:01:07Z</time>
    </trkpt>
    <trkpt lat="50.9627914" lon="6.8763879">
      <time>2021-01-28T06:01:12Z</time>
    </trkpt>
    <trkpt lat="50.9628982" lon="6.8762562">
      <time>2021-01-28T06:01:18Z</time>
    </trkpt>
    <trkpt lat="50.9630743" lon="6.8762466">
      <time>2021-01-28T06:01:26Z</time>
    </trkpt>
    <trkpt lat="50.9631145" lon="6.8762296">
      <time>2021-01-28T06:01:28Z</time>
    </trkpt>
    <trkpt lat="50.9631489" lon="6.8761484">
      <time>2021-01-28T06:01:31Z</time>
    </trkpt>
    <trkpt lat="50.9632711" lon="6.8759940">
      <time>2021-01-28T06:01:37Z</time>
    </trkpt>
    <trkpt lat="50.9633681" lon="6.8758757">
      <time>2021-01-28T06:01:42Z</time>
    </trkpt>
    <trkpt lat="50.9634528" lon="6.8759207">
      <time>2021-01-28T06:01:47Z</time>
    </trkpt>
    <trkpt lat="50.9634645" lon="6.8759251">
      <time>2021-01-28T06:01:48Z</time>
    </trkpt>
  </trkseg></trk>
</gpx>
