<?xml version="1.0" encoding="UTF-8"?>
<gpx version="1.1" creator="Diary FIT converter" xmlns="http://www.topografix.com/GPX/1/1">
  <trk><name>Cycling</name><trkseg>
    <trkpt lat="50.9630861" lon="6.8762743">
      <time>2022-04-19T11:40:13Z</time>
    </trkpt>
    <trkpt lat="50.9630009" lon="6.8763849">
      <time>2022-04-19T11:40:15Z</time>
    </trkpt>
    <trkpt lat="50.9628623" lon="6.8763403">
      <time>2022-04-19T11:40:20Z</time>
    </trkpt>
    <trkpt lat="50.9627048" lon="6.8764154">
      <time>2022-04-19T11:40:26Z</time>
    </trkpt>
    <trkpt lat="50.9625946" lon="6.8765196">
      <time>2022-04-19T11:40:31Z</time>
    </trkpt>
    <trkpt lat="50.9623692" lon="6.8764835">
      <time>2022-04-19T11:40:38Z</time>
    </trkpt>
    <trkpt lat="50.9622185" lon="6.8764298">
      <time>2022-04-19T11:40:43Z</time>
    </trkpt>
    <trkpt lat="50.9621829" lon="6.8764262">
      <time>2022-04-19T11:40:47Z</time>
    </trkpt>
    <trkpt lat="50.9621829" lon="6.8764287">
      <time>2022-04-19T11:40:48Z</time>
    </trkpt>
    <trkpt lat="50.9621575" lon="6.8764189">
      <time>2022-04-19T11:41:34Z</time>
    </trkpt>
    <trkpt lat="50.9621406" lon="6.8764091">
      <time>2022-04-19T11:41:35Z</time>
    </trkpt>
    <trkpt lat="50.9621279" lon="6.8763976">
      <time>2022-04-19T11:41:36Z</time>
    </trkpt>
    <trkpt lat="50.9621129" lon="6.8763902">
      <time>2022-04-19T11:41:37Z</time>
    </trkpt>
    <trkpt lat="50.9620947" lon="6.8763855">
      <time>2022-04-19T11:41:38Z</time>
    </trkpt>
    <trkpt lat="50.9620313" lon="6.8763667">
      <time>2022-04-19T11:41:42Z</time>
    </trkpt>
    <trkpt lat="50.9619776" lon="6.8764589">
      <time>2022-04-19T11:41:47Z</time>
    </trkpt>
    <trkpt lat="50.9619839" lon="6.8764800">
      <time>2022-04-19T11:41:48Z</time>
    </trkpt>
    <trkpt lat="50.9620074" lon="6.8766895">
      <time>2022-04-19T11:41:53Z</time>
    </trkpt>
    <trkpt lat="50.9620005" lon="6.8768496">
      <time>2022-04-19T11:41:57Z</time>
    </trkpt>
    <trkpt lat="50.9617856" lon="6.8770202">
      <time>2022-04-19T11:42:03Z</time>
    </trkpt>
    <trkpt lat="50.9616871" lon="6.8770641">
      <time>2022-04-19T11:42:06Z</time>
    </trkpt>
    <trkpt lat="50.9615789" lon="6.8771280">
      <time>2022-04-19T11:42:09Z</time>
    </trkpt>
    <trkpt lat="50.9612938" lon="6.8773012">
      <time>2022-04-19T11:42:17Z</time>
    </trkpt>
    <trkpt lat="50.9610622" lon="6.8774361">
      <time>2022-04-19T11:42:24Z</time>
    </trkpt>
    <trkpt lat="50.9607308" lon="6.8775570">
      <time>2022-04-19T11:42:32Z</time>
    </trkpt>
    <trkpt lat="50.9605390" lon="6.8776325">
      <time>2022-04-19T11:42:37Z</time>
    </trkpt>
    <trkpt lat="50.9605000" lon="6.8776448">
      <time>2022-04-19T11:42:38Z</time>
    </trkpt>
    <trkpt lat="50.9602571" lon="6.8777587">
      <time>2022-04-19T11:42:44Z</time>
    </trkpt>
    <trkpt lat="50.9601761" lon="6.8777606">
      <time>2022-04-19T11:42:46Z</time>
    </trkpt>
    <trkpt lat="50.9600009" lon="6.8776363">
      <time>2022-04-19T11:42:51Z</time>
    </trkpt>
    <trkpt lat="50.9598700" lon="6.8775018">
      <time>2022-04-19T11:42:55Z</time>
    </trkpt>
    <trkpt lat="50.9598005" lon="6.8773922">
      <time>2022-04-19T11:42:58Z</time>
    </trkpt>
    <trkpt lat="50.9597482" lon="6.8771847">
      <time>2022-04-19T11:43:02Z</time>
    </trkpt>
    <trkpt lat="50.9597647" lon="6.8770743">
      <time>2022-04-19T11:43:04Z</time>
    </trkpt>
    <trkpt lat="50.9597991" lon="6.8769819">
      <time>2022-04-19T11:43:06Z</time>
    </trkpt>
    <trkpt lat="50.9598143" lon="6.8767118">
      <time>2022-04-19T11:43:11Z</time>
    </trkpt>
    <trkpt lat="50.9597786" lon="6.8763666">
      <time>2022-04-19T11:43:17Z</time>
    </trkpt>
    <trkpt lat="50.9597291" lon="6.8759334">
      <time>2022-04-19T11:43:24Z</time>
    </trkpt>
    <trkpt lat="50.9597117" lon="6.8758056">
      <time>2022-04-19T11:43:26Z</time>
    </trkpt>
    <trkpt lat="50.9596985" lon="6.8754966">
      <time>2022-04-19T11:43:31Z</time>
    </trkpt>
    <trkpt lat="50.9597152" lon="6.8750164">
      <time>2022-04-19T11:43:39Z</time>
    </trkpt>
    <trkpt lat="50.9597473" lon="6.8745792">
      <time>2022-04-19T11:43:46Z</time>
    </trkpt>
    <trkpt lat="50.9597929" lon="6.8739876">
      <time>2022-04-19T11:43:56Z</time>
    </trkpt>
    <trkpt lat="50.9598186" lon="6.8737416">
      <time>2022-04-19T11:44:01Z</time>
    </trkpt>
    <trkpt lat="50.9598236" lon="6.8736447">
      <time>2022-04-19T11:44:03Z</time>
    </trkpt>
    <trkpt lat="50.9597548" lon="6.8733106">
      <time>2022-04-19T11:44:10Z</time>
    </trkpt>
    <trkpt lat="50.9597397" lon="6.8730944">
      <time>2022-04-19T11:44:15Z</time>
    </trkpt>
    <trkpt lat="50.9596939" lon="6.8728713">
      <time>2022-04-19T11:44:20Z</time>
    </trkpt>
    <trkpt lat="50.9596464" lon="6.8726605">
      <time>2022-04-19T11:44:23Z</time>
    </trkpt>
    <trkpt lat="50.9596169" lon="6.8725187">
      <time>2022-04-19T11:44:25Z</time>
    </trkpt>
    <trkpt lat="50.9595663" lon="6.8722559">
      <time>2022-04-19T11:44:28Z</time>
    </trkpt>
    <trkpt lat="50.9595052" lon="6.8719090">
      <time>2022-04-19T11:44:32Z</time>
    </trkpt>
    <trkpt lat="50.9594412" lon="6.8716705">
      <time>2022-04-19T11:44:35Z</time>
    </trkpt>
    <trkpt lat="50.9593410" lon="6.8712888">
      <time>2022-04-19T11:44:40Z</time>
    </trkpt>
    <trkpt lat="50.9592571" lon="6.8710107">
      <time>2022-04-19T11:44:44Z</time>
    </trkpt>
    <trkpt lat="50.9591901" lon="6.8709070">
      <time>2022-04-19T11:44:46Z</time>
    </trkpt>
    <trkpt lat="50.9590214" lon="6.8707930">
      <time>2022-04-19T11:44:51Z</time>
    </trkpt>
    <trkpt lat="50.9587704" lon="6.8708067">
      <time>2022-04-19T11:44:57Z</time>
    </trkpt>
    <trkpt lat="50.9585903" lon="6.8707742">
      <time>2022-04-19T11:45:01Z</time>
    </trkpt>
    <trkpt lat="50.9585485" lon="6.8707628">
      <time>2022-04-19T11:45:02Z</time>
    </trkpt>
    <trkpt lat="50.9585028" lon="6.8707468">
      <time>2022-04-19T11:45:03Z</time>
    </trkpt>
    <trkpt lat="50.9584643" lon="6.8707224">
      <time>2022-04-19T11:45:04Z</time>
    </trkpt>
    <trkpt lat="50.9584331" lon="6.8706915">
      <time>2022-04-19T11:45:05Z</time>
    </trkpt>
    <trkpt lat="50.9583912" lon="6.8706161">
      <time>2022-04-19T11:45:07Z</time>
    </trkpt>
    <trkpt lat="50.9583720" lon="6.8705879">
      <time>2022-04-19T11:45:08Z</time>
    </trkpt>
    <trkpt lat="50.9583135" lon="6.8705177">
      <time>2022-04-19T11:45:11Z</time>
    </trkpt>
    <trkpt lat="50.9583090" lon="6.8704876">
      <time>2022-04-19T11:45:12Z</time>
    </trkpt>
    <trkpt lat="50.9583117" lon="6.8704530">
      <time>2022-04-19T11:45:13Z</time>
    </trkpt>
    <trkpt lat="50.9583392" lon="6.8703263">
      <time>2022-04-19T11:45:16Z</time>
    </trkpt>
    <trkpt lat="50.9583459" lon="6.8702784">
      <time>2022-04-19T11:45:17Z</time>
    </trkpt>
    <trkpt lat="50.9583635" lon="6.8701768">
      <time>2022-04-19T11:45:19Z</time>
    </trkpt>
    <trkpt lat="50.9583812" lon="6.8700409">
      <time>2022-04-19T11:45:22Z</time>
    </trkpt>
    <trkpt lat="50.9583981" lon="6.8699560">
      <time>2022-04-19T11:45:24Z</time>
    </trkpt>
    <trkpt lat="50.9584519" lon="6.8697824">
      <time>2022-04-19T11:45:29Z</time>
    </trkpt>
    <trkpt lat="50.9584750" lon="6.8696728">
      <time>2022-04-19T11:45:34Z</time>
    </trkpt>
    <trkpt lat="50.9584807" lon="6.8696022">
      <time>2022-04-19T11:45:39Z</time>
    </trkpt>
    <trkpt lat="50.9584791" lon="6.8695704">
      <time>2022-04-19T11:45:41Z</time>
    </trkpt>
    <trkpt lat="50.9584832" lon="6.8695404">
      <time>2022-04-19T11:45:43Z</time>
    </trkpt>
    <trkpt lat="50.9585029" lon="6.8695097">
      <time>2022-04-19T11:45:46Z</time>
    </trkpt>
    <trkpt lat="50.9585055" lon="6.8695054">
      <time>2022-04-19T11:45:49Z</time>
    </trkpt>
    <trkpt lat="50.9585347" lon="6.8694435">
      <time>2022-04-19T11:48:30Z</time>
    </trkpt>
    <trkpt lat="50.9585541" lon="6.8693959">
      <time>2022-04-19T11:48:31Z</time>
    </trkpt>
    <trkpt lat="50.9586324" lon="6.8690544">
      <time>2022-04-19T11:48:36Z</time>
    </trkpt>
    <trkpt lat="50.9586595" lon="6.8689086">
      <time>2022-04-19T11:48:38Z</time>
    </trkpt>
    <trkpt lat="50.9586302" lon="6.8688080">
      <time>2022-04-19T11:48:40Z</time>
    </trkpt>
    <trkpt lat="50.9585098" lon="6.8687616">
      <time>2022-04-19T11:48:44Z</time>
    </trkpt>
    <trkpt lat="50.9584924" lon="6.8687658">
      <time>2022-04-19T11:48:47Z</time>
    </trkpt>
    <trkpt lat="50.9584856" lon="6.8687326">
      <time>2022-04-19T11:49:15Z</time>
    </trkpt>
    <trkpt lat="50.9584795" lon="6.8686990">
      <time>2022-04-19T11:49:16Z</time>
    </trkpt>
    <trkpt lat="50.9584773" lon="6.8686502">
      <time>2022-04-19T11:49:17Z</time>
    </trkpt>
    <trkpt lat="50.9584611" lon="6.8683837">
      <time>2022-04-19T11:49:22Z</time>
    </trkpt>
    <trkpt lat="50.9585744" lon="6.8682907">
      <time>2022-04-19T11:49:26Z</time>
    </trkpt>
    <trkpt lat="50.9586875" lon="6.8682132">
      <time>2022-04-19T11:49:29Z</time>
    </trkpt>
    <trkpt lat="50.9587261" lon="6.8681641">
      <time>2022-04-19T11:49:30Z</time>
    </trkpt>
    <trkpt lat="50.9587608" lon="6.8680940">
      <time>2022-04-19T11:49:31Z</time>
    </trkpt>
    <trkpt lat="50.9588026" lon="6.8679373">
      <time>2022-04-19T11:49:33Z</time>
    </trkpt>
    <trkpt lat="50.9588950" lon="6.8676016">
      <time>2022-04-19T11:49:37Z</time>
    </trkpt>
    <trkpt lat="50.9589136" lon="6.8675204">
      <time>2022-04-19T11:49:38Z</time>
    </trkpt>
    <trkpt lat="50.9589340" lon="6.8674447">
      <time>2022-04-19T11:49:39Z</time>
    </trkpt>
    <trkpt lat="50.9589997" lon="6.8672214">
      <time>2022-04-19T11:49:42Z</time>
    </trkpt>
    <trkpt lat="50.9590329" lon="6.8670666">
      <time>2022-04-19T11:49:44Z</time>
    </trkpt>
    <trkpt lat="50.9590542" lon="6.8669992">
      <time>2022-04-19T11:49:45Z</time>
    </trkpt>
    <trkpt lat="50.9591360" lon="6.8668052">
      <time>2022-04-19T11:49:48Z</time>
    </trkpt>
    <trkpt lat="50.9591550" lon="6.8667335">
      <time>2022-04-19T11:49:49Z</time>
    </trkpt>
    <trkpt lat="50.9591757" lon="6.8666606">
      <time>2022-04-19T11:49:50Z</time>
    </trkpt>
    <trkpt lat="50.9592928" lon="6.8662794">
      <time>2022-04-19T11:49:55Z</time>
    </trkpt>
    <trkpt lat="50.9594347" lon="6.8657973">
      <time>2022-04-19T11:50:01Z</time>
    </trkpt>
    <trkpt lat="50.9594569" lon="6.8657111">
      <time>2022-04-19T11:50:02Z</time>
    </trkpt>
    <trkpt lat="50.9596260" lon="6.8649332">
      <time>2022-04-19T11:50:10Z</time>
    </trkpt>
    <trkpt lat="50.9596420" lon="6.8644070">
      <time>2022-04-19T11:50:15Z</time>
    </trkpt>
    <trkpt lat="50.9595461" lon="6.8636802">
      <time>2022-04-19T11:50:22Z</time>
    </trkpt>
    <trkpt lat="50.9595148" lon="6.8633736">
      <time>2022-04-19T11:50:25Z</time>
    </trkpt>
    <trkpt lat="50.9595055" lon="6.8631652">
      <time>2022-04-19T11:50:27Z</time>
    </trkpt>
    <trkpt lat="50.9595041" lon="6.8627539">
      <time>2022-04-19T11:50:31Z</time>
    </trkpt>
    <trkpt lat="50.9595512" lon="6.8620791">
      <time>2022-04-19T11:50:38Z</time>
    </trkpt>
    <trkpt lat="50.9595601" lon="6.8616879">
      <time>2022-04-19T11:50:42Z</time>
    </trkpt>
    <trkpt lat="50.9595694" lon="6.8615261">
      <time>2022-04-19T11:50:44Z</time>
    </trkpt>
    <trkpt lat="50.9596089" lon="6.8609835">
      <time>2022-04-19T11:50:50Z</time>
    </trkpt>
    <trkpt lat="50.9596328" lon="6.8605739">
      <time>2022-04-19T11:50:54Z</time>
    </trkpt>
    <trkpt lat="50.9596445" lon="6.8602578">
      <time>2022-04-19T11:50:57Z</time>
    </trkpt>
    <trkpt lat="50.9596860" lon="6.8597561">
      <time>2022-04-19T11:51:02Z</time>
    </trkpt>
    <trkpt lat="50.9597373" lon="6.8591235">
      <time>2022-04-19T11:51:08Z</time>
    </trkpt>
    <trkpt lat="50.9597918" lon="6.8584547">
      <time>2022-04-19T11:51:14Z</time>
    </trkpt>
    <trkpt lat="50.9597925" lon="6.8583435">
      <time>2022-04-19T11:51:15Z</time>
    </trkpt>
    <trkpt lat="50.9598138" lon="6.8580084">
      <time>2022-04-19T11:51:18Z</time>
    </trkpt>
    <trkpt lat="50.9598687" lon="6.8573129">
      <time>2022-04-19T11:51:24Z</time>
    </trkpt>
    <trkpt lat="50.9599262" lon="6.8564123">
      <time>2022-04-19T11:51:32Z</time>
    </trkpt>
    <trkpt lat="50.9599408" lon="6.8561822">
      <time>2022-04-19T11:51:34Z</time>
    </trkpt>
    <trkpt lat="50.9600065" lon="6.8552678">
      <time>2022-04-19T11:51:42Z</time>
    </trkpt>
    <trkpt lat="50.9600421" lon="6.8547052">
      <time>2022-04-19T11:51:47Z</time>
    </trkpt>
    <trkpt lat="50.9600665" lon="6.8543778">
      <time>2022-04-19T11:51:50Z</time>
    </trkpt>
    <trkpt lat="50.9601264" lon="6.8536208">
      <time>2022-04-19T11:51:57Z</time>
    </trkpt>
    <trkpt lat="50.9601516" lon="6.8532955">
      <time>2022-04-19T11:52:00Z</time>
    </trkpt>
    <trkpt lat="50.9602144" lon="6.8524380">
      <time>2022-04-19T11:52:08Z</time>
    </trkpt>
    <trkpt lat="50.9602280" lon="6.8521072">
      <time>2022-04-19T11:52:11Z</time>
    </trkpt>
    <trkpt lat="50.9602859" lon="6.8512040">
      <time>2022-04-19T11:52:19Z</time>
    </trkpt>
    <trkpt lat="50.9602873" lon="6.8510856">
      <time>2022-04-19T11:52:20Z</time>
    </trkpt>
    <trkpt lat="50.9603350" lon="6.8501435">
      <time>2022-04-19T11:52:28Z</time>
    </trkpt>
    <trkpt lat="50.9603477" lon="6.8500164">
      <time>2022-04-19T11:52:29Z</time>
    </trkpt>
    <trkpt lat="50.9604151" lon="6.8490689">
      <time>2022-04-19T11:52:37Z</time>
    </trkpt>
    <trkpt lat="50.9604845" lon="6.8482916">
      <time>2022-04-19T11:52:44Z</time>
    </trkpt>
    <trkpt lat="50.9605005" lon="6.8480586">
      <time>2022-04-19T11:52:46Z</time>
    </trkpt>
    <trkpt lat="50.9605185" lon="6.8478270">
      <time>2022-04-19T11:52:48Z</time>
    </trkpt>
    <trkpt lat="50.9605281" lon="6.8477162">
      <time>2022-04-19T11:52:49Z</time>
    </trkpt>
    <trkpt lat="50.9605365" lon="6.8476030">
      <time>2022-04-19T11:52:50Z</time>
    </trkpt>
    <trkpt lat="50.9605599" lon="6.8472602">
      <time>2022-04-19T11:52:53Z</time>
    </trkpt>
    <trkpt lat="50.9606145" lon="6.8464175">
      <time>2022-04-19T11:53:00Z</time>
    </trkpt>
    <trkpt lat="50.9606868" lon="6.8455488">
      <time>2022-04-19T11:53:08Z</time>
    </trkpt>
    <trkpt lat="50.9606895" lon="6.8452408">
      <time>2022-04-19T11:53:11Z</time>
    </trkpt>
    <trkpt lat="50.9607342" lon="6.8449465">
      <time>2022-04-19T11:53:14Z</time>
    </trkpt>
    <trkpt lat="50.9607481" lon="6.8448457">
      <time>2022-04-19T11:53:15Z</time>
    </trkpt>
    <trkpt lat="50.9607567" lon="6.8445256">
      <time>2022-04-19T11:53:18Z</time>
    </trkpt>
    <trkpt lat="50.9608082" lon="6.8435944">
      <time>2022-04-19T11:53:27Z</time>
    </trkpt>
    <trkpt lat="50.9608512" lon="6.8430044">
      <time>2022-04-19T11:53:33Z</time>
    </trkpt>
    <trkpt lat="50.9608636" lon="6.8428103">
      <time>2022-04-19T11:53:35Z</time>
    </trkpt>
    <trkpt lat="50.9609056" lon="6.8421983">
      <time>2022-04-19T11:53:41Z</time>
    </trkpt>
    <trkpt lat="50.9609670" lon="6.8413857">
      <time>2022-04-19T11:53:49Z</time>
    </trkpt>
    <trkpt lat="50.9610080" lon="6.8407374">
      <time>2022-04-19T11:53:56Z</time>
    </trkpt>
    <trkpt lat="50.9610138" lon="6.8405701">
      <time>2022-04-19T11:53:58Z</time>
    </trkpt>
    <trkpt lat="50.9610221" lon="6.8404910">
      <time>2022-04-19T11:53:59Z</time>
    </trkpt>
    <trkpt lat="50.9610482" lon="6.8402739">
      <time>2022-04-19T11:54:02Z</time>
    </trkpt>
    <trkpt lat="50.9610910" lon="6.8401543">
      <time>2022-04-19T11:54:04Z</time>
    </trkpt>
    <trkpt lat="50.9611459" lon="6.8400548">
      <time>2022-04-19T11:54:06Z</time>
    </trkpt>
    <trkpt lat="50.9611974" lon="6.8399543">
      <time>2022-04-19T11:54:08Z</time>
    </trkpt>
    <trkpt lat="50.9611945" lon="6.8398716">
      <time>2022-04-19T11:54:10Z</time>
    </trkpt>
    <trkpt lat="50.9611773" lon="6.8399091">
      <time>2022-04-19T11:54:12Z</time>
    </trkpt>
    <trkpt lat="50.9611558" lon="6.8400157">
      <time>2022-04-19T11:54:14Z</time>
    </trkpt>
    <trkpt lat="50.9611008" lon="6.8401201">
      <time>2022-04-19T11:54:16Z</time>
    </trkpt>
    <trkpt lat="50.9610254" lon="6.8403064">
      <time>2022-04-19T11:54:19Z</time>
    </trkpt>
    <trkpt lat="50.9610063" lon="6.8404636">
      <time>2022-04-19T11:54:21Z</time>
    </trkpt>
    <trkpt lat="50.9610039" lon="6.8405466">
      <time>2022-04-19T11:54:22Z</time>
    </trkpt>
    <trkpt lat="50.9610054" lon="6.8408355">
      <time>2022-04-19T11:54:25Z</time>
    </trkpt>
    <trkpt lat="50.9609636" lon="6.8413135">
      <time>2022-04-19T11:54:30Z</time>
    </trkpt>
    <trkpt lat="50.9609486" lon="6.8415288">
      <time>2022-04-19T11:54:32Z</time>
    </trkpt>
    <trkpt lat="50.9608935" lon="6.8422181">
      <time>2022-04-19T11:54:39Z</time>
    </trkpt>
    <trkpt lat="50.9608610" lon="6.8428043">
      <time>2022-04-19T11:54:45Z</time>
    </trkpt>
    <trkpt lat="50.9608075" lon="6.8433725">
      <time>2022-04-19T11:54:51Z</time>
    </trkpt>
    <trkpt lat="50.9607943" lon="6.8435556">
      <time>2022-04-19T11:54:53Z</time>
    </trkpt>
    <trkpt lat="50.9607416" lon="6.8444904">
      <time>2022-04-19T11:55:03Z</time>
    </trkpt>
    <trkpt lat="50.9606870" lon="6.8451979">
      <time>2022-04-19T11:55:11Z</time>
    </trkpt>
    <trkpt lat="50.9606601" lon="6.8456927">
      <time>2022-04-19T11:55:17Z</time>
    </trkpt>
    <trkpt lat="50.9606129" lon="6.8462100">
      <time>2022-04-19T11:55:24Z</time>
    </trkpt>
    <trkpt lat="50.9606030" lon="6.8463616">
      <time>2022-04-19T11:55:26Z</time>
    </trkpt>
    <trkpt lat="50.9605607" lon="6.8468292">
      <time>2022-04-19T11:55:32Z</time>
    </trkpt>
    <trkpt lat="50.9605195" lon="6.8474684">
      <time>2022-04-19T11:55:41Z</time>
    </trkpt>
    <trkpt lat="50.9604617" lon="6.8481099">
      <time>2022-04-19T11:55:50Z</time>
    </trkpt>
    <trkpt lat="50.9604381" lon="6.8486665">
      <time>2022-04-19T11:55:57Z</time>
    </trkpt>
    <trkpt lat="50.9604281" lon="6.8488169">
      <time>2022-04-19T11:55:59Z</time>
    </trkpt>
    <trkpt lat="50.9604029" lon="6.8491210">
      <time>2022-04-19T11:56:03Z</time>
    </trkpt>
    <trkpt lat="50.9603492" lon="6.8497922">
      <time>2022-04-19T11:56:11Z</time>
    </trkpt>
    <trkpt lat="50.9603268" lon="6.8500694">
      <time>2022-04-19T11:56:14Z</time>
    </trkpt>
    <trkpt lat="50.9603127" lon="6.8502590">
      <time>2022-04-19T11:56:16Z</time>
    </trkpt>
    <trkpt lat="50.9603006" lon="6.8504487">
      <time>2022-04-19T11:56:18Z</time>
    </trkpt>
    <trkpt lat="50.9602941" lon="6.8505440">
      <time>2022-04-19T11:56:19Z</time>
    </trkpt>
    <trkpt lat="50.9602572" lon="6.8510359">
      <time>2022-04-19T11:56:24Z</time>
    </trkpt>
    <trkpt lat="50.9602495" lon="6.8511779">
      <time>2022-04-19T11:56:26Z</time>
    </trkpt>
    <trkpt lat="50.9602197" lon="6.8515513">
      <time>2022-04-19T11:56:31Z</time>
    </trkpt>
    <trkpt lat="50.9601939" lon="6.8520591">
      <time>2022-04-19T11:56:37Z</time>
    </trkpt>
    <trkpt lat="50.9601838" lon="6.8522339">
      <time>2022-04-19T11:56:39Z</time>
    </trkpt>
    <trkpt lat="50.9601302" lon="6.8530191">
      <time>2022-04-19T11:56:48Z</time>
    </trkpt>
    <trkpt lat="50.9601195" lon="6.8531771">
      <time>2022-04-19T11:56:50Z</time>
    </trkpt>
    <trkpt lat="50.9601142" lon="6.8532658">
      <time>2022-04-19T11:56:51Z</time>
    </trkpt>
    <trkpt lat="50.9600698" lon="6.8538002">
      <time>2022-04-19T11:56:57Z</time>
    </trkpt>
    <trkpt lat="50.9600521" lon="6.8541327">
      <time>2022-04-19T11:57:01Z</time>
    </trkpt>
    <trkpt lat="50.9599866" lon="6.8549960">
      <time>2022-04-19T11:57:11Z</time>
    </trkpt>
    <trkpt lat="50.9599747" lon="6.8551654">
      <time>2022-04-19T11:57:13Z</time>
    </trkpt>
    <trkpt lat="50.9599284" lon="6.8560401">
      <time>2022-04-19T11:57:23Z</time>
    </trkpt>
    <trkpt lat="50.9599065" lon="6.8563159">
      <time>2022-04-19T11:57:26Z</time>
    </trkpt>
    <trkpt lat="50.9598742" lon="6.8567764">
      <time>2022-04-19T11:57:31Z</time>
    </trkpt>
    <trkpt lat="50.9598630" lon="6.8569552">
      <time>2022-04-19T11:57:33Z</time>
    </trkpt>
    <trkpt lat="50.9598171" lon="6.8576435">
      <time>2022-04-19T11:57:41Z</time>
    </trkpt>
    <trkpt lat="50.9598018" lon="6.8578402">
      <time>2022-04-19T11:57:43Z</time>
    </trkpt>
    <trkpt lat="50.9597723" lon="6.8580925">
      <time>2022-04-19T11:57:46Z</time>
    </trkpt>
    <trkpt lat="50.9597519" lon="6.8584408">
      <time>2022-04-19T11:57:50Z</time>
    </trkpt>
    <trkpt lat="50.9597056" lon="6.8592493">
      <time>2022-04-19T11:57:59Z</time>
    </trkpt>
    <trkpt lat="50.9596451" lon="6.8600304">
      <time>2022-04-19T11:58:08Z</time>
    </trkpt>
    <trkpt lat="50.9595879" lon="6.8609617">
      <time>2022-04-19T11:58:19Z</time>
    </trkpt>
    <trkpt lat="50.9595673" lon="6.8614004">
      <time>2022-04-19T11:58:24Z</time>
    </trkpt>
    <trkpt lat="50.9595549" lon="6.8615699">
      <time>2022-04-19T11:58:26Z</time>
    </trkpt>
    <trkpt lat="50.9595310" lon="6.8618935">
      <time>2022-04-19T11:58:30Z</time>
    </trkpt>
    <trkpt lat="50.9595094" lon="6.8620906">
      <time>2022-04-19T11:58:32Z</time>
    </trkpt>
    <trkpt lat="50.9594685" lon="6.8627401">
      <time>2022-04-19T11:58:39Z</time>
    </trkpt>
    <trkpt lat="50.9594906" lon="6.8634364">
      <time>2022-04-19T11:58:46Z</time>
    </trkpt>
    <trkpt lat="50.9595516" lon="6.8639828">
      <time>2022-04-19T11:58:52Z</time>
    </trkpt>
    <trkpt lat="50.9595700" lon="6.8641600">
      <time>2022-04-19T11:58:54Z</time>
    </trkpt>
    <trkpt lat="50.9596090" lon="6.8647477">
      <time>2022-04-19T11:59:01Z</time>
    </trkpt>
    <trkpt lat="50.9596086" lon="6.8648261">
      <time>2022-04-19T11:59:02Z</time>
    </trkpt>
    <trkpt lat="50.9596045" lon="6.8648894">
      <time>2022-04-19T11:59:03Z</time>
    </trkpt>
    <trkpt lat="50.9595871" lon="6.8650517">
      <time>2022-04-19T11:59:05Z</time>
    </trkpt>
    <trkpt lat="50.9595582" lon="6.8652006">
      <time>2022-04-19T11:59:07Z</time>
    </trkpt>
    <trkpt lat="50.9595198" lon="6.8654242">
      <time>2022-04-19T11:59:10Z</time>
    </trkpt>
    <trkpt lat="50.9595041" lon="6.8654964">
      <time>2022-04-19T11:59:11Z</time>
    </trkpt>
    <trkpt lat="50.9594686" lon="6.8656470">
      <time>2022-04-19T11:59:13Z</time>
    </trkpt>
    <trkpt lat="50.9594479" lon="6.8657217">
      <time>2022-04-19T11:59:14Z</time>
    </trkpt>
    <trkpt lat="50.9594277" lon="6.8657978">
      <time>2022-04-19T11:59:15Z</time>
    </trkpt>
    <trkpt lat="50.9594061" lon="6.8658761">
      <time>2022-04-19T11:59:16Z</time>
    </trkpt>
    <trkpt lat="50.9593122" lon="6.8661988">
      <time>2022-04-19T11:59:20Z</time>
    </trkpt>
    <trkpt lat="50.9591583" lon="6.8667259">
      <time>2022-04-19T11:59:26Z</time>
    </trkpt>
    <trkpt lat="50.9589876" lon="6.8673071">
      <time>2022-04-19T11:59:32Z</time>
    </trkpt>
    <trkpt lat="50.9588644" lon="6.8678285">
      <time>2022-04-19T11:59:37Z</time>
    </trkpt>
    <trkpt lat="50.9588496" lon="6.8679316">
      <time>2022-04-19T11:59:38Z</time>
    </trkpt>
    <trkpt lat="50.9588310" lon="6.8680300">
      <time>2022-04-19T11:59:39Z</time>
    </trkpt>
    <trkpt lat="50.9587628" lon="6.8681841">
      <time>2022-04-19T11:59:41Z</time>
    </trkpt>
    <trkpt lat="50.9586800" lon="6.8682719">
      <time>2022-04-19T11:59:43Z</time>
    </trkpt>
    <trkpt lat="50.9585922" lon="6.8683259">
      <time>2022-04-19T11:59:45Z</time>
    </trkpt>
    <trkpt lat="50.9585019" lon="6.8683900">
      <time>2022-04-19T11:59:48Z</time>
    </trkpt>
    <trkpt lat="50.9584757" lon="6.8684096">
      <time>2022-04-19T11:59:49Z</time>
    </trkpt>
    <trkpt lat="50.9584661" lon="6.8684131">
      <time>2022-04-19T11:59:52Z</time>
    </trkpt>
    <trkpt lat="50.9584661" lon="6.8684131">
      <time>2022-04-19T11:59:53Z</time>
    </trkpt>
    <trkpt lat="50.9584895" lon="6.8684899">
      <time>2022-04-19T12:00:27Z</time>
    </trkpt>
    <trkpt lat="50.9585030" lon="6.8685416">
      <time>2022-04-19T12:00:28Z</time>
    </trkpt>
    <trkpt lat="50.9585244" lon="6.8686958">
      <time>2022-04-19T12:00:31Z</time>
    </trkpt>
    <trkpt lat="50.9585549" lon="6.8687181">
      <time>2022-04-19T12:00:32Z</time>
    </trkpt>
    <trkpt lat="50.9586697" lon="6.8688676">
      <time>2022-04-19T12:00:36Z</time>
    </trkpt>
    <trkpt lat="50.9586521" lon="6.8690142">
      <time>2022-04-19T12:00:38Z</time>
    </trkpt>
    <trkpt lat="50.9586178" lon="6.8691633">
      <time>2022-04-19T12:00:40Z</time>
    </trkpt>
    <trkpt lat="50.9585145" lon="6.8696711">
      <time>2022-04-19T12:00:47Z</time>
    </trkpt>
    <trkpt lat="50.9584859" lon="6.8698399">
      <time>2022-04-19T12:00:49Z</time>
    </trkpt>
    <trkpt lat="50.9583989" lon="6.8704642">
      <time>2022-04-19T12:00:56Z</time>
    </trkpt>
    <trkpt lat="50.9584265" lon="6.8706122">
      <time>2022-04-19T12:00:58Z</time>
    </trkpt>
    <trkpt lat="50.9584604" lon="6.8706832">
      <time>2022-04-19T12:00:59Z</time>
    </trkpt>
    <trkpt lat="50.9585085" lon="6.8707476">
      <time>2022-04-19T12:01:00Z</time>
    </trkpt>
    <trkpt lat="50.9586151" lon="6.8708391">
      <time>2022-04-19T12:01:02Z</time>
    </trkpt>
    <trkpt lat="50.9587428" lon="6.8708815">
      <time>2022-04-19T12:01:04Z</time>
    </trkpt>
    <trkpt lat="50.9588670" lon="6.8708981">
      <time>2022-04-19T12:01:06Z</time>
    </trkpt>
    <trkpt lat="50.9589226" lon="6.8708924">
      <time>2022-04-19T12:01:07Z</time>
    </trkpt>
    <trkpt lat="50.9590876" lon="6.8708530">
      <time>2022-04-19T12:01:10Z</time>
    </trkpt>
    <trkpt lat="50.9591951" lon="6.8708823">
      <time>2022-04-19T12:01:12Z</time>
    </trkpt>
    <trkpt lat="50.9592464" lon="6.8709315">
      <time>2022-04-19T12:01:13Z</time>
    </trkpt>
    <trkpt lat="50.9593397" lon="6.8710567">
      <time>2022-04-19T12:01:15Z</time>
    </trkpt>
    <trkpt lat="50.9594025" lon="6.8712392">
      <time>2022-04-19T12:01:17Z</time>
    </trkpt>
    <trkpt lat="50.9595956" lon="6.8719409">
      <time>2022-04-19T12:01:25Z</time>
    </trkpt>
    <trkpt lat="50.9596593" lon="6.8722599">
      <time>2022-04-19T12:01:29Z</time>
    </trkpt>
    <trkpt lat="50.9596705" lon="6.8723398">
      <time>2022-04-19T12:01:30Z</time>
    </trkpt>
    <trkpt lat="50.9596924" lon="6.8724905">
      <time>2022-04-19T12:01:32Z</time>
    </trkpt>
    <trkpt lat="50.9597334" lon="6.8727470">
      <time>2022-04-19T12:01:36Z</time>
    </trkpt>
    <trkpt lat="50.9597971" lon="6.8729992">
      <time>2022-04-19T12:01:42Z</time>
    </trkpt>
    <trkpt lat="50.9597979" lon="6.8731967">
      <time>2022-04-19T12:01:46Z</time>
    </trkpt>
    <trkpt lat="50.9598308" lon="6.8735328">
      <time>2022-04-19T12:01:51Z</time>
    </trkpt>
    <trkpt lat="50.9598371" lon="6.8736892">
      <time>2022-04-19T12:01:53Z</time>
    </trkpt>
    <trkpt lat="50.9598339" lon="6.8738610">
      <time>2022-04-19T12:01:55Z</time>
    </trkpt>
    <trkpt lat="50.9598327" lon="6.8739613">
      <time>2022-04-19T12:01:56Z</time>
    </trkpt>
    <trkpt lat="50.9597873" lon="6.8745512">
      <time>2022-04-19T12:02:03Z</time>
    </trkpt>
    <trkpt lat="50.9597525" lon="6.8751720">
      <time>2022-04-19T12:02:11Z</time>
    </trkpt>
    <trkpt lat="50.9597418" lon="6.8754940">
      <time>2022-04-19T12:02:15Z</time>
    </trkpt>
    <trkpt lat="50.9597435" lon="6.8757186">
      <time>2022-04-19T12:02:18Z</time>
    </trkpt>
    <trkpt lat="50.9597489" lon="6.8757859">
      <time>2022-04-19T12:02:19Z</time>
    </trkpt>
    <trkpt lat="50.9597680" lon="6.8759312">
      <time>2022-04-19T12:02:21Z</time>
    </trkpt>
    <trkpt lat="50.9598135" lon="6.8762761">
      <time>2022-04-19T12:02:25Z</time>
    </trkpt>
    <trkpt lat="50.9598668" lon="6.8767502">
      <time>2022-04-19T12:02:31Z</time>
    </trkpt>
    <trkpt lat="50.9598681" lon="6.8768273">
      <time>2022-04-19T12:02:32Z</time>
    </trkpt>
    <trkpt lat="50.9598570" lon="6.8769086">
      <time>2022-04-19T12:02:33Z</time>
    </trkpt>
    <trkpt lat="50.9598430" lon="6.8769880">
      <time>2022-04-19T12:02:34Z</time>
    </trkpt>
    <trkpt lat="50.9598149" lon="6.8771857">
      <time>2022-04-19T12:02:37Z</time>
    </trkpt>
    <trkpt lat="50.9598207" lon="6.8772514">
      <time>2022-04-19T12:02:38Z</time>
    </trkpt>
    <trkpt lat="50.9598544" lon="6.8773752">
      <time>2022-04-19T12:02:40Z</time>
    </trkpt>
    <trkpt lat="50.9598784" lon="6.8774306">
      <time>2022-04-19T12:02:41Z</time>
    </trkpt>
    <trkpt lat="50.9599102" lon="6.8774743">
      <time>2022-04-19T12:02:42Z</time>
    </trkpt>
    <trkpt lat="50.9600418" lon="6.8776014">
      <time>2022-04-19T12:02:45Z</time>
    </trkpt>
    <trkpt lat="50.9602218" lon="6.8777592">
      <time>2022-04-19T12:02:49Z</time>
    </trkpt>
    <trkpt lat="50.9603045" lon="6.8777717">
      <time>2022-04-19T12:02:51Z</time>
    </trkpt>
    <trkpt lat="50.9605339" lon="6.8776615">
      <time>2022-04-19T12:02:56Z</time>
    </trkpt>
    <trkpt lat="50.9606783" lon="6.8776075">
      <time>2022-04-19T12:02:59Z</time>
    </trkpt>
    <trkpt lat="50.9609247" lon="6.8775267">
      <time>2022-04-19T12:03:04Z</time>
    </trkpt>
    <trkpt lat="50.9610214" lon="6.8774996">
      <time>2022-04-19T12:03:06Z</time>
    </trkpt>
    <trkpt lat="50.9611650" lon="6.8774127">
      <time>2022-04-19T12:03:09Z</time>
    </trkpt>
    <trkpt lat="50.9614986" lon="6.8772200">
      <time>2022-04-19T12:03:16Z</time>
    </trkpt>
    <trkpt lat="50.9617363" lon="6.8770662">
      <time>2022-04-19T12:03:21Z</time>
    </trkpt>
    <trkpt lat="50.9619161" lon="6.8769684">
      <time>2022-04-19T12:03:25Z</time>
    </trkpt>
    <trkpt lat="50.9620020" lon="6.8767891">
      <time>2022-04-19T12:03:29Z</time>
    </trkpt>
    <trkpt lat="50.9620196" lon="6.8765170">
      <time>2022-04-19T12:03:33Z</time>
    </trkpt>
    <trkpt lat="50.9620321" lon="6.8764547">
      <time>2022-04-19T12:03:34Z</time>
    </trkpt>
    <trkpt lat="50.9620524" lon="6.8764074">
      <time>2022-04-19T12:03:35Z</time>
    </trkpt>
    <trkpt lat="50.9621071" lon="6.8763517">
      <time>2022-04-19T12:03:37Z</time>
    </trkpt>
    <trkpt lat="50.9621387" lon="6.8763462">
      <time>2022-04-19T12:03:38Z</time>
    </trkpt>
    <trkpt lat="50.9622135" lon="6.8763605">
      <time>2022-04-19T12:03:40Z</time>
    </trkpt>
    <trkpt lat="50.9622958" lon="6.8763735">
      <time>2022-04-19T12:03:42Z</time>
    </trkpt>
    <trkpt lat="50.9625039" lon="6.8764259">
      <time>2022-04-19T12:03:47Z</time>
    </trkpt>
    <trkpt lat="50.9626290" lon="6.8764580">
      <time>2022-04-19T12:03:50Z</time>
    </trkpt>
    <trkpt lat="50.9627070" lon="6.8764746">
      <time>2022-04-19T12:03:52Z</time>
    </trkpt>
    <trkpt lat="50.9627813" lon="6.8765104">
      <time>2022-04-19T12:03:54Z</time>
    </trkpt>
    <trkpt lat="50.9629060" lon="6.8766488">
      <time>2022-04-19T12:03:58Z</time>
    </trkpt>
    <trkpt lat="50.9629914" lon="6.8767361">
      <time>2022-04-19T12:04:02Z</time>
    </trkpt>
    <trkpt lat="50.9630279" lon="6.8766994">
      <time>2022-04-19T12:04:05Z</time>
    </trkpt>
    <trkpt lat="50.9630705" lon="6.8766891">
      <time>2022-04-19T12:04:07Z</time>
    </trkpt>
    <trkpt lat="50.9632562" lon="6.8766691">
      <time>2022-04-19T12:04:14Z</time>
    </trkpt>
    <trkpt lat="50.9632742" lon="6.8766838">
      <time>2022-04-19T12:04:15Z</time>
    </trkpt>
    <trkpt lat="50.9632804" lon="6.8767142">
      <time>2022-04-19T12:04:17Z</time>
    </trkpt>
    <trkpt lat="50.9632827" lon="6.8767215">
      <time>2022-04-19T12:04:18Z</time>
    </trkpt>
    <trkpt lat="50.9632856" lon="6.8767275">
      <time>2022-04-19T12:04:21Z</time>
    </trkpt>
    <trkpt lat="50.9632550" lon="6.8767530">
      <time>2022-04-19T12:07:03Z</time>
    </trkpt>
    <trkpt lat="50.9632492" lon="6.8767987">
      <time>2022-04-19T12:07:04Z</time>
    </trkpt>
    <trkpt lat="50.9632558" lon="6.8768858">
      <time>2022-04-19T12:07:06Z</time>
    </trkpt>
    <trkpt lat="50.9632806" lon="6.8769519">
      <time>2022-04-19T12:07:08Z</time>
    </trkpt>
    <trkpt lat="50.9633266" lon="6.8770137">
      <time>2022-04-19T12:07:10Z</time>
    </trkpt>
    <trkpt lat="50.9633735" lon="6.8770610">
      <time>2022-04-19T12:07:12Z</time>
    </trkpt>
    <trkpt lat="50.9634183" lon="6.8770938">
      <time>2022-04-19T12:07:14Z</time>
    </trkpt>
    <trkpt lat="50.9634295" lon="6.8771272">
      <time>2022-04-19T12:07:15Z</time>
    </trkpt>
    <trkpt lat="50.9634416" lon="6.8772200">
      <time>2022-04-19T12:07:20Z</time>
    </trkpt>
    <trkpt lat="50.9634167" lon="6.8773136">
      <time>2022-04-19T12:07:23Z</time>
    </trkpt>
    <trkpt lat="50.9634185" lon="6.8774126">
      <time>2022-04-19T12:07:25Z</time>
    </trkpt>
    <trkpt lat="50.9635342" lon="6.8776453">
      <time>2022-04-19T12:07:30Z</time>
    </trkpt>
    <trkpt lat="50.9636265" lon="6.8777822">
      <time>2022-04-19T12:07:33Z</time>
    </trkpt>
    <trkpt lat="50.9637276" lon="6.8779210">
      <time>2022-04-19T12:07:36Z</time>
    </trkpt>
    <trkpt lat="50.9639839" lon="6.8782918">
      <time>2022-04-19T12:07:43Z</time>
    </trkpt>
    <trkpt lat="50.9641727" lon="6.8785119">
      <time>2022-04-19T12:07:48Z</time>
    </trkpt>
    <trkpt lat="50.9642019" lon="6.8785854">
      <time>2022-04-19T12:07:49Z</time>
    </trkpt>
    <trkpt lat="50.9642294" lon="6.8786578">
      <time>2022-04-19T12:07:50Z</time>
    </trkpt>
    <trkpt lat="50.9642917" lon="6.8787657">
      <time>2022-04-19T12:07:52Z</time>
    </trkpt>
    <trkpt lat="50.9643245" lon="6.8788081">
      <time>2022-04-19T12:07:53Z</time>
    </trkpt>
    <trkpt lat="50.9643596" lon="6.8788596">
      <time>2022-04-19T12:07:54Z</time>
    </trkpt>
    <trkpt lat="50.9644144" lon="6.8789401">
      <time>2022-04-19T12:07:56Z</time>
    </trkpt>
    <trkpt lat="50.9644497" lon="6.8789869">
      <time>2022-04-19T12:07:57Z</time>
    </trkpt>
    <trkpt lat="50.9645168" lon="6.8791084">
      <time>2022-04-19T12:07:59Z</time>
    </trkpt>
    <trkpt lat="50.9645542" lon="6.8791672">
      <time>2022-04-19T12:08:00Z</time>
    </trkpt>
    <trkpt lat="50.9647152" lon="6.8793980">
      <time>2022-04-19T12:08:04Z</time>
    </trkpt>
    <trkpt lat="50.9649562" lon="6.8797175">
      <time>2022-04-19T12:08:09Z</time>
    </trkpt>
    <trkpt lat="50.9651039" lon="6.8798994">
      <time>2022-04-19T12:08:12Z</time>
    </trkpt>
    <trkpt lat="50.9652450" lon="6.8800623">
      <time>2022-04-19T12:08:15Z</time>
    </trkpt>
    <trkpt lat="50.9652961" lon="6.8801199">
      <time>2022-04-19T12:08:16Z</time>
    </trkpt>
    <trkpt lat="50.9655467" lon="6.8803845">
      <time>2022-04-19T12:08:21Z</time>
    </trkpt>
    <trkpt lat="50.9656437" lon="6.8804786">
      <time>2022-04-19T12:08:23Z</time>
    </trkpt>
    <trkpt lat="50.9657692" lon="6.8805898">
      <time>2022-04-19T12:08:26Z</time>
    </trkpt>
    <trkpt lat="50.9658513" lon="6.8806733">
      <time>2022-04-19T12:08:28Z</time>
    </trkpt>
    <trkpt lat="50.9658903" lon="6.8807145">
      <time>2022-04-19T12:08:29Z</time>
    </trkpt>
    <trkpt lat="50.9660576" lon="6.8808858">
      <time>2022-04-19T12:08:33Z</time>
    </trkpt>
    <trkpt lat="50.9661445" lon="6.8809750">
      <time>2022-04-19T12:08:35Z</time>
    </trkpt>
    <trkpt lat="50.9662245" lon="6.8810741">
      <time>2022-04-19T12:08:37Z</time>
    </trkpt>
    <trkpt lat="50.9662615" lon="6.8811273">
      <time>2022-04-19T12:08:38Z</time>
    </trkpt>
    <trkpt lat="50.9663106" lon="6.8812543">
      <time>2022-04-19T12:08:40Z</time>
    </trkpt>
    <trkpt lat="50.9663222" lon="6.8814074">
      <time>2022-04-19T12:08:42Z</time>
    </trkpt>
    <trkpt lat="50.9662958" lon="6.8815594">
      <time>2022-04-19T12:08:44Z</time>
    </trkpt>
    <trkpt lat="50.9662467" lon="6.8817008">
      <time>2022-04-19T12:08:46Z</time>
    </trkpt>
    <trkpt lat="50.9660863" lon="6.8822395">
      <time>2022-04-19T12:08:53Z</time>
    </trkpt>
    <trkpt lat="50.9660540" lon="6.8823174">
      <time>2022-04-19T12:08:54Z</time>
    </trkpt>
    <trkpt lat="50.9659247" lon="6.8825795">
      <time>2022-04-19T12:08:58Z</time>
    </trkpt>
    <trkpt lat="50.9658717" lon="6.8827050">
      <time>2022-04-19T12:09:00Z</time>
    </trkpt>
    <trkpt lat="50.9658192" lon="6.8828266">
      <time>2022-04-19T12:09:02Z</time>
    </trkpt>
    <trkpt lat="50.9656895" lon="6.8831078">
      <time>2022-04-19T12:09:06Z</time>
    </trkpt>
    <trkpt lat="50.9656207" lon="6.8832351">
      <time>2022-04-19T12:09:08Z</time>
    </trkpt>
    <trkpt lat="50.9655168" lon="6.8834281">
      <time>2022-04-19T12:09:11Z</time>
    </trkpt>
    <trkpt lat="50.9653835" lon="6.8837024">
      <time>2022-04-19T12:09:15Z</time>
    </trkpt>
    <trkpt lat="50.9651305" lon="6.8841892">
      <time>2022-04-19T12:09:22Z</time>
    </trkpt>
    <trkpt lat="50.9650324" lon="6.8844089">
      <time>2022-04-19T12:09:25Z</time>
    </trkpt>
    <trkpt lat="50.9647972" lon="6.8849143">
      <time>2022-04-19T12:09:32Z</time>
    </trkpt>
    <trkpt lat="50.9645805" lon="6.8854012">
      <time>2022-04-19T12:09:39Z</time>
    </trkpt>
    <trkpt lat="50.9643046" lon="6.8859468">
      <time>2022-04-19T12:09:47Z</time>
    </trkpt>
    <trkpt lat="50.9640705" lon="6.8864967">
      <time>2022-04-19T12:09:55Z</time>
    </trkpt>
    <trkpt lat="50.9638469" lon="6.8869883">
      <time>2022-04-19T12:10:02Z</time>
    </trkpt>
    <trkpt lat="50.9637860" lon="6.8871221">
      <time>2022-04-19T12:10:04Z</time>
    </trkpt>
    <trkpt lat="50.9634721" lon="6.8876731">
      <time>2022-04-19T12:10:12Z</time>
    </trkpt>
    <trkpt lat="50.9634364" lon="6.8877470">
      <time>2022-04-19T12:10:13Z</time>
    </trkpt>
    <trkpt lat="50.9632604" lon="6.8881460">
      <time>2022-04-19T12:10:18Z</time>
    </trkpt>
    <trkpt lat="50.9631717" lon="6.8882955">
      <time>2022-04-19T12:10:20Z</time>
    </trkpt>
    <trkpt lat="50.9629501" lon="6.8887646">
      <time>2022-04-19T12:10:26Z</time>
    </trkpt>
    <trkpt lat="50.9629217" lon="6.8888512">
      <time>2022-04-19T12:10:27Z</time>
    </trkpt>
    <trkpt lat="50.9628390" lon="6.8891083">
      <time>2022-04-19T12:10:30Z</time>
    </trkpt>
    <trkpt lat="50.9626729" lon="6.8894985">
      <time>2022-04-19T12:10:35Z</time>
    </trkpt>
    <trkpt lat="50.9626381" lon="6.8895747">
      <time>2022-04-19T12:10:36Z</time>
    </trkpt>
    <trkpt lat="50.9625760" lon="6.8897418">
      <time>2022-04-19T12:10:38Z</time>
    </trkpt>
    <trkpt lat="50.9625147" lon="6.8898682">
      <time>2022-04-19T12:10:40Z</time>
    </trkpt>
    <trkpt lat="50.9624127" lon="6.8900972">
      <time>2022-04-19T12:10:43Z</time>
    </trkpt>
    <trkpt lat="50.9622493" lon="6.8903034">
      <time>2022-04-19T12:10:47Z</time>
    </trkpt>
    <trkpt lat="50.9620323" lon="6.8907859">
      <time>2022-04-19T12:10:54Z</time>
    </trkpt>
    <trkpt lat="50.9619691" lon="6.8909286">
      <time>2022-04-19T12:10:56Z</time>
    </trkpt>
    <trkpt lat="50.9617077" lon="6.8914684">
      <time>2022-04-19T12:11:04Z</time>
    </trkpt>
    <trkpt lat="50.9613974" lon="6.8921120">
      <time>2022-04-19T12:11:14Z</time>
    </trkpt>
    <trkpt lat="50.9612716" lon="6.8923890">
      <time>2022-04-19T12:11:18Z</time>
    </trkpt>
    <trkpt lat="50.9611428" lon="6.8926474">
      <time>2022-04-19T12:11:22Z</time>
    </trkpt>
    <trkpt lat="50.9609903" lon="6.8930350">
      <time>2022-04-19T12:11:28Z</time>
    </trkpt>
    <trkpt lat="50.9609395" lon="6.8931608">
      <time>2022-04-19T12:11:30Z</time>
    </trkpt>
    <trkpt lat="50.9608816" lon="6.8932976">
      <time>2022-04-19T12:11:32Z</time>
    </trkpt>
    <trkpt lat="50.9608188" lon="6.8934361">
      <time>2022-04-19T12:11:34Z</time>
    </trkpt>
    <trkpt lat="50.9606740" lon="6.8937224">
      <time>2022-04-19T12:11:38Z</time>
    </trkpt>
    <trkpt lat="50.9606024" lon="6.8938688">
      <time>2022-04-19T12:11:40Z</time>
    </trkpt>
    <trkpt lat="50.9604118" lon="6.8942168">
      <time>2022-04-19T12:11:45Z</time>
    </trkpt>
    <trkpt lat="50.9602751" lon="6.8944863">
      <time>2022-04-19T12:11:49Z</time>
    </trkpt>
    <trkpt lat="50.9599184" lon="6.8951630">
      <time>2022-04-19T12:11:59Z</time>
    </trkpt>
    <trkpt lat="50.9597155" lon="6.8955490">
      <time>2022-04-19T12:12:05Z</time>
    </trkpt>
    <trkpt lat="50.9596386" lon="6.8957326">
      <time>2022-04-19T12:12:08Z</time>
    </trkpt>
    <trkpt lat="50.9595787" lon="6.8959333">
      <time>2022-04-19T12:12:12Z</time>
    </trkpt>
    <trkpt lat="50.9595845" lon="6.8961585">
      <time>2022-04-19T12:12:17Z</time>
    </trkpt>
    <trkpt lat="50.9595873" lon="6.8962138">
      <time>2022-04-19T12:12:18Z</time>
    </trkpt>
    <trkpt lat="50.9596584" lon="6.8964234">
      <time>2022-04-19T12:12:22Z</time>
    </trkpt>
    <trkpt lat="50.9596833" lon="6.8964830">
      <time>2022-04-19T12:12:23Z</time>
    </trkpt>
    <trkpt lat="50.9597145" lon="6.8966224">
      <time>2022-04-19T12:12:25Z</time>
    </trkpt>
    <trkpt lat="50.9597237" lon="6.8966977">
      <time>2022-04-19T12:12:26Z</time>
    </trkpt>
    <trkpt lat="50.9597408" lon="6.8969230">
      <time>2022-04-19T12:12:29Z</time>
    </trkpt>
    <trkpt lat="50.9597765" lon="6.8971479">
      <time>2022-04-19T12:12:32Z</time>
    </trkpt>
    <trkpt lat="50.9598530" lon="6.8975804">
      <time>2022-04-19T12:12:38Z</time>
    </trkpt>
    <trkpt lat="50.9599381" lon="6.8980766">
      <time>2022-04-19T12:12:45Z</time>
    </trkpt>
    <trkpt lat="50.9599475" lon="6.8981477">
      <time>2022-04-19T12:12:46Z</time>
    </trkpt>
    <trkpt lat="50.9599761" lon="6.8984259">
      <time>2022-04-19T12:12:50Z</time>
    </trkpt>
    <trkpt lat="50.9599849" lon="6.8985007">
      <time>2022-04-19T12:12:51Z</time>
    </trkpt>
    <trkpt lat="50.9599942" lon="6.8985733">
      <time>2022-04-19T12:12:52Z</time>
    </trkpt>
    <trkpt lat="50.9600267" lon="6.8987910">
      <time>2022-04-19T12:12:55Z</time>
    </trkpt>
    <trkpt lat="50.9600287" lon="6.8988635">
      <time>2022-04-19T12:12:56Z</time>
    </trkpt>
    <trkpt lat="50.9600506" lon="6.8991036">
      <time>2022-04-19T12:12:59Z</time>
    </trkpt>
    <trkpt lat="50.9601222" lon="6.8995492">
      <time>2022-04-19T12:13:04Z</time>
    </trkpt>
    <trkpt lat="50.9601338" lon="6.8996332">
      <time>2022-04-19T12:13:05Z</time>
    </trkpt>
    <trkpt lat="50.9601786" lon="6.8998774">
      <time>2022-04-19T12:13:08Z</time>
    </trkpt>
    <trkpt lat="50.9602396" lon="6.9002657">
      <time>2022-04-19T12:13:13Z</time>
    </trkpt>
    <trkpt lat="50.9602522" lon="6.9003534">
      <time>2022-04-19T12:13:14Z</time>
    </trkpt>
    <trkpt lat="50.9602982" lon="6.9006703">
      <time>2022-04-19T12:13:18Z</time>
    </trkpt>
    <trkpt lat="50.9603251" lon="6.9008267">
      <time>2022-04-19T12:13:20Z</time>
    </trkpt>
    <trkpt lat="50.9603821" lon="6.9014229">
      <time>2022-04-19T12:13:27Z</time>
    </trkpt>
    <trkpt lat="50.9603660" lon="6.9018860">
      <time>2022-04-19T12:13:33Z</time>
    </trkpt>
    <trkpt lat="50.9603556" lon="6.9020715">
      <time>2022-04-19T12:13:37Z</time>
    </trkpt>
    <trkpt lat="50.9603739" lon="6.9021112">
      <time>2022-04-19T12:13:41Z</time>
    </trkpt>
    <trkpt lat="50.9603739" lon="6.9021112">
      <time>2022-04-19T12:13:42Z</time>
    </trkpt>
    <trkpt lat="50.9603938" lon="6.9021497">
      <time>2022-04-19T12:13:47Z</time>
    </trkpt>
    <trkpt lat="50.9604155" lon="6.9022000">
      <time>2022-04-19T12:13:49Z</time>
    </trkpt>
    <trkpt lat="50.9605295" lon="6.9023276">
      <time>2022-04-19T12:13:55Z</time>
    </trkpt>
    <trkpt lat="50.9605640" lon="6.9023736">
      <time>2022-04-19T12:13:59Z</time>
    </trkpt>
    <trkpt lat="50.9605739" lon="6.9023781">
      <time>2022-04-19T12:14:00Z</time>
    </trkpt>
    <trkpt lat="50.9605965" lon="6.9024045">
      <time>2022-04-19T12:14:02Z</time>
    </trkpt>
    <trkpt lat="50.9606428" lon="6.9025134">
      <time>2022-04-19T12:14:05Z</time>
    </trkpt>
    <trkpt lat="50.9607033" lon="6.9026712">
      <time>2022-04-19T12:14:08Z</time>
    </trkpt>
    <trkpt lat="50.9607651" lon="6.9027669">
      <time>2022-04-19T12:14:10Z</time>
    </trkpt>
    <trkpt lat="50.9609038" lon="6.9029775">
      <time>2022-04-19T12:14:14Z</time>
    </trkpt>
    <trkpt lat="50.9609684" lon="6.9030906">
      <time>2022-04-19T12:14:16Z</time>
    </trkpt>
    <trkpt lat="50.9611231" lon="6.9032696">
      <time>2022-04-19T12:14:20Z</time>
    </trkpt>
    <trkpt lat="50.9612442" lon="6.9034029">
      <time>2022-04-19T12:14:23Z</time>
    </trkpt>
    <trkpt lat="50.9613225" lon="6.9034948">
      <time>2022-04-19T12:14:25Z</time>
    </trkpt>
    <trkpt lat="50.9615711" lon="6.9038054">
      <time>2022-04-19T12:14:32Z</time>
    </trkpt>
    <trkpt lat="50.9615969" lon="6.9038479">
      <time>2022-04-19T12:14:33Z</time>
    </trkpt>
    <trkpt lat="50.9616816" lon="6.9039658">
      <time>2022-04-19T12:14:36Z</time>
    </trkpt>
    <trkpt lat="50.9617857" lon="6.9040677">
      <time>2022-04-19T12:14:39Z</time>
    </trkpt>
    <trkpt lat="50.9618570" lon="6.9041422">
      <time>2022-04-19T12:14:41Z</time>
    </trkpt>
    <trkpt lat="50.9620351" lon="6.9043601">
      <time>2022-04-19T12:14:46Z</time>
    </trkpt>
    <trkpt lat="50.9621094" lon="6.9044513">
      <time>2022-04-19T12:14:48Z</time>
    </trkpt>
    <trkpt lat="50.9621829" lon="6.9045491">
      <time>2022-04-19T12:14:50Z</time>
    </trkpt>
    <trkpt lat="50.9622967" lon="6.9046585">
      <time>2022-04-19T12:14:53Z</time>
    </trkpt>
    <trkpt lat="50.9624611" lon="6.9048041">
      <time>2022-04-19T12:14:58Z</time>
    </trkpt>
    <trkpt lat="50.9626895" lon="6.9050252">
      <time>2022-04-19T12:15:04Z</time>
    </trkpt>
    <trkpt lat="50.9628308" lon="6.9051814">
      <time>2022-04-19T12:15:09Z</time>
    </trkpt>
    <trkpt lat="50.9629434" lon="6.9052702">
      <time>2022-04-19T12:15:13Z</time>
    </trkpt>
    <trkpt lat="50.9629719" lon="6.9052889">
      <time>2022-04-19T12:15:14Z</time>
    </trkpt>
    <trkpt lat="50.9631908" lon="6.9054210">
      <time>2022-04-19T12:15:21Z</time>
    </trkpt>
    <trkpt lat="50.9633956" lon="6.9055096">
      <time>2022-04-19T12:15:26Z</time>
    </trkpt>
    <trkpt lat="50.9635831" lon="6.9056055">
      <time>2022-04-19T12:15:31Z</time>
    </trkpt>
    <trkpt lat="50.9637611" lon="6.9056169">
      <time>2022-04-19T12:15:36Z</time>
    </trkpt>
    <trkpt lat="50.9638684" lon="6.9056348">
      <time>2022-04-19T12:15:39Z</time>
    </trkpt>
    <trkpt lat="50.9638896" lon="6.9056834">
      <time>2022-04-19T12:15:40Z</time>
    </trkpt>
    <trkpt lat="50.9638961" lon="6.9057437">
      <time>2022-04-19T12:15:41Z</time>
    </trkpt>
    <trkpt lat="50.9638989" lon="6.9059549">
      <time>2022-04-19T12:15:44Z</time>
    </trkpt>
    <trkpt lat="50.9639134" lon="6.9060320">
      <time>2022-04-19T12:15:45Z</time>
    </trkpt>
    <trkpt lat="50.9639875" lon="6.9061526">
      <time>2022-04-19T12:15:47Z</time>
    </trkpt>
    <trkpt lat="50.9642740" lon="6.9065739">
      <time>2022-04-19T12:15:54Z</time>
    </trkpt>
    <trkpt lat="50.9643584" lon="6.9067064">
      <time>2022-04-19T12:15:56Z</time>
    </trkpt>
    <trkpt lat="50.9644369" lon="6.9068242">
      <time>2022-04-19T12:15:58Z</time>
    </trkpt>
    <trkpt lat="50.9645802" lon="6.9070535">
      <time>2022-04-19T12:16:02Z</time>
    </trkpt>
    <trkpt lat="50.9646107" lon="6.9071112">
      <time>2022-04-19T12:16:03Z</time>
    </trkpt>
    <trkpt lat="50.9646327" lon="6.9071653">
      <time>2022-04-19T12:16:04Z</time>
    </trkpt>
    <trkpt lat="50.9646348" lon="6.9072226">
      <time>2022-04-19T12:16:05Z</time>
    </trkpt>
    <trkpt lat="50.9646136" lon="6.9072690">
      <time>2022-04-19T12:16:06Z</time>
    </trkpt>
    <trkpt lat="50.9645402" lon="6.9073744">
      <time>2022-04-19T12:16:08Z</time>
    </trkpt>
    <trkpt lat="50.9644942" lon="6.9074347">
      <time>2022-04-19T12:16:09Z</time>
    </trkpt>
    <trkpt lat="50.9642985" lon="6.9077176">
      <time>2022-04-19T12:16:15Z</time>
    </trkpt>
    <trkpt lat="50.9641729" lon="6.9079054">
      <time>2022-04-19T12:16:19Z</time>
    </trkpt>
    <trkpt lat="50.9641610" lon="6.9079697">
      <time>2022-04-19T12:16:20Z</time>
    </trkpt>
    <trkpt lat="50.9641541" lon="6.9080440">
      <time>2022-04-19T12:16:21Z</time>
    </trkpt>
    <trkpt lat="50.9641073" lon="6.9084059">
      <time>2022-04-19T12:16:26Z</time>
    </trkpt>
    <trkpt lat="50.9640702" lon="6.9086478">
      <time>2022-04-19T12:16:29Z</time>
    </trkpt>
    <trkpt lat="50.9640303" lon="6.9087945">
      <time>2022-04-19T12:16:31Z</time>
    </trkpt>
    <trkpt lat="50.9640116" lon="6.9088642">
      <time>2022-04-19T12:16:32Z</time>
    </trkpt>
    <trkpt lat="50.9639803" lon="6.9090093">
      <time>2022-04-19T12:16:34Z</time>
    </trkpt>
    <trkpt lat="50.9640041" lon="6.9091450">
      <time>2022-04-19T12:16:36Z</time>
    </trkpt>
    <trkpt lat="50.9641267" lon="6.9094560">
      <time>2022-04-19T12:16:42Z</time>
    </trkpt>
    <trkpt lat="50.9642269" lon="6.9097332">
      <time>2022-04-19T12:16:48Z</time>
    </trkpt>
    <trkpt lat="50.9642708" lon="6.9098574">
      <time>2022-04-19T12:16:51Z</time>
    </trkpt>
    <trkpt lat="50.9642888" lon="6.9098905">
      <time>2022-04-19T12:16:52Z</time>
    </trkpt>
    <trkpt lat="50.9643079" lon="6.9099247">
      <time>2022-04-19T12:16:53Z</time>
    </trkpt>
    <trkpt lat="50.9643202" lon="6.9100328">
      <time>2022-04-19T12:16:55Z</time>
    </trkpt>
    <trkpt lat="50.9643094" lon="6.9101552">
      <time>2022-04-19T12:17:00Z</time>
    </trkpt>
    <trkpt lat="50.9643094" lon="6.9101552">
      <time>2022-04-19T12:17:02Z</time>
    </trkpt>
    <trkpt lat="50.9643035" lon="6.9101071">
      <time>2022-04-19T12:18:13Z</time>
    </trkpt>
    <trkpt lat="50.9643056" lon="6.9100846">
      <time>2022-04-19T12:18:14Z</time>
    </trkpt>
    <trkpt lat="50.9643067" lon="6.9100621">
      <time>2022-04-19T12:18:15Z</time>
    </trkpt>
    <trkpt lat="50.9643109" lon="6.9100177">
      <time>2022-04-19T12:18:17Z</time>
    </trkpt>
    <trkpt lat="50.9643180" lon="6.9099997">
      <time>2022-04-19T12:18:18Z</time>
    </trkpt>
  </trkseg></trk>
</gpx>
