<?xml version='1.0' encoding='UTF-8'?>
<gpx version="1.1" creator="https://www.komoot.de" xmlns="http://www.topografix.com/GPX/1/1" xmlns:xsi="http://www.w3.org/2001/XMLSchema-instance" xsi:schemaLocation="http://www.topografix.com/GPX/1/1 http://www.topografix.com/GPX/1/1/gpx.xsd">
  <metadata>
    <name>Fahrradtour</name>
    <author>
      <link href="https://www.komoot.de">
        <text>komoot</text>
        <type>text/html</type>
      </link>
    </author>
  </metadata>
  <trk>
    <name>Fahrradtour</name>
    <type>touring_bicycle</type>
    <trkseg>
      <trkpt lat="50.957454" lon="6.972833">
        <ele>46.442471</ele>
        <time>2026-03-05T11:35:04.000Z</time>
      </trkpt>
      <trkpt lat="50.957369" lon="6.972532">
        <ele>46.442471</ele>
        <time>2026-03-05T11:35:13.000Z</time>
      </trkpt>
      <trkpt lat="50.957375" lon="6.972462">
        <ele>46.442471</ele>
        <time>2026-03-05T11:35:14.000Z</time>
      </trkpt>
      <trkpt lat="50.957376" lon="6.972394">
        <ele>46.442471</ele>
        <time>2026-03-05T11:35:15.000Z</time>
      </trkpt>
      <trkpt lat="50.957375" lon="6.972325">
        <ele>46.442471</ele>
        <time>2026-03-05T11:35:16.000Z</time>
      </trkpt>
      <trkpt lat="50.957369" lon="6.972262">
        <ele>46.442471</ele>
        <time>2026-03-05T11:35:17.000Z</time>
      </trkpt>
      <trkpt lat="50.957360" lon="6.972195">
        <ele>46.442471</ele>
        <time>2026-03-05T11:35:18.000Z</time>
      </trkpt>
      <trkpt lat="50.957323" lon="6.972148">
        <ele>46.442471</ele>
        <time>2026-03-05T11:35:19.000Z</time>
      </trkpt>
      <trkpt lat="50.957190" lon="6.972046">
        <ele>46.442471</ele>
        <time>2026-03-05T11:35:23.000Z</time>
      </trkpt>
      <trkpt lat="50.957132" lon="6.971958">
        <ele>46.442471</ele>
        <time>2026-03-05T11:35:25.000Z</time>
      </trkpt>
      <trkpt lat="50.957078" lon="6.971842">
        <ele>46.442471</ele>
        <time>2026-03-05T11:35:27.000Z</time>
      </trkpt>
      <trkpt lat="50.957055" lon="6.971777">
        <ele>46.442471</ele>
        <time>2026-03-05T11:35:28.000Z</time>
      </trkpt>
      <trkpt lat="50.957042" lon="6.971702">
        <ele>46.442471</ele>
        <time>2026-03-05T11:35:29.000Z</time>
      </trkpt>
      <trkpt lat="50.957070" lon="6.971556">
        <ele>46.570005</ele>
        <time>2026-03-05T11:35:31.000Z</time>
      </trkpt>
      <trkpt lat="50.957131" lon="6.971457">
        <ele>46.707632</ele>
        <time>2026-03-05T11:35:33.000Z</time>
      </trkpt>
      <trkpt lat="50.957196" lon="6.971343">
        <ele>46.860443</ele>
        <time>2026-03-05T11:35:35.000Z</time>
      </trkpt>
      <trkpt lat="50.957419" lon="6.970889">
        <ele>47.432576</ele>
        <time>2026-03-05T11:35:42.000Z</time>
      </trkpt>
      <trkpt lat="50.957551" lon="6.970543">
        <ele>47.834570</ele>
        <time>2026-03-05T11:35:49.000Z</time>
      </trkpt>
      <trkpt lat="50.957480" lon="6.970360">
        <ele>48.048159</ele>
        <time>2026-03-05T11:35:53.000Z</time>
      </trkpt>
      <trkpt lat="50.957336" lon="6.970246">
        <ele>48.302025</ele>
        <time>2026-03-05T11:35:57.000Z</time>
      </trkpt>
      <trkpt lat="50.957239" lon="6.970005">
        <ele>48.586243</ele>
        <time>2026-03-05T11:36:02.000Z</time>
      </trkpt>
      <trkpt lat="50.957278" lon="6.969706">
        <ele>48.889686</ele>
        <time>2026-03-05T11:36:07.000Z</time>
      </trkpt>
      <trkpt lat="50.957289" lon="6.969403">
        <ele>49.191300</ele>
        <time>2026-03-05T11:36:12.000Z</time>
      </trkpt>
      <trkpt lat="50.957286" lon="6.969346">
        <ele>49.248143</ele>
        <time>2026-03-05T11:36:13.000Z</time>
      </trkpt>
      <trkpt lat="50.957274" lon="6.969204">
        <ele>49.291402</ele>
        <time>2026-03-05T11:36:16.000Z</time>
      </trkpt>
      <trkpt lat="50.957261" lon="6.969079">
        <ele>49.304242</ele>
        <time>2026-03-05T11:36:19.000Z</time>
      </trkpt>
      <trkpt lat="50.957272" lon="6.968972">
        <ele>49.315230</ele>
        <time>2026-03-05T11:36:22.000Z</time>
      </trkpt>
      <trkpt lat="50.957260" lon="6.968901">
        <ele>49.322680</ele>
        <time>2026-03-05T11:36:24.000Z</time>
      </trkpt>
      <trkpt lat="50.957247" lon="6.968781">
        <ele>49.335021</ele>
        <time>2026-03-05T11:36:27.000Z</time>
      </trkpt>
      <trkpt lat="50.957238" lon="6.968622">
        <ele>49.351200</ele>
        <time>2026-03-05T11:36:31.000Z</time>
      </trkpt>
      <trkpt lat="50.957239" lon="6.968501">
        <ele>49.363465</ele>
        <time>2026-03-05T11:36:34.000Z</time>
      </trkpt>
      <trkpt lat="50.957248" lon="6.968341">
        <ele>49.379745</ele>
        <time>2026-03-05T11:36:38.000Z</time>
      </trkpt>
      <trkpt lat="50.957264" lon="6.968180">
        <ele>49.396265</ele>
        <time>2026-03-05T11:36:42.000Z</time>
      </trkpt>
      <trkpt lat="50.957307" lon="6.967982">
        <ele>49.417491</ele>
        <time>2026-03-05T11:36:47.000Z</time>
      </trkpt>
      <trkpt lat="50.957361" lon="6.967658">
        <ele>49.451458</ele>
        <time>2026-03-05T11:36:54.000Z</time>
      </trkpt>
      <trkpt lat="50.957413" lon="6.967422">
        <ele>49.476798</ele>
        <time>2026-03-05T11:36:58.000Z</time>
      </trkpt>
      <trkpt lat="50.957432" lon="6.967355">
        <ele>49.484245</ele>
        <time>2026-03-05T11:36:59.000Z</time>
      </trkpt>
      <trkpt lat="50.957452" lon="6.967286">
        <ele>49.491943</ele>
        <time>2026-03-05T11:37:00.000Z</time>
      </trkpt>
      <trkpt lat="50.957502" lon="6.967140">
        <ele>49.508786</ele>
        <time>2026-03-05T11:37:02.000Z</time>
      </trkpt>
      <trkpt lat="50.957554" lon="6.967004">
        <ele>49.524910</ele>
        <time>2026-03-05T11:37:04.000Z</time>
      </trkpt>
      <trkpt lat="50.957617" lon="6.966873">
        <ele>49.541614</ele>
        <time>2026-03-05T11:37:06.000Z</time>
      </trkpt>
      <trkpt lat="50.957680" lon="6.966745">
        <ele>49.558077</ele>
        <time>2026-03-05T11:37:08.000Z</time>
      </trkpt>
      <trkpt lat="50.957738" lon="6.966637">
        <ele>49.547125</ele>
        <time>2026-03-05T11:37:10.000Z</time>
      </trkpt>
      <trkpt lat="50.957791" lon="6.966513">
        <ele>49.430395</ele>
        <time>2026-03-05T11:37:12.000Z</time>
      </trkpt>
      <trkpt lat="50.957809" lon="6.966427">
        <ele>49.359803</ele>
        <time>2026-03-05T11:37:13.000Z</time>
      </trkpt>
      <trkpt lat="50.957858" lon="6.966133">
        <ele>49.122908</ele>
        <time>2026-03-05T11:37:16.000Z</time>
      </trkpt>
      <trkpt lat="50.957961" lon="6.965546">
        <ele>48.648248</ele>
        <time>2026-03-05T11:37:22.000Z</time>
      </trkpt>
      <trkpt lat="50.957999" lon="6.965366">
        <ele>48.500370</ele>
        <time>2026-03-05T11:37:24.000Z</time>
      </trkpt>
      <trkpt lat="50.958025" lon="6.965289">
        <ele>48.432316</ele>
        <time>2026-03-05T11:37:25.000Z</time>
      </trkpt>
      <trkpt lat="50.958058" lon="6.965125">
        <ele>48.298207</ele>
        <time>2026-03-05T11:37:27.000Z</time>
      </trkpt>
      <trkpt lat="50.958064" lon="6.965043">
        <ele>48.233903</ele>
        <time>2026-03-05T11:37:28.000Z</time>
      </trkpt>
      <trkpt lat="50.958076" lon="6.964714">
        <ele>47.977197</ele>
        <time>2026-03-05T11:37:32.000Z</time>
      </trkpt>
      <trkpt lat="50.958098" lon="6.964480">
        <ele>47.792902</ele>
        <time>2026-03-05T11:37:35.000Z</time>
      </trkpt>
      <trkpt lat="50.958124" lon="6.964230">
        <ele>47.595526</ele>
        <time>2026-03-05T11:37:38.000Z</time>
      </trkpt>
      <trkpt lat="50.958141" lon="6.964073">
        <ele>47.471436</ele>
        <time>2026-03-05T11:37:40.000Z</time>
      </trkpt>
      <trkpt lat="50.958154" lon="6.963738">
        <ele>47.435423</ele>
        <time>2026-03-05T11:37:45.000Z</time>
      </trkpt>
      <trkpt lat="50.958271" lon="6.963567">
        <ele>47.566562</ele>
        <time>2026-03-05T11:37:49.000Z</time>
      </trkpt>
      <trkpt lat="50.958336" lon="6.963539">
        <ele>47.622100</ele>
        <time>2026-03-05T11:37:51.000Z</time>
      </trkpt>
      <trkpt lat="50.958433" lon="6.963551">
        <ele>47.702331</ele>
        <time>2026-03-05T11:37:54.000Z</time>
      </trkpt>
      <trkpt lat="50.958624" lon="6.963577">
        <ele>47.860411</ele>
        <time>2026-03-05T11:37:59.000Z</time>
      </trkpt>
      <trkpt lat="50.958816" lon="6.963597">
        <ele>48.019078</ele>
        <time>2026-03-05T11:38:04.000Z</time>
      </trkpt>
      <trkpt lat="50.958872" lon="6.963545">
        <ele>48.072575</ele>
        <time>2026-03-05T11:38:06.000Z</time>
      </trkpt>
      <trkpt lat="50.958893" lon="6.963461">
        <ele>48.119517</ele>
        <time>2026-03-05T11:38:08.000Z</time>
      </trkpt>
      <trkpt lat="50.958932" lon="6.963428">
        <ele>48.155959</ele>
        <time>2026-03-05T11:38:10.000Z</time>
      </trkpt>
      <trkpt lat="50.959059" lon="6.963464">
        <ele>48.262342</ele>
        <time>2026-03-05T11:38:14.000Z</time>
      </trkpt>
      <trkpt lat="50.959086" lon="6.963441">
        <ele>48.287609</ele>
        <time>2026-03-05T11:38:15.000Z</time>
      </trkpt>
      <trkpt lat="50.959118" lon="6.963355">
        <ele>48.339490</ele>
        <time>2026-03-05T11:38:17.000Z</time>
      </trkpt>
      <trkpt lat="50.959127" lon="6.963120">
        <ele>48.461776</ele>
        <time>2026-03-05T11:38:21.000Z</time>
      </trkpt>
      <trkpt lat="50.959145" lon="6.962841">
        <ele>48.607448</ele>
        <time>2026-03-05T11:38:25.000Z</time>
      </trkpt>
      <trkpt lat="50.959141" lon="6.962770">
        <ele>48.644473</ele>
        <time>2026-03-05T11:38:26.000Z</time>
      </trkpt>
      <trkpt lat="50.959135" lon="6.962203">
        <ele>48.952626</ele>
        <time>2026-03-05T11:38:34.000Z</time>
      </trkpt>
      <trkpt lat="50.959136" lon="6.961592">
        <ele>49.309035</ele>
        <time>2026-03-05T11:38:43.000Z</time>
      </trkpt>
      <trkpt lat="50.959127" lon="6.961393">
        <ele>49.425414</ele>
        <time>2026-03-05T11:38:46.000Z</time>
      </trkpt>
      <trkpt lat="50.959098" lon="6.961110">
        <ele>49.592664</ele>
        <time>2026-03-05T11:38:50.000Z</time>
      </trkpt>
      <trkpt lat="50.959007" lon="6.960754">
        <ele>49.816775</ele>
        <time>2026-03-05T11:38:56.000Z</time>
      </trkpt>
      <trkpt lat="50.958940" lon="6.960511">
        <ele>49.971507</ele>
        <time>2026-03-05T11:39:00.000Z</time>
      </trkpt>
      <trkpt lat="50.958864" lon="6.960283">
        <ele>50.121980</ele>
        <time>2026-03-05T11:39:04.000Z</time>
      </trkpt>
      <trkpt lat="50.958752" lon="6.960062">
        <ele>50.287441</ele>
        <time>2026-03-05T11:39:08.000Z</time>
      </trkpt>
      <trkpt lat="50.958719" lon="6.960007">
        <ele>50.331750</ele>
        <time>2026-03-05T11:39:09.000Z</time>
      </trkpt>
      <trkpt lat="50.958689" lon="6.959950">
        <ele>50.375079</ele>
        <time>2026-03-05T11:39:10.000Z</time>
      </trkpt>
      <trkpt lat="50.958522" lon="6.959672">
        <ele>50.530264</ele>
        <time>2026-03-05T11:39:15.000Z</time>
      </trkpt>
      <trkpt lat="50.958258" lon="6.959211">
        <ele>50.655283</ele>
        <time>2026-03-05T11:39:24.000Z</time>
      </trkpt>
      <trkpt lat="50.958068" lon="6.958904">
        <ele>50.741644</ele>
        <time>2026-03-05T11:39:30.000Z</time>
      </trkpt>
      <trkpt lat="50.957891" lon="6.958567">
        <ele>50.829689</ele>
        <time>2026-03-05T11:39:36.000Z</time>
      </trkpt>
      <trkpt lat="50.957832" lon="6.958461">
        <ele>50.858073</ele>
        <time>2026-03-05T11:39:38.000Z</time>
      </trkpt>
      <trkpt lat="50.957670" lon="6.958080">
        <ele>50.950312</ele>
        <time>2026-03-05T11:39:44.000Z</time>
      </trkpt>
      <trkpt lat="50.957604" lon="6.957935">
        <ele>50.986209</ele>
        <time>2026-03-05T11:39:46.000Z</time>
      </trkpt>
      <trkpt lat="50.957532" lon="6.957707">
        <ele>51.037387</ele>
        <time>2026-03-05T11:39:49.000Z</time>
      </trkpt>
      <trkpt lat="50.957516" lon="6.957634">
        <ele>51.052897</ele>
        <time>2026-03-05T11:39:50.000Z</time>
      </trkpt>
      <trkpt lat="50.957444" lon="6.957381">
        <ele>50.997787</ele>
        <time>2026-03-05T11:39:54.000Z</time>
      </trkpt>
      <trkpt lat="50.957420" lon="6.957312">
        <ele>50.971363</ele>
        <time>2026-03-05T11:39:55.000Z</time>
      </trkpt>
      <trkpt lat="50.957378" lon="6.957179">
        <ele>50.921485</ele>
        <time>2026-03-05T11:39:57.000Z</time>
      </trkpt>
      <trkpt lat="50.957296" lon="6.956911">
        <ele>50.821601</ele>
        <time>2026-03-05T11:40:01.000Z</time>
      </trkpt>
      <trkpt lat="50.957237" lon="6.956675">
        <ele>50.736479</ele>
        <time>2026-03-05T11:40:04.000Z</time>
      </trkpt>
      <trkpt lat="50.957155" lon="6.956339">
        <ele>50.615677</ele>
        <time>2026-03-05T11:40:08.000Z</time>
      </trkpt>
      <trkpt lat="50.957107" lon="6.956169">
        <ele>50.553221</ele>
        <time>2026-03-05T11:40:10.000Z</time>
      </trkpt>
      <trkpt lat="50.957048" lon="6.955989">
        <ele>50.485195</ele>
        <time>2026-03-05T11:40:12.000Z</time>
      </trkpt>
      <trkpt lat="50.957010" lon="6.955913">
        <ele>50.452665</ele>
        <time>2026-03-05T11:40:13.000Z</time>
      </trkpt>
      <trkpt lat="50.956971" lon="6.955845">
        <ele>50.421834</ele>
        <time>2026-03-05T11:40:14.000Z</time>
      </trkpt>
      <trkpt lat="50.956871" lon="6.955626">
        <ele>50.331153</ele>
        <time>2026-03-05T11:40:17.000Z</time>
      </trkpt>
      <trkpt lat="50.956800" lon="6.955384">
        <ele>50.241654</ele>
        <time>2026-03-05T11:40:20.000Z</time>
      </trkpt>
      <trkpt lat="50.956778" lon="6.955305">
        <ele>50.212696</ele>
        <time>2026-03-05T11:40:21.000Z</time>
      </trkpt>
      <trkpt lat="50.956655" lon="6.954806">
        <ele>50.210157</ele>
        <time>2026-03-05T11:40:27.000Z</time>
      </trkpt>
      <trkpt lat="50.956473" lon="6.954169">
        <ele>50.516570</ele>
        <time>2026-03-05T11:40:35.000Z</time>
      </trkpt>
      <trkpt lat="50.956291" lon="6.953458">
        <ele>50.852773</ele>
        <time>2026-03-05T11:40:44.000Z</time>
      </trkpt>
      <trkpt lat="50.956236" lon="6.953241">
        <ele>50.955241</ele>
        <time>2026-03-05T11:40:47.000Z</time>
      </trkpt>
      <trkpt lat="50.956080" lon="6.952679">
        <ele>51.224281</ele>
        <time>2026-03-05T11:40:55.000Z</time>
      </trkpt>
      <trkpt lat="50.955938" lon="6.952185">
        <ele>51.425528</ele>
        <time>2026-03-05T11:41:02.000Z</time>
      </trkpt>
      <trkpt lat="50.955806" lon="6.951626">
        <ele>51.592644</ele>
        <time>2026-03-05T11:41:10.000Z</time>
      </trkpt>
      <trkpt lat="50.955751" lon="6.951423">
        <ele>51.654504</ele>
        <time>2026-03-05T11:41:13.000Z</time>
      </trkpt>
      <trkpt lat="50.955668" lon="6.951081">
        <ele>51.757102</ele>
        <time>2026-03-05T11:41:18.000Z</time>
      </trkpt>
      <trkpt lat="50.955649" lon="6.951018">
        <ele>51.776655</ele>
        <time>2026-03-05T11:41:19.000Z</time>
      </trkpt>
      <trkpt lat="50.955568" lon="6.950681">
        <ele>51.877627</ele>
        <time>2026-03-05T11:41:24.000Z</time>
      </trkpt>
      <trkpt lat="50.955535" lon="6.950558">
        <ele>51.915052</ele>
        <time>2026-03-05T11:41:26.000Z</time>
      </trkpt>
      <trkpt lat="50.955462" lon="6.950331">
        <ele>51.986399</ele>
        <time>2026-03-05T11:41:30.000Z</time>
      </trkpt>
      <trkpt lat="50.955424" lon="6.950213">
        <ele>52.023498</ele>
        <time>2026-03-05T11:41:32.000Z</time>
      </trkpt>
      <trkpt lat="50.955405" lon="6.950157">
        <ele>52.041303</ele>
        <time>2026-03-05T11:41:33.000Z</time>
      </trkpt>
      <trkpt lat="50.955322" lon="6.949834">
        <ele>52.138957</ele>
        <time>2026-03-05T11:41:39.000Z</time>
      </trkpt>
      <trkpt lat="50.955315" lon="6.949776">
        <ele>52.155488</ele>
        <time>2026-03-05T11:41:40.000Z</time>
      </trkpt>
      <trkpt lat="50.955265" lon="6.949455">
        <ele>52.055993</ele>
        <time>2026-03-05T11:41:45.000Z</time>
      </trkpt>
      <trkpt lat="50.955227" lon="6.949329">
        <ele>52.009801</ele>
        <time>2026-03-05T11:41:47.000Z</time>
      </trkpt>
      <trkpt lat="50.955120" lon="6.949016">
        <ele>51.892046</ele>
        <time>2026-03-05T11:41:52.000Z</time>
      </trkpt>
      <trkpt lat="50.955025" lon="6.948754">
        <ele>51.792086</ele>
        <time>2026-03-05T11:41:56.000Z</time>
      </trkpt>
      <trkpt lat="50.954937" lon="6.948565">
        <ele>51.714373</ele>
        <time>2026-03-05T11:41:59.000Z</time>
      </trkpt>
      <trkpt lat="50.954885" lon="6.948433">
        <ele>51.662894</ele>
        <time>2026-03-05T11:42:01.000Z</time>
      </trkpt>
      <trkpt lat="50.954813" lon="6.948247">
        <ele>51.590706</ele>
        <time>2026-03-05T11:42:04.000Z</time>
      </trkpt>
      <trkpt lat="50.954780" lon="6.948197">
        <ele>51.566760</ele>
        <time>2026-03-05T11:42:05.000Z</time>
      </trkpt>
      <trkpt lat="50.954756" lon="6.948121">
        <ele>51.538649</ele>
        <time>2026-03-05T11:42:06.000Z</time>
      </trkpt>
      <trkpt lat="50.954650" lon="6.947856">
        <ele>51.434850</ele>
        <time>2026-03-05T11:42:10.000Z</time>
      </trkpt>
      <trkpt lat="50.954627" lon="6.947794">
        <ele>51.411058</ele>
        <time>2026-03-05T11:42:11.000Z</time>
      </trkpt>
      <trkpt lat="50.954485" lon="6.947503">
        <ele>51.289342</ele>
        <time>2026-03-05T11:42:16.000Z</time>
      </trkpt>
      <trkpt lat="50.954466" lon="6.947448">
        <ele>51.268600</ele>
        <time>2026-03-05T11:42:17.000Z</time>
      </trkpt>
      <trkpt lat="50.954379" lon="6.947267">
        <ele>51.206035</ele>
        <time>2026-03-05T11:42:20.000Z</time>
      </trkpt>
      <trkpt lat="50.954174" lon="6.946767">
        <ele>51.120046</ele>
        <time>2026-03-05T11:42:28.000Z</time>
      </trkpt>
      <trkpt lat="50.954156" lon="6.946700">
        <ele>51.109547</ele>
        <time>2026-03-05T11:42:29.000Z</time>
      </trkpt>
      <trkpt lat="50.954054" lon="6.946236">
        <ele>51.038711</ele>
        <time>2026-03-05T11:42:36.000Z</time>
      </trkpt>
      <trkpt lat="50.953983" lon="6.945619">
        <ele>50.948305</ele>
        <time>2026-03-05T11:42:44.000Z</time>
      </trkpt>
      <trkpt lat="50.953934" lon="6.944819">
        <ele>50.832450</ele>
        <time>2026-03-05T11:42:53.000Z</time>
      </trkpt>
      <trkpt lat="50.953906" lon="6.944079">
        <ele>50.612886</ele>
        <time>2026-03-05T11:43:01.000Z</time>
      </trkpt>
      <trkpt lat="50.953897" lon="6.944000">
        <ele>50.584745</ele>
        <time>2026-03-05T11:43:02.000Z</time>
      </trkpt>
      <trkpt lat="50.953884" lon="6.943827">
        <ele>50.523675</ele>
        <time>2026-03-05T11:43:04.000Z</time>
      </trkpt>
      <trkpt lat="50.953870" lon="6.943741">
        <ele>50.492540</ele>
        <time>2026-03-05T11:43:06.000Z</time>
      </trkpt>
      <trkpt lat="50.953836" lon="6.943276">
        <ele>50.328452</ele>
        <time>2026-03-05T11:43:10.000Z</time>
      </trkpt>
      <trkpt lat="50.953783" lon="6.942818">
        <ele>50.165225</ele>
        <time>2026-03-05T11:43:15.000Z</time>
      </trkpt>
      <trkpt lat="50.953779" lon="6.942315">
        <ele>49.988898</ele>
        <time>2026-03-05T11:43:20.000Z</time>
      </trkpt>
      <trkpt lat="50.953760" lon="6.942136">
        <ele>49.925269</ele>
        <time>2026-03-05T11:43:22.000Z</time>
      </trkpt>
      <trkpt lat="50.953755" lon="6.942042">
        <ele>49.892203</ele>
        <time>2026-03-05T11:43:23.000Z</time>
      </trkpt>
      <trkpt lat="50.953759" lon="6.941736">
        <ele>49.835107</ele>
        <time>2026-03-05T11:43:27.000Z</time>
      </trkpt>
      <trkpt lat="50.953750" lon="6.941508">
        <ele>49.971514</ele>
        <time>2026-03-05T11:43:30.000Z</time>
      </trkpt>
      <trkpt lat="50.953733" lon="6.941132">
        <ele>50.196603</ele>
        <time>2026-03-05T11:43:34.000Z</time>
      </trkpt>
      <trkpt lat="50.953711" lon="6.940724">
        <ele>50.441114</ele>
        <time>2026-03-05T11:43:39.000Z</time>
      </trkpt>
      <trkpt lat="50.953671" lon="6.940345">
        <ele>50.670571</ele>
        <time>2026-03-05T11:43:43.000Z</time>
      </trkpt>
      <trkpt lat="50.953616" lon="6.939897">
        <ele>50.943108</ele>
        <time>2026-03-05T11:43:48.000Z</time>
      </trkpt>
      <trkpt lat="50.953590" lon="6.939729">
        <ele>51.046405</ele>
        <time>2026-03-05T11:43:50.000Z</time>
      </trkpt>
      <trkpt lat="50.953566" lon="6.939555">
        <ele>51.152763</ele>
        <time>2026-03-05T11:43:52.000Z</time>
      </trkpt>
      <trkpt lat="50.953458" lon="6.939163">
        <ele>51.408236</ele>
        <time>2026-03-05T11:43:57.000Z</time>
      </trkpt>
      <trkpt lat="50.953249" lon="6.938933">
        <ele>52.513944</ele>
        <time>2026-03-05T11:44:02.000Z</time>
      </trkpt>
      <trkpt lat="50.953094" lon="6.939036">
        <ele>53.650395</ele>
        <time>2026-03-05T11:44:05.000Z</time>
      </trkpt>
      <trkpt lat="50.952978" lon="6.939153">
        <ele>54.579904</ele>
        <time>2026-03-05T11:44:08.000Z</time>
      </trkpt>
      <trkpt lat="50.952946" lon="6.939173">
        <ele>54.812499</ele>
        <time>2026-03-05T11:44:09.000Z</time>
      </trkpt>
      <trkpt lat="50.952895" lon="6.939205">
        <ele>55.183393</ele>
        <time>2026-03-05T11:44:11.000Z</time>
      </trkpt>
      <trkpt lat="50.952826" lon="6.939240">
        <ele>55.673304</ele>
        <time>2026-03-05T11:44:13.000Z</time>
      </trkpt>
      <trkpt lat="50.952794" lon="6.939255">
        <ele>55.898967</ele>
        <time>2026-03-05T11:44:14.000Z</time>
      </trkpt>
      <trkpt lat="50.952721" lon="6.939277">
        <ele>56.401503</ele>
        <time>2026-03-05T11:44:16.000Z</time>
      </trkpt>
      <trkpt lat="50.952628" lon="6.939278">
        <ele>57.030501</ele>
        <time>2026-03-05T11:44:19.000Z</time>
      </trkpt>
      <trkpt lat="50.952497" lon="6.939283">
        <ele>57.916743</ele>
        <time>2026-03-05T11:44:22.000Z</time>
      </trkpt>
      <trkpt lat="50.952455" lon="6.939281">
        <ele>58.200928</ele>
        <time>2026-03-05T11:44:23.000Z</time>
      </trkpt>
      <trkpt lat="50.952416" lon="6.939290">
        <ele>58.467468</ele>
        <time>2026-03-05T11:44:24.000Z</time>
      </trkpt>
      <trkpt lat="50.952287" lon="6.939303">
        <ele>59.341684</ele>
        <time>2026-03-05T11:44:27.000Z</time>
      </trkpt>
      <trkpt lat="50.952248" lon="6.939313">
        <ele>59.608870</ele>
        <time>2026-03-05T11:44:28.000Z</time>
      </trkpt>
      <trkpt lat="50.952217" lon="6.939327">
        <ele>59.826851</ele>
        <time>2026-03-05T11:44:29.000Z</time>
      </trkpt>
      <trkpt lat="50.952180" lon="6.939344">
        <ele>60.087363</ele>
        <time>2026-03-05T11:44:30.000Z</time>
      </trkpt>
      <trkpt lat="50.952140" lon="6.939370">
        <ele>60.379695</ele>
        <time>2026-03-05T11:44:31.000Z</time>
      </trkpt>
      <trkpt lat="50.952018" lon="6.939459">
        <ele>61.287775</ele>
        <time>2026-03-05T11:44:34.000Z</time>
      </trkpt>
      <trkpt lat="50.951964" lon="6.939505">
        <ele>61.702256</ele>
        <time>2026-03-05T11:44:36.000Z</time>
      </trkpt>
      <trkpt lat="50.951917" lon="6.939564">
        <ele>62.107515</ele>
        <time>2026-03-05T11:44:38.000Z</time>
      </trkpt>
      <trkpt lat="50.951863" lon="6.939628">
        <ele>62.563299</ele>
        <time>2026-03-05T11:44:40.000Z</time>
      </trkpt>
      <trkpt lat="50.951778" lon="6.939757">
        <ele>63.358643</ele>
        <time>2026-03-05T11:44:44.000Z</time>
      </trkpt>
      <trkpt lat="50.951669" lon="6.939906">
        <ele>64.452435</ele>
        <time>2026-03-05T11:44:48.000Z</time>
      </trkpt>
      <trkpt lat="50.951562" lon="6.940068">
        <ele>65.636139</ele>
        <time>2026-03-05T11:44:52.000Z</time>
      </trkpt>
      <trkpt lat="50.951504" lon="6.940183">
        <ele>66.379058</ele>
        <time>2026-03-05T11:44:55.000Z</time>
      </trkpt>
      <trkpt lat="50.951484" lon="6.940222">
        <ele>66.632667</ele>
        <time>2026-03-05T11:44:56.000Z</time>
      </trkpt>
      <trkpt lat="50.951416" lon="6.940316">
        <ele>67.354504</ele>
        <time>2026-03-05T11:44:59.000Z</time>
      </trkpt>
      <trkpt lat="50.951372" lon="6.940377">
        <ele>67.822161</ele>
        <time>2026-03-05T11:45:01.000Z</time>
      </trkpt>
      <trkpt lat="50.951331" lon="6.940416">
        <ele>68.204795</ele>
        <time>2026-03-05T11:45:03.000Z</time>
      </trkpt>
      <trkpt lat="50.951263" lon="6.940486">
        <ele>68.853598</ele>
        <time>2026-03-05T11:45:06.000Z</time>
      </trkpt>
      <trkpt lat="50.951191" lon="6.940529">
        <ele>69.469420</ele>
        <time>2026-03-05T11:45:09.000Z</time>
      </trkpt>
      <trkpt lat="50.951129" lon="6.940575">
        <ele>70.017284</ele>
        <time>2026-03-05T11:45:12.000Z</time>
      </trkpt>
      <trkpt lat="50.951056" lon="6.940652">
        <ele>70.718923</ele>
        <time>2026-03-05T11:45:16.000Z</time>
      </trkpt>
      <trkpt lat="50.950993" lon="6.940677">
        <ele>71.238773</ele>
        <time>2026-03-05T11:45:18.000Z</time>
      </trkpt>
      <trkpt lat="50.950975" lon="6.940692">
        <ele>71.401517</ele>
        <time>2026-03-05T11:45:19.000Z</time>
      </trkpt>
      <trkpt lat="50.950880" lon="6.940765">
        <ele>72.246438</ele>
        <time>2026-03-05T11:45:23.000Z</time>
      </trkpt>
      <trkpt lat="50.950801" lon="6.940805">
        <ele>72.910246</ele>
        <time>2026-03-05T11:45:26.000Z</time>
      </trkpt>
      <trkpt lat="50.950740" lon="6.940786">
        <ele>73.407877</ele>
        <time>2026-03-05T11:45:28.000Z</time>
      </trkpt>
      <trkpt lat="50.950712" lon="6.940771">
        <ele>73.644445</ele>
        <time>2026-03-05T11:45:29.000Z</time>
      </trkpt>
      <trkpt lat="50.950536" lon="6.940614">
        <ele>75.260607</ele>
        <time>2026-03-05T11:45:36.000Z</time>
      </trkpt>
      <trkpt lat="50.950486" lon="6.940561">
        <ele>75.741911</ele>
        <time>2026-03-05T11:45:38.000Z</time>
      </trkpt>
      <trkpt lat="50.950410" lon="6.940489">
        <ele>76.450429</ele>
        <time>2026-03-05T11:45:41.000Z</time>
      </trkpt>
      <trkpt lat="50.950367" lon="6.940439">
        <ele>76.877133</ele>
        <time>2026-03-05T11:45:43.000Z</time>
      </trkpt>
      <trkpt lat="50.950285" lon="6.940343">
        <ele>77.692794</ele>
        <time>2026-03-05T11:45:47.000Z</time>
      </trkpt>
      <trkpt lat="50.950215" lon="6.940257">
        <ele>77.940850</ele>
        <time>2026-03-05T11:45:50.000Z</time>
      </trkpt>
      <trkpt lat="50.950188" lon="6.940226">
        <ele>77.835103</ele>
        <time>2026-03-05T11:45:51.000Z</time>
      </trkpt>
      <trkpt lat="50.950123" lon="6.940129">
        <ele>77.551984</ele>
        <time>2026-03-05T11:45:54.000Z</time>
      </trkpt>
      <trkpt lat="50.950048" lon="6.940052">
        <ele>77.268532</ele>
        <time>2026-03-05T11:45:57.000Z</time>
      </trkpt>
      <trkpt lat="50.949948" lon="6.939924">
        <ele>76.860864</ele>
        <time>2026-03-05T11:46:01.000Z</time>
      </trkpt>
      <trkpt lat="50.949777" lon="6.939698">
        <ele>76.154728</ele>
        <time>2026-03-05T11:46:07.000Z</time>
      </trkpt>
      <trkpt lat="50.949721" lon="6.939623">
        <ele>75.922210</ele>
        <time>2026-03-05T11:46:09.000Z</time>
      </trkpt>
      <trkpt lat="50.949661" lon="6.939554">
        <ele>75.687084</ele>
        <time>2026-03-05T11:46:11.000Z</time>
      </trkpt>
      <trkpt lat="50.949502" lon="6.939325">
        <ele>75.005757</ele>
        <time>2026-03-05T11:46:16.000Z</time>
      </trkpt>
      <trkpt lat="50.949415" lon="6.939214">
        <ele>74.651536</ele>
        <time>2026-03-05T11:46:18.000Z</time>
      </trkpt>
      <trkpt lat="50.949335" lon="6.939119">
        <ele>74.334477</ele>
        <time>2026-03-05T11:46:20.000Z</time>
      </trkpt>
      <trkpt lat="50.949244" lon="6.939089">
        <ele>74.039533</ele>
        <time>2026-03-05T11:46:22.000Z</time>
      </trkpt>
      <trkpt lat="50.949132" lon="6.939034">
        <ele>73.667488</ele>
        <time>2026-03-05T11:46:24.000Z</time>
      </trkpt>
      <trkpt lat="50.948989" lon="6.938940">
        <ele>73.176313</ele>
        <time>2026-03-05T11:46:26.000Z</time>
      </trkpt>
      <trkpt lat="50.948912" lon="6.938864">
        <ele>72.888569</ele>
        <time>2026-03-05T11:46:27.000Z</time>
      </trkpt>
      <trkpt lat="50.948838" lon="6.938782">
        <ele>72.602171</ele>
        <time>2026-03-05T11:46:28.000Z</time>
      </trkpt>
      <trkpt lat="50.948768" lon="6.938704">
        <ele>72.369798</ele>
        <time>2026-03-05T11:46:29.000Z</time>
      </trkpt>
      <trkpt lat="50.948590" lon="6.938432">
        <ele>72.513961</ele>
        <time>2026-03-05T11:46:32.000Z</time>
      </trkpt>
      <trkpt lat="50.948540" lon="6.938350">
        <ele>72.555909</ele>
        <time>2026-03-05T11:46:33.000Z</time>
      </trkpt>
      <trkpt lat="50.948483" lon="6.938280">
        <ele>72.597959</ele>
        <time>2026-03-05T11:46:34.000Z</time>
      </trkpt>
      <trkpt lat="50.948438" lon="6.938204">
        <ele>72.636297</ele>
        <time>2026-03-05T11:46:35.000Z</time>
      </trkpt>
      <trkpt lat="50.948401" lon="6.938121">
        <ele>72.673672</ele>
        <time>2026-03-05T11:46:36.000Z</time>
      </trkpt>
      <trkpt lat="50.948358" lon="6.938053">
        <ele>72.709088</ele>
        <time>2026-03-05T11:46:37.000Z</time>
      </trkpt>
      <trkpt lat="50.948320" lon="6.937996">
        <ele>72.739594</ele>
        <time>2026-03-05T11:46:38.000Z</time>
      </trkpt>
      <trkpt lat="50.948296" lon="6.937949">
        <ele>72.761833</ele>
        <time>2026-03-05T11:46:39.000Z</time>
      </trkpt>
      <trkpt lat="50.948280" lon="6.937907">
        <ele>72.779875</ele>
        <time>2026-03-05T11:46:40.000Z</time>
      </trkpt>
      <trkpt lat="50.948265" lon="6.937880">
        <ele>72.793107</ele>
        <time>2026-03-05T11:46:41.000Z</time>
      </trkpt>
      <trkpt lat="50.948249" lon="6.937846">
        <ele>72.808707</ele>
        <time>2026-03-05T11:46:43.000Z</time>
      </trkpt>
      <trkpt lat="50.948249" lon="6.937846">
        <ele>72.808707</ele>
        <time>2026-03-05T11:46:44.000Z</time>
      </trkpt>
      <trkpt lat="50.948262" lon="6.937767">
        <ele>72.838721</ele>
        <time>2026-03-05T11:46:50.000Z</time>
      </trkpt>
      <trkpt lat="50.948272" lon="6.937744">
        <ele>72.848994</ele>
        <time>2026-03-05T11:46:51.000Z</time>
      </trkpt>
      <trkpt lat="50.948393" lon="6.937672">
        <ele>72.924391</ele>
        <time>2026-03-05T11:46:57.000Z</time>
      </trkpt>
      <trkpt lat="50.948457" lon="6.937720">
        <ele>72.965691</ele>
        <time>2026-03-05T11:47:00.000Z</time>
      </trkpt>
      <trkpt lat="50.948464" lon="6.937760">
        <ele>72.980951</ele>
        <time>2026-03-05T11:47:01.000Z</time>
      </trkpt>
      <trkpt lat="50.948497" lon="6.937846">
        <ele>73.017966</ele>
        <time>2026-03-05T11:47:04.000Z</time>
      </trkpt>
      <trkpt lat="50.948518" lon="6.937870">
        <ele>73.033064</ele>
        <time>2026-03-05T11:47:05.000Z</time>
      </trkpt>
      <trkpt lat="50.948593" lon="6.937976">
        <ele>73.091658</ele>
        <time>2026-03-05T11:47:09.000Z</time>
      </trkpt>
      <trkpt lat="50.948690" lon="6.938108">
        <ele>73.166206</ele>
        <time>2026-03-05T11:47:14.000Z</time>
      </trkpt>
      <trkpt lat="50.948773" lon="6.938234">
        <ele>73.233216</ele>
        <time>2026-03-05T11:47:18.000Z</time>
      </trkpt>
      <trkpt lat="50.948792" lon="6.938268">
        <ele>73.249922</ele>
        <time>2026-03-05T11:47:19.000Z</time>
      </trkpt>
      <trkpt lat="50.948938" lon="6.938477">
        <ele>73.364634</ele>
        <time>2026-03-05T11:47:25.000Z</time>
      </trkpt>
      <trkpt lat="50.949114" lon="6.938742">
        <ele>72.104413</ele>
        <time>2026-03-05T11:47:32.000Z</time>
      </trkpt>
      <trkpt lat="50.949232" lon="6.938876">
        <ele>70.913121</ele>
        <time>2026-03-05T11:47:37.000Z</time>
      </trkpt>
      <trkpt lat="50.949244" lon="6.938856">
        <ele>70.770253</ele>
        <time>2026-03-05T11:47:38.000Z</time>
      </trkpt>
      <trkpt lat="50.949230" lon="6.938798">
        <ele>70.448962</ele>
        <time>2026-03-05T11:47:40.000Z</time>
      </trkpt>
      <trkpt lat="50.949207" lon="6.938760">
        <ele>70.176377</ele>
        <time>2026-03-05T11:47:41.000Z</time>
      </trkpt>
      <trkpt lat="50.949155" lon="6.938644">
        <ele>69.439931</ele>
        <time>2026-03-05T11:47:43.000Z</time>
      </trkpt>
      <trkpt lat="50.949095" lon="6.938509">
        <ele>68.585314</ele>
        <time>2026-03-05T11:47:45.000Z</time>
      </trkpt>
      <trkpt lat="50.949073" lon="6.938431">
        <ele>68.143241</ele>
        <time>2026-03-05T11:47:46.000Z</time>
      </trkpt>
      <trkpt lat="50.949014" lon="6.938277">
        <ele>67.210889</ele>
        <time>2026-03-05T11:47:48.000Z</time>
      </trkpt>
      <trkpt lat="50.948891" lon="6.937922">
        <ele>65.115133</ele>
        <time>2026-03-05T11:47:52.000Z</time>
      </trkpt>
      <trkpt lat="50.948825" lon="6.937737">
        <ele>64.015369</ele>
        <time>2026-03-05T11:47:54.000Z</time>
      </trkpt>
      <trkpt lat="50.948758" lon="6.937566">
        <ele>62.973695</ele>
        <time>2026-03-05T11:47:56.000Z</time>
      </trkpt>
      <trkpt lat="50.948695" lon="6.937376">
        <ele>61.863033</ele>
        <time>2026-03-05T11:47:58.000Z</time>
      </trkpt>
      <trkpt lat="50.948625" lon="6.937187">
        <ele>60.728927</ele>
        <time>2026-03-05T11:48:00.000Z</time>
      </trkpt>
      <trkpt lat="50.948587" lon="6.937088">
        <ele>60.129249</ele>
        <time>2026-03-05T11:48:01.000Z</time>
      </trkpt>
      <trkpt lat="50.948560" lon="6.936997">
        <ele>59.608924</ele>
        <time>2026-03-05T11:48:02.000Z</time>
      </trkpt>
      <trkpt lat="50.948530" lon="6.936898">
        <ele>59.040646</ele>
        <time>2026-03-05T11:48:03.000Z</time>
      </trkpt>
      <trkpt lat="50.948497" lon="6.936807">
        <ele>58.570051</ele>
        <time>2026-03-05T11:48:04.000Z</time>
      </trkpt>
      <trkpt lat="50.948463" lon="6.936721">
        <ele>58.303217</ele>
        <time>2026-03-05T11:48:05.000Z</time>
      </trkpt>
      <trkpt lat="50.948400" lon="6.936537">
        <ele>57.752845</ele>
        <time>2026-03-05T11:48:07.000Z</time>
      </trkpt>
      <trkpt lat="50.948348" lon="6.936373">
        <ele>57.270325</ele>
        <time>2026-03-05T11:48:09.000Z</time>
      </trkpt>
      <trkpt lat="50.948292" lon="6.936214">
        <ele>56.791590</ele>
        <time>2026-03-05T11:48:11.000Z</time>
      </trkpt>
      <trkpt lat="50.948228" lon="6.936067">
        <ele>56.321982</ele>
        <time>2026-03-05T11:48:13.000Z</time>
      </trkpt>
      <trkpt lat="50.948189" lon="6.936016">
        <ele>56.111192</ele>
        <time>2026-03-05T11:48:14.000Z</time>
      </trkpt>
      <trkpt lat="50.948015" lon="6.935882">
        <ele>55.304428</ele>
        <time>2026-03-05T11:48:18.000Z</time>
      </trkpt>
      <trkpt lat="50.947904" lon="6.935831">
        <ele>54.822383</ele>
        <time>2026-03-05T11:48:20.000Z</time>
      </trkpt>
      <trkpt lat="50.947824" lon="6.935783">
        <ele>54.465616</ele>
        <time>2026-03-05T11:48:22.000Z</time>
      </trkpt>
      <trkpt lat="50.947706" lon="6.935673">
        <ele>53.894762</ele>
        <time>2026-03-05T11:48:26.000Z</time>
      </trkpt>
      <trkpt lat="50.947695" lon="6.935670">
        <ele>53.848203</ele>
        <time>2026-03-05T11:48:27.000Z</time>
      </trkpt>
      <trkpt lat="50.947684" lon="6.935676">
        <ele>53.799683</ele>
        <time>2026-03-05T11:48:29.000Z</time>
      </trkpt>
      <trkpt lat="50.947681" lon="6.935676">
        <ele>53.787169</ele>
        <time>2026-03-05T11:48:34.000Z</time>
      </trkpt>
      <trkpt lat="50.947678" lon="6.935652">
        <ele>53.722863</ele>
        <time>2026-03-05T11:48:43.000Z</time>
      </trkpt>
      <trkpt lat="50.947674" lon="6.935647">
        <ele>53.701624</ele>
        <time>2026-03-05T11:48:50.000Z</time>
      </trkpt>
      <trkpt lat="50.947668" lon="6.935612">
        <ele>53.606294</ele>
        <time>2026-03-05T11:48:51.000Z</time>
      </trkpt>
      <trkpt lat="50.947674" lon="6.935544">
        <ele>53.425835</ele>
        <time>2026-03-05T11:48:53.000Z</time>
      </trkpt>
      <trkpt lat="50.947667" lon="6.935490">
        <ele>53.280941</ele>
        <time>2026-03-05T11:48:55.000Z</time>
      </trkpt>
      <trkpt lat="50.947660" lon="6.935477">
        <ele>53.235996</ele>
        <time>2026-03-05T11:48:56.000Z</time>
      </trkpt>
      <trkpt lat="50.947657" lon="6.935476">
        <ele>53.223209</ele>
        <time>2026-03-05T11:48:59.000Z</time>
      </trkpt>
      <trkpt lat="50.947657" lon="6.935476">
        <ele>53.223209</ele>
        <time>2026-03-05T11:49:01.000Z</time>
      </trkpt>
      <trkpt lat="50.947657" lon="6.935476">
        <ele>53.223209</ele>
        <time>2026-03-05T11:49:09.000Z</time>
      </trkpt>
      <trkpt lat="50.947657" lon="6.935476">
        <ele>53.223209</ele>
        <time>2026-03-05T11:49:33.000Z</time>
      </trkpt>
      <trkpt lat="50.947657" lon="6.935476">
        <ele>53.223209</ele>
        <time>2026-03-05T11:49:38.000Z</time>
      </trkpt>
      <trkpt lat="50.947657" lon="6.935476">
        <ele>53.223209</ele>
        <time>2026-03-05T11:49:59.000Z</time>
      </trkpt>
      <trkpt lat="50.947657" lon="6.935476">
        <ele>53.223209</ele>
        <time>2026-03-05T11:50:00.000Z</time>
      </trkpt>
      <trkpt lat="50.947671" lon="6.935467">
        <ele>53.160200</ele>
        <time>2026-03-05T11:50:09.000Z</time>
      </trkpt>
      <trkpt lat="50.947667" lon="6.935470">
        <ele>53.141745</ele>
        <time>2026-03-05T11:50:12.000Z</time>
      </trkpt>
      <trkpt lat="50.947627" lon="6.935473">
        <ele>52.974699</ele>
        <time>2026-03-05T11:50:14.000Z</time>
      </trkpt>
      <trkpt lat="50.947559" lon="6.935504">
        <ele>52.679569</ele>
        <time>2026-03-05T11:50:16.000Z</time>
      </trkpt>
      <trkpt lat="50.947479" lon="6.935540">
        <ele>52.332697</ele>
        <time>2026-03-05T11:50:18.000Z</time>
      </trkpt>
      <trkpt lat="50.947365" lon="6.935476">
        <ele>51.828276</ele>
        <time>2026-03-05T11:50:21.000Z</time>
      </trkpt>
      <trkpt lat="50.947328" lon="6.935428">
        <ele>51.628935</ele>
        <time>2026-03-05T11:50:22.000Z</time>
      </trkpt>
      <trkpt lat="50.947272" lon="6.935279">
        <ele>51.172951</ele>
        <time>2026-03-05T11:50:25.000Z</time>
      </trkpt>
      <trkpt lat="50.947205" lon="6.935191">
        <ele>51.154097</ele>
        <time>2026-03-05T11:50:27.000Z</time>
      </trkpt>
      <trkpt lat="50.947128" lon="6.935092">
        <ele>51.169229</ele>
        <time>2026-03-05T11:50:29.000Z</time>
      </trkpt>
      <trkpt lat="50.946834" lon="6.934754">
        <ele>51.224661</ele>
        <time>2026-03-05T11:50:35.000Z</time>
      </trkpt>
      <trkpt lat="50.946656" lon="6.934465">
        <ele>51.263543</ele>
        <time>2026-03-05T11:50:39.000Z</time>
      </trkpt>
      <trkpt lat="50.946625" lon="6.934362">
        <ele>51.274525</ele>
        <time>2026-03-05T11:50:40.000Z</time>
      </trkpt>
      <trkpt lat="50.946517" lon="6.934207">
        <ele>51.296759</ele>
        <time>2026-03-05T11:50:42.000Z</time>
      </trkpt>
      <trkpt lat="50.946451" lon="6.934151">
        <ele>51.308187</ele>
        <time>2026-03-05T11:50:43.000Z</time>
      </trkpt>
      <trkpt lat="50.946262" lon="6.933983">
        <ele>51.341264</ele>
        <time>2026-03-05T11:50:46.000Z</time>
      </trkpt>
      <trkpt lat="50.945937" lon="6.933715">
        <ele>51.397189</ele>
        <time>2026-03-05T11:50:51.000Z</time>
      </trkpt>
      <trkpt lat="50.945882" lon="6.933667">
        <ele>51.406774</ele>
        <time>2026-03-05T11:50:52.000Z</time>
      </trkpt>
      <trkpt lat="50.945578" lon="6.933436">
        <ele>51.586933</ele>
        <time>2026-03-05T11:50:57.000Z</time>
      </trkpt>
      <trkpt lat="50.945373" lon="6.933205">
        <ele>51.743980</ele>
        <time>2026-03-05T11:51:01.000Z</time>
      </trkpt>
      <trkpt lat="50.945345" lon="6.933110">
        <ele>51.785258</ele>
        <time>2026-03-05T11:51:02.000Z</time>
      </trkpt>
      <trkpt lat="50.945314" lon="6.932949">
        <ele>51.851515</ele>
        <time>2026-03-05T11:51:04.000Z</time>
      </trkpt>
      <trkpt lat="50.945317" lon="6.932855">
        <ele>51.888559</ele>
        <time>2026-03-05T11:51:05.000Z</time>
      </trkpt>
      <trkpt lat="50.945330" lon="6.932767">
        <ele>51.924132</ele>
        <time>2026-03-05T11:51:06.000Z</time>
      </trkpt>
      <trkpt lat="50.945340" lon="6.932687">
        <ele>51.956232</ele>
        <time>2026-03-05T11:51:07.000Z</time>
      </trkpt>
      <trkpt lat="50.945327" lon="6.932602">
        <ele>51.990657</ele>
        <time>2026-03-05T11:51:08.000Z</time>
      </trkpt>
      <trkpt lat="50.945312" lon="6.932528">
        <ele>52.021251</ele>
        <time>2026-03-05T11:51:09.000Z</time>
      </trkpt>
      <trkpt lat="50.945291" lon="6.932442">
        <ele>52.057552</ele>
        <time>2026-03-05T11:51:10.000Z</time>
      </trkpt>
      <trkpt lat="50.945248" lon="6.932180">
        <ele>52.164108</ele>
        <time>2026-03-05T11:51:13.000Z</time>
      </trkpt>
      <trkpt lat="50.945225" lon="6.932105">
        <ele>52.196937</ele>
        <time>2026-03-05T11:51:14.000Z</time>
      </trkpt>
      <trkpt lat="50.945103" lon="6.931847">
        <ele>52.323896</ele>
        <time>2026-03-05T11:51:18.000Z</time>
      </trkpt>
      <trkpt lat="50.945048" lon="6.931721">
        <ele>52.384224</ele>
        <time>2026-03-05T11:51:20.000Z</time>
      </trkpt>
      <trkpt lat="50.944938" lon="6.931476">
        <ele>52.502627</ele>
        <time>2026-03-05T11:51:24.000Z</time>
      </trkpt>
      <trkpt lat="50.944724" lon="6.931078">
        <ele>52.560061</ele>
        <time>2026-03-05T11:51:31.000Z</time>
      </trkpt>
      <trkpt lat="50.944685" lon="6.931021">
        <ele>52.563979</ele>
        <time>2026-03-05T11:51:32.000Z</time>
      </trkpt>
      <trkpt lat="50.944654" lon="6.930866">
        <ele>52.571551</ele>
        <time>2026-03-05T11:51:34.000Z</time>
      </trkpt>
      <trkpt lat="50.944651" lon="6.930783">
        <ele>52.575422</ele>
        <time>2026-03-05T11:51:35.000Z</time>
      </trkpt>
      <trkpt lat="50.944639" lon="6.930723">
        <ele>52.578353</ele>
        <time>2026-03-05T11:51:36.000Z</time>
      </trkpt>
      <trkpt lat="50.944602" lon="6.930565">
        <ele>52.586202</ele>
        <time>2026-03-05T11:51:38.000Z</time>
      </trkpt>
      <trkpt lat="50.944609" lon="6.930390">
        <ele>52.594367</ele>
        <time>2026-03-05T11:51:40.000Z</time>
      </trkpt>
      <trkpt lat="50.944630" lon="6.930314">
        <ele>52.598231</ele>
        <time>2026-03-05T11:51:41.000Z</time>
      </trkpt>
      <trkpt lat="50.944661" lon="6.930178">
        <ele>52.604965</ele>
        <time>2026-03-05T11:51:43.000Z</time>
      </trkpt>
      <trkpt lat="50.944701" lon="6.930020">
        <ele>52.612894</ele>
        <time>2026-03-05T11:51:45.000Z</time>
      </trkpt>
      <trkpt lat="50.944795" lon="6.929727">
        <ele>52.628204</ele>
        <time>2026-03-05T11:51:49.000Z</time>
      </trkpt>
      <trkpt lat="50.944901" lon="6.929461">
        <ele>52.642859</ele>
        <time>2026-03-05T11:51:53.000Z</time>
      </trkpt>
      <trkpt lat="50.944984" lon="6.929268">
        <ele>52.653739</ele>
        <time>2026-03-05T11:51:56.000Z</time>
      </trkpt>
      <trkpt lat="50.945009" lon="6.929198">
        <ele>52.657486</ele>
        <time>2026-03-05T11:51:57.000Z</time>
      </trkpt>
      <trkpt lat="50.945080" lon="6.928888">
        <ele>52.672844</ele>
        <time>2026-03-05T11:52:02.000Z</time>
      </trkpt>
      <trkpt lat="50.945062" lon="6.928848">
        <ele>52.693326</ele>
        <time>2026-03-05T11:52:03.000Z</time>
      </trkpt>
      <trkpt lat="50.945028" lon="6.928769">
        <ele>52.736834</ele>
        <time>2026-03-05T11:52:06.000Z</time>
      </trkpt>
      <trkpt lat="50.944999" lon="6.928589">
        <ele>52.821327</ele>
        <time>2026-03-05T11:52:13.000Z</time>
      </trkpt>
      <trkpt lat="50.944999" lon="6.928589">
        <ele>52.821327</ele>
        <time>2026-03-05T11:52:19.000Z</time>
      </trkpt>
      <trkpt lat="50.944994" lon="6.928627">
        <ele>52.838981</ele>
        <time>2026-03-05T11:52:28.000Z</time>
      </trkpt>
      <trkpt lat="50.944994" lon="6.928603">
        <ele>52.849895</ele>
        <time>2026-03-05T11:52:43.000Z</time>
      </trkpt>
      <trkpt lat="50.945042" lon="6.928418">
        <ele>52.940881</ele>
        <time>2026-03-05T11:52:46.000Z</time>
      </trkpt>
      <trkpt lat="50.945153" lon="6.928109">
        <ele>53.102639</ele>
        <time>2026-03-05T11:52:50.000Z</time>
      </trkpt>
      <trkpt lat="50.945329" lon="6.927606">
        <ele>53.364293</ele>
        <time>2026-03-05T11:52:55.000Z</time>
      </trkpt>
      <trkpt lat="50.945459" lon="6.927176">
        <ele>53.581189</ele>
        <time>2026-03-05T11:52:59.000Z</time>
      </trkpt>
      <trkpt lat="50.945542" lon="6.926969">
        <ele>53.692771</ele>
        <time>2026-03-05T11:53:01.000Z</time>
      </trkpt>
      <trkpt lat="50.945626" lon="6.926766">
        <ele>53.803217</ele>
        <time>2026-03-05T11:53:03.000Z</time>
      </trkpt>
      <trkpt lat="50.945748" lon="6.926446">
        <ele>53.971936</ele>
        <time>2026-03-05T11:53:06.000Z</time>
      </trkpt>
      <trkpt lat="50.945831" lon="6.926240">
        <ele>54.007871</ele>
        <time>2026-03-05T11:53:08.000Z</time>
      </trkpt>
      <trkpt lat="50.945869" lon="6.926136">
        <ele>54.025539</ele>
        <time>2026-03-05T11:53:09.000Z</time>
      </trkpt>
      <trkpt lat="50.945978" lon="6.925849">
        <ele>54.074787</ele>
        <time>2026-03-05T11:53:12.000Z</time>
      </trkpt>
      <trkpt lat="50.946067" lon="6.925602">
        <ele>54.116603</ele>
        <time>2026-03-05T11:53:15.000Z</time>
      </trkpt>
      <trkpt lat="50.946147" lon="6.925433">
        <ele>54.147668</ele>
        <time>2026-03-05T11:53:19.000Z</time>
      </trkpt>
      <trkpt lat="50.946256" lon="6.925181">
        <ele>54.192589</ele>
        <time>2026-03-05T11:53:24.000Z</time>
      </trkpt>
      <trkpt lat="50.946434" lon="6.924689">
        <ele>54.275965</ele>
        <time>2026-03-05T11:53:30.000Z</time>
      </trkpt>
      <trkpt lat="50.946690" lon="6.924007">
        <ele>54.393268</ele>
        <time>2026-03-05T11:53:38.000Z</time>
      </trkpt>
      <trkpt lat="50.946796" lon="6.923773">
        <ele>54.450498</ele>
        <time>2026-03-05T11:53:41.000Z</time>
      </trkpt>
      <trkpt lat="50.946867" lon="6.923622">
        <ele>54.487913</ele>
        <time>2026-03-05T11:53:43.000Z</time>
      </trkpt>
      <trkpt lat="50.946962" lon="6.923421">
        <ele>54.537809</ele>
        <time>2026-03-05T11:53:46.000Z</time>
      </trkpt>
      <trkpt lat="50.947019" lon="6.923277">
        <ele>54.571579</ele>
        <time>2026-03-05T11:53:50.000Z</time>
      </trkpt>
      <trkpt lat="50.947068" lon="6.923204">
        <ele>54.592761</ele>
        <time>2026-03-05T11:53:56.000Z</time>
      </trkpt>
      <trkpt lat="50.947070" lon="6.923168">
        <ele>54.599937</ele>
        <time>2026-03-05T11:53:58.000Z</time>
      </trkpt>
      <trkpt lat="50.947092" lon="6.923100">
        <ele>54.615116</ele>
        <time>2026-03-05T11:54:01.000Z</time>
      </trkpt>
      <trkpt lat="50.947179" lon="6.922892">
        <ele>54.664693</ele>
        <time>2026-03-05T11:54:05.000Z</time>
      </trkpt>
      <trkpt lat="50.947239" lon="6.922760">
        <ele>54.697015</ele>
        <time>2026-03-05T11:54:07.000Z</time>
      </trkpt>
      <trkpt lat="50.947419" lon="6.922354">
        <ele>54.795596</ele>
        <time>2026-03-05T11:54:13.000Z</time>
      </trkpt>
      <trkpt lat="50.947479" lon="6.922226">
        <ele>54.827277</ele>
        <time>2026-03-05T11:54:15.000Z</time>
      </trkpt>
      <trkpt lat="50.947716" lon="6.921669">
        <ele>54.957111</ele>
        <time>2026-03-05T11:54:23.000Z</time>
      </trkpt>
      <trkpt lat="50.947948" lon="6.921108">
        <ele>54.930720</ele>
        <time>2026-03-05T11:54:30.000Z</time>
      </trkpt>
      <trkpt lat="50.948234" lon="6.920388">
        <ele>54.897246</ele>
        <time>2026-03-05T11:54:38.000Z</time>
      </trkpt>
      <trkpt lat="50.948264" lon="6.920282">
        <ele>54.892676</ele>
        <time>2026-03-05T11:54:39.000Z</time>
      </trkpt>
      <trkpt lat="50.948430" lon="6.919883">
        <ele>54.873872</ele>
        <time>2026-03-05T11:54:43.000Z</time>
      </trkpt>
      <trkpt lat="50.948475" lon="6.919797">
        <ele>54.869475</ele>
        <time>2026-03-05T11:54:44.000Z</time>
      </trkpt>
      <trkpt lat="50.948693" lon="6.919279">
        <ele>54.844487</ele>
        <time>2026-03-05T11:54:50.000Z</time>
      </trkpt>
      <trkpt lat="50.948727" lon="6.919195">
        <ele>54.836372</ele>
        <time>2026-03-05T11:54:51.000Z</time>
      </trkpt>
      <trkpt lat="50.948830" lon="6.918940">
        <ele>54.811754</ele>
        <time>2026-03-05T11:54:54.000Z</time>
      </trkpt>
      <trkpt lat="50.948903" lon="6.918775">
        <ele>54.795368</ele>
        <time>2026-03-05T11:54:56.000Z</time>
      </trkpt>
      <trkpt lat="50.949128" lon="6.918260">
        <ele>54.744434</ele>
        <time>2026-03-05T11:55:02.000Z</time>
      </trkpt>
      <trkpt lat="50.949177" lon="6.918176">
        <ele>54.735130</ele>
        <time>2026-03-05T11:55:03.000Z</time>
      </trkpt>
      <trkpt lat="50.949486" lon="6.917711">
        <ele>54.680202</ele>
        <time>2026-03-05T11:55:09.000Z</time>
      </trkpt>
      <trkpt lat="50.949813" lon="6.917225">
        <ele>54.622413</ele>
        <time>2026-03-05T11:55:16.000Z</time>
      </trkpt>
      <trkpt lat="50.949949" lon="6.917026">
        <ele>54.580183</ele>
        <time>2026-03-05T11:55:20.000Z</time>
      </trkpt>
      <trkpt lat="50.950017" lon="6.916935">
        <ele>54.554525</ele>
        <time>2026-03-05T11:55:24.000Z</time>
      </trkpt>
      <trkpt lat="50.950052" lon="6.916869">
        <ele>54.538846</ele>
        <time>2026-03-05T11:55:30.000Z</time>
      </trkpt>
      <trkpt lat="50.950052" lon="6.916869">
        <ele>54.538846</ele>
        <time>2026-03-05T11:55:35.000Z</time>
      </trkpt>
      <trkpt lat="50.950052" lon="6.916869">
        <ele>54.538846</ele>
        <time>2026-03-05T11:55:37.000Z</time>
      </trkpt>
      <trkpt lat="50.950052" lon="6.916869">
        <ele>54.538846</ele>
        <time>2026-03-05T11:55:38.000Z</time>
      </trkpt>
      <trkpt lat="50.950052" lon="6.916869">
        <ele>54.538846</ele>
        <time>2026-03-05T11:55:45.000Z</time>
      </trkpt>
      <trkpt lat="50.950052" lon="6.916869">
        <ele>54.538846</ele>
        <time>2026-03-05T11:55:51.000Z</time>
      </trkpt>
      <trkpt lat="50.950052" lon="6.916869">
        <ele>54.538846</ele>
        <time>2026-03-05T11:55:59.000Z</time>
      </trkpt>
      <trkpt lat="50.950033" lon="6.916872">
        <ele>54.533338</ele>
        <time>2026-03-05T11:56:14.000Z</time>
      </trkpt>
      <trkpt lat="50.950043" lon="6.916843">
        <ele>54.527329</ele>
        <time>2026-03-05T11:56:15.000Z</time>
      </trkpt>
      <trkpt lat="50.950061" lon="6.916801">
        <ele>54.518097</ele>
        <time>2026-03-05T11:56:16.000Z</time>
      </trkpt>
      <trkpt lat="50.950094" lon="6.916767">
        <ele>54.506748</ele>
        <time>2026-03-05T11:56:17.000Z</time>
      </trkpt>
      <trkpt lat="50.950291" lon="6.916558">
        <ele>54.438391</ele>
        <time>2026-03-05T11:56:21.000Z</time>
      </trkpt>
      <trkpt lat="50.950559" lon="6.916152">
        <ele>54.331518</ele>
        <time>2026-03-05T11:56:26.000Z</time>
      </trkpt>
      <trkpt lat="50.950728" lon="6.915870">
        <ele>54.260782</ele>
        <time>2026-03-05T11:56:29.000Z</time>
      </trkpt>
      <trkpt lat="50.950961" lon="6.915481">
        <ele>54.163231</ele>
        <time>2026-03-05T11:56:33.000Z</time>
      </trkpt>
      <trkpt lat="50.951227" lon="6.915030">
        <ele>54.216177</ele>
        <time>2026-03-05T11:56:38.000Z</time>
      </trkpt>
      <trkpt lat="50.951381" lon="6.914768">
        <ele>54.397956</ele>
        <time>2026-03-05T11:56:41.000Z</time>
      </trkpt>
      <trkpt lat="50.951437" lon="6.914685">
        <ele>54.459651</ele>
        <time>2026-03-05T11:56:42.000Z</time>
      </trkpt>
      <trkpt lat="50.951491" lon="6.914607">
        <ele>54.518444</ele>
        <time>2026-03-05T11:56:43.000Z</time>
      </trkpt>
      <trkpt lat="50.951595" lon="6.914456">
        <ele>54.631939</ele>
        <time>2026-03-05T11:56:45.000Z</time>
      </trkpt>
      <trkpt lat="50.951915" lon="6.913951">
        <ele>54.995296</ele>
        <time>2026-03-05T11:56:52.000Z</time>
      </trkpt>
      <trkpt lat="50.952041" lon="6.913759">
        <ele>55.135941</ele>
        <time>2026-03-05T11:56:55.000Z</time>
      </trkpt>
      <trkpt lat="50.952088" lon="6.913689">
        <ele>55.187838</ele>
        <time>2026-03-05T11:56:57.000Z</time>
      </trkpt>
      <trkpt lat="50.952229" lon="6.913475">
        <ele>55.344926</ele>
        <time>2026-03-05T11:57:02.000Z</time>
      </trkpt>
      <trkpt lat="50.952509" lon="6.913070">
        <ele>55.682763</ele>
        <time>2026-03-05T11:57:09.000Z</time>
      </trkpt>
      <trkpt lat="50.952726" lon="6.912738">
        <ele>55.999803</ele>
        <time>2026-03-05T11:57:14.000Z</time>
      </trkpt>
      <trkpt lat="50.952932" lon="6.912435">
        <ele>56.295232</ele>
        <time>2026-03-05T11:57:18.000Z</time>
      </trkpt>
      <trkpt lat="50.953034" lon="6.912268">
        <ele>56.449376</ele>
        <time>2026-03-05T11:57:20.000Z</time>
      </trkpt>
      <trkpt lat="50.953205" lon="6.912010">
        <ele>56.697549</ele>
        <time>2026-03-05T11:57:23.000Z</time>
      </trkpt>
      <trkpt lat="50.953371" lon="6.911761">
        <ele>56.937801</ele>
        <time>2026-03-05T11:57:26.000Z</time>
      </trkpt>
      <trkpt lat="50.953422" lon="6.911679">
        <ele>57.014163</ele>
        <time>2026-03-05T11:57:27.000Z</time>
      </trkpt>
      <trkpt lat="50.953530" lon="6.911526">
        <ele>57.166436</ele>
        <time>2026-03-05T11:57:29.000Z</time>
      </trkpt>
      <trkpt lat="50.953754" lon="6.911209">
        <ele>57.449725</ele>
        <time>2026-03-05T11:57:33.000Z</time>
      </trkpt>
      <trkpt lat="50.953875" lon="6.911012">
        <ele>57.506760</ele>
        <time>2026-03-05T11:57:35.000Z</time>
      </trkpt>
      <trkpt lat="50.954278" lon="6.910388">
        <ele>57.692011</ele>
        <time>2026-03-05T11:57:41.000Z</time>
      </trkpt>
      <trkpt lat="50.954341" lon="6.910275">
        <ele>57.723291</ele>
        <time>2026-03-05T11:57:42.000Z</time>
      </trkpt>
      <trkpt lat="50.954435" lon="6.909993">
        <ele>57.789426</ele>
        <time>2026-03-05T11:57:44.000Z</time>
      </trkpt>
      <trkpt lat="50.954532" lon="6.909685">
        <ele>57.860806</ele>
        <time>2026-03-05T11:57:46.000Z</time>
      </trkpt>
      <trkpt lat="50.954639" lon="6.909393">
        <ele>57.930831</ele>
        <time>2026-03-05T11:57:48.000Z</time>
      </trkpt>
      <trkpt lat="50.954750" lon="6.909097">
        <ele>58.002238</ele>
        <time>2026-03-05T11:57:50.000Z</time>
      </trkpt>
      <trkpt lat="50.954788" lon="6.908945">
        <ele>58.029435</ele>
        <time>2026-03-05T11:57:51.000Z</time>
      </trkpt>
      <trkpt lat="50.954883" lon="6.908670">
        <ele>58.047527</ele>
        <time>2026-03-05T11:57:53.000Z</time>
      </trkpt>
      <trkpt lat="50.955062" lon="6.908115">
        <ele>58.083494</ele>
        <time>2026-03-05T11:57:57.000Z</time>
      </trkpt>
      <trkpt lat="50.955099" lon="6.907981">
        <ele>58.091934</ele>
        <time>2026-03-05T11:57:58.000Z</time>
      </trkpt>
      <trkpt lat="50.955134" lon="6.907850">
        <ele>58.100142</ele>
        <time>2026-03-05T11:57:59.000Z</time>
      </trkpt>
      <trkpt lat="50.955204" lon="6.907589">
        <ele>58.116505</ele>
        <time>2026-03-05T11:58:01.000Z</time>
      </trkpt>
      <trkpt lat="50.955242" lon="6.907460">
        <ele>58.124720</ele>
        <time>2026-03-05T11:58:02.000Z</time>
      </trkpt>
      <trkpt lat="50.955367" lon="6.907099">
        <ele>58.148483</ele>
        <time>2026-03-05T11:58:05.000Z</time>
      </trkpt>
      <trkpt lat="50.955406" lon="6.906982">
        <ele>58.156118</ele>
        <time>2026-03-05T11:58:06.000Z</time>
      </trkpt>
      <trkpt lat="50.955525" lon="6.906621">
        <ele>58.179621</ele>
        <time>2026-03-05T11:58:09.000Z</time>
      </trkpt>
      <trkpt lat="50.955606" lon="6.906375">
        <ele>58.141227</ele>
        <time>2026-03-05T11:58:11.000Z</time>
      </trkpt>
      <trkpt lat="50.955647" lon="6.906247">
        <ele>58.038934</ele>
        <time>2026-03-05T11:58:12.000Z</time>
      </trkpt>
      <trkpt lat="50.955767" lon="6.905881">
        <ele>57.745010</ele>
        <time>2026-03-05T11:58:15.000Z</time>
      </trkpt>
      <trkpt lat="50.955849" lon="6.905648">
        <ele>57.554884</ele>
        <time>2026-03-05T11:58:17.000Z</time>
      </trkpt>
      <trkpt lat="50.956047" lon="6.905037">
        <ele>57.065420</ele>
        <time>2026-03-05T11:58:22.000Z</time>
      </trkpt>
      <trkpt lat="50.956191" lon="6.904569">
        <ele>56.694395</ele>
        <time>2026-03-05T11:58:26.000Z</time>
      </trkpt>
      <trkpt lat="50.956365" lon="6.904003">
        <ele>56.245754</ele>
        <time>2026-03-05T11:58:31.000Z</time>
      </trkpt>
      <trkpt lat="50.956398" lon="6.903907">
        <ele>56.167849</ele>
        <time>2026-03-05T11:58:32.000Z</time>
      </trkpt>
      <trkpt lat="50.956465" lon="6.903698">
        <ele>55.943171</ele>
        <time>2026-03-05T11:58:34.000Z</time>
      </trkpt>
      <trkpt lat="50.956604" lon="6.903282">
        <ele>55.484398</ele>
        <time>2026-03-05T11:58:39.000Z</time>
      </trkpt>
      <trkpt lat="50.956683" lon="6.903159">
        <ele>55.313258</ele>
        <time>2026-03-05T11:58:43.000Z</time>
      </trkpt>
      <trkpt lat="50.956705" lon="6.903137">
        <ele>55.273045</ele>
        <time>2026-03-05T11:58:46.000Z</time>
      </trkpt>
      <trkpt lat="50.956715" lon="6.903136">
        <ele>55.257548</ele>
        <time>2026-03-05T11:58:48.000Z</time>
      </trkpt>
      <trkpt lat="50.956715" lon="6.903136">
        <ele>55.257548</ele>
        <time>2026-03-05T11:58:49.000Z</time>
      </trkpt>
      <trkpt lat="50.956715" lon="6.903136">
        <ele>55.257548</ele>
        <time>2026-03-05T11:58:51.000Z</time>
      </trkpt>
      <trkpt lat="50.956718" lon="6.903162">
        <ele>55.231796</ele>
        <time>2026-03-05T11:59:13.000Z</time>
      </trkpt>
      <trkpt lat="50.956719" lon="6.903165">
        <ele>55.228489</ele>
        <time>2026-03-05T11:59:16.000Z</time>
      </trkpt>
      <trkpt lat="50.956719" lon="6.903165">
        <ele>55.228489</ele>
        <time>2026-03-05T11:59:20.000Z</time>
      </trkpt>
      <trkpt lat="50.956751" lon="6.903131">
        <ele>55.168935</ele>
        <time>2026-03-05T11:59:24.000Z</time>
      </trkpt>
      <trkpt lat="50.956809" lon="6.903004">
        <ele>55.016110</ele>
        <time>2026-03-05T11:59:27.000Z</time>
      </trkpt>
      <trkpt lat="50.956829" lon="6.902940">
        <ele>54.946507</ele>
        <time>2026-03-05T11:59:28.000Z</time>
      </trkpt>
      <trkpt lat="50.956873" lon="6.902782">
        <ele>54.778206</ele>
        <time>2026-03-05T11:59:30.000Z</time>
      </trkpt>
      <trkpt lat="50.956976" lon="6.902375">
        <ele>54.350889</ele>
        <time>2026-03-05T11:59:34.000Z</time>
      </trkpt>
      <trkpt lat="50.957005" lon="6.902264">
        <ele>54.233816</ele>
        <time>2026-03-05T11:59:35.000Z</time>
      </trkpt>
      <trkpt lat="50.957241" lon="6.901537">
        <ele>53.437030</ele>
        <time>2026-03-05T11:59:42.000Z</time>
      </trkpt>
      <trkpt lat="50.957292" lon="6.901454">
        <ele>53.412863</ele>
        <time>2026-03-05T11:59:43.000Z</time>
      </trkpt>
      <trkpt lat="50.957403" lon="6.901167">
        <ele>53.649128</ele>
        <time>2026-03-05T11:59:46.000Z</time>
      </trkpt>
      <trkpt lat="50.957462" lon="6.900982">
        <ele>53.794598</ele>
        <time>2026-03-05T11:59:48.000Z</time>
      </trkpt>
      <trkpt lat="50.957490" lon="6.900884">
        <ele>53.870090</ele>
        <time>2026-03-05T11:59:49.000Z</time>
      </trkpt>
      <trkpt lat="50.957604" lon="6.900596">
        <ele>54.108712</ele>
        <time>2026-03-05T11:59:52.000Z</time>
      </trkpt>
      <trkpt lat="50.957866" lon="6.899990">
        <ele>54.624345</ele>
        <time>2026-03-05T11:59:58.000Z</time>
      </trkpt>
      <trkpt lat="50.957997" lon="6.899683">
        <ele>54.884480</ele>
        <time>2026-03-05T12:00:01.000Z</time>
      </trkpt>
      <trkpt lat="50.958086" lon="6.899474">
        <ele>55.061460</ele>
        <time>2026-03-05T12:00:03.000Z</time>
      </trkpt>
      <trkpt lat="50.958232" lon="6.899154">
        <ele>55.338651</ele>
        <time>2026-03-05T12:00:06.000Z</time>
      </trkpt>
      <trkpt lat="50.958555" lon="6.898446">
        <ele>55.593121</ele>
        <time>2026-03-05T12:00:13.000Z</time>
      </trkpt>
      <trkpt lat="50.958599" lon="6.898349">
        <ele>55.624472</ele>
        <time>2026-03-05T12:00:14.000Z</time>
      </trkpt>
      <trkpt lat="50.958689" lon="6.898153">
        <ele>55.688087</ele>
        <time>2026-03-05T12:00:16.000Z</time>
      </trkpt>
      <trkpt lat="50.959043" lon="6.897374">
        <ele>55.940016</ele>
        <time>2026-03-05T12:00:24.000Z</time>
      </trkpt>
      <trkpt lat="50.959087" lon="6.897276">
        <ele>55.971579</ele>
        <time>2026-03-05T12:00:25.000Z</time>
      </trkpt>
      <trkpt lat="50.959366" lon="6.896683">
        <ele>56.111675</ele>
        <time>2026-03-05T12:00:31.000Z</time>
      </trkpt>
      <trkpt lat="50.959459" lon="6.896483">
        <ele>56.083916</ele>
        <time>2026-03-05T12:00:33.000Z</time>
      </trkpt>
      <trkpt lat="50.959507" lon="6.896388">
        <ele>56.070316</ele>
        <time>2026-03-05T12:00:34.000Z</time>
      </trkpt>
      <trkpt lat="50.959885" lon="6.895651">
        <ele>55.964188</ele>
        <time>2026-03-05T12:00:42.000Z</time>
      </trkpt>
      <trkpt lat="50.960208" lon="6.895011">
        <ele>55.872613</ele>
        <time>2026-03-05T12:00:49.000Z</time>
      </trkpt>
      <trkpt lat="50.960288" lon="6.894841">
        <ele>55.848917</ele>
        <time>2026-03-05T12:00:51.000Z</time>
      </trkpt>
      <trkpt lat="50.960574" lon="6.894216">
        <ele>55.762380</ele>
        <time>2026-03-05T12:00:58.000Z</time>
      </trkpt>
      <trkpt lat="50.960746" lon="6.893773">
        <ele>55.703926</ele>
        <time>2026-03-05T12:01:03.000Z</time>
      </trkpt>
      <trkpt lat="50.960790" lon="6.893697">
        <ele>55.692331</ele>
        <time>2026-03-05T12:01:04.000Z</time>
      </trkpt>
      <trkpt lat="50.960838" lon="6.893633">
        <ele>55.681152</ele>
        <time>2026-03-05T12:01:05.000Z</time>
      </trkpt>
      <trkpt lat="50.960935" lon="6.893536">
        <ele>55.660709</ele>
        <time>2026-03-05T12:01:07.000Z</time>
      </trkpt>
      <trkpt lat="50.960974" lon="6.893487">
        <ele>55.651839</ele>
        <time>2026-03-05T12:01:08.000Z</time>
      </trkpt>
      <trkpt lat="50.961006" lon="6.893429">
        <ele>55.643178</ele>
        <time>2026-03-05T12:01:09.000Z</time>
      </trkpt>
      <trkpt lat="50.961092" lon="6.893237">
        <ele>55.616715</ele>
        <time>2026-03-05T12:01:12.000Z</time>
      </trkpt>
      <trkpt lat="50.961178" lon="6.893031">
        <ele>55.588955</ele>
        <time>2026-03-05T12:01:16.000Z</time>
      </trkpt>
      <trkpt lat="50.961197" lon="6.892960">
        <ele>55.580290</ele>
        <time>2026-03-05T12:01:17.000Z</time>
      </trkpt>
      <trkpt lat="50.961169" lon="6.892909">
        <ele>55.572691</ele>
        <time>2026-03-05T12:01:19.000Z</time>
      </trkpt>
      <trkpt lat="50.961150" lon="6.892888">
        <ele>55.568562</ele>
        <time>2026-03-05T12:01:20.000Z</time>
      </trkpt>
      <trkpt lat="50.961110" lon="6.892777">
        <ele>55.554198</ele>
        <time>2026-03-05T12:01:22.000Z</time>
      </trkpt>
      <trkpt lat="50.961110" lon="6.892704">
        <ele>55.545998</ele>
        <time>2026-03-05T12:01:23.000Z</time>
      </trkpt>
      <trkpt lat="50.961101" lon="6.892629">
        <ele>55.537422</ele>
        <time>2026-03-05T12:01:24.000Z</time>
      </trkpt>
      <trkpt lat="50.961058" lon="6.892466">
        <ele>55.517572</ele>
        <time>2026-03-05T12:01:26.000Z</time>
      </trkpt>
      <trkpt lat="50.961022" lon="6.892384">
        <ele>55.506345</ele>
        <time>2026-03-05T12:01:27.000Z</time>
      </trkpt>
      <trkpt lat="50.960981" lon="6.892303">
        <ele>55.494673</ele>
        <time>2026-03-05T12:01:28.000Z</time>
      </trkpt>
      <trkpt lat="50.960811" lon="6.891967">
        <ele>55.327581</ele>
        <time>2026-03-05T12:01:32.000Z</time>
      </trkpt>
      <trkpt lat="50.960462" lon="6.891305">
        <ele>54.956077</ele>
        <time>2026-03-05T12:01:40.000Z</time>
      </trkpt>
      <trkpt lat="50.960340" lon="6.891077">
        <ele>54.827334</ele>
        <time>2026-03-05T12:01:43.000Z</time>
      </trkpt>
      <trkpt lat="50.960198" lon="6.890660">
        <ele>54.623335</ele>
        <time>2026-03-05T12:01:48.000Z</time>
      </trkpt>
      <trkpt lat="50.960180" lon="6.890559">
        <ele>54.578165</ele>
        <time>2026-03-05T12:01:49.000Z</time>
      </trkpt>
      <trkpt lat="50.960160" lon="6.890159">
        <ele>54.405487</ele>
        <time>2026-03-05T12:01:53.000Z</time>
      </trkpt>
      <trkpt lat="50.960169" lon="6.890051">
        <ele>54.358605</ele>
        <time>2026-03-05T12:01:54.000Z</time>
      </trkpt>
      <trkpt lat="50.960219" lon="6.889722">
        <ele>54.270139</ele>
        <time>2026-03-05T12:01:57.000Z</time>
      </trkpt>
      <trkpt lat="50.960264" lon="6.889392">
        <ele>54.304144</ele>
        <time>2026-03-05T12:02:00.000Z</time>
      </trkpt>
      <trkpt lat="50.960289" lon="6.889192">
        <ele>54.324680</ele>
        <time>2026-03-05T12:02:02.000Z</time>
      </trkpt>
      <trkpt lat="50.960311" lon="6.888998">
        <ele>54.344533</ele>
        <time>2026-03-05T12:02:05.000Z</time>
      </trkpt>
      <trkpt lat="50.960348" lon="6.888496">
        <ele>54.395436</ele>
        <time>2026-03-05T12:02:09.000Z</time>
      </trkpt>
      <trkpt lat="50.960358" lon="6.888053">
        <ele>54.440081</ele>
        <time>2026-03-05T12:02:13.000Z</time>
      </trkpt>
      <trkpt lat="50.960336" lon="6.887759">
        <ele>54.469899</ele>
        <time>2026-03-05T12:02:16.000Z</time>
      </trkpt>
      <trkpt lat="50.960263" lon="6.887191">
        <ele>54.528284</ele>
        <time>2026-03-05T12:02:22.000Z</time>
      </trkpt>
      <trkpt lat="50.960228" lon="6.887009">
        <ele>54.547619</ele>
        <time>2026-03-05T12:02:24.000Z</time>
      </trkpt>
      <trkpt lat="50.960162" lon="6.886735">
        <ele>54.586291</ele>
        <time>2026-03-05T12:02:27.000Z</time>
      </trkpt>
      <trkpt lat="50.959975" lon="6.886262">
        <ele>54.659909</ele>
        <time>2026-03-05T12:02:33.000Z</time>
      </trkpt>
      <trkpt lat="50.959843" lon="6.885950">
        <ele>54.709456</ele>
        <time>2026-03-05T12:02:38.000Z</time>
      </trkpt>
      <trkpt lat="50.959937" lon="6.885887">
        <ele>54.730811</ele>
        <time>2026-03-05T12:02:41.000Z</time>
      </trkpt>
      <trkpt lat="50.960172" lon="6.885827">
        <ele>54.780627</ele>
        <time>2026-03-05T12:02:47.000Z</time>
      </trkpt>
      <trkpt lat="50.960256" lon="6.885801">
        <ele>54.798538</ele>
        <time>2026-03-05T12:02:49.000Z</time>
      </trkpt>
      <trkpt lat="50.960396" lon="6.885781">
        <ele>54.827957</ele>
        <time>2026-03-05T12:02:52.000Z</time>
      </trkpt>
      <trkpt lat="50.960699" lon="6.885709">
        <ele>54.892079</ele>
        <time>2026-03-05T12:02:58.000Z</time>
      </trkpt>
      <trkpt lat="50.961112" lon="6.885593">
        <ele>54.627122</ele>
        <time>2026-03-05T12:03:06.000Z</time>
      </trkpt>
      <trkpt lat="50.961408" lon="6.885376">
        <ele>54.269498</ele>
        <time>2026-03-05T12:03:12.000Z</time>
      </trkpt>
      <trkpt lat="50.961452" lon="6.885335">
        <ele>54.213536</ele>
        <time>2026-03-05T12:03:13.000Z</time>
      </trkpt>
      <trkpt lat="50.961638" lon="6.885169">
        <ele>53.979489</ele>
        <time>2026-03-05T12:03:17.000Z</time>
      </trkpt>
      <trkpt lat="50.961880" lon="6.885054">
        <ele>53.702405</ele>
        <time>2026-03-05T12:03:22.000Z</time>
      </trkpt>
      <trkpt lat="50.961917" lon="6.885005">
        <ele>53.649554</ele>
        <time>2026-03-05T12:03:23.000Z</time>
      </trkpt>
      <trkpt lat="50.961950" lon="6.884879">
        <ele>53.555279</ele>
        <time>2026-03-05T12:03:25.000Z</time>
      </trkpt>
      <trkpt lat="50.961965" lon="6.884817">
        <ele>53.509394</ele>
        <time>2026-03-05T12:03:26.000Z</time>
      </trkpt>
      <trkpt lat="50.961981" lon="6.884676">
        <ele>53.410413</ele>
        <time>2026-03-05T12:03:28.000Z</time>
      </trkpt>
      <trkpt lat="50.961988" lon="6.884441">
        <ele>53.247878</ele>
        <time>2026-03-05T12:03:31.000Z</time>
      </trkpt>
      <trkpt lat="50.962008" lon="6.884267">
        <ele>53.125682</ele>
        <time>2026-03-05T12:03:33.000Z</time>
      </trkpt>
      <trkpt lat="50.962049" lon="6.883998">
        <ele>52.937108</ele>
        <time>2026-03-05T12:03:36.000Z</time>
      </trkpt>
      <trkpt lat="50.962076" lon="6.883831">
        <ele>52.837678</ele>
        <time>2026-03-05T12:03:38.000Z</time>
      </trkpt>
      <trkpt lat="50.962144" lon="6.883242">
        <ele>52.492349</ele>
        <time>2026-03-05T12:03:45.000Z</time>
      </trkpt>
      <trkpt lat="50.962162" lon="6.883163">
        <ele>52.443901</ele>
        <time>2026-03-05T12:03:46.000Z</time>
      </trkpt>
      <trkpt lat="50.962201" lon="6.882922">
        <ele>52.300405</ele>
        <time>2026-03-05T12:03:49.000Z</time>
      </trkpt>
      <trkpt lat="50.962253" lon="6.882572">
        <ele>52.093025</ele>
        <time>2026-03-05T12:03:53.000Z</time>
      </trkpt>
      <trkpt lat="50.962273" lon="6.882472">
        <ele>52.032518</ele>
        <time>2026-03-05T12:03:54.000Z</time>
      </trkpt>
      <trkpt lat="50.962392" lon="6.881835">
        <ele>51.649350</ele>
        <time>2026-03-05T12:04:00.000Z</time>
      </trkpt>
      <trkpt lat="50.962409" lon="6.881727">
        <ele>51.585153</ele>
        <time>2026-03-05T12:04:01.000Z</time>
      </trkpt>
      <trkpt lat="50.962503" lon="6.881170">
        <ele>51.361688</ele>
        <time>2026-03-05T12:04:06.000Z</time>
      </trkpt>
      <trkpt lat="50.962554" lon="6.880828">
        <ele>51.593138</ele>
        <time>2026-03-05T12:04:09.000Z</time>
      </trkpt>
      <trkpt lat="50.962621" lon="6.880402">
        <ele>51.882293</ele>
        <time>2026-03-05T12:04:13.000Z</time>
      </trkpt>
      <trkpt lat="50.962635" lon="6.880301">
        <ele>51.950398</ele>
        <time>2026-03-05T12:04:14.000Z</time>
      </trkpt>
      <trkpt lat="50.962691" lon="6.879810">
        <ele>52.279002</ele>
        <time>2026-03-05T12:04:19.000Z</time>
      </trkpt>
      <trkpt lat="50.962758" lon="6.879224">
        <ele>52.671215</ele>
        <time>2026-03-05T12:04:25.000Z</time>
      </trkpt>
      <trkpt lat="50.962777" lon="6.879138">
        <ele>52.731233</ele>
        <time>2026-03-05T12:04:26.000Z</time>
      </trkpt>
      <trkpt lat="50.962853" lon="6.878925">
        <ele>52.892448</ele>
        <time>2026-03-05T12:04:29.000Z</time>
      </trkpt>
      <trkpt lat="50.962888" lon="6.878863">
        <ele>52.947278</ele>
        <time>2026-03-05T12:04:30.000Z</time>
      </trkpt>
      <trkpt lat="50.963088" lon="6.878569">
        <ele>53.184188</ele>
        <time>2026-03-05T12:04:35.000Z</time>
      </trkpt>
      <trkpt lat="50.963252" lon="6.878388">
        <ele>53.184188</ele>
        <time>2026-03-05T12:04:38.000Z</time>
      </trkpt>
      <trkpt lat="50.963378" lon="6.878315">
        <ele>53.184188</ele>
        <time>2026-03-05T12:04:40.000Z</time>
      </trkpt>
      <trkpt lat="50.963640" lon="6.878157">
        <ele>53.184188</ele>
        <time>2026-03-05T12:04:45.000Z</time>
      </trkpt>
      <trkpt lat="50.963677" lon="6.878121">
        <ele>53.184188</ele>
        <time>2026-03-05T12:04:46.000Z</time>
      </trkpt>
      <trkpt lat="50.963726" lon="6.878074">
        <ele>53.184188</ele>
        <time>2026-03-05T12:04:48.000Z</time>
      </trkpt>
      <trkpt lat="50.963744" lon="6.878044">
        <ele>53.184188</ele>
        <time>2026-03-05T12:04:49.000Z</time>
      </trkpt>
      <trkpt lat="50.963753" lon="6.877896">
        <ele>53.184188</ele>
        <time>2026-03-05T12:04:53.000Z</time>
      </trkpt>
      <trkpt lat="50.963664" lon="6.877806">
        <ele>53.184188</ele>
        <time>2026-03-05T12:04:56.000Z</time>
      </trkpt>
      <trkpt lat="50.963527" lon="6.877608">
        <ele>53.184188</ele>
        <time>2026-03-05T12:05:00.000Z</time>
      </trkpt>
      <trkpt lat="50.963465" lon="6.877504">
        <ele>53.184188</ele>
        <time>2026-03-05T12:05:02.000Z</time>
      </trkpt>
      <trkpt lat="50.963407" lon="6.877410">
        <ele>53.184188</ele>
        <time>2026-03-05T12:05:04.000Z</time>
      </trkpt>
      <trkpt lat="50.963406" lon="6.877350">
        <ele>53.184188</ele>
        <time>2026-03-05T12:05:05.000Z</time>
      </trkpt>
      <trkpt lat="50.963430" lon="6.877287">
        <ele>53.184188</ele>
        <time>2026-03-05T12:05:07.000Z</time>
      </trkpt>
      <trkpt lat="50.963436" lon="6.877289">
        <ele>53.184188</ele>
        <time>2026-03-05T12:05:11.000Z</time>
      </trkpt>
      <trkpt lat="50.963391" lon="6.877342">
        <ele>53.184188</ele>
        <time>2026-03-05T12:05:18.000Z</time>
      </trkpt>
      <trkpt lat="50.963392" lon="6.877403">
        <ele>53.184188</ele>
        <time>2026-03-05T12:05:21.000Z</time>
      </trkpt>
      <trkpt lat="50.963388" lon="6.877436">
        <ele>53.184188</ele>
        <time>2026-03-05T12:05:23.000Z</time>
      </trkpt>
      <trkpt lat="50.963408" lon="6.877431">
        <ele>53.184188</ele>
        <time>2026-03-05T12:05:24.000Z</time>
      </trkpt>
      <trkpt lat="50.963387" lon="6.877459">
        <ele>53.184188</ele>
        <time>2026-03-05T12:05:26.000Z</time>
      </trkpt>
      <trkpt lat="50.963373" lon="6.877474">
        <ele>53.184188</ele>
        <time>2026-03-05T12:05:31.000Z</time>
      </trkpt>
      <trkpt lat="50.963373" lon="6.877474">
        <ele>53.184188</ele>
        <time>2026-03-05T12:05:50.000Z</time>
      </trkpt>
      <trkpt lat="50.963373" lon="6.877474">
        <ele>53.184188</ele>
        <time>2026-03-05T12:06:12.000Z</time>
      </trkpt>
      <trkpt lat="50.963373" lon="6.877474">
        <ele>53.184188</ele>
        <time>2026-03-05T12:06:44.000Z</time>
      </trkpt>
      <trkpt lat="50.963373" lon="6.877474">
        <ele>53.184188</ele>
        <time>2026-03-05T12:06:45.000Z</time>
      </trkpt>
    </trkseg>
  </trk>
</gpx>