<?xml version="1.0" encoding="UTF-8"?>
<gpx version="1.1" creator="Diary FIT converter" xmlns="http://www.topografix.com/GPX/1/1">
  <trk><name>Activity</name><trkseg>
    <trkpt lat="50.9466626" lon="6.9225052">
      <time>2023-09-15T13:16:57Z</time>
    </trkpt>
    <trkpt lat="50.9571752" lon="6.9153028">
      <time>2023-09-15T13:17:00Z</time>
    </trkpt>
    <trkpt lat="50.9589021" lon="6.9132160">
      <time>2023-09-15T13:17:01Z</time>
    </trkpt>
    <trkpt lat="50.9600551" lon="6.9122540">
      <time>2023-09-15T13:17:02Z</time>
    </trkpt>
    <trkpt lat="50.9607404" lon="6.9115403">
      <time>2023-09-15T13:17:03Z</time>
    </trkpt>
    <trkpt lat="50.9630001" lon="6.9110580">
      <time>2023-09-15T13:17:10Z</time>
    </trkpt>
    <trkpt lat="50.9631082" lon="6.9109378">
      <time>2023-09-15T13:17:14Z</time>
    </trkpt>
    <trkpt lat="50.9632142" lon="6.9109510">
      <time>2023-09-15T13:17:19Z</time>
    </trkpt>
    <trkpt lat="50.9632250" lon="6.9109706">
      <time>2023-09-15T13:17:22Z</time>
    </trkpt>
    <trkpt lat="50.9632233" lon="6.9109947">
      <time>2023-09-15T13:17:24Z</time>
    </trkpt>
    <trkpt lat="50.9632452" lon="6.9110417">
      <time>2023-09-15T13:17:26Z</time>
    </trkpt>
    <trkpt lat="50.9632986" lon="6.9111658">
      <time>2023-09-15T13:17:30Z</time>
    </trkpt>
    <trkpt lat="50.9633200" lon="6.9112141">
      <time>2023-09-15T13:17:31Z</time>
    </trkpt>
    <trkpt lat="50.9634726" lon="6.9114163">
      <time>2023-09-15T13:17:36Z</time>
    </trkpt>
    <trkpt lat="50.9637120" lon="6.9117060">
      <time>2023-09-15T13:17:43Z</time>
    </trkpt>
    <trkpt lat="50.9639413" lon="6.9120240">
      <time>2023-09-15T13:17:50Z</time>
    </trkpt>
    <trkpt lat="50.9641322" lon="6.9123905">
      <time>2023-09-15T13:17:57Z</time>
    </trkpt>
    <trkpt lat="50.9642027" lon="6.9125047">
      <time>2023-09-15T13:17:59Z</time>
    </trkpt>
    <trkpt lat="50.9643460" lon="6.9127533">
      <time>2023-09-15T13:18:04Z</time>
    </trkpt>
    <trkpt lat="50.9646327" lon="6.9131145">
      <time>2023-09-15T13:18:12Z</time>
    </trkpt>
    <trkpt lat="50.9646598" lon="6.9131703">
      <time>2023-09-15T13:18:13Z</time>
    </trkpt>
    <trkpt lat="50.9646941" lon="6.9132383">
      <time>2023-09-15T13:18:14Z</time>
    </trkpt>
    <trkpt lat="50.9647407" lon="6.9133491">
      <time>2023-09-15T13:18:16Z</time>
    </trkpt>
    <trkpt lat="50.9647538" lon="6.9134139">
      <time>2023-09-15T13:18:17Z</time>
    </trkpt>
    <trkpt lat="50.9647641" lon="6.9134754">
      <time>2023-09-15T13:18:18Z</time>
    </trkpt>
    <trkpt lat="50.9647313" lon="6.9136964">
      <time>2023-09-15T13:18:21Z</time>
    </trkpt>
    <trkpt lat="50.9647078" lon="6.9137709">
      <time>2023-09-15T13:18:22Z</time>
    </trkpt>
    <trkpt lat="50.9646887" lon="6.9138360">
      <time>2023-09-15T13:18:23Z</time>
    </trkpt>
    <trkpt lat="50.9646035" lon="6.9141835">
      <time>2023-09-15T13:18:28Z</time>
    </trkpt>
    <trkpt lat="50.9645803" lon="6.9142613">
      <time>2023-09-15T13:18:29Z</time>
    </trkpt>
    <trkpt lat="50.9645436" lon="6.9144214">
      <time>2023-09-15T13:18:31Z</time>
    </trkpt>
    <trkpt lat="50.9645008" lon="6.9145841">
      <time>2023-09-15T13:18:33Z</time>
    </trkpt>
    <trkpt lat="50.9643211" lon="6.9150535">
      <time>2023-09-15T13:18:40Z</time>
    </trkpt>
    <trkpt lat="50.9642371" lon="6.9152462">
      <time>2023-09-15T13:18:43Z</time>
    </trkpt>
    <trkpt lat="50.9641689" lon="6.9154342">
      <time>2023-09-15T13:18:46Z</time>
    </trkpt>
    <trkpt lat="50.9640267" lon="6.9157451">
      <time>2023-09-15T13:18:51Z</time>
    </trkpt>
    <trkpt lat="50.9640012" lon="6.9158029">
      <time>2023-09-15T13:18:52Z</time>
    </trkpt>
    <trkpt lat="50.9638792" lon="6.9160121">
      <time>2023-09-15T13:18:57Z</time>
    </trkpt>
    <trkpt lat="50.9637969" lon="6.9161830">
      <time>2023-09-15T13:19:02Z</time>
    </trkpt>
    <trkpt lat="50.9636580" lon="6.9162749">
      <time>2023-09-15T13:19:07Z</time>
    </trkpt>
    <trkpt lat="50.9635368" lon="6.9162820">
      <time>2023-09-15T13:19:15Z</time>
    </trkpt>
    <trkpt lat="50.9634825" lon="6.9162761">
      <time>2023-09-15T13:19:23Z</time>
    </trkpt>
    <trkpt lat="50.9635054" lon="6.9162707">
      <time>2023-09-15T13:19:29Z</time>
    </trkpt>
    <trkpt lat="50.9634288" lon="6.9164171">
      <time>2023-09-15T13:19:37Z</time>
    </trkpt>
    <trkpt lat="50.9634031" lon="6.9165192">
      <time>2023-09-15T13:19:44Z</time>
    </trkpt>
    <trkpt lat="50.9633984" lon="6.9165297">
      <time>2023-09-15T13:19:45Z</time>
    </trkpt>
    <trkpt lat="50.9633780" lon="6.9165580">
      <time>2023-09-15T13:19:48Z</time>
    </trkpt>
    <trkpt lat="50.9634032" lon="6.9165810">
      <time>2023-09-15T13:19:50Z</time>
    </trkpt>
    <trkpt lat="50.9634185" lon="6.9165995">
      <time>2023-09-15T13:19:51Z</time>
    </trkpt>
    <trkpt lat="50.9634861" lon="6.9166399">
      <time>2023-09-15T13:19:54Z</time>
    </trkpt>
    <trkpt lat="50.9635219" lon="6.9166314">
      <time>2023-09-15T13:19:56Z</time>
    </trkpt>
    <trkpt lat="50.9635494" lon="6.9166530">
      <time>2023-09-15T13:19:58Z</time>
    </trkpt>
    <trkpt lat="50.9635864" lon="6.9166706">
      <time>2023-09-15T13:20:03Z</time>
    </trkpt>
    <trkpt lat="50.9636250" lon="6.9165950">
      <time>2023-09-15T13:20:07Z</time>
    </trkpt>
    <trkpt lat="50.9636405" lon="6.9166768">
      <time>2023-09-15T13:20:09Z</time>
    </trkpt>
    <trkpt lat="50.9636543" lon="6.9167950">
      <time>2023-09-15T13:20:12Z</time>
    </trkpt>
    <trkpt lat="50.9636570" lon="6.9168869">
      <time>2023-09-15T13:20:14Z</time>
    </trkpt>
    <trkpt lat="50.9636163" lon="6.9171467">
      <time>2023-09-15T13:20:19Z</time>
    </trkpt>
    <trkpt lat="50.9636262" lon="6.9171862">
      <time>2023-09-15T13:20:20Z</time>
    </trkpt>
    <trkpt lat="50.9636246" lon="6.9173436">
      <time>2023-09-15T13:20:24Z</time>
    </trkpt>
    <trkpt lat="50.9636130" lon="6.9174424">
      <time>2023-09-15T13:20:27Z</time>
    </trkpt>
    <trkpt lat="50.9636101" lon="6.9175555">
      <time>2023-09-15T13:20:30Z</time>
    </trkpt>
    <trkpt lat="50.9636332" lon="6.9176068">
      <time>2023-09-15T13:20:34Z</time>
    </trkpt>
    <trkpt lat="50.9636182" lon="6.9176350">
      <time>2023-09-15T13:20:35Z</time>
    </trkpt>
    <trkpt lat="50.9636705" lon="6.9176532">
      <time>2023-09-15T13:20:39Z</time>
    </trkpt>
    <trkpt lat="50.9636975" lon="6.9176359">
      <time>2023-09-15T13:20:41Z</time>
    </trkpt>
    <trkpt lat="50.9637168" lon="6.9176397">
      <time>2023-09-15T13:20:43Z</time>
    </trkpt>
    <trkpt lat="50.9637302" lon="6.9176615">
      <time>2023-09-15T13:20:46Z</time>
    </trkpt>
    <trkpt lat="50.9637399" lon="6.9176647">
      <time>2023-09-15T13:20:47Z</time>
    </trkpt>
    <trkpt lat="50.9637922" lon="6.9176657">
      <time>2023-09-15T13:20:49Z</time>
    </trkpt>
    <trkpt lat="50.9638359" lon="6.9176618">
      <time>2023-09-15T13:20:51Z</time>
    </trkpt>
    <trkpt lat="50.9638692" lon="6.9176779">
      <time>2023-09-15T13:20:55Z</time>
    </trkpt>
    <trkpt lat="50.9638778" lon="6.9176887">
      <time>2023-09-15T13:20:56Z</time>
    </trkpt>
    <trkpt lat="50.9640224" lon="6.9176834">
      <time>2023-09-15T13:21:03Z</time>
    </trkpt>
    <trkpt lat="50.9641302" lon="6.9176649">
      <time>2023-09-15T13:21:06Z</time>
    </trkpt>
    <trkpt lat="50.9641641" lon="6.9176390">
      <time>2023-09-15T13:21:07Z</time>
    </trkpt>
    <trkpt lat="50.9642160" lon="6.9176496">
      <time>2023-09-15T13:21:10Z</time>
    </trkpt>
    <trkpt lat="50.9642255" lon="6.9176539">
      <time>2023-09-15T13:21:11Z</time>
    </trkpt>
    <trkpt lat="50.9642295" lon="6.9176579">
      <time>2023-09-15T13:21:13Z</time>
    </trkpt>
    <trkpt lat="50.9642450" lon="6.9176048">
      <time>2023-09-15T13:21:16Z</time>
    </trkpt>
    <trkpt lat="50.9642675" lon="6.9175756">
      <time>2023-09-15T13:21:22Z</time>
    </trkpt>
    <trkpt lat="50.9642719" lon="6.9175543">
      <time>2023-09-15T13:21:24Z</time>
    </trkpt>
    <trkpt lat="50.9642534" lon="6.9175622">
      <time>2023-09-15T13:21:27Z</time>
    </trkpt>
    <trkpt lat="50.9642548" lon="6.9175813">
      <time>2023-09-15T13:21:30Z</time>
    </trkpt>
    <trkpt lat="50.9642554" lon="6.9175953">
      <time>2023-09-15T13:21:33Z</time>
    </trkpt>
    <trkpt lat="50.9642654" lon="6.9175814">
      <time>2023-09-15T13:21:34Z</time>
    </trkpt>
    <trkpt lat="50.9643382" lon="6.9175272">
      <time>2023-09-15T13:21:36Z</time>
    </trkpt>
    <trkpt lat="50.9644087" lon="6.9175387">
      <time>2023-09-15T13:21:39Z</time>
    </trkpt>
    <trkpt lat="50.9644540" lon="6.9175387">
      <time>2023-09-15T13:21:41Z</time>
    </trkpt>
    <trkpt lat="50.9644905" lon="6.9175509">
      <time>2023-09-15T13:21:43Z</time>
    </trkpt>
    <trkpt lat="50.9645186" lon="6.9175526">
      <time>2023-09-15T13:21:44Z</time>
    </trkpt>
    <trkpt lat="50.9645827" lon="6.9175573">
      <time>2023-09-15T13:21:46Z</time>
    </trkpt>
    <trkpt lat="50.9646413" lon="6.9176099">
      <time>2023-09-15T13:21:49Z</time>
    </trkpt>
    <trkpt lat="50.9646643" lon="6.9176299">
      <time>2023-09-15T13:21:50Z</time>
    </trkpt>
    <trkpt lat="50.9647373" lon="6.9176890">
      <time>2023-09-15T13:21:53Z</time>
    </trkpt>
    <trkpt lat="50.9648839" lon="6.9177955">
      <time>2023-09-15T13:21:58Z</time>
    </trkpt>
    <trkpt lat="50.9649339" lon="6.9178558">
      <time>2023-09-15T13:22:00Z</time>
    </trkpt>
    <trkpt lat="50.9651623" lon="6.9181125">
      <time>2023-09-15T13:22:10Z</time>
    </trkpt>
    <trkpt lat="50.9652318" lon="6.9181800">
      <time>2023-09-15T13:22:15Z</time>
    </trkpt>
    <trkpt lat="50.9652240" lon="6.9181941">
      <time>2023-09-15T13:22:16Z</time>
    </trkpt>
    <trkpt lat="50.9652090" lon="6.9182771">
      <time>2023-09-15T13:22:22Z</time>
    </trkpt>
    <trkpt lat="50.9643686" lon="6.9153486">
      <time>2023-09-15T13:22:24Z</time>
    </trkpt>
    <trkpt lat="50.9643880" lon="6.9154435">
      <time>2023-09-15T13:22:30Z</time>
    </trkpt>
    <trkpt lat="50.9643733" lon="6.9154549">
      <time>2023-09-15T13:22:33Z</time>
    </trkpt>
    <trkpt lat="50.9644097" lon="6.9154488">
      <time>2023-09-15T13:22:38Z</time>
    </trkpt>
    <trkpt lat="50.9642957" lon="6.9151431">
      <time>2023-09-15T13:22:47Z</time>
    </trkpt>
    <trkpt lat="50.9631653" lon="6.9120976">
      <time>2023-09-15T13:23:17Z</time>
    </trkpt>
    <trkpt lat="50.9633350" lon="6.9125083">
      <time>2023-09-15T13:23:21Z</time>
    </trkpt>
    <trkpt lat="50.9633563" lon="6.9125491">
      <time>2023-09-15T13:23:22Z</time>
    </trkpt>
    <trkpt lat="50.9634357" lon="6.9127074">
      <time>2023-09-15T13:23:24Z</time>
    </trkpt>
    <trkpt lat="50.9634012" lon="6.9127046">
      <time>2023-09-15T13:23:41Z</time>
    </trkpt>
    <trkpt lat="50.9571936" lon="6.8959202">
      <time>2023-09-15T13:25:14Z</time>
    </trkpt>
    <trkpt lat="50.9568224" lon="6.8950762">
      <time>2023-09-15T13:25:17Z</time>
    </trkpt>
    <trkpt lat="50.9566041" lon="6.8945410">
      <time>2023-09-15T13:25:19Z</time>
    </trkpt>
    <trkpt lat="50.9563552" lon="6.8939846">
      <time>2023-09-15T13:25:21Z</time>
    </trkpt>
    <trkpt lat="50.9560610" lon="6.8932931">
      <time>2023-09-15T13:25:24Z</time>
    </trkpt>
    <trkpt lat="50.9557921" lon="6.8927002">
      <time>2023-09-15T13:25:27Z</time>
    </trkpt>
    <trkpt lat="50.9555028" lon="6.8920253">
      <time>2023-09-15T13:25:31Z</time>
    </trkpt>
    <trkpt lat="50.9551875" lon="6.8913238">
      <time>2023-09-15T13:25:36Z</time>
    </trkpt>
    <trkpt lat="50.9549637" lon="6.8908403">
      <time>2023-09-15T13:25:40Z</time>
    </trkpt>
    <trkpt lat="50.9549202" lon="6.8907302">
      <time>2023-09-15T13:25:41Z</time>
    </trkpt>
    <trkpt lat="50.9546348" lon="6.8900845">
      <time>2023-09-15T13:25:47Z</time>
    </trkpt>
    <trkpt lat="50.9545346" lon="6.8898606">
      <time>2023-09-15T13:25:49Z</time>
    </trkpt>
    <trkpt lat="50.9544891" lon="6.8897441">
      <time>2023-09-15T13:25:50Z</time>
    </trkpt>
    <trkpt lat="50.9543785" lon="6.8894811">
      <time>2023-09-15T13:25:52Z</time>
    </trkpt>
    <trkpt lat="50.9540894" lon="6.8887906">
      <time>2023-09-15T13:26:01Z</time>
    </trkpt>
    <trkpt lat="50.9540804" lon="6.8887514">
      <time>2023-09-15T13:26:02Z</time>
    </trkpt>
    <trkpt lat="50.9539941" lon="6.8885597">
      <time>2023-09-15T13:26:07Z</time>
    </trkpt>
    <trkpt lat="50.9538993" lon="6.8883470">
      <time>2023-09-15T13:26:11Z</time>
    </trkpt>
    <trkpt lat="50.9538625" lon="6.8882807">
      <time>2023-09-15T13:26:13Z</time>
    </trkpt>
    <trkpt lat="50.9538649" lon="6.8882178">
      <time>2023-09-15T13:26:15Z</time>
    </trkpt>
    <trkpt lat="50.9538688" lon="6.8881079">
      <time>2023-09-15T13:26:17Z</time>
    </trkpt>
    <trkpt lat="50.9538694" lon="6.8880407">
      <time>2023-09-15T13:26:20Z</time>
    </trkpt>
    <trkpt lat="50.9538786" lon="6.8880205">
      <time>2023-09-15T13:26:21Z</time>
    </trkpt>
    <trkpt lat="50.9538830" lon="6.8879638">
      <time>2023-09-15T13:26:23Z</time>
    </trkpt>
    <trkpt lat="50.9538917" lon="6.8879159">
      <time>2023-09-15T13:26:25Z</time>
    </trkpt>
    <trkpt lat="50.9539215" lon="6.8878224">
      <time>2023-09-15T13:26:27Z</time>
    </trkpt>
    <trkpt lat="50.9538883" lon="6.8876612">
      <time>2023-09-15T13:26:29Z</time>
    </trkpt>
    <trkpt lat="50.9538858" lon="6.8876582">
      <time>2023-09-15T13:26:30Z</time>
    </trkpt>
    <trkpt lat="50.9538839" lon="6.8876356">
      <time>2023-09-15T13:26:32Z</time>
    </trkpt>
    <trkpt lat="50.9537946" lon="6.8876558">
      <time>2023-09-15T13:26:35Z</time>
    </trkpt>
    <trkpt lat="50.9537696" lon="6.8877097">
      <time>2023-09-15T13:26:36Z</time>
    </trkpt>
    <trkpt lat="50.9536346" lon="6.8879811">
      <time>2023-09-15T13:26:39Z</time>
    </trkpt>
    <trkpt lat="50.9535816" lon="6.8880842">
      <time>2023-09-15T13:26:40Z</time>
    </trkpt>
    <trkpt lat="50.9535370" lon="6.8881699">
      <time>2023-09-15T13:26:41Z</time>
    </trkpt>
    <trkpt lat="50.9534207" lon="6.8884138">
      <time>2023-09-15T13:26:43Z</time>
    </trkpt>
    <trkpt lat="50.9533751" lon="6.8885072">
      <time>2023-09-15T13:26:44Z</time>
    </trkpt>
    <trkpt lat="50.9532240" lon="6.8887929">
      <time>2023-09-15T13:26:47Z</time>
    </trkpt>
    <trkpt lat="50.9530501" lon="6.8890823">
      <time>2023-09-15T13:26:49Z</time>
    </trkpt>
    <trkpt lat="50.8882529" lon="6.9025857">
      <time>2023-09-15T13:44:33Z</time>
    </trkpt>
    <trkpt lat="50.8957572" lon="7.0369288">
      <time>2023-09-15T15:15:41Z</time>
    </trkpt>
    <trkpt lat="50.8957489" lon="7.0369961">
      <time>2023-09-15T15:15:42Z</time>
    </trkpt>
    <trkpt lat="50.8957321" lon="7.0371183">
      <time>2023-09-15T15:15:44Z</time>
    </trkpt>
    <trkpt lat="50.8957001" lon="7.0373777">
      <time>2023-09-15T15:15:49Z</time>
    </trkpt>
    <trkpt lat="50.8956556" lon="7.0376741">
      <time>2023-09-15T15:15:55Z</time>
    </trkpt>
    <trkpt lat="50.8955755" lon="7.0380404">
      <time>2023-09-15T15:16:02Z</time>
    </trkpt>
    <trkpt lat="50.8955170" lon="7.0384127">
      <time>2023-09-15T15:16:09Z</time>
    </trkpt>
    <trkpt lat="50.8954193" lon="7.0389516">
      <time>2023-09-15T15:16:19Z</time>
    </trkpt>
    <trkpt lat="50.8953595" lon="7.0393472">
      <time>2023-09-15T15:16:26Z</time>
    </trkpt>
    <trkpt lat="50.8953486" lon="7.0393980">
      <time>2023-09-15T15:16:27Z</time>
    </trkpt>
    <trkpt lat="50.8952525" lon="7.0397842">
      <time>2023-09-15T15:16:35Z</time>
    </trkpt>
    <trkpt lat="50.8952030" lon="7.0400356">
      <time>2023-09-15T15:16:40Z</time>
    </trkpt>
    <trkpt lat="50.8951799" lon="7.0401391">
      <time>2023-09-15T15:16:42Z</time>
    </trkpt>
    <trkpt lat="50.8951608" lon="7.0402327">
      <time>2023-09-15T15:16:44Z</time>
    </trkpt>
    <trkpt lat="50.8951188" lon="7.0404310">
      <time>2023-09-15T15:16:48Z</time>
    </trkpt>
    <trkpt lat="50.8950404" lon="7.0407663">
      <time>2023-09-15T15:16:54Z</time>
    </trkpt>
    <trkpt lat="50.8950165" lon="7.0408757">
      <time>2023-09-15T15:16:56Z</time>
    </trkpt>
    <trkpt lat="50.8949171" lon="7.0412278">
      <time>2023-09-15T15:17:03Z</time>
    </trkpt>
    <trkpt lat="50.8948292" lon="7.0415791">
      <time>2023-09-15T15:17:10Z</time>
    </trkpt>
    <trkpt lat="50.8947484" lon="7.0419418">
      <time>2023-09-15T15:17:17Z</time>
    </trkpt>
    <trkpt lat="50.8946354" lon="7.0423030">
      <time>2023-09-15T15:17:24Z</time>
    </trkpt>
    <trkpt lat="50.8945438" lon="7.0426126">
      <time>2023-09-15T15:17:30Z</time>
    </trkpt>
    <trkpt lat="50.8944423" lon="7.0430297">
      <time>2023-09-15T15:17:38Z</time>
    </trkpt>
    <trkpt lat="50.8942749" lon="7.0435393">
      <time>2023-09-15T15:17:48Z</time>
    </trkpt>
    <trkpt lat="50.8941447" lon="7.0438926">
      <time>2023-09-15T15:17:55Z</time>
    </trkpt>
    <trkpt lat="50.8941244" lon="7.0439380">
      <time>2023-09-15T15:17:56Z</time>
    </trkpt>
    <trkpt lat="50.8940040" lon="7.0442185">
      <time>2023-09-15T15:18:02Z</time>
    </trkpt>
    <trkpt lat="50.8938436" lon="7.0446527">
      <time>2023-09-15T15:18:10Z</time>
    </trkpt>
    <trkpt lat="50.8938041" lon="7.0447526">
      <time>2023-09-15T15:18:12Z</time>
    </trkpt>
    <trkpt lat="50.8936814" lon="7.0450382">
      <time>2023-09-15T15:18:18Z</time>
    </trkpt>
    <trkpt lat="50.8936024" lon="7.0452283">
      <time>2023-09-15T15:18:21Z</time>
    </trkpt>
    <trkpt lat="50.8934668" lon="7.0455353">
      <time>2023-09-15T15:18:27Z</time>
    </trkpt>
    <trkpt lat="50.8933298" lon="7.0458915">
      <time>2023-09-15T15:18:34Z</time>
    </trkpt>
    <trkpt lat="50.8931724" lon="7.0462262">
      <time>2023-09-15T15:18:41Z</time>
    </trkpt>
    <trkpt lat="50.8929671" lon="7.0466080">
      <time>2023-09-15T15:18:50Z</time>
    </trkpt>
    <trkpt lat="50.8927710" lon="7.0469699">
      <time>2023-09-15T15:18:58Z</time>
    </trkpt>
    <trkpt lat="50.8926762" lon="7.0471469">
      <time>2023-09-15T15:19:02Z</time>
    </trkpt>
    <trkpt lat="50.8926389" lon="7.0472389">
      <time>2023-09-15T15:19:04Z</time>
    </trkpt>
    <trkpt lat="50.8924660" lon="7.0475476">
      <time>2023-09-15T15:19:11Z</time>
    </trkpt>
    <trkpt lat="50.8922479" lon="7.0479212">
      <time>2023-09-15T15:19:19Z</time>
    </trkpt>
    <trkpt lat="50.8921572" lon="7.0480859">
      <time>2023-09-15T15:19:23Z</time>
    </trkpt>
    <trkpt lat="50.8920919" lon="7.0482087">
      <time>2023-09-15T15:19:26Z</time>
    </trkpt>
    <trkpt lat="50.8918875" lon="7.0485138">
      <time>2023-09-15T15:19:34Z</time>
    </trkpt>
    <trkpt lat="50.8918101" lon="7.0486199">
      <time>2023-09-15T15:19:37Z</time>
    </trkpt>
    <trkpt lat="50.8917564" lon="7.0486874">
      <time>2023-09-15T15:19:39Z</time>
    </trkpt>
    <trkpt lat="50.8916744" lon="7.0487924">
      <time>2023-09-15T15:19:42Z</time>
    </trkpt>
    <trkpt lat="50.8916146" lon="7.0488658">
      <time>2023-09-15T15:19:44Z</time>
    </trkpt>
    <trkpt lat="50.8913532" lon="7.0491501">
      <time>2023-09-15T15:19:52Z</time>
    </trkpt>
    <trkpt lat="50.8910699" lon="7.0495721">
      <time>2023-09-15T15:20:02Z</time>
    </trkpt>
    <trkpt lat="50.8910217" lon="7.0496444">
      <time>2023-09-15T15:20:04Z</time>
    </trkpt>
    <trkpt lat="50.8909390" lon="7.0497266">
      <time>2023-09-15T15:20:07Z</time>
    </trkpt>
    <trkpt lat="50.8908988" lon="7.0497924">
      <time>2023-09-15T15:20:09Z</time>
    </trkpt>
    <trkpt lat="50.8907207" lon="7.0500026">
      <time>2023-09-15T15:20:16Z</time>
    </trkpt>
    <trkpt lat="50.8905846" lon="7.0501995">
      <time>2023-09-15T15:20:22Z</time>
    </trkpt>
    <trkpt lat="50.8904897" lon="7.0503344">
      <time>2023-09-15T15:20:26Z</time>
    </trkpt>
    <trkpt lat="50.8903896" lon="7.0504778">
      <time>2023-09-15T15:20:30Z</time>
    </trkpt>
    <trkpt lat="50.8901595" lon="7.0507345">
      <time>2023-09-15T15:20:36Z</time>
    </trkpt>
    <trkpt lat="50.8898671" lon="7.0510187">
      <time>2023-09-15T15:20:43Z</time>
    </trkpt>
    <trkpt lat="50.8895188" lon="7.0513967">
      <time>2023-09-15T15:20:52Z</time>
    </trkpt>
    <trkpt lat="50.8894469" lon="7.0514680">
      <time>2023-09-15T15:20:54Z</time>
    </trkpt>
    <trkpt lat="50.8892775" lon="7.0516415">
      <time>2023-09-15T15:20:59Z</time>
    </trkpt>
    <trkpt lat="50.8892570" lon="7.0516858">
      <time>2023-09-15T15:21:00Z</time>
    </trkpt>
    <trkpt lat="50.8892226" lon="7.0517781">
      <time>2023-09-15T15:21:02Z</time>
    </trkpt>
    <trkpt lat="50.8891557" lon="7.0518511">
      <time>2023-09-15T15:21:04Z</time>
    </trkpt>
    <trkpt lat="50.8891201" lon="7.0518837">
      <time>2023-09-15T15:21:05Z</time>
    </trkpt>
    <trkpt lat="50.8888923" lon="7.0520994">
      <time>2023-09-15T15:21:11Z</time>
    </trkpt>
    <trkpt lat="50.8887036" lon="7.0522697">
      <time>2023-09-15T15:21:16Z</time>
    </trkpt>
    <trkpt lat="50.8886609" lon="7.0522984">
      <time>2023-09-15T15:21:17Z</time>
    </trkpt>
    <trkpt lat="50.8885443" lon="7.0523634">
      <time>2023-09-15T15:21:20Z</time>
    </trkpt>
    <trkpt lat="50.8884177" lon="7.0524495">
      <time>2023-09-15T15:21:24Z</time>
    </trkpt>
    <trkpt lat="50.8882161" lon="7.0525872">
      <time>2023-09-15T15:21:29Z</time>
    </trkpt>
    <trkpt lat="50.8880403" lon="7.0527201">
      <time>2023-09-15T15:21:34Z</time>
    </trkpt>
    <trkpt lat="50.8877865" lon="7.0528396">
      <time>2023-09-15T15:21:40Z</time>
    </trkpt>
    <trkpt lat="50.8875737" lon="7.0529554">
      <time>2023-09-15T15:21:46Z</time>
    </trkpt>
    <trkpt lat="50.8874312" lon="7.0530108">
      <time>2023-09-15T15:21:50Z</time>
    </trkpt>
    <trkpt lat="50.8873496" lon="7.0530466">
      <time>2023-09-15T15:21:52Z</time>
    </trkpt>
    <trkpt lat="50.8872918" lon="7.0531027">
      <time>2023-09-15T15:21:54Z</time>
    </trkpt>
    <trkpt lat="50.8870795" lon="7.0532430">
      <time>2023-09-15T15:22:00Z</time>
    </trkpt>
    <trkpt lat="50.8870468" lon="7.0532691">
      <time>2023-09-15T15:22:01Z</time>
    </trkpt>
    <trkpt lat="50.8867797" lon="7.0533910">
      <time>2023-09-15T15:22:10Z</time>
    </trkpt>
    <trkpt lat="50.8866468" lon="7.0534679">
      <time>2023-09-15T15:22:15Z</time>
    </trkpt>
    <trkpt lat="50.8865920" lon="7.0534957">
      <time>2023-09-15T15:22:17Z</time>
    </trkpt>
    <trkpt lat="50.8863971" lon="7.0535593">
      <time>2023-09-15T15:22:25Z</time>
    </trkpt>
    <trkpt lat="50.8862975" lon="7.0534906">
      <time>2023-09-15T15:22:30Z</time>
    </trkpt>
    <trkpt lat="50.8862243" lon="7.0535211">
      <time>2023-09-15T15:22:33Z</time>
    </trkpt>
    <trkpt lat="50.8861488" lon="7.0535454">
      <time>2023-09-15T15:22:37Z</time>
    </trkpt>
    <trkpt lat="50.8859877" lon="7.0536215">
      <time>2023-09-15T15:22:44Z</time>
    </trkpt>
    <trkpt lat="50.8859502" lon="7.0536413">
      <time>2023-09-15T15:22:46Z</time>
    </trkpt>
    <trkpt lat="50.8859216" lon="7.0536494">
      <time>2023-09-15T15:22:50Z</time>
    </trkpt>
    <trkpt lat="50.8859193" lon="7.0536415">
      <time>2023-09-15T15:22:58Z</time>
    </trkpt>
    <trkpt lat="50.8859201" lon="7.0536416">
      <time>2023-09-15T15:23:16Z</time>
    </trkpt>
    <trkpt lat="50.8859212" lon="7.0536176">
      <time>2023-09-15T15:23:29Z</time>
    </trkpt>
    <trkpt lat="50.8859212" lon="7.0536088">
      <time>2023-09-15T15:23:36Z</time>
    </trkpt>
    <trkpt lat="50.8859162" lon="7.0536100">
      <time>2023-09-15T15:24:37Z</time>
    </trkpt>
    <trkpt lat="50.8859170" lon="7.0536096">
      <time>2023-09-15T15:24:42Z</time>
    </trkpt>
    <trkpt lat="50.8859172" lon="7.0536094">
      <time>2023-09-15T15:24:44Z</time>
    </trkpt>
    <trkpt lat="50.8859182" lon="7.0536080">
      <time>2023-09-15T15:24:48Z</time>
    </trkpt>
    <trkpt lat="50.8859218" lon="7.0536107">
      <time>2023-09-15T15:25:00Z</time>
    </trkpt>
    <trkpt lat="50.8859219" lon="7.0536113">
      <time>2023-09-15T15:25:02Z</time>
    </trkpt>
    <trkpt lat="50.8859219" lon="7.0536117">
      <time>2023-09-15T15:25:04Z</time>
    </trkpt>
    <trkpt lat="50.8859219" lon="7.0536118">
      <time>2023-09-15T15:25:07Z</time>
    </trkpt>
    <trkpt lat="50.8859130" lon="7.0536080">
      <time>2023-09-15T15:25:22Z</time>
    </trkpt>
    <trkpt lat="50.8902817" lon="7.0506401">
      <time>2023-09-15T15:51:49Z</time>
    </trkpt>
    <trkpt lat="50.8903144" lon="7.0506045">
      <time>2023-09-15T15:51:50Z</time>
    </trkpt>
    <trkpt lat="50.8904479" lon="7.0504368">
      <time>2023-09-15T15:51:55Z</time>
    </trkpt>
    <trkpt lat="50.8905868" lon="7.0502460">
      <time>2023-09-15T15:52:00Z</time>
    </trkpt>
    <trkpt lat="50.8907010" lon="7.0500865">
      <time>2023-09-15T15:52:04Z</time>
    </trkpt>
    <trkpt lat="50.8907889" lon="7.0499344">
      <time>2023-09-15T15:52:07Z</time>
    </trkpt>
    <trkpt lat="50.8908387" lon="7.0498427">
      <time>2023-09-15T15:52:09Z</time>
    </trkpt>
    <trkpt lat="50.8910855" lon="7.0495239">
      <time>2023-09-15T15:52:17Z</time>
    </trkpt>
    <trkpt lat="50.8911709" lon="7.0494138">
      <time>2023-09-15T15:52:20Z</time>
    </trkpt>
    <trkpt lat="50.8913045" lon="7.0492574">
      <time>2023-09-15T15:52:24Z</time>
    </trkpt>
    <trkpt lat="50.8914772" lon="7.0490310">
      <time>2023-09-15T15:52:30Z</time>
    </trkpt>
    <trkpt lat="50.8916683" lon="7.0487500">
      <time>2023-09-15T15:52:37Z</time>
    </trkpt>
    <trkpt lat="50.8919204" lon="7.0484927">
      <time>2023-09-15T15:52:44Z</time>
    </trkpt>
    <trkpt lat="50.8919563" lon="7.0484332">
      <time>2023-09-15T15:52:45Z</time>
    </trkpt>
    <trkpt lat="50.8922163" lon="7.0479838">
      <time>2023-09-15T15:52:52Z</time>
    </trkpt>
    <trkpt lat="50.8924356" lon="7.0475945">
      <time>2023-09-15T15:52:59Z</time>
    </trkpt>
    <trkpt lat="50.8924980" lon="7.0475106">
      <time>2023-09-15T15:53:01Z</time>
    </trkpt>
    <trkpt lat="50.8926722" lon="7.0472614">
      <time>2023-09-15T15:53:06Z</time>
    </trkpt>
    <trkpt lat="50.8927365" lon="7.0471482">
      <time>2023-09-15T15:53:08Z</time>
    </trkpt>
    <trkpt lat="50.8927623" lon="7.0470846">
      <time>2023-09-15T15:53:09Z</time>
    </trkpt>
    <trkpt lat="50.8929176" lon="7.0467751">
      <time>2023-09-15T15:53:14Z</time>
    </trkpt>
    <trkpt lat="50.8930611" lon="7.0464892">
      <time>2023-09-15T15:53:19Z</time>
    </trkpt>
    <trkpt lat="50.8931394" lon="7.0463119">
      <time>2023-09-15T15:53:22Z</time>
    </trkpt>
    <trkpt lat="50.8933232" lon="7.0458824">
      <time>2023-09-15T15:53:29Z</time>
    </trkpt>
    <trkpt lat="50.8934526" lon="7.0455826">
      <time>2023-09-15T15:53:34Z</time>
    </trkpt>
    <trkpt lat="50.8935039" lon="7.0454646">
      <time>2023-09-15T15:53:36Z</time>
    </trkpt>
    <trkpt lat="50.8936838" lon="7.0449893">
      <time>2023-09-15T15:53:44Z</time>
    </trkpt>
    <trkpt lat="50.8937257" lon="7.0448726">
      <time>2023-09-15T15:53:46Z</time>
    </trkpt>
    <trkpt lat="50.8938035" lon="7.0447082">
      <time>2023-09-15T15:53:49Z</time>
    </trkpt>
    <trkpt lat="50.8938255" lon="7.0446546">
      <time>2023-09-15T15:53:50Z</time>
    </trkpt>
    <trkpt lat="50.8939521" lon="7.0443079">
      <time>2023-09-15T15:53:56Z</time>
    </trkpt>
    <trkpt lat="50.8940438" lon="7.0440920">
      <time>2023-09-15T15:54:00Z</time>
    </trkpt>
    <trkpt lat="50.8940904" lon="7.0439918">
      <time>2023-09-15T15:54:02Z</time>
    </trkpt>
    <trkpt lat="50.8941523" lon="7.0438297">
      <time>2023-09-15T15:54:05Z</time>
    </trkpt>
    <trkpt lat="50.8943232" lon="7.0433781">
      <time>2023-09-15T15:54:13Z</time>
    </trkpt>
    <trkpt lat="50.8944138" lon="7.0430869">
      <time>2023-09-15T15:54:18Z</time>
    </trkpt>
    <trkpt lat="50.8944981" lon="7.0427921">
      <time>2023-09-15T15:54:23Z</time>
    </trkpt>
    <trkpt lat="50.8946179" lon="7.0423193">
      <time>2023-09-15T15:54:31Z</time>
    </trkpt>
    <trkpt lat="50.8947188" lon="7.0418840">
      <time>2023-09-15T15:54:38Z</time>
    </trkpt>
    <trkpt lat="50.8947344" lon="7.0418208">
      <time>2023-09-15T15:54:39Z</time>
    </trkpt>
    <trkpt lat="50.8947661" lon="7.0416985">
      <time>2023-09-15T15:54:41Z</time>
    </trkpt>
    <trkpt lat="50.8948099" lon="7.0415124">
      <time>2023-09-15T15:54:44Z</time>
    </trkpt>
    <trkpt lat="50.8948774" lon="7.0412152">
      <time>2023-09-15T15:54:49Z</time>
    </trkpt>
    <trkpt lat="50.8949273" lon="7.0410406">
      <time>2023-09-15T15:54:52Z</time>
    </trkpt>
    <trkpt lat="50.8950152" lon="7.0407040">
      <time>2023-09-15T15:54:58Z</time>
    </trkpt>
    <trkpt lat="50.8951327" lon="7.0401530">
      <time>2023-09-15T15:55:07Z</time>
    </trkpt>
    <trkpt lat="50.8952271" lon="7.0397431">
      <time>2023-09-15T15:55:14Z</time>
    </trkpt>
    <trkpt lat="50.8952535" lon="7.0396287">
      <time>2023-09-15T15:55:16Z</time>
    </trkpt>
    <trkpt lat="50.8953056" lon="7.0393994">
      <time>2023-09-15T15:55:20Z</time>
    </trkpt>
    <trkpt lat="50.8953674" lon="7.0391076">
      <time>2023-09-15T15:55:25Z</time>
    </trkpt>
    <trkpt lat="50.8954314" lon="7.0387420">
      <time>2023-09-15T15:55:31Z</time>
    </trkpt>
    <trkpt lat="50.8954662" lon="7.0385724">
      <time>2023-09-15T15:55:34Z</time>
    </trkpt>
    <trkpt lat="50.8955357" lon="7.0382322">
      <time>2023-09-15T15:55:40Z</time>
    </trkpt>
    <trkpt lat="50.8956167" lon="7.0378221">
      <time>2023-09-15T15:55:47Z</time>
    </trkpt>
    <trkpt lat="50.8956657" lon="7.0374658">
      <time>2023-09-15T15:55:53Z</time>
    </trkpt>
    <trkpt lat="50.8956724" lon="7.0374072">
      <time>2023-09-15T15:55:54Z</time>
    </trkpt>
    <trkpt lat="50.8957322" lon="7.0370431">
      <time>2023-09-15T15:56:00Z</time>
    </trkpt>
    <trkpt lat="50.8957689" lon="7.0367218">
      <time>2023-09-15T15:56:05Z</time>
    </trkpt>
    <trkpt lat="50.8957927" lon="7.0365349">
      <time>2023-09-15T15:56:08Z</time>
    </trkpt>
    <trkpt lat="50.8958464" lon="7.0361776">
      <time>2023-09-15T15:56:14Z</time>
    </trkpt>
    <trkpt lat="50.8958915" lon="7.0358636">
      <time>2023-09-15T15:56:19Z</time>
    </trkpt>
    <trkpt lat="50.8959081" lon="7.0357360">
      <time>2023-09-15T15:56:21Z</time>
    </trkpt>
    <trkpt lat="50.8959154" lon="7.0356749">
      <time>2023-09-15T15:56:22Z</time>
    </trkpt>
    <trkpt lat="50.8959843" lon="7.0350825">
      <time>2023-09-15T15:56:32Z</time>
    </trkpt>
    <trkpt lat="50.8960141" lon="7.0347815">
      <time>2023-09-15T15:56:37Z</time>
    </trkpt>
    <trkpt lat="50.8960422" lon="7.0345493">
      <time>2023-09-15T15:56:41Z</time>
    </trkpt>
    <trkpt lat="50.8960847" lon="7.0341139">
      <time>2023-09-15T15:56:48Z</time>
    </trkpt>
    <trkpt lat="50.8961381" lon="7.0335661">
      <time>2023-09-15T15:56:57Z</time>
    </trkpt>
    <trkpt lat="50.8962044" lon="7.0329597">
      <time>2023-09-15T15:57:07Z</time>
    </trkpt>
    <trkpt lat="50.8962355" lon="7.0327243">
      <time>2023-09-15T15:57:11Z</time>
    </trkpt>
    <trkpt lat="50.8962682" lon="7.0324332">
      <time>2023-09-15T15:57:16Z</time>
    </trkpt>
    <trkpt lat="50.8962735" lon="7.0323741">
      <time>2023-09-15T15:57:17Z</time>
    </trkpt>
    <trkpt lat="50.8963415" lon="7.0318360">
      <time>2023-09-15T15:57:26Z</time>
    </trkpt>
    <trkpt lat="50.8964002" lon="7.0312345">
      <time>2023-09-15T15:57:36Z</time>
    </trkpt>
    <trkpt lat="50.8964279" lon="7.0306829">
      <time>2023-09-15T15:57:45Z</time>
    </trkpt>
    <trkpt lat="50.8964380" lon="7.0303004">
      <time>2023-09-15T15:57:51Z</time>
    </trkpt>
    <trkpt lat="50.8964497" lon="7.0300423">
      <time>2023-09-15T15:57:55Z</time>
    </trkpt>
    <trkpt lat="50.8964525" lon="7.0297898">
      <time>2023-09-15T15:57:59Z</time>
    </trkpt>
    <trkpt lat="50.8964615" lon="7.0294961">
      <time>2023-09-15T15:58:04Z</time>
    </trkpt>
    <trkpt lat="50.8964538" lon="7.0289171">
      <time>2023-09-15T15:58:14Z</time>
    </trkpt>
    <trkpt lat="50.8964662" lon="7.0286028">
      <time>2023-09-15T15:58:19Z</time>
    </trkpt>
    <trkpt lat="50.8964696" lon="7.0284850">
      <time>2023-09-15T15:58:21Z</time>
    </trkpt>
    <trkpt lat="50.8964617" lon="7.0278689">
      <time>2023-09-15T15:58:31Z</time>
    </trkpt>
    <trkpt lat="50.8964615" lon="7.0278078">
      <time>2023-09-15T15:58:32Z</time>
    </trkpt>
    <trkpt lat="50.8964640" lon="7.0274878">
      <time>2023-09-15T15:58:38Z</time>
    </trkpt>
    <trkpt lat="50.8964547" lon="7.0271544">
      <time>2023-09-15T15:58:44Z</time>
    </trkpt>
    <trkpt lat="50.8964309" lon="7.0266813">
      <time>2023-09-15T15:58:52Z</time>
    </trkpt>
    <trkpt lat="50.8964147" lon="7.0261592">
      <time>2023-09-15T15:59:01Z</time>
    </trkpt>
    <trkpt lat="50.8964186" lon="7.0256149">
      <time>2023-09-15T15:59:10Z</time>
    </trkpt>
    <trkpt lat="50.8964080" lon="7.0251258">
      <time>2023-09-15T15:59:18Z</time>
    </trkpt>
    <trkpt lat="50.8964014" lon="7.0250535">
      <time>2023-09-15T15:59:19Z</time>
    </trkpt>
    <trkpt lat="50.8963855" lon="7.0245662">
      <time>2023-09-15T15:59:27Z</time>
    </trkpt>
    <trkpt lat="50.8963695" lon="7.0241538">
      <time>2023-09-15T15:59:33Z</time>
    </trkpt>
    <trkpt lat="50.8963626" lon="7.0240282">
      <time>2023-09-15T15:59:35Z</time>
    </trkpt>
    <trkpt lat="50.8963588" lon="7.0238947">
      <time>2023-09-15T15:59:37Z</time>
    </trkpt>
    <trkpt lat="50.8963521" lon="7.0238225">
      <time>2023-09-15T15:59:38Z</time>
    </trkpt>
    <trkpt lat="50.8963490" lon="7.0236534">
      <time>2023-09-15T15:59:41Z</time>
    </trkpt>
    <trkpt lat="50.8963288" lon="7.0229999">
      <time>2023-09-15T15:59:51Z</time>
    </trkpt>
    <trkpt lat="50.8963177" lon="7.0226135">
      <time>2023-09-15T15:59:57Z</time>
    </trkpt>
    <trkpt lat="50.8963185" lon="7.0224358">
      <time>2023-09-15T16:00:00Z</time>
    </trkpt>
    <trkpt lat="50.8963104" lon="7.0222726">
      <time>2023-09-15T16:00:03Z</time>
    </trkpt>
    <trkpt lat="50.8963170" lon="7.0219813">
      <time>2023-09-15T16:00:08Z</time>
    </trkpt>
    <trkpt lat="50.8963005" lon="7.0214626">
      <time>2023-09-15T16:00:16Z</time>
    </trkpt>
    <trkpt lat="50.8962861" lon="7.0208478">
      <time>2023-09-15T16:00:26Z</time>
    </trkpt>
    <trkpt lat="50.8962539" lon="7.0203607">
      <time>2023-09-15T16:00:34Z</time>
    </trkpt>
    <trkpt lat="50.8962535" lon="7.0203042">
      <time>2023-09-15T16:00:35Z</time>
    </trkpt>
    <trkpt lat="50.8962518" lon="7.0201871">
      <time>2023-09-15T16:00:37Z</time>
    </trkpt>
    <trkpt lat="50.8962510" lon="7.0197325">
      <time>2023-09-15T16:00:44Z</time>
    </trkpt>
    <trkpt lat="50.8962302" lon="7.0193455">
      <time>2023-09-15T16:00:50Z</time>
    </trkpt>
    <trkpt lat="50.8962132" lon="7.0186245">
      <time>2023-09-15T16:01:02Z</time>
    </trkpt>
    <trkpt lat="50.8962137" lon="7.0183183">
      <time>2023-09-15T16:01:07Z</time>
    </trkpt>
    <trkpt lat="50.8962238" lon="7.0181002">
      <time>2023-09-15T16:01:11Z</time>
    </trkpt>
    <trkpt lat="50.8962359" lon="7.0177134">
      <time>2023-09-15T16:01:19Z</time>
    </trkpt>
    <trkpt lat="50.8962275" lon="7.0174432">
      <time>2023-09-15T16:01:24Z</time>
    </trkpt>
    <trkpt lat="50.8962254" lon="7.0172617">
      <time>2023-09-15T16:01:27Z</time>
    </trkpt>
    <trkpt lat="50.8962227" lon="7.0170248">
      <time>2023-09-15T16:01:31Z</time>
    </trkpt>
    <trkpt lat="50.8962229" lon="7.0166182">
      <time>2023-09-15T16:01:38Z</time>
    </trkpt>
    <trkpt lat="50.8962254" lon="7.0161928">
      <time>2023-09-15T16:01:45Z</time>
    </trkpt>
    <trkpt lat="50.8962326" lon="7.0160736">
      <time>2023-09-15T16:01:47Z</time>
    </trkpt>
    <trkpt lat="50.8962884" lon="7.0154764">
      <time>2023-09-15T16:01:57Z</time>
    </trkpt>
    <trkpt lat="50.8963418" lon="7.0151915">
      <time>2023-09-15T16:02:02Z</time>
    </trkpt>
    <trkpt lat="50.8963856" lon="7.0150375">
      <time>2023-09-15T16:02:05Z</time>
    </trkpt>
    <trkpt lat="50.8964821" lon="7.0146570">
      <time>2023-09-15T16:02:13Z</time>
    </trkpt>
    <trkpt lat="50.8964779" lon="7.0143959">
      <time>2023-09-15T16:02:18Z</time>
    </trkpt>
    <trkpt lat="50.8965209" lon="7.0140197">
      <time>2023-09-15T16:02:25Z</time>
    </trkpt>
    <trkpt lat="50.8965468" lon="7.0137259">
      <time>2023-09-15T16:02:30Z</time>
    </trkpt>
    <trkpt lat="50.8965623" lon="7.0136158">
      <time>2023-09-15T16:02:32Z</time>
    </trkpt>
    <trkpt lat="50.8966105" lon="7.0133148">
      <time>2023-09-15T16:02:37Z</time>
    </trkpt>
    <trkpt lat="50.8966823" lon="7.0128306">
      <time>2023-09-15T16:02:45Z</time>
    </trkpt>
    <trkpt lat="50.8966949" lon="7.0127664">
      <time>2023-09-15T16:02:46Z</time>
    </trkpt>
    <trkpt lat="50.8967522" lon="7.0123930">
      <time>2023-09-15T16:02:52Z</time>
    </trkpt>
    <trkpt lat="50.8967810" lon="7.0122011">
      <time>2023-09-15T16:02:55Z</time>
    </trkpt>
    <trkpt lat="50.8967867" lon="7.0121346">
      <time>2023-09-15T16:02:56Z</time>
    </trkpt>
    <trkpt lat="50.8968728" lon="7.0115433">
      <time>2023-09-15T16:03:05Z</time>
    </trkpt>
    <trkpt lat="50.8969466" lon="7.0110161">
      <time>2023-09-15T16:03:13Z</time>
    </trkpt>
    <trkpt lat="50.8969697" lon="7.0108874">
      <time>2023-09-15T16:03:15Z</time>
    </trkpt>
    <trkpt lat="50.8970275" lon="7.0105595">
      <time>2023-09-15T16:03:20Z</time>
    </trkpt>
    <trkpt lat="50.8971352" lon="7.0099169">
      <time>2023-09-15T16:03:30Z</time>
    </trkpt>
    <trkpt lat="50.8971651" lon="7.0096516">
      <time>2023-09-15T16:03:34Z</time>
    </trkpt>
    <trkpt lat="50.8971984" lon="7.0093825">
      <time>2023-09-15T16:03:38Z</time>
    </trkpt>
    <trkpt lat="50.8972650" lon="7.0088784">
      <time>2023-09-15T16:03:46Z</time>
    </trkpt>
    <trkpt lat="50.8972839" lon="7.0086847">
      <time>2023-09-15T16:03:49Z</time>
    </trkpt>
    <trkpt lat="50.8973141" lon="7.0084404">
      <time>2023-09-15T16:03:53Z</time>
    </trkpt>
    <trkpt lat="50.8973382" lon="7.0082610">
      <time>2023-09-15T16:03:56Z</time>
    </trkpt>
    <trkpt lat="50.8974105" lon="7.0077241">
      <time>2023-09-15T16:04:05Z</time>
    </trkpt>
    <trkpt lat="50.8974310" lon="7.0075403">
      <time>2023-09-15T16:04:08Z</time>
    </trkpt>
    <trkpt lat="50.8974616" lon="7.0072402">
      <time>2023-09-15T16:04:13Z</time>
    </trkpt>
    <trkpt lat="50.8974925" lon="7.0070644">
      <time>2023-09-15T16:04:16Z</time>
    </trkpt>
    <trkpt lat="50.8975251" lon="7.0068256">
      <time>2023-09-15T16:04:20Z</time>
    </trkpt>
    <trkpt lat="50.8976005" lon="7.0062199">
      <time>2023-09-15T16:04:30Z</time>
    </trkpt>
    <trkpt lat="50.8976538" lon="7.0059272">
      <time>2023-09-15T16:04:35Z</time>
    </trkpt>
    <trkpt lat="50.8976679" lon="7.0057958">
      <time>2023-09-15T16:04:37Z</time>
    </trkpt>
    <trkpt lat="50.8977163" lon="7.0050783">
      <time>2023-09-15T16:04:48Z</time>
    </trkpt>
    <trkpt lat="50.8977356" lon="7.0047235">
      <time>2023-09-15T16:04:54Z</time>
    </trkpt>
    <trkpt lat="50.8977202" lon="7.0043034">
      <time>2023-09-15T16:05:01Z</time>
    </trkpt>
    <trkpt lat="50.8976244" lon="7.0041930">
      <time>2023-09-15T16:05:04Z</time>
    </trkpt>
    <trkpt lat="50.8973998" lon="7.0041096">
      <time>2023-09-15T16:05:10Z</time>
    </trkpt>
    <trkpt lat="50.8972066" lon="7.0039703">
      <time>2023-09-15T16:05:16Z</time>
    </trkpt>
    <trkpt lat="50.8972138" lon="7.0037876">
      <time>2023-09-15T16:05:19Z</time>
    </trkpt>
    <trkpt lat="50.8973212" lon="7.0032487">
      <time>2023-09-15T16:05:27Z</time>
    </trkpt>
    <trkpt lat="50.8973492" lon="7.0029980">
      <time>2023-09-15T16:05:31Z</time>
    </trkpt>
    <trkpt lat="50.8973699" lon="7.0028760">
      <time>2023-09-15T16:05:33Z</time>
    </trkpt>
    <trkpt lat="50.8974060" lon="7.0027605">
      <time>2023-09-15T16:05:35Z</time>
    </trkpt>
    <trkpt lat="50.8974688" lon="7.0025410">
      <time>2023-09-15T16:05:39Z</time>
    </trkpt>
    <trkpt lat="50.8975677" lon="7.0021645">
      <time>2023-09-15T16:05:46Z</time>
    </trkpt>
    <trkpt lat="50.8976252" lon="7.0018543">
      <time>2023-09-15T16:05:51Z</time>
    </trkpt>
    <trkpt lat="50.8977626" lon="7.0015634">
      <time>2023-09-15T16:05:57Z</time>
    </trkpt>
    <trkpt lat="50.8977846" lon="7.0015179">
      <time>2023-09-15T16:05:58Z</time>
    </trkpt>
    <trkpt lat="50.8978713" lon="7.0011989">
      <time>2023-09-15T16:06:05Z</time>
    </trkpt>
    <trkpt lat="50.8979687" lon="7.0008005">
      <time>2023-09-15T16:06:13Z</time>
    </trkpt>
    <trkpt lat="50.8979941" lon="7.0006862">
      <time>2023-09-15T16:06:15Z</time>
    </trkpt>
    <trkpt lat="50.8980218" lon="7.0005738">
      <time>2023-09-15T16:06:17Z</time>
    </trkpt>
    <trkpt lat="50.8980690" lon="7.0004945">
      <time>2023-09-15T16:06:19Z</time>
    </trkpt>
    <trkpt lat="50.8980967" lon="7.0004810">
      <time>2023-09-15T16:06:20Z</time>
    </trkpt>
    <trkpt lat="50.8982526" lon="7.0005395">
      <time>2023-09-15T16:06:25Z</time>
    </trkpt>
    <trkpt lat="50.8983699" lon="7.0006227">
      <time>2023-09-15T16:06:29Z</time>
    </trkpt>
    <trkpt lat="50.8984302" lon="7.0006270">
      <time>2023-09-15T16:06:31Z</time>
    </trkpt>
    <trkpt lat="50.8985045" lon="7.0004600">
      <time>2023-09-15T16:06:35Z</time>
    </trkpt>
    <trkpt lat="50.8985834" lon="7.0000296">
      <time>2023-09-15T16:06:43Z</time>
    </trkpt>
    <trkpt lat="50.8986897" lon="6.9996077">
      <time>2023-09-15T16:06:52Z</time>
    </trkpt>
    <trkpt lat="50.8987937" lon="6.9992758">
      <time>2023-09-15T16:07:00Z</time>
    </trkpt>
    <trkpt lat="50.8989339" lon="6.9988933">
      <time>2023-09-15T16:07:08Z</time>
    </trkpt>
    <trkpt lat="50.8991168" lon="6.9983722">
      <time>2023-09-15T16:07:18Z</time>
    </trkpt>
    <trkpt lat="50.8992710" lon="6.9979896">
      <time>2023-09-15T16:07:25Z</time>
    </trkpt>
    <trkpt lat="50.8994212" lon="6.9976043">
      <time>2023-09-15T16:07:32Z</time>
    </trkpt>
    <trkpt lat="50.8995580" lon="6.9972942">
      <time>2023-09-15T16:07:38Z</time>
    </trkpt>
    <trkpt lat="50.8995779" lon="6.9972492">
      <time>2023-09-15T16:07:39Z</time>
    </trkpt>
    <trkpt lat="50.8996590" lon="6.9970705">
      <time>2023-09-15T16:07:43Z</time>
    </trkpt>
    <trkpt lat="50.8996963" lon="6.9969916">
      <time>2023-09-15T16:07:45Z</time>
    </trkpt>
    <trkpt lat="50.8997781" lon="6.9967906">
      <time>2023-09-15T16:07:50Z</time>
    </trkpt>
    <trkpt lat="50.8998177" lon="6.9966736">
      <time>2023-09-15T16:07:53Z</time>
    </trkpt>
    <trkpt lat="50.8998473" lon="6.9966021">
      <time>2023-09-15T16:07:55Z</time>
    </trkpt>
    <trkpt lat="50.8998931" lon="6.9964804">
      <time>2023-09-15T16:07:58Z</time>
    </trkpt>
    <trkpt lat="50.8999270" lon="6.9963978">
      <time>2023-09-15T16:08:00Z</time>
    </trkpt>
    <trkpt lat="50.8999986" lon="6.9962479">
      <time>2023-09-15T16:08:04Z</time>
    </trkpt>
    <trkpt lat="50.9000869" lon="6.9960055">
      <time>2023-09-15T16:08:10Z</time>
    </trkpt>
    <trkpt lat="50.9001036" lon="6.9959625">
      <time>2023-09-15T16:08:11Z</time>
    </trkpt>
    <trkpt lat="50.9001386" lon="6.9958963">
      <time>2023-09-15T16:08:13Z</time>
    </trkpt>
    <trkpt lat="50.9002169" lon="6.9957509">
      <time>2023-09-15T16:08:17Z</time>
    </trkpt>
    <trkpt lat="50.9002875" lon="6.9955791">
      <time>2023-09-15T16:08:21Z</time>
    </trkpt>
    <trkpt lat="50.9003215" lon="6.9954962">
      <time>2023-09-15T16:08:23Z</time>
    </trkpt>
    <trkpt lat="50.9003984" lon="6.9953154">
      <time>2023-09-15T16:08:28Z</time>
    </trkpt>
    <trkpt lat="50.9004193" lon="6.9952817">
      <time>2023-09-15T16:08:29Z</time>
    </trkpt>
    <trkpt lat="50.9005437" lon="6.9949826">
      <time>2023-09-15T16:08:37Z</time>
    </trkpt>
    <trkpt lat="50.9005805" lon="6.9948785">
      <time>2023-09-15T16:08:40Z</time>
    </trkpt>
    <trkpt lat="50.9006085" lon="6.9948140">
      <time>2023-09-15T16:08:42Z</time>
    </trkpt>
    <trkpt lat="50.9006338" lon="6.9947515">
      <time>2023-09-15T16:08:44Z</time>
    </trkpt>
    <trkpt lat="50.9007736" lon="6.9944564">
      <time>2023-09-15T16:08:52Z</time>
    </trkpt>
    <trkpt lat="50.9008913" lon="6.9941977">
      <time>2023-09-15T16:08:59Z</time>
    </trkpt>
    <trkpt lat="50.9009900" lon="6.9939795">
      <time>2023-09-15T16:09:05Z</time>
    </trkpt>
    <trkpt lat="50.9011077" lon="6.9936844">
      <time>2023-09-15T16:09:12Z</time>
    </trkpt>
    <trkpt lat="50.9011806" lon="6.9934426">
      <time>2023-09-15T16:09:17Z</time>
    </trkpt>
    <trkpt lat="50.9011977" lon="6.9933961">
      <time>2023-09-15T16:09:18Z</time>
    </trkpt>
    <trkpt lat="50.9012314" lon="6.9933309">
      <time>2023-09-15T16:09:20Z</time>
    </trkpt>
    <trkpt lat="50.9013143" lon="6.9932147">
      <time>2023-09-15T16:09:24Z</time>
    </trkpt>
    <trkpt lat="50.9014444" lon="6.9931097">
      <time>2023-09-15T16:09:30Z</time>
    </trkpt>
    <trkpt lat="50.9014736" lon="6.9930772">
      <time>2023-09-15T16:09:31Z</time>
    </trkpt>
    <trkpt lat="50.9015356" lon="6.9930227">
      <time>2023-09-15T16:09:33Z</time>
    </trkpt>
    <trkpt lat="50.9015773" lon="6.9929492">
      <time>2023-09-15T16:09:35Z</time>
    </trkpt>
    <trkpt lat="50.9015665" lon="6.9927953">
      <time>2023-09-15T16:09:37Z</time>
    </trkpt>
    <trkpt lat="50.9015742" lon="6.9927419">
      <time>2023-09-15T16:09:38Z</time>
    </trkpt>
    <trkpt lat="50.9015988" lon="6.9926403">
      <time>2023-09-15T16:09:40Z</time>
    </trkpt>
    <trkpt lat="50.9017271" lon="6.9924466">
      <time>2023-09-15T16:09:45Z</time>
    </trkpt>
    <trkpt lat="50.9019983" lon="6.9921161">
      <time>2023-09-15T16:09:53Z</time>
    </trkpt>
    <trkpt lat="50.9022713" lon="6.9918059">
      <time>2023-09-15T16:10:00Z</time>
    </trkpt>
    <trkpt lat="50.9025013" lon="6.9915368">
      <time>2023-09-15T16:10:07Z</time>
    </trkpt>
    <trkpt lat="50.9026269" lon="6.9913593">
      <time>2023-09-15T16:10:12Z</time>
    </trkpt>
    <trkpt lat="50.9028044" lon="6.9911298">
      <time>2023-09-15T16:10:19Z</time>
    </trkpt>
    <trkpt lat="50.9029541" lon="6.9909434">
      <time>2023-09-15T16:10:26Z</time>
    </trkpt>
    <trkpt lat="50.9031538" lon="6.9907456">
      <time>2023-09-15T16:10:34Z</time>
    </trkpt>
    <trkpt lat="50.9033560" lon="6.9905521">
      <time>2023-09-15T16:10:42Z</time>
    </trkpt>
    <trkpt lat="50.9034607" lon="6.9904767">
      <time>2023-09-15T16:10:46Z</time>
    </trkpt>
    <trkpt lat="50.9035325" lon="6.9904036">
      <time>2023-09-15T16:10:49Z</time>
    </trkpt>
    <trkpt lat="50.9036273" lon="6.9903057">
      <time>2023-09-15T16:10:53Z</time>
    </trkpt>
    <trkpt lat="50.9036967" lon="6.9902420">
      <time>2023-09-15T16:10:56Z</time>
    </trkpt>
    <trkpt lat="50.9039167" lon="6.9900910">
      <time>2023-09-15T16:11:04Z</time>
    </trkpt>
    <trkpt lat="50.9039415" lon="6.9900664">
      <time>2023-09-15T16:11:05Z</time>
    </trkpt>
    <trkpt lat="50.9042269" lon="6.9898126">
      <time>2023-09-15T16:11:14Z</time>
    </trkpt>
    <trkpt lat="50.9044538" lon="6.9896126">
      <time>2023-09-15T16:11:21Z</time>
    </trkpt>
    <trkpt lat="50.9046739" lon="6.9894184">
      <time>2023-09-15T16:11:28Z</time>
    </trkpt>
    <trkpt lat="50.9048373" lon="6.9892815">
      <time>2023-09-15T16:11:33Z</time>
    </trkpt>
    <trkpt lat="50.9049102" lon="6.9892048">
      <time>2023-09-15T16:11:36Z</time>
    </trkpt>
    <trkpt lat="50.9050533" lon="6.9890592">
      <time>2023-09-15T16:11:41Z</time>
    </trkpt>
    <trkpt lat="50.9051616" lon="6.9889603">
      <time>2023-09-15T16:11:44Z</time>
    </trkpt>
    <trkpt lat="50.9052520" lon="6.9888553">
      <time>2023-09-15T16:11:47Z</time>
    </trkpt>
    <trkpt lat="50.9054577" lon="6.9887051">
      <time>2023-09-15T16:11:53Z</time>
    </trkpt>
    <trkpt lat="50.9057169" lon="6.9884869">
      <time>2023-09-15T16:12:00Z</time>
    </trkpt>
    <trkpt lat="50.9059708" lon="6.9883718">
      <time>2023-09-15T16:12:06Z</time>
    </trkpt>
    <trkpt lat="50.9060577" lon="6.9883537">
      <time>2023-09-15T16:12:08Z</time>
    </trkpt>
    <trkpt lat="50.9062233" lon="6.9882856">
      <time>2023-09-15T16:12:12Z</time>
    </trkpt>
    <trkpt lat="50.9063110" lon="6.9882591">
      <time>2023-09-15T16:12:14Z</time>
    </trkpt>
    <trkpt lat="50.9063567" lon="6.9882461">
      <time>2023-09-15T16:12:15Z</time>
    </trkpt>
    <trkpt lat="50.9064034" lon="6.9882328">
      <time>2023-09-15T16:12:16Z</time>
    </trkpt>
    <trkpt lat="50.9064524" lon="6.9882247">
      <time>2023-09-15T16:12:17Z</time>
    </trkpt>
    <trkpt lat="50.9066764" lon="6.9882037">
      <time>2023-09-15T16:12:22Z</time>
    </trkpt>
    <trkpt lat="50.9068104" lon="6.9881922">
      <time>2023-09-15T16:12:25Z</time>
    </trkpt>
    <trkpt lat="50.9070852" lon="6.9880827">
      <time>2023-09-15T16:12:32Z</time>
    </trkpt>
    <trkpt lat="50.9073074" lon="6.9879486">
      <time>2023-09-15T16:12:39Z</time>
    </trkpt>
    <trkpt lat="50.9075831" lon="6.9877844">
      <time>2023-09-15T16:12:47Z</time>
    </trkpt>
    <trkpt lat="50.9076694" lon="6.9876964">
      <time>2023-09-15T16:12:51Z</time>
    </trkpt>
    <trkpt lat="50.9076980" lon="6.9877188">
      <time>2023-09-15T16:12:54Z</time>
    </trkpt>
    <trkpt lat="50.9077149" lon="6.9877433">
      <time>2023-09-15T16:12:59Z</time>
    </trkpt>
    <trkpt lat="50.9077142" lon="6.9877494">
      <time>2023-09-15T16:13:05Z</time>
    </trkpt>
    <trkpt lat="50.9077146" lon="6.9877497">
      <time>2023-09-15T16:13:08Z</time>
    </trkpt>
    <trkpt lat="50.9077137" lon="6.9877502">
      <time>2023-09-15T16:13:25Z</time>
    </trkpt>
    <trkpt lat="50.9077135" lon="6.9877511">
      <time>2023-09-15T16:13:27Z</time>
    </trkpt>
    <trkpt lat="50.9077133" lon="6.9877511">
      <time>2023-09-15T16:13:35Z</time>
    </trkpt>
    <trkpt lat="50.9077133" lon="6.9877502">
      <time>2023-09-15T16:13:41Z</time>
    </trkpt>
    <trkpt lat="50.9077150" lon="6.9877412">
      <time>2023-09-15T16:13:57Z</time>
    </trkpt>
    <trkpt lat="50.9077152" lon="6.9877412">
      <time>2023-09-15T16:14:00Z</time>
    </trkpt>
    <trkpt lat="50.9077153" lon="6.9877412">
      <time>2023-09-15T16:14:03Z</time>
    </trkpt>
    <trkpt lat="50.9077239" lon="6.9877474">
      <time>2023-09-15T16:14:15Z</time>
    </trkpt>
    <trkpt lat="50.9077247" lon="6.9877482">
      <time>2023-09-15T16:14:18Z</time>
    </trkpt>
    <trkpt lat="50.9077252" lon="6.9877488">
      <time>2023-09-15T16:14:23Z</time>
    </trkpt>
    <trkpt lat="50.9077254" lon="6.9877498">
      <time>2023-09-15T16:14:28Z</time>
    </trkpt>
    <trkpt lat="50.9077254" lon="6.9877499">
      <time>2023-09-15T16:14:29Z</time>
    </trkpt>
    <trkpt lat="50.9077256" lon="6.9877505">
      <time>2023-09-15T16:14:31Z</time>
    </trkpt>
    <trkpt lat="50.9077268" lon="6.9877566">
      <time>2023-09-15T16:14:42Z</time>
    </trkpt>
    <trkpt lat="50.9077284" lon="6.9877540">
      <time>2023-09-15T16:15:07Z</time>
    </trkpt>
    <trkpt lat="50.9077285" lon="6.9877539">
      <time>2023-09-15T16:15:10Z</time>
    </trkpt>
    <trkpt lat="50.9077285" lon="6.9877538">
      <time>2023-09-15T16:15:13Z</time>
    </trkpt>
    <trkpt lat="50.9077319" lon="6.9877540">
      <time>2023-09-15T16:15:20Z</time>
    </trkpt>
    <trkpt lat="50.9077333" lon="6.9877549">
      <time>2023-09-15T16:15:30Z</time>
    </trkpt>
    <trkpt lat="50.9077337" lon="6.9877559">
      <time>2023-09-15T16:15:40Z</time>
    </trkpt>
    <trkpt lat="50.9077318" lon="6.9877545">
      <time>2023-09-15T16:16:14Z</time>
    </trkpt>
    <trkpt lat="50.9077316" lon="6.9877528">
      <time>2023-09-15T16:16:23Z</time>
    </trkpt>
    <trkpt lat="50.9077311" lon="6.9877520">
      <time>2023-09-15T16:16:35Z</time>
    </trkpt>
    <trkpt lat="50.9077309" lon="6.9877518">
      <time>2023-09-15T16:16:37Z</time>
    </trkpt>
    <trkpt lat="50.9077308" lon="6.9877518">
      <time>2023-09-15T16:16:39Z</time>
    </trkpt>
    <trkpt lat="50.9077304" lon="6.9877512">
      <time>2023-09-15T16:16:49Z</time>
    </trkpt>
    <trkpt lat="50.9077301" lon="6.9877509">
      <time>2023-09-15T16:16:51Z</time>
    </trkpt>
    <trkpt lat="50.9077298" lon="6.9877505">
      <time>2023-09-15T16:17:01Z</time>
    </trkpt>
    <trkpt lat="50.9077300" lon="6.9877509">
      <time>2023-09-15T16:17:08Z</time>
    </trkpt>
    <trkpt lat="50.9077296" lon="6.9877518">
      <time>2023-09-15T16:17:34Z</time>
    </trkpt>
    <trkpt lat="50.9077293" lon="6.9877513">
      <time>2023-09-15T16:17:42Z</time>
    </trkpt>
    <trkpt lat="50.9077290" lon="6.9877510">
      <time>2023-09-15T16:17:45Z</time>
    </trkpt>
    <trkpt lat="50.9077287" lon="6.9877508">
      <time>2023-09-15T16:17:53Z</time>
    </trkpt>
    <trkpt lat="50.9077285" lon="6.9877507">
      <time>2023-09-15T16:18:02Z</time>
    </trkpt>
    <trkpt lat="50.9077283" lon="6.9877507">
      <time>2023-09-15T16:18:05Z</time>
    </trkpt>
    <trkpt lat="50.9077279" lon="6.9877508">
      <time>2023-09-15T16:18:16Z</time>
    </trkpt>
    <trkpt lat="50.9077276" lon="6.9877504">
      <time>2023-09-15T16:18:28Z</time>
    </trkpt>
    <trkpt lat="50.9077278" lon="6.9877507">
      <time>2023-09-15T16:18:32Z</time>
    </trkpt>
    <trkpt lat="50.9077279" lon="6.9877509">
      <time>2023-09-15T16:18:37Z</time>
    </trkpt>
    <trkpt lat="50.9077279" lon="6.9877509">
      <time>2023-09-15T16:18:39Z</time>
    </trkpt>
    <trkpt lat="50.9077280" lon="6.9877510">
      <time>2023-09-15T16:18:41Z</time>
    </trkpt>
    <trkpt lat="50.9077272" lon="6.9877507">
      <time>2023-09-15T16:19:03Z</time>
    </trkpt>
    <trkpt lat="50.9077272" lon="6.9877509">
      <time>2023-09-15T16:19:06Z</time>
    </trkpt>
    <trkpt lat="50.9077272" lon="6.9877509">
      <time>2023-09-15T16:19:09Z</time>
    </trkpt>
    <trkpt lat="50.9077271" lon="6.9877509">
      <time>2023-09-15T16:19:13Z</time>
    </trkpt>
    <trkpt lat="50.9077269" lon="6.9877508">
      <time>2023-09-15T16:19:19Z</time>
    </trkpt>
    <trkpt lat="50.9077264" lon="6.9877530">
      <time>2023-09-15T16:19:48Z</time>
    </trkpt>
    <trkpt lat="50.9077265" lon="6.9877530">
      <time>2023-09-15T16:19:53Z</time>
    </trkpt>
    <trkpt lat="50.9077265" lon="6.9877530">
      <time>2023-09-15T16:19:57Z</time>
    </trkpt>
    <trkpt lat="50.9077265" lon="6.9877531">
      <time>2023-09-15T16:19:58Z</time>
    </trkpt>
    <trkpt lat="50.9077265" lon="6.9877532">
      <time>2023-09-15T16:20:02Z</time>
    </trkpt>
    <trkpt lat="50.9077263" lon="6.9877533">
      <time>2023-09-15T16:20:07Z</time>
    </trkpt>
    <trkpt lat="50.9077250" lon="6.9877535">
      <time>2023-09-15T16:20:35Z</time>
    </trkpt>
    <trkpt lat="50.9077249" lon="6.9877530">
      <time>2023-09-15T16:20:39Z</time>
    </trkpt>
    <trkpt lat="50.9077247" lon="6.9877523">
      <time>2023-09-15T16:20:47Z</time>
    </trkpt>
    <trkpt lat="50.9077236" lon="6.9877501">
      <time>2023-09-15T16:21:09Z</time>
    </trkpt>
    <trkpt lat="50.9077238" lon="6.9877502">
      <time>2023-09-15T16:21:19Z</time>
    </trkpt>
    <trkpt lat="50.9077237" lon="6.9877502">
      <time>2023-09-15T16:21:22Z</time>
    </trkpt>
    <trkpt lat="50.9077238" lon="6.9877502">
      <time>2023-09-15T16:21:25Z</time>
    </trkpt>
    <trkpt lat="50.9077236" lon="6.9877498">
      <time>2023-09-15T16:21:28Z</time>
    </trkpt>
    <trkpt lat="50.9077236" lon="6.9877489">
      <time>2023-09-15T16:21:33Z</time>
    </trkpt>
    <trkpt lat="50.9077235" lon="6.9877485">
      <time>2023-09-15T16:21:44Z</time>
    </trkpt>
    <trkpt lat="50.9077234" lon="6.9877483">
      <time>2023-09-15T16:21:51Z</time>
    </trkpt>
    <trkpt lat="50.9077235" lon="6.9877473">
      <time>2023-09-15T16:22:26Z</time>
    </trkpt>
    <trkpt lat="50.9077234" lon="6.9877475">
      <time>2023-09-15T16:22:38Z</time>
    </trkpt>
    <trkpt lat="50.9077206" lon="6.9877440">
      <time>2023-09-15T16:22:44Z</time>
    </trkpt>
    <trkpt lat="50.9077415" lon="6.9876937">
      <time>2023-09-15T16:22:47Z</time>
    </trkpt>
    <trkpt lat="50.9077960" lon="6.9876406">
      <time>2023-09-15T16:22:51Z</time>
    </trkpt>
    <trkpt lat="50.9078200" lon="6.9876209">
      <time>2023-09-15T16:22:52Z</time>
    </trkpt>
    <trkpt lat="50.9080042" lon="6.9874829">
      <time>2023-09-15T16:23:00Z</time>
    </trkpt>
    <trkpt lat="50.9081323" lon="6.9873849">
      <time>2023-09-15T16:23:05Z</time>
    </trkpt>
    <trkpt lat="50.9082286" lon="6.9873499">
      <time>2023-09-15T16:23:08Z</time>
    </trkpt>
    <trkpt lat="50.9083484" lon="6.9872696">
      <time>2023-09-15T16:23:12Z</time>
    </trkpt>
    <trkpt lat="50.9084465" lon="6.9871978">
      <time>2023-09-15T16:23:15Z</time>
    </trkpt>
    <trkpt lat="50.9085144" lon="6.9871523">
      <time>2023-09-15T16:23:17Z</time>
    </trkpt>
    <trkpt lat="50.9085707" lon="6.9871096">
      <time>2023-09-15T16:23:19Z</time>
    </trkpt>
    <trkpt lat="50.9086422" lon="6.9870672">
      <time>2023-09-15T16:23:21Z</time>
    </trkpt>
    <trkpt lat="50.9086768" lon="6.9870467">
      <time>2023-09-15T16:23:22Z</time>
    </trkpt>
    <trkpt lat="50.9089562" lon="6.9868635">
      <time>2023-09-15T16:23:30Z</time>
    </trkpt>
    <trkpt lat="50.9092181" lon="6.9867300">
      <time>2023-09-15T16:23:36Z</time>
    </trkpt>
    <trkpt lat="50.9092962" lon="6.9867753">
      <time>2023-09-15T16:23:38Z</time>
    </trkpt>
    <trkpt lat="50.9093250" lon="6.9868117">
      <time>2023-09-15T16:23:39Z</time>
    </trkpt>
    <trkpt lat="50.9094148" lon="6.9868966">
      <time>2023-09-15T16:23:41Z</time>
    </trkpt>
    <trkpt lat="50.9095069" lon="6.9868770">
      <time>2023-09-15T16:23:43Z</time>
    </trkpt>
    <trkpt lat="50.9097094" lon="6.9866973">
      <time>2023-09-15T16:23:47Z</time>
    </trkpt>
    <trkpt lat="50.9099712" lon="6.9864083">
      <time>2023-09-15T16:23:53Z</time>
    </trkpt>
    <trkpt lat="50.9100068" lon="6.9863719">
      <time>2023-09-15T16:23:54Z</time>
    </trkpt>
    <trkpt lat="50.9101076" lon="6.9862687">
      <time>2023-09-15T16:23:57Z</time>
    </trkpt>
    <trkpt lat="50.9101400" lon="6.9862403">
      <time>2023-09-15T16:23:58Z</time>
    </trkpt>
    <trkpt lat="50.9101716" lon="6.9862240">
      <time>2023-09-15T16:23:59Z</time>
    </trkpt>
    <trkpt lat="50.9102605" lon="6.9862176">
      <time>2023-09-15T16:24:03Z</time>
    </trkpt>
    <trkpt lat="50.9102928" lon="6.9861980">
      <time>2023-09-15T16:24:05Z</time>
    </trkpt>
    <trkpt lat="50.9103512" lon="6.9861254">
      <time>2023-09-15T16:24:08Z</time>
    </trkpt>
    <trkpt lat="50.9104207" lon="6.9860467">
      <time>2023-09-15T16:24:11Z</time>
    </trkpt>
    <trkpt lat="50.9105608" lon="6.9859023">
      <time>2023-09-15T16:24:16Z</time>
    </trkpt>
    <trkpt lat="50.9106408" lon="6.9857974">
      <time>2023-09-15T16:24:19Z</time>
    </trkpt>
    <trkpt lat="50.9106646" lon="6.9857686">
      <time>2023-09-15T16:24:20Z</time>
    </trkpt>
    <trkpt lat="50.9106993" lon="6.9857309">
      <time>2023-09-15T16:24:21Z</time>
    </trkpt>
    <trkpt lat="50.9108193" lon="6.9855887">
      <time>2023-09-15T16:24:25Z</time>
    </trkpt>
    <trkpt lat="50.9109200" lon="6.9854955">
      <time>2023-09-15T16:24:28Z</time>
    </trkpt>
    <trkpt lat="50.9111369" lon="6.9852599">
      <time>2023-09-15T16:24:35Z</time>
    </trkpt>
    <trkpt lat="50.9113314" lon="6.9850321">
      <time>2023-09-15T16:24:41Z</time>
    </trkpt>
    <trkpt lat="50.9113915" lon="6.9849647">
      <time>2023-09-15T16:24:43Z</time>
    </trkpt>
    <trkpt lat="50.9115962" lon="6.9847247">
      <time>2023-09-15T16:24:49Z</time>
    </trkpt>
    <trkpt lat="50.9116530" lon="6.9846522">
      <time>2023-09-15T16:24:51Z</time>
    </trkpt>
    <trkpt lat="50.9118742" lon="6.9843667">
      <time>2023-09-15T16:24:58Z</time>
    </trkpt>
    <trkpt lat="50.9120342" lon="6.9841819">
      <time>2023-09-15T16:25:03Z</time>
    </trkpt>
    <trkpt lat="50.9122746" lon="6.9839618">
      <time>2023-09-15T16:25:10Z</time>
    </trkpt>
    <trkpt lat="50.9125686" lon="6.9836530">
      <time>2023-09-15T16:25:20Z</time>
    </trkpt>
    <trkpt lat="50.9127402" lon="6.9834484">
      <time>2023-09-15T16:25:26Z</time>
    </trkpt>
    <trkpt lat="50.9129797" lon="6.9831654">
      <time>2023-09-15T16:25:34Z</time>
    </trkpt>
    <trkpt lat="50.9131842" lon="6.9829627">
      <time>2023-09-15T16:25:41Z</time>
    </trkpt>
    <trkpt lat="50.9133106" lon="6.9828363">
      <time>2023-09-15T16:25:45Z</time>
    </trkpt>
    <trkpt lat="50.9133978" lon="6.9827424">
      <time>2023-09-15T16:25:48Z</time>
    </trkpt>
    <trkpt lat="50.9136642" lon="6.9824757">
      <time>2023-09-15T16:25:56Z</time>
    </trkpt>
    <trkpt lat="50.9137234" lon="6.9823973">
      <time>2023-09-15T16:25:58Z</time>
    </trkpt>
    <trkpt lat="50.9137872" lon="6.9823206">
      <time>2023-09-15T16:26:00Z</time>
    </trkpt>
    <trkpt lat="50.9139110" lon="6.9822068">
      <time>2023-09-15T16:26:04Z</time>
    </trkpt>
    <trkpt lat="50.9141794" lon="6.9819544">
      <time>2023-09-15T16:26:12Z</time>
    </trkpt>
    <trkpt lat="50.9144140" lon="6.9817355">
      <time>2023-09-15T16:26:19Z</time>
    </trkpt>
    <trkpt lat="50.9146992" lon="6.9814288">
      <time>2023-09-15T16:26:28Z</time>
    </trkpt>
    <trkpt lat="50.9149873" lon="6.9811986">
      <time>2023-09-15T16:26:36Z</time>
    </trkpt>
    <trkpt lat="50.9151865" lon="6.9810126">
      <time>2023-09-15T16:26:42Z</time>
    </trkpt>
    <trkpt lat="50.9152837" lon="6.9809233">
      <time>2023-09-15T16:26:45Z</time>
    </trkpt>
    <trkpt lat="50.9153811" lon="6.9808023">
      <time>2023-09-15T16:26:48Z</time>
    </trkpt>
    <trkpt lat="50.9154811" lon="6.9807230">
      <time>2023-09-15T16:26:51Z</time>
    </trkpt>
    <trkpt lat="50.9157374" lon="6.9805148">
      <time>2023-09-15T16:26:58Z</time>
    </trkpt>
    <trkpt lat="50.9159683" lon="6.9803047">
      <time>2023-09-15T16:27:05Z</time>
    </trkpt>
    <trkpt lat="50.9160193" lon="6.9802346">
      <time>2023-09-15T16:27:07Z</time>
    </trkpt>
    <trkpt lat="50.9161478" lon="6.9801089">
      <time>2023-09-15T16:27:11Z</time>
    </trkpt>
    <trkpt lat="50.9163651" lon="6.9799099">
      <time>2023-09-15T16:27:17Z</time>
    </trkpt>
    <trkpt lat="50.9165725" lon="6.9796925">
      <time>2023-09-15T16:27:23Z</time>
    </trkpt>
    <trkpt lat="50.9167927" lon="6.9795120">
      <time>2023-09-15T16:27:30Z</time>
    </trkpt>
    <trkpt lat="50.9168745" lon="6.9794682">
      <time>2023-09-15T16:27:32Z</time>
    </trkpt>
    <trkpt lat="50.9170533" lon="6.9792899">
      <time>2023-09-15T16:27:38Z</time>
    </trkpt>
    <trkpt lat="50.9172356" lon="6.9791260">
      <time>2023-09-15T16:27:44Z</time>
    </trkpt>
    <trkpt lat="50.9173734" lon="6.9789829">
      <time>2023-09-15T16:27:49Z</time>
    </trkpt>
    <trkpt lat="50.9174241" lon="6.9789348">
      <time>2023-09-15T16:27:51Z</time>
    </trkpt>
    <trkpt lat="50.9175376" lon="6.9788346">
      <time>2023-09-15T16:27:55Z</time>
    </trkpt>
    <trkpt lat="50.9176592" lon="6.9787283">
      <time>2023-09-15T16:27:59Z</time>
    </trkpt>
    <trkpt lat="50.9178728" lon="6.9785923">
      <time>2023-09-15T16:28:06Z</time>
    </trkpt>
    <trkpt lat="50.9180230" lon="6.9784818">
      <time>2023-09-15T16:28:11Z</time>
    </trkpt>
    <trkpt lat="50.9182753" lon="6.9782924">
      <time>2023-09-15T16:28:19Z</time>
    </trkpt>
    <trkpt lat="50.9185674" lon="6.9781026">
      <time>2023-09-15T16:28:27Z</time>
    </trkpt>
    <trkpt lat="50.9187789" lon="6.9779310">
      <time>2023-09-15T16:28:33Z</time>
    </trkpt>
    <trkpt lat="50.9190321" lon="6.9777226">
      <time>2023-09-15T16:28:40Z</time>
    </trkpt>
    <trkpt lat="50.9192434" lon="6.9775499">
      <time>2023-09-15T16:28:46Z</time>
    </trkpt>
    <trkpt lat="50.9193045" lon="6.9775004">
      <time>2023-09-15T16:28:48Z</time>
    </trkpt>
    <trkpt lat="50.9194539" lon="6.9773943">
      <time>2023-09-15T16:28:52Z</time>
    </trkpt>
    <trkpt lat="50.9196840" lon="6.9771938">
      <time>2023-09-15T16:28:59Z</time>
    </trkpt>
    <trkpt lat="50.9198317" lon="6.9770954">
      <time>2023-09-15T16:29:03Z</time>
    </trkpt>
    <trkpt lat="50.9200023" lon="6.9769676">
      <time>2023-09-15T16:29:08Z</time>
    </trkpt>
    <trkpt lat="50.9202819" lon="6.9767431">
      <time>2023-09-15T16:29:16Z</time>
    </trkpt>
    <trkpt lat="50.9203161" lon="6.9767175">
      <time>2023-09-15T16:29:17Z</time>
    </trkpt>
    <trkpt lat="50.9206279" lon="6.9764820">
      <time>2023-09-15T16:29:26Z</time>
    </trkpt>
    <trkpt lat="50.9209370" lon="6.9762400">
      <time>2023-09-15T16:29:35Z</time>
    </trkpt>
    <trkpt lat="50.9212583" lon="6.9760282">
      <time>2023-09-15T16:29:44Z</time>
    </trkpt>
    <trkpt lat="50.9215657" lon="6.9758167">
      <time>2023-09-15T16:29:53Z</time>
    </trkpt>
    <trkpt lat="50.9219054" lon="6.9755728">
      <time>2023-09-15T16:30:03Z</time>
    </trkpt>
    <trkpt lat="50.9221881" lon="6.9753928">
      <time>2023-09-15T16:30:11Z</time>
    </trkpt>
    <trkpt lat="50.9224141" lon="6.9752648">
      <time>2023-09-15T16:30:17Z</time>
    </trkpt>
    <trkpt lat="50.9224459" lon="6.9752567">
      <time>2023-09-15T16:30:18Z</time>
    </trkpt>
    <trkpt lat="50.9225582" lon="6.9752107">
      <time>2023-09-15T16:30:21Z</time>
    </trkpt>
    <trkpt lat="50.9226289" lon="6.9751656">
      <time>2023-09-15T16:30:23Z</time>
    </trkpt>
    <trkpt lat="50.9228483" lon="6.9750324">
      <time>2023-09-15T16:30:29Z</time>
    </trkpt>
    <trkpt lat="50.9228767" lon="6.9750140">
      <time>2023-09-15T16:30:30Z</time>
    </trkpt>
    <trkpt lat="50.9229118" lon="6.9749907">
      <time>2023-09-15T16:30:31Z</time>
    </trkpt>
    <trkpt lat="50.9229819" lon="6.9749474">
      <time>2023-09-15T16:30:33Z</time>
    </trkpt>
    <trkpt lat="50.9230158" lon="6.9749213">
      <time>2023-09-15T16:30:34Z</time>
    </trkpt>
    <trkpt lat="50.9230846" lon="6.9748690">
      <time>2023-09-15T16:30:36Z</time>
    </trkpt>
    <trkpt lat="50.9231906" lon="6.9748021">
      <time>2023-09-15T16:30:39Z</time>
    </trkpt>
    <trkpt lat="50.9232657" lon="6.9747519">
      <time>2023-09-15T16:30:41Z</time>
    </trkpt>
    <trkpt lat="50.9233310" lon="6.9747113">
      <time>2023-09-15T16:30:43Z</time>
    </trkpt>
    <trkpt lat="50.9235622" lon="6.9745485">
      <time>2023-09-15T16:30:50Z</time>
    </trkpt>
    <trkpt lat="50.9236558" lon="6.9744823">
      <time>2023-09-15T16:30:53Z</time>
    </trkpt>
    <trkpt lat="50.9237257" lon="6.9744426">
      <time>2023-09-15T16:30:55Z</time>
    </trkpt>
    <trkpt lat="50.9237929" lon="6.9743964">
      <time>2023-09-15T16:30:57Z</time>
    </trkpt>
    <trkpt lat="50.9238751" lon="6.9743560">
      <time>2023-09-15T16:30:59Z</time>
    </trkpt>
    <trkpt lat="50.9239039" lon="6.9743409">
      <time>2023-09-15T16:31:00Z</time>
    </trkpt>
    <trkpt lat="50.9241168" lon="6.9742320">
      <time>2023-09-15T16:31:06Z</time>
    </trkpt>
    <trkpt lat="50.9243886" lon="6.9740848">
      <time>2023-09-15T16:31:14Z</time>
    </trkpt>
    <trkpt lat="50.9246684" lon="6.9739044">
      <time>2023-09-15T16:31:22Z</time>
    </trkpt>
    <trkpt lat="50.9247846" lon="6.9738463">
      <time>2023-09-15T16:31:25Z</time>
    </trkpt>
    <trkpt lat="50.9248925" lon="6.9738012">
      <time>2023-09-15T16:31:28Z</time>
    </trkpt>
    <trkpt lat="50.9250109" lon="6.9737280">
      <time>2023-09-15T16:31:31Z</time>
    </trkpt>
    <trkpt lat="50.9251295" lon="6.9736538">
      <time>2023-09-15T16:31:34Z</time>
    </trkpt>
    <trkpt lat="50.9254736" lon="6.9734190">
      <time>2023-09-15T16:31:44Z</time>
    </trkpt>
    <trkpt lat="50.9258081" lon="6.9732570">
      <time>2023-09-15T16:31:53Z</time>
    </trkpt>
    <trkpt lat="50.9259245" lon="6.9731937">
      <time>2023-09-15T16:31:56Z</time>
    </trkpt>
    <trkpt lat="50.9261561" lon="6.9730605">
      <time>2023-09-15T16:32:02Z</time>
    </trkpt>
    <trkpt lat="50.9264089" lon="6.9729128">
      <time>2023-09-15T16:32:10Z</time>
    </trkpt>
    <trkpt lat="50.9266207" lon="6.9727985">
      <time>2023-09-15T16:32:16Z</time>
    </trkpt>
    <trkpt lat="50.9266520" lon="6.9728116">
      <time>2023-09-15T16:32:17Z</time>
    </trkpt>
    <trkpt lat="50.9267623" lon="6.9728486">
      <time>2023-09-15T16:32:20Z</time>
    </trkpt>
    <trkpt lat="50.9268857" lon="6.9727978">
      <time>2023-09-15T16:32:23Z</time>
    </trkpt>
    <trkpt lat="50.9269689" lon="6.9727597">
      <time>2023-09-15T16:32:25Z</time>
    </trkpt>
    <trkpt lat="50.9271372" lon="6.9726782">
      <time>2023-09-15T16:32:29Z</time>
    </trkpt>
    <trkpt lat="50.9273730" lon="6.9725668">
      <time>2023-09-15T16:32:34Z</time>
    </trkpt>
    <trkpt lat="50.9274105" lon="6.9725582">
      <time>2023-09-15T16:32:35Z</time>
    </trkpt>
    <trkpt lat="50.9275071" lon="6.9725909">
      <time>2023-09-15T16:32:37Z</time>
    </trkpt>
    <trkpt lat="50.9275457" lon="6.9726378">
      <time>2023-09-15T16:32:38Z</time>
    </trkpt>
    <trkpt lat="50.9275799" lon="6.9726920">
      <time>2023-09-15T16:32:39Z</time>
    </trkpt>
    <trkpt lat="50.9276440" lon="6.9728097">
      <time>2023-09-15T16:32:41Z</time>
    </trkpt>
    <trkpt lat="50.9277217" lon="6.9729962">
      <time>2023-09-15T16:32:44Z</time>
    </trkpt>
    <trkpt lat="50.9278023" lon="6.9732144">
      <time>2023-09-15T16:32:48Z</time>
    </trkpt>
    <trkpt lat="50.9278407" lon="6.9733066">
      <time>2023-09-15T16:32:50Z</time>
    </trkpt>
    <trkpt lat="50.9279665" lon="6.9736381">
      <time>2023-09-15T16:32:57Z</time>
    </trkpt>
    <trkpt lat="50.9280098" lon="6.9737549">
      <time>2023-09-15T16:33:00Z</time>
    </trkpt>
    <trkpt lat="50.9280457" lon="6.9738007">
      <time>2023-09-15T16:33:02Z</time>
    </trkpt>
    <trkpt lat="50.9280667" lon="6.9738094">
      <time>2023-09-15T16:33:03Z</time>
    </trkpt>
    <trkpt lat="50.9280812" lon="6.9738054">
      <time>2023-09-15T16:33:04Z</time>
    </trkpt>
    <trkpt lat="50.9280945" lon="6.9737978">
      <time>2023-09-15T16:33:06Z</time>
    </trkpt>
    <trkpt lat="50.9281051" lon="6.9737612">
      <time>2023-09-15T16:33:09Z</time>
    </trkpt>
    <trkpt lat="50.9281467" lon="6.9737101">
      <time>2023-09-15T16:33:12Z</time>
    </trkpt>
    <trkpt lat="50.9282096" lon="6.9736507">
      <time>2023-09-15T16:33:15Z</time>
    </trkpt>
    <trkpt lat="50.9282563" lon="6.9736062">
      <time>2023-09-15T16:33:17Z</time>
    </trkpt>
    <trkpt lat="50.9284039" lon="6.9734491">
      <time>2023-09-15T16:33:23Z</time>
    </trkpt>
    <trkpt lat="50.9285836" lon="6.9732710">
      <time>2023-09-15T16:33:29Z</time>
    </trkpt>
    <trkpt lat="50.9286976" lon="6.9731469">
      <time>2023-09-15T16:33:33Z</time>
    </trkpt>
    <trkpt lat="50.9288519" lon="6.9730043">
      <time>2023-09-15T16:33:38Z</time>
    </trkpt>
    <trkpt lat="50.9290457" lon="6.9728286">
      <time>2023-09-15T16:33:45Z</time>
    </trkpt>
    <trkpt lat="50.9291488" lon="6.9727268">
      <time>2023-09-15T16:33:49Z</time>
    </trkpt>
    <trkpt lat="50.9291740" lon="6.9727021">
      <time>2023-09-15T16:33:50Z</time>
    </trkpt>
    <trkpt lat="50.9292469" lon="6.9726348">
      <time>2023-09-15T16:33:53Z</time>
    </trkpt>
    <trkpt lat="50.9293140" lon="6.9725616">
      <time>2023-09-15T16:33:56Z</time>
    </trkpt>
    <trkpt lat="50.9294072" lon="6.9724756">
      <time>2023-09-15T16:34:00Z</time>
    </trkpt>
    <trkpt lat="50.9296144" lon="6.9723231">
      <time>2023-09-15T16:34:07Z</time>
    </trkpt>
    <trkpt lat="50.9297012" lon="6.9722607">
      <time>2023-09-15T16:34:10Z</time>
    </trkpt>
    <trkpt lat="50.9297300" lon="6.9722427">
      <time>2023-09-15T16:34:11Z</time>
    </trkpt>
    <trkpt lat="50.9300110" lon="6.9720328">
      <time>2023-09-15T16:34:22Z</time>
    </trkpt>
    <trkpt lat="50.9302672" lon="6.9718394">
      <time>2023-09-15T16:34:31Z</time>
    </trkpt>
    <trkpt lat="50.9304112" lon="6.9717395">
      <time>2023-09-15T16:34:38Z</time>
    </trkpt>
    <trkpt lat="50.9305047" lon="6.9716636">
      <time>2023-09-15T16:34:45Z</time>
    </trkpt>
    <trkpt lat="50.9305815" lon="6.9716069">
      <time>2023-09-15T16:34:48Z</time>
    </trkpt>
    <trkpt lat="50.9306427" lon="6.9715621">
      <time>2023-09-15T16:34:50Z</time>
    </trkpt>
    <trkpt lat="50.9308157" lon="6.9714316">
      <time>2023-09-15T16:34:56Z</time>
    </trkpt>
    <trkpt lat="50.9308429" lon="6.9714127">
      <time>2023-09-15T16:34:57Z</time>
    </trkpt>
    <trkpt lat="50.9309066" lon="6.9713636">
      <time>2023-09-15T16:35:00Z</time>
    </trkpt>
    <trkpt lat="50.9309375" lon="6.9713330">
      <time>2023-09-15T16:35:02Z</time>
    </trkpt>
    <trkpt lat="50.9309777" lon="6.9713072">
      <time>2023-09-15T16:35:04Z</time>
    </trkpt>
    <trkpt lat="50.9310643" lon="6.9713385">
      <time>2023-09-15T16:35:09Z</time>
    </trkpt>
    <trkpt lat="50.9311529" lon="6.9713263">
      <time>2023-09-15T16:35:14Z</time>
    </trkpt>
    <trkpt lat="50.9311814" lon="6.9713190">
      <time>2023-09-15T16:35:15Z</time>
    </trkpt>
    <trkpt lat="50.9312655" lon="6.9712554">
      <time>2023-09-15T16:35:18Z</time>
    </trkpt>
    <trkpt lat="50.9312905" lon="6.9712207">
      <time>2023-09-15T16:35:19Z</time>
    </trkpt>
    <trkpt lat="50.9314672" lon="6.9710908">
      <time>2023-09-15T16:35:24Z</time>
    </trkpt>
    <trkpt lat="50.9315705" lon="6.9710271">
      <time>2023-09-15T16:35:27Z</time>
    </trkpt>
    <trkpt lat="50.9316920" lon="6.9710087">
      <time>2023-09-15T16:35:30Z</time>
    </trkpt>
    <trkpt lat="50.9318548" lon="6.9709616">
      <time>2023-09-15T16:35:34Z</time>
    </trkpt>
    <trkpt lat="50.9318949" lon="6.9709392">
      <time>2023-09-15T16:35:35Z</time>
    </trkpt>
    <trkpt lat="50.9321025" lon="6.9708214">
      <time>2023-09-15T16:35:40Z</time>
    </trkpt>
    <trkpt lat="50.9321889" lon="6.9707809">
      <time>2023-09-15T16:35:42Z</time>
    </trkpt>
    <trkpt lat="50.9322289" lon="6.9707908">
      <time>2023-09-15T16:35:43Z</time>
    </trkpt>
    <trkpt lat="50.9323028" lon="6.9708096">
      <time>2023-09-15T16:35:45Z</time>
    </trkpt>
    <trkpt lat="50.9323728" lon="6.9707669">
      <time>2023-09-15T16:35:47Z</time>
    </trkpt>
    <trkpt lat="50.9326304" lon="6.9706327">
      <time>2023-09-15T16:35:54Z</time>
    </trkpt>
    <trkpt lat="50.9329094" lon="6.9704841">
      <time>2023-09-15T16:36:02Z</time>
    </trkpt>
    <trkpt lat="50.9329661" lon="6.9704468">
      <time>2023-09-15T16:36:04Z</time>
    </trkpt>
    <trkpt lat="50.9331950" lon="6.9702878">
      <time>2023-09-15T16:36:12Z</time>
    </trkpt>
    <trkpt lat="50.9332296" lon="6.9702513">
      <time>2023-09-15T16:36:14Z</time>
    </trkpt>
    <trkpt lat="50.9332203" lon="6.9702278">
      <time>2023-09-15T16:36:15Z</time>
    </trkpt>
    <trkpt lat="50.9331742" lon="6.9702449">
      <time>2023-09-15T16:36:17Z</time>
    </trkpt>
    <trkpt lat="50.9331456" lon="6.9702654">
      <time>2023-09-15T16:36:18Z</time>
    </trkpt>
    <trkpt lat="50.9328845" lon="6.9704490">
      <time>2023-09-15T16:36:27Z</time>
    </trkpt>
    <trkpt lat="50.9326244" lon="6.9706488">
      <time>2023-09-15T16:36:35Z</time>
    </trkpt>
    <trkpt lat="50.9324804" lon="6.9707554">
      <time>2023-09-15T16:36:40Z</time>
    </trkpt>
    <trkpt lat="50.9324701" lon="6.9707853">
      <time>2023-09-15T16:36:41Z</time>
    </trkpt>
    <trkpt lat="50.9324657" lon="6.9708447">
      <time>2023-09-15T16:36:43Z</time>
    </trkpt>
    <trkpt lat="50.9324547" lon="6.9708757">
      <time>2023-09-15T16:36:45Z</time>
    </trkpt>
    <trkpt lat="50.9324251" lon="6.9708937">
      <time>2023-09-15T16:36:47Z</time>
    </trkpt>
    <trkpt lat="50.9323748" lon="6.9709112">
      <time>2023-09-15T16:36:50Z</time>
    </trkpt>
    <trkpt lat="50.9323300" lon="6.9709359">
      <time>2023-09-15T16:36:52Z</time>
    </trkpt>
    <trkpt lat="50.9323069" lon="6.9709560">
      <time>2023-09-15T16:36:53Z</time>
    </trkpt>
    <trkpt lat="50.9321952" lon="6.9710465">
      <time>2023-09-15T16:36:57Z</time>
    </trkpt>
    <trkpt lat="50.9321297" lon="6.9710803">
      <time>2023-09-15T16:36:59Z</time>
    </trkpt>
    <trkpt lat="50.9319407" lon="6.9711841">
      <time>2023-09-15T16:37:05Z</time>
    </trkpt>
    <trkpt lat="50.9317333" lon="6.9712780">
      <time>2023-09-15T16:37:12Z</time>
    </trkpt>
    <trkpt lat="50.9314421" lon="6.9714611">
      <time>2023-09-15T16:37:22Z</time>
    </trkpt>
    <trkpt lat="50.9313134" lon="6.9715397">
      <time>2023-09-15T16:37:28Z</time>
    </trkpt>
    <trkpt lat="50.9312898" lon="6.9715650">
      <time>2023-09-15T16:37:29Z</time>
    </trkpt>
    <trkpt lat="50.9312341" lon="6.9716146">
      <time>2023-09-15T16:37:31Z</time>
    </trkpt>
    <trkpt lat="50.9310618" lon="6.9717989">
      <time>2023-09-15T16:37:38Z</time>
    </trkpt>
    <trkpt lat="50.9310377" lon="6.9718265">
      <time>2023-09-15T16:37:39Z</time>
    </trkpt>
    <trkpt lat="50.9308286" lon="6.9720045">
      <time>2023-09-15T16:37:46Z</time>
    </trkpt>
    <trkpt lat="50.9306092" lon="6.9721982">
      <time>2023-09-15T16:37:53Z</time>
    </trkpt>
    <trkpt lat="50.9305411" lon="6.9722526">
      <time>2023-09-15T16:37:56Z</time>
    </trkpt>
    <trkpt lat="50.9304728" lon="6.9722987">
      <time>2023-09-15T16:38:00Z</time>
    </trkpt>
    <trkpt lat="50.9304617" lon="6.9722895">
      <time>2023-09-15T16:38:01Z</time>
    </trkpt>
    <trkpt lat="50.9304624" lon="6.9722809">
      <time>2023-09-15T16:38:05Z</time>
    </trkpt>
    <trkpt lat="50.9304557" lon="6.9722761">
      <time>2023-09-15T16:38:12Z</time>
    </trkpt>
    <trkpt lat="50.9304583" lon="6.9722779">
      <time>2023-09-15T16:38:15Z</time>
    </trkpt>
    <trkpt lat="50.9304562" lon="6.9722795">
      <time>2023-09-15T16:38:21Z</time>
    </trkpt>
    <trkpt lat="50.9304553" lon="6.9722792">
      <time>2023-09-15T16:38:37Z</time>
    </trkpt>
    <trkpt lat="50.9304552" lon="6.9722790">
      <time>2023-09-15T16:38:39Z</time>
    </trkpt>
    <trkpt lat="50.9304552" lon="6.9722790">
      <time>2023-09-15T16:38:40Z</time>
    </trkpt>
    <trkpt lat="50.9304549" lon="6.9722790">
      <time>2023-09-15T16:38:42Z</time>
    </trkpt>
    <trkpt lat="50.9304548" lon="6.9722794">
      <time>2023-09-15T16:38:45Z</time>
    </trkpt>
    <trkpt lat="50.9304548" lon="6.9722796">
      <time>2023-09-15T16:38:53Z</time>
    </trkpt>
    <trkpt lat="50.9304550" lon="6.9722796">
      <time>2023-09-15T16:38:55Z</time>
    </trkpt>
    <trkpt lat="50.9304557" lon="6.9722796">
      <time>2023-09-15T16:39:02Z</time>
    </trkpt>
    <trkpt lat="50.9304583" lon="6.9722870">
      <time>2023-09-15T16:39:04Z</time>
    </trkpt>
    <trkpt lat="50.9304803" lon="6.9723349">
      <time>2023-09-15T16:39:06Z</time>
    </trkpt>
    <trkpt lat="50.9304926" lon="6.9723461">
      <time>2023-09-15T16:39:07Z</time>
    </trkpt>
    <trkpt lat="50.9305014" lon="6.9723538">
      <time>2023-09-15T16:39:08Z</time>
    </trkpt>
    <trkpt lat="50.9305408" lon="6.9723942">
      <time>2023-09-15T16:39:13Z</time>
    </trkpt>
    <trkpt lat="50.9305451" lon="6.9724232">
      <time>2023-09-15T16:39:15Z</time>
    </trkpt>
    <trkpt lat="50.9305456" lon="6.9724422">
      <time>2023-09-15T16:39:16Z</time>
    </trkpt>
    <trkpt lat="50.9305439" lon="6.9724730">
      <time>2023-09-15T16:39:18Z</time>
    </trkpt>
    <trkpt lat="50.9305479" lon="6.9724944">
      <time>2023-09-15T16:39:20Z</time>
    </trkpt>
    <trkpt lat="50.9305453" lon="6.9724966">
      <time>2023-09-15T16:39:23Z</time>
    </trkpt>
    <trkpt lat="50.9305433" lon="6.9724941">
      <time>2023-09-15T16:39:25Z</time>
    </trkpt>
    <trkpt lat="50.9305443" lon="6.9724897">
      <time>2023-09-15T16:39:26Z</time>
    </trkpt>
    <trkpt lat="50.9305528" lon="6.9724898">
      <time>2023-09-15T16:39:35Z</time>
    </trkpt>
    <trkpt lat="50.9305552" lon="6.9724850">
      <time>2023-09-15T16:39:40Z</time>
    </trkpt>
    <trkpt lat="50.9305724" lon="6.9724607">
      <time>2023-09-15T16:39:43Z</time>
    </trkpt>
    <trkpt lat="50.9306089" lon="6.9724798">
      <time>2023-09-15T16:39:48Z</time>
    </trkpt>
    <trkpt lat="50.9306086" lon="6.9725313">
      <time>2023-09-15T16:39:50Z</time>
    </trkpt>
    <trkpt lat="50.9305358" lon="6.9726690">
      <time>2023-09-15T16:39:56Z</time>
    </trkpt>
    <trkpt lat="50.9305804" lon="6.9728327">
      <time>2023-09-15T16:40:01Z</time>
    </trkpt>
    <trkpt lat="50.9306108" lon="6.9729276">
      <time>2023-09-15T16:40:04Z</time>
    </trkpt>
    <trkpt lat="50.9306748" lon="6.9730240">
      <time>2023-09-15T16:40:09Z</time>
    </trkpt>
    <trkpt lat="50.9306990" lon="6.9730625">
      <time>2023-09-15T16:40:11Z</time>
    </trkpt>
    <trkpt lat="50.9307339" lon="6.9731128">
      <time>2023-09-15T16:40:14Z</time>
    </trkpt>
    <trkpt lat="50.9307473" lon="6.9731297">
      <time>2023-09-15T16:40:15Z</time>
    </trkpt>
    <trkpt lat="50.9308289" lon="6.9733186">
      <time>2023-09-15T16:40:22Z</time>
    </trkpt>
    <trkpt lat="50.9309015" lon="6.9734942">
      <time>2023-09-15T16:40:27Z</time>
    </trkpt>
    <trkpt lat="50.9310100" lon="6.9737377">
      <time>2023-09-15T16:40:33Z</time>
    </trkpt>
    <trkpt lat="50.9310420" lon="6.9738248">
      <time>2023-09-15T16:40:35Z</time>
    </trkpt>
    <trkpt lat="50.9310834" lon="6.9739049">
      <time>2023-09-15T16:40:37Z</time>
    </trkpt>
    <trkpt lat="50.9311302" lon="6.9740147">
      <time>2023-09-15T16:40:40Z</time>
    </trkpt>
    <trkpt lat="50.9311722" lon="6.9741702">
      <time>2023-09-15T16:40:44Z</time>
    </trkpt>
    <trkpt lat="50.9311943" lon="6.9742463">
      <time>2023-09-15T16:40:46Z</time>
    </trkpt>
    <trkpt lat="50.9313208" lon="6.9745341">
      <time>2023-09-15T16:40:53Z</time>
    </trkpt>
    <trkpt lat="50.9314326" lon="6.9746148">
      <time>2023-09-15T16:40:57Z</time>
    </trkpt>
    <trkpt lat="50.9315098" lon="6.9745864">
      <time>2023-09-15T16:41:01Z</time>
    </trkpt>
    <trkpt lat="50.9315580" lon="6.9746084">
      <time>2023-09-15T16:41:03Z</time>
    </trkpt>
    <trkpt lat="50.9316256" lon="6.9746488">
      <time>2023-09-15T16:41:05Z</time>
    </trkpt>
    <trkpt lat="50.9317140" lon="6.9747360">
      <time>2023-09-15T16:41:08Z</time>
    </trkpt>
    <trkpt lat="50.9317613" lon="6.9748126">
      <time>2023-09-15T16:41:11Z</time>
    </trkpt>
    <trkpt lat="50.9318118" lon="6.9749038">
      <time>2023-09-15T16:41:15Z</time>
    </trkpt>
    <trkpt lat="50.9318320" lon="6.9749321">
      <time>2023-09-15T16:41:17Z</time>
    </trkpt>
    <trkpt lat="50.9318433" lon="6.9749583">
      <time>2023-09-15T16:41:18Z</time>
    </trkpt>
    <trkpt lat="50.9318647" lon="6.9750225">
      <time>2023-09-15T16:41:20Z</time>
    </trkpt>
    <trkpt lat="50.9319171" lon="6.9751823">
      <time>2023-09-15T16:41:24Z</time>
    </trkpt>
    <trkpt lat="50.9319750" lon="6.9754204">
      <time>2023-09-15T16:41:29Z</time>
    </trkpt>
    <trkpt lat="50.9319882" lon="6.9754808">
      <time>2023-09-15T16:41:30Z</time>
    </trkpt>
    <trkpt lat="50.9320864" lon="6.9757155">
      <time>2023-09-15T16:41:35Z</time>
    </trkpt>
    <trkpt lat="50.9322519" lon="6.9758782">
      <time>2023-09-15T16:41:41Z</time>
    </trkpt>
    <trkpt lat="50.9324284" lon="6.9760390">
      <time>2023-09-15T16:41:48Z</time>
    </trkpt>
    <trkpt lat="50.9324892" lon="6.9761555">
      <time>2023-09-15T16:41:53Z</time>
    </trkpt>
    <trkpt lat="50.9325058" lon="6.9761638">
      <time>2023-09-15T16:41:57Z</time>
    </trkpt>
    <trkpt lat="50.9325151" lon="6.9761557">
      <time>2023-09-15T16:41:59Z</time>
    </trkpt>
    <trkpt lat="50.9326045" lon="6.9761818">
      <time>2023-09-15T16:42:06Z</time>
    </trkpt>
    <trkpt lat="50.9326901" lon="6.9762657">
      <time>2023-09-15T16:42:12Z</time>
    </trkpt>
    <trkpt lat="50.9327549" lon="6.9763338">
      <time>2023-09-15T16:42:16Z</time>
    </trkpt>
    <trkpt lat="50.9327855" lon="6.9763529">
      <time>2023-09-15T16:42:18Z</time>
    </trkpt>
    <trkpt lat="50.9328885" lon="6.9764334">
      <time>2023-09-15T16:42:25Z</time>
    </trkpt>
    <trkpt lat="50.9329199" lon="6.9764322">
      <time>2023-09-15T16:42:28Z</time>
    </trkpt>
    <trkpt lat="50.9329282" lon="6.9764870">
      <time>2023-09-15T16:42:31Z</time>
    </trkpt>
    <trkpt lat="50.9329282" lon="6.9764875">
      <time>2023-09-15T16:42:32Z</time>
    </trkpt>
    <trkpt lat="50.9329297" lon="6.9764845">
      <time>2023-09-15T16:42:35Z</time>
    </trkpt>
    <trkpt lat="50.9329329" lon="6.9765113">
      <time>2023-09-15T16:42:42Z</time>
    </trkpt>
    <trkpt lat="50.9329395" lon="6.9765094">
      <time>2023-09-15T16:42:47Z</time>
    </trkpt>
    <trkpt lat="50.9329676" lon="6.9764888">
      <time>2023-09-15T16:42:51Z</time>
    </trkpt>
    <trkpt lat="50.9329857" lon="6.9764751">
      <time>2023-09-15T16:42:56Z</time>
    </trkpt>
    <trkpt lat="50.9329862" lon="6.9764650">
      <time>2023-09-15T16:42:58Z</time>
    </trkpt>
    <trkpt lat="50.9329969" lon="6.9764800">
      <time>2023-09-15T16:43:04Z</time>
    </trkpt>
    <trkpt lat="50.9330111" lon="6.9764622">
      <time>2023-09-15T16:43:06Z</time>
    </trkpt>
    <trkpt lat="50.9330059" lon="6.9764521">
      <time>2023-09-15T16:43:09Z</time>
    </trkpt>
    <trkpt lat="50.9329454" lon="6.9764256">
      <time>2023-09-15T16:43:14Z</time>
    </trkpt>
    <trkpt lat="50.9328951" lon="6.9763994">
      <time>2023-09-15T16:43:19Z</time>
    </trkpt>
    <trkpt lat="50.9328743" lon="6.9764148">
      <time>2023-09-15T16:43:23Z</time>
    </trkpt>
    <trkpt lat="50.9328717" lon="6.9764166">
      <time>2023-09-15T16:43:27Z</time>
    </trkpt>
    <trkpt lat="50.9328695" lon="6.9764177">
      <time>2023-09-15T16:43:29Z</time>
    </trkpt>
    <trkpt lat="50.9328706" lon="6.9764248">
      <time>2023-09-15T16:43:31Z</time>
    </trkpt>
    <trkpt lat="50.9328676" lon="6.9764437">
      <time>2023-09-15T16:43:38Z</time>
    </trkpt>
    <trkpt lat="50.9328667" lon="6.9764420">
      <time>2023-09-15T16:43:42Z</time>
    </trkpt>
    <trkpt lat="50.9328667" lon="6.9764420">
      <time>2023-09-15T16:43:47Z</time>
    </trkpt>
    <trkpt lat="50.9328667" lon="6.9764420">
      <time>2023-09-15T16:43:49Z</time>
    </trkpt>
    <trkpt lat="50.9328034" lon="6.9763869">
      <time>2023-09-15T16:44:01Z</time>
    </trkpt>
    <trkpt lat="50.9326850" lon="6.9762837">
      <time>2023-09-15T16:44:11Z</time>
    </trkpt>
    <trkpt lat="50.9326865" lon="6.9763185">
      <time>2023-09-15T16:44:16Z</time>
    </trkpt>
    <trkpt lat="50.9326945" lon="6.9763143">
      <time>2023-09-15T16:44:22Z</time>
    </trkpt>
    <trkpt lat="50.9326997" lon="6.9763158">
      <time>2023-09-15T16:44:27Z</time>
    </trkpt>
    <trkpt lat="50.9327000" lon="6.9763149">
      <time>2023-09-15T16:44:28Z</time>
    </trkpt>
    <trkpt lat="50.9327000" lon="6.9763149">
      <time>2023-09-15T16:44:33Z</time>
    </trkpt>
    <trkpt lat="50.9327000" lon="6.9763149">
      <time>2023-09-15T16:44:36Z</time>
    </trkpt>
    <trkpt lat="50.9327000" lon="6.9763149">
      <time>2023-09-15T16:44:37Z</time>
    </trkpt>
    <trkpt lat="50.9327000" lon="6.9763149">
      <time>2023-09-15T16:44:38Z</time>
    </trkpt>
    <trkpt lat="50.9327000" lon="6.9763148">
      <time>2023-09-15T16:44:40Z</time>
    </trkpt>
    <trkpt lat="50.9327003" lon="6.9763148">
      <time>2023-09-15T16:44:43Z</time>
    </trkpt>
    <trkpt lat="50.9327004" lon="6.9763148">
      <time>2023-09-15T16:44:45Z</time>
    </trkpt>
    <trkpt lat="50.9327004" lon="6.9763148">
      <time>2023-09-15T16:44:47Z</time>
    </trkpt>
    <trkpt lat="50.9326997" lon="6.9763160">
      <time>2023-09-15T16:45:01Z</time>
    </trkpt>
    <trkpt lat="50.9326996" lon="6.9763203">
      <time>2023-09-15T16:45:12Z</time>
    </trkpt>
    <trkpt lat="50.9327041" lon="6.9763224">
      <time>2023-09-15T16:45:19Z</time>
    </trkpt>
    <trkpt lat="50.9327046" lon="6.9763439">
      <time>2023-09-15T16:45:38Z</time>
    </trkpt>
    <trkpt lat="50.9327046" lon="6.9763443">
      <time>2023-09-15T16:45:47Z</time>
    </trkpt>
    <trkpt lat="50.9327050" lon="6.9763445">
      <time>2023-09-15T16:45:53Z</time>
    </trkpt>
    <trkpt lat="50.9327065" lon="6.9763459">
      <time>2023-09-15T16:46:00Z</time>
    </trkpt>
    <trkpt lat="50.9327205" lon="6.9763295">
      <time>2023-09-15T16:46:06Z</time>
    </trkpt>
    <trkpt lat="50.9327267" lon="6.9763255">
      <time>2023-09-15T16:46:08Z</time>
    </trkpt>
    <trkpt lat="50.9327386" lon="6.9763185">
      <time>2023-09-15T16:46:14Z</time>
    </trkpt>
    <trkpt lat="50.9327396" lon="6.9763137">
      <time>2023-09-15T16:46:17Z</time>
    </trkpt>
    <trkpt lat="50.9327324" lon="6.9762920">
      <time>2023-09-15T16:46:20Z</time>
    </trkpt>
    <trkpt lat="50.9327194" lon="6.9762951">
      <time>2023-09-15T16:46:26Z</time>
    </trkpt>
    <trkpt lat="50.9327183" lon="6.9762953">
      <time>2023-09-15T16:46:31Z</time>
    </trkpt>
    <trkpt lat="50.9326744" lon="6.9762387">
      <time>2023-09-15T16:46:33Z</time>
    </trkpt>
    <trkpt lat="50.9326390" lon="6.9761845">
      <time>2023-09-15T16:46:34Z</time>
    </trkpt>
    <trkpt lat="50.9325407" lon="6.9760702">
      <time>2023-09-15T16:46:36Z</time>
    </trkpt>
    <trkpt lat="50.9324233" lon="6.9759234">
      <time>2023-09-15T16:46:38Z</time>
    </trkpt>
    <trkpt lat="50.9323675" lon="6.9758308">
      <time>2023-09-15T16:46:39Z</time>
    </trkpt>
    <trkpt lat="50.9321362" lon="6.9752736">
      <time>2023-09-15T16:46:43Z</time>
    </trkpt>
    <trkpt lat="50.9320066" lon="6.9749488">
      <time>2023-09-15T16:46:45Z</time>
    </trkpt>
    <trkpt lat="50.9318611" lon="6.9745679">
      <time>2023-09-15T16:46:47Z</time>
    </trkpt>
    <trkpt lat="50.9316471" lon="6.9738972">
      <time>2023-09-15T16:46:50Z</time>
    </trkpt>
    <trkpt lat="50.9315826" lon="6.9736508">
      <time>2023-09-15T16:46:51Z</time>
    </trkpt>
    <trkpt lat="50.9314120" lon="6.9728540">
      <time>2023-09-15T16:46:54Z</time>
    </trkpt>
    <trkpt lat="50.9313819" lon="6.9726638">
      <time>2023-09-15T16:46:55Z</time>
    </trkpt>
    <trkpt lat="50.9312942" lon="6.9719434">
      <time>2023-09-15T16:46:58Z</time>
    </trkpt>
    <trkpt lat="50.9312628" lon="6.9716977">
      <time>2023-09-15T16:46:59Z</time>
    </trkpt>
    <trkpt lat="50.9311715" lon="6.9709416">
      <time>2023-09-15T16:47:02Z</time>
    </trkpt>
    <trkpt lat="50.9310815" lon="6.9702333">
      <time>2023-09-15T16:47:05Z</time>
    </trkpt>
    <trkpt lat="50.9310492" lon="6.9699894">
      <time>2023-09-15T16:47:06Z</time>
    </trkpt>
  </trkseg></trk>
</gpx>
