<?xml version="1.0" encoding="UTF-8"?>
<gpx version="1.1" creator="Diary FIT converter" xmlns="http://www.topografix.com/GPX/1/1">
  <trk><name>Running</name><trkseg>
    <trkpt lat="50.9630397" lon="6.8762628">
      <time>2021-02-08T18:53:24Z</time>
    </trkpt>
    <trkpt lat="50.9631007" lon="6.8764129">
      <time>2021-02-08T18:53:30Z</time>
    </trkpt>
    <trkpt lat="50.9630833" lon="6.8766868">
      <time>2021-02-08T18:53:39Z</time>
    </trkpt>
    <trkpt lat="50.9630842" lon="6.8767238">
      <time>2021-02-08T18:53:40Z</time>
    </trkpt>
    <trkpt lat="50.9631106" lon="6.8768174">
      <time>2021-02-08T18:53:43Z</time>
    </trkpt>
    <trkpt lat="50.9631368" lon="6.8768677">
      <time>2021-02-08T18:53:45Z</time>
    </trkpt>
    <trkpt lat="50.9631671" lon="6.8769123">
      <time>2021-02-08T18:53:47Z</time>
    </trkpt>
    <trkpt lat="50.9631991" lon="6.8769750">
      <time>2021-02-08T18:53:49Z</time>
    </trkpt>
    <trkpt lat="50.9632926" lon="6.8771582">
      <time>2021-02-08T18:53:55Z</time>
    </trkpt>
    <trkpt lat="50.9633482" lon="6.8773086">
      <time>2021-02-08T18:54:00Z</time>
    </trkpt>
    <trkpt lat="50.9634368" lon="6.8775707">
      <time>2021-02-08T18:54:07Z</time>
    </trkpt>
    <trkpt lat="50.9635039" lon="6.8777282">
      <time>2021-02-08T18:54:13Z</time>
    </trkpt>
    <trkpt lat="50.9635108" lon="6.8777480">
      <time>2021-02-08T18:54:14Z</time>
    </trkpt>
    <trkpt lat="50.9635626" lon="6.8778308">
      <time>2021-02-08T18:54:17Z</time>
    </trkpt>
    <trkpt lat="50.9636400" lon="6.8779398">
      <time>2021-02-08T18:54:21Z</time>
    </trkpt>
    <trkpt lat="50.9637883" lon="6.8781555">
      <time>2021-02-08T18:54:29Z</time>
    </trkpt>
    <trkpt lat="50.9638244" lon="6.8782170">
      <time>2021-02-08T18:54:31Z</time>
    </trkpt>
    <trkpt lat="50.9639307" lon="6.8783617">
      <time>2021-02-08T18:54:37Z</time>
    </trkpt>
    <trkpt lat="50.9640076" lon="6.8784928">
      <time>2021-02-08T18:54:42Z</time>
    </trkpt>
    <trkpt lat="50.9640439" lon="6.8785564">
      <time>2021-02-08T18:54:44Z</time>
    </trkpt>
    <trkpt lat="50.9640929" lon="6.8786409">
      <time>2021-02-08T18:54:47Z</time>
    </trkpt>
    <trkpt lat="50.9642033" lon="6.8788402">
      <time>2021-02-08T18:54:54Z</time>
    </trkpt>
    <trkpt lat="50.9643099" lon="6.8789718">
      <time>2021-02-08T18:55:00Z</time>
    </trkpt>
    <trkpt lat="50.9644155" lon="6.8791023">
      <time>2021-02-08T18:55:05Z</time>
    </trkpt>
    <trkpt lat="50.9645053" lon="6.8792312">
      <time>2021-02-08T18:55:11Z</time>
    </trkpt>
    <trkpt lat="50.9646581" lon="6.8794178">
      <time>2021-02-08T18:55:19Z</time>
    </trkpt>
    <trkpt lat="50.9646792" lon="6.8794414">
      <time>2021-02-08T18:55:20Z</time>
    </trkpt>
    <trkpt lat="50.9648370" lon="6.8796261">
      <time>2021-02-08T18:55:27Z</time>
    </trkpt>
    <trkpt lat="50.9649832" lon="6.8798106">
      <time>2021-02-08T18:55:34Z</time>
    </trkpt>
    <trkpt lat="50.9651153" lon="6.8799594">
      <time>2021-02-08T18:55:40Z</time>
    </trkpt>
    <trkpt lat="50.9651531" lon="6.8799995">
      <time>2021-02-08T18:55:42Z</time>
    </trkpt>
    <trkpt lat="50.9652434" lon="6.8801103">
      <time>2021-02-08T18:55:47Z</time>
    </trkpt>
    <trkpt lat="50.9653604" lon="6.8802505">
      <time>2021-02-08T18:55:54Z</time>
    </trkpt>
    <trkpt lat="50.9655012" lon="6.8804192">
      <time>2021-02-08T18:56:02Z</time>
    </trkpt>
    <trkpt lat="50.9656355" lon="6.8805761">
      <time>2021-02-08T18:56:09Z</time>
    </trkpt>
    <trkpt lat="50.9657847" lon="6.8807144">
      <time>2021-02-08T18:56:16Z</time>
    </trkpt>
    <trkpt lat="50.9659655" lon="6.8808580">
      <time>2021-02-08T18:56:23Z</time>
    </trkpt>
    <trkpt lat="50.9661273" lon="6.8810455">
      <time>2021-02-08T18:56:31Z</time>
    </trkpt>
    <trkpt lat="50.9661970" lon="6.8813005">
      <time>2021-02-08T18:56:37Z</time>
    </trkpt>
    <trkpt lat="50.9661551" lon="6.8815040">
      <time>2021-02-08T18:56:42Z</time>
    </trkpt>
    <trkpt lat="50.9660907" lon="6.8817809">
      <time>2021-02-08T18:56:49Z</time>
    </trkpt>
    <trkpt lat="50.9660845" lon="6.8818183">
      <time>2021-02-08T18:56:50Z</time>
    </trkpt>
    <trkpt lat="50.9659979" lon="6.8821122">
      <time>2021-02-08T18:56:58Z</time>
    </trkpt>
    <trkpt lat="50.9659820" lon="6.8821557">
      <time>2021-02-08T18:56:59Z</time>
    </trkpt>
    <trkpt lat="50.9658568" lon="6.8824073">
      <time>2021-02-08T18:57:06Z</time>
    </trkpt>
    <trkpt lat="50.9658381" lon="6.8824446">
      <time>2021-02-08T18:57:07Z</time>
    </trkpt>
    <trkpt lat="50.9657114" lon="6.8826934">
      <time>2021-02-08T18:57:14Z</time>
    </trkpt>
    <trkpt lat="50.9656974" lon="6.8827286">
      <time>2021-02-08T18:57:15Z</time>
    </trkpt>
    <trkpt lat="50.9656034" lon="6.8829343">
      <time>2021-02-08T18:57:21Z</time>
    </trkpt>
    <trkpt lat="50.9655066" lon="6.8831958">
      <time>2021-02-08T18:57:28Z</time>
    </trkpt>
    <trkpt lat="50.9653908" lon="6.8834226">
      <time>2021-02-08T18:57:35Z</time>
    </trkpt>
    <trkpt lat="50.9653760" lon="6.8834548">
      <time>2021-02-08T18:57:36Z</time>
    </trkpt>
    <trkpt lat="50.9652555" lon="6.8836857">
      <time>2021-02-08T18:57:43Z</time>
    </trkpt>
    <trkpt lat="50.9651288" lon="6.8839274">
      <time>2021-02-08T18:57:51Z</time>
    </trkpt>
    <trkpt lat="50.9650939" lon="6.8840023">
      <time>2021-02-08T18:57:53Z</time>
    </trkpt>
    <trkpt lat="50.9649745" lon="6.8842701">
      <time>2021-02-08T18:58:01Z</time>
    </trkpt>
    <trkpt lat="50.9649421" lon="6.8843346">
      <time>2021-02-08T18:58:03Z</time>
    </trkpt>
    <trkpt lat="50.9648396" lon="6.8845684">
      <time>2021-02-08T18:58:10Z</time>
    </trkpt>
    <trkpt lat="50.9647914" lon="6.8846626">
      <time>2021-02-08T18:58:13Z</time>
    </trkpt>
    <trkpt lat="50.9646750" lon="6.8848891">
      <time>2021-02-08T18:58:19Z</time>
    </trkpt>
    <trkpt lat="50.9645610" lon="6.8851072">
      <time>2021-02-08T18:58:26Z</time>
    </trkpt>
    <trkpt lat="50.9644340" lon="6.8853512">
      <time>2021-02-08T18:58:33Z</time>
    </trkpt>
    <trkpt lat="50.9643875" lon="6.8854523">
      <time>2021-02-08T18:58:36Z</time>
    </trkpt>
    <trkpt lat="50.9642751" lon="6.8856954">
      <time>2021-02-08T18:58:43Z</time>
    </trkpt>
    <trkpt lat="50.9642406" lon="6.8857656">
      <time>2021-02-08T18:58:45Z</time>
    </trkpt>
    <trkpt lat="50.9641284" lon="6.8860118">
      <time>2021-02-08T18:58:52Z</time>
    </trkpt>
    <trkpt lat="50.9640674" lon="6.8861525">
      <time>2021-02-08T18:58:56Z</time>
    </trkpt>
    <trkpt lat="50.9639980" lon="6.8863220">
      <time>2021-02-08T18:59:01Z</time>
    </trkpt>
    <trkpt lat="50.9639596" lon="6.8864226">
      <time>2021-02-08T18:59:04Z</time>
    </trkpt>
    <trkpt lat="50.9639255" lon="6.8865038">
      <time>2021-02-08T18:59:06Z</time>
    </trkpt>
    <trkpt lat="50.9638277" lon="6.8867458">
      <time>2021-02-08T18:59:13Z</time>
    </trkpt>
    <trkpt lat="50.9637774" lon="6.8868581">
      <time>2021-02-08T18:59:16Z</time>
    </trkpt>
    <trkpt lat="50.9636380" lon="6.8870960">
      <time>2021-02-08T18:59:24Z</time>
    </trkpt>
    <trkpt lat="50.9635226" lon="6.8873283">
      <time>2021-02-08T18:59:31Z</time>
    </trkpt>
    <trkpt lat="50.9634997" lon="6.8873514">
      <time>2021-02-08T18:59:32Z</time>
    </trkpt>
    <trkpt lat="50.9633952" lon="6.8875242">
      <time>2021-02-08T18:59:38Z</time>
    </trkpt>
    <trkpt lat="50.9633675" lon="6.8875726">
      <time>2021-02-08T18:59:40Z</time>
    </trkpt>
    <trkpt lat="50.9633055" lon="6.8877394">
      <time>2021-02-08T18:59:46Z</time>
    </trkpt>
    <trkpt lat="50.9632038" lon="6.8879086">
      <time>2021-02-08T18:59:53Z</time>
    </trkpt>
    <trkpt lat="50.9630759" lon="6.8881290">
      <time>2021-02-08T19:00:02Z</time>
    </trkpt>
    <trkpt lat="50.9630593" lon="6.8881543">
      <time>2021-02-08T19:00:03Z</time>
    </trkpt>
    <trkpt lat="50.9629650" lon="6.8883355">
      <time>2021-02-08T19:00:11Z</time>
    </trkpt>
    <trkpt lat="50.9629044" lon="6.8885808">
      <time>2021-02-08T19:00:19Z</time>
    </trkpt>
    <trkpt lat="50.9628454" lon="6.8887103">
      <time>2021-02-08T19:00:23Z</time>
    </trkpt>
    <trkpt lat="50.9627578" lon="6.8888867">
      <time>2021-02-08T19:00:28Z</time>
    </trkpt>
    <trkpt lat="50.9626392" lon="6.8890644">
      <time>2021-02-08T19:00:34Z</time>
    </trkpt>
    <trkpt lat="50.9626351" lon="6.8890774">
      <time>2021-02-08T19:00:35Z</time>
    </trkpt>
    <trkpt lat="50.9626448" lon="6.8890881">
      <time>2021-02-08T19:00:36Z</time>
    </trkpt>
    <trkpt lat="50.9624382" lon="6.8896118">
      <time>2021-02-08T19:00:47Z</time>
    </trkpt>
    <trkpt lat="50.9623700" lon="6.8896772">
      <time>2021-02-08T19:00:52Z</time>
    </trkpt>
    <trkpt lat="50.9622332" lon="6.8898608">
      <time>2021-02-08T19:01:00Z</time>
    </trkpt>
    <trkpt lat="50.9621341" lon="6.8899976">
      <time>2021-02-08T19:01:06Z</time>
    </trkpt>
    <trkpt lat="50.9620632" lon="6.8901761">
      <time>2021-02-08T19:01:11Z</time>
    </trkpt>
    <trkpt lat="50.9620397" lon="6.8903698">
      <time>2021-02-08T19:01:16Z</time>
    </trkpt>
    <trkpt lat="50.9619334" lon="6.8906102">
      <time>2021-02-08T19:01:23Z</time>
    </trkpt>
    <trkpt lat="50.9619182" lon="6.8906448">
      <time>2021-02-08T19:01:24Z</time>
    </trkpt>
    <trkpt lat="50.9618405" lon="6.8908325">
      <time>2021-02-08T19:01:30Z</time>
    </trkpt>
    <trkpt lat="50.9617451" lon="6.8910364">
      <time>2021-02-08T19:01:36Z</time>
    </trkpt>
    <trkpt lat="50.9616334" lon="6.8912868">
      <time>2021-02-08T19:01:44Z</time>
    </trkpt>
    <trkpt lat="50.9615225" lon="6.8915544">
      <time>2021-02-08T19:01:52Z</time>
    </trkpt>
    <trkpt lat="50.9614326" lon="6.8917825">
      <time>2021-02-08T19:02:00Z</time>
    </trkpt>
    <trkpt lat="50.9613687" lon="6.8920200">
      <time>2021-02-08T19:02:07Z</time>
    </trkpt>
    <trkpt lat="50.9613168" lon="6.8920840">
      <time>2021-02-08T19:02:10Z</time>
    </trkpt>
    <trkpt lat="50.9612060" lon="6.8920459">
      <time>2021-02-08T19:02:12Z</time>
    </trkpt>
    <trkpt lat="50.9610828" lon="6.8919154">
      <time>2021-02-08T19:02:17Z</time>
    </trkpt>
    <trkpt lat="50.9610639" lon="6.8918861">
      <time>2021-02-08T19:02:18Z</time>
    </trkpt>
    <trkpt lat="50.9609787" lon="6.8916997">
      <time>2021-02-08T19:02:24Z</time>
    </trkpt>
    <trkpt lat="50.9608974" lon="6.8915490">
      <time>2021-02-08T19:02:29Z</time>
    </trkpt>
    <trkpt lat="50.9607878" lon="6.8912819">
      <time>2021-02-08T19:02:37Z</time>
    </trkpt>
    <trkpt lat="50.9606748" lon="6.8911296">
      <time>2021-02-08T19:02:43Z</time>
    </trkpt>
    <trkpt lat="50.9605998" lon="6.8910058">
      <time>2021-02-08T19:02:47Z</time>
    </trkpt>
    <trkpt lat="50.9605619" lon="6.8909530">
      <time>2021-02-08T19:02:49Z</time>
    </trkpt>
    <trkpt lat="50.9604925" lon="6.8907571">
      <time>2021-02-08T19:02:55Z</time>
    </trkpt>
    <trkpt lat="50.9604550" lon="6.8906712">
      <time>2021-02-08T19:02:58Z</time>
    </trkpt>
    <trkpt lat="50.9604128" lon="6.8906347">
      <time>2021-02-08T19:03:00Z</time>
    </trkpt>
    <trkpt lat="50.9603266" lon="6.8904927">
      <time>2021-02-08T19:03:05Z</time>
    </trkpt>
    <trkpt lat="50.9602561" lon="6.8903070">
      <time>2021-02-08T19:03:10Z</time>
    </trkpt>
    <trkpt lat="50.9601900" lon="6.8900109">
      <time>2021-02-08T19:03:17Z</time>
    </trkpt>
    <trkpt lat="50.9601818" lon="6.8899724">
      <time>2021-02-08T19:03:18Z</time>
    </trkpt>
    <trkpt lat="50.9601767" lon="6.8899335">
      <time>2021-02-08T19:03:19Z</time>
    </trkpt>
    <trkpt lat="50.9601735" lon="6.8896160">
      <time>2021-02-08T19:03:26Z</time>
    </trkpt>
    <trkpt lat="50.9601765" lon="6.8895730">
      <time>2021-02-08T19:03:27Z</time>
    </trkpt>
    <trkpt lat="50.9602006" lon="6.8892919">
      <time>2021-02-08T19:03:34Z</time>
    </trkpt>
    <trkpt lat="50.9602132" lon="6.8891232">
      <time>2021-02-08T19:03:38Z</time>
    </trkpt>
    <trkpt lat="50.9602927" lon="6.8881373">
      <time>2021-02-08T19:04:01Z</time>
    </trkpt>
    <trkpt lat="50.9603549" lon="6.8880872">
      <time>2021-02-08T19:04:04Z</time>
    </trkpt>
    <trkpt lat="50.9603603" lon="6.8880094">
      <time>2021-02-08T19:04:06Z</time>
    </trkpt>
    <trkpt lat="50.9603522" lon="6.8877539">
      <time>2021-02-08T19:04:12Z</time>
    </trkpt>
    <trkpt lat="50.9603308" lon="6.8874712">
      <time>2021-02-08T19:04:19Z</time>
    </trkpt>
    <trkpt lat="50.9603458" lon="6.8872119">
      <time>2021-02-08T19:05:42Z</time>
    </trkpt>
    <trkpt lat="50.9603457" lon="6.8872093">
      <time>2021-02-08T19:05:43Z</time>
    </trkpt>
    <trkpt lat="50.9602948" lon="6.8868493">
      <time>2021-02-08T19:05:53Z</time>
    </trkpt>
    <trkpt lat="50.9602829" lon="6.8868027">
      <time>2021-02-08T19:05:54Z</time>
    </trkpt>
    <trkpt lat="50.9602635" lon="6.8866934">
      <time>2021-02-08T19:05:57Z</time>
    </trkpt>
    <trkpt lat="50.9602426" lon="6.8866291">
      <time>2021-02-08T19:05:59Z</time>
    </trkpt>
    <trkpt lat="50.9602216" lon="6.8865951">
      <time>2021-02-08T19:06:01Z</time>
    </trkpt>
    <trkpt lat="50.9601813" lon="6.8866233">
      <time>2021-02-08T19:06:18Z</time>
    </trkpt>
    <trkpt lat="50.9601743" lon="6.8866235">
      <time>2021-02-08T19:06:19Z</time>
    </trkpt>
    <trkpt lat="50.9601020" lon="6.8863749">
      <time>2021-02-08T19:06:27Z</time>
    </trkpt>
    <trkpt lat="50.9600809" lon="6.8863059">
      <time>2021-02-08T19:06:29Z</time>
    </trkpt>
    <trkpt lat="50.9600647" lon="6.8862384">
      <time>2021-02-08T19:06:31Z</time>
    </trkpt>
    <trkpt lat="50.9600186" lon="6.8860877">
      <time>2021-02-08T19:06:35Z</time>
    </trkpt>
    <trkpt lat="50.9598994" lon="6.8858352">
      <time>2021-02-08T19:06:42Z</time>
    </trkpt>
    <trkpt lat="50.9598730" lon="6.8857695">
      <time>2021-02-08T19:06:44Z</time>
    </trkpt>
    <trkpt lat="50.9598596" lon="6.8856601">
      <time>2021-02-08T19:06:47Z</time>
    </trkpt>
    <trkpt lat="50.9598764" lon="6.8856325">
      <time>2021-02-08T19:06:48Z</time>
    </trkpt>
    <trkpt lat="50.9599473" lon="6.8855698">
      <time>2021-02-08T19:06:51Z</time>
    </trkpt>
    <trkpt lat="50.9600483" lon="6.8855339">
      <time>2021-02-08T19:06:55Z</time>
    </trkpt>
    <trkpt lat="50.9602304" lon="6.8855292">
      <time>2021-02-08T19:07:01Z</time>
    </trkpt>
    <trkpt lat="50.9602610" lon="6.8855256">
      <time>2021-02-08T19:07:02Z</time>
    </trkpt>
    <trkpt lat="50.9603931" lon="6.8855148">
      <time>2021-02-08T19:07:07Z</time>
    </trkpt>
    <trkpt lat="50.9604824" lon="6.8854885">
      <time>2021-02-08T19:07:11Z</time>
    </trkpt>
    <trkpt lat="50.9605526" lon="6.8854616">
      <time>2021-02-08T19:07:14Z</time>
    </trkpt>
    <trkpt lat="50.9606422" lon="6.8854367">
      <time>2021-02-08T19:07:18Z</time>
    </trkpt>
    <trkpt lat="50.9607258" lon="6.8854165">
      <time>2021-02-08T19:07:21Z</time>
    </trkpt>
    <trkpt lat="50.9608118" lon="6.8853932">
      <time>2021-02-08T19:07:24Z</time>
    </trkpt>
    <trkpt lat="50.9610002" lon="6.8853467">
      <time>2021-02-08T19:07:31Z</time>
    </trkpt>
    <trkpt lat="50.9610564" lon="6.8853282">
      <time>2021-02-08T19:07:33Z</time>
    </trkpt>
    <trkpt lat="50.9612203" lon="6.8852498">
      <time>2021-02-08T19:07:40Z</time>
    </trkpt>
    <trkpt lat="50.9612916" lon="6.8852024">
      <time>2021-02-08T19:07:43Z</time>
    </trkpt>
    <trkpt lat="50.9614166" lon="6.8850848">
      <time>2021-02-08T19:07:49Z</time>
    </trkpt>
    <trkpt lat="50.9615431" lon="6.8849233">
      <time>2021-02-08T19:07:56Z</time>
    </trkpt>
    <trkpt lat="50.9617246" lon="6.8848082">
      <time>2021-02-08T19:08:04Z</time>
    </trkpt>
    <trkpt lat="50.9618647" lon="6.8847505">
      <time>2021-02-08T19:08:10Z</time>
    </trkpt>
    <trkpt lat="50.9619384" lon="6.8846497">
      <time>2021-02-08T19:08:15Z</time>
    </trkpt>
    <trkpt lat="50.9619494" lon="6.8844702">
      <time>2021-02-08T19:08:20Z</time>
    </trkpt>
    <trkpt lat="50.9619685" lon="6.8842924">
      <time>2021-02-08T19:08:25Z</time>
    </trkpt>
    <trkpt lat="50.9619677" lon="6.8842533">
      <time>2021-02-08T19:08:26Z</time>
    </trkpt>
    <trkpt lat="50.9619430" lon="6.8840371">
      <time>2021-02-08T19:08:32Z</time>
    </trkpt>
    <trkpt lat="50.9618921" lon="6.8837548">
      <time>2021-02-08T19:08:40Z</time>
    </trkpt>
    <trkpt lat="50.9618743" lon="6.8836834">
      <time>2021-02-08T19:08:42Z</time>
    </trkpt>
    <trkpt lat="50.9618070" lon="6.8833971">
      <time>2021-02-08T19:08:50Z</time>
    </trkpt>
    <trkpt lat="50.9617860" lon="6.8833304">
      <time>2021-02-08T19:08:52Z</time>
    </trkpt>
    <trkpt lat="50.9617351" lon="6.8831072">
      <time>2021-02-08T19:08:58Z</time>
    </trkpt>
    <trkpt lat="50.9617035" lon="6.8829970">
      <time>2021-02-08T19:09:01Z</time>
    </trkpt>
    <trkpt lat="50.9616410" lon="6.8827474">
      <time>2021-02-08T19:09:08Z</time>
    </trkpt>
    <trkpt lat="50.9615672" lon="6.8824964">
      <time>2021-02-08T19:09:15Z</time>
    </trkpt>
    <trkpt lat="50.9614891" lon="6.8822332">
      <time>2021-02-08T19:09:23Z</time>
    </trkpt>
    <trkpt lat="50.9614788" lon="6.8821977">
      <time>2021-02-08T19:09:24Z</time>
    </trkpt>
    <trkpt lat="50.9614182" lon="6.8819186">
      <time>2021-02-08T19:09:32Z</time>
    </trkpt>
    <trkpt lat="50.9613367" lon="6.8816533">
      <time>2021-02-08T19:09:39Z</time>
    </trkpt>
    <trkpt lat="50.9613167" lon="6.8815754">
      <time>2021-02-08T19:09:41Z</time>
    </trkpt>
    <trkpt lat="50.9612402" lon="6.8813257">
      <time>2021-02-08T19:09:48Z</time>
    </trkpt>
    <trkpt lat="50.9611659" lon="6.8810299">
      <time>2021-02-08T19:09:56Z</time>
    </trkpt>
    <trkpt lat="50.9611442" lon="6.8809549">
      <time>2021-02-08T19:09:58Z</time>
    </trkpt>
    <trkpt lat="50.9610666" lon="6.8806547">
      <time>2021-02-08T19:10:06Z</time>
    </trkpt>
    <trkpt lat="50.9610541" lon="6.8806165">
      <time>2021-02-08T19:10:07Z</time>
    </trkpt>
    <trkpt lat="50.9609716" lon="6.8803239">
      <time>2021-02-08T19:10:15Z</time>
    </trkpt>
    <trkpt lat="50.9609240" lon="6.8801723">
      <time>2021-02-08T19:10:19Z</time>
    </trkpt>
    <trkpt lat="50.9608416" lon="6.8798805">
      <time>2021-02-08T19:10:27Z</time>
    </trkpt>
    <trkpt lat="50.9608303" lon="6.8798451">
      <time>2021-02-08T19:10:28Z</time>
    </trkpt>
    <trkpt lat="50.9607562" lon="6.8795491">
      <time>2021-02-08T19:10:36Z</time>
    </trkpt>
    <trkpt lat="50.9607519" lon="6.8795104">
      <time>2021-02-08T19:10:37Z</time>
    </trkpt>
    <trkpt lat="50.9607145" lon="6.8792003">
      <time>2021-02-08T19:10:45Z</time>
    </trkpt>
    <trkpt lat="50.9607148" lon="6.8791600">
      <time>2021-02-08T19:10:46Z</time>
    </trkpt>
    <trkpt lat="50.9607569" lon="6.8788999">
      <time>2021-02-08T19:10:53Z</time>
    </trkpt>
    <trkpt lat="50.9608355" lon="6.8786570">
      <time>2021-02-08T19:11:00Z</time>
    </trkpt>
    <trkpt lat="50.9609343" lon="6.8784573">
      <time>2021-02-08T19:11:07Z</time>
    </trkpt>
    <trkpt lat="50.9610829" lon="6.8782691">
      <time>2021-02-08T19:11:15Z</time>
    </trkpt>
    <trkpt lat="50.9611230" lon="6.8782332">
      <time>2021-02-08T19:11:17Z</time>
    </trkpt>
    <trkpt lat="50.9612668" lon="6.8782101">
      <time>2021-02-08T19:11:24Z</time>
    </trkpt>
    <trkpt lat="50.9613952" lon="6.8782633">
      <time>2021-02-08T19:11:30Z</time>
    </trkpt>
    <trkpt lat="50.9614192" lon="6.8782722">
      <time>2021-02-08T19:11:31Z</time>
    </trkpt>
    <trkpt lat="50.9616037" lon="6.8783586">
      <time>2021-02-08T19:11:39Z</time>
    </trkpt>
    <trkpt lat="50.9616537" lon="6.8783775">
      <time>2021-02-08T19:11:41Z</time>
    </trkpt>
    <trkpt lat="50.9618235" lon="6.8784248">
      <time>2021-02-08T19:11:48Z</time>
    </trkpt>
    <trkpt lat="50.9620054" lon="6.8784892">
      <time>2021-02-08T19:11:56Z</time>
    </trkpt>
    <trkpt lat="50.9621926" lon="6.8785876">
      <time>2021-02-08T19:12:04Z</time>
    </trkpt>
    <trkpt lat="50.9622225" lon="6.8785940">
      <time>2021-02-08T19:12:05Z</time>
    </trkpt>
    <trkpt lat="50.9623765" lon="6.8786512">
      <time>2021-02-08T19:12:11Z</time>
    </trkpt>
    <trkpt lat="50.9625550" lon="6.8787221">
      <time>2021-02-08T19:12:18Z</time>
    </trkpt>
    <trkpt lat="50.9627237" lon="6.8788312">
      <time>2021-02-08T19:12:25Z</time>
    </trkpt>
    <trkpt lat="50.9627410" lon="6.8788587">
      <time>2021-02-08T19:12:26Z</time>
    </trkpt>
    <trkpt lat="50.9627531" lon="6.8788919">
      <time>2021-02-08T19:12:27Z</time>
    </trkpt>
    <trkpt lat="50.9627519" lon="6.8790067">
      <time>2021-02-08T19:12:30Z</time>
    </trkpt>
    <trkpt lat="50.9627376" lon="6.8793172">
      <time>2021-02-08T19:12:37Z</time>
    </trkpt>
    <trkpt lat="50.9627212" lon="6.8793874">
      <time>2021-02-08T19:12:39Z</time>
    </trkpt>
    <trkpt lat="50.9626730" lon="6.8796874">
      <time>2021-02-08T19:12:47Z</time>
    </trkpt>
    <trkpt lat="50.9626658" lon="6.8797270">
      <time>2021-02-08T19:12:48Z</time>
    </trkpt>
    <trkpt lat="50.9626283" lon="6.8800292">
      <time>2021-02-08T19:12:56Z</time>
    </trkpt>
    <trkpt lat="50.9626227" lon="6.8800726">
      <time>2021-02-08T19:12:57Z</time>
    </trkpt>
    <trkpt lat="50.9625998" lon="6.8802309">
      <time>2021-02-08T19:13:01Z</time>
    </trkpt>
    <trkpt lat="50.9625579" lon="6.8805296">
      <time>2021-02-08T19:13:09Z</time>
    </trkpt>
    <trkpt lat="50.9625409" lon="6.8806742">
      <time>2021-02-08T19:13:13Z</time>
    </trkpt>
    <trkpt lat="50.9625173" lon="6.8808681">
      <time>2021-02-08T19:13:18Z</time>
    </trkpt>
    <trkpt lat="50.9624729" lon="6.8811816">
      <time>2021-02-08T19:13:26Z</time>
    </trkpt>
    <trkpt lat="50.9624670" lon="6.8812227">
      <time>2021-02-08T19:13:27Z</time>
    </trkpt>
    <trkpt lat="50.9624316" lon="6.8815399">
      <time>2021-02-08T19:13:35Z</time>
    </trkpt>
    <trkpt lat="50.9624274" lon="6.8815780">
      <time>2021-02-08T19:13:36Z</time>
    </trkpt>
    <trkpt lat="50.9623817" lon="6.8818782">
      <time>2021-02-08T19:13:44Z</time>
    </trkpt>
    <trkpt lat="50.9623759" lon="6.8819189">
      <time>2021-02-08T19:13:45Z</time>
    </trkpt>
    <trkpt lat="50.9623233" lon="6.8822263">
      <time>2021-02-08T19:13:53Z</time>
    </trkpt>
    <trkpt lat="50.9623196" lon="6.8822624">
      <time>2021-02-08T19:13:54Z</time>
    </trkpt>
    <trkpt lat="50.9622715" lon="6.8825534">
      <time>2021-02-08T19:14:02Z</time>
    </trkpt>
    <trkpt lat="50.9622123" lon="6.8828394">
      <time>2021-02-08T19:14:10Z</time>
    </trkpt>
    <trkpt lat="50.9621672" lon="6.8831292">
      <time>2021-02-08T19:14:18Z</time>
    </trkpt>
    <trkpt lat="50.9621600" lon="6.8832006">
      <time>2021-02-08T19:14:20Z</time>
    </trkpt>
    <trkpt lat="50.9621164" lon="6.8835066">
      <time>2021-02-08T19:14:28Z</time>
    </trkpt>
    <trkpt lat="50.9620692" lon="6.8837636">
      <time>2021-02-08T19:14:35Z</time>
    </trkpt>
    <trkpt lat="50.9620090" lon="6.8839967">
      <time>2021-02-08T19:14:42Z</time>
    </trkpt>
    <trkpt lat="50.9619564" lon="6.8840909">
      <time>2021-02-08T19:14:46Z</time>
    </trkpt>
    <trkpt lat="50.9619476" lon="6.8840720">
      <time>2021-02-08T19:14:47Z</time>
    </trkpt>
    <trkpt lat="50.9619070" lon="6.8838416">
      <time>2021-02-08T19:14:53Z</time>
    </trkpt>
    <trkpt lat="50.9618370" lon="6.8835630">
      <time>2021-02-08T19:15:00Z</time>
    </trkpt>
    <trkpt lat="50.9618107" lon="6.8834480">
      <time>2021-02-08T19:15:03Z</time>
    </trkpt>
    <trkpt lat="50.9617565" lon="6.8831785">
      <time>2021-02-08T19:15:10Z</time>
    </trkpt>
    <trkpt lat="50.9616723" lon="6.8829082">
      <time>2021-02-08T19:15:17Z</time>
    </trkpt>
    <trkpt lat="50.9616555" lon="6.8828657">
      <time>2021-02-08T19:15:18Z</time>
    </trkpt>
    <trkpt lat="50.9615952" lon="6.8826544">
      <time>2021-02-08T19:15:24Z</time>
    </trkpt>
    <trkpt lat="50.9615446" lon="6.8824490">
      <time>2021-02-08T19:15:30Z</time>
    </trkpt>
    <trkpt lat="50.9614701" lon="6.8821644">
      <time>2021-02-08T19:15:38Z</time>
    </trkpt>
    <trkpt lat="50.9614075" lon="6.8818771">
      <time>2021-02-08T19:15:46Z</time>
    </trkpt>
    <trkpt lat="50.9613641" lon="6.8817315">
      <time>2021-02-08T19:15:50Z</time>
    </trkpt>
    <trkpt lat="50.9612923" lon="6.8814635">
      <time>2021-02-08T19:15:58Z</time>
    </trkpt>
    <trkpt lat="50.9612488" lon="6.8812956">
      <time>2021-02-08T19:16:03Z</time>
    </trkpt>
    <trkpt lat="50.9611720" lon="6.8810115">
      <time>2021-02-08T19:16:11Z</time>
    </trkpt>
    <trkpt lat="50.9611611" lon="6.8809730">
      <time>2021-02-08T19:16:12Z</time>
    </trkpt>
    <trkpt lat="50.9610836" lon="6.8806915">
      <time>2021-02-08T19:16:20Z</time>
    </trkpt>
    <trkpt lat="50.9610499" lon="6.8805487">
      <time>2021-02-08T19:16:24Z</time>
    </trkpt>
    <trkpt lat="50.9609775" lon="6.8802694">
      <time>2021-02-08T19:16:32Z</time>
    </trkpt>
    <trkpt lat="50.9608960" lon="6.8799782">
      <time>2021-02-08T19:16:40Z</time>
    </trkpt>
    <trkpt lat="50.9608752" lon="6.8799041">
      <time>2021-02-08T19:16:42Z</time>
    </trkpt>
    <trkpt lat="50.9607991" lon="6.8796099">
      <time>2021-02-08T19:16:50Z</time>
    </trkpt>
    <trkpt lat="50.9607874" lon="6.8795699">
      <time>2021-02-08T19:16:51Z</time>
    </trkpt>
    <trkpt lat="50.9607429" lon="6.8792565">
      <time>2021-02-08T19:16:59Z</time>
    </trkpt>
    <trkpt lat="50.9607619" lon="6.8790377">
      <time>2021-02-08T19:17:05Z</time>
    </trkpt>
    <trkpt lat="50.9608360" lon="6.8787661">
      <time>2021-02-08T19:17:13Z</time>
    </trkpt>
    <trkpt lat="50.9609087" lon="6.8785640">
      <time>2021-02-08T19:17:19Z</time>
    </trkpt>
    <trkpt lat="50.9609565" lon="6.8784589">
      <time>2021-02-08T19:17:23Z</time>
    </trkpt>
    <trkpt lat="50.9610230" lon="6.8783602">
      <time>2021-02-08T19:17:27Z</time>
    </trkpt>
    <trkpt lat="50.9611266" lon="6.8782462">
      <time>2021-02-08T19:17:32Z</time>
    </trkpt>
    <trkpt lat="50.9612656" lon="6.8782424">
      <time>2021-02-08T19:17:38Z</time>
    </trkpt>
    <trkpt lat="50.9614374" lon="6.8783337">
      <time>2021-02-08T19:17:45Z</time>
    </trkpt>
    <trkpt lat="50.9616134" lon="6.8784266">
      <time>2021-02-08T19:17:53Z</time>
    </trkpt>
    <trkpt lat="50.9616427" lon="6.8784433">
      <time>2021-02-08T19:17:54Z</time>
    </trkpt>
    <trkpt lat="50.9618392" lon="6.8784984">
      <time>2021-02-08T19:18:01Z</time>
    </trkpt>
    <trkpt lat="50.9618602" lon="6.8785035">
      <time>2021-02-08T19:18:02Z</time>
    </trkpt>
    <trkpt lat="50.9620409" lon="6.8785519">
      <time>2021-02-08T19:18:09Z</time>
    </trkpt>
    <trkpt lat="50.9622191" lon="6.8786390">
      <time>2021-02-08T19:18:18Z</time>
    </trkpt>
    <trkpt lat="50.9624088" lon="6.8787237">
      <time>2021-02-08T19:18:26Z</time>
    </trkpt>
    <trkpt lat="50.9624335" lon="6.8787310">
      <time>2021-02-08T19:18:27Z</time>
    </trkpt>
    <trkpt lat="50.9626098" lon="6.8788210">
      <time>2021-02-08T19:18:34Z</time>
    </trkpt>
    <trkpt lat="50.9627895" lon="6.8789251">
      <time>2021-02-08T19:18:41Z</time>
    </trkpt>
    <trkpt lat="50.9628116" lon="6.8789465">
      <time>2021-02-08T19:18:42Z</time>
    </trkpt>
    <trkpt lat="50.9628282" lon="6.8790047">
      <time>2021-02-08T19:18:44Z</time>
    </trkpt>
    <trkpt lat="50.9628234" lon="6.8790890">
      <time>2021-02-08T19:18:46Z</time>
    </trkpt>
    <trkpt lat="50.9627718" lon="6.8793825">
      <time>2021-02-08T19:18:53Z</time>
    </trkpt>
    <trkpt lat="50.9627537" lon="6.8794610">
      <time>2021-02-08T19:18:55Z</time>
    </trkpt>
    <trkpt lat="50.9627068" lon="6.8796964">
      <time>2021-02-08T19:19:01Z</time>
    </trkpt>
    <trkpt lat="50.9626939" lon="6.8797767">
      <time>2021-02-08T19:19:03Z</time>
    </trkpt>
    <trkpt lat="50.9626504" lon="6.8800913">
      <time>2021-02-08T19:19:11Z</time>
    </trkpt>
    <trkpt lat="50.9626466" lon="6.8801322">
      <time>2021-02-08T19:19:12Z</time>
    </trkpt>
    <trkpt lat="50.9626119" lon="6.8803619">
      <time>2021-02-08T19:19:18Z</time>
    </trkpt>
    <trkpt lat="50.9625775" lon="6.8805643">
      <time>2021-02-08T19:19:23Z</time>
    </trkpt>
    <trkpt lat="50.9625366" lon="6.8808482">
      <time>2021-02-08T19:19:30Z</time>
    </trkpt>
    <trkpt lat="50.9625196" lon="6.8809682">
      <time>2021-02-08T19:19:33Z</time>
    </trkpt>
    <trkpt lat="50.9624711" lon="6.8812575">
      <time>2021-02-08T19:19:40Z</time>
    </trkpt>
    <trkpt lat="50.9624485" lon="6.8813782">
      <time>2021-02-08T19:19:43Z</time>
    </trkpt>
    <trkpt lat="50.9623936" lon="6.8816583">
      <time>2021-02-08T19:19:50Z</time>
    </trkpt>
    <trkpt lat="50.9623759" lon="6.8817335">
      <time>2021-02-08T19:19:52Z</time>
    </trkpt>
    <trkpt lat="50.9623569" lon="6.8820089">
      <time>2021-02-08T19:19:59Z</time>
    </trkpt>
    <trkpt lat="50.9623251" lon="6.8822913">
      <time>2021-02-08T19:20:06Z</time>
    </trkpt>
    <trkpt lat="50.9623142" lon="6.8823747">
      <time>2021-02-08T19:20:08Z</time>
    </trkpt>
    <trkpt lat="50.9622667" lon="6.8826563">
      <time>2021-02-08T19:20:15Z</time>
    </trkpt>
    <trkpt lat="50.9622569" lon="6.8827373">
      <time>2021-02-08T19:20:17Z</time>
    </trkpt>
    <trkpt lat="50.9622032" lon="6.8830098">
      <time>2021-02-08T19:20:24Z</time>
    </trkpt>
    <trkpt lat="50.9621601" lon="6.8833118">
      <time>2021-02-08T19:20:32Z</time>
    </trkpt>
    <trkpt lat="50.9621079" lon="6.8836161">
      <time>2021-02-08T19:20:40Z</time>
    </trkpt>
    <trkpt lat="50.9620900" lon="6.8838521">
      <time>2021-02-08T19:20:46Z</time>
    </trkpt>
    <trkpt lat="50.9620581" lon="6.8840610">
      <time>2021-02-08T19:20:52Z</time>
    </trkpt>
    <trkpt lat="50.9620425" lon="6.8841770">
      <time>2021-02-08T19:20:55Z</time>
    </trkpt>
    <trkpt lat="50.9620018" lon="6.8841945">
      <time>2021-02-08T19:20:57Z</time>
    </trkpt>
    <trkpt lat="50.9619727" lon="6.8840969">
      <time>2021-02-08T19:21:00Z</time>
    </trkpt>
    <trkpt lat="50.9618900" lon="6.8838158">
      <time>2021-02-08T19:21:07Z</time>
    </trkpt>
    <trkpt lat="50.9618736" lon="6.8837593">
      <time>2021-02-08T19:21:08Z</time>
    </trkpt>
    <trkpt lat="50.9617978" lon="6.8834643">
      <time>2021-02-08T19:21:15Z</time>
    </trkpt>
    <trkpt lat="50.9617913" lon="6.8834236">
      <time>2021-02-08T19:21:16Z</time>
    </trkpt>
    <trkpt lat="50.9617521" lon="6.8832398">
      <time>2021-02-08T19:21:21Z</time>
    </trkpt>
    <trkpt lat="50.9616807" lon="6.8829301">
      <time>2021-02-08T19:21:29Z</time>
    </trkpt>
    <trkpt lat="50.9616733" lon="6.8828869">
      <time>2021-02-08T19:21:30Z</time>
    </trkpt>
    <trkpt lat="50.9616099" lon="6.8826647">
      <time>2021-02-08T19:21:36Z</time>
    </trkpt>
    <trkpt lat="50.9615382" lon="6.8824033">
      <time>2021-02-08T19:21:43Z</time>
    </trkpt>
    <trkpt lat="50.9615308" lon="6.8823678">
      <time>2021-02-08T19:21:44Z</time>
    </trkpt>
    <trkpt lat="50.9614552" lon="6.8820860">
      <time>2021-02-08T19:21:51Z</time>
    </trkpt>
    <trkpt lat="50.9614323" lon="6.8820135">
      <time>2021-02-08T19:21:53Z</time>
    </trkpt>
    <trkpt lat="50.9613649" lon="6.8817437">
      <time>2021-02-08T19:22:00Z</time>
    </trkpt>
    <trkpt lat="50.9613484" lon="6.8816740">
      <time>2021-02-08T19:22:02Z</time>
    </trkpt>
    <trkpt lat="50.9612657" lon="6.8813917">
      <time>2021-02-08T19:22:10Z</time>
    </trkpt>
    <trkpt lat="50.9612620" lon="6.8813634">
      <time>2021-02-08T19:22:11Z</time>
    </trkpt>
    <trkpt lat="50.9611881" lon="6.8810857">
      <time>2021-02-08T19:22:19Z</time>
    </trkpt>
    <trkpt lat="50.9611758" lon="6.8810491">
      <time>2021-02-08T19:22:20Z</time>
    </trkpt>
    <trkpt lat="50.9610990" lon="6.8807595">
      <time>2021-02-08T19:22:28Z</time>
    </trkpt>
    <trkpt lat="50.9610440" lon="6.8805441">
      <time>2021-02-08T19:22:34Z</time>
    </trkpt>
    <trkpt lat="50.9610014" lon="6.8803453">
      <time>2021-02-08T19:22:39Z</time>
    </trkpt>
    <trkpt lat="50.9609273" lon="6.8800768">
      <time>2021-02-08T19:22:46Z</time>
    </trkpt>
    <trkpt lat="50.9608966" lon="6.8799934">
      <time>2021-02-08T19:22:48Z</time>
    </trkpt>
    <trkpt lat="50.9608235" lon="6.8797329">
      <time>2021-02-08T19:22:55Z</time>
    </trkpt>
    <trkpt lat="50.9607901" lon="6.8796281">
      <time>2021-02-08T19:22:58Z</time>
    </trkpt>
    <trkpt lat="50.9607336" lon="6.8793283">
      <time>2021-02-08T19:23:05Z</time>
    </trkpt>
    <trkpt lat="50.9607528" lon="6.8790059">
      <time>2021-02-08T19:23:13Z</time>
    </trkpt>
    <trkpt lat="50.9608267" lon="6.8788312">
      <time>2021-02-08T19:23:19Z</time>
    </trkpt>
    <trkpt lat="50.9608810" lon="6.8786372">
      <time>2021-02-08T19:23:25Z</time>
    </trkpt>
    <trkpt lat="50.9609949" lon="6.8784807">
      <time>2021-02-08T19:23:31Z</time>
    </trkpt>
    <trkpt lat="50.9611384" lon="6.8782984">
      <time>2021-02-08T19:23:39Z</time>
    </trkpt>
    <trkpt lat="50.9611851" lon="6.8782715">
      <time>2021-02-08T19:23:41Z</time>
    </trkpt>
    <trkpt lat="50.9613776" lon="6.8783301">
      <time>2021-02-08T19:23:48Z</time>
    </trkpt>
    <trkpt lat="50.9615506" lon="6.8784054">
      <time>2021-02-08T19:23:55Z</time>
    </trkpt>
    <trkpt lat="50.9615749" lon="6.8784161">
      <time>2021-02-08T19:23:56Z</time>
    </trkpt>
    <trkpt lat="50.9617506" lon="6.8784756">
      <time>2021-02-08T19:24:04Z</time>
    </trkpt>
    <trkpt lat="50.9618456" lon="6.8785249">
      <time>2021-02-08T19:24:08Z</time>
    </trkpt>
    <trkpt lat="50.9619321" lon="6.8785738">
      <time>2021-02-08T19:24:11Z</time>
    </trkpt>
    <trkpt lat="50.9621118" lon="6.8786352">
      <time>2021-02-08T19:24:18Z</time>
    </trkpt>
    <trkpt lat="50.9621661" lon="6.8786552">
      <time>2021-02-08T19:24:20Z</time>
    </trkpt>
    <trkpt lat="50.9623354" lon="6.8787322">
      <time>2021-02-08T19:24:27Z</time>
    </trkpt>
    <trkpt lat="50.9625322" lon="6.8788142">
      <time>2021-02-08T19:24:35Z</time>
    </trkpt>
    <trkpt lat="50.9625557" lon="6.8788240">
      <time>2021-02-08T19:24:36Z</time>
    </trkpt>
    <trkpt lat="50.9626886" lon="6.8788750">
      <time>2021-02-08T19:24:42Z</time>
    </trkpt>
    <trkpt lat="50.9627347" lon="6.8788958">
      <time>2021-02-08T19:24:44Z</time>
    </trkpt>
    <trkpt lat="50.9628131" lon="6.8789798">
      <time>2021-02-08T19:24:48Z</time>
    </trkpt>
    <trkpt lat="50.9628242" lon="6.8790562">
      <time>2021-02-08T19:24:50Z</time>
    </trkpt>
    <trkpt lat="50.9627812" lon="6.8793502">
      <time>2021-02-08T19:24:57Z</time>
    </trkpt>
    <trkpt lat="50.9627245" lon="6.8796255">
      <time>2021-02-08T19:25:04Z</time>
    </trkpt>
    <trkpt lat="50.9626873" lon="6.8798619">
      <time>2021-02-08T19:25:10Z</time>
    </trkpt>
    <trkpt lat="50.9626770" lon="6.8799454">
      <time>2021-02-08T19:25:12Z</time>
    </trkpt>
    <trkpt lat="50.9626454" lon="6.8802408">
      <time>2021-02-08T19:25:19Z</time>
    </trkpt>
    <trkpt lat="50.9626304" lon="6.8803632">
      <time>2021-02-08T19:25:22Z</time>
    </trkpt>
    <trkpt lat="50.9625901" lon="6.8806819">
      <time>2021-02-08T19:25:30Z</time>
    </trkpt>
    <trkpt lat="50.9625648" lon="6.8808269">
      <time>2021-02-08T19:25:34Z</time>
    </trkpt>
    <trkpt lat="50.9625203" lon="6.8811118">
      <time>2021-02-08T19:25:41Z</time>
    </trkpt>
    <trkpt lat="50.9624984" lon="6.8812280">
      <time>2021-02-08T19:25:44Z</time>
    </trkpt>
    <trkpt lat="50.9624515" lon="6.8815422">
      <time>2021-02-08T19:25:52Z</time>
    </trkpt>
    <trkpt lat="50.9624111" lon="6.8818159">
      <time>2021-02-08T19:25:59Z</time>
    </trkpt>
    <trkpt lat="50.9623683" lon="6.8821155">
      <time>2021-02-08T19:26:07Z</time>
    </trkpt>
    <trkpt lat="50.9623148" lon="6.8824221">
      <time>2021-02-08T19:26:15Z</time>
    </trkpt>
    <trkpt lat="50.9622579" lon="6.8826948">
      <time>2021-02-08T19:26:22Z</time>
    </trkpt>
    <trkpt lat="50.9622529" lon="6.8827373">
      <time>2021-02-08T19:26:23Z</time>
    </trkpt>
    <trkpt lat="50.9622074" lon="6.8829968">
      <time>2021-02-08T19:26:30Z</time>
    </trkpt>
    <trkpt lat="50.9621676" lon="6.8832804">
      <time>2021-02-08T19:26:37Z</time>
    </trkpt>
    <trkpt lat="50.9621625" lon="6.8834091">
      <time>2021-02-08T19:26:40Z</time>
    </trkpt>
    <trkpt lat="50.9621232" lon="6.8837081">
      <time>2021-02-08T19:26:48Z</time>
    </trkpt>
    <trkpt lat="50.9620647" lon="6.8839831">
      <time>2021-02-08T19:26:56Z</time>
    </trkpt>
    <trkpt lat="50.9620241" lon="6.8841665">
      <time>2021-02-08T19:27:02Z</time>
    </trkpt>
    <trkpt lat="50.9620127" lon="6.8841717">
      <time>2021-02-08T19:27:03Z</time>
    </trkpt>
    <trkpt lat="50.9619729" lon="6.8840565">
      <time>2021-02-08T19:27:07Z</time>
    </trkpt>
    <trkpt lat="50.9619089" lon="6.8837815">
      <time>2021-02-08T19:27:14Z</time>
    </trkpt>
    <trkpt lat="50.9618662" lon="6.8836205">
      <time>2021-02-08T19:27:18Z</time>
    </trkpt>
    <trkpt lat="50.9618004" lon="6.8833597">
      <time>2021-02-08T19:27:25Z</time>
    </trkpt>
    <trkpt lat="50.9617255" lon="6.8830577">
      <time>2021-02-08T19:27:33Z</time>
    </trkpt>
    <trkpt lat="50.9617140" lon="6.8830204">
      <time>2021-02-08T19:27:34Z</time>
    </trkpt>
    <trkpt lat="50.9616371" lon="6.8827206">
      <time>2021-02-08T19:27:42Z</time>
    </trkpt>
    <trkpt lat="50.9616057" lon="6.8826116">
      <time>2021-02-08T19:27:45Z</time>
    </trkpt>
    <trkpt lat="50.9615328" lon="6.8823282">
      <time>2021-02-08T19:27:53Z</time>
    </trkpt>
    <trkpt lat="50.9614981" lon="6.8821780">
      <time>2021-02-08T19:27:57Z</time>
    </trkpt>
    <trkpt lat="50.9614234" lon="6.8818877">
      <time>2021-02-08T19:28:05Z</time>
    </trkpt>
    <trkpt lat="50.9614133" lon="6.8818501">
      <time>2021-02-08T19:28:06Z</time>
    </trkpt>
    <trkpt lat="50.9613349" lon="6.8815814">
      <time>2021-02-08T19:28:13Z</time>
    </trkpt>
    <trkpt lat="50.9613206" lon="6.8815456">
      <time>2021-02-08T19:28:14Z</time>
    </trkpt>
    <trkpt lat="50.9612623" lon="6.8812901">
      <time>2021-02-08T19:28:21Z</time>
    </trkpt>
    <trkpt lat="50.9611825" lon="6.8809937">
      <time>2021-02-08T19:28:29Z</time>
    </trkpt>
    <trkpt lat="50.9611064" lon="6.8806986">
      <time>2021-02-08T19:28:37Z</time>
    </trkpt>
    <trkpt lat="50.9610734" lon="6.8805904">
      <time>2021-02-08T19:28:40Z</time>
    </trkpt>
    <trkpt lat="50.9610036" lon="6.8803352">
      <time>2021-02-08T19:28:47Z</time>
    </trkpt>
    <trkpt lat="50.9609212" lon="6.8800806">
      <time>2021-02-08T19:28:54Z</time>
    </trkpt>
    <trkpt lat="50.9609115" lon="6.8800456">
      <time>2021-02-08T19:28:55Z</time>
    </trkpt>
    <trkpt lat="50.9608220" lon="6.8797560">
      <time>2021-02-08T19:29:03Z</time>
    </trkpt>
    <trkpt lat="50.9607470" lon="6.8794504">
      <time>2021-02-08T19:29:11Z</time>
    </trkpt>
    <trkpt lat="50.9607431" lon="6.8794094">
      <time>2021-02-08T19:29:12Z</time>
    </trkpt>
    <trkpt lat="50.9607356" lon="6.8791795">
      <time>2021-02-08T19:29:18Z</time>
    </trkpt>
    <trkpt lat="50.9607883" lon="6.8789707">
      <time>2021-02-08T19:29:24Z</time>
    </trkpt>
    <trkpt lat="50.9608745" lon="6.8786823">
      <time>2021-02-08T19:29:32Z</time>
    </trkpt>
    <trkpt lat="50.9608925" lon="6.8786584">
      <time>2021-02-08T19:29:33Z</time>
    </trkpt>
    <trkpt lat="50.9610278" lon="6.8784640">
      <time>2021-02-08T19:29:41Z</time>
    </trkpt>
    <trkpt lat="50.9610438" lon="6.8784410">
      <time>2021-02-08T19:29:42Z</time>
    </trkpt>
    <trkpt lat="50.9611062" lon="6.8783364">
      <time>2021-02-08T19:29:46Z</time>
    </trkpt>
    <trkpt lat="50.9611104" lon="6.8783088">
      <time>2021-02-08T19:29:47Z</time>
    </trkpt>
    <trkpt lat="50.9610496" lon="6.8780483">
      <time>2021-02-08T19:29:55Z</time>
    </trkpt>
    <trkpt lat="50.9609963" lon="6.8778924">
      <time>2021-02-08T19:30:00Z</time>
    </trkpt>
    <trkpt lat="50.9609648" lon="6.8778374">
      <time>2021-02-08T19:30:03Z</time>
    </trkpt>
    <trkpt lat="50.9609183" lon="6.8778514">
      <time>2021-02-08T19:30:05Z</time>
    </trkpt>
    <trkpt lat="50.9608101" lon="6.8779661">
      <time>2021-02-08T19:30:10Z</time>
    </trkpt>
    <trkpt lat="50.9606671" lon="6.8781852">
      <time>2021-02-08T19:30:18Z</time>
    </trkpt>
    <trkpt lat="50.9605298" lon="6.8784093">
      <time>2021-02-08T19:30:26Z</time>
    </trkpt>
    <trkpt lat="50.9603924" lon="6.8785985">
      <time>2021-02-08T19:30:33Z</time>
    </trkpt>
    <trkpt lat="50.9603698" lon="6.8786098">
      <time>2021-02-08T19:30:34Z</time>
    </trkpt>
    <trkpt lat="50.9603343" lon="6.8786160">
      <time>2021-02-08T19:30:36Z</time>
    </trkpt>
    <trkpt lat="50.9602583" lon="6.8785632">
      <time>2021-02-08T19:30:39Z</time>
    </trkpt>
    <trkpt lat="50.9601106" lon="6.8783333">
      <time>2021-02-08T19:30:47Z</time>
    </trkpt>
    <trkpt lat="50.9599656" lon="6.8781872">
      <time>2021-02-08T19:30:53Z</time>
    </trkpt>
    <trkpt lat="50.9598364" lon="6.8779830">
      <time>2021-02-08T19:31:00Z</time>
    </trkpt>
    <trkpt lat="50.9598409" lon="6.8777744">
      <time>2021-02-08T19:31:05Z</time>
    </trkpt>
    <trkpt lat="50.9598589" lon="6.8775156">
      <time>2021-02-08T19:31:11Z</time>
    </trkpt>
    <trkpt lat="50.9598930" lon="6.8774573">
      <time>2021-02-08T19:31:13Z</time>
    </trkpt>
    <trkpt lat="50.9599461" lon="6.8774524">
      <time>2021-02-08T19:31:15Z</time>
    </trkpt>
    <trkpt lat="50.9601158" lon="6.8775776">
      <time>2021-02-08T19:31:21Z</time>
    </trkpt>
    <trkpt lat="50.9602755" lon="6.8776922">
      <time>2021-02-08T19:31:28Z</time>
    </trkpt>
    <trkpt lat="50.9604068" lon="6.8776657">
      <time>2021-02-08T19:31:34Z</time>
    </trkpt>
    <trkpt lat="50.9605784" lon="6.8775591">
      <time>2021-02-08T19:31:42Z</time>
    </trkpt>
    <trkpt lat="50.9605992" lon="6.8775495">
      <time>2021-02-08T19:31:43Z</time>
    </trkpt>
    <trkpt lat="50.9607555" lon="6.8774769">
      <time>2021-02-08T19:31:50Z</time>
    </trkpt>
    <trkpt lat="50.9609275" lon="6.8774263">
      <time>2021-02-08T19:31:57Z</time>
    </trkpt>
    <trkpt lat="50.9610849" lon="6.8773646">
      <time>2021-02-08T19:32:03Z</time>
    </trkpt>
    <trkpt lat="50.9612169" lon="6.8772775">
      <time>2021-02-08T19:32:09Z</time>
    </trkpt>
    <trkpt lat="50.9613632" lon="6.8771703">
      <time>2021-02-08T19:32:16Z</time>
    </trkpt>
    <trkpt lat="50.9615522" lon="6.8770763">
      <time>2021-02-08T19:32:24Z</time>
    </trkpt>
    <trkpt lat="50.9615801" lon="6.8770672">
      <time>2021-02-08T19:32:25Z</time>
    </trkpt>
    <trkpt lat="50.9617659" lon="6.8769543">
      <time>2021-02-08T19:32:33Z</time>
    </trkpt>
    <trkpt lat="50.9618181" lon="6.8769263">
      <time>2021-02-08T19:32:35Z</time>
    </trkpt>
    <trkpt lat="50.9619917" lon="6.8768448">
      <time>2021-02-08T19:32:42Z</time>
    </trkpt>
    <trkpt lat="50.9620269" lon="6.8767930">
      <time>2021-02-08T19:32:44Z</time>
    </trkpt>
    <trkpt lat="50.9620498" lon="6.8766388">
      <time>2021-02-08T19:32:48Z</time>
    </trkpt>
    <trkpt lat="50.9620444" lon="6.8765923">
      <time>2021-02-08T19:32:49Z</time>
    </trkpt>
    <trkpt lat="50.9620583" lon="6.8763746">
      <time>2021-02-08T19:32:55Z</time>
    </trkpt>
    <trkpt lat="50.9621495" lon="6.8762674">
      <time>2021-02-08T19:33:00Z</time>
    </trkpt>
    <trkpt lat="50.9622115" lon="6.8762922">
      <time>2021-02-08T19:33:03Z</time>
    </trkpt>
    <trkpt lat="50.9622324" lon="6.8763015">
      <time>2021-02-08T19:33:04Z</time>
    </trkpt>
    <trkpt lat="50.9623205" lon="6.8763250">
      <time>2021-02-08T19:33:08Z</time>
    </trkpt>
    <trkpt lat="50.9623387" lon="6.8763249">
      <time>2021-02-08T19:33:09Z</time>
    </trkpt>
    <trkpt lat="50.9624780" lon="6.8763542">
      <time>2021-02-08T19:33:15Z</time>
    </trkpt>
    <trkpt lat="50.9626661" lon="6.8763746">
      <time>2021-02-08T19:33:22Z</time>
    </trkpt>
    <trkpt lat="50.9627221" lon="6.8763538">
      <time>2021-02-08T19:33:24Z</time>
    </trkpt>
    <trkpt lat="50.9628234" lon="6.8762307">
      <time>2021-02-08T19:33:29Z</time>
    </trkpt>
    <trkpt lat="50.9629107" lon="6.8762095">
      <time>2021-02-08T19:33:33Z</time>
    </trkpt>
    <trkpt lat="50.9629401" lon="6.8762194">
      <time>2021-02-08T19:33:34Z</time>
    </trkpt>
    <trkpt lat="50.9631313" lon="6.8762236">
      <time>2021-02-08T19:33:41Z</time>
    </trkpt>
    <trkpt lat="50.9631509" lon="6.8762154">
      <time>2021-02-08T19:33:42Z</time>
    </trkpt>
    <trkpt lat="50.9631556" lon="6.8761894">
      <time>2021-02-08T19:33:43Z</time>
    </trkpt>
    <trkpt lat="50.9631517" lon="6.8761157">
      <time>2021-02-08T19:33:45Z</time>
    </trkpt>
    <trkpt lat="50.9632315" lon="6.8760188">
      <time>2021-02-08T19:33:50Z</time>
    </trkpt>
    <trkpt lat="50.9633903" lon="6.8758960">
      <time>2021-02-08T19:33:57Z</time>
    </trkpt>
    <trkpt lat="50.9634755" lon="6.8758951">
      <time>2021-02-08T19:34:02Z</time>
    </trkpt>
    <trkpt lat="50.9634821" lon="6.8758867">
      <time>2021-02-08T19:34:03Z</time>
    </trkpt>
  </trkseg></trk>
</gpx>
