<?xml version="1.0" encoding="UTF-8"?>
<gpx version="1.1" creator="Diary FIT converter" xmlns="http://www.topografix.com/GPX/1/1">
  <trk><name>Cycling</name><trkseg>
    <trkpt lat="50.9608230" lon="6.8935016">
      <ele>44.8</ele>
      <time>2019-08-24T18:06:57Z</time>
    </trkpt>
    <trkpt lat="50.9607565" lon="6.8936904">
      <ele>44.8</ele>
      <time>2019-08-24T18:06:59Z</time>
    </trkpt>
    <trkpt lat="50.9605358" lon="6.8940597">
      <ele>47.8</ele>
      <time>2019-08-24T18:07:04Z</time>
    </trkpt>
    <trkpt lat="50.9602294" lon="6.8946303">
      <ele>48.2</ele>
      <time>2019-08-24T18:07:11Z</time>
    </trkpt>
    <trkpt lat="50.9601812" lon="6.8947188">
      <ele>47.8</ele>
      <time>2019-08-24T18:07:12Z</time>
    </trkpt>
    <trkpt lat="50.9601340" lon="6.8948043">
      <ele>47.4</ele>
      <time>2019-08-24T18:07:13Z</time>
    </trkpt>
    <trkpt lat="50.9600373" lon="6.8949783">
      <ele>47.6</ele>
      <time>2019-08-24T18:07:15Z</time>
    </trkpt>
    <trkpt lat="50.9599475" lon="6.8951566">
      <ele>47.4</ele>
      <time>2019-08-24T18:07:17Z</time>
    </trkpt>
    <trkpt lat="50.9595931" lon="6.8958766">
      <ele>45.4</ele>
      <time>2019-08-24T18:07:25Z</time>
    </trkpt>
    <trkpt lat="50.9595573" lon="6.8959667">
      <ele>45.2</ele>
      <time>2019-08-24T18:07:26Z</time>
    </trkpt>
    <trkpt lat="50.9593276" lon="6.8964982">
      <ele>45.2</ele>
      <time>2019-08-24T18:07:32Z</time>
    </trkpt>
    <trkpt lat="50.9592420" lon="6.8966691">
      <ele>45.2</ele>
      <time>2019-08-24T18:07:34Z</time>
    </trkpt>
    <trkpt lat="50.9592057" lon="6.8967526">
      <ele>45.0</ele>
      <time>2019-08-24T18:07:35Z</time>
    </trkpt>
    <trkpt lat="50.9591759" lon="6.8968404">
      <ele>44.8</ele>
      <time>2019-08-24T18:07:36Z</time>
    </trkpt>
    <trkpt lat="50.9590731" lon="6.8971054">
      <ele>45.2</ele>
      <time>2019-08-24T18:07:39Z</time>
    </trkpt>
    <trkpt lat="50.9589924" lon="6.8972692">
      <ele>45.4</ele>
      <time>2019-08-24T18:07:41Z</time>
    </trkpt>
    <trkpt lat="50.9588830" lon="6.8975045">
      <ele>44.8</ele>
      <time>2019-08-24T18:07:44Z</time>
    </trkpt>
    <trkpt lat="50.9588108" lon="6.8976605">
      <ele>44.2</ele>
      <time>2019-08-24T18:07:46Z</time>
    </trkpt>
    <trkpt lat="50.9586946" lon="6.8979261">
      <ele>43.8</ele>
      <time>2019-08-24T18:07:49Z</time>
    </trkpt>
    <trkpt lat="50.9585241" lon="6.8982873">
      <ele>43.8</ele>
      <time>2019-08-24T18:07:53Z</time>
    </trkpt>
    <trkpt lat="50.9583926" lon="6.8985596">
      <ele>43.6</ele>
      <time>2019-08-24T18:07:55Z</time>
    </trkpt>
    <trkpt lat="50.9582869" lon="6.8987449">
      <ele>40.0</ele>
      <time>2019-08-24T18:07:58Z</time>
    </trkpt>
    <trkpt lat="50.9581142" lon="6.8990964">
      <ele>37.4</ele>
      <time>2019-08-24T18:08:02Z</time>
    </trkpt>
    <trkpt lat="50.9580694" lon="6.8991744">
      <ele>37.0</ele>
      <time>2019-08-24T18:08:03Z</time>
    </trkpt>
    <trkpt lat="50.9580240" lon="6.8992437">
      <ele>36.6</ele>
      <time>2019-08-24T18:08:04Z</time>
    </trkpt>
    <trkpt lat="50.9579555" lon="6.8993836">
      <ele>36.0</ele>
      <time>2019-08-24T18:08:06Z</time>
    </trkpt>
    <trkpt lat="50.9578716" lon="6.8996031">
      <ele>35.4</ele>
      <time>2019-08-24T18:08:09Z</time>
    </trkpt>
    <trkpt lat="50.9578004" lon="6.8998654">
      <ele>35.2</ele>
      <time>2019-08-24T18:08:12Z</time>
    </trkpt>
    <trkpt lat="50.9576888" lon="6.9001566">
      <ele>35.2</ele>
      <time>2019-08-24T18:08:15Z</time>
    </trkpt>
    <trkpt lat="50.9575951" lon="6.9004751">
      <ele>35.6</ele>
      <time>2019-08-24T18:08:18Z</time>
    </trkpt>
    <trkpt lat="50.9574991" lon="6.9007963">
      <ele>36.0</ele>
      <time>2019-08-24T18:08:21Z</time>
    </trkpt>
    <trkpt lat="50.9573966" lon="6.9010667">
      <ele>36.2</ele>
      <time>2019-08-24T18:08:24Z</time>
    </trkpt>
    <trkpt lat="50.9573298" lon="6.9011904">
      <ele>37.0</ele>
      <time>2019-08-24T18:08:27Z</time>
    </trkpt>
    <trkpt lat="50.9573369" lon="6.9011547">
      <ele>38.0</ele>
      <time>2019-08-24T18:08:29Z</time>
    </trkpt>
    <trkpt lat="50.9573499" lon="6.9010707">
      <ele>38.6</ele>
      <time>2019-08-24T18:08:32Z</time>
    </trkpt>
    <trkpt lat="50.9574358" lon="6.9008570">
      <ele>41.0</ele>
      <time>2019-08-24T18:08:40Z</time>
    </trkpt>
    <trkpt lat="50.9574522" lon="6.9008528">
      <ele>41.4</ele>
      <time>2019-08-24T18:08:42Z</time>
    </trkpt>
    <trkpt lat="50.9574962" lon="6.9008760">
      <ele>41.4</ele>
      <time>2019-08-24T18:08:46Z</time>
    </trkpt>
    <trkpt lat="50.9575016" lon="6.9008839">
      <ele>41.4</ele>
      <time>2019-08-24T18:08:47Z</time>
    </trkpt>
    <trkpt lat="50.9575065" lon="6.9008895">
      <ele>41.4</ele>
      <time>2019-08-24T18:08:48Z</time>
    </trkpt>
    <trkpt lat="50.9575107" lon="6.9008880">
      <ele>42.2</ele>
      <time>2019-08-24T18:08:53Z</time>
    </trkpt>
    <trkpt lat="50.9573551" lon="6.9008275">
      <ele>45.8</ele>
      <time>2019-08-24T18:13:04Z</time>
    </trkpt>
    <trkpt lat="50.9573409" lon="6.9008729">
      <ele>45.6</ele>
      <time>2019-08-24T18:13:05Z</time>
    </trkpt>
    <trkpt lat="50.9572425" lon="6.9012436">
      <ele>41.6</ele>
      <time>2019-08-24T18:13:10Z</time>
    </trkpt>
    <trkpt lat="50.9572004" lon="6.9014580">
      <ele>41.6</ele>
      <time>2019-08-24T18:13:12Z</time>
    </trkpt>
    <trkpt lat="50.9569133" lon="6.9022119">
      <ele>41.0</ele>
      <time>2019-08-24T18:13:20Z</time>
    </trkpt>
    <trkpt lat="50.9566904" lon="6.9028656">
      <ele>41.4</ele>
      <time>2019-08-24T18:13:33Z</time>
    </trkpt>
    <trkpt lat="50.9566804" lon="6.9029550">
      <ele>41.6</ele>
      <time>2019-08-24T18:13:56Z</time>
    </trkpt>
    <trkpt lat="50.9564261" lon="6.9038359">
      <ele>40.6</ele>
      <time>2019-08-24T18:14:06Z</time>
    </trkpt>
    <trkpt lat="50.9562922" lon="6.9042736">
      <ele>40.0</ele>
      <time>2019-08-24T18:14:10Z</time>
    </trkpt>
    <trkpt lat="50.9560777" lon="6.9050874">
      <ele>40.2</ele>
      <time>2019-08-24T18:14:17Z</time>
    </trkpt>
    <trkpt lat="50.9559905" lon="6.9054075">
      <ele>40.0</ele>
      <time>2019-08-24T18:14:20Z</time>
    </trkpt>
    <trkpt lat="50.9559361" lon="6.9056049">
      <ele>39.8</ele>
      <time>2019-08-24T18:14:22Z</time>
    </trkpt>
    <trkpt lat="50.9559182" lon="6.9057571">
      <ele>39.6</ele>
      <time>2019-08-24T18:14:24Z</time>
    </trkpt>
    <trkpt lat="50.9559133" lon="6.9058216">
      <ele>40.0</ele>
      <time>2019-08-24T18:14:25Z</time>
    </trkpt>
    <trkpt lat="50.9559098" lon="6.9058926">
      <ele>40.2</ele>
      <time>2019-08-24T18:14:26Z</time>
    </trkpt>
    <trkpt lat="50.9559025" lon="6.9059706">
      <ele>40.4</ele>
      <time>2019-08-24T18:14:27Z</time>
    </trkpt>
    <trkpt lat="50.9558896" lon="6.9060538">
      <ele>40.8</ele>
      <time>2019-08-24T18:14:28Z</time>
    </trkpt>
    <trkpt lat="50.9558957" lon="6.9061500">
      <ele>41.4</ele>
      <time>2019-08-24T18:14:29Z</time>
    </trkpt>
    <trkpt lat="50.9558355" lon="6.9063431">
      <ele>43.0</ele>
      <time>2019-08-24T18:14:31Z</time>
    </trkpt>
    <trkpt lat="50.9555163" lon="6.9070629">
      <ele>45.2</ele>
      <time>2019-08-24T18:14:38Z</time>
    </trkpt>
    <trkpt lat="50.9554105" lon="6.9073994">
      <ele>44.4</ele>
      <time>2019-08-24T18:14:41Z</time>
    </trkpt>
    <trkpt lat="50.9553380" lon="6.9076189">
      <ele>44.6</ele>
      <time>2019-08-24T18:14:43Z</time>
    </trkpt>
    <trkpt lat="50.9553013" lon="6.9077273">
      <ele>44.4</ele>
      <time>2019-08-24T18:14:44Z</time>
    </trkpt>
    <trkpt lat="50.9551532" lon="6.9081677">
      <ele>43.8</ele>
      <time>2019-08-24T18:14:48Z</time>
    </trkpt>
    <trkpt lat="50.9548563" lon="6.9090420">
      <ele>41.8</ele>
      <time>2019-08-24T18:14:55Z</time>
    </trkpt>
    <trkpt lat="50.9547839" lon="6.9092470">
      <ele>42.4</ele>
      <time>2019-08-24T18:14:58Z</time>
    </trkpt>
    <trkpt lat="50.9546773" lon="6.9096012">
      <ele>41.8</ele>
      <time>2019-08-24T18:15:02Z</time>
    </trkpt>
    <trkpt lat="50.9545000" lon="6.9101093">
      <ele>44.2</ele>
      <time>2019-08-24T18:15:10Z</time>
    </trkpt>
    <trkpt lat="50.9544318" lon="6.9102806">
      <ele>45.0</ele>
      <time>2019-08-24T18:15:12Z</time>
    </trkpt>
    <trkpt lat="50.9543117" lon="6.9105055">
      <ele>45.6</ele>
      <time>2019-08-24T18:15:15Z</time>
    </trkpt>
    <trkpt lat="50.9542709" lon="6.9105698">
      <ele>45.4</ele>
      <time>2019-08-24T18:15:16Z</time>
    </trkpt>
    <trkpt lat="50.9542335" lon="6.9106316">
      <ele>45.2</ele>
      <time>2019-08-24T18:15:17Z</time>
    </trkpt>
    <trkpt lat="50.9541988" lon="6.9106917">
      <ele>45.0</ele>
      <time>2019-08-24T18:15:18Z</time>
    </trkpt>
    <trkpt lat="50.9541075" lon="6.9108636">
      <ele>44.8</ele>
      <time>2019-08-24T18:15:21Z</time>
    </trkpt>
    <trkpt lat="50.9536824" lon="6.9115516">
      <ele>47.0</ele>
      <time>2019-08-24T18:15:30Z</time>
    </trkpt>
    <trkpt lat="50.9532638" lon="6.9121237">
      <ele>45.4</ele>
      <time>2019-08-24T18:15:37Z</time>
    </trkpt>
    <trkpt lat="50.9528391" lon="6.9126973">
      <ele>44.6</ele>
      <time>2019-08-24T18:15:45Z</time>
    </trkpt>
    <trkpt lat="50.9524344" lon="6.9133733">
      <ele>43.6</ele>
      <time>2019-08-24T18:15:55Z</time>
    </trkpt>
    <trkpt lat="50.9520347" lon="6.9140858">
      <ele>44.0</ele>
      <time>2019-08-24T18:16:04Z</time>
    </trkpt>
    <trkpt lat="50.9516334" lon="6.9146765">
      <ele>42.8</ele>
      <time>2019-08-24T18:16:11Z</time>
    </trkpt>
    <trkpt lat="50.9512832" lon="6.9153871">
      <ele>45.2</ele>
      <time>2019-08-24T18:16:20Z</time>
    </trkpt>
    <trkpt lat="50.9512060" lon="6.9154505">
      <ele>44.4</ele>
      <time>2019-08-24T18:16:21Z</time>
    </trkpt>
    <trkpt lat="50.9509740" lon="6.9157002">
      <ele>41.8</ele>
      <time>2019-08-24T18:16:25Z</time>
    </trkpt>
    <trkpt lat="50.9507120" lon="6.9161288">
      <ele>41.4</ele>
      <time>2019-08-24T18:16:31Z</time>
    </trkpt>
    <trkpt lat="50.9503048" lon="6.9166180">
      <ele>47.8</ele>
      <time>2019-08-24T18:16:40Z</time>
    </trkpt>
    <trkpt lat="50.9498637" lon="6.9172539">
      <ele>51.8</ele>
      <time>2019-08-24T18:16:47Z</time>
    </trkpt>
    <trkpt lat="50.9494071" lon="6.9179117">
      <ele>49.6</ele>
      <time>2019-08-24T18:16:54Z</time>
    </trkpt>
    <trkpt lat="50.9490190" lon="6.9186734">
      <ele>46.8</ele>
      <time>2019-08-24T18:17:00Z</time>
    </trkpt>
    <trkpt lat="50.9486706" lon="6.9195215">
      <ele>44.6</ele>
      <time>2019-08-24T18:17:06Z</time>
    </trkpt>
    <trkpt lat="50.9483549" lon="6.9202737">
      <ele>44.0</ele>
      <time>2019-08-24T18:17:12Z</time>
    </trkpt>
    <trkpt lat="50.9480655" lon="6.9210604">
      <ele>44.2</ele>
      <time>2019-08-24T18:17:19Z</time>
    </trkpt>
    <trkpt lat="50.9477133" lon="6.9218435">
      <ele>44.6</ele>
      <time>2019-08-24T18:17:27Z</time>
    </trkpt>
    <trkpt lat="50.9473982" lon="6.9226433">
      <ele>44.2</ele>
      <time>2019-08-24T18:17:35Z</time>
    </trkpt>
    <trkpt lat="50.9470959" lon="6.9233892">
      <ele>43.4</ele>
      <time>2019-08-24T18:17:42Z</time>
    </trkpt>
    <trkpt lat="50.9469231" lon="6.9238158">
      <ele>43.0</ele>
      <time>2019-08-24T18:17:46Z</time>
    </trkpt>
    <trkpt lat="50.9468353" lon="6.9240303">
      <ele>42.8</ele>
      <time>2019-08-24T18:17:48Z</time>
    </trkpt>
    <trkpt lat="50.9467445" lon="6.9242636">
      <ele>42.6</ele>
      <time>2019-08-24T18:17:50Z</time>
    </trkpt>
    <trkpt lat="50.9464076" lon="6.9250693">
      <ele>41.4</ele>
      <time>2019-08-24T18:17:57Z</time>
    </trkpt>
    <trkpt lat="50.9463566" lon="6.9252000">
      <ele>41.2</ele>
      <time>2019-08-24T18:17:58Z</time>
    </trkpt>
    <trkpt lat="50.9460453" lon="6.9259184">
      <ele>40.0</ele>
      <time>2019-08-24T18:18:04Z</time>
    </trkpt>
    <trkpt lat="50.9459252" lon="6.9262939">
      <ele>39.4</ele>
      <time>2019-08-24T18:18:07Z</time>
    </trkpt>
    <trkpt lat="50.9456643" lon="6.9267999">
      <ele>38.8</ele>
      <time>2019-08-24T18:18:12Z</time>
    </trkpt>
    <trkpt lat="50.9453970" lon="6.9275027">
      <ele>37.8</ele>
      <time>2019-08-24T18:18:19Z</time>
    </trkpt>
    <trkpt lat="50.9452026" lon="6.9280632">
      <ele>37.0</ele>
      <time>2019-08-24T18:18:25Z</time>
    </trkpt>
    <trkpt lat="50.9451631" lon="6.9281581">
      <ele>36.6</ele>
      <time>2019-08-24T18:18:27Z</time>
    </trkpt>
    <trkpt lat="50.9451538" lon="6.9281751">
      <ele>36.4</ele>
      <time>2019-08-24T18:18:29Z</time>
    </trkpt>
    <trkpt lat="50.9451038" lon="6.9282669">
      <ele>37.4</ele>
      <time>2019-08-24T18:18:55Z</time>
    </trkpt>
    <trkpt lat="50.9450192" lon="6.9284102">
      <ele>38.4</ele>
      <time>2019-08-24T18:18:59Z</time>
    </trkpt>
    <trkpt lat="50.9448709" lon="6.9287010">
      <ele>39.8</ele>
      <time>2019-08-24T18:19:04Z</time>
    </trkpt>
    <trkpt lat="50.9447321" lon="6.9290142">
      <ele>41.2</ele>
      <time>2019-08-24T18:19:08Z</time>
    </trkpt>
    <trkpt lat="50.9446466" lon="6.9292439">
      <ele>42.0</ele>
      <time>2019-08-24T18:19:11Z</time>
    </trkpt>
    <trkpt lat="50.9445968" lon="6.9294051">
      <ele>42.6</ele>
      <time>2019-08-24T18:19:13Z</time>
    </trkpt>
    <trkpt lat="50.9445374" lon="6.9296720">
      <ele>43.2</ele>
      <time>2019-08-24T18:19:16Z</time>
    </trkpt>
    <trkpt lat="50.9444525" lon="6.9299384">
      <ele>44.2</ele>
      <time>2019-08-24T18:19:19Z</time>
    </trkpt>
    <trkpt lat="50.9443959" lon="6.9300995">
      <ele>44.8</ele>
      <time>2019-08-24T18:19:21Z</time>
    </trkpt>
    <trkpt lat="50.9441520" lon="6.9308019">
      <ele>47.6</ele>
      <time>2019-08-24T18:19:28Z</time>
    </trkpt>
    <trkpt lat="50.9440731" lon="6.9309988">
      <ele>48.4</ele>
      <time>2019-08-24T18:19:30Z</time>
    </trkpt>
    <trkpt lat="50.9440424" lon="6.9310895">
      <ele>48.8</ele>
      <time>2019-08-24T18:19:31Z</time>
    </trkpt>
    <trkpt lat="50.9439336" lon="6.9315420">
      <ele>50.4</ele>
      <time>2019-08-24T18:19:36Z</time>
    </trkpt>
    <trkpt lat="50.9439182" lon="6.9316323">
      <ele>50.8</ele>
      <time>2019-08-24T18:19:37Z</time>
    </trkpt>
    <trkpt lat="50.9438795" lon="6.9318975">
      <ele>52.0</ele>
      <time>2019-08-24T18:19:40Z</time>
    </trkpt>
    <trkpt lat="50.9438705" lon="6.9319974">
      <ele>52.4</ele>
      <time>2019-08-24T18:19:41Z</time>
    </trkpt>
    <trkpt lat="50.9438566" lon="6.9320992">
      <ele>53.0</ele>
      <time>2019-08-24T18:19:42Z</time>
    </trkpt>
    <trkpt lat="50.9438354" lon="6.9322067">
      <ele>53.4</ele>
      <time>2019-08-24T18:19:43Z</time>
    </trkpt>
    <trkpt lat="50.9438100" lon="6.9323117">
      <ele>53.6</ele>
      <time>2019-08-24T18:19:44Z</time>
    </trkpt>
    <trkpt lat="50.9437792" lon="6.9324132">
      <ele>53.8</ele>
      <time>2019-08-24T18:19:45Z</time>
    </trkpt>
    <trkpt lat="50.9437480" lon="6.9325087">
      <ele>54.0</ele>
      <time>2019-08-24T18:19:46Z</time>
    </trkpt>
    <trkpt lat="50.9436687" lon="6.9327115">
      <ele>54.2</ele>
      <time>2019-08-24T18:19:48Z</time>
    </trkpt>
    <trkpt lat="50.9435631" lon="6.9330223">
      <ele>54.4</ele>
      <time>2019-08-24T18:19:51Z</time>
    </trkpt>
    <trkpt lat="50.9435246" lon="6.9331115">
      <ele>54.6</ele>
      <time>2019-08-24T18:19:52Z</time>
    </trkpt>
    <trkpt lat="50.9434764" lon="6.9331881">
      <ele>54.8</ele>
      <time>2019-08-24T18:19:53Z</time>
    </trkpt>
    <trkpt lat="50.9434287" lon="6.9332514">
      <ele>55.2</ele>
      <time>2019-08-24T18:19:54Z</time>
    </trkpt>
    <trkpt lat="50.9433797" lon="6.9333229">
      <ele>55.6</ele>
      <time>2019-08-24T18:19:55Z</time>
    </trkpt>
    <trkpt lat="50.9433429" lon="6.9334034">
      <ele>55.8</ele>
      <time>2019-08-24T18:19:56Z</time>
    </trkpt>
    <trkpt lat="50.9432427" lon="6.9336956">
      <ele>57.0</ele>
      <time>2019-08-24T18:20:00Z</time>
    </trkpt>
    <trkpt lat="50.9431806" lon="6.9338952">
      <ele>57.4</ele>
      <time>2019-08-24T18:20:02Z</time>
    </trkpt>
    <trkpt lat="50.9431071" lon="6.9341276">
      <ele>58.0</ele>
      <time>2019-08-24T18:20:04Z</time>
    </trkpt>
    <trkpt lat="50.9430222" lon="6.9343563">
      <ele>58.4</ele>
      <time>2019-08-24T18:20:06Z</time>
    </trkpt>
    <trkpt lat="50.9429661" lon="6.9344715">
      <ele>58.8</ele>
      <time>2019-08-24T18:20:07Z</time>
    </trkpt>
    <trkpt lat="50.9429181" lon="6.9345899">
      <ele>59.0</ele>
      <time>2019-08-24T18:20:08Z</time>
    </trkpt>
    <trkpt lat="50.9426421" lon="6.9351625">
      <ele>60.0</ele>
      <time>2019-08-24T18:20:14Z</time>
    </trkpt>
    <trkpt lat="50.9425155" lon="6.9354079">
      <ele>61.4</ele>
      <time>2019-08-24T18:20:22Z</time>
    </trkpt>
    <trkpt lat="50.9424702" lon="6.9354809">
      <ele>61.8</ele>
      <time>2019-08-24T18:20:24Z</time>
    </trkpt>
    <trkpt lat="50.9423662" lon="6.9356127">
      <ele>62.6</ele>
      <time>2019-08-24T18:20:27Z</time>
    </trkpt>
    <trkpt lat="50.9421420" lon="6.9360357">
      <ele>62.8</ele>
      <time>2019-08-24T18:20:33Z</time>
    </trkpt>
    <trkpt lat="50.9419063" lon="6.9364555">
      <ele>62.6</ele>
      <time>2019-08-24T18:20:38Z</time>
    </trkpt>
    <trkpt lat="50.9415927" lon="6.9371541">
      <ele>63.6</ele>
      <time>2019-08-24T18:20:46Z</time>
    </trkpt>
    <trkpt lat="50.9414722" lon="6.9374137">
      <ele>63.8</ele>
      <time>2019-08-24T18:20:49Z</time>
    </trkpt>
    <trkpt lat="50.9411919" lon="6.9379033">
      <ele>63.8</ele>
      <time>2019-08-24T18:20:56Z</time>
    </trkpt>
    <trkpt lat="50.9410634" lon="6.9380678">
      <ele>63.6</ele>
      <time>2019-08-24T18:20:59Z</time>
    </trkpt>
    <trkpt lat="50.9409598" lon="6.9385588">
      <ele>64.0</ele>
      <time>2019-08-24T18:21:05Z</time>
    </trkpt>
    <trkpt lat="50.9408781" lon="6.9389206">
      <ele>64.4</ele>
      <time>2019-08-24T18:21:09Z</time>
    </trkpt>
    <trkpt lat="50.9407852" lon="6.9393237">
      <ele>64.4</ele>
      <time>2019-08-24T18:21:14Z</time>
    </trkpt>
    <trkpt lat="50.9407399" lon="6.9397645">
      <ele>68.4</ele>
      <time>2019-08-24T18:21:28Z</time>
    </trkpt>
    <trkpt lat="50.9407434" lon="6.9397689">
      <ele>68.8</ele>
      <time>2019-08-24T18:21:29Z</time>
    </trkpt>
    <trkpt lat="50.9407527" lon="6.9398834">
      <ele>69.4</ele>
      <time>2019-08-24T18:21:32Z</time>
    </trkpt>
    <trkpt lat="50.9407141" lon="6.9406219">
      <ele>73.6</ele>
      <time>2019-08-24T18:21:42Z</time>
    </trkpt>
    <trkpt lat="50.9406592" lon="6.9409921">
      <ele>75.6</ele>
      <time>2019-08-24T18:21:47Z</time>
    </trkpt>
    <trkpt lat="50.9404205" lon="6.9418165">
      <ele>78.2</ele>
      <time>2019-08-24T18:21:58Z</time>
    </trkpt>
    <trkpt lat="50.9403287" lon="6.9420982">
      <ele>80.2</ele>
      <time>2019-08-24T18:22:02Z</time>
    </trkpt>
    <trkpt lat="50.9403218" lon="6.9421632">
      <ele>80.4</ele>
      <time>2019-08-24T18:22:03Z</time>
    </trkpt>
    <trkpt lat="50.9401921" lon="6.9428669">
      <ele>82.8</ele>
      <time>2019-08-24T18:22:12Z</time>
    </trkpt>
    <trkpt lat="50.9401775" lon="6.9429438">
      <ele>83.0</ele>
      <time>2019-08-24T18:22:13Z</time>
    </trkpt>
    <trkpt lat="50.9401736" lon="6.9433439">
      <ele>83.2</ele>
      <time>2019-08-24T18:22:17Z</time>
    </trkpt>
    <trkpt lat="50.9401871" lon="6.9439964">
      <ele>83.4</ele>
      <time>2019-08-24T18:22:23Z</time>
    </trkpt>
    <trkpt lat="50.9401895" lon="6.9441857">
      <ele>82.8</ele>
      <time>2019-08-24T18:22:25Z</time>
    </trkpt>
    <trkpt lat="50.9402377" lon="6.9444002">
      <ele>82.4</ele>
      <time>2019-08-24T18:22:27Z</time>
    </trkpt>
    <trkpt lat="50.9405046" lon="6.9452138">
      <ele>80.6</ele>
      <time>2019-08-24T18:22:36Z</time>
    </trkpt>
    <trkpt lat="50.9406484" lon="6.9455260">
      <ele>80.2</ele>
      <time>2019-08-24T18:22:40Z</time>
    </trkpt>
    <trkpt lat="50.9409505" lon="6.9462835">
      <ele>79.8</ele>
      <time>2019-08-24T18:22:49Z</time>
    </trkpt>
    <trkpt lat="50.9410208" lon="6.9464856">
      <ele>79.2</ele>
      <time>2019-08-24T18:22:51Z</time>
    </trkpt>
    <trkpt lat="50.9411951" lon="6.9473901">
      <ele>78.8</ele>
      <time>2019-08-24T18:22:59Z</time>
    </trkpt>
    <trkpt lat="50.9413236" lon="6.9483555">
      <ele>78.4</ele>
      <time>2019-08-24T18:23:06Z</time>
    </trkpt>
    <trkpt lat="50.9414201" lon="6.9492902">
      <ele>78.6</ele>
      <time>2019-08-24T18:23:13Z</time>
    </trkpt>
    <trkpt lat="50.9414305" lon="6.9502136">
      <ele>78.6</ele>
      <time>2019-08-24T18:23:21Z</time>
    </trkpt>
    <trkpt lat="50.9413897" lon="6.9511217">
      <ele>75.0</ele>
      <time>2019-08-24T18:23:29Z</time>
    </trkpt>
    <trkpt lat="50.9413972" lon="6.9519889">
      <ele>72.8</ele>
      <time>2019-08-24T18:23:36Z</time>
    </trkpt>
    <trkpt lat="50.9414462" lon="6.9525449">
      <ele>71.0</ele>
      <time>2019-08-24T18:23:42Z</time>
    </trkpt>
    <trkpt lat="50.9415349" lon="6.9529493">
      <ele>69.4</ele>
      <time>2019-08-24T18:23:47Z</time>
    </trkpt>
    <trkpt lat="50.9415595" lon="6.9530826">
      <ele>68.8</ele>
      <time>2019-08-24T18:23:49Z</time>
    </trkpt>
    <trkpt lat="50.9415664" lon="6.9531417">
      <ele>68.6</ele>
      <time>2019-08-24T18:23:50Z</time>
    </trkpt>
    <trkpt lat="50.9415694" lon="6.9532440">
      <ele>68.2</ele>
      <time>2019-08-24T18:23:52Z</time>
    </trkpt>
    <trkpt lat="50.9415682" lon="6.9533406">
      <ele>68.2</ele>
      <time>2019-08-24T18:23:54Z</time>
    </trkpt>
    <trkpt lat="50.9415597" lon="6.9534872">
      <ele>68.0</ele>
      <time>2019-08-24T18:23:59Z</time>
    </trkpt>
    <trkpt lat="50.9415655" lon="6.9535569">
      <ele>68.0</ele>
      <time>2019-08-24T18:24:01Z</time>
    </trkpt>
    <trkpt lat="50.9416874" lon="6.9543961">
      <ele>69.0</ele>
      <time>2019-08-24T18:24:11Z</time>
    </trkpt>
    <trkpt lat="50.9418033" lon="6.9550867">
      <ele>67.4</ele>
      <time>2019-08-24T18:24:17Z</time>
    </trkpt>
    <trkpt lat="50.9418545" lon="6.9556227">
      <ele>66.0</ele>
      <time>2019-08-24T18:24:22Z</time>
    </trkpt>
    <trkpt lat="50.9418790" lon="6.9559209">
      <ele>65.4</ele>
      <time>2019-08-24T18:24:25Z</time>
    </trkpt>
    <trkpt lat="50.9419144" lon="6.9561749">
      <ele>65.0</ele>
      <time>2019-08-24T18:24:28Z</time>
    </trkpt>
    <trkpt lat="50.9418705" lon="6.9562474">
      <ele>64.6</ele>
      <time>2019-08-24T18:24:30Z</time>
    </trkpt>
    <trkpt lat="50.9415536" lon="6.9562585">
      <ele>61.4</ele>
      <time>2019-08-24T18:24:36Z</time>
    </trkpt>
    <trkpt lat="50.9411717" lon="6.9561984">
      <ele>60.2</ele>
      <time>2019-08-24T18:24:48Z</time>
    </trkpt>
    <trkpt lat="50.9411317" lon="6.9561789">
      <ele>60.2</ele>
      <time>2019-08-24T18:24:52Z</time>
    </trkpt>
    <trkpt lat="50.9410470" lon="6.9561815">
      <ele>59.8</ele>
      <time>2019-08-24T18:24:57Z</time>
    </trkpt>
    <trkpt lat="50.9409504" lon="6.9561393">
      <ele>59.6</ele>
      <time>2019-08-24T18:25:04Z</time>
    </trkpt>
    <trkpt lat="50.9409010" lon="6.9565637">
      <ele>59.2</ele>
      <time>2019-08-24T18:25:27Z</time>
    </trkpt>
    <trkpt lat="50.9409154" lon="6.9567837">
      <ele>59.2</ele>
      <time>2019-08-24T18:25:29Z</time>
    </trkpt>
    <trkpt lat="50.9409090" lon="6.9569505">
      <ele>59.0</ele>
      <time>2019-08-24T18:25:31Z</time>
    </trkpt>
    <trkpt lat="50.9409105" lon="6.9571068">
      <ele>59.2</ele>
      <time>2019-08-24T18:25:33Z</time>
    </trkpt>
    <trkpt lat="50.9409071" lon="6.9580229">
      <ele>60.0</ele>
      <time>2019-08-24T18:25:45Z</time>
    </trkpt>
    <trkpt lat="50.9408870" lon="6.9582937">
      <ele>60.0</ele>
      <time>2019-08-24T18:25:48Z</time>
    </trkpt>
    <trkpt lat="50.9408913" lon="6.9583702">
      <ele>60.0</ele>
      <time>2019-08-24T18:25:49Z</time>
    </trkpt>
    <trkpt lat="50.9409014" lon="6.9584473">
      <ele>59.8</ele>
      <time>2019-08-24T18:25:50Z</time>
    </trkpt>
    <trkpt lat="50.9409629" lon="6.9587858">
      <ele>59.0</ele>
      <time>2019-08-24T18:25:55Z</time>
    </trkpt>
    <trkpt lat="50.9410562" lon="6.9591209">
      <ele>59.0</ele>
      <time>2019-08-24T18:26:03Z</time>
    </trkpt>
    <trkpt lat="50.9410993" lon="6.9592315">
      <ele>58.8</ele>
      <time>2019-08-24T18:26:05Z</time>
    </trkpt>
    <trkpt lat="50.9411345" lon="6.9592575">
      <ele>58.6</ele>
      <time>2019-08-24T18:26:08Z</time>
    </trkpt>
    <trkpt lat="50.9411737" lon="6.9593286">
      <ele>57.6</ele>
      <time>2019-08-24T18:26:12Z</time>
    </trkpt>
    <trkpt lat="50.9412755" lon="6.9594580">
      <ele>53.2</ele>
      <time>2019-08-24T18:26:17Z</time>
    </trkpt>
    <trkpt lat="50.9412395" lon="6.9600401">
      <ele>51.6</ele>
      <time>2019-08-24T18:26:26Z</time>
    </trkpt>
    <trkpt lat="50.9411488" lon="6.9607782">
      <ele>54.6</ele>
      <time>2019-08-24T18:26:37Z</time>
    </trkpt>
    <trkpt lat="50.9412145" lon="6.9610396">
      <ele>55.4</ele>
      <time>2019-08-24T18:26:59Z</time>
    </trkpt>
    <trkpt lat="50.9412248" lon="6.9611780">
      <ele>57.4</ele>
      <time>2019-08-24T18:27:02Z</time>
    </trkpt>
    <trkpt lat="50.9412512" lon="6.9614245">
      <ele>58.6</ele>
      <time>2019-08-24T18:27:11Z</time>
    </trkpt>
    <trkpt lat="50.9412657" lon="6.9616038">
      <ele>58.4</ele>
      <time>2019-08-24T18:27:23Z</time>
    </trkpt>
    <trkpt lat="50.9412688" lon="6.9616222">
      <ele>58.2</ele>
      <time>2019-08-24T18:27:24Z</time>
    </trkpt>
  </trkseg></trk>
</gpx>
