<?xml version="1.0" encoding="UTF-8"?>
<gpx version="1.1" creator="Diary FIT converter" xmlns="http://www.topografix.com/GPX/1/1">
  <trk><name>Cycling</name><trkseg>
    <trkpt lat="50.9697939" lon="6.8733202">
      <time>2025-07-14T18:55:50Z</time>
    </trkpt>
    <trkpt lat="50.9698215" lon="6.8732577">
      <time>2025-07-14T18:55:51Z</time>
    </trkpt>
    <trkpt lat="50.9699153" lon="6.8729217">
      <time>2025-07-14T18:55:56Z</time>
    </trkpt>
    <trkpt lat="50.9699510" lon="6.8727985">
      <time>2025-07-14T18:55:58Z</time>
    </trkpt>
    <trkpt lat="50.9699742" lon="6.8726708">
      <time>2025-07-14T18:56:00Z</time>
    </trkpt>
    <trkpt lat="50.9699709" lon="6.8726061">
      <time>2025-07-14T18:56:01Z</time>
    </trkpt>
    <trkpt lat="50.9698865" lon="6.8724541">
      <time>2025-07-14T18:56:05Z</time>
    </trkpt>
    <trkpt lat="50.9698087" lon="6.8723515">
      <time>2025-07-14T18:56:08Z</time>
    </trkpt>
    <trkpt lat="50.9697875" lon="6.8723171">
      <time>2025-07-14T18:56:09Z</time>
    </trkpt>
    <trkpt lat="50.9697498" lon="6.8722572">
      <time>2025-07-14T18:56:11Z</time>
    </trkpt>
    <trkpt lat="50.9696948" lon="6.8721219">
      <time>2025-07-14T18:56:15Z</time>
    </trkpt>
    <trkpt lat="50.9696877" lon="6.8721168">
      <time>2025-07-14T18:56:16Z</time>
    </trkpt>
    <trkpt lat="50.9696849" lon="6.8721145">
      <time>2025-07-14T18:56:17Z</time>
    </trkpt>
    <trkpt lat="50.9696584" lon="6.8720409">
      <time>2025-07-14T18:57:51Z</time>
    </trkpt>
    <trkpt lat="50.9696236" lon="6.8720011">
      <time>2025-07-14T18:57:53Z</time>
    </trkpt>
    <trkpt lat="50.9694477" lon="6.8718774">
      <time>2025-07-14T18:57:59Z</time>
    </trkpt>
    <trkpt lat="50.9694752" lon="6.8717027">
      <time>2025-07-14T18:58:02Z</time>
    </trkpt>
    <trkpt lat="50.9695179" lon="6.8715907">
      <time>2025-07-14T18:58:04Z</time>
    </trkpt>
    <trkpt lat="50.9695756" lon="6.8714204">
      <time>2025-07-14T18:58:07Z</time>
    </trkpt>
    <trkpt lat="50.9696001" lon="6.8713028">
      <time>2025-07-14T18:58:09Z</time>
    </trkpt>
    <trkpt lat="50.9696033" lon="6.8709868">
      <time>2025-07-14T18:58:14Z</time>
    </trkpt>
    <trkpt lat="50.9696399" lon="6.8705065">
      <time>2025-07-14T18:58:21Z</time>
    </trkpt>
    <trkpt lat="50.9696727" lon="6.8700987">
      <time>2025-07-14T18:58:27Z</time>
    </trkpt>
    <trkpt lat="50.9696846" lon="6.8698860">
      <time>2025-07-14T18:58:30Z</time>
    </trkpt>
    <trkpt lat="50.9697230" lon="6.8698423">
      <time>2025-07-14T18:58:31Z</time>
    </trkpt>
    <trkpt lat="50.9698156" lon="6.8698777">
      <time>2025-07-14T18:58:33Z</time>
    </trkpt>
    <trkpt lat="50.9700917" lon="6.8700063">
      <time>2025-07-14T18:58:39Z</time>
    </trkpt>
    <trkpt lat="50.9701316" lon="6.8700100">
      <time>2025-07-14T18:58:40Z</time>
    </trkpt>
    <trkpt lat="50.9701790" lon="6.8699735">
      <time>2025-07-14T18:58:43Z</time>
    </trkpt>
    <trkpt lat="50.9701823" lon="6.8699658">
      <time>2025-07-14T18:58:45Z</time>
    </trkpt>
    <trkpt lat="50.9702049" lon="6.8699109">
      <time>2025-07-14T18:58:56Z</time>
    </trkpt>
    <trkpt lat="50.9702114" lon="6.8698703">
      <time>2025-07-14T18:58:57Z</time>
    </trkpt>
    <trkpt lat="50.9702588" lon="6.8695789">
      <time>2025-07-14T18:59:02Z</time>
    </trkpt>
    <trkpt lat="50.9702725" lon="6.8695133">
      <time>2025-07-14T18:59:03Z</time>
    </trkpt>
    <trkpt lat="50.9703044" lon="6.8693894">
      <time>2025-07-14T18:59:05Z</time>
    </trkpt>
    <trkpt lat="50.9703404" lon="6.8692762">
      <time>2025-07-14T18:59:07Z</time>
    </trkpt>
    <trkpt lat="50.9703862" lon="6.8691143">
      <time>2025-07-14T18:59:10Z</time>
    </trkpt>
    <trkpt lat="50.9704468" lon="6.8689499">
      <time>2025-07-14T18:59:13Z</time>
    </trkpt>
    <trkpt lat="50.9705874" lon="6.8685055">
      <time>2025-07-14T18:59:20Z</time>
    </trkpt>
    <trkpt lat="50.9706982" lon="6.8680867">
      <time>2025-07-14T18:59:27Z</time>
    </trkpt>
    <trkpt lat="50.9707758" lon="6.8678511">
      <time>2025-07-14T18:59:31Z</time>
    </trkpt>
    <trkpt lat="50.9708104" lon="6.8677347">
      <time>2025-07-14T18:59:33Z</time>
    </trkpt>
    <trkpt lat="50.9708498" lon="6.8676169">
      <time>2025-07-14T18:59:35Z</time>
    </trkpt>
    <trkpt lat="50.9708571" lon="6.8675188">
      <time>2025-07-14T18:59:37Z</time>
    </trkpt>
    <trkpt lat="50.9708033" lon="6.8675420">
      <time>2025-07-14T18:59:40Z</time>
    </trkpt>
    <trkpt lat="50.9707895" lon="6.8674787">
      <time>2025-07-14T18:59:43Z</time>
    </trkpt>
    <trkpt lat="50.9707834" lon="6.8674932">
      <time>2025-07-14T18:59:46Z</time>
    </trkpt>
    <trkpt lat="50.9707695" lon="6.8672862">
      <time>2025-07-14T19:01:14Z</time>
    </trkpt>
    <trkpt lat="50.9707440" lon="6.8670912">
      <time>2025-07-14T19:01:21Z</time>
    </trkpt>
    <trkpt lat="50.9707351" lon="6.8669929">
      <time>2025-07-14T19:01:25Z</time>
    </trkpt>
    <trkpt lat="50.9707355" lon="6.8669936">
      <time>2025-07-14T19:01:26Z</time>
    </trkpt>
    <trkpt lat="50.9707189" lon="6.8668944">
      <time>2025-07-14T19:02:06Z</time>
    </trkpt>
    <trkpt lat="50.9707175" lon="6.8668681">
      <time>2025-07-14T19:02:07Z</time>
    </trkpt>
    <trkpt lat="50.9707155" lon="6.8668406">
      <time>2025-07-14T19:02:08Z</time>
    </trkpt>
    <trkpt lat="50.9707103" lon="6.8668082">
      <time>2025-07-14T19:02:09Z</time>
    </trkpt>
    <trkpt lat="50.9706994" lon="6.8667026">
      <time>2025-07-14T19:02:12Z</time>
    </trkpt>
    <trkpt lat="50.9706927" lon="6.8666671">
      <time>2025-07-14T19:02:13Z</time>
    </trkpt>
    <trkpt lat="50.9706778" lon="6.8665977">
      <time>2025-07-14T19:02:15Z</time>
    </trkpt>
    <trkpt lat="50.9706719" lon="6.8665632">
      <time>2025-07-14T19:02:16Z</time>
    </trkpt>
    <trkpt lat="50.9706642" lon="6.8665289">
      <time>2025-07-14T19:02:17Z</time>
    </trkpt>
    <trkpt lat="50.9706146" lon="6.8663635">
      <time>2025-07-14T19:02:22Z</time>
    </trkpt>
    <trkpt lat="50.9706007" lon="6.8663382">
      <time>2025-07-14T19:02:23Z</time>
    </trkpt>
    <trkpt lat="50.9705885" lon="6.8663187">
      <time>2025-07-14T19:02:24Z</time>
    </trkpt>
    <trkpt lat="50.9705691" lon="6.8662680">
      <time>2025-07-14T19:02:27Z</time>
    </trkpt>
    <trkpt lat="50.9705711" lon="6.8662392">
      <time>2025-07-14T19:02:29Z</time>
    </trkpt>
    <trkpt lat="50.9705731" lon="6.8662320">
      <time>2025-07-14T19:02:31Z</time>
    </trkpt>
    <trkpt lat="50.9706025" lon="6.8661860">
      <time>2025-07-14T19:03:10Z</time>
    </trkpt>
    <trkpt lat="50.9706248" lon="6.8661665">
      <time>2025-07-14T19:03:11Z</time>
    </trkpt>
    <trkpt lat="50.9707534" lon="6.8659947">
      <time>2025-07-14T19:03:18Z</time>
    </trkpt>
    <trkpt lat="50.9707714" lon="6.8659313">
      <time>2025-07-14T19:03:21Z</time>
    </trkpt>
    <trkpt lat="50.9707821" lon="6.8659070">
      <time>2025-07-14T19:03:25Z</time>
    </trkpt>
    <trkpt lat="50.9707622" lon="6.8658618">
      <time>2025-07-14T19:03:44Z</time>
    </trkpt>
    <trkpt lat="50.9707434" lon="6.8658318">
      <time>2025-07-14T19:03:45Z</time>
    </trkpt>
    <trkpt lat="50.9707199" lon="6.8657941">
      <time>2025-07-14T19:03:46Z</time>
    </trkpt>
    <trkpt lat="50.9707065" lon="6.8656939">
      <time>2025-07-14T19:03:48Z</time>
    </trkpt>
    <trkpt lat="50.9707166" lon="6.8656426">
      <time>2025-07-14T19:03:49Z</time>
    </trkpt>
    <trkpt lat="50.9706942" lon="6.8654086">
      <time>2025-07-14T19:03:53Z</time>
    </trkpt>
    <trkpt lat="50.9706638" lon="6.8651170">
      <time>2025-07-14T19:03:58Z</time>
    </trkpt>
    <trkpt lat="50.9706689" lon="6.8650556">
      <time>2025-07-14T19:03:59Z</time>
    </trkpt>
    <trkpt lat="50.9706795" lon="6.8649415">
      <time>2025-07-14T19:04:01Z</time>
    </trkpt>
    <trkpt lat="50.9707056" lon="6.8647618">
      <time>2025-07-14T19:04:04Z</time>
    </trkpt>
    <trkpt lat="50.9707048" lon="6.8645835">
      <time>2025-07-14T19:04:07Z</time>
    </trkpt>
    <trkpt lat="50.9706388" lon="6.8644564">
      <time>2025-07-14T19:04:10Z</time>
    </trkpt>
    <trkpt lat="50.9706002" lon="6.8644379">
      <time>2025-07-14T19:04:11Z</time>
    </trkpt>
    <trkpt lat="50.9705571" lon="6.8644339">
      <time>2025-07-14T19:04:12Z</time>
    </trkpt>
    <trkpt lat="50.9704766" lon="6.8644788">
      <time>2025-07-14T19:04:14Z</time>
    </trkpt>
    <trkpt lat="50.9702924" lon="6.8645548">
      <time>2025-07-14T19:04:18Z</time>
    </trkpt>
    <trkpt lat="50.9700922" lon="6.8646104">
      <time>2025-07-14T19:04:22Z</time>
    </trkpt>
    <trkpt lat="50.9696160" lon="6.8648087">
      <time>2025-07-14T19:04:32Z</time>
    </trkpt>
    <trkpt lat="50.9693885" lon="6.8648894">
      <time>2025-07-14T19:04:37Z</time>
    </trkpt>
    <trkpt lat="50.9692131" lon="6.8649563">
      <time>2025-07-14T19:04:41Z</time>
    </trkpt>
    <trkpt lat="50.9688600" lon="6.8650907">
      <time>2025-07-14T19:04:49Z</time>
    </trkpt>
    <trkpt lat="50.9687320" lon="6.8651372">
      <time>2025-07-14T19:04:52Z</time>
    </trkpt>
    <trkpt lat="50.9684132" lon="6.8651292">
      <time>2025-07-14T19:04:59Z</time>
    </trkpt>
    <trkpt lat="50.9680221" lon="6.8650461">
      <time>2025-07-14T19:05:07Z</time>
    </trkpt>
    <trkpt lat="50.9679273" lon="6.8650323">
      <time>2025-07-14T19:05:09Z</time>
    </trkpt>
    <trkpt lat="50.9678333" lon="6.8650128">
      <time>2025-07-14T19:05:11Z</time>
    </trkpt>
    <trkpt lat="50.9676909" lon="6.8649916">
      <time>2025-07-14T19:05:14Z</time>
    </trkpt>
    <trkpt lat="50.9674988" lon="6.8649831">
      <time>2025-07-14T19:05:18Z</time>
    </trkpt>
    <trkpt lat="50.9674509" lon="6.8649811">
      <time>2025-07-14T19:05:19Z</time>
    </trkpt>
    <trkpt lat="50.9673031" lon="6.8649818">
      <time>2025-07-14T19:05:22Z</time>
    </trkpt>
    <trkpt lat="50.9671675" lon="6.8649830">
      <time>2025-07-14T19:05:25Z</time>
    </trkpt>
    <trkpt lat="50.9668717" lon="6.8649784">
      <time>2025-07-14T19:05:31Z</time>
    </trkpt>
    <trkpt lat="50.9668163" lon="6.8649795">
      <time>2025-07-14T19:05:32Z</time>
    </trkpt>
    <trkpt lat="50.9666577" lon="6.8649764">
      <time>2025-07-14T19:05:35Z</time>
    </trkpt>
    <trkpt lat="50.9665040" lon="6.8649690">
      <time>2025-07-14T19:05:38Z</time>
    </trkpt>
    <trkpt lat="50.9662439" lon="6.8649432">
      <time>2025-07-14T19:05:43Z</time>
    </trkpt>
    <trkpt lat="50.9659763" lon="6.8648478">
      <time>2025-07-14T19:05:48Z</time>
    </trkpt>
    <trkpt lat="50.9659214" lon="6.8648328">
      <time>2025-07-14T19:05:49Z</time>
    </trkpt>
    <trkpt lat="50.9658674" lon="6.8648157">
      <time>2025-07-14T19:05:50Z</time>
    </trkpt>
    <trkpt lat="50.9655939" lon="6.8646769">
      <time>2025-07-14T19:05:55Z</time>
    </trkpt>
    <trkpt lat="50.9654396" lon="6.8646065">
      <time>2025-07-14T19:05:58Z</time>
    </trkpt>
    <trkpt lat="50.9653282" lon="6.8645712">
      <time>2025-07-14T19:06:00Z</time>
    </trkpt>
    <trkpt lat="50.9652209" lon="6.8645430">
      <time>2025-07-14T19:06:02Z</time>
    </trkpt>
    <trkpt lat="50.9649479" lon="6.8644350">
      <time>2025-07-14T19:06:07Z</time>
    </trkpt>
    <trkpt lat="50.9648966" lon="6.8644092">
      <time>2025-07-14T19:06:08Z</time>
    </trkpt>
    <trkpt lat="50.9646327" lon="6.8642979">
      <time>2025-07-14T19:06:12Z</time>
    </trkpt>
    <trkpt lat="50.9644822" lon="6.8642481">
      <time>2025-07-14T19:06:14Z</time>
    </trkpt>
    <trkpt lat="50.9642423" lon="6.8641180">
      <time>2025-07-14T19:06:17Z</time>
    </trkpt>
    <trkpt lat="50.9640821" lon="6.8640397">
      <time>2025-07-14T19:06:19Z</time>
    </trkpt>
    <trkpt lat="50.9636743" lon="6.8638507">
      <time>2025-07-14T19:06:24Z</time>
    </trkpt>
    <trkpt lat="50.9634483" lon="6.8637458">
      <time>2025-07-14T19:06:27Z</time>
    </trkpt>
    <trkpt lat="50.9632350" lon="6.8636415">
      <time>2025-07-14T19:06:30Z</time>
    </trkpt>
    <trkpt lat="50.9631660" lon="6.8636093">
      <time>2025-07-14T19:06:31Z</time>
    </trkpt>
    <trkpt lat="50.9626377" lon="6.8633409">
      <time>2025-07-14T19:06:39Z</time>
    </trkpt>
    <trkpt lat="50.9625743" lon="6.8633111">
      <time>2025-07-14T19:06:40Z</time>
    </trkpt>
    <trkpt lat="50.9620880" lon="6.8630704">
      <time>2025-07-14T19:06:48Z</time>
    </trkpt>
    <trkpt lat="50.9619736" lon="6.8630051">
      <time>2025-07-14T19:06:50Z</time>
    </trkpt>
    <trkpt lat="50.9619149" lon="6.8629738">
      <time>2025-07-14T19:06:51Z</time>
    </trkpt>
    <trkpt lat="50.9618535" lon="6.8629412">
      <time>2025-07-14T19:06:52Z</time>
    </trkpt>
    <trkpt lat="50.9617957" lon="6.8629119">
      <time>2025-07-14T19:06:53Z</time>
    </trkpt>
    <trkpt lat="50.9615663" lon="6.8627912">
      <time>2025-07-14T19:06:57Z</time>
    </trkpt>
    <trkpt lat="50.9610539" lon="6.8625141">
      <time>2025-07-14T19:07:06Z</time>
    </trkpt>
    <trkpt lat="50.9609945" lon="6.8624836">
      <time>2025-07-14T19:07:07Z</time>
    </trkpt>
    <trkpt lat="50.9608282" lon="6.8623870">
      <time>2025-07-14T19:07:10Z</time>
    </trkpt>
    <trkpt lat="50.9607224" lon="6.8623251">
      <time>2025-07-14T19:07:12Z</time>
    </trkpt>
    <trkpt lat="50.9606105" lon="6.8622904">
      <time>2025-07-14T19:07:14Z</time>
    </trkpt>
    <trkpt lat="50.9605587" lon="6.8622754">
      <time>2025-07-14T19:07:15Z</time>
    </trkpt>
    <trkpt lat="50.9603961" lon="6.8622528">
      <time>2025-07-14T19:07:18Z</time>
    </trkpt>
    <trkpt lat="50.9602237" lon="6.8622467">
      <time>2025-07-14T19:07:21Z</time>
    </trkpt>
    <trkpt lat="50.9601052" lon="6.8622314">
      <time>2025-07-14T19:07:23Z</time>
    </trkpt>
    <trkpt lat="50.9597684" lon="6.8622106">
      <time>2025-07-14T19:07:29Z</time>
    </trkpt>
    <trkpt lat="50.9596587" lon="6.8622120">
      <time>2025-07-14T19:07:31Z</time>
    </trkpt>
    <trkpt lat="50.9595851" lon="6.8623034">
      <time>2025-07-14T19:07:33Z</time>
    </trkpt>
    <trkpt lat="50.9595536" lon="6.8624426">
      <time>2025-07-14T19:07:35Z</time>
    </trkpt>
    <trkpt lat="50.9595347" lon="6.8626119">
      <time>2025-07-14T19:07:37Z</time>
    </trkpt>
    <trkpt lat="50.9595232" lon="6.8631515">
      <time>2025-07-14T19:07:43Z</time>
    </trkpt>
    <trkpt lat="50.9595549" lon="6.8636010">
      <time>2025-07-14T19:07:48Z</time>
    </trkpt>
    <trkpt lat="50.9595888" lon="6.8639564">
      <time>2025-07-14T19:07:52Z</time>
    </trkpt>
    <trkpt lat="50.9596417" lon="6.8646472">
      <time>2025-07-14T19:08:00Z</time>
    </trkpt>
    <trkpt lat="50.9596090" lon="6.8650986">
      <time>2025-07-14T19:08:05Z</time>
    </trkpt>
    <trkpt lat="50.9595893" lon="6.8651839">
      <time>2025-07-14T19:08:06Z</time>
    </trkpt>
    <trkpt lat="50.9594565" lon="6.8657222">
      <time>2025-07-14T19:08:12Z</time>
    </trkpt>
    <trkpt lat="50.9592614" lon="6.8664355">
      <time>2025-07-14T19:08:19Z</time>
    </trkpt>
    <trkpt lat="50.9592313" lon="6.8665386">
      <time>2025-07-14T19:08:20Z</time>
    </trkpt>
    <trkpt lat="50.9592007" lon="6.8666461">
      <time>2025-07-14T19:08:21Z</time>
    </trkpt>
    <trkpt lat="50.9590711" lon="6.8670698">
      <time>2025-07-14T19:08:25Z</time>
    </trkpt>
    <trkpt lat="50.9590412" lon="6.8671788">
      <time>2025-07-14T19:08:26Z</time>
    </trkpt>
    <trkpt lat="50.9589565" lon="6.8675207">
      <time>2025-07-14T19:08:29Z</time>
    </trkpt>
    <trkpt lat="50.9588672" lon="6.8679988">
      <time>2025-07-14T19:08:33Z</time>
    </trkpt>
    <trkpt lat="50.9588235" lon="6.8680983">
      <time>2025-07-14T19:08:34Z</time>
    </trkpt>
    <trkpt lat="50.9587707" lon="6.8681782">
      <time>2025-07-14T19:08:35Z</time>
    </trkpt>
    <trkpt lat="50.9586469" lon="6.8682807">
      <time>2025-07-14T19:08:37Z</time>
    </trkpt>
    <trkpt lat="50.9584688" lon="6.8683869">
      <time>2025-07-14T19:08:41Z</time>
    </trkpt>
    <trkpt lat="50.9584660" lon="6.8684197">
      <time>2025-07-14T19:08:44Z</time>
    </trkpt>
    <trkpt lat="50.9584890" lon="6.8685412">
      <time>2025-07-14T19:08:49Z</time>
    </trkpt>
    <trkpt lat="50.9584920" lon="6.8685468">
      <time>2025-07-14T19:08:50Z</time>
    </trkpt>
    <trkpt lat="50.9584897" lon="6.8685448">
      <time>2025-07-14T19:08:51Z</time>
    </trkpt>
    <trkpt lat="50.9585072" lon="6.8686646">
      <time>2025-07-14T19:09:15Z</time>
    </trkpt>
    <trkpt lat="50.9585186" lon="6.8686927">
      <time>2025-07-14T19:09:16Z</time>
    </trkpt>
    <trkpt lat="50.9585405" lon="6.8687087">
      <time>2025-07-14T19:09:17Z</time>
    </trkpt>
    <trkpt lat="50.9586563" lon="6.8687752">
      <time>2025-07-14T19:09:21Z</time>
    </trkpt>
    <trkpt lat="50.9586848" lon="6.8687800">
      <time>2025-07-14T19:09:22Z</time>
    </trkpt>
    <trkpt lat="50.9587380" lon="6.8687434">
      <time>2025-07-14T19:09:24Z</time>
    </trkpt>
    <trkpt lat="50.9587630" lon="6.8687257">
      <time>2025-07-14T19:09:25Z</time>
    </trkpt>
    <trkpt lat="50.9589272" lon="6.8686402">
      <time>2025-07-14T19:09:30Z</time>
    </trkpt>
    <trkpt lat="50.9592124" lon="6.8684897">
      <time>2025-07-14T19:09:37Z</time>
    </trkpt>
    <trkpt lat="50.9595358" lon="6.8683266">
      <time>2025-07-14T19:09:44Z</time>
    </trkpt>
    <trkpt lat="50.9596233" lon="6.8682786">
      <time>2025-07-14T19:09:46Z</time>
    </trkpt>
    <trkpt lat="50.9596674" lon="6.8682490">
      <time>2025-07-14T19:09:47Z</time>
    </trkpt>
    <trkpt lat="50.9597153" lon="6.8682294">
      <time>2025-07-14T19:09:48Z</time>
    </trkpt>
    <trkpt lat="50.9598912" lon="6.8681375">
      <time>2025-07-14T19:09:52Z</time>
    </trkpt>
    <trkpt lat="50.9601295" lon="6.8680080">
      <time>2025-07-14T19:09:58Z</time>
    </trkpt>
    <trkpt lat="50.9604999" lon="6.8678382">
      <time>2025-07-14T19:10:07Z</time>
    </trkpt>
    <trkpt lat="50.9606318" lon="6.8677836">
      <time>2025-07-14T19:10:10Z</time>
    </trkpt>
    <trkpt lat="50.9607192" lon="6.8677376">
      <time>2025-07-14T19:10:12Z</time>
    </trkpt>
    <trkpt lat="50.9607650" lon="6.8677146">
      <time>2025-07-14T19:10:13Z</time>
    </trkpt>
    <trkpt lat="50.9611382" lon="6.8676227">
      <time>2025-07-14T19:10:21Z</time>
    </trkpt>
    <trkpt lat="50.9612295" lon="6.8676011">
      <time>2025-07-14T19:10:23Z</time>
    </trkpt>
    <trkpt lat="50.9612728" lon="6.8675914">
      <time>2025-07-14T19:10:24Z</time>
    </trkpt>
    <trkpt lat="50.9613559" lon="6.8675668">
      <time>2025-07-14T19:10:26Z</time>
    </trkpt>
    <trkpt lat="50.9614866" lon="6.8675306">
      <time>2025-07-14T19:10:29Z</time>
    </trkpt>
    <trkpt lat="50.9617541" lon="6.8674835">
      <time>2025-07-14T19:10:35Z</time>
    </trkpt>
    <trkpt lat="50.9618865" lon="6.8674748">
      <time>2025-07-14T19:10:38Z</time>
    </trkpt>
    <trkpt lat="50.9622502" lon="6.8674620">
      <time>2025-07-14T19:10:46Z</time>
    </trkpt>
    <trkpt lat="50.9622912" lon="6.8674705">
      <time>2025-07-14T19:10:47Z</time>
    </trkpt>
    <trkpt lat="50.9626060" lon="6.8674239">
      <time>2025-07-14T19:10:54Z</time>
    </trkpt>
    <trkpt lat="50.9629089" lon="6.8672449">
      <time>2025-07-14T19:11:01Z</time>
    </trkpt>
    <trkpt lat="50.9631608" lon="6.8670527">
      <time>2025-07-14T19:11:07Z</time>
    </trkpt>
    <trkpt lat="50.9632482" lon="6.8670221">
      <time>2025-07-14T19:11:09Z</time>
    </trkpt>
    <trkpt lat="50.9633353" lon="6.8670158">
      <time>2025-07-14T19:11:11Z</time>
    </trkpt>
    <trkpt lat="50.9634715" lon="6.8670518">
      <time>2025-07-14T19:11:14Z</time>
    </trkpt>
    <trkpt lat="50.9635107" lon="6.8670732">
      <time>2025-07-14T19:11:15Z</time>
    </trkpt>
    <trkpt lat="50.9635882" lon="6.8671325">
      <time>2025-07-14T19:11:17Z</time>
    </trkpt>
    <trkpt lat="50.9636557" lon="6.8672147">
      <time>2025-07-14T19:11:19Z</time>
    </trkpt>
    <trkpt lat="50.9636857" lon="6.8672602">
      <time>2025-07-14T19:11:20Z</time>
    </trkpt>
    <trkpt lat="50.9637115" lon="6.8673143">
      <time>2025-07-14T19:11:21Z</time>
    </trkpt>
    <trkpt lat="50.9638386" lon="6.8675280">
      <time>2025-07-14T19:11:26Z</time>
    </trkpt>
    <trkpt lat="50.9640059" lon="6.8676880">
      <time>2025-07-14T19:11:31Z</time>
    </trkpt>
    <trkpt lat="50.9641822" lon="6.8678223">
      <time>2025-07-14T19:11:37Z</time>
    </trkpt>
    <trkpt lat="50.9642454" lon="6.8678475">
      <time>2025-07-14T19:11:39Z</time>
    </trkpt>
    <trkpt lat="50.9642884" lon="6.8679657">
      <time>2025-07-14T19:11:41Z</time>
    </trkpt>
    <trkpt lat="50.9643420" lon="6.8684221">
      <time>2025-07-14T19:11:47Z</time>
    </trkpt>
    <trkpt lat="50.9643329" lon="6.8684939">
      <time>2025-07-14T19:11:48Z</time>
    </trkpt>
    <trkpt lat="50.9642872" lon="6.8688220">
      <time>2025-07-14T19:11:53Z</time>
    </trkpt>
    <trkpt lat="50.9642248" lon="6.8692903">
      <time>2025-07-14T19:12:01Z</time>
    </trkpt>
    <trkpt lat="50.9641716" lon="6.8695823">
      <time>2025-07-14T19:12:06Z</time>
    </trkpt>
    <trkpt lat="50.9641562" lon="6.8696417">
      <time>2025-07-14T19:12:07Z</time>
    </trkpt>
    <trkpt lat="50.9640932" lon="6.8697161">
      <time>2025-07-14T19:12:09Z</time>
    </trkpt>
    <trkpt lat="50.9640539" lon="6.8697254">
      <time>2025-07-14T19:12:10Z</time>
    </trkpt>
    <trkpt lat="50.9638953" lon="6.8697038">
      <time>2025-07-14T19:12:14Z</time>
    </trkpt>
    <trkpt lat="50.9636042" lon="6.8696539">
      <time>2025-07-14T19:12:21Z</time>
    </trkpt>
    <trkpt lat="50.9633335" lon="6.8696253">
      <time>2025-07-14T19:12:27Z</time>
    </trkpt>
    <trkpt lat="50.9632881" lon="6.8696159">
      <time>2025-07-14T19:12:28Z</time>
    </trkpt>
    <trkpt lat="50.9630919" lon="6.8696221">
      <time>2025-07-14T19:12:33Z</time>
    </trkpt>
    <trkpt lat="50.9630119" lon="6.8696341">
      <time>2025-07-14T19:12:35Z</time>
    </trkpt>
    <trkpt lat="50.9627142" lon="6.8696513">
      <time>2025-07-14T19:12:42Z</time>
    </trkpt>
    <trkpt lat="50.9626750" lon="6.8696607">
      <time>2025-07-14T19:12:43Z</time>
    </trkpt>
    <trkpt lat="50.9623878" lon="6.8697111">
      <time>2025-07-14T19:12:50Z</time>
    </trkpt>
    <trkpt lat="50.9620617" lon="6.8697512">
      <time>2025-07-14T19:12:58Z</time>
    </trkpt>
    <trkpt lat="50.9617757" lon="6.8698260">
      <time>2025-07-14T19:13:05Z</time>
    </trkpt>
    <trkpt lat="50.9615200" lon="6.8698911">
      <time>2025-07-14T19:13:11Z</time>
    </trkpt>
    <trkpt lat="50.9614388" lon="6.8699178">
      <time>2025-07-14T19:13:13Z</time>
    </trkpt>
    <trkpt lat="50.9613934" lon="6.8699348">
      <time>2025-07-14T19:13:14Z</time>
    </trkpt>
    <trkpt lat="50.9612763" lon="6.8699759">
      <time>2025-07-14T19:13:17Z</time>
    </trkpt>
    <trkpt lat="50.9611103" lon="6.8700393">
      <time>2025-07-14T19:13:21Z</time>
    </trkpt>
    <trkpt lat="50.9607357" lon="6.8702034">
      <time>2025-07-14T19:13:30Z</time>
    </trkpt>
    <trkpt lat="50.9604671" lon="6.8702750">
      <time>2025-07-14T19:13:36Z</time>
    </trkpt>
    <trkpt lat="50.9604220" lon="6.8702853">
      <time>2025-07-14T19:13:37Z</time>
    </trkpt>
    <trkpt lat="50.9600922" lon="6.8703491">
      <time>2025-07-14T19:13:44Z</time>
    </trkpt>
    <trkpt lat="50.9599887" lon="6.8703732">
      <time>2025-07-14T19:13:46Z</time>
    </trkpt>
    <trkpt lat="50.9597773" lon="6.8703991">
      <time>2025-07-14T19:13:50Z</time>
    </trkpt>
    <trkpt lat="50.9596746" lon="6.8704184">
      <time>2025-07-14T19:13:52Z</time>
    </trkpt>
    <trkpt lat="50.9595791" lon="6.8704545">
      <time>2025-07-14T19:13:54Z</time>
    </trkpt>
    <trkpt lat="50.9595410" lon="6.8704925">
      <time>2025-07-14T19:13:55Z</time>
    </trkpt>
    <trkpt lat="50.9594669" lon="6.8705734">
      <time>2025-07-14T19:13:57Z</time>
    </trkpt>
    <trkpt lat="50.9593192" lon="6.8706942">
      <time>2025-07-14T19:14:01Z</time>
    </trkpt>
    <trkpt lat="50.9593073" lon="6.8707410">
      <time>2025-07-14T19:14:02Z</time>
    </trkpt>
    <trkpt lat="50.9593179" lon="6.8708631">
      <time>2025-07-14T19:14:04Z</time>
    </trkpt>
    <trkpt lat="50.9593283" lon="6.8709945">
      <time>2025-07-14T19:14:06Z</time>
    </trkpt>
    <trkpt lat="50.9593425" lon="6.8710606">
      <time>2025-07-14T19:14:07Z</time>
    </trkpt>
    <trkpt lat="50.9593653" lon="6.8711230">
      <time>2025-07-14T19:14:08Z</time>
    </trkpt>
    <trkpt lat="50.9593856" lon="6.8711906">
      <time>2025-07-14T19:14:09Z</time>
    </trkpt>
    <trkpt lat="50.9594044" lon="6.8712561">
      <time>2025-07-14T19:14:10Z</time>
    </trkpt>
    <trkpt lat="50.9594230" lon="6.8713210">
      <time>2025-07-14T19:14:11Z</time>
    </trkpt>
    <trkpt lat="50.9594350" lon="6.8713870">
      <time>2025-07-14T19:14:12Z</time>
    </trkpt>
    <trkpt lat="50.9595057" lon="6.8716647">
      <time>2025-07-14T19:14:16Z</time>
    </trkpt>
    <trkpt lat="50.9595466" lon="6.8718140">
      <time>2025-07-14T19:14:18Z</time>
    </trkpt>
    <trkpt lat="50.9596122" lon="6.8721105">
      <time>2025-07-14T19:14:22Z</time>
    </trkpt>
    <trkpt lat="50.9596795" lon="6.8725340">
      <time>2025-07-14T19:14:28Z</time>
    </trkpt>
    <trkpt lat="50.9596969" lon="6.8726787">
      <time>2025-07-14T19:14:30Z</time>
    </trkpt>
    <trkpt lat="50.9597196" lon="6.8728086">
      <time>2025-07-14T19:14:32Z</time>
    </trkpt>
    <trkpt lat="50.9597630" lon="6.8729326">
      <time>2025-07-14T19:14:35Z</time>
    </trkpt>
    <trkpt lat="50.9597865" lon="6.8729857">
      <time>2025-07-14T19:14:39Z</time>
    </trkpt>
    <trkpt lat="50.9597995" lon="6.8731506">
      <time>2025-07-14T19:14:43Z</time>
    </trkpt>
    <trkpt lat="50.9598072" lon="6.8733178">
      <time>2025-07-14T19:14:46Z</time>
    </trkpt>
    <trkpt lat="50.9598274" lon="6.8734948">
      <time>2025-07-14T19:14:49Z</time>
    </trkpt>
    <trkpt lat="50.9598467" lon="6.8736783">
      <time>2025-07-14T19:14:52Z</time>
    </trkpt>
    <trkpt lat="50.9598406" lon="6.8738768">
      <time>2025-07-14T19:14:55Z</time>
    </trkpt>
    <trkpt lat="50.9598360" lon="6.8739427">
      <time>2025-07-14T19:14:56Z</time>
    </trkpt>
    <trkpt lat="50.9598207" lon="6.8743708">
      <time>2025-07-14T19:15:03Z</time>
    </trkpt>
    <trkpt lat="50.9597713" lon="6.8749697">
      <time>2025-07-14T19:15:13Z</time>
    </trkpt>
    <trkpt lat="50.9597436" lon="6.8754549">
      <time>2025-07-14T19:15:21Z</time>
    </trkpt>
    <trkpt lat="50.9597502" lon="6.8756351">
      <time>2025-07-14T19:15:24Z</time>
    </trkpt>
    <trkpt lat="50.9597640" lon="6.8758742">
      <time>2025-07-14T19:15:28Z</time>
    </trkpt>
    <trkpt lat="50.9598042" lon="6.8762762">
      <time>2025-07-14T19:15:34Z</time>
    </trkpt>
    <trkpt lat="50.9598471" lon="6.8765916">
      <time>2025-07-14T19:15:39Z</time>
    </trkpt>
    <trkpt lat="50.9598802" lon="6.8768955">
      <time>2025-07-14T19:15:44Z</time>
    </trkpt>
    <trkpt lat="50.9598163" lon="6.8771117">
      <time>2025-07-14T19:15:48Z</time>
    </trkpt>
    <trkpt lat="50.9598204" lon="6.8773275">
      <time>2025-07-14T19:15:52Z</time>
    </trkpt>
    <trkpt lat="50.9599455" lon="6.8774965">
      <time>2025-07-14T19:15:57Z</time>
    </trkpt>
    <trkpt lat="50.9601655" lon="6.8777262">
      <time>2025-07-14T19:16:05Z</time>
    </trkpt>
    <trkpt lat="50.9602428" lon="6.8777722">
      <time>2025-07-14T19:16:08Z</time>
    </trkpt>
    <trkpt lat="50.9602965" lon="6.8777437">
      <time>2025-07-14T19:16:10Z</time>
    </trkpt>
    <trkpt lat="50.9605822" lon="6.8776020">
      <time>2025-07-14T19:16:19Z</time>
    </trkpt>
    <trkpt lat="50.9607811" lon="6.8775165">
      <time>2025-07-14T19:16:25Z</time>
    </trkpt>
    <trkpt lat="50.9609256" lon="6.8775132">
      <time>2025-07-14T19:16:29Z</time>
    </trkpt>
    <trkpt lat="50.9609898" lon="6.8774924">
      <time>2025-07-14T19:16:31Z</time>
    </trkpt>
    <trkpt lat="50.9611989" lon="6.8773640">
      <time>2025-07-14T19:16:37Z</time>
    </trkpt>
    <trkpt lat="50.9614742" lon="6.8772269">
      <time>2025-07-14T19:16:44Z</time>
    </trkpt>
    <trkpt lat="50.9617399" lon="6.8770615">
      <time>2025-07-14T19:16:51Z</time>
    </trkpt>
    <trkpt lat="50.9619046" lon="6.8769611">
      <time>2025-07-14T19:16:56Z</time>
    </trkpt>
    <trkpt lat="50.9619585" lon="6.8768935">
      <time>2025-07-14T19:16:58Z</time>
    </trkpt>
    <trkpt lat="50.9619882" lon="6.8768039">
      <time>2025-07-14T19:17:00Z</time>
    </trkpt>
    <trkpt lat="50.9620104" lon="6.8765065">
      <time>2025-07-14T19:17:05Z</time>
    </trkpt>
    <trkpt lat="50.9620269" lon="6.8764433">
      <time>2025-07-14T19:17:06Z</time>
    </trkpt>
    <trkpt lat="50.9621288" lon="6.8763353">
      <time>2025-07-14T19:17:10Z</time>
    </trkpt>
    <trkpt lat="50.9622745" lon="6.8763477">
      <time>2025-07-14T19:17:15Z</time>
    </trkpt>
    <trkpt lat="50.9623773" lon="6.8763525">
      <time>2025-07-14T19:17:18Z</time>
    </trkpt>
    <trkpt lat="50.9624374" lon="6.8763480">
      <time>2025-07-14T19:17:20Z</time>
    </trkpt>
    <trkpt lat="50.9626734" lon="6.8764437">
      <time>2025-07-14T19:17:26Z</time>
    </trkpt>
    <trkpt lat="50.9628429" lon="6.8765780">
      <time>2025-07-14T19:17:31Z</time>
    </trkpt>
    <trkpt lat="50.9629247" lon="6.8766995">
      <time>2025-07-14T19:17:34Z</time>
    </trkpt>
    <trkpt lat="50.9630154" lon="6.8767812">
      <time>2025-07-14T19:17:37Z</time>
    </trkpt>
    <trkpt lat="50.9631771" lon="6.8769640">
      <time>2025-07-14T19:17:43Z</time>
    </trkpt>
    <trkpt lat="50.9632763" lon="6.8770192">
      <time>2025-07-14T19:17:46Z</time>
    </trkpt>
    <trkpt lat="50.9632954" lon="6.8770669">
      <time>2025-07-14T19:17:47Z</time>
    </trkpt>
    <trkpt lat="50.9633571" lon="6.8771894">
      <time>2025-07-14T19:17:50Z</time>
    </trkpt>
    <trkpt lat="50.9634517" lon="6.8772725">
      <time>2025-07-14T19:17:53Z</time>
    </trkpt>
    <trkpt lat="50.9634708" lon="6.8771827">
      <time>2025-07-14T19:17:56Z</time>
    </trkpt>
    <trkpt lat="50.9634730" lon="6.8771969">
      <time>2025-07-14T19:17:58Z</time>
    </trkpt>
  </trkseg></trk>
</gpx>
