<?xml version="1.0" encoding="UTF-8"?>
<gpx version="1.1" creator="Diary FIT converter" xmlns="http://www.topografix.com/GPX/1/1">
  <trk><name>Cycling</name><trkseg>
    <trkpt lat="50.8749749" lon="7.0782651">
      <time>2020-04-05T20:03:58Z</time>
    </trkpt>
    <trkpt lat="50.8749311" lon="7.0782418">
      <time>2020-04-05T20:03:59Z</time>
    </trkpt>
    <trkpt lat="50.8749532" lon="7.0781360">
      <time>2020-04-05T20:04:01Z</time>
    </trkpt>
    <trkpt lat="50.8749191" lon="7.0780649">
      <time>2020-04-05T20:04:02Z</time>
    </trkpt>
    <trkpt lat="50.8748974" lon="7.0779409">
      <time>2020-04-05T20:04:04Z</time>
    </trkpt>
    <trkpt lat="50.8748824" lon="7.0777968">
      <time>2020-04-05T20:04:06Z</time>
    </trkpt>
    <trkpt lat="50.8748819" lon="7.0777486">
      <time>2020-04-05T20:04:07Z</time>
    </trkpt>
    <trkpt lat="50.8748354" lon="7.0774388">
      <time>2020-04-05T20:04:11Z</time>
    </trkpt>
    <trkpt lat="50.8748059" lon="7.0772407">
      <time>2020-04-05T20:04:14Z</time>
    </trkpt>
    <trkpt lat="50.8747620" lon="7.0770143">
      <time>2020-04-05T20:04:17Z</time>
    </trkpt>
    <trkpt lat="50.8747264" lon="7.0768228">
      <time>2020-04-05T20:04:20Z</time>
    </trkpt>
    <trkpt lat="50.8746391" lon="7.0763862">
      <time>2020-04-05T20:04:27Z</time>
    </trkpt>
    <trkpt lat="50.8745295" lon="7.0757766">
      <time>2020-04-05T20:04:36Z</time>
    </trkpt>
    <trkpt lat="50.8744579" lon="7.0754160">
      <time>2020-04-05T20:04:41Z</time>
    </trkpt>
    <trkpt lat="50.8744103" lon="7.0752019">
      <time>2020-04-05T20:04:44Z</time>
    </trkpt>
    <trkpt lat="50.8743626" lon="7.0749800">
      <time>2020-04-05T20:04:47Z</time>
    </trkpt>
    <trkpt lat="50.8742956" lon="7.0745994">
      <time>2020-04-05T20:04:52Z</time>
    </trkpt>
    <trkpt lat="50.8742280" lon="7.0742435">
      <time>2020-04-05T20:04:57Z</time>
    </trkpt>
    <trkpt lat="50.8742020" lon="7.0741576">
      <time>2020-04-05T20:04:59Z</time>
    </trkpt>
    <trkpt lat="50.8741658" lon="7.0741141">
      <time>2020-04-05T20:05:01Z</time>
    </trkpt>
    <trkpt lat="50.8741350" lon="7.0741078">
      <time>2020-04-05T20:05:02Z</time>
    </trkpt>
    <trkpt lat="50.8739530" lon="7.0741779">
      <time>2020-04-05T20:05:07Z</time>
    </trkpt>
    <trkpt lat="50.8737486" lon="7.0742955">
      <time>2020-04-05T20:05:12Z</time>
    </trkpt>
    <trkpt lat="50.8735948" lon="7.0743894">
      <time>2020-04-05T20:05:16Z</time>
    </trkpt>
    <trkpt lat="50.8734286" lon="7.0744867">
      <time>2020-04-05T20:05:20Z</time>
    </trkpt>
    <trkpt lat="50.8733867" lon="7.0745127">
      <time>2020-04-05T20:05:21Z</time>
    </trkpt>
    <trkpt lat="50.8730838" lon="7.0746861">
      <time>2020-04-05T20:05:28Z</time>
    </trkpt>
    <trkpt lat="50.8727357" lon="7.0748688">
      <time>2020-04-05T20:05:37Z</time>
    </trkpt>
    <trkpt lat="50.8726323" lon="7.0749313">
      <time>2020-04-05T20:05:40Z</time>
    </trkpt>
    <trkpt lat="50.8725141" lon="7.0749774">
      <time>2020-04-05T20:05:44Z</time>
    </trkpt>
    <trkpt lat="50.8724518" lon="7.0749218">
      <time>2020-04-05T20:05:47Z</time>
    </trkpt>
    <trkpt lat="50.8724414" lon="7.0748952">
      <time>2020-04-05T20:05:48Z</time>
    </trkpt>
    <trkpt lat="50.8724174" lon="7.0747915">
      <time>2020-04-05T20:05:51Z</time>
    </trkpt>
    <trkpt lat="50.8724136" lon="7.0747118">
      <time>2020-04-05T20:05:53Z</time>
    </trkpt>
    <trkpt lat="50.8724086" lon="7.0745924">
      <time>2020-04-05T20:05:56Z</time>
    </trkpt>
    <trkpt lat="50.8723934" lon="7.0743495">
      <time>2020-04-05T20:06:01Z</time>
    </trkpt>
    <trkpt lat="50.8723585" lon="7.0739570">
      <time>2020-04-05T20:06:09Z</time>
    </trkpt>
    <trkpt lat="50.8723516" lon="7.0737620">
      <time>2020-04-05T20:06:14Z</time>
    </trkpt>
    <trkpt lat="50.8723263" lon="7.0734717">
      <time>2020-04-05T20:06:22Z</time>
    </trkpt>
    <trkpt lat="50.8722785" lon="7.0731187">
      <time>2020-04-05T20:06:28Z</time>
    </trkpt>
    <trkpt lat="50.8722755" lon="7.0730414">
      <time>2020-04-05T20:06:29Z</time>
    </trkpt>
    <trkpt lat="50.8722712" lon="7.0728757">
      <time>2020-04-05T20:06:31Z</time>
    </trkpt>
    <trkpt lat="50.8722725" lon="7.0727311">
      <time>2020-04-05T20:06:33Z</time>
    </trkpt>
    <trkpt lat="50.8723053" lon="7.0724275">
      <time>2020-04-05T20:06:37Z</time>
    </trkpt>
    <trkpt lat="50.8723269" lon="7.0722772">
      <time>2020-04-05T20:06:39Z</time>
    </trkpt>
    <trkpt lat="50.8723344" lon="7.0721989">
      <time>2020-04-05T20:06:40Z</time>
    </trkpt>
    <trkpt lat="50.8723400" lon="7.0720329">
      <time>2020-04-05T20:06:42Z</time>
    </trkpt>
    <trkpt lat="50.8723433" lon="7.0719651">
      <time>2020-04-05T20:06:43Z</time>
    </trkpt>
    <trkpt lat="50.8723482" lon="7.0717617">
      <time>2020-04-05T20:06:46Z</time>
    </trkpt>
    <trkpt lat="50.8723360" lon="7.0716339">
      <time>2020-04-05T20:06:48Z</time>
    </trkpt>
    <trkpt lat="50.8723298" lon="7.0715848">
      <time>2020-04-05T20:06:49Z</time>
    </trkpt>
    <trkpt lat="50.8722651" lon="7.0712904">
      <time>2020-04-05T20:06:54Z</time>
    </trkpt>
    <trkpt lat="50.8721814" lon="7.0709214">
      <time>2020-04-05T20:07:00Z</time>
    </trkpt>
    <trkpt lat="50.8720714" lon="7.0704651">
      <time>2020-04-05T20:07:07Z</time>
    </trkpt>
    <trkpt lat="50.8720337" lon="7.0703025">
      <time>2020-04-05T20:07:09Z</time>
    </trkpt>
    <trkpt lat="50.8719353" lon="7.0698861">
      <time>2020-04-05T20:07:14Z</time>
    </trkpt>
    <trkpt lat="50.8718696" lon="7.0696042">
      <time>2020-04-05T20:07:17Z</time>
    </trkpt>
    <trkpt lat="50.8718193" lon="7.0693867">
      <time>2020-04-05T20:07:19Z</time>
    </trkpt>
    <trkpt lat="50.8717910" lon="7.0692727">
      <time>2020-04-05T20:07:20Z</time>
    </trkpt>
    <trkpt lat="50.8717069" lon="7.0689060">
      <time>2020-04-05T20:07:23Z</time>
    </trkpt>
    <trkpt lat="50.8716207" lon="7.0685275">
      <time>2020-04-05T20:07:26Z</time>
    </trkpt>
    <trkpt lat="50.8715116" lon="7.0678181">
      <time>2020-04-05T20:07:32Z</time>
    </trkpt>
    <trkpt lat="50.8714929" lon="7.0674483">
      <time>2020-04-05T20:07:36Z</time>
    </trkpt>
    <trkpt lat="50.8714890" lon="7.0672639">
      <time>2020-04-05T20:07:40Z</time>
    </trkpt>
    <trkpt lat="50.8715195" lon="7.0670888">
      <time>2020-04-05T20:07:45Z</time>
    </trkpt>
    <trkpt lat="50.8716823" lon="7.0669489">
      <time>2020-04-05T20:07:50Z</time>
    </trkpt>
    <trkpt lat="50.8717178" lon="7.0669058">
      <time>2020-04-05T20:07:51Z</time>
    </trkpt>
    <trkpt lat="50.8717560" lon="7.0668630">
      <time>2020-04-05T20:07:52Z</time>
    </trkpt>
    <trkpt lat="50.8719386" lon="7.0666996">
      <time>2020-04-05T20:07:56Z</time>
    </trkpt>
    <trkpt lat="50.8721874" lon="7.0664256">
      <time>2020-04-05T20:08:01Z</time>
    </trkpt>
    <trkpt lat="50.8722539" lon="7.0663431">
      <time>2020-04-05T20:08:02Z</time>
    </trkpt>
    <trkpt lat="50.8724666" lon="7.0660225">
      <time>2020-04-05T20:08:06Z</time>
    </trkpt>
    <trkpt lat="50.8725609" lon="7.0658241">
      <time>2020-04-05T20:08:08Z</time>
    </trkpt>
    <trkpt lat="50.8726854" lon="7.0655159">
      <time>2020-04-05T20:08:11Z</time>
    </trkpt>
    <trkpt lat="50.8728279" lon="7.0651210">
      <time>2020-04-05T20:08:15Z</time>
    </trkpt>
    <trkpt lat="50.8730461" lon="7.0646149">
      <time>2020-04-05T20:08:20Z</time>
    </trkpt>
    <trkpt lat="50.8733068" lon="7.0641288">
      <time>2020-04-05T20:08:25Z</time>
    </trkpt>
    <trkpt lat="50.8736689" lon="7.0636212">
      <time>2020-04-05T20:08:31Z</time>
    </trkpt>
    <trkpt lat="50.8738614" lon="7.0633751">
      <time>2020-04-05T20:08:34Z</time>
    </trkpt>
    <trkpt lat="50.8740226" lon="7.0631704">
      <time>2020-04-05T20:08:37Z</time>
    </trkpt>
    <trkpt lat="50.8740772" lon="7.0630993">
      <time>2020-04-05T20:08:38Z</time>
    </trkpt>
    <trkpt lat="50.8743391" lon="7.0627836">
      <time>2020-04-05T20:08:43Z</time>
    </trkpt>
    <trkpt lat="50.8745153" lon="7.0625150">
      <time>2020-04-05T20:08:47Z</time>
    </trkpt>
    <trkpt lat="50.8746277" lon="7.0623977">
      <time>2020-04-05T20:08:49Z</time>
    </trkpt>
    <trkpt lat="50.8749975" lon="7.0618952">
      <time>2020-04-05T20:08:57Z</time>
    </trkpt>
    <trkpt lat="50.8753928" lon="7.0614129">
      <time>2020-04-05T20:09:05Z</time>
    </trkpt>
    <trkpt lat="50.8755898" lon="7.0611845">
      <time>2020-04-05T20:09:09Z</time>
    </trkpt>
    <trkpt lat="50.8757451" lon="7.0610224">
      <time>2020-04-05T20:09:12Z</time>
    </trkpt>
    <trkpt lat="50.8760082" lon="7.0607304">
      <time>2020-04-05T20:09:17Z</time>
    </trkpt>
    <trkpt lat="50.8762053" lon="7.0604937">
      <time>2020-04-05T20:09:21Z</time>
    </trkpt>
    <trkpt lat="50.8763387" lon="7.0603220">
      <time>2020-04-05T20:09:24Z</time>
    </trkpt>
    <trkpt lat="50.8764930" lon="7.0601247">
      <time>2020-04-05T20:09:27Z</time>
    </trkpt>
    <trkpt lat="50.8767229" lon="7.0598031">
      <time>2020-04-05T20:09:32Z</time>
    </trkpt>
    <trkpt lat="50.8768637" lon="7.0596118">
      <time>2020-04-05T20:09:35Z</time>
    </trkpt>
    <trkpt lat="50.8769121" lon="7.0595567">
      <time>2020-04-05T20:09:36Z</time>
    </trkpt>
    <trkpt lat="50.8770696" lon="7.0594300">
      <time>2020-04-05T20:09:39Z</time>
    </trkpt>
    <trkpt lat="50.8771656" lon="7.0593576">
      <time>2020-04-05T20:09:41Z</time>
    </trkpt>
    <trkpt lat="50.8772468" lon="7.0592756">
      <time>2020-04-05T20:09:43Z</time>
    </trkpt>
    <trkpt lat="50.8772805" lon="7.0592193">
      <time>2020-04-05T20:09:44Z</time>
    </trkpt>
    <trkpt lat="50.8773045" lon="7.0591550">
      <time>2020-04-05T20:09:45Z</time>
    </trkpt>
    <trkpt lat="50.8773178" lon="7.0590053">
      <time>2020-04-05T20:09:47Z</time>
    </trkpt>
    <trkpt lat="50.8773243" lon="7.0588023">
      <time>2020-04-05T20:09:50Z</time>
    </trkpt>
    <trkpt lat="50.8773348" lon="7.0587164">
      <time>2020-04-05T20:09:51Z</time>
    </trkpt>
    <trkpt lat="50.8773827" lon="7.0585941">
      <time>2020-04-05T20:09:53Z</time>
    </trkpt>
    <trkpt lat="50.8774900" lon="7.0584733">
      <time>2020-04-05T20:09:56Z</time>
    </trkpt>
    <trkpt lat="50.8775381" lon="7.0584159">
      <time>2020-04-05T20:09:57Z</time>
    </trkpt>
    <trkpt lat="50.8777807" lon="7.0581734">
      <time>2020-04-05T20:10:02Z</time>
    </trkpt>
    <trkpt lat="50.8781807" lon="7.0577786">
      <time>2020-04-05T20:10:09Z</time>
    </trkpt>
    <trkpt lat="50.8782939" lon="7.0576820">
      <time>2020-04-05T20:10:11Z</time>
    </trkpt>
    <trkpt lat="50.8784615" lon="7.0575123">
      <time>2020-04-05T20:10:14Z</time>
    </trkpt>
    <trkpt lat="50.8785920" lon="7.0573565">
      <time>2020-04-05T20:10:17Z</time>
    </trkpt>
    <trkpt lat="50.8788005" lon="7.0571514">
      <time>2020-04-05T20:10:21Z</time>
    </trkpt>
    <trkpt lat="50.8789031" lon="7.0570430">
      <time>2020-04-05T20:10:23Z</time>
    </trkpt>
    <trkpt lat="50.8790539" lon="7.0568766">
      <time>2020-04-05T20:10:26Z</time>
    </trkpt>
    <trkpt lat="50.8791634" lon="7.0567343">
      <time>2020-04-05T20:10:28Z</time>
    </trkpt>
    <trkpt lat="50.8792023" lon="7.0566576">
      <time>2020-04-05T20:10:29Z</time>
    </trkpt>
    <trkpt lat="50.8793675" lon="7.0564898">
      <time>2020-04-05T20:10:32Z</time>
    </trkpt>
    <trkpt lat="50.8794679" lon="7.0563774">
      <time>2020-04-05T20:10:34Z</time>
    </trkpt>
    <trkpt lat="50.8795484" lon="7.0562527">
      <time>2020-04-05T20:10:36Z</time>
    </trkpt>
    <trkpt lat="50.8795832" lon="7.0562015">
      <time>2020-04-05T20:10:37Z</time>
    </trkpt>
    <trkpt lat="50.8796239" lon="7.0561572">
      <time>2020-04-05T20:10:38Z</time>
    </trkpt>
    <trkpt lat="50.8796953" lon="7.0560665">
      <time>2020-04-05T20:10:40Z</time>
    </trkpt>
    <trkpt lat="50.8797326" lon="7.0560174">
      <time>2020-04-05T20:10:41Z</time>
    </trkpt>
    <trkpt lat="50.8798094" lon="7.0559386">
      <time>2020-04-05T20:10:43Z</time>
    </trkpt>
    <trkpt lat="50.8799002" lon="7.0558667">
      <time>2020-04-05T20:10:45Z</time>
    </trkpt>
    <trkpt lat="50.8799822" lon="7.0557929">
      <time>2020-04-05T20:10:47Z</time>
    </trkpt>
    <trkpt lat="50.8800611" lon="7.0557373">
      <time>2020-04-05T20:10:49Z</time>
    </trkpt>
    <trkpt lat="50.8802849" lon="7.0556308">
      <time>2020-04-05T20:10:54Z</time>
    </trkpt>
    <trkpt lat="50.8803430" lon="7.0556139">
      <time>2020-04-05T20:10:55Z</time>
    </trkpt>
    <trkpt lat="50.8806349" lon="7.0555931">
      <time>2020-04-05T20:11:01Z</time>
    </trkpt>
    <trkpt lat="50.8807423" lon="7.0555710">
      <time>2020-04-05T20:11:03Z</time>
    </trkpt>
    <trkpt lat="50.8809404" lon="7.0555900">
      <time>2020-04-05T20:11:06Z</time>
    </trkpt>
    <trkpt lat="50.8810075" lon="7.0555781">
      <time>2020-04-05T20:11:07Z</time>
    </trkpt>
    <trkpt lat="50.8813608" lon="7.0555485">
      <time>2020-04-05T20:11:12Z</time>
    </trkpt>
    <trkpt lat="50.8817790" lon="7.0556351">
      <time>2020-04-05T20:11:17Z</time>
    </trkpt>
    <trkpt lat="50.8819286" lon="7.0556457">
      <time>2020-04-05T20:11:19Z</time>
    </trkpt>
    <trkpt lat="50.8821833" lon="7.0556651">
      <time>2020-04-05T20:11:23Z</time>
    </trkpt>
    <trkpt lat="50.8822352" lon="7.0556710">
      <time>2020-04-05T20:11:24Z</time>
    </trkpt>
    <trkpt lat="50.8823752" lon="7.0556878">
      <time>2020-04-05T20:11:27Z</time>
    </trkpt>
    <trkpt lat="50.8824543" lon="7.0556817">
      <time>2020-04-05T20:11:29Z</time>
    </trkpt>
    <trkpt lat="50.8825445" lon="7.0556615">
      <time>2020-04-05T20:11:32Z</time>
    </trkpt>
    <trkpt lat="50.8826636" lon="7.0556078">
      <time>2020-04-05T20:11:37Z</time>
    </trkpt>
    <trkpt lat="50.8827011" lon="7.0555972">
      <time>2020-04-05T20:11:38Z</time>
    </trkpt>
    <trkpt lat="50.8829765" lon="7.0556674">
      <time>2020-04-05T20:11:43Z</time>
    </trkpt>
    <trkpt lat="50.8833324" lon="7.0556874">
      <time>2020-04-05T20:11:49Z</time>
    </trkpt>
    <trkpt lat="50.8837696" lon="7.0556977">
      <time>2020-04-05T20:11:56Z</time>
    </trkpt>
    <trkpt lat="50.8840327" lon="7.0557023">
      <time>2020-04-05T20:12:00Z</time>
    </trkpt>
    <trkpt lat="50.8841726" lon="7.0557076">
      <time>2020-04-05T20:12:02Z</time>
    </trkpt>
    <trkpt lat="50.8843191" lon="7.0557065">
      <time>2020-04-05T20:12:04Z</time>
    </trkpt>
    <trkpt lat="50.8846605" lon="7.0556984">
      <time>2020-04-05T20:12:08Z</time>
    </trkpt>
    <trkpt lat="50.8850354" lon="7.0556662">
      <time>2020-04-05T20:12:12Z</time>
    </trkpt>
    <trkpt lat="50.8852356" lon="7.0557242">
      <time>2020-04-05T20:12:14Z</time>
    </trkpt>
    <trkpt lat="50.8854148" lon="7.0557394">
      <time>2020-04-05T20:12:16Z</time>
    </trkpt>
    <trkpt lat="50.8855813" lon="7.0557558">
      <time>2020-04-05T20:12:18Z</time>
    </trkpt>
    <trkpt lat="50.8857381" lon="7.0557530">
      <time>2020-04-05T20:12:20Z</time>
    </trkpt>
    <trkpt lat="50.8858915" lon="7.0557558">
      <time>2020-04-05T20:12:22Z</time>
    </trkpt>
    <trkpt lat="50.8862027" lon="7.0557570">
      <time>2020-04-05T20:12:26Z</time>
    </trkpt>
    <trkpt lat="50.8863591" lon="7.0557703">
      <time>2020-04-05T20:12:28Z</time>
    </trkpt>
    <trkpt lat="50.8866596" lon="7.0557878">
      <time>2020-04-05T20:12:32Z</time>
    </trkpt>
    <trkpt lat="50.8868024" lon="7.0557837">
      <time>2020-04-05T20:12:34Z</time>
    </trkpt>
    <trkpt lat="50.8870718" lon="7.0557870">
      <time>2020-04-05T20:12:38Z</time>
    </trkpt>
    <trkpt lat="50.8872735" lon="7.0557904">
      <time>2020-04-05T20:12:41Z</time>
    </trkpt>
    <trkpt lat="50.8874642" lon="7.0557617">
      <time>2020-04-05T20:12:44Z</time>
    </trkpt>
    <trkpt lat="50.8875799" lon="7.0556872">
      <time>2020-04-05T20:12:46Z</time>
    </trkpt>
    <trkpt lat="50.8877738" lon="7.0554292">
      <time>2020-04-05T20:12:50Z</time>
    </trkpt>
    <trkpt lat="50.8878138" lon="7.0553578">
      <time>2020-04-05T20:12:51Z</time>
    </trkpt>
    <trkpt lat="50.8880014" lon="7.0549919">
      <time>2020-04-05T20:12:56Z</time>
    </trkpt>
    <trkpt lat="50.8880411" lon="7.0549185">
      <time>2020-04-05T20:12:57Z</time>
    </trkpt>
    <trkpt lat="50.8881609" lon="7.0547123">
      <time>2020-04-05T20:13:00Z</time>
    </trkpt>
    <trkpt lat="50.8882779" lon="7.0544941">
      <time>2020-04-05T20:13:03Z</time>
    </trkpt>
    <trkpt lat="50.8884917" lon="7.0540587">
      <time>2020-04-05T20:13:09Z</time>
    </trkpt>
    <trkpt lat="50.8885605" lon="7.0539173">
      <time>2020-04-05T20:13:11Z</time>
    </trkpt>
    <trkpt lat="50.8886296" lon="7.0537889">
      <time>2020-04-05T20:13:13Z</time>
    </trkpt>
    <trkpt lat="50.8887499" lon="7.0536103">
      <time>2020-04-05T20:13:16Z</time>
    </trkpt>
    <trkpt lat="50.8889608" lon="7.0532907">
      <time>2020-04-05T20:13:21Z</time>
    </trkpt>
    <trkpt lat="50.8890431" lon="7.0531573">
      <time>2020-04-05T20:13:23Z</time>
    </trkpt>
    <trkpt lat="50.8893343" lon="7.0526563">
      <time>2020-04-05T20:13:30Z</time>
    </trkpt>
    <trkpt lat="50.8894649" lon="7.0524535">
      <time>2020-04-05T20:13:33Z</time>
    </trkpt>
    <trkpt lat="50.8895942" lon="7.0522537">
      <time>2020-04-05T20:13:36Z</time>
    </trkpt>
    <trkpt lat="50.8896715" lon="7.0521184">
      <time>2020-04-05T20:13:38Z</time>
    </trkpt>
    <trkpt lat="50.8897101" lon="7.0520517">
      <time>2020-04-05T20:13:39Z</time>
    </trkpt>
    <trkpt lat="50.8897816" lon="7.0519116">
      <time>2020-04-05T20:13:41Z</time>
    </trkpt>
    <trkpt lat="50.8900855" lon="7.0513804">
      <time>2020-04-05T20:13:49Z</time>
    </trkpt>
    <trkpt lat="50.8903628" lon="7.0510154">
      <time>2020-04-05T20:13:55Z</time>
    </trkpt>
    <trkpt lat="50.8904001" lon="7.0509660">
      <time>2020-04-05T20:13:56Z</time>
    </trkpt>
    <trkpt lat="50.8906131" lon="7.0507120">
      <time>2020-04-05T20:14:00Z</time>
    </trkpt>
    <trkpt lat="50.8907047" lon="7.0505990">
      <time>2020-04-05T20:14:02Z</time>
    </trkpt>
    <trkpt lat="50.8908981" lon="7.0503026">
      <time>2020-04-05T20:14:06Z</time>
    </trkpt>
    <trkpt lat="50.8910401" lon="7.0501051">
      <time>2020-04-05T20:14:09Z</time>
    </trkpt>
    <trkpt lat="50.8911861" lon="7.0499201">
      <time>2020-04-05T20:14:12Z</time>
    </trkpt>
    <trkpt lat="50.8913753" lon="7.0496325">
      <time>2020-04-05T20:14:16Z</time>
    </trkpt>
    <trkpt lat="50.8914547" lon="7.0495096">
      <time>2020-04-05T20:14:18Z</time>
    </trkpt>
    <trkpt lat="50.8918107" lon="7.0490386">
      <time>2020-04-05T20:14:25Z</time>
    </trkpt>
    <trkpt lat="50.8920629" lon="7.0487104">
      <time>2020-04-05T20:14:30Z</time>
    </trkpt>
    <trkpt lat="50.8922288" lon="7.0485299">
      <time>2020-04-05T20:14:33Z</time>
    </trkpt>
    <trkpt lat="50.8926592" lon="7.0480541">
      <time>2020-04-05T20:14:41Z</time>
    </trkpt>
    <trkpt lat="50.8927647" lon="7.0479477">
      <time>2020-04-05T20:14:43Z</time>
    </trkpt>
    <trkpt lat="50.8932426" lon="7.0474435">
      <time>2020-04-05T20:14:52Z</time>
    </trkpt>
    <trkpt lat="50.8933942" lon="7.0473045">
      <time>2020-04-05T20:14:55Z</time>
    </trkpt>
    <trkpt lat="50.8936111" lon="7.0471088">
      <time>2020-04-05T20:14:59Z</time>
    </trkpt>
    <trkpt lat="50.8938127" lon="7.0469492">
      <time>2020-04-05T20:15:03Z</time>
    </trkpt>
    <trkpt lat="50.8938585" lon="7.0469138">
      <time>2020-04-05T20:15:04Z</time>
    </trkpt>
    <trkpt lat="50.8940585" lon="7.0467473">
      <time>2020-04-05T20:15:09Z</time>
    </trkpt>
    <trkpt lat="50.8942385" lon="7.0466147">
      <time>2020-04-05T20:15:14Z</time>
    </trkpt>
    <trkpt lat="50.8942981" lon="7.0465750">
      <time>2020-04-05T20:15:16Z</time>
    </trkpt>
    <trkpt lat="50.8944788" lon="7.0464273">
      <time>2020-04-05T20:15:23Z</time>
    </trkpt>
    <trkpt lat="50.8945997" lon="7.0463179">
      <time>2020-04-05T20:15:27Z</time>
    </trkpt>
    <trkpt lat="50.8946776" lon="7.0462603">
      <time>2020-04-05T20:15:29Z</time>
    </trkpt>
    <trkpt lat="50.8949613" lon="7.0459547">
      <time>2020-04-05T20:15:36Z</time>
    </trkpt>
    <trkpt lat="50.8952479" lon="7.0455750">
      <time>2020-04-05T20:15:43Z</time>
    </trkpt>
    <trkpt lat="50.8955573" lon="7.0450405">
      <time>2020-04-05T20:15:51Z</time>
    </trkpt>
    <trkpt lat="50.8957647" lon="7.0445243">
      <time>2020-04-05T20:15:58Z</time>
    </trkpt>
    <trkpt lat="50.8958748" lon="7.0442236">
      <time>2020-04-05T20:16:02Z</time>
    </trkpt>
    <trkpt lat="50.8960493" lon="7.0437579">
      <time>2020-04-05T20:16:08Z</time>
    </trkpt>
    <trkpt lat="50.8961108" lon="7.0436045">
      <time>2020-04-05T20:16:10Z</time>
    </trkpt>
    <trkpt lat="50.8961889" lon="7.0433616">
      <time>2020-04-05T20:16:13Z</time>
    </trkpt>
    <trkpt lat="50.8962180" lon="7.0432876">
      <time>2020-04-05T20:16:14Z</time>
    </trkpt>
    <trkpt lat="50.8964824" lon="7.0427006">
      <time>2020-04-05T20:16:22Z</time>
    </trkpt>
    <trkpt lat="50.8965448" lon="7.0425503">
      <time>2020-04-05T20:16:24Z</time>
    </trkpt>
    <trkpt lat="50.8965732" lon="7.0424703">
      <time>2020-04-05T20:16:25Z</time>
    </trkpt>
    <trkpt lat="50.8966178" lon="7.0423058">
      <time>2020-04-05T20:16:27Z</time>
    </trkpt>
    <trkpt lat="50.8966520" lon="7.0421280">
      <time>2020-04-05T20:16:29Z</time>
    </trkpt>
    <trkpt lat="50.8967987" lon="7.0413727">
      <time>2020-04-05T20:16:38Z</time>
    </trkpt>
    <trkpt lat="50.8969184" lon="7.0407282">
      <time>2020-04-05T20:16:46Z</time>
    </trkpt>
    <trkpt lat="50.8969447" lon="7.0405754">
      <time>2020-04-05T20:16:48Z</time>
    </trkpt>
    <trkpt lat="50.8969878" lon="7.0403502">
      <time>2020-04-05T20:16:51Z</time>
    </trkpt>
    <trkpt lat="50.8970332" lon="7.0400549">
      <time>2020-04-05T20:16:55Z</time>
    </trkpt>
    <trkpt lat="50.8970428" lon="7.0399868">
      <time>2020-04-05T20:16:56Z</time>
    </trkpt>
    <trkpt lat="50.8971163" lon="7.0396187">
      <time>2020-04-05T20:17:02Z</time>
    </trkpt>
    <trkpt lat="50.8971884" lon="7.0392488">
      <time>2020-04-05T20:17:08Z</time>
    </trkpt>
    <trkpt lat="50.8972454" lon="7.0389651">
      <time>2020-04-05T20:17:13Z</time>
    </trkpt>
    <trkpt lat="50.8972660" lon="7.0388611">
      <time>2020-04-05T20:17:15Z</time>
    </trkpt>
    <trkpt lat="50.8972914" lon="7.0387673">
      <time>2020-04-05T20:17:17Z</time>
    </trkpt>
    <trkpt lat="50.8973333" lon="7.0385775">
      <time>2020-04-05T20:17:21Z</time>
    </trkpt>
    <trkpt lat="50.8974086" lon="7.0381450">
      <time>2020-04-05T20:17:28Z</time>
    </trkpt>
    <trkpt lat="50.8974828" lon="7.0377050">
      <time>2020-04-05T20:17:34Z</time>
    </trkpt>
    <trkpt lat="50.8975351" lon="7.0373846">
      <time>2020-04-05T20:17:38Z</time>
    </trkpt>
    <trkpt lat="50.8975792" lon="7.0370615">
      <time>2020-04-05T20:17:42Z</time>
    </trkpt>
    <trkpt lat="50.8975946" lon="7.0369849">
      <time>2020-04-05T20:17:43Z</time>
    </trkpt>
    <trkpt lat="50.8976696" lon="7.0365128">
      <time>2020-04-05T20:17:49Z</time>
    </trkpt>
    <trkpt lat="50.8977113" lon="7.0362745">
      <time>2020-04-05T20:17:52Z</time>
    </trkpt>
    <trkpt lat="50.8978553" lon="7.0354470">
      <time>2020-04-05T20:18:02Z</time>
    </trkpt>
    <trkpt lat="50.8979497" lon="7.0350308">
      <time>2020-04-05T20:18:07Z</time>
    </trkpt>
    <trkpt lat="50.8980404" lon="7.0347075">
      <time>2020-04-05T20:18:11Z</time>
    </trkpt>
    <trkpt lat="50.8982024" lon="7.0341640">
      <time>2020-04-05T20:18:18Z</time>
    </trkpt>
    <trkpt lat="50.8984127" lon="7.0335599">
      <time>2020-04-05T20:18:26Z</time>
    </trkpt>
    <trkpt lat="50.8984624" lon="7.0334119">
      <time>2020-04-05T20:18:28Z</time>
    </trkpt>
    <trkpt lat="50.8986149" lon="7.0330451">
      <time>2020-04-05T20:18:33Z</time>
    </trkpt>
    <trkpt lat="50.8988270" lon="7.0326462">
      <time>2020-04-05T20:18:39Z</time>
    </trkpt>
    <trkpt lat="50.8989802" lon="7.0324071">
      <time>2020-04-05T20:18:43Z</time>
    </trkpt>
    <trkpt lat="50.8991639" lon="7.0320961">
      <time>2020-04-05T20:18:48Z</time>
    </trkpt>
    <trkpt lat="50.8994284" lon="7.0316538">
      <time>2020-04-05T20:18:55Z</time>
    </trkpt>
    <trkpt lat="50.8995779" lon="7.0313842">
      <time>2020-04-05T20:18:59Z</time>
    </trkpt>
    <trkpt lat="50.8997117" lon="7.0311435">
      <time>2020-04-05T20:19:03Z</time>
    </trkpt>
    <trkpt lat="50.9000082" lon="7.0306308">
      <time>2020-04-05T20:19:11Z</time>
    </trkpt>
    <trkpt lat="50.9003511" lon="7.0300080">
      <time>2020-04-05T20:19:20Z</time>
    </trkpt>
    <trkpt lat="50.9004697" lon="7.0297822">
      <time>2020-04-05T20:19:23Z</time>
    </trkpt>
    <trkpt lat="50.9005852" lon="7.0295580">
      <time>2020-04-05T20:19:26Z</time>
    </trkpt>
    <trkpt lat="50.9007040" lon="7.0293478">
      <time>2020-04-05T20:19:29Z</time>
    </trkpt>
    <trkpt lat="50.9008190" lon="7.0291342">
      <time>2020-04-05T20:19:32Z</time>
    </trkpt>
    <trkpt lat="50.9010146" lon="7.0286799">
      <time>2020-04-05T20:19:38Z</time>
    </trkpt>
    <trkpt lat="50.9012512" lon="7.0280636">
      <time>2020-04-05T20:19:45Z</time>
    </trkpt>
    <trkpt lat="50.9012889" lon="7.0279744">
      <time>2020-04-05T20:19:46Z</time>
    </trkpt>
    <trkpt lat="50.9015809" lon="7.0272661">
      <time>2020-04-05T20:19:54Z</time>
    </trkpt>
    <trkpt lat="50.9018527" lon="7.0265019">
      <time>2020-04-05T20:20:03Z</time>
    </trkpt>
    <trkpt lat="50.9019436" lon="7.0261453">
      <time>2020-04-05T20:20:07Z</time>
    </trkpt>
    <trkpt lat="50.9021443" lon="7.0254248">
      <time>2020-04-05T20:20:15Z</time>
    </trkpt>
    <trkpt lat="50.9023260" lon="7.0248835">
      <time>2020-04-05T20:20:21Z</time>
    </trkpt>
    <trkpt lat="50.9023942" lon="7.0247115">
      <time>2020-04-05T20:20:23Z</time>
    </trkpt>
    <trkpt lat="50.9025583" lon="7.0242898">
      <time>2020-04-05T20:20:28Z</time>
    </trkpt>
    <trkpt lat="50.9026282" lon="7.0241126">
      <time>2020-04-05T20:20:30Z</time>
    </trkpt>
    <trkpt lat="50.9028634" lon="7.0234984">
      <time>2020-04-05T20:20:37Z</time>
    </trkpt>
    <trkpt lat="50.9031025" lon="7.0228999">
      <time>2020-04-05T20:20:44Z</time>
    </trkpt>
    <trkpt lat="50.9032178" lon="7.0226646">
      <time>2020-04-05T20:20:47Z</time>
    </trkpt>
    <trkpt lat="50.9034231" lon="7.0222522">
      <time>2020-04-05T20:20:52Z</time>
    </trkpt>
    <trkpt lat="50.9035081" lon="7.0220907">
      <time>2020-04-05T20:20:54Z</time>
    </trkpt>
    <trkpt lat="50.9036336" lon="7.0218411">
      <time>2020-04-05T20:20:57Z</time>
    </trkpt>
    <trkpt lat="50.9037600" lon="7.0215985">
      <time>2020-04-05T20:21:00Z</time>
    </trkpt>
    <trkpt lat="50.9038018" lon="7.0215144">
      <time>2020-04-05T20:21:01Z</time>
    </trkpt>
    <trkpt lat="50.9041825" lon="7.0207727">
      <time>2020-04-05T20:21:10Z</time>
    </trkpt>
    <trkpt lat="50.9042215" lon="7.0206955">
      <time>2020-04-05T20:21:11Z</time>
    </trkpt>
    <trkpt lat="50.9045526" lon="7.0200558">
      <time>2020-04-05T20:21:19Z</time>
    </trkpt>
    <trkpt lat="50.9047901" lon="7.0195704">
      <time>2020-04-05T20:21:25Z</time>
    </trkpt>
    <trkpt lat="50.9048730" lon="7.0194070">
      <time>2020-04-05T20:21:27Z</time>
    </trkpt>
    <trkpt lat="50.9051774" lon="7.0188629">
      <time>2020-04-05T20:21:34Z</time>
    </trkpt>
    <trkpt lat="50.9052582" lon="7.0187061">
      <time>2020-04-05T20:21:36Z</time>
    </trkpt>
    <trkpt lat="50.9053803" lon="7.0184777">
      <time>2020-04-05T20:21:39Z</time>
    </trkpt>
    <trkpt lat="50.9054222" lon="7.0184093">
      <time>2020-04-05T20:21:40Z</time>
    </trkpt>
    <trkpt lat="50.9055159" lon="7.0182947">
      <time>2020-04-05T20:21:42Z</time>
    </trkpt>
    <trkpt lat="50.9056626" lon="7.0180599">
      <time>2020-04-05T20:21:46Z</time>
    </trkpt>
    <trkpt lat="50.9057231" lon="7.0179365">
      <time>2020-04-05T20:21:48Z</time>
    </trkpt>
    <trkpt lat="50.9058318" lon="7.0177482">
      <time>2020-04-05T20:21:51Z</time>
    </trkpt>
    <trkpt lat="50.9060265" lon="7.0173718">
      <time>2020-04-05T20:21:57Z</time>
    </trkpt>
    <trkpt lat="50.9062103" lon="7.0169876">
      <time>2020-04-05T20:22:04Z</time>
    </trkpt>
    <trkpt lat="50.9062706" lon="7.0168432">
      <time>2020-04-05T20:22:07Z</time>
    </trkpt>
    <trkpt lat="50.9063232" lon="7.0167076">
      <time>2020-04-05T20:22:10Z</time>
    </trkpt>
    <trkpt lat="50.9064265" lon="7.0163862">
      <time>2020-04-05T20:22:17Z</time>
    </trkpt>
    <trkpt lat="50.9065188" lon="7.0160746">
      <time>2020-04-05T20:22:24Z</time>
    </trkpt>
    <trkpt lat="50.9066030" lon="7.0156677">
      <time>2020-04-05T20:22:32Z</time>
    </trkpt>
    <trkpt lat="50.9066744" lon="7.0152568">
      <time>2020-04-05T20:22:40Z</time>
    </trkpt>
    <trkpt lat="50.9066819" lon="7.0152045">
      <time>2020-04-05T20:22:41Z</time>
    </trkpt>
    <trkpt lat="50.9067283" lon="7.0148982">
      <time>2020-04-05T20:22:46Z</time>
    </trkpt>
    <trkpt lat="50.9067570" lon="7.0145326">
      <time>2020-04-05T20:22:52Z</time>
    </trkpt>
    <trkpt lat="50.9067814" lon="7.0141944">
      <time>2020-04-05T20:22:57Z</time>
    </trkpt>
    <trkpt lat="50.9068215" lon="7.0136555">
      <time>2020-04-05T20:23:04Z</time>
    </trkpt>
    <trkpt lat="50.9069071" lon="7.0129539">
      <time>2020-04-05T20:23:12Z</time>
    </trkpt>
    <trkpt lat="50.9070163" lon="7.0123667">
      <time>2020-04-05T20:23:18Z</time>
    </trkpt>
    <trkpt lat="50.9070900" lon="7.0120637">
      <time>2020-04-05T20:23:22Z</time>
    </trkpt>
    <trkpt lat="50.9071041" lon="7.0120210">
      <time>2020-04-05T20:23:23Z</time>
    </trkpt>
    <trkpt lat="50.9071194" lon="7.0118343">
      <time>2020-04-05T20:23:27Z</time>
    </trkpt>
    <trkpt lat="50.9072120" lon="7.0115174">
      <time>2020-04-05T20:23:33Z</time>
    </trkpt>
    <trkpt lat="50.9073012" lon="7.0111853">
      <time>2020-04-05T20:23:38Z</time>
    </trkpt>
    <trkpt lat="50.9073943" lon="7.0108789">
      <time>2020-04-05T20:23:42Z</time>
    </trkpt>
    <trkpt lat="50.9074413" lon="7.0107189">
      <time>2020-04-05T20:23:44Z</time>
    </trkpt>
    <trkpt lat="50.9075846" lon="7.0102306">
      <time>2020-04-05T20:23:50Z</time>
    </trkpt>
    <trkpt lat="50.9076484" lon="7.0099792">
      <time>2020-04-05T20:23:53Z</time>
    </trkpt>
    <trkpt lat="50.9077980" lon="7.0094096">
      <time>2020-04-05T20:24:00Z</time>
    </trkpt>
    <trkpt lat="50.9079449" lon="7.0088739">
      <time>2020-04-05T20:24:07Z</time>
    </trkpt>
    <trkpt lat="50.9079658" lon="7.0088015">
      <time>2020-04-05T20:24:08Z</time>
    </trkpt>
    <trkpt lat="50.9080673" lon="7.0084497">
      <time>2020-04-05T20:24:13Z</time>
    </trkpt>
    <trkpt lat="50.9081415" lon="7.0081914">
      <time>2020-04-05T20:24:17Z</time>
    </trkpt>
    <trkpt lat="50.9082241" lon="7.0078854">
      <time>2020-04-05T20:24:22Z</time>
    </trkpt>
    <trkpt lat="50.9082553" lon="7.0077697">
      <time>2020-04-05T20:24:24Z</time>
    </trkpt>
    <trkpt lat="50.9082932" lon="7.0076521">
      <time>2020-04-05T20:24:26Z</time>
    </trkpt>
    <trkpt lat="50.9083279" lon="7.0075323">
      <time>2020-04-05T20:24:28Z</time>
    </trkpt>
    <trkpt lat="50.9083837" lon="7.0073545">
      <time>2020-04-05T20:24:31Z</time>
    </trkpt>
    <trkpt lat="50.9084706" lon="7.0070742">
      <time>2020-04-05T20:24:36Z</time>
    </trkpt>
    <trkpt lat="50.9085154" lon="7.0068919">
      <time>2020-04-05T20:24:39Z</time>
    </trkpt>
    <trkpt lat="50.9085636" lon="7.0067266">
      <time>2020-04-05T20:24:42Z</time>
    </trkpt>
    <trkpt lat="50.9086367" lon="7.0064669">
      <time>2020-04-05T20:24:47Z</time>
    </trkpt>
    <trkpt lat="50.9087321" lon="7.0061492">
      <time>2020-04-05T20:24:53Z</time>
    </trkpt>
    <trkpt lat="50.9088733" lon="7.0057098">
      <time>2020-04-05T20:25:01Z</time>
    </trkpt>
    <trkpt lat="50.9089369" lon="7.0055280">
      <time>2020-04-05T20:25:04Z</time>
    </trkpt>
    <trkpt lat="50.9090088" lon="7.0053477">
      <time>2020-04-05T20:25:07Z</time>
    </trkpt>
    <trkpt lat="50.9090338" lon="7.0052874">
      <time>2020-04-05T20:25:08Z</time>
    </trkpt>
    <trkpt lat="50.9091699" lon="7.0049830">
      <time>2020-04-05T20:25:13Z</time>
    </trkpt>
    <trkpt lat="50.9092486" lon="7.0048107">
      <time>2020-04-05T20:25:16Z</time>
    </trkpt>
    <trkpt lat="50.9093012" lon="7.0047039">
      <time>2020-04-05T20:25:18Z</time>
    </trkpt>
    <trkpt lat="50.9093298" lon="7.0046522">
      <time>2020-04-05T20:25:19Z</time>
    </trkpt>
    <trkpt lat="50.9093675" lon="7.0045907">
      <time>2020-04-05T20:25:20Z</time>
    </trkpt>
    <trkpt lat="50.9095183" lon="7.0043062">
      <time>2020-04-05T20:25:25Z</time>
    </trkpt>
    <trkpt lat="50.9095955" lon="7.0041823">
      <time>2020-04-05T20:25:27Z</time>
    </trkpt>
    <trkpt lat="50.9099122" lon="7.0036600">
      <time>2020-04-05T20:25:35Z</time>
    </trkpt>
    <trkpt lat="50.9100821" lon="7.0033708">
      <time>2020-04-05T20:25:40Z</time>
    </trkpt>
    <trkpt lat="50.9103046" lon="7.0029581">
      <time>2020-04-05T20:25:46Z</time>
    </trkpt>
    <trkpt lat="50.9103696" lon="7.0028624">
      <time>2020-04-05T20:25:47Z</time>
    </trkpt>
    <trkpt lat="50.9106925" lon="7.0023959">
      <time>2020-04-05T20:25:55Z</time>
    </trkpt>
    <trkpt lat="50.9108647" lon="7.0021408">
      <time>2020-04-05T20:26:00Z</time>
    </trkpt>
    <trkpt lat="50.9109351" lon="7.0020365">
      <time>2020-04-05T20:26:02Z</time>
    </trkpt>
    <trkpt lat="50.9110006" lon="7.0019340">
      <time>2020-04-05T20:26:04Z</time>
    </trkpt>
    <trkpt lat="50.9110700" lon="7.0018369">
      <time>2020-04-05T20:26:06Z</time>
    </trkpt>
    <trkpt lat="50.9111621" lon="7.0016967">
      <time>2020-04-05T20:26:09Z</time>
    </trkpt>
    <trkpt lat="50.9113406" lon="7.0014453">
      <time>2020-04-05T20:26:15Z</time>
    </trkpt>
    <trkpt lat="50.9114363" lon="7.0013005">
      <time>2020-04-05T20:26:18Z</time>
    </trkpt>
    <trkpt lat="50.9115071" lon="7.0012023">
      <time>2020-04-05T20:26:20Z</time>
    </trkpt>
    <trkpt lat="50.9115768" lon="7.0011057">
      <time>2020-04-05T20:26:22Z</time>
    </trkpt>
    <trkpt lat="50.9116787" lon="7.0009599">
      <time>2020-04-05T20:26:25Z</time>
    </trkpt>
    <trkpt lat="50.9117948" lon="7.0007852">
      <time>2020-04-05T20:26:29Z</time>
    </trkpt>
    <trkpt lat="50.9118918" lon="7.0006015">
      <time>2020-04-05T20:26:33Z</time>
    </trkpt>
    <trkpt lat="50.9119369" lon="7.0004864">
      <time>2020-04-05T20:26:35Z</time>
    </trkpt>
    <trkpt lat="50.9120733" lon="7.0002741">
      <time>2020-04-05T20:26:39Z</time>
    </trkpt>
    <trkpt lat="50.9121107" lon="7.0002178">
      <time>2020-04-05T20:26:40Z</time>
    </trkpt>
    <trkpt lat="50.9124136" lon="6.9997292">
      <time>2020-04-05T20:26:48Z</time>
    </trkpt>
    <trkpt lat="50.9127502" lon="6.9991162">
      <time>2020-04-05T20:26:57Z</time>
    </trkpt>
    <trkpt lat="50.9130660" lon="6.9984424">
      <time>2020-04-05T20:27:06Z</time>
    </trkpt>
    <trkpt lat="50.9130985" lon="6.9983653">
      <time>2020-04-05T20:27:07Z</time>
    </trkpt>
    <trkpt lat="50.9133733" lon="6.9976592">
      <time>2020-04-05T20:27:16Z</time>
    </trkpt>
    <trkpt lat="50.9134639" lon="6.9974168">
      <time>2020-04-05T20:27:19Z</time>
    </trkpt>
    <trkpt lat="50.9135695" lon="6.9971907">
      <time>2020-04-05T20:27:22Z</time>
    </trkpt>
    <trkpt lat="50.9136037" lon="6.9971139">
      <time>2020-04-05T20:27:23Z</time>
    </trkpt>
    <trkpt lat="50.9138950" lon="6.9963610">
      <time>2020-04-05T20:27:32Z</time>
    </trkpt>
    <trkpt lat="50.9140577" lon="6.9959482">
      <time>2020-04-05T20:27:37Z</time>
    </trkpt>
    <trkpt lat="50.9142170" lon="6.9955547">
      <time>2020-04-05T20:27:42Z</time>
    </trkpt>
    <trkpt lat="50.9143031" lon="6.9953418">
      <time>2020-04-05T20:27:45Z</time>
    </trkpt>
    <trkpt lat="50.9143571" lon="6.9952023">
      <time>2020-04-05T20:27:47Z</time>
    </trkpt>
    <trkpt lat="50.9146068" lon="6.9944999">
      <time>2020-04-05T20:27:56Z</time>
    </trkpt>
    <trkpt lat="50.9146310" lon="6.9944338">
      <time>2020-04-05T20:27:57Z</time>
    </trkpt>
    <trkpt lat="50.9149085" lon="6.9937038">
      <time>2020-04-05T20:28:05Z</time>
    </trkpt>
    <trkpt lat="50.9150659" lon="6.9931916">
      <time>2020-04-05T20:28:10Z</time>
    </trkpt>
    <trkpt lat="50.9151333" lon="6.9930154">
      <time>2020-04-05T20:28:12Z</time>
    </trkpt>
    <trkpt lat="50.9151853" lon="6.9929060">
      <time>2020-04-05T20:28:13Z</time>
    </trkpt>
    <trkpt lat="50.9152757" lon="6.9927316">
      <time>2020-04-05T20:28:15Z</time>
    </trkpt>
    <trkpt lat="50.9153260" lon="6.9926535">
      <time>2020-04-05T20:28:16Z</time>
    </trkpt>
    <trkpt lat="50.9154800" lon="6.9924306">
      <time>2020-04-05T20:28:19Z</time>
    </trkpt>
    <trkpt lat="50.9156832" lon="6.9921421">
      <time>2020-04-05T20:28:23Z</time>
    </trkpt>
    <trkpt lat="50.9157344" lon="6.9920794">
      <time>2020-04-05T20:28:24Z</time>
    </trkpt>
    <trkpt lat="50.9158447" lon="6.9919217">
      <time>2020-04-05T20:28:27Z</time>
    </trkpt>
    <trkpt lat="50.9158747" lon="6.9918757">
      <time>2020-04-05T20:28:28Z</time>
    </trkpt>
    <trkpt lat="50.9159057" lon="6.9918281">
      <time>2020-04-05T20:28:29Z</time>
    </trkpt>
    <trkpt lat="50.9160394" lon="6.9916196">
      <time>2020-04-05T20:28:33Z</time>
    </trkpt>
    <trkpt lat="50.9160748" lon="6.9915683">
      <time>2020-04-05T20:28:34Z</time>
    </trkpt>
    <trkpt lat="50.9162444" lon="6.9912925">
      <time>2020-04-05T20:28:39Z</time>
    </trkpt>
    <trkpt lat="50.9163073" lon="6.9911587">
      <time>2020-04-05T20:28:41Z</time>
    </trkpt>
    <trkpt lat="50.9163721" lon="6.9910263">
      <time>2020-04-05T20:28:43Z</time>
    </trkpt>
    <trkpt lat="50.9164374" lon="6.9908922">
      <time>2020-04-05T20:28:45Z</time>
    </trkpt>
    <trkpt lat="50.9165404" lon="6.9906916">
      <time>2020-04-05T20:28:48Z</time>
    </trkpt>
    <trkpt lat="50.9166867" lon="6.9904235">
      <time>2020-04-05T20:28:52Z</time>
    </trkpt>
    <trkpt lat="50.9167611" lon="6.9902902">
      <time>2020-04-05T20:28:54Z</time>
    </trkpt>
    <trkpt lat="50.9168264" lon="6.9901476">
      <time>2020-04-05T20:28:56Z</time>
    </trkpt>
    <trkpt lat="50.9169877" lon="6.9899053">
      <time>2020-04-05T20:29:00Z</time>
    </trkpt>
    <trkpt lat="50.9170758" lon="6.9897992">
      <time>2020-04-05T20:29:02Z</time>
    </trkpt>
    <trkpt lat="50.9173219" lon="6.9895869">
      <time>2020-04-05T20:29:07Z</time>
    </trkpt>
    <trkpt lat="50.9173717" lon="6.9895443">
      <time>2020-04-05T20:29:08Z</time>
    </trkpt>
    <trkpt lat="50.9176622" lon="6.9892636">
      <time>2020-04-05T20:29:14Z</time>
    </trkpt>
    <trkpt lat="50.9178181" lon="6.9891366">
      <time>2020-04-05T20:29:17Z</time>
    </trkpt>
    <trkpt lat="50.9179581" lon="6.9890008">
      <time>2020-04-05T20:29:20Z</time>
    </trkpt>
    <trkpt lat="50.9181374" lon="6.9888013">
      <time>2020-04-05T20:29:24Z</time>
    </trkpt>
    <trkpt lat="50.9181770" lon="6.9887446">
      <time>2020-04-05T20:29:25Z</time>
    </trkpt>
    <trkpt lat="50.9183448" lon="6.9885149">
      <time>2020-04-05T20:29:29Z</time>
    </trkpt>
    <trkpt lat="50.9187236" lon="6.9879933">
      <time>2020-04-05T20:29:38Z</time>
    </trkpt>
    <trkpt lat="50.9190201" lon="6.9875555">
      <time>2020-04-05T20:29:45Z</time>
    </trkpt>
    <trkpt lat="50.9191065" lon="6.9874225">
      <time>2020-04-05T20:29:47Z</time>
    </trkpt>
    <trkpt lat="50.9192778" lon="6.9871459">
      <time>2020-04-05T20:29:51Z</time>
    </trkpt>
    <trkpt lat="50.9194897" lon="6.9867983">
      <time>2020-04-05T20:29:56Z</time>
    </trkpt>
    <trkpt lat="50.9196078" lon="6.9865835">
      <time>2020-04-05T20:29:59Z</time>
    </trkpt>
    <trkpt lat="50.9198531" lon="6.9861790">
      <time>2020-04-05T20:30:05Z</time>
    </trkpt>
    <trkpt lat="50.9198934" lon="6.9861124">
      <time>2020-04-05T20:30:06Z</time>
    </trkpt>
    <trkpt lat="50.9202873" lon="6.9854799">
      <time>2020-04-05T20:30:15Z</time>
    </trkpt>
    <trkpt lat="50.9203799" lon="6.9853401">
      <time>2020-04-05T20:30:17Z</time>
    </trkpt>
    <trkpt lat="50.9204275" lon="6.9852692">
      <time>2020-04-05T20:30:18Z</time>
    </trkpt>
    <trkpt lat="50.9206366" lon="6.9850292">
      <time>2020-04-05T20:30:22Z</time>
    </trkpt>
    <trkpt lat="50.9210092" lon="6.9844818">
      <time>2020-04-05T20:30:30Z</time>
    </trkpt>
    <trkpt lat="50.9211583" lon="6.9842719">
      <time>2020-04-05T20:30:33Z</time>
    </trkpt>
    <trkpt lat="50.9213786" lon="6.9839389">
      <time>2020-04-05T20:30:38Z</time>
    </trkpt>
    <trkpt lat="50.9216601" lon="6.9834742">
      <time>2020-04-05T20:30:44Z</time>
    </trkpt>
    <trkpt lat="50.9219317" lon="6.9829805">
      <time>2020-04-05T20:30:50Z</time>
    </trkpt>
    <trkpt lat="50.9223300" lon="6.9822844">
      <time>2020-04-05T20:30:59Z</time>
    </trkpt>
    <trkpt lat="50.9223730" lon="6.9822082">
      <time>2020-04-05T20:31:00Z</time>
    </trkpt>
    <trkpt lat="50.9225494" lon="6.9819152">
      <time>2020-04-05T20:31:04Z</time>
    </trkpt>
    <trkpt lat="50.9226380" lon="6.9817707">
      <time>2020-04-05T20:31:06Z</time>
    </trkpt>
    <trkpt lat="50.9229504" lon="6.9812764">
      <time>2020-04-05T20:31:13Z</time>
    </trkpt>
    <trkpt lat="50.9231032" lon="6.9810741">
      <time>2020-04-05T20:31:16Z</time>
    </trkpt>
    <trkpt lat="50.9232134" lon="6.9809493">
      <time>2020-04-05T20:31:18Z</time>
    </trkpt>
    <trkpt lat="50.9236134" lon="6.9803585">
      <time>2020-04-05T20:31:26Z</time>
    </trkpt>
    <trkpt lat="50.9237145" lon="6.9802107">
      <time>2020-04-05T20:31:28Z</time>
    </trkpt>
    <trkpt lat="50.9241143" lon="6.9796544">
      <time>2020-04-05T20:31:36Z</time>
    </trkpt>
    <trkpt lat="50.9242597" lon="6.9794673">
      <time>2020-04-05T20:31:39Z</time>
    </trkpt>
    <trkpt lat="50.9244654" lon="6.9792483">
      <time>2020-04-05T20:31:43Z</time>
    </trkpt>
    <trkpt lat="50.9248949" lon="6.9788365">
      <time>2020-04-05T20:31:51Z</time>
    </trkpt>
    <trkpt lat="50.9252235" lon="6.9785049">
      <time>2020-04-05T20:31:57Z</time>
    </trkpt>
    <trkpt lat="50.9253958" lon="6.9783510">
      <time>2020-04-05T20:32:00Z</time>
    </trkpt>
    <trkpt lat="50.9256153" lon="6.9781358">
      <time>2020-04-05T20:32:04Z</time>
    </trkpt>
    <trkpt lat="50.9256662" lon="6.9780756">
      <time>2020-04-05T20:32:05Z</time>
    </trkpt>
    <trkpt lat="50.9257957" lon="6.9780022">
      <time>2020-04-05T20:32:07Z</time>
    </trkpt>
    <trkpt lat="50.9260676" lon="6.9777712">
      <time>2020-04-05T20:32:12Z</time>
    </trkpt>
    <trkpt lat="50.9263419" lon="6.9775131">
      <time>2020-04-05T20:32:17Z</time>
    </trkpt>
    <trkpt lat="50.9266716" lon="6.9771529">
      <time>2020-04-05T20:32:24Z</time>
    </trkpt>
    <trkpt lat="50.9268398" lon="6.9769882">
      <time>2020-04-05T20:32:28Z</time>
    </trkpt>
    <trkpt lat="50.9269435" lon="6.9768814">
      <time>2020-04-05T20:32:31Z</time>
    </trkpt>
    <trkpt lat="50.9271860" lon="6.9766354">
      <time>2020-04-05T20:32:37Z</time>
    </trkpt>
    <trkpt lat="50.9275881" lon="6.9762394">
      <time>2020-04-05T20:32:46Z</time>
    </trkpt>
    <trkpt lat="50.9277370" lon="6.9761174">
      <time>2020-04-05T20:32:49Z</time>
    </trkpt>
    <trkpt lat="50.9278742" lon="6.9759852">
      <time>2020-04-05T20:32:52Z</time>
    </trkpt>
    <trkpt lat="50.9279174" lon="6.9759415">
      <time>2020-04-05T20:32:53Z</time>
    </trkpt>
    <trkpt lat="50.9280716" lon="6.9757720">
      <time>2020-04-05T20:32:57Z</time>
    </trkpt>
    <trkpt lat="50.9281438" lon="6.9756941">
      <time>2020-04-05T20:32:59Z</time>
    </trkpt>
    <trkpt lat="50.9282141" lon="6.9756196">
      <time>2020-04-05T20:33:01Z</time>
    </trkpt>
    <trkpt lat="50.9282861" lon="6.9755504">
      <time>2020-04-05T20:33:03Z</time>
    </trkpt>
    <trkpt lat="50.9283241" lon="6.9755041">
      <time>2020-04-05T20:33:04Z</time>
    </trkpt>
    <trkpt lat="50.9283998" lon="6.9753979">
      <time>2020-04-05T20:33:06Z</time>
    </trkpt>
    <trkpt lat="50.9285847" lon="6.9750918">
      <time>2020-04-05T20:33:11Z</time>
    </trkpt>
    <trkpt lat="50.9288067" lon="6.9746925">
      <time>2020-04-05T20:33:17Z</time>
    </trkpt>
    <trkpt lat="50.9288433" lon="6.9746219">
      <time>2020-04-05T20:33:18Z</time>
    </trkpt>
    <trkpt lat="50.9289136" lon="6.9744760">
      <time>2020-04-05T20:33:20Z</time>
    </trkpt>
    <trkpt lat="50.9290780" lon="6.9742011">
      <time>2020-04-05T20:33:24Z</time>
    </trkpt>
    <trkpt lat="50.9294879" lon="6.9735786">
      <time>2020-04-05T20:33:33Z</time>
    </trkpt>
    <trkpt lat="50.9296342" lon="6.9733871">
      <time>2020-04-05T20:33:36Z</time>
    </trkpt>
    <trkpt lat="50.9298339" lon="6.9731825">
      <time>2020-04-05T20:33:40Z</time>
    </trkpt>
    <trkpt lat="50.9302481" lon="6.9728184">
      <time>2020-04-05T20:33:48Z</time>
    </trkpt>
    <trkpt lat="50.9305760" lon="6.9725769">
      <time>2020-04-05T20:33:54Z</time>
    </trkpt>
    <trkpt lat="50.9306303" lon="6.9725387">
      <time>2020-04-05T20:33:55Z</time>
    </trkpt>
    <trkpt lat="50.9308558" lon="6.9723562">
      <time>2020-04-05T20:33:59Z</time>
    </trkpt>
    <trkpt lat="50.9312110" lon="6.9720503">
      <time>2020-04-05T20:34:06Z</time>
    </trkpt>
    <trkpt lat="50.9313121" lon="6.9719822">
      <time>2020-04-05T20:34:08Z</time>
    </trkpt>
    <trkpt lat="50.9315175" lon="6.9718507">
      <time>2020-04-05T20:34:12Z</time>
    </trkpt>
    <trkpt lat="50.9316820" lon="6.9717120">
      <time>2020-04-05T20:34:16Z</time>
    </trkpt>
    <trkpt lat="50.9318196" lon="6.9715700">
      <time>2020-04-05T20:34:19Z</time>
    </trkpt>
    <trkpt lat="50.9318727" lon="6.9715406">
      <time>2020-04-05T20:34:20Z</time>
    </trkpt>
    <trkpt lat="50.9319837" lon="6.9714913">
      <time>2020-04-05T20:34:22Z</time>
    </trkpt>
    <trkpt lat="50.9320911" lon="6.9714145">
      <time>2020-04-05T20:34:24Z</time>
    </trkpt>
    <trkpt lat="50.9322613" lon="6.9712892">
      <time>2020-04-05T20:34:27Z</time>
    </trkpt>
    <trkpt lat="50.9324546" lon="6.9711979">
      <time>2020-04-05T20:34:30Z</time>
    </trkpt>
    <trkpt lat="50.9328365" lon="6.9710346">
      <time>2020-04-05T20:34:36Z</time>
    </trkpt>
    <trkpt lat="50.9331743" lon="6.9709858">
      <time>2020-04-05T20:34:41Z</time>
    </trkpt>
    <trkpt lat="50.9333018" lon="6.9709644">
      <time>2020-04-05T20:34:43Z</time>
    </trkpt>
    <trkpt lat="50.9334240" lon="6.9709448">
      <time>2020-04-05T20:34:45Z</time>
    </trkpt>
    <trkpt lat="50.9335387" lon="6.9709155">
      <time>2020-04-05T20:34:47Z</time>
    </trkpt>
    <trkpt lat="50.9336461" lon="6.9708855">
      <time>2020-04-05T20:34:49Z</time>
    </trkpt>
    <trkpt lat="50.9339271" lon="6.9708098">
      <time>2020-04-05T20:34:55Z</time>
    </trkpt>
    <trkpt lat="50.9341892" lon="6.9707472">
      <time>2020-04-05T20:35:02Z</time>
    </trkpt>
    <trkpt lat="50.9344280" lon="6.9706664">
      <time>2020-04-05T20:35:09Z</time>
    </trkpt>
    <trkpt lat="50.9347209" lon="6.9706535">
      <time>2020-04-05T20:35:16Z</time>
    </trkpt>
    <trkpt lat="50.9347544" lon="6.9706515">
      <time>2020-04-05T20:35:17Z</time>
    </trkpt>
    <trkpt lat="50.9349202" lon="6.9706862">
      <time>2020-04-05T20:35:21Z</time>
    </trkpt>
    <trkpt lat="50.9350618" lon="6.9707560">
      <time>2020-04-05T20:35:24Z</time>
    </trkpt>
    <trkpt lat="50.9352817" lon="6.9708057">
      <time>2020-04-05T20:35:29Z</time>
    </trkpt>
    <trkpt lat="50.9353671" lon="6.9708259">
      <time>2020-04-05T20:35:31Z</time>
    </trkpt>
    <trkpt lat="50.9354912" lon="6.9708643">
      <time>2020-04-05T20:35:34Z</time>
    </trkpt>
    <trkpt lat="50.9356503" lon="6.9709042">
      <time>2020-04-05T20:35:38Z</time>
    </trkpt>
    <trkpt lat="50.9358357" lon="6.9709003">
      <time>2020-04-05T20:35:44Z</time>
    </trkpt>
    <trkpt lat="50.9359615" lon="6.9709255">
      <time>2020-04-05T20:35:48Z</time>
    </trkpt>
    <trkpt lat="50.9359980" lon="6.9709394">
      <time>2020-04-05T20:35:49Z</time>
    </trkpt>
    <trkpt lat="50.9361863" lon="6.9710675">
      <time>2020-04-05T20:35:53Z</time>
    </trkpt>
    <trkpt lat="50.9362366" lon="6.9711093">
      <time>2020-04-05T20:35:54Z</time>
    </trkpt>
    <trkpt lat="50.9362870" lon="6.9711487">
      <time>2020-04-05T20:35:55Z</time>
    </trkpt>
    <trkpt lat="50.9364719" lon="6.9712486">
      <time>2020-04-05T20:35:59Z</time>
    </trkpt>
    <trkpt lat="50.9365111" lon="6.9712701">
      <time>2020-04-05T20:36:00Z</time>
    </trkpt>
    <trkpt lat="50.9367846" lon="6.9714345">
      <time>2020-04-05T20:36:06Z</time>
    </trkpt>
    <trkpt lat="50.9371158" lon="6.9715178">
      <time>2020-04-05T20:36:12Z</time>
    </trkpt>
    <trkpt lat="50.9374575" lon="6.9714873">
      <time>2020-04-05T20:36:18Z</time>
    </trkpt>
    <trkpt lat="50.9375782" lon="6.9714970">
      <time>2020-04-05T20:36:20Z</time>
    </trkpt>
    <trkpt lat="50.9377666" lon="6.9714876">
      <time>2020-04-05T20:36:23Z</time>
    </trkpt>
    <trkpt lat="50.9380145" lon="6.9714572">
      <time>2020-04-05T20:36:27Z</time>
    </trkpt>
    <trkpt lat="50.9382024" lon="6.9714547">
      <time>2020-04-05T20:36:30Z</time>
    </trkpt>
    <trkpt lat="50.9383788" lon="6.9714447">
      <time>2020-04-05T20:36:33Z</time>
    </trkpt>
    <trkpt lat="50.9385918" lon="6.9715620">
      <time>2020-04-05T20:36:36Z</time>
    </trkpt>
    <trkpt lat="50.9387933" lon="6.9716656">
      <time>2020-04-05T20:36:39Z</time>
    </trkpt>
    <trkpt lat="50.9389306" lon="6.9717781">
      <time>2020-04-05T20:36:41Z</time>
    </trkpt>
    <trkpt lat="50.9391046" lon="6.9719252">
      <time>2020-04-05T20:36:44Z</time>
    </trkpt>
    <trkpt lat="50.9392640" lon="6.9720909">
      <time>2020-04-05T20:36:47Z</time>
    </trkpt>
    <trkpt lat="50.9393553" lon="6.9722066">
      <time>2020-04-05T20:36:49Z</time>
    </trkpt>
    <trkpt lat="50.9394544" lon="6.9723385">
      <time>2020-04-05T20:36:52Z</time>
    </trkpt>
    <trkpt lat="50.9395996" lon="6.9724011">
      <time>2020-04-05T20:36:57Z</time>
    </trkpt>
    <trkpt lat="50.9396794" lon="6.9723387">
      <time>2020-04-05T20:37:01Z</time>
    </trkpt>
    <trkpt lat="50.9397570" lon="6.9721596">
      <time>2020-04-05T20:37:06Z</time>
    </trkpt>
    <trkpt lat="50.9397647" lon="6.9721321">
      <time>2020-04-05T20:37:07Z</time>
    </trkpt>
    <trkpt lat="50.9397586" lon="6.9721241">
      <time>2020-04-05T20:37:09Z</time>
    </trkpt>
    <trkpt lat="50.9397485" lon="6.9721755">
      <time>2020-04-05T20:37:11Z</time>
    </trkpt>
    <trkpt lat="50.9397534" lon="6.9722033">
      <time>2020-04-05T20:37:12Z</time>
    </trkpt>
    <trkpt lat="50.9398047" lon="6.9724188">
      <time>2020-04-05T20:37:17Z</time>
    </trkpt>
    <trkpt lat="50.9399117" lon="6.9726727">
      <time>2020-04-05T20:37:22Z</time>
    </trkpt>
    <trkpt lat="50.9399328" lon="6.9727249">
      <time>2020-04-05T20:37:23Z</time>
    </trkpt>
    <trkpt lat="50.9400924" lon="6.9729651">
      <time>2020-04-05T20:37:28Z</time>
    </trkpt>
    <trkpt lat="50.9401297" lon="6.9729778">
      <time>2020-04-05T20:37:29Z</time>
    </trkpt>
    <trkpt lat="50.9401966" lon="6.9729437">
      <time>2020-04-05T20:37:31Z</time>
    </trkpt>
    <trkpt lat="50.9403181" lon="6.9727057">
      <time>2020-04-05T20:37:35Z</time>
    </trkpt>
    <trkpt lat="50.9405218" lon="6.9722655">
      <time>2020-04-05T20:37:42Z</time>
    </trkpt>
    <trkpt lat="50.9405812" lon="6.9721220">
      <time>2020-04-05T20:37:44Z</time>
    </trkpt>
    <trkpt lat="50.9406688" lon="6.9719283">
      <time>2020-04-05T20:37:47Z</time>
    </trkpt>
    <trkpt lat="50.9407289" lon="6.9717973">
      <time>2020-04-05T20:37:49Z</time>
    </trkpt>
    <trkpt lat="50.9407491" lon="6.9717246">
      <time>2020-04-05T20:37:50Z</time>
    </trkpt>
    <trkpt lat="50.9407865" lon="6.9715641">
      <time>2020-04-05T20:37:52Z</time>
    </trkpt>
    <trkpt lat="50.9408621" lon="6.9713352">
      <time>2020-04-05T20:37:55Z</time>
    </trkpt>
    <trkpt lat="50.9409936" lon="6.9709292">
      <time>2020-04-05T20:38:00Z</time>
    </trkpt>
    <trkpt lat="50.9410331" lon="6.9707980">
      <time>2020-04-05T20:38:02Z</time>
    </trkpt>
    <trkpt lat="50.9410796" lon="6.9705402">
      <time>2020-04-05T20:38:06Z</time>
    </trkpt>
    <trkpt lat="50.9410949" lon="6.9704106">
      <time>2020-04-05T20:38:08Z</time>
    </trkpt>
    <trkpt lat="50.9411540" lon="6.9699514">
      <time>2020-04-05T20:38:14Z</time>
    </trkpt>
    <trkpt lat="50.9411690" lon="6.9698884">
      <time>2020-04-05T20:38:15Z</time>
    </trkpt>
    <trkpt lat="50.9411978" lon="6.9697993">
      <time>2020-04-05T20:38:16Z</time>
    </trkpt>
    <trkpt lat="50.9412136" lon="6.9697307">
      <time>2020-04-05T20:38:17Z</time>
    </trkpt>
    <trkpt lat="50.9412301" lon="6.9695541">
      <time>2020-04-05T20:38:19Z</time>
    </trkpt>
    <trkpt lat="50.9412276" lon="6.9694642">
      <time>2020-04-05T20:38:20Z</time>
    </trkpt>
    <trkpt lat="50.9412293" lon="6.9693746">
      <time>2020-04-05T20:38:21Z</time>
    </trkpt>
    <trkpt lat="50.9412319" lon="6.9692786">
      <time>2020-04-05T20:38:22Z</time>
    </trkpt>
    <trkpt lat="50.9412399" lon="6.9690964">
      <time>2020-04-05T20:38:24Z</time>
    </trkpt>
    <trkpt lat="50.9412408" lon="6.9690074">
      <time>2020-04-05T20:38:25Z</time>
    </trkpt>
    <trkpt lat="50.9412628" lon="6.9684715">
      <time>2020-04-05T20:38:32Z</time>
    </trkpt>
    <trkpt lat="50.9412639" lon="6.9683277">
      <time>2020-04-05T20:38:34Z</time>
    </trkpt>
    <trkpt lat="50.9412581" lon="6.9681113">
      <time>2020-04-05T20:38:37Z</time>
    </trkpt>
    <trkpt lat="50.9412610" lon="6.9680376">
      <time>2020-04-05T20:38:38Z</time>
    </trkpt>
    <trkpt lat="50.9412488" lon="6.9674920">
      <time>2020-04-05T20:38:45Z</time>
    </trkpt>
    <trkpt lat="50.9412448" lon="6.9670028">
      <time>2020-04-05T20:38:51Z</time>
    </trkpt>
    <trkpt lat="50.9412503" lon="6.9669328">
      <time>2020-04-05T20:38:52Z</time>
    </trkpt>
    <trkpt lat="50.9412541" lon="6.9663596">
      <time>2020-04-05T20:38:58Z</time>
    </trkpt>
    <trkpt lat="50.9412478" lon="6.9655433">
      <time>2020-04-05T20:39:07Z</time>
    </trkpt>
    <trkpt lat="50.9412507" lon="6.9654468">
      <time>2020-04-05T20:39:08Z</time>
    </trkpt>
    <trkpt lat="50.9412514" lon="6.9649430">
      <time>2020-04-05T20:39:14Z</time>
    </trkpt>
    <trkpt lat="50.9412711" lon="6.9643006">
      <time>2020-04-05T20:39:21Z</time>
    </trkpt>
    <trkpt lat="50.9412754" lon="6.9637852">
      <time>2020-04-05T20:39:27Z</time>
    </trkpt>
    <trkpt lat="50.9412746" lon="6.9634064">
      <time>2020-04-05T20:39:31Z</time>
    </trkpt>
    <trkpt lat="50.9412707" lon="6.9628124">
      <time>2020-04-05T20:39:37Z</time>
    </trkpt>
    <trkpt lat="50.9412602" lon="6.9627188">
      <time>2020-04-05T20:39:38Z</time>
    </trkpt>
    <trkpt lat="50.9412428" lon="6.9623596">
      <time>2020-04-05T20:39:42Z</time>
    </trkpt>
    <trkpt lat="50.9412407" lon="6.9621903">
      <time>2020-04-05T20:39:44Z</time>
    </trkpt>
    <trkpt lat="50.9412438" lon="6.9616867">
      <time>2020-04-05T20:39:50Z</time>
    </trkpt>
    <trkpt lat="50.9412413" lon="6.9616124">
      <time>2020-04-05T20:39:51Z</time>
    </trkpt>
    <trkpt lat="50.9412350" lon="6.9613345">
      <time>2020-04-05T20:39:55Z</time>
    </trkpt>
    <trkpt lat="50.9412252" lon="6.9612810">
      <time>2020-04-05T20:39:56Z</time>
    </trkpt>
    <trkpt lat="50.9411635" lon="6.9609438">
      <time>2020-04-05T20:40:02Z</time>
    </trkpt>
    <trkpt lat="50.9411532" lon="6.9604839">
      <time>2020-04-05T20:40:08Z</time>
    </trkpt>
    <trkpt lat="50.9411550" lon="6.9602072">
      <time>2020-04-05T20:40:11Z</time>
    </trkpt>
    <trkpt lat="50.9411614" lon="6.9599864">
      <time>2020-04-05T20:40:14Z</time>
    </trkpt>
    <trkpt lat="50.9411597" lon="6.9597725">
      <time>2020-04-05T20:40:17Z</time>
    </trkpt>
    <trkpt lat="50.9411120" lon="6.9595839">
      <time>2020-04-05T20:40:20Z</time>
    </trkpt>
    <trkpt lat="50.9410021" lon="6.9594610">
      <time>2020-04-05T20:40:23Z</time>
    </trkpt>
    <trkpt lat="50.9409729" lon="6.9594531">
      <time>2020-04-05T20:40:24Z</time>
    </trkpt>
    <trkpt lat="50.9409132" lon="6.9594256">
      <time>2020-04-05T20:40:26Z</time>
    </trkpt>
    <trkpt lat="50.9408949" lon="6.9592540">
      <time>2020-04-05T20:40:33Z</time>
    </trkpt>
    <trkpt lat="50.9409452" lon="6.9590230">
      <time>2020-04-05T20:40:36Z</time>
    </trkpt>
    <trkpt lat="50.9411412" lon="6.9588620">
      <time>2020-04-05T20:40:38Z</time>
    </trkpt>
    <trkpt lat="50.9410988" lon="6.9587651">
      <time>2020-04-05T20:40:39Z</time>
    </trkpt>
    <trkpt lat="50.9408930" lon="6.9584073">
      <time>2020-04-05T20:40:42Z</time>
    </trkpt>
    <trkpt lat="50.9408014" lon="6.9582863">
      <time>2020-04-05T20:40:44Z</time>
    </trkpt>
    <trkpt lat="50.9407857" lon="6.9582167">
      <time>2020-04-05T20:40:45Z</time>
    </trkpt>
    <trkpt lat="50.9407983" lon="6.9580834">
      <time>2020-04-05T20:40:48Z</time>
    </trkpt>
    <trkpt lat="50.9408169" lon="6.9579981">
      <time>2020-04-05T20:40:50Z</time>
    </trkpt>
    <trkpt lat="50.9408506" lon="6.9577210">
      <time>2020-04-05T20:40:56Z</time>
    </trkpt>
    <trkpt lat="50.9408595" lon="6.9575778">
      <time>2020-04-05T20:40:59Z</time>
    </trkpt>
    <trkpt lat="50.9408299" lon="6.9571694">
      <time>2020-04-05T20:41:07Z</time>
    </trkpt>
    <trkpt lat="50.9409139" lon="6.9569880">
      <time>2020-04-05T20:41:12Z</time>
    </trkpt>
    <trkpt lat="50.9410231" lon="6.9569982">
      <time>2020-04-05T20:41:16Z</time>
    </trkpt>
    <trkpt lat="50.9411557" lon="6.9570350">
      <time>2020-04-05T20:41:22Z</time>
    </trkpt>
    <trkpt lat="50.9412551" lon="6.9570442">
      <time>2020-04-05T20:41:26Z</time>
    </trkpt>
    <trkpt lat="50.9413101" lon="6.9570484">
      <time>2020-04-05T20:41:29Z</time>
    </trkpt>
    <trkpt lat="50.9413262" lon="6.9570480">
      <time>2020-04-05T20:41:30Z</time>
    </trkpt>
    <trkpt lat="50.9414406" lon="6.9570381">
      <time>2020-04-05T20:41:36Z</time>
    </trkpt>
    <trkpt lat="50.9414389" lon="6.9569464">
      <time>2020-04-05T20:41:39Z</time>
    </trkpt>
    <trkpt lat="50.9413940" lon="6.9569123">
      <time>2020-04-05T20:41:41Z</time>
    </trkpt>
    <trkpt lat="50.9413150" lon="6.9568740">
      <time>2020-04-05T20:41:43Z</time>
    </trkpt>
    <trkpt lat="50.9412728" lon="6.9568547">
      <time>2020-04-05T20:41:44Z</time>
    </trkpt>
    <trkpt lat="50.9410916" lon="6.9568117">
      <time>2020-04-05T20:41:48Z</time>
    </trkpt>
    <trkpt lat="50.9409083" lon="6.9567590">
      <time>2020-04-05T20:41:52Z</time>
    </trkpt>
    <trkpt lat="50.9408822" lon="6.9567252">
      <time>2020-04-05T20:41:53Z</time>
    </trkpt>
    <trkpt lat="50.9408443" lon="6.9566823">
      <time>2020-04-05T20:41:56Z</time>
    </trkpt>
    <trkpt lat="50.9408334" lon="6.9566693">
      <time>2020-04-05T20:41:59Z</time>
    </trkpt>
    <trkpt lat="50.9408336" lon="6.9566499">
      <time>2020-04-05T20:42:01Z</time>
    </trkpt>
    <trkpt lat="50.9408672" lon="6.9566032">
      <time>2020-04-05T20:42:03Z</time>
    </trkpt>
    <trkpt lat="50.9409414" lon="6.9560430">
      <time>2020-04-05T20:42:12Z</time>
    </trkpt>
    <trkpt lat="50.9409662" lon="6.9562547">
      <time>2020-04-05T20:42:13Z</time>
    </trkpt>
    <trkpt lat="50.9411783" lon="6.9561217">
      <time>2020-04-05T20:42:18Z</time>
    </trkpt>
    <trkpt lat="50.9412564" lon="6.9561471">
      <time>2020-04-05T20:42:21Z</time>
    </trkpt>
    <trkpt lat="50.9412940" lon="6.9561990">
      <time>2020-04-05T20:42:23Z</time>
    </trkpt>
    <trkpt lat="50.9414234" lon="6.9562879">
      <time>2020-04-05T20:42:28Z</time>
    </trkpt>
    <trkpt lat="50.9414557" lon="6.9562962">
      <time>2020-04-05T20:42:29Z</time>
    </trkpt>
    <trkpt lat="50.9414936" lon="6.9562963">
      <time>2020-04-05T20:42:30Z</time>
    </trkpt>
    <trkpt lat="50.9415818" lon="6.9562673">
      <time>2020-04-05T20:42:33Z</time>
    </trkpt>
    <trkpt lat="50.9416067" lon="6.9562414">
      <time>2020-04-05T20:42:34Z</time>
    </trkpt>
    <trkpt lat="50.9416306" lon="6.9561697">
      <time>2020-04-05T20:42:36Z</time>
    </trkpt>
    <trkpt lat="50.9416438" lon="6.9560316">
      <time>2020-04-05T20:42:41Z</time>
    </trkpt>
    <trkpt lat="50.9416780" lon="6.9558551">
      <time>2020-04-05T20:42:45Z</time>
    </trkpt>
    <trkpt lat="50.9416675" lon="6.9554748">
      <time>2020-04-05T20:42:51Z</time>
    </trkpt>
    <trkpt lat="50.9416624" lon="6.9554001">
      <time>2020-04-05T20:42:52Z</time>
    </trkpt>
    <trkpt lat="50.9416323" lon="6.9550805">
      <time>2020-04-05T20:42:56Z</time>
    </trkpt>
    <trkpt lat="50.9416080" lon="6.9546265">
      <time>2020-04-05T20:43:02Z</time>
    </trkpt>
    <trkpt lat="50.9416053" lon="6.9545516">
      <time>2020-04-05T20:43:03Z</time>
    </trkpt>
    <trkpt lat="50.9415997" lon="6.9544780">
      <time>2020-04-05T20:43:04Z</time>
    </trkpt>
    <trkpt lat="50.9415871" lon="6.9543977">
      <time>2020-04-05T20:43:05Z</time>
    </trkpt>
    <trkpt lat="50.9415730" lon="6.9541461">
      <time>2020-04-05T20:43:08Z</time>
    </trkpt>
    <trkpt lat="50.9415496" lon="6.9539726">
      <time>2020-04-05T20:43:10Z</time>
    </trkpt>
    <trkpt lat="50.9415072" lon="6.9535737">
      <time>2020-04-05T20:43:15Z</time>
    </trkpt>
    <trkpt lat="50.9415142" lon="6.9532488">
      <time>2020-04-05T20:43:20Z</time>
    </trkpt>
    <trkpt lat="50.9415161" lon="6.9531246">
      <time>2020-04-05T20:43:24Z</time>
    </trkpt>
    <trkpt lat="50.9415162" lon="6.9531143">
      <time>2020-04-05T20:43:27Z</time>
    </trkpt>
    <trkpt lat="50.9415162" lon="6.9530438">
      <time>2020-04-05T20:44:04Z</time>
    </trkpt>
    <trkpt lat="50.9415175" lon="6.9529965">
      <time>2020-04-05T20:44:05Z</time>
    </trkpt>
    <trkpt lat="50.9415269" lon="6.9527036">
      <time>2020-04-05T20:44:10Z</time>
    </trkpt>
    <trkpt lat="50.9415130" lon="6.9522738">
      <time>2020-04-05T20:44:16Z</time>
    </trkpt>
    <trkpt lat="50.9415163" lon="6.9520495">
      <time>2020-04-05T20:44:19Z</time>
    </trkpt>
    <trkpt lat="50.9415199" lon="6.9519711">
      <time>2020-04-05T20:44:20Z</time>
    </trkpt>
    <trkpt lat="50.9415180" lon="6.9518916">
      <time>2020-04-05T20:44:21Z</time>
    </trkpt>
    <trkpt lat="50.9415178" lon="6.9518119">
      <time>2020-04-05T20:44:22Z</time>
    </trkpt>
    <trkpt lat="50.9415619" lon="6.9516497">
      <time>2020-04-05T20:44:24Z</time>
    </trkpt>
    <trkpt lat="50.9415564" lon="6.9514788">
      <time>2020-04-05T20:44:26Z</time>
    </trkpt>
    <trkpt lat="50.9415657" lon="6.9512303">
      <time>2020-04-05T20:44:29Z</time>
    </trkpt>
    <trkpt lat="50.9415556" lon="6.9509498">
      <time>2020-04-05T20:44:32Z</time>
    </trkpt>
    <trkpt lat="50.9415431" lon="6.9505870">
      <time>2020-04-05T20:44:36Z</time>
    </trkpt>
    <trkpt lat="50.9415287" lon="6.9504089">
      <time>2020-04-05T20:44:38Z</time>
    </trkpt>
    <trkpt lat="50.9414882" lon="6.9499036">
      <time>2020-04-05T20:44:44Z</time>
    </trkpt>
    <trkpt lat="50.9414772" lon="6.9498150">
      <time>2020-04-05T20:44:45Z</time>
    </trkpt>
    <trkpt lat="50.9414643" lon="6.9497325">
      <time>2020-04-05T20:44:46Z</time>
    </trkpt>
    <trkpt lat="50.9413904" lon="6.9492224">
      <time>2020-04-05T20:44:52Z</time>
    </trkpt>
    <trkpt lat="50.9413017" lon="6.9485619">
      <time>2020-04-05T20:45:00Z</time>
    </trkpt>
    <trkpt lat="50.9412834" lon="6.9484120">
      <time>2020-04-05T20:45:02Z</time>
    </trkpt>
    <trkpt lat="50.9412653" lon="6.9481805">
      <time>2020-04-05T20:45:05Z</time>
    </trkpt>
    <trkpt lat="50.9412536" lon="6.9481056">
      <time>2020-04-05T20:45:06Z</time>
    </trkpt>
    <trkpt lat="50.9412402" lon="6.9480248">
      <time>2020-04-05T20:45:07Z</time>
    </trkpt>
    <trkpt lat="50.9411544" lon="6.9476918">
      <time>2020-04-05T20:45:11Z</time>
    </trkpt>
    <trkpt lat="50.9411266" lon="6.9476110">
      <time>2020-04-05T20:45:12Z</time>
    </trkpt>
    <trkpt lat="50.9411101" lon="6.9475186">
      <time>2020-04-05T20:45:13Z</time>
    </trkpt>
    <trkpt lat="50.9411092" lon="6.9473179">
      <time>2020-04-05T20:45:15Z</time>
    </trkpt>
    <trkpt lat="50.9411400" lon="6.9470314">
      <time>2020-04-05T20:45:18Z</time>
    </trkpt>
    <trkpt lat="50.9411413" lon="6.9469332">
      <time>2020-04-05T20:45:19Z</time>
    </trkpt>
    <trkpt lat="50.9411405" lon="6.9468332">
      <time>2020-04-05T20:45:20Z</time>
    </trkpt>
    <trkpt lat="50.9411259" lon="6.9465356">
      <time>2020-04-05T20:45:23Z</time>
    </trkpt>
    <trkpt lat="50.9410808" lon="6.9463428">
      <time>2020-04-05T20:45:25Z</time>
    </trkpt>
    <trkpt lat="50.9410141" lon="6.9461542">
      <time>2020-04-05T20:45:27Z</time>
    </trkpt>
    <trkpt lat="50.9409448" lon="6.9459740">
      <time>2020-04-05T20:45:29Z</time>
    </trkpt>
    <trkpt lat="50.9408613" lon="6.9458040">
      <time>2020-04-05T20:45:31Z</time>
    </trkpt>
    <trkpt lat="50.9406794" lon="6.9454931">
      <time>2020-04-05T20:45:35Z</time>
    </trkpt>
    <trkpt lat="50.9406318" lon="6.9454142">
      <time>2020-04-05T20:45:36Z</time>
    </trkpt>
    <trkpt lat="50.9404492" lon="6.9450759">
      <time>2020-04-05T20:45:40Z</time>
    </trkpt>
    <trkpt lat="50.9404064" lon="6.9449731">
      <time>2020-04-05T20:45:41Z</time>
    </trkpt>
    <trkpt lat="50.9403672" lon="6.9448713">
      <time>2020-04-05T20:45:42Z</time>
    </trkpt>
    <trkpt lat="50.9402927" lon="6.9446733">
      <time>2020-04-05T20:45:44Z</time>
    </trkpt>
    <trkpt lat="50.9402207" lon="6.9442182">
      <time>2020-04-05T20:45:48Z</time>
    </trkpt>
    <trkpt lat="50.9401767" lon="6.9440026">
      <time>2020-04-05T20:45:50Z</time>
    </trkpt>
    <trkpt lat="50.9401402" lon="6.9437845">
      <time>2020-04-05T20:45:52Z</time>
    </trkpt>
    <trkpt lat="50.9401326" lon="6.9436703">
      <time>2020-04-05T20:45:53Z</time>
    </trkpt>
    <trkpt lat="50.9401060" lon="6.9429037">
      <time>2020-04-05T20:45:59Z</time>
    </trkpt>
    <trkpt lat="50.9401213" lon="6.9422627">
      <time>2020-04-05T20:46:03Z</time>
    </trkpt>
    <trkpt lat="50.9401798" lon="6.9418099">
      <time>2020-04-05T20:46:06Z</time>
    </trkpt>
    <trkpt lat="50.9402129" lon="6.9416727">
      <time>2020-04-05T20:46:07Z</time>
    </trkpt>
    <trkpt lat="50.9404414" lon="6.9409071">
      <time>2020-04-05T20:46:13Z</time>
    </trkpt>
    <trkpt lat="50.9405114" lon="6.9406453">
      <time>2020-04-05T20:46:15Z</time>
    </trkpt>
    <trkpt lat="50.9405398" lon="6.9405110">
      <time>2020-04-05T20:46:16Z</time>
    </trkpt>
    <trkpt lat="50.9405712" lon="6.9402470">
      <time>2020-04-05T20:46:18Z</time>
    </trkpt>
    <trkpt lat="50.9406149" lon="6.9396000">
      <time>2020-04-05T20:46:23Z</time>
    </trkpt>
    <trkpt lat="50.9406414" lon="6.9390859">
      <time>2020-04-05T20:46:27Z</time>
    </trkpt>
    <trkpt lat="50.9406846" lon="6.9388412">
      <time>2020-04-05T20:46:29Z</time>
    </trkpt>
    <trkpt lat="50.9407939" lon="6.9383716">
      <time>2020-04-05T20:46:33Z</time>
    </trkpt>
    <trkpt lat="50.9408632" lon="6.9381649">
      <time>2020-04-05T20:46:35Z</time>
    </trkpt>
    <trkpt lat="50.9408970" lon="6.9380727">
      <time>2020-04-05T20:46:36Z</time>
    </trkpt>
    <trkpt lat="50.9410395" lon="6.9378120">
      <time>2020-04-05T20:46:39Z</time>
    </trkpt>
    <trkpt lat="50.9413274" lon="6.9373159">
      <time>2020-04-05T20:46:45Z</time>
    </trkpt>
    <trkpt lat="50.9414840" lon="6.9370429">
      <time>2020-04-05T20:46:49Z</time>
    </trkpt>
    <trkpt lat="50.9415110" lon="6.9370003">
      <time>2020-04-05T20:46:50Z</time>
    </trkpt>
    <trkpt lat="50.9415354" lon="6.9369171">
      <time>2020-04-05T20:46:52Z</time>
    </trkpt>
    <trkpt lat="50.9415770" lon="6.9368003">
      <time>2020-04-05T20:46:55Z</time>
    </trkpt>
    <trkpt lat="50.9416185" lon="6.9366663">
      <time>2020-04-05T20:46:59Z</time>
    </trkpt>
    <trkpt lat="50.9416338" lon="6.9366109">
      <time>2020-04-05T20:47:03Z</time>
    </trkpt>
    <trkpt lat="50.9416338" lon="6.9366109">
      <time>2020-04-05T20:47:05Z</time>
    </trkpt>
    <trkpt lat="50.9416747" lon="6.9365485">
      <time>2020-04-05T20:47:30Z</time>
    </trkpt>
    <trkpt lat="50.9416864" lon="6.9365166">
      <time>2020-04-05T20:47:31Z</time>
    </trkpt>
    <trkpt lat="50.9417017" lon="6.9364746">
      <time>2020-04-05T20:47:32Z</time>
    </trkpt>
    <trkpt lat="50.9417786" lon="6.9363434">
      <time>2020-04-05T20:47:35Z</time>
    </trkpt>
    <trkpt lat="50.9418385" lon="6.9362465">
      <time>2020-04-05T20:47:37Z</time>
    </trkpt>
    <trkpt lat="50.9418969" lon="6.9361586">
      <time>2020-04-05T20:47:39Z</time>
    </trkpt>
    <trkpt lat="50.9420019" lon="6.9359546">
      <time>2020-04-05T20:47:43Z</time>
    </trkpt>
    <trkpt lat="50.9422241" lon="6.9355612">
      <time>2020-04-05T20:47:51Z</time>
    </trkpt>
    <trkpt lat="50.9425282" lon="6.9350425">
      <time>2020-04-05T20:48:01Z</time>
    </trkpt>
    <trkpt lat="50.9425575" lon="6.9349827">
      <time>2020-04-05T20:48:02Z</time>
    </trkpt>
    <trkpt lat="50.9427519" lon="6.9346307">
      <time>2020-04-05T20:48:08Z</time>
    </trkpt>
    <trkpt lat="50.9428154" lon="6.9345119">
      <time>2020-04-05T20:48:10Z</time>
    </trkpt>
    <trkpt lat="50.9429036" lon="6.9343347">
      <time>2020-04-05T20:48:13Z</time>
    </trkpt>
    <trkpt lat="50.9429328" lon="6.9342743">
      <time>2020-04-05T20:48:14Z</time>
    </trkpt>
    <trkpt lat="50.9429788" lon="6.9341777">
      <time>2020-04-05T20:48:17Z</time>
    </trkpt>
    <trkpt lat="50.9429835" lon="6.9341149">
      <time>2020-04-05T20:48:18Z</time>
    </trkpt>
    <trkpt lat="50.9429802" lon="6.9340400">
      <time>2020-04-05T20:48:19Z</time>
    </trkpt>
    <trkpt lat="50.9429823" lon="6.9338846">
      <time>2020-04-05T20:48:21Z</time>
    </trkpt>
    <trkpt lat="50.9430255" lon="6.9338747">
      <time>2020-04-05T20:48:22Z</time>
    </trkpt>
    <trkpt lat="50.9430198" lon="6.9336946">
      <time>2020-04-05T20:48:23Z</time>
    </trkpt>
    <trkpt lat="50.9430774" lon="6.9335830">
      <time>2020-04-05T20:48:24Z</time>
    </trkpt>
    <trkpt lat="50.9431523" lon="6.9334773">
      <time>2020-04-05T20:48:25Z</time>
    </trkpt>
    <trkpt lat="50.9432686" lon="6.9333672">
      <time>2020-04-05T20:48:26Z</time>
    </trkpt>
    <trkpt lat="50.9433288" lon="6.9333492">
      <time>2020-04-05T20:48:27Z</time>
    </trkpt>
    <trkpt lat="50.9434097" lon="6.9333034">
      <time>2020-04-05T20:48:29Z</time>
    </trkpt>
    <trkpt lat="50.9434640" lon="6.9332535">
      <time>2020-04-05T20:48:31Z</time>
    </trkpt>
    <trkpt lat="50.9435223" lon="6.9331651">
      <time>2020-04-05T20:48:33Z</time>
    </trkpt>
    <trkpt lat="50.9436032" lon="6.9329884">
      <time>2020-04-05T20:48:36Z</time>
    </trkpt>
    <trkpt lat="50.9436987" lon="6.9328153">
      <time>2020-04-05T20:48:39Z</time>
    </trkpt>
    <trkpt lat="50.9438785" lon="6.9323873">
      <time>2020-04-05T20:48:46Z</time>
    </trkpt>
    <trkpt lat="50.9439361" lon="6.9321900">
      <time>2020-04-05T20:48:49Z</time>
    </trkpt>
    <trkpt lat="50.9439773" lon="6.9320654">
      <time>2020-04-05T20:48:51Z</time>
    </trkpt>
    <trkpt lat="50.9440072" lon="6.9319881">
      <time>2020-04-05T20:48:52Z</time>
    </trkpt>
    <trkpt lat="50.9440602" lon="6.9318780">
      <time>2020-04-05T20:48:54Z</time>
    </trkpt>
    <trkpt lat="50.9441688" lon="6.9317435">
      <time>2020-04-05T20:48:57Z</time>
    </trkpt>
    <trkpt lat="50.9442274" lon="6.9316436">
      <time>2020-04-05T20:48:59Z</time>
    </trkpt>
    <trkpt lat="50.9443057" lon="6.9314501">
      <time>2020-04-05T20:49:02Z</time>
    </trkpt>
    <trkpt lat="50.9444564" lon="6.9309961">
      <time>2020-04-05T20:49:09Z</time>
    </trkpt>
    <trkpt lat="50.9445645" lon="6.9306661">
      <time>2020-04-05T20:49:15Z</time>
    </trkpt>
    <trkpt lat="50.9445778" lon="6.9306194">
      <time>2020-04-05T20:49:16Z</time>
    </trkpt>
    <trkpt lat="50.9446891" lon="6.9302637">
      <time>2020-04-05T20:49:22Z</time>
    </trkpt>
    <trkpt lat="50.9447070" lon="6.9301900">
      <time>2020-04-05T20:49:23Z</time>
    </trkpt>
    <trkpt lat="50.9447491" lon="6.9300606">
      <time>2020-04-05T20:49:25Z</time>
    </trkpt>
    <trkpt lat="50.9447874" lon="6.9299383">
      <time>2020-04-05T20:49:27Z</time>
    </trkpt>
    <trkpt lat="50.9449135" lon="6.9294471">
      <time>2020-04-05T20:49:34Z</time>
    </trkpt>
    <trkpt lat="50.9449186" lon="6.9293895">
      <time>2020-04-05T20:49:35Z</time>
    </trkpt>
    <trkpt lat="50.9450347" lon="6.9290960">
      <time>2020-04-05T20:49:39Z</time>
    </trkpt>
    <trkpt lat="50.9450524" lon="6.9288993">
      <time>2020-04-05T20:49:41Z</time>
    </trkpt>
    <trkpt lat="50.9450745" lon="6.9288218">
      <time>2020-04-05T20:49:42Z</time>
    </trkpt>
    <trkpt lat="50.9451296" lon="6.9285128">
      <time>2020-04-05T20:49:46Z</time>
    </trkpt>
    <trkpt lat="50.9451752" lon="6.9283799">
      <time>2020-04-05T20:49:48Z</time>
    </trkpt>
    <trkpt lat="50.9452196" lon="6.9282610">
      <time>2020-04-05T20:49:50Z</time>
    </trkpt>
    <trkpt lat="50.9452370" lon="6.9281841">
      <time>2020-04-05T20:49:51Z</time>
    </trkpt>
    <trkpt lat="50.9452895" lon="6.9279350">
      <time>2020-04-05T20:49:54Z</time>
    </trkpt>
    <trkpt lat="50.9453164" lon="6.9278527">
      <time>2020-04-05T20:49:55Z</time>
    </trkpt>
    <trkpt lat="50.9454155" lon="6.9275258">
      <time>2020-04-05T20:49:59Z</time>
    </trkpt>
    <trkpt lat="50.9454951" lon="6.9272655">
      <time>2020-04-05T20:50:02Z</time>
    </trkpt>
    <trkpt lat="50.9456794" lon="6.9267960">
      <time>2020-04-05T20:50:08Z</time>
    </trkpt>
    <trkpt lat="50.9457102" lon="6.9267154">
      <time>2020-04-05T20:50:09Z</time>
    </trkpt>
    <trkpt lat="50.9457404" lon="6.9266376">
      <time>2020-04-05T20:50:10Z</time>
    </trkpt>
    <trkpt lat="50.9458631" lon="6.9263205">
      <time>2020-04-05T20:50:14Z</time>
    </trkpt>
    <trkpt lat="50.9460495" lon="6.9258476">
      <time>2020-04-05T20:50:20Z</time>
    </trkpt>
    <trkpt lat="50.9461140" lon="6.9256823">
      <time>2020-04-05T20:50:22Z</time>
    </trkpt>
    <trkpt lat="50.9462155" lon="6.9254624">
      <time>2020-04-05T20:50:25Z</time>
    </trkpt>
    <trkpt lat="50.9463267" lon="6.9252111">
      <time>2020-04-05T20:50:28Z</time>
    </trkpt>
    <trkpt lat="50.9465236" lon="6.9247221">
      <time>2020-04-05T20:50:34Z</time>
    </trkpt>
    <trkpt lat="50.9467466" lon="6.9241622">
      <time>2020-04-05T20:50:41Z</time>
    </trkpt>
    <trkpt lat="50.9469094" lon="6.9237621">
      <time>2020-04-05T20:50:46Z</time>
    </trkpt>
    <trkpt lat="50.9470666" lon="6.9233811">
      <time>2020-04-05T20:50:51Z</time>
    </trkpt>
    <trkpt lat="50.9471113" lon="6.9232063">
      <time>2020-04-05T20:50:53Z</time>
    </trkpt>
    <trkpt lat="50.9471346" lon="6.9231183">
      <time>2020-04-05T20:50:54Z</time>
    </trkpt>
    <trkpt lat="50.9472879" lon="6.9227102">
      <time>2020-04-05T20:50:59Z</time>
    </trkpt>
    <trkpt lat="50.9474171" lon="6.9223953">
      <time>2020-04-05T20:51:03Z</time>
    </trkpt>
    <trkpt lat="50.9475070" lon="6.9221620">
      <time>2020-04-05T20:51:06Z</time>
    </trkpt>
    <trkpt lat="50.9477314" lon="6.9216316">
      <time>2020-04-05T20:51:13Z</time>
    </trkpt>
    <trkpt lat="50.9478686" lon="6.9213279">
      <time>2020-04-05T20:51:17Z</time>
    </trkpt>
    <trkpt lat="50.9479602" lon="6.9211170">
      <time>2020-04-05T20:51:20Z</time>
    </trkpt>
    <trkpt lat="50.9480344" lon="6.9209762">
      <time>2020-04-05T20:51:22Z</time>
    </trkpt>
    <trkpt lat="50.9481266" lon="6.9207442">
      <time>2020-04-05T20:51:25Z</time>
    </trkpt>
    <trkpt lat="50.9482814" lon="6.9203581">
      <time>2020-04-05T20:51:30Z</time>
    </trkpt>
    <trkpt lat="50.9483353" lon="6.9201969">
      <time>2020-04-05T20:51:32Z</time>
    </trkpt>
    <trkpt lat="50.9483904" lon="6.9200207">
      <time>2020-04-05T20:51:34Z</time>
    </trkpt>
    <trkpt lat="50.9485085" lon="6.9197624">
      <time>2020-04-05T20:51:37Z</time>
    </trkpt>
    <trkpt lat="50.9487667" lon="6.9191261">
      <time>2020-04-05T20:51:44Z</time>
    </trkpt>
    <trkpt lat="50.9488021" lon="6.9190357">
      <time>2020-04-05T20:51:45Z</time>
    </trkpt>
    <trkpt lat="50.9489181" lon="6.9187699">
      <time>2020-04-05T20:51:48Z</time>
    </trkpt>
    <trkpt lat="50.9489953" lon="6.9185942">
      <time>2020-04-05T20:51:50Z</time>
    </trkpt>
    <trkpt lat="50.9491253" lon="6.9183241">
      <time>2020-04-05T20:51:53Z</time>
    </trkpt>
    <trkpt lat="50.9494182" lon="6.9178307">
      <time>2020-04-05T20:51:59Z</time>
    </trkpt>
    <trkpt lat="50.9495916" lon="6.9175791">
      <time>2020-04-05T20:52:02Z</time>
    </trkpt>
    <trkpt lat="50.9497065" lon="6.9174131">
      <time>2020-04-05T20:52:04Z</time>
    </trkpt>
    <trkpt lat="50.9497572" lon="6.9173329">
      <time>2020-04-05T20:52:05Z</time>
    </trkpt>
    <trkpt lat="50.9498852" lon="6.9171249">
      <time>2020-04-05T20:52:08Z</time>
    </trkpt>
    <trkpt lat="50.9499166" lon="6.9170578">
      <time>2020-04-05T20:52:09Z</time>
    </trkpt>
    <trkpt lat="50.9499772" lon="6.9169435">
      <time>2020-04-05T20:52:11Z</time>
    </trkpt>
    <trkpt lat="50.9500275" lon="6.9168456">
      <time>2020-04-05T20:52:13Z</time>
    </trkpt>
    <trkpt lat="50.9500540" lon="6.9168267">
      <time>2020-04-05T20:52:14Z</time>
    </trkpt>
    <trkpt lat="50.9500924" lon="6.9168282">
      <time>2020-04-05T20:52:16Z</time>
    </trkpt>
    <trkpt lat="50.9501022" lon="6.9168171">
      <time>2020-04-05T20:52:20Z</time>
    </trkpt>
    <trkpt lat="50.9501215" lon="6.9168053">
      <time>2020-04-05T20:52:47Z</time>
    </trkpt>
    <trkpt lat="50.9501617" lon="6.9167658">
      <time>2020-04-05T20:52:49Z</time>
    </trkpt>
    <trkpt lat="50.9503239" lon="6.9165722">
      <time>2020-04-05T20:52:54Z</time>
    </trkpt>
    <trkpt lat="50.9504341" lon="6.9164188">
      <time>2020-04-05T20:52:57Z</time>
    </trkpt>
    <trkpt lat="50.9505093" lon="6.9163043">
      <time>2020-04-05T20:52:59Z</time>
    </trkpt>
    <trkpt lat="50.9507457" lon="6.9159377">
      <time>2020-04-05T20:53:05Z</time>
    </trkpt>
    <trkpt lat="50.9508656" lon="6.9157491">
      <time>2020-04-05T20:53:08Z</time>
    </trkpt>
    <trkpt lat="50.9509841" lon="6.9155766">
      <time>2020-04-05T20:53:11Z</time>
    </trkpt>
    <trkpt lat="50.9510217" lon="6.9155113">
      <time>2020-04-05T20:53:12Z</time>
    </trkpt>
    <trkpt lat="50.9511336" lon="6.9153218">
      <time>2020-04-05T20:53:15Z</time>
    </trkpt>
    <trkpt lat="50.9512388" lon="6.9151456">
      <time>2020-04-05T20:53:18Z</time>
    </trkpt>
    <trkpt lat="50.9512603" lon="6.9150744">
      <time>2020-04-05T20:53:19Z</time>
    </trkpt>
    <trkpt lat="50.9515424" lon="6.9146374">
      <time>2020-04-05T20:53:27Z</time>
    </trkpt>
    <trkpt lat="50.9516801" lon="6.9145709">
      <time>2020-04-05T20:53:29Z</time>
    </trkpt>
    <trkpt lat="50.9518297" lon="6.9143655">
      <time>2020-04-05T20:53:33Z</time>
    </trkpt>
    <trkpt lat="50.9519568" lon="6.9141469">
      <time>2020-04-05T20:53:37Z</time>
    </trkpt>
    <trkpt lat="50.9521201" lon="6.9138724">
      <time>2020-04-05T20:53:42Z</time>
    </trkpt>
    <trkpt lat="50.9523511" lon="6.9134611">
      <time>2020-04-05T20:53:49Z</time>
    </trkpt>
    <trkpt lat="50.9524739" lon="6.9132385">
      <time>2020-04-05T20:53:53Z</time>
    </trkpt>
    <trkpt lat="50.9525365" lon="6.9131330">
      <time>2020-04-05T20:53:55Z</time>
    </trkpt>
    <trkpt lat="50.9528573" lon="6.9126319">
      <time>2020-04-05T20:54:04Z</time>
    </trkpt>
    <trkpt lat="50.9529578" lon="6.9124652">
      <time>2020-04-05T20:54:07Z</time>
    </trkpt>
    <trkpt lat="50.9530260" lon="6.9123470">
      <time>2020-04-05T20:54:09Z</time>
    </trkpt>
    <trkpt lat="50.9530667" lon="6.9122987">
      <time>2020-04-05T20:54:10Z</time>
    </trkpt>
    <trkpt lat="50.9532347" lon="6.9120912">
      <time>2020-04-05T20:54:14Z</time>
    </trkpt>
    <trkpt lat="50.9533151" lon="6.9119858">
      <time>2020-04-05T20:54:16Z</time>
    </trkpt>
    <trkpt lat="50.9533932" lon="6.9118842">
      <time>2020-04-05T20:54:18Z</time>
    </trkpt>
    <trkpt lat="50.9534292" lon="6.9118254">
      <time>2020-04-05T20:54:19Z</time>
    </trkpt>
    <trkpt lat="50.9535429" lon="6.9116627">
      <time>2020-04-05T20:54:22Z</time>
    </trkpt>
    <trkpt lat="50.9536450" lon="6.9115084">
      <time>2020-04-05T20:54:25Z</time>
    </trkpt>
    <trkpt lat="50.9537540" lon="6.9113431">
      <time>2020-04-05T20:54:28Z</time>
    </trkpt>
    <trkpt lat="50.9537904" lon="6.9112880">
      <time>2020-04-05T20:54:29Z</time>
    </trkpt>
    <trkpt lat="50.9538602" lon="6.9111815">
      <time>2020-04-05T20:54:31Z</time>
    </trkpt>
    <trkpt lat="50.9539330" lon="6.9110826">
      <time>2020-04-05T20:54:33Z</time>
    </trkpt>
    <trkpt lat="50.9539652" lon="6.9110332">
      <time>2020-04-05T20:54:34Z</time>
    </trkpt>
    <trkpt lat="50.9540569" lon="6.9108803">
      <time>2020-04-05T20:54:37Z</time>
    </trkpt>
    <trkpt lat="50.9541519" lon="6.9107309">
      <time>2020-04-05T20:54:40Z</time>
    </trkpt>
    <trkpt lat="50.9542171" lon="6.9106262">
      <time>2020-04-05T20:54:42Z</time>
    </trkpt>
    <trkpt lat="50.9542771" lon="6.9105172">
      <time>2020-04-05T20:54:44Z</time>
    </trkpt>
    <trkpt lat="50.9543362" lon="6.9104090">
      <time>2020-04-05T20:54:46Z</time>
    </trkpt>
    <trkpt lat="50.9543878" lon="6.9103059">
      <time>2020-04-05T20:54:48Z</time>
    </trkpt>
    <trkpt lat="50.9544686" lon="6.9100575">
      <time>2020-04-05T20:54:52Z</time>
    </trkpt>
    <trkpt lat="50.9545470" lon="6.9097489">
      <time>2020-04-05T20:54:56Z</time>
    </trkpt>
    <trkpt lat="50.9546073" lon="6.9095982">
      <time>2020-04-05T20:54:58Z</time>
    </trkpt>
    <trkpt lat="50.9547191" lon="6.9093171">
      <time>2020-04-05T20:55:02Z</time>
    </trkpt>
    <trkpt lat="50.9547722" lon="6.9091466">
      <time>2020-04-05T20:55:04Z</time>
    </trkpt>
    <trkpt lat="50.9548545" lon="6.9089024">
      <time>2020-04-05T20:55:07Z</time>
    </trkpt>
    <trkpt lat="50.9549727" lon="6.9085689">
      <time>2020-04-05T20:55:11Z</time>
    </trkpt>
    <trkpt lat="50.9551977" lon="6.9079058">
      <time>2020-04-05T20:55:19Z</time>
    </trkpt>
    <trkpt lat="50.9552473" lon="6.9077318">
      <time>2020-04-05T20:55:21Z</time>
    </trkpt>
    <trkpt lat="50.9552980" lon="6.9075656">
      <time>2020-04-05T20:55:23Z</time>
    </trkpt>
    <trkpt lat="50.9553995" lon="6.9072607">
      <time>2020-04-05T20:55:27Z</time>
    </trkpt>
    <trkpt lat="50.9555362" lon="6.9068117">
      <time>2020-04-05T20:55:33Z</time>
    </trkpt>
    <trkpt lat="50.9556722" lon="6.9064030">
      <time>2020-04-05T20:55:39Z</time>
    </trkpt>
    <trkpt lat="50.9556952" lon="6.9063386">
      <time>2020-04-05T20:55:40Z</time>
    </trkpt>
    <trkpt lat="50.9558234" lon="6.9059436">
      <time>2020-04-05T20:55:46Z</time>
    </trkpt>
    <trkpt lat="50.9558719" lon="6.9058269">
      <time>2020-04-05T20:55:48Z</time>
    </trkpt>
    <trkpt lat="50.9559180" lon="6.9057152">
      <time>2020-04-05T20:55:50Z</time>
    </trkpt>
    <trkpt lat="50.9559607" lon="6.9055647">
      <time>2020-04-05T20:55:52Z</time>
    </trkpt>
    <trkpt lat="50.9560065" lon="6.9054174">
      <time>2020-04-05T20:55:54Z</time>
    </trkpt>
    <trkpt lat="50.9560667" lon="6.9052591">
      <time>2020-04-05T20:55:56Z</time>
    </trkpt>
    <trkpt lat="50.9561756" lon="6.9049408">
      <time>2020-04-05T20:56:00Z</time>
    </trkpt>
    <trkpt lat="50.9562551" lon="6.9047108">
      <time>2020-04-05T20:56:03Z</time>
    </trkpt>
    <trkpt lat="50.9563355" lon="6.9044848">
      <time>2020-04-05T20:56:06Z</time>
    </trkpt>
    <trkpt lat="50.9563822" lon="6.9043460">
      <time>2020-04-05T20:56:08Z</time>
    </trkpt>
    <trkpt lat="50.9564096" lon="6.9042826">
      <time>2020-04-05T20:56:09Z</time>
    </trkpt>
    <trkpt lat="50.9564747" lon="6.9040819">
      <time>2020-04-05T20:56:12Z</time>
    </trkpt>
    <trkpt lat="50.9565721" lon="6.9038431">
      <time>2020-04-05T20:56:16Z</time>
    </trkpt>
    <trkpt lat="50.9566608" lon="6.9036103">
      <time>2020-04-05T20:56:20Z</time>
    </trkpt>
    <trkpt lat="50.9566893" lon="6.9035152">
      <time>2020-04-05T20:56:22Z</time>
    </trkpt>
    <trkpt lat="50.9567267" lon="6.9034178">
      <time>2020-04-05T20:56:26Z</time>
    </trkpt>
    <trkpt lat="50.9567398" lon="6.9033349">
      <time>2020-04-05T20:56:31Z</time>
    </trkpt>
    <trkpt lat="50.9567398" lon="6.9033349">
      <time>2020-04-05T20:56:33Z</time>
    </trkpt>
    <trkpt lat="50.9567583" lon="6.9032821">
      <time>2020-04-05T20:56:47Z</time>
    </trkpt>
    <trkpt lat="50.9567805" lon="6.9032342">
      <time>2020-04-05T20:56:48Z</time>
    </trkpt>
    <trkpt lat="50.9568748" lon="6.9029962">
      <time>2020-04-05T20:56:52Z</time>
    </trkpt>
    <trkpt lat="50.9568958" lon="6.9029147">
      <time>2020-04-05T20:56:53Z</time>
    </trkpt>
    <trkpt lat="50.9569976" lon="6.9025186">
      <time>2020-04-05T20:56:57Z</time>
    </trkpt>
    <trkpt lat="50.9570248" lon="6.9024112">
      <time>2020-04-05T20:56:58Z</time>
    </trkpt>
    <trkpt lat="50.9571431" lon="6.9019481">
      <time>2020-04-05T20:57:02Z</time>
    </trkpt>
    <trkpt lat="50.9572086" lon="6.9017162">
      <time>2020-04-05T20:57:04Z</time>
    </trkpt>
    <trkpt lat="50.9572508" lon="6.9016054">
      <time>2020-04-05T20:57:05Z</time>
    </trkpt>
    <trkpt lat="50.9573521" lon="6.9014007">
      <time>2020-04-05T20:57:07Z</time>
    </trkpt>
    <trkpt lat="50.9574271" lon="6.9011777">
      <time>2020-04-05T20:57:09Z</time>
    </trkpt>
    <trkpt lat="50.9575195" lon="6.9008588">
      <time>2020-04-05T20:57:12Z</time>
    </trkpt>
    <trkpt lat="50.9576264" lon="6.9005657">
      <time>2020-04-05T20:57:15Z</time>
    </trkpt>
    <trkpt lat="50.9577062" lon="6.9003703">
      <time>2020-04-05T20:57:17Z</time>
    </trkpt>
    <trkpt lat="50.9578296" lon="6.9000678">
      <time>2020-04-05T20:57:20Z</time>
    </trkpt>
    <trkpt lat="50.9579606" lon="6.8997728">
      <time>2020-04-05T20:57:23Z</time>
    </trkpt>
    <trkpt lat="50.9582741" lon="6.8991080">
      <time>2020-04-05T20:57:30Z</time>
    </trkpt>
    <trkpt lat="50.9586037" lon="6.8984435">
      <time>2020-04-05T20:57:37Z</time>
    </trkpt>
    <trkpt lat="50.9588240" lon="6.8979528">
      <time>2020-04-05T20:57:42Z</time>
    </trkpt>
    <trkpt lat="50.9590753" lon="6.8974204">
      <time>2020-04-05T20:57:48Z</time>
    </trkpt>
    <trkpt lat="50.9592566" lon="6.8970507">
      <time>2020-04-05T20:57:52Z</time>
    </trkpt>
    <trkpt lat="50.9595118" lon="6.8965293">
      <time>2020-04-05T20:57:58Z</time>
    </trkpt>
    <trkpt lat="50.9595500" lon="6.8964464">
      <time>2020-04-05T20:57:59Z</time>
    </trkpt>
    <trkpt lat="50.9597441" lon="6.8959976">
      <time>2020-04-05T20:58:04Z</time>
    </trkpt>
    <trkpt lat="50.9600680" lon="6.8952949">
      <time>2020-04-05T20:58:12Z</time>
    </trkpt>
    <trkpt lat="50.9601509" lon="6.8951304">
      <time>2020-04-05T20:58:14Z</time>
    </trkpt>
    <trkpt lat="50.9604558" lon="6.8945521">
      <time>2020-04-05T20:58:21Z</time>
    </trkpt>
    <trkpt lat="50.9605369" lon="6.8943889">
      <time>2020-04-05T20:58:23Z</time>
    </trkpt>
    <trkpt lat="50.9606979" lon="6.8940939">
      <time>2020-04-05T20:58:27Z</time>
    </trkpt>
    <trkpt lat="50.9608039" lon="6.8938491">
      <time>2020-04-05T20:58:30Z</time>
    </trkpt>
    <trkpt lat="50.9608924" lon="6.8936871">
      <time>2020-04-05T20:58:32Z</time>
    </trkpt>
    <trkpt lat="50.9610048" lon="6.8935679">
      <time>2020-04-05T20:58:34Z</time>
    </trkpt>
    <trkpt lat="50.9610581" lon="6.8935072">
      <time>2020-04-05T20:58:35Z</time>
    </trkpt>
    <trkpt lat="50.9612212" lon="6.8932630">
      <time>2020-04-05T20:58:39Z</time>
    </trkpt>
    <trkpt lat="50.9613400" lon="6.8930557">
      <time>2020-04-05T20:58:43Z</time>
    </trkpt>
    <trkpt lat="50.9613684" lon="6.8929866">
      <time>2020-04-05T20:58:44Z</time>
    </trkpt>
    <trkpt lat="50.9613932" lon="6.8929004">
      <time>2020-04-05T20:58:45Z</time>
    </trkpt>
    <trkpt lat="50.9614643" lon="6.8927447">
      <time>2020-04-05T20:58:47Z</time>
    </trkpt>
    <trkpt lat="50.9615318" lon="6.8925690">
      <time>2020-04-05T20:58:49Z</time>
    </trkpt>
    <trkpt lat="50.9618239" lon="6.8919461">
      <time>2020-04-05T20:58:56Z</time>
    </trkpt>
    <trkpt lat="50.9621406" lon="6.8912684">
      <time>2020-04-05T20:59:03Z</time>
    </trkpt>
    <trkpt lat="50.9621881" lon="6.8911710">
      <time>2020-04-05T20:59:04Z</time>
    </trkpt>
    <trkpt lat="50.9622720" lon="6.8909581">
      <time>2020-04-05T20:59:06Z</time>
    </trkpt>
    <trkpt lat="50.9625366" lon="6.8903600">
      <time>2020-04-05T20:59:12Z</time>
    </trkpt>
    <trkpt lat="50.9626213" lon="6.8901423">
      <time>2020-04-05T20:59:14Z</time>
    </trkpt>
    <trkpt lat="50.9626656" lon="6.8900314">
      <time>2020-04-05T20:59:15Z</time>
    </trkpt>
    <trkpt lat="50.9627569" lon="6.8897976">
      <time>2020-04-05T20:59:17Z</time>
    </trkpt>
    <trkpt lat="50.9628027" lon="6.8896735">
      <time>2020-04-05T20:59:18Z</time>
    </trkpt>
    <trkpt lat="50.9629594" lon="6.8893157">
      <time>2020-04-05T20:59:21Z</time>
    </trkpt>
    <trkpt lat="50.9630733" lon="6.8891133">
      <time>2020-04-05T20:59:23Z</time>
    </trkpt>
    <trkpt lat="50.9631262" lon="6.8890111">
      <time>2020-04-05T20:59:24Z</time>
    </trkpt>
    <trkpt lat="50.9631754" lon="6.8888990">
      <time>2020-04-05T20:59:25Z</time>
    </trkpt>
    <trkpt lat="50.9634105" lon="6.8883406">
      <time>2020-04-05T20:59:30Z</time>
    </trkpt>
    <trkpt lat="50.9634891" lon="6.8881122">
      <time>2020-04-05T20:59:32Z</time>
    </trkpt>
    <trkpt lat="50.9635805" lon="6.8878944">
      <time>2020-04-05T20:59:34Z</time>
    </trkpt>
    <trkpt lat="50.9637124" lon="6.8875228">
      <time>2020-04-05T20:59:37Z</time>
    </trkpt>
    <trkpt lat="50.9640533" lon="6.8867255">
      <time>2020-04-05T20:59:44Z</time>
    </trkpt>
    <trkpt lat="50.9643957" lon="6.8859710">
      <time>2020-04-05T20:59:51Z</time>
    </trkpt>
    <trkpt lat="50.9644498" lon="6.8858646">
      <time>2020-04-05T20:59:52Z</time>
    </trkpt>
    <trkpt lat="50.9646783" lon="6.8853589">
      <time>2020-04-05T20:59:57Z</time>
    </trkpt>
    <trkpt lat="50.9649925" lon="6.8846633">
      <time>2020-04-05T21:00:04Z</time>
    </trkpt>
    <trkpt lat="50.9652599" lon="6.8840815">
      <time>2020-04-05T21:00:10Z</time>
    </trkpt>
    <trkpt lat="50.9656193" lon="6.8833202">
      <time>2020-04-05T21:00:18Z</time>
    </trkpt>
    <trkpt lat="50.9657022" lon="6.8831294">
      <time>2020-04-05T21:00:20Z</time>
    </trkpt>
    <trkpt lat="50.9659395" lon="6.8825911">
      <time>2020-04-05T21:00:26Z</time>
    </trkpt>
    <trkpt lat="50.9661792" lon="6.8819821">
      <time>2020-04-05T21:00:33Z</time>
    </trkpt>
    <trkpt lat="50.9662662" lon="6.8817274">
      <time>2020-04-05T21:00:36Z</time>
    </trkpt>
    <trkpt lat="50.9663404" lon="6.8815001">
      <time>2020-04-05T21:00:39Z</time>
    </trkpt>
    <trkpt lat="50.9663818" lon="6.8813630">
      <time>2020-04-05T21:00:41Z</time>
    </trkpt>
    <trkpt lat="50.9663813" lon="6.8812141">
      <time>2020-04-05T21:00:43Z</time>
    </trkpt>
    <trkpt lat="50.9662968" lon="6.8810007">
      <time>2020-04-05T21:00:46Z</time>
    </trkpt>
    <trkpt lat="50.9660680" lon="6.8807580">
      <time>2020-04-05T21:00:50Z</time>
    </trkpt>
    <trkpt lat="50.9657021" lon="6.8804409">
      <time>2020-04-05T21:00:56Z</time>
    </trkpt>
    <trkpt lat="50.9652422" lon="6.8799670">
      <time>2020-04-05T21:01:04Z</time>
    </trkpt>
    <trkpt lat="50.9651901" lon="6.8799055">
      <time>2020-04-05T21:01:05Z</time>
    </trkpt>
    <trkpt lat="50.9647283" lon="6.8793956">
      <time>2020-04-05T21:01:14Z</time>
    </trkpt>
    <trkpt lat="50.9646791" lon="6.8793429">
      <time>2020-04-05T21:01:15Z</time>
    </trkpt>
    <trkpt lat="50.9646309" lon="6.8792853">
      <time>2020-04-05T21:01:16Z</time>
    </trkpt>
    <trkpt lat="50.9644072" lon="6.8789757">
      <time>2020-04-05T21:01:21Z</time>
    </trkpt>
    <trkpt lat="50.9643587" lon="6.8789157">
      <time>2020-04-05T21:01:22Z</time>
    </trkpt>
    <trkpt lat="50.9642141" lon="6.8787253">
      <time>2020-04-05T21:01:25Z</time>
    </trkpt>
    <trkpt lat="50.9640289" lon="6.8784498">
      <time>2020-04-05T21:01:29Z</time>
    </trkpt>
    <trkpt lat="50.9636846" lon="6.8778842">
      <time>2020-04-05T21:01:37Z</time>
    </trkpt>
    <trkpt lat="50.9636394" lon="6.8778186">
      <time>2020-04-05T21:01:38Z</time>
    </trkpt>
    <trkpt lat="50.9634627" lon="6.8775241">
      <time>2020-04-05T21:01:42Z</time>
    </trkpt>
    <trkpt lat="50.9633430" lon="6.8772964">
      <time>2020-04-05T21:01:45Z</time>
    </trkpt>
    <trkpt lat="50.9631844" lon="6.8770283">
      <time>2020-04-05T21:01:49Z</time>
    </trkpt>
    <trkpt lat="50.9631520" lon="6.8769544">
      <time>2020-04-05T21:01:50Z</time>
    </trkpt>
    <trkpt lat="50.9631268" lon="6.8768750">
      <time>2020-04-05T21:01:51Z</time>
    </trkpt>
    <trkpt lat="50.9631013" lon="6.8767249">
      <time>2020-04-05T21:01:53Z</time>
    </trkpt>
    <trkpt lat="50.9630976" lon="6.8766465">
      <time>2020-04-05T21:01:54Z</time>
    </trkpt>
    <trkpt lat="50.9631024" lon="6.8765678">
      <time>2020-04-05T21:01:55Z</time>
    </trkpt>
    <trkpt lat="50.9631440" lon="6.8764349">
      <time>2020-04-05T21:01:57Z</time>
    </trkpt>
    <trkpt lat="50.9632417" lon="6.8761238">
      <time>2020-04-05T21:02:02Z</time>
    </trkpt>
    <trkpt lat="50.9633170" lon="6.8759669">
      <time>2020-04-05T21:02:06Z</time>
    </trkpt>
    <trkpt lat="50.9633361" lon="6.8759482">
      <time>2020-04-05T21:02:07Z</time>
    </trkpt>
    <trkpt lat="50.9633698" lon="6.8759464">
      <time>2020-04-05T21:02:09Z</time>
    </trkpt>
    <trkpt lat="50.9634238" lon="6.8759602">
      <time>2020-04-05T21:02:13Z</time>
    </trkpt>
    <trkpt lat="50.9634447" lon="6.8759522">
      <time>2020-04-05T21:02:15Z</time>
    </trkpt>
    <trkpt lat="50.9634558" lon="6.8759398">
      <time>2020-04-05T21:02:19Z</time>
    </trkpt>
  </trkseg></trk>
</gpx>
