<?xml version="1.0" encoding="UTF-8"?>
<gpx version="1.1" creator="Diary FIT converter" xmlns="http://www.topografix.com/GPX/1/1">
  <trk><name>Running</name><trkseg>
    <trkpt lat="50.9631681" lon="6.8763950">
      <time>2021-01-27T05:46:52Z</time>
    </trkpt>
    <trkpt lat="50.9631637" lon="6.8763848">
      <time>2021-01-27T05:46:53Z</time>
    </trkpt>
    <trkpt lat="50.9631658" lon="6.8760928">
      <time>2021-01-27T05:46:55Z</time>
    </trkpt>
    <trkpt lat="50.9631310" lon="6.8760768">
      <time>2021-01-27T05:46:56Z</time>
    </trkpt>
    <trkpt lat="50.9631644" lon="6.8761851">
      <time>2021-01-27T05:46:58Z</time>
    </trkpt>
    <trkpt lat="50.9632141" lon="6.8762928">
      <time>2021-01-27T05:47:00Z</time>
    </trkpt>
    <trkpt lat="50.9631357" lon="6.8764262">
      <time>2021-01-27T05:47:05Z</time>
    </trkpt>
    <trkpt lat="50.9631198" lon="6.8764539">
      <time>2021-01-27T05:47:06Z</time>
    </trkpt>
    <trkpt lat="50.9630919" lon="6.8765859">
      <time>2021-01-27T05:47:10Z</time>
    </trkpt>
    <trkpt lat="50.9630390" lon="6.8766910">
      <time>2021-01-27T05:47:13Z</time>
    </trkpt>
    <trkpt lat="50.9628874" lon="6.8766869">
      <time>2021-01-27T05:47:18Z</time>
    </trkpt>
    <trkpt lat="50.9626932" lon="6.8765957">
      <time>2021-01-27T05:47:25Z</time>
    </trkpt>
    <trkpt lat="50.9626479" lon="6.8765649">
      <time>2021-01-27T05:47:27Z</time>
    </trkpt>
    <trkpt lat="50.9625075" lon="6.8765179">
      <time>2021-01-27T05:47:33Z</time>
    </trkpt>
    <trkpt lat="50.9623673" lon="6.8764885">
      <time>2021-01-27T05:47:38Z</time>
    </trkpt>
    <trkpt lat="50.9621965" lon="6.8764276">
      <time>2021-01-27T05:47:45Z</time>
    </trkpt>
    <trkpt lat="50.9621735" lon="6.8764117">
      <time>2021-01-27T05:47:46Z</time>
    </trkpt>
    <trkpt lat="50.9620687" lon="6.8763713">
      <time>2021-01-27T05:47:52Z</time>
    </trkpt>
    <trkpt lat="50.9620191" lon="6.8765395">
      <time>2021-01-27T05:47:57Z</time>
    </trkpt>
    <trkpt lat="50.9620101" lon="6.8767551">
      <time>2021-01-27T05:48:02Z</time>
    </trkpt>
    <trkpt lat="50.9620245" lon="6.8770392">
      <time>2021-01-27T05:48:09Z</time>
    </trkpt>
    <trkpt lat="50.9620209" lon="6.8771817">
      <time>2021-01-27T05:48:13Z</time>
    </trkpt>
    <trkpt lat="50.9620345" lon="6.8773092">
      <time>2021-01-27T05:48:16Z</time>
    </trkpt>
    <trkpt lat="50.9620632" lon="6.8775458">
      <time>2021-01-27T05:48:23Z</time>
    </trkpt>
    <trkpt lat="50.9620626" lon="6.8777121">
      <time>2021-01-27T05:48:28Z</time>
    </trkpt>
    <trkpt lat="50.9620742" lon="6.8777725">
      <time>2021-01-27T05:48:29Z</time>
    </trkpt>
    <trkpt lat="50.9620887" lon="6.8779649">
      <time>2021-01-27T05:48:33Z</time>
    </trkpt>
    <trkpt lat="50.9621153" lon="6.8782089">
      <time>2021-01-27T05:48:38Z</time>
    </trkpt>
    <trkpt lat="50.9621064" lon="6.8784890">
      <time>2021-01-27T05:48:44Z</time>
    </trkpt>
    <trkpt lat="50.9621037" lon="6.8785547">
      <time>2021-01-27T05:48:46Z</time>
    </trkpt>
    <trkpt lat="50.9621025" lon="6.8785877">
      <time>2021-01-27T05:48:47Z</time>
    </trkpt>
    <trkpt lat="50.9620996" lon="6.8787012">
      <time>2021-01-27T05:48:50Z</time>
    </trkpt>
    <trkpt lat="50.9621848" lon="6.8787580">
      <time>2021-01-27T05:48:55Z</time>
    </trkpt>
    <trkpt lat="50.9622742" lon="6.8787959">
      <time>2021-01-27T05:48:59Z</time>
    </trkpt>
    <trkpt lat="50.9623173" lon="6.8788038">
      <time>2021-01-27T05:49:01Z</time>
    </trkpt>
    <trkpt lat="50.9625032" lon="6.8788622">
      <time>2021-01-27T05:49:08Z</time>
    </trkpt>
    <trkpt lat="50.9625280" lon="6.8788693">
      <time>2021-01-27T05:49:09Z</time>
    </trkpt>
    <trkpt lat="50.9627203" lon="6.8789351">
      <time>2021-01-27T05:49:17Z</time>
    </trkpt>
    <trkpt lat="50.9627433" lon="6.8789545">
      <time>2021-01-27T05:49:18Z</time>
    </trkpt>
    <trkpt lat="50.9628579" lon="6.8791199">
      <time>2021-01-27T05:49:23Z</time>
    </trkpt>
    <trkpt lat="50.9628531" lon="6.8792063">
      <time>2021-01-27T05:49:25Z</time>
    </trkpt>
    <trkpt lat="50.9628330" lon="6.8793769">
      <time>2021-01-27T05:49:28Z</time>
    </trkpt>
    <trkpt lat="50.9627867" lon="6.8796800">
      <time>2021-01-27T05:49:35Z</time>
    </trkpt>
    <trkpt lat="50.9627379" lon="6.8799761">
      <time>2021-01-27T05:49:41Z</time>
    </trkpt>
    <trkpt lat="50.9627302" lon="6.8800170">
      <time>2021-01-27T05:49:42Z</time>
    </trkpt>
    <trkpt lat="50.9626920" lon="6.8803078">
      <time>2021-01-27T05:49:49Z</time>
    </trkpt>
    <trkpt lat="50.9626869" lon="6.8803492">
      <time>2021-01-27T05:49:50Z</time>
    </trkpt>
    <trkpt lat="50.9626490" lon="6.8806291">
      <time>2021-01-27T05:49:57Z</time>
    </trkpt>
    <trkpt lat="50.9626377" lon="6.8807148">
      <time>2021-01-27T05:49:59Z</time>
    </trkpt>
    <trkpt lat="50.9626183" lon="6.8808403">
      <time>2021-01-27T05:50:02Z</time>
    </trkpt>
    <trkpt lat="50.9625904" lon="6.8810118">
      <time>2021-01-27T05:50:06Z</time>
    </trkpt>
    <trkpt lat="50.9625401" lon="6.8812907">
      <time>2021-01-27T05:50:13Z</time>
    </trkpt>
    <trkpt lat="50.9625343" lon="6.8813354">
      <time>2021-01-27T05:50:14Z</time>
    </trkpt>
    <trkpt lat="50.9624839" lon="6.8816280">
      <time>2021-01-27T05:50:21Z</time>
    </trkpt>
    <trkpt lat="50.9624777" lon="6.8816661">
      <time>2021-01-27T05:50:22Z</time>
    </trkpt>
    <trkpt lat="50.9624408" lon="6.8819676">
      <time>2021-01-27T05:50:30Z</time>
    </trkpt>
    <trkpt lat="50.9624316" lon="6.8820401">
      <time>2021-01-27T05:50:32Z</time>
    </trkpt>
    <trkpt lat="50.9624128" lon="6.8823134">
      <time>2021-01-27T05:50:40Z</time>
    </trkpt>
    <trkpt lat="50.9623791" lon="6.8824869">
      <time>2021-01-27T05:50:45Z</time>
    </trkpt>
    <trkpt lat="50.9623534" lon="6.8825985">
      <time>2021-01-27T05:50:48Z</time>
    </trkpt>
    <trkpt lat="50.9623084" lon="6.8828365">
      <time>2021-01-27T05:50:55Z</time>
    </trkpt>
    <trkpt lat="50.9622968" lon="6.8830606">
      <time>2021-01-27T05:51:01Z</time>
    </trkpt>
    <trkpt lat="50.9622616" lon="6.8833170">
      <time>2021-01-27T05:51:08Z</time>
    </trkpt>
    <trkpt lat="50.9622037" lon="6.8835877">
      <time>2021-01-27T05:51:15Z</time>
    </trkpt>
    <trkpt lat="50.9621893" lon="6.8836685">
      <time>2021-01-27T05:51:17Z</time>
    </trkpt>
    <trkpt lat="50.9621430" lon="6.8839523">
      <time>2021-01-27T05:51:25Z</time>
    </trkpt>
    <trkpt lat="50.9621325" lon="6.8841971">
      <time>2021-01-27T05:51:32Z</time>
    </trkpt>
    <trkpt lat="50.9621058" lon="6.8842551">
      <time>2021-01-27T05:51:34Z</time>
    </trkpt>
    <trkpt lat="50.9620494" lon="6.8842370">
      <time>2021-01-27T05:51:36Z</time>
    </trkpt>
    <trkpt lat="50.9620166" lon="6.8841845">
      <time>2021-01-27T05:51:38Z</time>
    </trkpt>
    <trkpt lat="50.9619859" lon="6.8840771">
      <time>2021-01-27T05:51:41Z</time>
    </trkpt>
    <trkpt lat="50.9619084" lon="6.8838135">
      <time>2021-01-27T05:51:48Z</time>
    </trkpt>
    <trkpt lat="50.9618964" lon="6.8837791">
      <time>2021-01-27T05:51:49Z</time>
    </trkpt>
    <trkpt lat="50.9618135" lon="6.8835150">
      <time>2021-01-27T05:51:56Z</time>
    </trkpt>
    <trkpt lat="50.9618063" lon="6.8834719">
      <time>2021-01-27T05:51:57Z</time>
    </trkpt>
    <trkpt lat="50.9617703" lon="6.8833620">
      <time>2021-01-27T05:52:00Z</time>
    </trkpt>
    <trkpt lat="50.9617514" lon="6.8832874">
      <time>2021-01-27T05:52:02Z</time>
    </trkpt>
    <trkpt lat="50.9617229" lon="6.8832229">
      <time>2021-01-27T05:52:04Z</time>
    </trkpt>
    <trkpt lat="50.9616306" lon="6.8829390">
      <time>2021-01-27T05:52:12Z</time>
    </trkpt>
    <trkpt lat="50.9616021" lon="6.8828466">
      <time>2021-01-27T05:52:15Z</time>
    </trkpt>
    <trkpt lat="50.9615270" lon="6.8825956">
      <time>2021-01-27T05:52:22Z</time>
    </trkpt>
    <trkpt lat="50.9614782" lon="6.8823952">
      <time>2021-01-27T05:52:28Z</time>
    </trkpt>
    <trkpt lat="50.9614379" lon="6.8822240">
      <time>2021-01-27T05:52:33Z</time>
    </trkpt>
    <trkpt lat="50.9614206" lon="6.8821556">
      <time>2021-01-27T05:52:35Z</time>
    </trkpt>
    <trkpt lat="50.9613924" lon="6.8820570">
      <time>2021-01-27T05:52:38Z</time>
    </trkpt>
    <trkpt lat="50.9613152" lon="6.8817950">
      <time>2021-01-27T05:52:45Z</time>
    </trkpt>
    <trkpt lat="50.9613006" lon="6.8817254">
      <time>2021-01-27T05:52:47Z</time>
    </trkpt>
    <trkpt lat="50.9612215" lon="6.8814459">
      <time>2021-01-27T05:52:54Z</time>
    </trkpt>
    <trkpt lat="50.9611973" lon="6.8813595">
      <time>2021-01-27T05:52:56Z</time>
    </trkpt>
    <trkpt lat="50.9611367" lon="6.8811390">
      <time>2021-01-27T05:53:02Z</time>
    </trkpt>
    <trkpt lat="50.9610791" lon="6.8809476">
      <time>2021-01-27T05:53:07Z</time>
    </trkpt>
    <trkpt lat="50.9610131" lon="6.8806713">
      <time>2021-01-27T05:53:14Z</time>
    </trkpt>
    <trkpt lat="50.9609960" lon="6.8805977">
      <time>2021-01-27T05:53:16Z</time>
    </trkpt>
    <trkpt lat="50.9609112" lon="6.8803016">
      <time>2021-01-27T05:53:23Z</time>
    </trkpt>
    <trkpt lat="50.9608775" lon="6.8801960">
      <time>2021-01-27T05:53:26Z</time>
    </trkpt>
    <trkpt lat="50.9607878" lon="6.8798999">
      <time>2021-01-27T05:53:33Z</time>
    </trkpt>
    <trkpt lat="50.9607691" lon="6.8798191">
      <time>2021-01-27T05:53:35Z</time>
    </trkpt>
    <trkpt lat="50.9607230" lon="6.8795250">
      <time>2021-01-27T05:53:42Z</time>
    </trkpt>
    <trkpt lat="50.9607176" lon="6.8794319">
      <time>2021-01-27T05:53:44Z</time>
    </trkpt>
    <trkpt lat="50.9607337" lon="6.8791256">
      <time>2021-01-27T05:53:51Z</time>
    </trkpt>
    <trkpt lat="50.9608003" lon="6.8788813">
      <time>2021-01-27T05:53:57Z</time>
    </trkpt>
    <trkpt lat="50.9609038" lon="6.8786652">
      <time>2021-01-27T05:54:04Z</time>
    </trkpt>
    <trkpt lat="50.9610787" lon="6.8784787">
      <time>2021-01-27T05:54:11Z</time>
    </trkpt>
    <trkpt lat="50.9611162" lon="6.8784566">
      <time>2021-01-27T05:54:12Z</time>
    </trkpt>
    <trkpt lat="50.9612438" lon="6.8783802">
      <time>2021-01-27T05:54:18Z</time>
    </trkpt>
    <trkpt lat="50.9614461" lon="6.8784442">
      <time>2021-01-27T05:54:26Z</time>
    </trkpt>
    <trkpt lat="50.9616146" lon="6.8785171">
      <time>2021-01-27T05:54:33Z</time>
    </trkpt>
    <trkpt lat="50.9617633" lon="6.8785901">
      <time>2021-01-27T05:54:41Z</time>
    </trkpt>
    <trkpt lat="50.9618125" lon="6.8786096">
      <time>2021-01-27T05:54:43Z</time>
    </trkpt>
    <trkpt lat="50.9618872" lon="6.8786424">
      <time>2021-01-27T05:54:47Z</time>
    </trkpt>
    <trkpt lat="50.9620668" lon="6.8787315">
      <time>2021-01-27T05:54:53Z</time>
    </trkpt>
    <trkpt lat="50.9621228" lon="6.8787602">
      <time>2021-01-27T05:54:56Z</time>
    </trkpt>
    <trkpt lat="50.9622568" lon="6.8788140">
      <time>2021-01-27T05:55:02Z</time>
    </trkpt>
    <trkpt lat="50.9624451" lon="6.8788758">
      <time>2021-01-27T05:55:10Z</time>
    </trkpt>
    <trkpt lat="50.9626223" lon="6.8789510">
      <time>2021-01-27T05:55:18Z</time>
    </trkpt>
    <trkpt lat="50.9627813" lon="6.8791142">
      <time>2021-01-27T05:55:24Z</time>
    </trkpt>
    <trkpt lat="50.9627936" lon="6.8791517">
      <time>2021-01-27T05:55:25Z</time>
    </trkpt>
    <trkpt lat="50.9627928" lon="6.8792012">
      <time>2021-01-27T05:55:26Z</time>
    </trkpt>
    <trkpt lat="50.9627894" lon="6.8793441">
      <time>2021-01-27T05:55:30Z</time>
    </trkpt>
    <trkpt lat="50.9627607" lon="6.8796594">
      <time>2021-01-27T05:55:38Z</time>
    </trkpt>
    <trkpt lat="50.9627482" lon="6.8797415">
      <time>2021-01-27T05:55:40Z</time>
    </trkpt>
    <trkpt lat="50.9627081" lon="6.8800316">
      <time>2021-01-27T05:55:47Z</time>
    </trkpt>
    <trkpt lat="50.9626923" lon="6.8801629">
      <time>2021-01-27T05:55:50Z</time>
    </trkpt>
    <trkpt lat="50.9626506" lon="6.8804491">
      <time>2021-01-27T05:55:57Z</time>
    </trkpt>
    <trkpt lat="50.9626379" lon="6.8805258">
      <time>2021-01-27T05:55:59Z</time>
    </trkpt>
    <trkpt lat="50.9626011" lon="6.8808170">
      <time>2021-01-27T05:56:06Z</time>
    </trkpt>
    <trkpt lat="50.9625977" lon="6.8808586">
      <time>2021-01-27T05:56:07Z</time>
    </trkpt>
    <trkpt lat="50.9625687" lon="6.8811620">
      <time>2021-01-27T05:56:14Z</time>
    </trkpt>
    <trkpt lat="50.9625661" lon="6.8812072">
      <time>2021-01-27T05:56:15Z</time>
    </trkpt>
    <trkpt lat="50.9625178" lon="6.8814893">
      <time>2021-01-27T05:56:22Z</time>
    </trkpt>
    <trkpt lat="50.9625113" lon="6.8815278">
      <time>2021-01-27T05:56:23Z</time>
    </trkpt>
    <trkpt lat="50.9624651" lon="6.8818145">
      <time>2021-01-27T05:56:30Z</time>
    </trkpt>
    <trkpt lat="50.9624549" lon="6.8818930">
      <time>2021-01-27T05:56:32Z</time>
    </trkpt>
    <trkpt lat="50.9624128" lon="6.8821712">
      <time>2021-01-27T05:56:39Z</time>
    </trkpt>
    <trkpt lat="50.9623905" lon="6.8823571">
      <time>2021-01-27T05:56:44Z</time>
    </trkpt>
    <trkpt lat="50.9623581" lon="6.8826557">
      <time>2021-01-27T05:56:52Z</time>
    </trkpt>
    <trkpt lat="50.9623241" lon="6.8828515">
      <time>2021-01-27T05:56:58Z</time>
    </trkpt>
    <trkpt lat="50.9622797" lon="6.8831615">
      <time>2021-01-27T05:57:06Z</time>
    </trkpt>
    <trkpt lat="50.9622633" lon="6.8832655">
      <time>2021-01-27T05:57:09Z</time>
    </trkpt>
    <trkpt lat="50.9622315" lon="6.8834081">
      <time>2021-01-27T05:57:13Z</time>
    </trkpt>
    <trkpt lat="50.9622113" lon="6.8835486">
      <time>2021-01-27T05:57:17Z</time>
    </trkpt>
    <trkpt lat="50.9621698" lon="6.8838539">
      <time>2021-01-27T05:57:25Z</time>
    </trkpt>
    <trkpt lat="50.9621481" lon="6.8840834">
      <time>2021-01-27T05:57:31Z</time>
    </trkpt>
    <trkpt lat="50.9620882" lon="6.8842413">
      <time>2021-01-27T05:57:36Z</time>
    </trkpt>
    <trkpt lat="50.9620363" lon="6.8842684">
      <time>2021-01-27T05:57:38Z</time>
    </trkpt>
    <trkpt lat="50.9619986" lon="6.8842202">
      <time>2021-01-27T05:57:40Z</time>
    </trkpt>
    <trkpt lat="50.9619701" lon="6.8841577">
      <time>2021-01-27T05:57:42Z</time>
    </trkpt>
    <trkpt lat="50.9618959" lon="6.8838914">
      <time>2021-01-27T05:57:50Z</time>
    </trkpt>
    <trkpt lat="50.9618857" lon="6.8838612">
      <time>2021-01-27T05:57:51Z</time>
    </trkpt>
    <trkpt lat="50.9618146" lon="6.8835993">
      <time>2021-01-27T05:57:58Z</time>
    </trkpt>
    <trkpt lat="50.9617852" lon="6.8834785">
      <time>2021-01-27T05:58:01Z</time>
    </trkpt>
    <trkpt lat="50.9616988" lon="6.8832068">
      <time>2021-01-27T05:58:08Z</time>
    </trkpt>
    <trkpt lat="50.9616746" lon="6.8831289">
      <time>2021-01-27T05:58:10Z</time>
    </trkpt>
    <trkpt lat="50.9615996" lon="6.8828502">
      <time>2021-01-27T05:58:17Z</time>
    </trkpt>
    <trkpt lat="50.9615636" lon="6.8827427">
      <time>2021-01-27T05:58:20Z</time>
    </trkpt>
    <trkpt lat="50.9615399" lon="6.8826627">
      <time>2021-01-27T05:58:22Z</time>
    </trkpt>
    <trkpt lat="50.9614623" lon="6.8823996">
      <time>2021-01-27T05:58:29Z</time>
    </trkpt>
    <trkpt lat="50.9614199" lon="6.8822340">
      <time>2021-01-27T05:58:33Z</time>
    </trkpt>
    <trkpt lat="50.9613689" lon="6.8820295">
      <time>2021-01-27T05:58:38Z</time>
    </trkpt>
    <trkpt lat="50.9613003" lon="6.8817361">
      <time>2021-01-27T05:58:46Z</time>
    </trkpt>
    <trkpt lat="50.9612851" lon="6.8816635">
      <time>2021-01-27T05:58:48Z</time>
    </trkpt>
    <trkpt lat="50.9612164" lon="6.8813833">
      <time>2021-01-27T05:58:56Z</time>
    </trkpt>
    <trkpt lat="50.9611431" lon="6.8810933">
      <time>2021-01-27T05:59:04Z</time>
    </trkpt>
    <trkpt lat="50.9611342" lon="6.8810605">
      <time>2021-01-27T05:59:05Z</time>
    </trkpt>
    <trkpt lat="50.9610530" lon="6.8807754">
      <time>2021-01-27T05:59:13Z</time>
    </trkpt>
    <trkpt lat="50.9610227" lon="6.8806637">
      <time>2021-01-27T05:59:16Z</time>
    </trkpt>
    <trkpt lat="50.9609448" lon="6.8803693">
      <time>2021-01-27T05:59:24Z</time>
    </trkpt>
    <trkpt lat="50.9609352" lon="6.8803306">
      <time>2021-01-27T05:59:25Z</time>
    </trkpt>
    <trkpt lat="50.9608635" lon="6.8800504">
      <time>2021-01-27T05:59:32Z</time>
    </trkpt>
    <trkpt lat="50.9608543" lon="6.8800164">
      <time>2021-01-27T05:59:33Z</time>
    </trkpt>
    <trkpt lat="50.9607855" lon="6.8797143">
      <time>2021-01-27T05:59:41Z</time>
    </trkpt>
    <trkpt lat="50.9607606" lon="6.8794778">
      <time>2021-01-27T05:59:47Z</time>
    </trkpt>
    <trkpt lat="50.9607704" lon="6.8792390">
      <time>2021-01-27T05:59:53Z</time>
    </trkpt>
    <trkpt lat="50.9608329" lon="6.8789730">
      <time>2021-01-27T06:00:00Z</time>
    </trkpt>
    <trkpt lat="50.9608453" lon="6.8789372">
      <time>2021-01-27T06:00:01Z</time>
    </trkpt>
    <trkpt lat="50.9609246" lon="6.8786593">
      <time>2021-01-27T06:00:09Z</time>
    </trkpt>
    <trkpt lat="50.9609460" lon="6.8786183">
      <time>2021-01-27T06:00:11Z</time>
    </trkpt>
    <trkpt lat="50.9609808" lon="6.8785859">
      <time>2021-01-27T06:00:13Z</time>
    </trkpt>
    <trkpt lat="50.9610594" lon="6.8784614">
      <time>2021-01-27T06:00:18Z</time>
    </trkpt>
    <trkpt lat="50.9610956" lon="6.8784289">
      <time>2021-01-27T06:00:20Z</time>
    </trkpt>
    <trkpt lat="50.9611741" lon="6.8784198">
      <time>2021-01-27T06:00:23Z</time>
    </trkpt>
    <trkpt lat="50.9613665" lon="6.8784516">
      <time>2021-01-27T06:00:29Z</time>
    </trkpt>
    <trkpt lat="50.9615688" lon="6.8785026">
      <time>2021-01-27T06:00:36Z</time>
    </trkpt>
    <trkpt lat="50.9616263" lon="6.8785288">
      <time>2021-01-27T06:00:38Z</time>
    </trkpt>
    <trkpt lat="50.9617774" lon="6.8785772">
      <time>2021-01-27T06:00:44Z</time>
    </trkpt>
    <trkpt lat="50.9619553" lon="6.8786521">
      <time>2021-01-27T06:00:51Z</time>
    </trkpt>
    <trkpt lat="50.9619774" lon="6.8786608">
      <time>2021-01-27T06:00:52Z</time>
    </trkpt>
    <trkpt lat="50.9621713" lon="6.8787081">
      <time>2021-01-27T06:00:59Z</time>
    </trkpt>
    <trkpt lat="50.9621930" lon="6.8787153">
      <time>2021-01-27T06:01:00Z</time>
    </trkpt>
    <trkpt lat="50.9623718" lon="6.8787963">
      <time>2021-01-27T06:01:07Z</time>
    </trkpt>
    <trkpt lat="50.9624245" lon="6.8788223">
      <time>2021-01-27T06:01:09Z</time>
    </trkpt>
    <trkpt lat="50.9626120" lon="6.8789031">
      <time>2021-01-27T06:01:16Z</time>
    </trkpt>
    <trkpt lat="50.9626385" lon="6.8789162">
      <time>2021-01-27T06:01:17Z</time>
    </trkpt>
    <trkpt lat="50.9628151" lon="6.8790323">
      <time>2021-01-27T06:01:24Z</time>
    </trkpt>
    <trkpt lat="50.9628356" lon="6.8790639">
      <time>2021-01-27T06:01:25Z</time>
    </trkpt>
    <trkpt lat="50.9628495" lon="6.8791029">
      <time>2021-01-27T06:01:26Z</time>
    </trkpt>
    <trkpt lat="50.9628480" lon="6.8792180">
      <time>2021-01-27T06:01:29Z</time>
    </trkpt>
    <trkpt lat="50.9628148" lon="6.8795233">
      <time>2021-01-27T06:01:36Z</time>
    </trkpt>
    <trkpt lat="50.9627608" lon="6.8798133">
      <time>2021-01-27T06:01:43Z</time>
    </trkpt>
    <trkpt lat="50.9627334" lon="6.8801213">
      <time>2021-01-27T06:01:50Z</time>
    </trkpt>
    <trkpt lat="50.9627122" lon="6.8802766">
      <time>2021-01-27T06:01:54Z</time>
    </trkpt>
    <trkpt lat="50.9626658" lon="6.8805910">
      <time>2021-01-27T06:02:02Z</time>
    </trkpt>
    <trkpt lat="50.9626185" lon="6.8808813">
      <time>2021-01-27T06:02:09Z</time>
    </trkpt>
    <trkpt lat="50.9625856" lon="6.8811714">
      <time>2021-01-27T06:02:16Z</time>
    </trkpt>
    <trkpt lat="50.9625730" lon="6.8812429">
      <time>2021-01-27T06:02:18Z</time>
    </trkpt>
    <trkpt lat="50.9625278" lon="6.8815385">
      <time>2021-01-27T06:02:26Z</time>
    </trkpt>
    <trkpt lat="50.9625225" lon="6.8815742">
      <time>2021-01-27T06:02:27Z</time>
    </trkpt>
    <trkpt lat="50.9624734" lon="6.8818504">
      <time>2021-01-27T06:02:35Z</time>
    </trkpt>
    <trkpt lat="50.9624573" lon="6.8819271">
      <time>2021-01-27T06:02:37Z</time>
    </trkpt>
    <trkpt lat="50.9624338" lon="6.8821463">
      <time>2021-01-27T06:02:44Z</time>
    </trkpt>
    <trkpt lat="50.9623917" lon="6.8824413">
      <time>2021-01-27T06:02:52Z</time>
    </trkpt>
    <trkpt lat="50.9623809" lon="6.8824717">
      <time>2021-01-27T06:02:53Z</time>
    </trkpt>
    <trkpt lat="50.9623206" lon="6.8827630">
      <time>2021-01-27T06:03:02Z</time>
    </trkpt>
    <trkpt lat="50.9623169" lon="6.8827964">
      <time>2021-01-27T06:03:03Z</time>
    </trkpt>
    <trkpt lat="50.9623009" lon="6.8829717">
      <time>2021-01-27T06:03:08Z</time>
    </trkpt>
    <trkpt lat="50.9622878" lon="6.8830560">
      <time>2021-01-27T06:03:10Z</time>
    </trkpt>
    <trkpt lat="50.9622538" lon="6.8833638">
      <time>2021-01-27T06:03:18Z</time>
    </trkpt>
    <trkpt lat="50.9622499" lon="6.8834082">
      <time>2021-01-27T06:03:19Z</time>
    </trkpt>
    <trkpt lat="50.9622110" lon="6.8836423">
      <time>2021-01-27T06:03:25Z</time>
    </trkpt>
    <trkpt lat="50.9621558" lon="6.8839247">
      <time>2021-01-27T06:03:32Z</time>
    </trkpt>
    <trkpt lat="50.9621240" lon="6.8841342">
      <time>2021-01-27T06:03:37Z</time>
    </trkpt>
    <trkpt lat="50.9620673" lon="6.8842587">
      <time>2021-01-27T06:03:41Z</time>
    </trkpt>
    <trkpt lat="50.9620451" lon="6.8842503">
      <time>2021-01-27T06:03:42Z</time>
    </trkpt>
    <trkpt lat="50.9620018" lon="6.8841823">
      <time>2021-01-27T06:03:45Z</time>
    </trkpt>
    <trkpt lat="50.9619753" lon="6.8840875">
      <time>2021-01-27T06:03:47Z</time>
    </trkpt>
    <trkpt lat="50.9618855" lon="6.8837995">
      <time>2021-01-27T06:03:54Z</time>
    </trkpt>
    <trkpt lat="50.9618402" lon="6.8836340">
      <time>2021-01-27T06:03:58Z</time>
    </trkpt>
    <trkpt lat="50.9617666" lon="6.8833664">
      <time>2021-01-27T06:04:05Z</time>
    </trkpt>
    <trkpt lat="50.9617539" lon="6.8833247">
      <time>2021-01-27T06:04:06Z</time>
    </trkpt>
    <trkpt lat="50.9616618" lon="6.8830405">
      <time>2021-01-27T06:04:13Z</time>
    </trkpt>
    <trkpt lat="50.9616223" lon="6.8829044">
      <time>2021-01-27T06:04:17Z</time>
    </trkpt>
    <trkpt lat="50.9615444" lon="6.8826737">
      <time>2021-01-27T06:04:23Z</time>
    </trkpt>
    <trkpt lat="50.9614786" lon="6.8824092">
      <time>2021-01-27T06:04:30Z</time>
    </trkpt>
    <trkpt lat="50.9614186" lon="6.8821455">
      <time>2021-01-27T06:04:37Z</time>
    </trkpt>
    <trkpt lat="50.9613430" lon="6.8818528">
      <time>2021-01-27T06:04:45Z</time>
    </trkpt>
    <trkpt lat="50.9613196" lon="6.8817609">
      <time>2021-01-27T06:04:47Z</time>
    </trkpt>
    <trkpt lat="50.9612419" lon="6.8814998">
      <time>2021-01-27T06:04:54Z</time>
    </trkpt>
    <trkpt lat="50.9612229" lon="6.8814350">
      <time>2021-01-27T06:04:56Z</time>
    </trkpt>
    <trkpt lat="50.9611402" lon="6.8811399">
      <time>2021-01-27T06:05:04Z</time>
    </trkpt>
    <trkpt lat="50.9611207" lon="6.8810572">
      <time>2021-01-27T06:05:06Z</time>
    </trkpt>
    <trkpt lat="50.9610461" lon="6.8807776">
      <time>2021-01-27T06:05:13Z</time>
    </trkpt>
    <trkpt lat="50.9610266" lon="6.8806919">
      <time>2021-01-27T06:05:15Z</time>
    </trkpt>
    <trkpt lat="50.9609475" lon="6.8803976">
      <time>2021-01-27T06:05:23Z</time>
    </trkpt>
    <trkpt lat="50.9609250" lon="6.8803100">
      <time>2021-01-27T06:05:25Z</time>
    </trkpt>
    <trkpt lat="50.9608522" lon="6.8800380">
      <time>2021-01-27T06:05:32Z</time>
    </trkpt>
    <trkpt lat="50.9608422" lon="6.8799916">
      <time>2021-01-27T06:05:33Z</time>
    </trkpt>
    <trkpt lat="50.9607729" lon="6.8796925">
      <time>2021-01-27T06:05:41Z</time>
    </trkpt>
    <trkpt lat="50.9607666" lon="6.8796517">
      <time>2021-01-27T06:05:42Z</time>
    </trkpt>
    <trkpt lat="50.9607359" lon="6.8793465">
      <time>2021-01-27T06:05:49Z</time>
    </trkpt>
    <trkpt lat="50.9607400" lon="6.8792540">
      <time>2021-01-27T06:05:51Z</time>
    </trkpt>
    <trkpt lat="50.9607859" lon="6.8790567">
      <time>2021-01-27T06:05:56Z</time>
    </trkpt>
    <trkpt lat="50.9608629" lon="6.8787928">
      <time>2021-01-27T06:06:03Z</time>
    </trkpt>
    <trkpt lat="50.9609463" lon="6.8786226">
      <time>2021-01-27T06:06:09Z</time>
    </trkpt>
    <trkpt lat="50.9610787" lon="6.8784628">
      <time>2021-01-27T06:06:16Z</time>
    </trkpt>
    <trkpt lat="50.9612550" lon="6.8783606">
      <time>2021-01-27T06:06:23Z</time>
    </trkpt>
    <trkpt lat="50.9612808" lon="6.8783736">
      <time>2021-01-27T06:06:24Z</time>
    </trkpt>
    <trkpt lat="50.9613788" lon="6.8784239">
      <time>2021-01-27T06:06:28Z</time>
    </trkpt>
    <trkpt lat="50.9615668" lon="6.8785041">
      <time>2021-01-27T06:06:35Z</time>
    </trkpt>
    <trkpt lat="50.9617520" lon="6.8785715">
      <time>2021-01-27T06:06:42Z</time>
    </trkpt>
    <trkpt lat="50.9617822" lon="6.8785827">
      <time>2021-01-27T06:06:43Z</time>
    </trkpt>
    <trkpt lat="50.9619362" lon="6.8786369">
      <time>2021-01-27T06:06:50Z</time>
    </trkpt>
    <trkpt lat="50.9621254" lon="6.8787113">
      <time>2021-01-27T06:06:58Z</time>
    </trkpt>
    <trkpt lat="50.9623009" lon="6.8788124">
      <time>2021-01-27T06:07:06Z</time>
    </trkpt>
    <trkpt lat="50.9624799" lon="6.8788807">
      <time>2021-01-27T06:07:13Z</time>
    </trkpt>
    <trkpt lat="50.9625551" lon="6.8789044">
      <time>2021-01-27T06:07:16Z</time>
    </trkpt>
    <trkpt lat="50.9627349" lon="6.8790011">
      <time>2021-01-27T06:07:23Z</time>
    </trkpt>
    <trkpt lat="50.9627815" lon="6.8790315">
      <time>2021-01-27T06:07:25Z</time>
    </trkpt>
    <trkpt lat="50.9628562" lon="6.8791744">
      <time>2021-01-27T06:07:30Z</time>
    </trkpt>
    <trkpt lat="50.9628534" lon="6.8792077">
      <time>2021-01-27T06:07:31Z</time>
    </trkpt>
    <trkpt lat="50.9628158" lon="6.8795130">
      <time>2021-01-27T06:07:38Z</time>
    </trkpt>
    <trkpt lat="50.9627984" lon="6.8795983">
      <time>2021-01-27T06:07:40Z</time>
    </trkpt>
    <trkpt lat="50.9627485" lon="6.8799020">
      <time>2021-01-27T06:07:48Z</time>
    </trkpt>
    <trkpt lat="50.9627314" lon="6.8800236">
      <time>2021-01-27T06:07:51Z</time>
    </trkpt>
    <trkpt lat="50.9626848" lon="6.8803311">
      <time>2021-01-27T06:07:59Z</time>
    </trkpt>
    <trkpt lat="50.9626621" lon="6.8805049">
      <time>2021-01-27T06:08:03Z</time>
    </trkpt>
    <trkpt lat="50.9626113" lon="6.8807809">
      <time>2021-01-27T06:08:10Z</time>
    </trkpt>
    <trkpt lat="50.9625784" lon="6.8810661">
      <time>2021-01-27T06:08:17Z</time>
    </trkpt>
    <trkpt lat="50.9625711" lon="6.8811070">
      <time>2021-01-27T06:08:18Z</time>
    </trkpt>
    <trkpt lat="50.9625314" lon="6.8813934">
      <time>2021-01-27T06:08:25Z</time>
    </trkpt>
    <trkpt lat="50.9625155" lon="6.8815263">
      <time>2021-01-27T06:08:28Z</time>
    </trkpt>
    <trkpt lat="50.9624645" lon="6.8818209">
      <time>2021-01-27T06:08:36Z</time>
    </trkpt>
    <trkpt lat="50.9624544" lon="6.8818662">
      <time>2021-01-27T06:08:37Z</time>
    </trkpt>
    <trkpt lat="50.9624051" lon="6.8821661">
      <time>2021-01-27T06:08:45Z</time>
    </trkpt>
    <trkpt lat="50.9623951" lon="6.8822868">
      <time>2021-01-27T06:08:48Z</time>
    </trkpt>
    <trkpt lat="50.9623537" lon="6.8825750">
      <time>2021-01-27T06:08:56Z</time>
    </trkpt>
    <trkpt lat="50.9623073" lon="6.8828484">
      <time>2021-01-27T06:09:04Z</time>
    </trkpt>
    <trkpt lat="50.9622655" lon="6.8831428">
      <time>2021-01-27T06:09:13Z</time>
    </trkpt>
    <trkpt lat="50.9622311" lon="6.8833866">
      <time>2021-01-27T06:09:20Z</time>
    </trkpt>
    <trkpt lat="50.9621821" lon="6.8836750">
      <time>2021-01-27T06:09:27Z</time>
    </trkpt>
    <trkpt lat="50.9621341" lon="6.8839619">
      <time>2021-01-27T06:09:34Z</time>
    </trkpt>
    <trkpt lat="50.9621330" lon="6.8840012">
      <time>2021-01-27T06:09:35Z</time>
    </trkpt>
    <trkpt lat="50.9620988" lon="6.8842406">
      <time>2021-01-27T06:09:42Z</time>
    </trkpt>
    <trkpt lat="50.9620633" lon="6.8842696">
      <time>2021-01-27T06:09:44Z</time>
    </trkpt>
    <trkpt lat="50.9620493" lon="6.8842575">
      <time>2021-01-27T06:09:45Z</time>
    </trkpt>
    <trkpt lat="50.9619677" lon="6.8840261">
      <time>2021-01-27T06:09:51Z</time>
    </trkpt>
    <trkpt lat="50.9618630" lon="6.8837531">
      <time>2021-01-27T06:09:59Z</time>
    </trkpt>
    <trkpt lat="50.9618509" lon="6.8837121">
      <time>2021-01-27T06:10:00Z</time>
    </trkpt>
    <trkpt lat="50.9618030" lon="6.8835234">
      <time>2021-01-27T06:10:05Z</time>
    </trkpt>
    <trkpt lat="50.9617510" lon="6.8833563">
      <time>2021-01-27T06:10:10Z</time>
    </trkpt>
    <trkpt lat="50.9616698" lon="6.8830844">
      <time>2021-01-27T06:10:17Z</time>
    </trkpt>
    <trkpt lat="50.9615865" lon="6.8828212">
      <time>2021-01-27T06:10:24Z</time>
    </trkpt>
    <trkpt lat="50.9615635" lon="6.8827369">
      <time>2021-01-27T06:10:26Z</time>
    </trkpt>
    <trkpt lat="50.9614930" lon="6.8824688">
      <time>2021-01-27T06:10:33Z</time>
    </trkpt>
    <trkpt lat="50.9614841" lon="6.8824245">
      <time>2021-01-27T06:10:34Z</time>
    </trkpt>
    <trkpt lat="50.9614127" lon="6.8821420">
      <time>2021-01-27T06:10:41Z</time>
    </trkpt>
    <trkpt lat="50.9614003" lon="6.8821020">
      <time>2021-01-27T06:10:42Z</time>
    </trkpt>
    <trkpt lat="50.9613277" lon="6.8818122">
      <time>2021-01-27T06:10:49Z</time>
    </trkpt>
    <trkpt lat="50.9612545" lon="6.8815407">
      <time>2021-01-27T06:10:56Z</time>
    </trkpt>
    <trkpt lat="50.9612302" lon="6.8814608">
      <time>2021-01-27T06:10:58Z</time>
    </trkpt>
    <trkpt lat="50.9611585" lon="6.8811798">
      <time>2021-01-27T06:11:05Z</time>
    </trkpt>
    <trkpt lat="50.9611380" lon="6.8811015">
      <time>2021-01-27T06:11:07Z</time>
    </trkpt>
    <trkpt lat="50.9610666" lon="6.8808264">
      <time>2021-01-27T06:11:14Z</time>
    </trkpt>
    <trkpt lat="50.9610385" lon="6.8807115">
      <time>2021-01-27T06:11:17Z</time>
    </trkpt>
    <trkpt lat="50.9609667" lon="6.8804380">
      <time>2021-01-27T06:11:24Z</time>
    </trkpt>
    <trkpt lat="50.9609487" lon="6.8803660">
      <time>2021-01-27T06:11:26Z</time>
    </trkpt>
    <trkpt lat="50.9608674" lon="6.8800711">
      <time>2021-01-27T06:11:34Z</time>
    </trkpt>
    <trkpt lat="50.9608566" lon="6.8800376">
      <time>2021-01-27T06:11:35Z</time>
    </trkpt>
    <trkpt lat="50.9607847" lon="6.8797418">
      <time>2021-01-27T06:11:43Z</time>
    </trkpt>
    <trkpt lat="50.9607745" lon="6.8796619">
      <time>2021-01-27T06:11:45Z</time>
    </trkpt>
    <trkpt lat="50.9607541" lon="6.8793759">
      <time>2021-01-27T06:11:52Z</time>
    </trkpt>
    <trkpt lat="50.9607610" lon="6.8793070">
      <time>2021-01-27T06:11:54Z</time>
    </trkpt>
    <trkpt lat="50.9608057" lon="6.8790151">
      <time>2021-01-27T06:12:02Z</time>
    </trkpt>
    <trkpt lat="50.9608857" lon="6.8787717">
      <time>2021-01-27T06:12:09Z</time>
    </trkpt>
    <trkpt lat="50.9609578" lon="6.8786475">
      <time>2021-01-27T06:12:14Z</time>
    </trkpt>
    <trkpt lat="50.9609722" lon="6.8786264">
      <time>2021-01-27T06:12:15Z</time>
    </trkpt>
    <trkpt lat="50.9610777" lon="6.8784618">
      <time>2021-01-27T06:12:22Z</time>
    </trkpt>
    <trkpt lat="50.9611964" lon="6.8783952">
      <time>2021-01-27T06:12:28Z</time>
    </trkpt>
    <trkpt lat="50.9613672" lon="6.8784400">
      <time>2021-01-27T06:12:34Z</time>
    </trkpt>
    <trkpt lat="50.9615511" lon="6.8785274">
      <time>2021-01-27T06:12:41Z</time>
    </trkpt>
    <trkpt lat="50.9615751" lon="6.8785377">
      <time>2021-01-27T06:12:42Z</time>
    </trkpt>
    <trkpt lat="50.9617342" lon="6.8785920">
      <time>2021-01-27T06:12:48Z</time>
    </trkpt>
    <trkpt lat="50.9618990" lon="6.8786652">
      <time>2021-01-27T06:12:54Z</time>
    </trkpt>
    <trkpt lat="50.9620304" lon="6.8787151">
      <time>2021-01-27T06:12:59Z</time>
    </trkpt>
    <trkpt lat="50.9622086" lon="6.8787784">
      <time>2021-01-27T06:13:06Z</time>
    </trkpt>
    <trkpt lat="50.9622632" lon="6.8787971">
      <time>2021-01-27T06:13:08Z</time>
    </trkpt>
    <trkpt lat="50.9624431" lon="6.8788631">
      <time>2021-01-27T06:13:15Z</time>
    </trkpt>
    <trkpt lat="50.9624935" lon="6.8788895">
      <time>2021-01-27T06:13:17Z</time>
    </trkpt>
    <trkpt lat="50.9626735" lon="6.8789797">
      <time>2021-01-27T06:13:25Z</time>
    </trkpt>
    <trkpt lat="50.9627772" lon="6.8790490">
      <time>2021-01-27T06:13:29Z</time>
    </trkpt>
    <trkpt lat="50.9628281" lon="6.8791612">
      <time>2021-01-27T06:13:32Z</time>
    </trkpt>
    <trkpt lat="50.9628215" lon="6.8794048">
      <time>2021-01-27T06:13:38Z</time>
    </trkpt>
    <trkpt lat="50.9627816" lon="6.8796948">
      <time>2021-01-27T06:13:45Z</time>
    </trkpt>
    <trkpt lat="50.9627721" lon="6.8797398">
      <time>2021-01-27T06:13:46Z</time>
    </trkpt>
    <trkpt lat="50.9627366" lon="6.8800127">
      <time>2021-01-27T06:13:53Z</time>
    </trkpt>
    <trkpt lat="50.9626894" lon="6.8803306">
      <time>2021-01-27T06:14:01Z</time>
    </trkpt>
    <trkpt lat="50.9626700" lon="6.8804443">
      <time>2021-01-27T06:14:04Z</time>
    </trkpt>
    <trkpt lat="50.9626313" lon="6.8807237">
      <time>2021-01-27T06:14:11Z</time>
    </trkpt>
    <trkpt lat="50.9626216" lon="6.8807913">
      <time>2021-01-27T06:14:13Z</time>
    </trkpt>
    <trkpt lat="50.9625778" lon="6.8810696">
      <time>2021-01-27T06:14:20Z</time>
    </trkpt>
    <trkpt lat="50.9625674" lon="6.8811420">
      <time>2021-01-27T06:14:22Z</time>
    </trkpt>
    <trkpt lat="50.9625300" lon="6.8813774">
      <time>2021-01-27T06:14:28Z</time>
    </trkpt>
    <trkpt lat="50.9624941" lon="6.8816636">
      <time>2021-01-27T06:14:36Z</time>
    </trkpt>
    <trkpt lat="50.9624514" lon="6.8819649">
      <time>2021-01-27T06:14:44Z</time>
    </trkpt>
    <trkpt lat="50.9624441" lon="6.8819997">
      <time>2021-01-27T06:14:45Z</time>
    </trkpt>
    <trkpt lat="50.9623978" lon="6.8822882">
      <time>2021-01-27T06:14:52Z</time>
    </trkpt>
    <trkpt lat="50.9623961" lon="6.8823264">
      <time>2021-01-27T06:14:53Z</time>
    </trkpt>
    <trkpt lat="50.9623479" lon="6.8826337">
      <time>2021-01-27T06:15:01Z</time>
    </trkpt>
    <trkpt lat="50.9623394" lon="6.8826660">
      <time>2021-01-27T06:15:02Z</time>
    </trkpt>
    <trkpt lat="50.9622771" lon="6.8829378">
      <time>2021-01-27T06:15:09Z</time>
    </trkpt>
    <trkpt lat="50.9622669" lon="6.8830280">
      <time>2021-01-27T06:15:11Z</time>
    </trkpt>
    <trkpt lat="50.9622474" lon="6.8833028">
      <time>2021-01-27T06:15:18Z</time>
    </trkpt>
    <trkpt lat="50.9621980" lon="6.8835539">
      <time>2021-01-27T06:15:24Z</time>
    </trkpt>
    <trkpt lat="50.9621666" lon="6.8837704">
      <time>2021-01-27T06:15:30Z</time>
    </trkpt>
    <trkpt lat="50.9621562" lon="6.8838381">
      <time>2021-01-27T06:15:32Z</time>
    </trkpt>
    <trkpt lat="50.9621199" lon="6.8840660">
      <time>2021-01-27T06:15:38Z</time>
    </trkpt>
    <trkpt lat="50.9620905" lon="6.8842110">
      <time>2021-01-27T06:15:42Z</time>
    </trkpt>
    <trkpt lat="50.9620720" lon="6.8842195">
      <time>2021-01-27T06:15:43Z</time>
    </trkpt>
    <trkpt lat="50.9620271" lon="6.8841965">
      <time>2021-01-27T06:15:45Z</time>
    </trkpt>
    <trkpt lat="50.9619899" lon="6.8841273">
      <time>2021-01-27T06:15:47Z</time>
    </trkpt>
    <trkpt lat="50.9618987" lon="6.8838510">
      <time>2021-01-27T06:15:54Z</time>
    </trkpt>
    <trkpt lat="50.9618808" lon="6.8838006">
      <time>2021-01-27T06:15:55Z</time>
    </trkpt>
    <trkpt lat="50.9618673" lon="6.8837583">
      <time>2021-01-27T06:15:56Z</time>
    </trkpt>
    <trkpt lat="50.9617727" lon="6.8834720">
      <time>2021-01-27T06:16:05Z</time>
    </trkpt>
    <trkpt lat="50.9616865" lon="6.8832043">
      <time>2021-01-27T06:16:13Z</time>
    </trkpt>
    <trkpt lat="50.9616747" lon="6.8831581">
      <time>2021-01-27T06:16:14Z</time>
    </trkpt>
    <trkpt lat="50.9615991" lon="6.8828736">
      <time>2021-01-27T06:16:22Z</time>
    </trkpt>
    <trkpt lat="50.9615410" lon="6.8826470">
      <time>2021-01-27T06:16:28Z</time>
    </trkpt>
    <trkpt lat="50.9614611" lon="6.8823512">
      <time>2021-01-27T06:16:36Z</time>
    </trkpt>
    <trkpt lat="50.9614471" lon="6.8822709">
      <time>2021-01-27T06:16:38Z</time>
    </trkpt>
    <trkpt lat="50.9614141" lon="6.8821269">
      <time>2021-01-27T06:16:42Z</time>
    </trkpt>
    <trkpt lat="50.9613934" lon="6.8820187">
      <time>2021-01-27T06:16:45Z</time>
    </trkpt>
    <trkpt lat="50.9613243" lon="6.8817637">
      <time>2021-01-27T06:16:52Z</time>
    </trkpt>
    <trkpt lat="50.9612523" lon="6.8814841">
      <time>2021-01-27T06:17:00Z</time>
    </trkpt>
    <trkpt lat="50.9612176" lon="6.8813498">
      <time>2021-01-27T06:17:04Z</time>
    </trkpt>
    <trkpt lat="50.9611431" lon="6.8810786">
      <time>2021-01-27T06:17:12Z</time>
    </trkpt>
    <trkpt lat="50.9610925" lon="6.8809021">
      <time>2021-01-27T06:17:17Z</time>
    </trkpt>
    <trkpt lat="50.9610250" lon="6.8806289">
      <time>2021-01-27T06:17:24Z</time>
    </trkpt>
    <trkpt lat="50.9609963" lon="6.8805358">
      <time>2021-01-27T06:17:27Z</time>
    </trkpt>
    <trkpt lat="50.9609260" lon="6.8802606">
      <time>2021-01-27T06:17:34Z</time>
    </trkpt>
    <trkpt lat="50.9608858" lon="6.8801145">
      <time>2021-01-27T06:17:38Z</time>
    </trkpt>
    <trkpt lat="50.9608110" lon="6.8798494">
      <time>2021-01-27T06:17:46Z</time>
    </trkpt>
    <trkpt lat="50.9607793" lon="6.8797042">
      <time>2021-01-27T06:17:50Z</time>
    </trkpt>
    <trkpt lat="50.9607460" lon="6.8794245">
      <time>2021-01-27T06:17:57Z</time>
    </trkpt>
    <trkpt lat="50.9607472" lon="6.8793619">
      <time>2021-01-27T06:17:59Z</time>
    </trkpt>
    <trkpt lat="50.9607947" lon="6.8790675">
      <time>2021-01-27T06:18:07Z</time>
    </trkpt>
    <trkpt lat="50.9608506" lon="6.8788631">
      <time>2021-01-27T06:18:13Z</time>
    </trkpt>
    <trkpt lat="50.9609240" lon="6.8786334">
      <time>2021-01-27T06:18:20Z</time>
    </trkpt>
    <trkpt lat="50.9609393" lon="6.8786162">
      <time>2021-01-27T06:18:21Z</time>
    </trkpt>
    <trkpt lat="50.9610557" lon="6.8784756">
      <time>2021-01-27T06:18:28Z</time>
    </trkpt>
    <trkpt lat="50.9612059" lon="6.8783860">
      <time>2021-01-27T06:18:35Z</time>
    </trkpt>
    <trkpt lat="50.9614063" lon="6.8784550">
      <time>2021-01-27T06:18:42Z</time>
    </trkpt>
    <trkpt lat="50.9615864" lon="6.8785147">
      <time>2021-01-27T06:18:49Z</time>
    </trkpt>
    <trkpt lat="50.9617683" lon="6.8785986">
      <time>2021-01-27T06:18:56Z</time>
    </trkpt>
    <trkpt lat="50.9619374" lon="6.8786463">
      <time>2021-01-27T06:19:03Z</time>
    </trkpt>
    <trkpt lat="50.9621170" lon="6.8787329">
      <time>2021-01-27T06:19:10Z</time>
    </trkpt>
    <trkpt lat="50.9621657" lon="6.8787522">
      <time>2021-01-27T06:19:12Z</time>
    </trkpt>
    <trkpt lat="50.9623465" lon="6.8788405">
      <time>2021-01-27T06:19:19Z</time>
    </trkpt>
    <trkpt lat="50.9625090" lon="6.8789144">
      <time>2021-01-27T06:19:25Z</time>
    </trkpt>
    <trkpt lat="50.9626971" lon="6.8790137">
      <time>2021-01-27T06:19:32Z</time>
    </trkpt>
    <trkpt lat="50.9628295" lon="6.8791185">
      <time>2021-01-27T06:19:38Z</time>
    </trkpt>
    <trkpt lat="50.9628851" lon="6.8792373">
      <time>2021-01-27T06:19:42Z</time>
    </trkpt>
    <trkpt lat="50.9628842" lon="6.8792744">
      <time>2021-01-27T06:19:43Z</time>
    </trkpt>
    <trkpt lat="50.9628369" lon="6.8795527">
      <time>2021-01-27T06:19:50Z</time>
    </trkpt>
    <trkpt lat="50.9628154" lon="6.8796793">
      <time>2021-01-27T06:19:53Z</time>
    </trkpt>
    <trkpt lat="50.9627500" lon="6.8799822">
      <time>2021-01-27T06:20:01Z</time>
    </trkpt>
    <trkpt lat="50.9627399" lon="6.8800209">
      <time>2021-01-27T06:20:02Z</time>
    </trkpt>
    <trkpt lat="50.9626905" lon="6.8803275">
      <time>2021-01-27T06:20:10Z</time>
    </trkpt>
    <trkpt lat="50.9626604" lon="6.8804989">
      <time>2021-01-27T06:20:14Z</time>
    </trkpt>
    <trkpt lat="50.9626191" lon="6.8807788">
      <time>2021-01-27T06:20:21Z</time>
    </trkpt>
    <trkpt lat="50.9626008" lon="6.8809046">
      <time>2021-01-27T06:20:24Z</time>
    </trkpt>
    <trkpt lat="50.9625546" lon="6.8811972">
      <time>2021-01-27T06:20:32Z</time>
    </trkpt>
    <trkpt lat="50.9625443" lon="6.8812403">
      <time>2021-01-27T06:20:33Z</time>
    </trkpt>
    <trkpt lat="50.9625054" lon="6.8815408">
      <time>2021-01-27T06:20:41Z</time>
    </trkpt>
    <trkpt lat="50.9624710" lon="6.8817312">
      <time>2021-01-27T06:20:46Z</time>
    </trkpt>
    <trkpt lat="50.9624457" lon="6.8818751">
      <time>2021-01-27T06:20:50Z</time>
    </trkpt>
    <trkpt lat="50.9624148" lon="6.8821097">
      <time>2021-01-27T06:20:56Z</time>
    </trkpt>
    <trkpt lat="50.9623696" lon="6.8823670">
      <time>2021-01-27T06:21:03Z</time>
    </trkpt>
    <trkpt lat="50.9623219" lon="6.8826737">
      <time>2021-01-27T06:21:11Z</time>
    </trkpt>
    <trkpt lat="50.9623170" lon="6.8827342">
      <time>2021-01-27T06:21:13Z</time>
    </trkpt>
    <trkpt lat="50.9622458" lon="6.8830233">
      <time>2021-01-27T06:21:21Z</time>
    </trkpt>
    <trkpt lat="50.9621999" lon="6.8833054">
      <time>2021-01-27T06:21:29Z</time>
    </trkpt>
    <trkpt lat="50.9621693" lon="6.8835817">
      <time>2021-01-27T06:21:37Z</time>
    </trkpt>
    <trkpt lat="50.9621248" lon="6.8838243">
      <time>2021-01-27T06:21:45Z</time>
    </trkpt>
    <trkpt lat="50.9621250" lon="6.8839791">
      <time>2021-01-27T06:21:50Z</time>
    </trkpt>
    <trkpt lat="50.9620379" lon="6.8842325">
      <time>2021-01-27T06:21:56Z</time>
    </trkpt>
    <trkpt lat="50.9620015" lon="6.8842054">
      <time>2021-01-27T06:21:58Z</time>
    </trkpt>
    <trkpt lat="50.9619885" lon="6.8841846">
      <time>2021-01-27T06:21:59Z</time>
    </trkpt>
    <trkpt lat="50.9619175" lon="6.8839202">
      <time>2021-01-27T06:22:06Z</time>
    </trkpt>
    <trkpt lat="50.9618995" lon="6.8838815">
      <time>2021-01-27T06:22:07Z</time>
    </trkpt>
    <trkpt lat="50.9618306" lon="6.8836536">
      <time>2021-01-27T06:22:13Z</time>
    </trkpt>
    <trkpt lat="50.9617512" lon="6.8833559">
      <time>2021-01-27T06:22:21Z</time>
    </trkpt>
    <trkpt lat="50.9616844" lon="6.8831363">
      <time>2021-01-27T06:22:27Z</time>
    </trkpt>
    <trkpt lat="50.9616014" lon="6.8828504">
      <time>2021-01-27T06:22:35Z</time>
    </trkpt>
    <trkpt lat="50.9615903" lon="6.8828281">
      <time>2021-01-27T06:22:36Z</time>
    </trkpt>
    <trkpt lat="50.9615046" lon="6.8825506">
      <time>2021-01-27T06:22:44Z</time>
    </trkpt>
    <trkpt lat="50.9614350" lon="6.8822608">
      <time>2021-01-27T06:22:52Z</time>
    </trkpt>
    <trkpt lat="50.9613619" lon="6.8819764">
      <time>2021-01-27T06:23:00Z</time>
    </trkpt>
    <trkpt lat="50.9613379" lon="6.8819070">
      <time>2021-01-27T06:23:02Z</time>
    </trkpt>
    <trkpt lat="50.9612783" lon="6.8816966">
      <time>2021-01-27T06:23:08Z</time>
    </trkpt>
    <trkpt lat="50.9612091" lon="6.8814000">
      <time>2021-01-27T06:23:16Z</time>
    </trkpt>
    <trkpt lat="50.9611879" lon="6.8812989">
      <time>2021-01-27T06:23:19Z</time>
    </trkpt>
    <trkpt lat="50.9611252" lon="6.8810281">
      <time>2021-01-27T06:23:26Z</time>
    </trkpt>
    <trkpt lat="50.9610913" lon="6.8809222">
      <time>2021-01-27T06:23:29Z</time>
    </trkpt>
    <trkpt lat="50.9610105" lon="6.8806228">
      <time>2021-01-27T06:23:37Z</time>
    </trkpt>
    <trkpt lat="50.9609300" lon="6.8803296">
      <time>2021-01-27T06:23:45Z</time>
    </trkpt>
    <trkpt lat="50.9609124" lon="6.8802595">
      <time>2021-01-27T06:23:47Z</time>
    </trkpt>
    <trkpt lat="50.9608422" lon="6.8799891">
      <time>2021-01-27T06:23:55Z</time>
    </trkpt>
    <trkpt lat="50.9608252" lon="6.8799112">
      <time>2021-01-27T06:23:57Z</time>
    </trkpt>
    <trkpt lat="50.9607766" lon="6.8796769">
      <time>2021-01-27T06:24:04Z</time>
    </trkpt>
    <trkpt lat="50.9607635" lon="6.8795578">
      <time>2021-01-27T06:24:07Z</time>
    </trkpt>
    <trkpt lat="50.9607504" lon="6.8792490">
      <time>2021-01-27T06:24:15Z</time>
    </trkpt>
    <trkpt lat="50.9608195" lon="6.8789849">
      <time>2021-01-27T06:24:22Z</time>
    </trkpt>
    <trkpt lat="50.9609270" lon="6.8787429">
      <time>2021-01-27T06:24:30Z</time>
    </trkpt>
    <trkpt lat="50.9609483" lon="6.8787133">
      <time>2021-01-27T06:24:31Z</time>
    </trkpt>
    <trkpt lat="50.9610807" lon="6.8785350">
      <time>2021-01-27T06:24:38Z</time>
    </trkpt>
    <trkpt lat="50.9612637" lon="6.8784405">
      <time>2021-01-27T06:24:47Z</time>
    </trkpt>
    <trkpt lat="50.9614460" lon="6.8784891">
      <time>2021-01-27T06:24:54Z</time>
    </trkpt>
    <trkpt lat="50.9616249" lon="6.8785680">
      <time>2021-01-27T06:25:02Z</time>
    </trkpt>
    <trkpt lat="50.9617714" lon="6.8785592">
      <time>2021-01-27T06:25:07Z</time>
    </trkpt>
    <trkpt lat="50.9619015" lon="6.8785965">
      <time>2021-01-27T06:25:12Z</time>
    </trkpt>
    <trkpt lat="50.9620066" lon="6.8785984">
      <time>2021-01-27T06:25:17Z</time>
    </trkpt>
    <trkpt lat="50.9620286" lon="6.8785530">
      <time>2021-01-27T06:25:19Z</time>
    </trkpt>
    <trkpt lat="50.9620281" lon="6.8784794">
      <time>2021-01-27T06:25:21Z</time>
    </trkpt>
    <trkpt lat="50.9620438" lon="6.8781987">
      <time>2021-01-27T06:25:28Z</time>
    </trkpt>
    <trkpt lat="50.9620010" lon="6.8780319">
      <time>2021-01-27T06:25:34Z</time>
    </trkpt>
    <trkpt lat="50.9618627" lon="6.8779511">
      <time>2021-01-27T06:25:40Z</time>
    </trkpt>
    <trkpt lat="50.9616787" lon="6.8778968">
      <time>2021-01-27T06:25:47Z</time>
    </trkpt>
    <trkpt lat="50.9615118" lon="6.8778508">
      <time>2021-01-27T06:25:53Z</time>
    </trkpt>
    <trkpt lat="50.9613505" lon="6.8777897">
      <time>2021-01-27T06:26:00Z</time>
    </trkpt>
    <trkpt lat="50.9613087" lon="6.8777767">
      <time>2021-01-27T06:26:02Z</time>
    </trkpt>
    <trkpt lat="50.9612137" lon="6.8777429">
      <time>2021-01-27T06:26:05Z</time>
    </trkpt>
    <trkpt lat="50.9610615" lon="6.8776825">
      <time>2021-01-27T06:26:11Z</time>
    </trkpt>
    <trkpt lat="50.9610511" lon="6.8775651">
      <time>2021-01-27T06:26:14Z</time>
    </trkpt>
    <trkpt lat="50.9610637" lon="6.8775256">
      <time>2021-01-27T06:26:15Z</time>
    </trkpt>
    <trkpt lat="50.9610955" lon="6.8774674">
      <time>2021-01-27T06:26:17Z</time>
    </trkpt>
    <trkpt lat="50.9611722" lon="6.8774012">
      <time>2021-01-27T06:26:21Z</time>
    </trkpt>
    <trkpt lat="50.9613549" lon="6.8772768">
      <time>2021-01-27T06:26:29Z</time>
    </trkpt>
    <trkpt lat="50.9614766" lon="6.8771914">
      <time>2021-01-27T06:26:35Z</time>
    </trkpt>
    <trkpt lat="50.9616559" lon="6.8770718">
      <time>2021-01-27T06:26:42Z</time>
    </trkpt>
    <trkpt lat="50.9617795" lon="6.8769919">
      <time>2021-01-27T06:26:48Z</time>
    </trkpt>
    <trkpt lat="50.9619158" lon="6.8769820">
      <time>2021-01-27T06:26:55Z</time>
    </trkpt>
    <trkpt lat="50.9619662" lon="6.8770788">
      <time>2021-01-27T06:26:58Z</time>
    </trkpt>
    <trkpt lat="50.9619875" lon="6.8771304">
      <time>2021-01-27T06:27:00Z</time>
    </trkpt>
    <trkpt lat="50.9620543" lon="6.8773639">
      <time>2021-01-27T06:27:06Z</time>
    </trkpt>
    <trkpt lat="50.9620585" lon="6.8776544">
      <time>2021-01-27T06:27:13Z</time>
    </trkpt>
    <trkpt lat="50.9620675" lon="6.8776904">
      <time>2021-01-27T06:27:14Z</time>
    </trkpt>
    <trkpt lat="50.9620865" lon="6.8779007">
      <time>2021-01-27T06:27:19Z</time>
    </trkpt>
    <trkpt lat="50.9620382" lon="6.8779851">
      <time>2021-01-27T06:27:21Z</time>
    </trkpt>
    <trkpt lat="50.9619768" lon="6.8780254">
      <time>2021-01-27T06:27:23Z</time>
    </trkpt>
    <trkpt lat="50.9618539" lon="6.8779614">
      <time>2021-01-27T06:27:28Z</time>
    </trkpt>
    <trkpt lat="50.9617560" lon="6.8779288">
      <time>2021-01-27T06:27:33Z</time>
    </trkpt>
    <trkpt lat="50.9615705" lon="6.8778411">
      <time>2021-01-27T06:27:40Z</time>
    </trkpt>
    <trkpt lat="50.9615365" lon="6.8778209">
      <time>2021-01-27T06:27:42Z</time>
    </trkpt>
    <trkpt lat="50.9614161" lon="6.8777724">
      <time>2021-01-27T06:27:48Z</time>
    </trkpt>
    <trkpt lat="50.9612496" lon="6.8777239">
      <time>2021-01-27T06:27:55Z</time>
    </trkpt>
    <trkpt lat="50.9611049" lon="6.8777064">
      <time>2021-01-27T06:28:01Z</time>
    </trkpt>
    <trkpt lat="50.9610945" lon="6.8776819">
      <time>2021-01-27T06:28:02Z</time>
    </trkpt>
    <trkpt lat="50.9610909" lon="6.8776511">
      <time>2021-01-27T06:28:03Z</time>
    </trkpt>
    <trkpt lat="50.9611068" lon="6.8775834">
      <time>2021-01-27T06:28:05Z</time>
    </trkpt>
    <trkpt lat="50.9611462" lon="6.8775059">
      <time>2021-01-27T06:28:08Z</time>
    </trkpt>
    <trkpt lat="50.9612113" lon="6.8774585">
      <time>2021-01-27T06:28:11Z</time>
    </trkpt>
    <trkpt lat="50.9613745" lon="6.8773154">
      <time>2021-01-27T06:28:19Z</time>
    </trkpt>
    <trkpt lat="50.9613996" lon="6.8773007">
      <time>2021-01-27T06:28:20Z</time>
    </trkpt>
    <trkpt lat="50.9615859" lon="6.8771589">
      <time>2021-01-27T06:28:27Z</time>
    </trkpt>
    <trkpt lat="50.9617539" lon="6.8770580">
      <time>2021-01-27T06:28:34Z</time>
    </trkpt>
    <trkpt lat="50.9618963" lon="6.8769501">
      <time>2021-01-27T06:28:41Z</time>
    </trkpt>
    <trkpt lat="50.9619887" lon="6.8767895">
      <time>2021-01-27T06:28:46Z</time>
    </trkpt>
    <trkpt lat="50.9619838" lon="6.8765565">
      <time>2021-01-27T06:28:52Z</time>
    </trkpt>
    <trkpt lat="50.9619912" lon="6.8765209">
      <time>2021-01-27T06:28:53Z</time>
    </trkpt>
    <trkpt lat="50.9620179" lon="6.8764292">
      <time>2021-01-27T06:28:56Z</time>
    </trkpt>
    <trkpt lat="50.9620334" lon="6.8764063">
      <time>2021-01-27T06:28:57Z</time>
    </trkpt>
    <trkpt lat="50.9621700" lon="6.8763856">
      <time>2021-01-27T06:29:03Z</time>
    </trkpt>
    <trkpt lat="50.9622571" lon="6.8764160">
      <time>2021-01-27T06:29:07Z</time>
    </trkpt>
    <trkpt lat="50.9622854" lon="6.8764643">
      <time>2021-01-27T06:29:09Z</time>
    </trkpt>
    <trkpt lat="50.9624485" lon="6.8765559">
      <time>2021-01-27T06:29:16Z</time>
    </trkpt>
    <trkpt lat="50.9626391" lon="6.8765454">
      <time>2021-01-27T06:29:23Z</time>
    </trkpt>
    <trkpt lat="50.9626734" lon="6.8765264">
      <time>2021-01-27T06:29:24Z</time>
    </trkpt>
    <trkpt lat="50.9628055" lon="6.8763033">
      <time>2021-01-27T06:29:30Z</time>
    </trkpt>
    <trkpt lat="50.9629124" lon="6.8762700">
      <time>2021-01-27T06:29:34Z</time>
    </trkpt>
    <trkpt lat="50.9631033" lon="6.8762791">
      <time>2021-01-27T06:29:41Z</time>
    </trkpt>
    <trkpt lat="50.9631426" lon="6.8762201">
      <time>2021-01-27T06:29:44Z</time>
    </trkpt>
    <trkpt lat="50.9631483" lon="6.8761887">
      <time>2021-01-27T06:29:45Z</time>
    </trkpt>
    <trkpt lat="50.9632244" lon="6.8760753">
      <time>2021-01-27T06:29:49Z</time>
    </trkpt>
    <trkpt lat="50.9632390" lon="6.8760553">
      <time>2021-01-27T06:29:50Z</time>
    </trkpt>
    <trkpt lat="50.9633747" lon="6.8759281">
      <time>2021-01-27T06:29:58Z</time>
    </trkpt>
    <trkpt lat="50.9634618" lon="6.8759365">
      <time>2021-01-27T06:30:04Z</time>
    </trkpt>
  </trkseg></trk>
</gpx>
