<?xml version="1.0" encoding="UTF-8"?>
<gpx version="1.1" creator="Diary FIT converter" xmlns="http://www.topografix.com/GPX/1/1">
  <trk><name>Cycling</name><trkseg>
    <trkpt lat="50.8854726" lon="7.0559302">
      <ele>51.2</ele>
      <time>2019-09-01T10:48:27Z</time>
    </trkpt>
    <trkpt lat="50.8855577" lon="7.0556716">
      <ele>49.2</ele>
      <time>2019-09-01T10:48:41Z</time>
    </trkpt>
    <trkpt lat="50.8856653" lon="7.0554627">
      <ele>50.4</ele>
      <time>2019-09-01T10:48:45Z</time>
    </trkpt>
    <trkpt lat="50.8856959" lon="7.0552358">
      <ele>52.2</ele>
      <time>2019-09-01T10:48:48Z</time>
    </trkpt>
    <trkpt lat="50.8856986" lon="7.0550020">
      <ele>53.8</ele>
      <time>2019-09-01T10:48:51Z</time>
    </trkpt>
    <trkpt lat="50.8856888" lon="7.0549303">
      <ele>54.2</ele>
      <time>2019-09-01T10:48:52Z</time>
    </trkpt>
    <trkpt lat="50.8856909" lon="7.0547890">
      <ele>54.6</ele>
      <time>2019-09-01T10:48:54Z</time>
    </trkpt>
    <trkpt lat="50.8857105" lon="7.0546239">
      <ele>53.6</ele>
      <time>2019-09-01T10:48:57Z</time>
    </trkpt>
    <trkpt lat="50.8857778" lon="7.0542976">
      <ele>50.6</ele>
      <time>2019-09-01T10:49:06Z</time>
    </trkpt>
    <trkpt lat="50.8858399" lon="7.0542647">
      <ele>49.8</ele>
      <time>2019-09-01T10:49:08Z</time>
    </trkpt>
    <trkpt lat="50.8858815" lon="7.0542696">
      <ele>49.2</ele>
      <time>2019-09-01T10:49:09Z</time>
    </trkpt>
    <trkpt lat="50.8859233" lon="7.0542785">
      <ele>48.8</ele>
      <time>2019-09-01T10:49:10Z</time>
    </trkpt>
    <trkpt lat="50.8859953" lon="7.0542825">
      <ele>47.6</ele>
      <time>2019-09-01T10:49:12Z</time>
    </trkpt>
    <trkpt lat="50.8861047" lon="7.0541263">
      <ele>45.0</ele>
      <time>2019-09-01T10:49:17Z</time>
    </trkpt>
    <trkpt lat="50.8861643" lon="7.0540409">
      <ele>44.0</ele>
      <time>2019-09-01T10:49:19Z</time>
    </trkpt>
    <trkpt lat="50.8862028" lon="7.0540069">
      <ele>43.6</ele>
      <time>2019-09-01T10:49:20Z</time>
    </trkpt>
    <trkpt lat="50.8863094" lon="7.0539448">
      <ele>43.0</ele>
      <time>2019-09-01T10:49:22Z</time>
    </trkpt>
    <trkpt lat="50.8864853" lon="7.0538405">
      <ele>42.6</ele>
      <time>2019-09-01T10:49:25Z</time>
    </trkpt>
    <trkpt lat="50.8868828" lon="7.0533621">
      <ele>39.6</ele>
      <time>2019-09-01T10:49:31Z</time>
    </trkpt>
    <trkpt lat="50.8870858" lon="7.0532268">
      <ele>39.2</ele>
      <time>2019-09-01T10:49:33Z</time>
    </trkpt>
    <trkpt lat="50.8876078" lon="7.0528887">
      <ele>37.6</ele>
      <time>2019-09-01T10:49:38Z</time>
    </trkpt>
    <trkpt lat="50.8881715" lon="7.0525800">
      <ele>36.2</ele>
      <time>2019-09-01T10:49:44Z</time>
    </trkpt>
    <trkpt lat="50.8883451" lon="7.0524862">
      <ele>35.8</ele>
      <time>2019-09-01T10:49:46Z</time>
    </trkpt>
    <trkpt lat="50.8884287" lon="7.0524379">
      <ele>35.6</ele>
      <time>2019-09-01T10:49:47Z</time>
    </trkpt>
    <trkpt lat="50.8885117" lon="7.0523871">
      <ele>35.4</ele>
      <time>2019-09-01T10:49:48Z</time>
    </trkpt>
    <trkpt lat="50.8885937" lon="7.0523395">
      <ele>35.2</ele>
      <time>2019-09-01T10:49:49Z</time>
    </trkpt>
    <trkpt lat="50.8887533" lon="7.0522430">
      <ele>35.0</ele>
      <time>2019-09-01T10:49:51Z</time>
    </trkpt>
    <trkpt lat="50.8888310" lon="7.0521910">
      <ele>34.8</ele>
      <time>2019-09-01T10:49:52Z</time>
    </trkpt>
    <trkpt lat="50.8889033" lon="7.0521286">
      <ele>34.8</ele>
      <time>2019-09-01T10:49:53Z</time>
    </trkpt>
    <trkpt lat="50.8890383" lon="7.0519935">
      <ele>34.6</ele>
      <time>2019-09-01T10:49:55Z</time>
    </trkpt>
    <trkpt lat="50.8891087" lon="7.0519395">
      <ele>34.6</ele>
      <time>2019-09-01T10:49:56Z</time>
    </trkpt>
    <trkpt lat="50.8892473" lon="7.0518268">
      <ele>34.4</ele>
      <time>2019-09-01T10:49:58Z</time>
    </trkpt>
    <trkpt lat="50.8894169" lon="7.0515702">
      <ele>34.0</ele>
      <time>2019-09-01T10:50:01Z</time>
    </trkpt>
    <trkpt lat="50.8894852" lon="7.0514976">
      <ele>33.8</ele>
      <time>2019-09-01T10:50:02Z</time>
    </trkpt>
    <trkpt lat="50.8898416" lon="7.0511860">
      <ele>32.4</ele>
      <time>2019-09-01T10:50:07Z</time>
    </trkpt>
    <trkpt lat="50.8901201" lon="7.0508774">
      <ele>31.4</ele>
      <time>2019-09-01T10:50:11Z</time>
    </trkpt>
    <trkpt lat="50.8904290" lon="7.0505740">
      <ele>31.2</ele>
      <time>2019-09-01T10:50:15Z</time>
    </trkpt>
    <trkpt lat="50.8908553" lon="7.0499695">
      <ele>30.4</ele>
      <time>2019-09-01T10:50:21Z</time>
    </trkpt>
    <trkpt lat="50.8910911" lon="7.0496684">
      <ele>30.2</ele>
      <time>2019-09-01T10:50:24Z</time>
    </trkpt>
    <trkpt lat="50.8915387" lon="7.0491086">
      <ele>30.0</ele>
      <time>2019-09-01T10:50:30Z</time>
    </trkpt>
    <trkpt lat="50.8917495" lon="7.0488568">
      <ele>30.0</ele>
      <time>2019-09-01T10:50:33Z</time>
    </trkpt>
    <trkpt lat="50.8918195" lon="7.0487831">
      <ele>30.0</ele>
      <time>2019-09-01T10:50:34Z</time>
    </trkpt>
    <trkpt lat="50.8919508" lon="7.0486212">
      <ele>30.2</ele>
      <time>2019-09-01T10:50:36Z</time>
    </trkpt>
    <trkpt lat="50.8923214" lon="7.0480351">
      <ele>29.8</ele>
      <time>2019-09-01T10:50:42Z</time>
    </trkpt>
    <trkpt lat="50.8923830" lon="7.0479338">
      <ele>29.8</ele>
      <time>2019-09-01T10:50:43Z</time>
    </trkpt>
    <trkpt lat="50.8927731" lon="7.0472533">
      <ele>28.6</ele>
      <time>2019-09-01T10:50:49Z</time>
    </trkpt>
    <trkpt lat="50.8929187" lon="7.0469701">
      <ele>28.4</ele>
      <time>2019-09-01T10:50:53Z</time>
    </trkpt>
    <trkpt lat="50.8930632" lon="7.0467050">
      <ele>28.4</ele>
      <time>2019-09-01T10:50:56Z</time>
    </trkpt>
    <trkpt lat="50.8931064" lon="7.0466135">
      <ele>28.4</ele>
      <time>2019-09-01T10:50:57Z</time>
    </trkpt>
    <trkpt lat="50.8934277" lon="7.0458737">
      <ele>28.2</ele>
      <time>2019-09-01T10:51:05Z</time>
    </trkpt>
    <trkpt lat="50.8936152" lon="7.0454056">
      <ele>28.0</ele>
      <time>2019-09-01T10:51:10Z</time>
    </trkpt>
    <trkpt lat="50.8938268" lon="7.0448387">
      <ele>28.0</ele>
      <time>2019-09-01T10:51:16Z</time>
    </trkpt>
    <trkpt lat="50.8940727" lon="7.0441662">
      <ele>28.8</ele>
      <time>2019-09-01T10:51:23Z</time>
    </trkpt>
    <trkpt lat="50.8943236" lon="7.0434961">
      <ele>29.8</ele>
      <time>2019-09-01T10:51:30Z</time>
    </trkpt>
    <trkpt lat="50.8945711" lon="7.0426845">
      <ele>30.8</ele>
      <time>2019-09-01T10:51:38Z</time>
    </trkpt>
    <trkpt lat="50.8947996" lon="7.0418500">
      <ele>31.0</ele>
      <time>2019-09-01T10:51:46Z</time>
    </trkpt>
    <trkpt lat="50.8949953" lon="7.0409733">
      <ele>31.0</ele>
      <time>2019-09-01T10:51:54Z</time>
    </trkpt>
    <trkpt lat="50.8951007" lon="7.0405295">
      <ele>31.4</ele>
      <time>2019-09-01T10:51:58Z</time>
    </trkpt>
    <trkpt lat="50.8952197" lon="7.0399756">
      <ele>31.8</ele>
      <time>2019-09-01T10:52:03Z</time>
    </trkpt>
    <trkpt lat="50.8953669" lon="7.0393198">
      <ele>32.2</ele>
      <time>2019-09-01T10:52:09Z</time>
    </trkpt>
    <trkpt lat="50.8955398" lon="7.0384128">
      <ele>32.6</ele>
      <time>2019-09-01T10:52:17Z</time>
    </trkpt>
    <trkpt lat="50.8956795" lon="7.0375039">
      <ele>32.4</ele>
      <time>2019-09-01T10:52:25Z</time>
    </trkpt>
    <trkpt lat="50.8958100" lon="7.0365868">
      <ele>32.8</ele>
      <time>2019-09-01T10:52:33Z</time>
    </trkpt>
    <trkpt lat="50.8958366" lon="7.0363553">
      <ele>32.6</ele>
      <time>2019-09-01T10:52:35Z</time>
    </trkpt>
    <trkpt lat="50.8958663" lon="7.0361247">
      <ele>32.8</ele>
      <time>2019-09-01T10:52:37Z</time>
    </trkpt>
    <trkpt lat="50.8958807" lon="7.0360108">
      <ele>32.8</ele>
      <time>2019-09-01T10:52:38Z</time>
    </trkpt>
    <trkpt lat="50.8959096" lon="7.0357849">
      <ele>32.8</ele>
      <time>2019-09-01T10:52:40Z</time>
    </trkpt>
    <trkpt lat="50.8960041" lon="7.0349976">
      <ele>32.8</ele>
      <time>2019-09-01T10:52:47Z</time>
    </trkpt>
    <trkpt lat="50.8960503" lon="7.0345743">
      <ele>32.8</ele>
      <time>2019-09-01T10:52:51Z</time>
    </trkpt>
    <trkpt lat="50.8960630" lon="7.0343414">
      <ele>32.8</ele>
      <time>2019-09-01T10:52:54Z</time>
    </trkpt>
    <trkpt lat="50.8960990" lon="7.0340779">
      <ele>33.2</ele>
      <time>2019-09-01T10:52:57Z</time>
    </trkpt>
    <trkpt lat="50.8961194" lon="7.0338836">
      <ele>33.4</ele>
      <time>2019-09-01T10:52:59Z</time>
    </trkpt>
    <trkpt lat="50.8961325" lon="7.0337803">
      <ele>33.4</ele>
      <time>2019-09-01T10:53:00Z</time>
    </trkpt>
    <trkpt lat="50.8961951" lon="7.0332508">
      <ele>33.6</ele>
      <time>2019-09-01T10:53:05Z</time>
    </trkpt>
    <trkpt lat="50.8962075" lon="7.0331426">
      <ele>33.6</ele>
      <time>2019-09-01T10:53:06Z</time>
    </trkpt>
    <trkpt lat="50.8962940" lon="7.0322860">
      <ele>34.2</ele>
      <time>2019-09-01T10:53:14Z</time>
    </trkpt>
    <trkpt lat="50.8963805" lon="7.0313492">
      <ele>34.6</ele>
      <time>2019-09-01T10:53:23Z</time>
    </trkpt>
    <trkpt lat="50.8963988" lon="7.0311429">
      <ele>34.6</ele>
      <time>2019-09-01T10:53:25Z</time>
    </trkpt>
    <trkpt lat="50.8964340" lon="7.0303733">
      <ele>34.6</ele>
      <time>2019-09-01T10:53:32Z</time>
    </trkpt>
    <trkpt lat="50.8964576" lon="7.0294921">
      <ele>35.2</ele>
      <time>2019-09-01T10:53:40Z</time>
    </trkpt>
    <trkpt lat="50.8964693" lon="7.0286288">
      <ele>35.4</ele>
      <time>2019-09-01T10:53:48Z</time>
    </trkpt>
    <trkpt lat="50.8964751" lon="7.0279006">
      <ele>35.6</ele>
      <time>2019-09-01T10:53:55Z</time>
    </trkpt>
    <trkpt lat="50.8964701" lon="7.0275914">
      <ele>35.6</ele>
      <time>2019-09-01T10:53:58Z</time>
    </trkpt>
    <trkpt lat="50.8964566" lon="7.0266632">
      <ele>35.4</ele>
      <time>2019-09-01T10:54:07Z</time>
    </trkpt>
    <trkpt lat="50.8964497" lon="7.0261209">
      <ele>35.4</ele>
      <time>2019-09-01T10:54:12Z</time>
    </trkpt>
    <trkpt lat="50.8964450" lon="7.0259034">
      <ele>35.6</ele>
      <time>2019-09-01T10:54:14Z</time>
    </trkpt>
    <trkpt lat="50.8964236" lon="7.0253628">
      <ele>35.6</ele>
      <time>2019-09-01T10:54:19Z</time>
    </trkpt>
    <trkpt lat="50.8964073" lon="7.0245099">
      <ele>35.6</ele>
      <time>2019-09-01T10:54:27Z</time>
    </trkpt>
    <trkpt lat="50.8963730" lon="7.0236426">
      <ele>35.4</ele>
      <time>2019-09-01T10:54:35Z</time>
    </trkpt>
    <trkpt lat="50.8963503" lon="7.0230920">
      <ele>35.4</ele>
      <time>2019-09-01T10:54:40Z</time>
    </trkpt>
    <trkpt lat="50.8963322" lon="7.0224273">
      <ele>35.4</ele>
      <time>2019-09-01T10:54:46Z</time>
    </trkpt>
    <trkpt lat="50.8963121" lon="7.0215543">
      <ele>35.2</ele>
      <time>2019-09-01T10:54:54Z</time>
    </trkpt>
    <trkpt lat="50.8962738" lon="7.0207043">
      <ele>35.2</ele>
      <time>2019-09-01T10:55:02Z</time>
    </trkpt>
    <trkpt lat="50.8962527" lon="7.0201916">
      <ele>35.4</ele>
      <time>2019-09-01T10:55:07Z</time>
    </trkpt>
    <trkpt lat="50.8962248" lon="7.0192633">
      <ele>35.2</ele>
      <time>2019-09-01T10:55:16Z</time>
    </trkpt>
    <trkpt lat="50.8962112" lon="7.0183268">
      <ele>35.4</ele>
      <time>2019-09-01T10:55:25Z</time>
    </trkpt>
    <trkpt lat="50.8962434" lon="7.0174220">
      <ele>35.8</ele>
      <time>2019-09-01T10:55:34Z</time>
    </trkpt>
    <trkpt lat="50.8962396" lon="7.0166950">
      <ele>35.6</ele>
      <time>2019-09-01T10:55:41Z</time>
    </trkpt>
    <trkpt lat="50.8962731" lon="7.0157467">
      <ele>35.4</ele>
      <time>2019-09-01T10:55:50Z</time>
    </trkpt>
    <trkpt lat="50.8963186" lon="7.0153856">
      <ele>35.4</ele>
      <time>2019-09-01T10:55:53Z</time>
    </trkpt>
    <trkpt lat="50.8964912" lon="7.0146480">
      <ele>35.6</ele>
      <time>2019-09-01T10:56:03Z</time>
    </trkpt>
    <trkpt lat="50.8964960" lon="7.0144812">
      <ele>35.8</ele>
      <time>2019-09-01T10:56:05Z</time>
    </trkpt>
    <trkpt lat="50.8964971" lon="7.0143032">
      <ele>35.8</ele>
      <time>2019-09-01T10:56:07Z</time>
    </trkpt>
    <trkpt lat="50.8965826" lon="7.0135482">
      <ele>35.2</ele>
      <time>2019-09-01T10:56:15Z</time>
    </trkpt>
    <trkpt lat="50.8967293" lon="7.0126609">
      <ele>34.8</ele>
      <time>2019-09-01T10:56:24Z</time>
    </trkpt>
    <trkpt lat="50.8967974" lon="7.0121466">
      <ele>35.2</ele>
      <time>2019-09-01T10:56:29Z</time>
    </trkpt>
    <trkpt lat="50.8968267" lon="7.0119432">
      <ele>35.2</ele>
      <time>2019-09-01T10:56:31Z</time>
    </trkpt>
    <trkpt lat="50.8968973" lon="7.0115289">
      <ele>35.2</ele>
      <time>2019-09-01T10:56:35Z</time>
    </trkpt>
    <trkpt lat="50.8970317" lon="7.0106930">
      <ele>34.6</ele>
      <time>2019-09-01T10:56:44Z</time>
    </trkpt>
    <trkpt lat="50.8971648" lon="7.0098616">
      <ele>33.4</ele>
      <time>2019-09-01T10:56:53Z</time>
    </trkpt>
    <trkpt lat="50.8972886" lon="7.0090532">
      <ele>33.4</ele>
      <time>2019-09-01T10:57:01Z</time>
    </trkpt>
    <trkpt lat="50.8973038" lon="7.0089501">
      <ele>33.4</ele>
      <time>2019-09-01T10:57:02Z</time>
    </trkpt>
    <trkpt lat="50.8973164" lon="7.0088452">
      <ele>33.4</ele>
      <time>2019-09-01T10:57:03Z</time>
    </trkpt>
    <trkpt lat="50.8973395" lon="7.0086345">
      <ele>33.4</ele>
      <time>2019-09-01T10:57:05Z</time>
    </trkpt>
    <trkpt lat="50.8973771" lon="7.0083219">
      <ele>33.6</ele>
      <time>2019-09-01T10:57:08Z</time>
    </trkpt>
    <trkpt lat="50.8974793" lon="7.0074127">
      <ele>33.2</ele>
      <time>2019-09-01T10:57:17Z</time>
    </trkpt>
    <trkpt lat="50.8976156" lon="7.0064973">
      <ele>33.0</ele>
      <time>2019-09-01T10:57:26Z</time>
    </trkpt>
    <trkpt lat="50.8976274" lon="7.0063946">
      <ele>33.0</ele>
      <time>2019-09-01T10:57:27Z</time>
    </trkpt>
    <trkpt lat="50.8976563" lon="7.0061878">
      <ele>33.0</ele>
      <time>2019-09-01T10:57:29Z</time>
    </trkpt>
    <trkpt lat="50.8977496" lon="7.0052533">
      <ele>32.8</ele>
      <time>2019-09-01T10:57:38Z</time>
    </trkpt>
    <trkpt lat="50.8977754" lon="7.0043889">
      <ele>32.6</ele>
      <time>2019-09-01T10:57:46Z</time>
    </trkpt>
    <trkpt lat="50.8977466" lon="7.0042303">
      <ele>32.4</ele>
      <time>2019-09-01T10:57:48Z</time>
    </trkpt>
    <trkpt lat="50.8976709" lon="7.0041563">
      <ele>32.2</ele>
      <time>2019-09-01T10:57:50Z</time>
    </trkpt>
    <trkpt lat="50.8973958" lon="7.0040988">
      <ele>32.2</ele>
      <time>2019-09-01T10:57:55Z</time>
    </trkpt>
    <trkpt lat="50.8972938" lon="7.0040072">
      <ele>32.4</ele>
      <time>2019-09-01T10:57:57Z</time>
    </trkpt>
    <trkpt lat="50.8972679" lon="7.0038253">
      <ele>32.4</ele>
      <time>2019-09-01T10:57:59Z</time>
    </trkpt>
    <trkpt lat="50.8972930" lon="7.0036383">
      <ele>32.4</ele>
      <time>2019-09-01T10:58:01Z</time>
    </trkpt>
    <trkpt lat="50.8973664" lon="7.0032271">
      <ele>32.2</ele>
      <time>2019-09-01T10:58:05Z</time>
    </trkpt>
    <trkpt lat="50.8974021" lon="7.0029107">
      <ele>32.2</ele>
      <time>2019-09-01T10:58:08Z</time>
    </trkpt>
    <trkpt lat="50.8975249" lon="7.0023997">
      <ele>32.2</ele>
      <time>2019-09-01T10:58:13Z</time>
    </trkpt>
    <trkpt lat="50.8976502" lon="7.0017660">
      <ele>32.4</ele>
      <time>2019-09-01T10:58:19Z</time>
    </trkpt>
    <trkpt lat="50.8977413" lon="7.0015895">
      <ele>32.2</ele>
      <time>2019-09-01T10:58:21Z</time>
    </trkpt>
    <trkpt lat="50.8978320" lon="7.0014025">
      <ele>32.0</ele>
      <time>2019-09-01T10:58:23Z</time>
    </trkpt>
    <trkpt lat="50.8978679" lon="7.0012952">
      <ele>31.8</ele>
      <time>2019-09-01T10:58:24Z</time>
    </trkpt>
    <trkpt lat="50.8979545" lon="7.0009436">
      <ele>31.6</ele>
      <time>2019-09-01T10:58:27Z</time>
    </trkpt>
    <trkpt lat="50.8980456" lon="7.0005083">
      <ele>31.4</ele>
      <time>2019-09-01T10:58:31Z</time>
    </trkpt>
    <trkpt lat="50.8981340" lon="7.0003959">
      <ele>31.0</ele>
      <time>2019-09-01T10:58:33Z</time>
    </trkpt>
    <trkpt lat="50.8983785" lon="7.0005241">
      <ele>30.6</ele>
      <time>2019-09-01T10:58:37Z</time>
    </trkpt>
    <trkpt lat="50.8985011" lon="7.0005030">
      <ele>30.6</ele>
      <time>2019-09-01T10:58:39Z</time>
    </trkpt>
    <trkpt lat="50.8985883" lon="7.0003670">
      <ele>30.4</ele>
      <time>2019-09-01T10:58:41Z</time>
    </trkpt>
    <trkpt lat="50.8986174" lon="7.0002751">
      <ele>30.4</ele>
      <time>2019-09-01T10:58:42Z</time>
    </trkpt>
    <trkpt lat="50.8986478" lon="7.0001789">
      <ele>30.4</ele>
      <time>2019-09-01T10:58:43Z</time>
    </trkpt>
    <trkpt lat="50.8986759" lon="7.0000727">
      <ele>30.6</ele>
      <time>2019-09-01T10:58:44Z</time>
    </trkpt>
    <trkpt lat="50.8987045" lon="6.9999653">
      <ele>30.6</ele>
      <time>2019-09-01T10:58:45Z</time>
    </trkpt>
    <trkpt lat="50.8987323" lon="6.9998559">
      <ele>30.6</ele>
      <time>2019-09-01T10:58:46Z</time>
    </trkpt>
    <trkpt lat="50.8987611" lon="6.9997485">
      <ele>30.6</ele>
      <time>2019-09-01T10:58:47Z</time>
    </trkpt>
    <trkpt lat="50.8987908" lon="6.9996455">
      <ele>30.6</ele>
      <time>2019-09-01T10:58:48Z</time>
    </trkpt>
    <trkpt lat="50.8988177" lon="6.9995464">
      <ele>30.8</ele>
      <time>2019-09-01T10:58:49Z</time>
    </trkpt>
    <trkpt lat="50.8988754" lon="6.9993593">
      <ele>30.8</ele>
      <time>2019-09-01T10:58:51Z</time>
    </trkpt>
    <trkpt lat="50.8990068" lon="6.9989042">
      <ele>30.6</ele>
      <time>2019-09-01T10:58:56Z</time>
    </trkpt>
    <trkpt lat="50.8990939" lon="6.9986355">
      <ele>30.4</ele>
      <time>2019-09-01T10:58:59Z</time>
    </trkpt>
    <trkpt lat="50.8992281" lon="6.9982761">
      <ele>30.0</ele>
      <time>2019-09-01T10:59:03Z</time>
    </trkpt>
    <trkpt lat="50.8992632" lon="6.9981872">
      <ele>30.0</ele>
      <time>2019-09-01T10:59:04Z</time>
    </trkpt>
    <trkpt lat="50.8993014" lon="6.9981022">
      <ele>30.0</ele>
      <time>2019-09-01T10:59:05Z</time>
    </trkpt>
    <trkpt lat="50.8995226" lon="6.9975729">
      <ele>29.8</ele>
      <time>2019-09-01T10:59:11Z</time>
    </trkpt>
    <trkpt lat="50.8996204" lon="6.9972924">
      <ele>29.6</ele>
      <time>2019-09-01T10:59:14Z</time>
    </trkpt>
    <trkpt lat="50.8996552" lon="6.9971962">
      <ele>29.6</ele>
      <time>2019-09-01T10:59:15Z</time>
    </trkpt>
    <trkpt lat="50.8996925" lon="6.9971022">
      <ele>29.6</ele>
      <time>2019-09-01T10:59:16Z</time>
    </trkpt>
    <trkpt lat="50.8999176" lon="6.9965441">
      <ele>29.0</ele>
      <time>2019-09-01T10:59:22Z</time>
    </trkpt>
    <trkpt lat="50.9002552" lon="6.9958159">
      <ele>28.0</ele>
      <time>2019-09-01T10:59:30Z</time>
    </trkpt>
    <trkpt lat="50.9003852" lon="6.9955359">
      <ele>28.0</ele>
      <time>2019-09-01T10:59:33Z</time>
    </trkpt>
    <trkpt lat="50.9005572" lon="6.9950702">
      <ele>27.6</ele>
      <time>2019-09-01T10:59:38Z</time>
    </trkpt>
    <trkpt lat="50.9006260" lon="6.9949104">
      <ele>27.8</ele>
      <time>2019-09-01T10:59:40Z</time>
    </trkpt>
    <trkpt lat="50.9008670" lon="6.9943457">
      <ele>27.8</ele>
      <time>2019-09-01T10:59:47Z</time>
    </trkpt>
    <trkpt lat="50.9009313" lon="6.9941728">
      <ele>28.0</ele>
      <time>2019-09-01T10:59:49Z</time>
    </trkpt>
    <trkpt lat="50.9012728" lon="6.9934381">
      <ele>28.8</ele>
      <time>2019-09-01T11:00:00Z</time>
    </trkpt>
    <trkpt lat="50.9016237" lon="6.9928323">
      <ele>28.8</ele>
      <time>2019-09-01T11:00:09Z</time>
    </trkpt>
    <trkpt lat="50.9016911" lon="6.9926821">
      <ele>28.8</ele>
      <time>2019-09-01T11:00:10Z</time>
    </trkpt>
    <trkpt lat="50.9017482" lon="6.9925724">
      <ele>28.8</ele>
      <time>2019-09-01T11:00:11Z</time>
    </trkpt>
    <trkpt lat="50.9021027" lon="6.9920660">
      <ele>29.2</ele>
      <time>2019-09-01T11:00:17Z</time>
    </trkpt>
    <trkpt lat="50.9025330" lon="6.9914800">
      <ele>29.4</ele>
      <time>2019-09-01T11:00:25Z</time>
    </trkpt>
    <trkpt lat="50.9028519" lon="6.9910760">
      <ele>30.2</ele>
      <time>2019-09-01T11:00:31Z</time>
    </trkpt>
    <trkpt lat="50.9033141" lon="6.9905093">
      <ele>30.6</ele>
      <time>2019-09-01T11:00:39Z</time>
    </trkpt>
    <trkpt lat="50.9035067" lon="6.9903402">
      <ele>30.8</ele>
      <time>2019-09-01T11:00:42Z</time>
    </trkpt>
    <trkpt lat="50.9039648" lon="6.9899948">
      <ele>31.6</ele>
      <time>2019-09-01T11:00:49Z</time>
    </trkpt>
    <trkpt lat="50.9040437" lon="6.9899380">
      <ele>31.8</ele>
      <time>2019-09-01T11:00:50Z</time>
    </trkpt>
    <trkpt lat="50.9042047" lon="6.9898073">
      <ele>31.8</ele>
      <time>2019-09-01T11:00:52Z</time>
    </trkpt>
    <trkpt lat="50.9043747" lon="6.9896556">
      <ele>32.0</ele>
      <time>2019-09-01T11:00:54Z</time>
    </trkpt>
    <trkpt lat="50.9048127" lon="6.9892849">
      <ele>32.4</ele>
      <time>2019-09-01T11:00:59Z</time>
    </trkpt>
    <trkpt lat="50.9053084" lon="6.9888726">
      <ele>32.8</ele>
      <time>2019-09-01T11:01:05Z</time>
    </trkpt>
    <trkpt lat="50.9058058" lon="6.9884651">
      <ele>33.0</ele>
      <time>2019-09-01T11:01:11Z</time>
    </trkpt>
    <trkpt lat="50.9063997" lon="6.9882555">
      <ele>33.8</ele>
      <time>2019-09-01T11:01:18Z</time>
    </trkpt>
    <trkpt lat="50.9066376" lon="6.9882047">
      <ele>33.8</ele>
      <time>2019-09-01T11:01:21Z</time>
    </trkpt>
    <trkpt lat="50.9067128" lon="6.9881886">
      <ele>34.0</ele>
      <time>2019-09-01T11:01:22Z</time>
    </trkpt>
    <trkpt lat="50.9071919" lon="6.9880102">
      <ele>36.2</ele>
      <time>2019-09-01T11:01:29Z</time>
    </trkpt>
    <trkpt lat="50.9077141" lon="6.9876956">
      <ele>37.0</ele>
      <time>2019-09-01T11:01:37Z</time>
    </trkpt>
    <trkpt lat="50.9079666" lon="6.9875374">
      <ele>37.6</ele>
      <time>2019-09-01T11:01:41Z</time>
    </trkpt>
    <trkpt lat="50.9085225" lon="6.9871751">
      <ele>37.6</ele>
      <time>2019-09-01T11:01:50Z</time>
    </trkpt>
    <trkpt lat="50.9086454" lon="6.9870953">
      <ele>37.6</ele>
      <time>2019-09-01T11:01:52Z</time>
    </trkpt>
    <trkpt lat="50.9087655" lon="6.9870093">
      <ele>38.0</ele>
      <time>2019-09-01T11:01:54Z</time>
    </trkpt>
    <trkpt lat="50.9088272" lon="6.9869653">
      <ele>38.0</ele>
      <time>2019-09-01T11:01:55Z</time>
    </trkpt>
    <trkpt lat="50.9089593" lon="6.9868704">
      <ele>37.8</ele>
      <time>2019-09-01T11:01:57Z</time>
    </trkpt>
    <trkpt lat="50.9090944" lon="6.9867594">
      <ele>37.6</ele>
      <time>2019-09-01T11:01:59Z</time>
    </trkpt>
    <trkpt lat="50.9091648" lon="6.9867080">
      <ele>37.6</ele>
      <time>2019-09-01T11:02:00Z</time>
    </trkpt>
    <trkpt lat="50.9092378" lon="6.9866799">
      <ele>37.6</ele>
      <time>2019-09-01T11:02:01Z</time>
    </trkpt>
    <trkpt lat="50.9093726" lon="6.9867424">
      <ele>37.6</ele>
      <time>2019-09-01T11:02:03Z</time>
    </trkpt>
    <trkpt lat="50.9095069" lon="6.9868073">
      <ele>37.6</ele>
      <time>2019-09-01T11:02:05Z</time>
    </trkpt>
    <trkpt lat="50.9096419" lon="6.9867651">
      <ele>37.4</ele>
      <time>2019-09-01T11:02:07Z</time>
    </trkpt>
    <trkpt lat="50.9100902" lon="6.9863417">
      <ele>37.8</ele>
      <time>2019-09-01T11:02:14Z</time>
    </trkpt>
    <trkpt lat="50.9102089" lon="6.9862279">
      <ele>38.0</ele>
      <time>2019-09-01T11:02:16Z</time>
    </trkpt>
    <trkpt lat="50.9103079" lon="6.9862251">
      <ele>38.0</ele>
      <time>2019-09-01T11:02:18Z</time>
    </trkpt>
    <trkpt lat="50.9103855" lon="6.9862325">
      <ele>38.2</ele>
      <time>2019-09-01T11:02:21Z</time>
    </trkpt>
    <trkpt lat="50.9105134" lon="6.9861788">
      <ele>38.6</ele>
      <time>2019-09-01T11:02:25Z</time>
    </trkpt>
    <trkpt lat="50.9108796" lon="6.9857195">
      <ele>37.8</ele>
      <time>2019-09-01T11:02:33Z</time>
    </trkpt>
    <trkpt lat="50.9110841" lon="6.9854729">
      <ele>37.6</ele>
      <time>2019-09-01T11:02:37Z</time>
    </trkpt>
    <trkpt lat="50.9113476" lon="6.9851588">
      <ele>37.4</ele>
      <time>2019-09-01T11:02:42Z</time>
    </trkpt>
    <trkpt lat="50.9118192" lon="6.9846321">
      <ele>37.2</ele>
      <time>2019-09-01T11:02:51Z</time>
    </trkpt>
    <trkpt lat="50.9118695" lon="6.9845733">
      <ele>37.2</ele>
      <time>2019-09-01T11:02:52Z</time>
    </trkpt>
    <trkpt lat="50.9119199" lon="6.9845152">
      <ele>37.0</ele>
      <time>2019-09-01T11:02:53Z</time>
    </trkpt>
    <trkpt lat="50.9119704" lon="6.9844572">
      <ele>37.0</ele>
      <time>2019-09-01T11:02:54Z</time>
    </trkpt>
    <trkpt lat="50.9121276" lon="6.9842839">
      <ele>36.6</ele>
      <time>2019-09-01T11:02:57Z</time>
    </trkpt>
    <trkpt lat="50.9122808" lon="6.9841010">
      <ele>36.6</ele>
      <time>2019-09-01T11:03:00Z</time>
    </trkpt>
    <trkpt lat="50.9124311" lon="6.9839365">
      <ele>36.8</ele>
      <time>2019-09-01T11:03:03Z</time>
    </trkpt>
    <trkpt lat="50.9127248" lon="6.9836492">
      <ele>36.4</ele>
      <time>2019-09-01T11:03:09Z</time>
    </trkpt>
    <trkpt lat="50.9131701" lon="6.9832036">
      <ele>35.6</ele>
      <time>2019-09-01T11:03:18Z</time>
    </trkpt>
    <trkpt lat="50.9136459" lon="6.9827919">
      <ele>34.4</ele>
      <time>2019-09-01T11:03:27Z</time>
    </trkpt>
    <trkpt lat="50.9140117" lon="6.9824299">
      <ele>33.8</ele>
      <time>2019-09-01T11:03:34Z</time>
    </trkpt>
    <trkpt lat="50.9141081" lon="6.9823156">
      <ele>33.6</ele>
      <time>2019-09-01T11:03:36Z</time>
    </trkpt>
    <trkpt lat="50.9141558" lon="6.9822652">
      <ele>33.6</ele>
      <time>2019-09-01T11:03:37Z</time>
    </trkpt>
    <trkpt lat="50.9142042" lon="6.9822143">
      <ele>33.6</ele>
      <time>2019-09-01T11:03:38Z</time>
    </trkpt>
    <trkpt lat="50.9144506" lon="6.9819464">
      <ele>33.6</ele>
      <time>2019-09-01T11:03:43Z</time>
    </trkpt>
    <trkpt lat="50.9149269" lon="6.9814971">
      <ele>33.8</ele>
      <time>2019-09-01T11:03:52Z</time>
    </trkpt>
    <trkpt lat="50.9154207" lon="6.9810511">
      <ele>34.4</ele>
      <time>2019-09-01T11:04:01Z</time>
    </trkpt>
    <trkpt lat="50.9159057" lon="6.9805992">
      <ele>34.2</ele>
      <time>2019-09-01T11:04:10Z</time>
    </trkpt>
    <trkpt lat="50.9164284" lon="6.9801134">
      <ele>34.0</ele>
      <time>2019-09-01T11:04:19Z</time>
    </trkpt>
    <trkpt lat="50.9169092" lon="6.9796982">
      <ele>34.0</ele>
      <time>2019-09-01T11:04:27Z</time>
    </trkpt>
    <trkpt lat="50.9170935" lon="6.9795506">
      <ele>34.0</ele>
      <time>2019-09-01T11:04:30Z</time>
    </trkpt>
    <trkpt lat="50.9174039" lon="6.9792985">
      <ele>34.0</ele>
      <time>2019-09-01T11:04:35Z</time>
    </trkpt>
    <trkpt lat="50.9178940" lon="6.9789126">
      <ele>33.8</ele>
      <time>2019-09-01T11:04:43Z</time>
    </trkpt>
    <trkpt lat="50.9183333" lon="6.9784225">
      <ele>34.2</ele>
      <time>2019-09-01T11:04:52Z</time>
    </trkpt>
    <trkpt lat="50.9183778" lon="6.9783852">
      <ele>34.4</ele>
      <time>2019-09-01T11:04:53Z</time>
    </trkpt>
    <trkpt lat="50.9184651" lon="6.9783279">
      <ele>34.4</ele>
      <time>2019-09-01T11:04:55Z</time>
    </trkpt>
    <trkpt lat="50.9185501" lon="6.9782750">
      <ele>34.6</ele>
      <time>2019-09-01T11:04:57Z</time>
    </trkpt>
    <trkpt lat="50.9185871" lon="6.9782351">
      <ele>34.4</ele>
      <time>2019-09-01T11:04:58Z</time>
    </trkpt>
    <trkpt lat="50.9190920" lon="6.9777989">
      <ele>35.0</ele>
      <time>2019-09-01T11:05:08Z</time>
    </trkpt>
    <trkpt lat="50.9193117" lon="6.9776322">
      <ele>34.8</ele>
      <time>2019-09-01T11:05:12Z</time>
    </trkpt>
    <trkpt lat="50.9196579" lon="6.9773603">
      <ele>34.6</ele>
      <time>2019-09-01T11:05:18Z</time>
    </trkpt>
    <trkpt lat="50.9201647" lon="6.9769921">
      <ele>34.4</ele>
      <time>2019-09-01T11:05:27Z</time>
    </trkpt>
    <trkpt lat="50.9203380" lon="6.9768759">
      <ele>34.4</ele>
      <time>2019-09-01T11:05:30Z</time>
    </trkpt>
    <trkpt lat="50.9203956" lon="6.9768354">
      <ele>34.4</ele>
      <time>2019-09-01T11:05:31Z</time>
    </trkpt>
    <trkpt lat="50.9204517" lon="6.9767924">
      <ele>34.2</ele>
      <time>2019-09-01T11:05:32Z</time>
    </trkpt>
    <trkpt lat="50.9206776" lon="6.9766239">
      <ele>34.0</ele>
      <time>2019-09-01T11:05:36Z</time>
    </trkpt>
    <trkpt lat="50.9211966" lon="6.9762583">
      <ele>33.6</ele>
      <time>2019-09-01T11:05:45Z</time>
    </trkpt>
    <trkpt lat="50.9216586" lon="6.9759499">
      <ele>33.6</ele>
      <time>2019-09-01T11:05:53Z</time>
    </trkpt>
    <trkpt lat="50.9217735" lon="6.9758753">
      <ele>33.6</ele>
      <time>2019-09-01T11:05:55Z</time>
    </trkpt>
    <trkpt lat="50.9218300" lon="6.9758410">
      <ele>33.4</ele>
      <time>2019-09-01T11:05:56Z</time>
    </trkpt>
    <trkpt lat="50.9218842" lon="6.9758064">
      <ele>33.4</ele>
      <time>2019-09-01T11:05:57Z</time>
    </trkpt>
    <trkpt lat="50.9219360" lon="6.9757693">
      <ele>33.2</ele>
      <time>2019-09-01T11:05:58Z</time>
    </trkpt>
    <trkpt lat="50.9223177" lon="6.9755183">
      <ele>32.8</ele>
      <time>2019-09-01T11:06:05Z</time>
    </trkpt>
    <trkpt lat="50.9225468" lon="6.9753773">
      <ele>33.0</ele>
      <time>2019-09-01T11:06:09Z</time>
    </trkpt>
    <trkpt lat="50.9229948" lon="6.9750747">
      <ele>33.0</ele>
      <time>2019-09-01T11:06:17Z</time>
    </trkpt>
    <trkpt lat="50.9232875" lon="6.9748762">
      <ele>33.2</ele>
      <time>2019-09-01T11:06:22Z</time>
    </trkpt>
    <trkpt lat="50.9238345" lon="6.9745313">
      <ele>33.4</ele>
      <time>2019-09-01T11:06:31Z</time>
    </trkpt>
    <trkpt lat="50.9243634" lon="6.9742058">
      <ele>33.4</ele>
      <time>2019-09-01T11:06:40Z</time>
    </trkpt>
    <trkpt lat="50.9247136" lon="6.9740013">
      <ele>33.6</ele>
      <time>2019-09-01T11:06:46Z</time>
    </trkpt>
    <trkpt lat="50.9252220" lon="6.9736948">
      <ele>33.6</ele>
      <time>2019-09-01T11:06:55Z</time>
    </trkpt>
    <trkpt lat="50.9253294" lon="6.9736278">
      <ele>33.8</ele>
      <time>2019-09-01T11:06:57Z</time>
    </trkpt>
    <trkpt lat="50.9258797" lon="6.9732673">
      <ele>34.4</ele>
      <time>2019-09-01T11:07:07Z</time>
    </trkpt>
    <trkpt lat="50.9264226" lon="6.9729669">
      <ele>34.8</ele>
      <time>2019-09-01T11:07:17Z</time>
    </trkpt>
    <trkpt lat="50.9266324" lon="6.9728746">
      <ele>34.4</ele>
      <time>2019-09-01T11:07:21Z</time>
    </trkpt>
    <trkpt lat="50.9267882" lon="6.9728047">
      <ele>34.2</ele>
      <time>2019-09-01T11:07:24Z</time>
    </trkpt>
    <trkpt lat="50.9272092" lon="6.9726356">
      <ele>34.2</ele>
      <time>2019-09-01T11:07:32Z</time>
    </trkpt>
    <trkpt lat="50.9273745" lon="6.9725592">
      <ele>34.0</ele>
      <time>2019-09-01T11:07:35Z</time>
    </trkpt>
    <trkpt lat="50.9274320" lon="6.9725384">
      <ele>34.0</ele>
      <time>2019-09-01T11:07:36Z</time>
    </trkpt>
    <trkpt lat="50.9275483" lon="6.9725645">
      <ele>33.8</ele>
      <time>2019-09-01T11:07:38Z</time>
    </trkpt>
    <trkpt lat="50.9276374" lon="6.9727061">
      <ele>33.6</ele>
      <time>2019-09-01T11:07:40Z</time>
    </trkpt>
    <trkpt lat="50.9279565" lon="6.9734745">
      <ele>34.2</ele>
      <time>2019-09-01T11:07:50Z</time>
    </trkpt>
    <trkpt lat="50.9280480" lon="6.9737507">
      <ele>34.8</ele>
      <time>2019-09-01T11:07:54Z</time>
    </trkpt>
    <trkpt lat="50.9281039" lon="6.9738302">
      <ele>34.6</ele>
      <time>2019-09-01T11:07:56Z</time>
    </trkpt>
    <trkpt lat="50.9281576" lon="6.9738133">
      <ele>34.6</ele>
      <time>2019-09-01T11:07:57Z</time>
    </trkpt>
    <trkpt lat="50.9282492" lon="6.9737428">
      <ele>34.4</ele>
      <time>2019-09-01T11:07:59Z</time>
    </trkpt>
    <trkpt lat="50.9283328" lon="6.9736621">
      <ele>34.4</ele>
      <time>2019-09-01T11:08:01Z</time>
    </trkpt>
    <trkpt lat="50.9283779" lon="6.9736245">
      <ele>34.2</ele>
      <time>2019-09-01T11:08:02Z</time>
    </trkpt>
    <trkpt lat="50.9288681" lon="6.9732321">
      <ele>35.2</ele>
      <time>2019-09-01T11:08:13Z</time>
    </trkpt>
    <trkpt lat="50.9290445" lon="6.9730784">
      <ele>35.8</ele>
      <time>2019-09-01T11:08:17Z</time>
    </trkpt>
    <trkpt lat="50.9295669" lon="6.9726500">
      <ele>34.6</ele>
      <time>2019-09-01T11:08:27Z</time>
    </trkpt>
    <trkpt lat="50.9298624" lon="6.9724183">
      <ele>34.2</ele>
      <time>2019-09-01T11:08:33Z</time>
    </trkpt>
    <trkpt lat="50.9301662" lon="6.9721704">
      <ele>33.4</ele>
      <time>2019-09-01T11:08:39Z</time>
    </trkpt>
    <trkpt lat="50.9306480" lon="6.9717690">
      <ele>33.0</ele>
      <time>2019-09-01T11:08:48Z</time>
    </trkpt>
    <trkpt lat="50.9310029" lon="6.9714809">
      <ele>32.4</ele>
      <time>2019-09-01T11:08:56Z</time>
    </trkpt>
    <trkpt lat="50.9312759" lon="6.9712653">
      <ele>31.4</ele>
      <time>2019-09-01T11:09:03Z</time>
    </trkpt>
    <trkpt lat="50.9314591" lon="6.9711297">
      <ele>30.8</ele>
      <time>2019-09-01T11:09:07Z</time>
    </trkpt>
    <trkpt lat="50.9317606" lon="6.9709776">
      <ele>30.2</ele>
      <time>2019-09-01T11:09:12Z</time>
    </trkpt>
    <trkpt lat="50.9321419" lon="6.9708161">
      <ele>30.4</ele>
      <time>2019-09-01T11:09:19Z</time>
    </trkpt>
    <trkpt lat="50.9321943" lon="6.9707971">
      <ele>30.4</ele>
      <time>2019-09-01T11:09:20Z</time>
    </trkpt>
    <trkpt lat="50.9322993" lon="6.9707933">
      <ele>30.2</ele>
      <time>2019-09-01T11:09:22Z</time>
    </trkpt>
    <trkpt lat="50.9323482" lon="6.9707902">
      <ele>30.0</ele>
      <time>2019-09-01T11:09:23Z</time>
    </trkpt>
    <trkpt lat="50.9325467" lon="6.9708794">
      <ele>31.6</ele>
      <time>2019-09-01T11:09:30Z</time>
    </trkpt>
    <trkpt lat="50.9325673" lon="6.9708996">
      <ele>32.0</ele>
      <time>2019-09-01T11:09:34Z</time>
    </trkpt>
    <trkpt lat="50.9326199" lon="6.9709472">
      <ele>32.2</ele>
      <time>2019-09-01T11:09:58Z</time>
    </trkpt>
    <trkpt lat="50.9327224" lon="6.9710348">
      <ele>31.8</ele>
      <time>2019-09-01T11:10:03Z</time>
    </trkpt>
    <trkpt lat="50.9328376" lon="6.9710556">
      <ele>31.8</ele>
      <time>2019-09-01T11:10:06Z</time>
    </trkpt>
    <trkpt lat="50.9331081" lon="6.9710096">
      <ele>32.0</ele>
      <time>2019-09-01T11:10:12Z</time>
    </trkpt>
    <trkpt lat="50.9333441" lon="6.9709814">
      <ele>32.6</ele>
      <time>2019-09-01T11:10:17Z</time>
    </trkpt>
    <trkpt lat="50.9335405" lon="6.9709543">
      <ele>32.6</ele>
      <time>2019-09-01T11:10:21Z</time>
    </trkpt>
    <trkpt lat="50.9341102" lon="6.9708525">
      <ele>31.2</ele>
      <time>2019-09-01T11:10:32Z</time>
    </trkpt>
    <trkpt lat="50.9346645" lon="6.9707921">
      <ele>30.0</ele>
      <time>2019-09-01T11:10:42Z</time>
    </trkpt>
    <trkpt lat="50.9350375" lon="6.9708083">
      <ele>28.4</ele>
      <time>2019-09-01T11:10:49Z</time>
    </trkpt>
    <trkpt lat="50.9355697" lon="6.9709586">
      <ele>49.6</ele>
      <time>2019-09-01T11:11:08Z</time>
    </trkpt>
    <trkpt lat="50.9356936" lon="6.9709829">
      <ele>53.6</ele>
      <time>2019-09-01T11:11:11Z</time>
    </trkpt>
    <trkpt lat="50.9362639" lon="6.9711629">
      <ele>53.6</ele>
      <time>2019-09-01T11:11:23Z</time>
    </trkpt>
    <trkpt lat="50.9367739" lon="6.9714604">
      <ele>60.2</ele>
      <time>2019-09-01T11:11:39Z</time>
    </trkpt>
    <trkpt lat="50.9369207" lon="6.9715497">
      <ele>62.0</ele>
      <time>2019-09-01T11:11:42Z</time>
    </trkpt>
    <trkpt lat="50.9371041" lon="6.9715319">
      <ele>62.4</ele>
      <time>2019-09-01T11:11:45Z</time>
    </trkpt>
    <trkpt lat="50.9377023" lon="6.9714249">
      <ele>64.4</ele>
      <time>2019-09-01T11:11:54Z</time>
    </trkpt>
    <trkpt lat="50.9379896" lon="6.9713809">
      <ele>66.6</ele>
      <time>2019-09-01T11:11:58Z</time>
    </trkpt>
    <trkpt lat="50.9380683" lon="6.9713636">
      <ele>67.2</ele>
      <time>2019-09-01T11:11:59Z</time>
    </trkpt>
    <trkpt lat="50.9382306" lon="6.9713281">
      <ele>70.8</ele>
      <time>2019-09-01T11:12:01Z</time>
    </trkpt>
    <trkpt lat="50.9383910" lon="6.9713273">
      <ele>74.2</ele>
      <time>2019-09-01T11:12:03Z</time>
    </trkpt>
    <trkpt lat="50.9384695" lon="6.9713397">
      <ele>75.8</ele>
      <time>2019-09-01T11:12:04Z</time>
    </trkpt>
    <trkpt lat="50.9387002" lon="6.9713952">
      <ele>79.6</ele>
      <time>2019-09-01T11:12:07Z</time>
    </trkpt>
    <trkpt lat="50.9388523" lon="6.9715430">
      <ele>80.8</ele>
      <time>2019-09-01T11:12:09Z</time>
    </trkpt>
    <trkpt lat="50.9389337" lon="6.9716265">
      <ele>81.2</ele>
      <time>2019-09-01T11:12:10Z</time>
    </trkpt>
    <trkpt lat="50.9391252" lon="6.9718166">
      <ele>81.0</ele>
      <time>2019-09-01T11:12:12Z</time>
    </trkpt>
    <trkpt lat="50.9395600" lon="6.9725586">
      <ele>80.4</ele>
      <time>2019-09-01T11:12:17Z</time>
    </trkpt>
    <trkpt lat="50.9396700" lon="6.9727953">
      <ele>81.6</ele>
      <time>2019-09-01T11:12:19Z</time>
    </trkpt>
    <trkpt lat="50.9397664" lon="6.9729852">
      <ele>82.8</ele>
      <time>2019-09-01T11:12:21Z</time>
    </trkpt>
    <trkpt lat="50.9398591" lon="6.9731418">
      <ele>83.0</ele>
      <time>2019-09-01T11:12:23Z</time>
    </trkpt>
    <trkpt lat="50.9398999" lon="6.9732170">
      <ele>83.4</ele>
      <time>2019-09-01T11:12:24Z</time>
    </trkpt>
    <trkpt lat="50.9399731" lon="6.9733402">
      <ele>84.6</ele>
      <time>2019-09-01T11:12:27Z</time>
    </trkpt>
    <trkpt lat="50.9399872" lon="6.9733421">
      <ele>84.8</ele>
      <time>2019-09-01T11:12:30Z</time>
    </trkpt>
    <trkpt lat="50.9400318" lon="6.9733607">
      <ele>85.4</ele>
      <time>2019-09-01T11:13:42Z</time>
    </trkpt>
    <trkpt lat="50.9401073" lon="6.9733816">
      <ele>85.2</ele>
      <time>2019-09-01T11:13:44Z</time>
    </trkpt>
    <trkpt lat="50.9401379" lon="6.9734191">
      <ele>85.2</ele>
      <time>2019-09-01T11:13:45Z</time>
    </trkpt>
    <trkpt lat="50.9401624" lon="6.9735708">
      <ele>84.6</ele>
      <time>2019-09-01T11:13:47Z</time>
    </trkpt>
    <trkpt lat="50.9401431" lon="6.9738784">
      <ele>83.6</ele>
      <time>2019-09-01T11:13:50Z</time>
    </trkpt>
    <trkpt lat="50.9401176" lon="6.9741399">
      <ele>82.6</ele>
      <time>2019-09-01T11:13:51Z</time>
    </trkpt>
    <trkpt lat="50.9400949" lon="6.9746991">
      <ele>80.8</ele>
      <time>2019-09-01T11:13:56Z</time>
    </trkpt>
    <trkpt lat="50.9400444" lon="6.9754238">
      <ele>78.4</ele>
      <time>2019-09-01T11:14:01Z</time>
    </trkpt>
    <trkpt lat="50.9399562" lon="6.9763430">
      <ele>75.4</ele>
      <time>2019-09-01T11:14:07Z</time>
    </trkpt>
    <trkpt lat="50.9399244" lon="6.9768183">
      <ele>75.0</ele>
      <time>2019-09-01T11:14:10Z</time>
    </trkpt>
    <trkpt lat="50.9399166" lon="6.9773091">
      <ele>74.0</ele>
      <time>2019-09-01T11:14:13Z</time>
    </trkpt>
    <trkpt lat="50.9398572" lon="6.9779325">
      <ele>73.8</ele>
      <time>2019-09-01T11:14:17Z</time>
    </trkpt>
    <trkpt lat="50.9398292" lon="6.9783538">
      <ele>72.6</ele>
      <time>2019-09-01T11:14:20Z</time>
    </trkpt>
    <trkpt lat="50.9398431" lon="6.9786017">
      <ele>71.8</ele>
      <time>2019-09-01T11:14:22Z</time>
    </trkpt>
    <trkpt lat="50.9398514" lon="6.9787075">
      <ele>71.2</ele>
      <time>2019-09-01T11:14:23Z</time>
    </trkpt>
    <trkpt lat="50.9398505" lon="6.9788085">
      <ele>71.0</ele>
      <time>2019-09-01T11:14:24Z</time>
    </trkpt>
    <trkpt lat="50.9398643" lon="6.9788938">
      <ele>70.6</ele>
      <time>2019-09-01T11:14:25Z</time>
    </trkpt>
    <trkpt lat="50.9398856" lon="6.9789632">
      <ele>70.2</ele>
      <time>2019-09-01T11:14:26Z</time>
    </trkpt>
    <trkpt lat="50.9399612" lon="6.9791661">
      <ele>69.4</ele>
      <time>2019-09-01T11:14:29Z</time>
    </trkpt>
    <trkpt lat="50.9400011" lon="6.9792105">
      <ele>68.6</ele>
      <time>2019-09-01T11:14:30Z</time>
    </trkpt>
    <trkpt lat="50.9401126" lon="6.9793042">
      <ele>67.8</ele>
      <time>2019-09-01T11:14:31Z</time>
    </trkpt>
    <trkpt lat="50.9403617" lon="6.9795446">
      <ele>66.6</ele>
      <time>2019-09-01T11:14:36Z</time>
    </trkpt>
    <trkpt lat="50.9406112" lon="6.9797900">
      <ele>65.0</ele>
      <time>2019-09-01T11:14:40Z</time>
    </trkpt>
    <trkpt lat="50.9406549" lon="6.9798353">
      <ele>64.8</ele>
      <time>2019-09-01T11:14:41Z</time>
    </trkpt>
    <trkpt lat="50.9407341" lon="6.9798347">
      <ele>64.2</ele>
      <time>2019-09-01T11:14:42Z</time>
    </trkpt>
    <trkpt lat="50.9409335" lon="6.9796988">
      <ele>61.0</ele>
      <time>2019-09-01T11:14:47Z</time>
    </trkpt>
    <trkpt lat="50.9409788" lon="6.9796644">
      <ele>59.2</ele>
      <time>2019-09-01T11:14:48Z</time>
    </trkpt>
    <trkpt lat="50.9411525" lon="6.9799113">
      <ele>55.0</ele>
      <time>2019-09-01T11:14:56Z</time>
    </trkpt>
    <trkpt lat="50.9412414" lon="6.9799601">
      <ele>53.4</ele>
      <time>2019-09-01T11:14:58Z</time>
    </trkpt>
    <trkpt lat="50.9414626" lon="6.9801156">
      <ele>51.0</ele>
      <time>2019-09-01T11:15:02Z</time>
    </trkpt>
    <trkpt lat="50.9415831" lon="6.9801800">
      <ele>49.8</ele>
      <time>2019-09-01T11:15:04Z</time>
    </trkpt>
    <trkpt lat="50.9417093" lon="6.9802514">
      <ele>48.8</ele>
      <time>2019-09-01T11:15:06Z</time>
    </trkpt>
    <trkpt lat="50.9417695" lon="6.9803018">
      <ele>48.4</ele>
      <time>2019-09-01T11:15:07Z</time>
    </trkpt>
    <trkpt lat="50.9418843" lon="6.9804116">
      <ele>47.8</ele>
      <time>2019-09-01T11:15:09Z</time>
    </trkpt>
    <trkpt lat="50.9419392" lon="6.9804668">
      <ele>47.6</ele>
      <time>2019-09-01T11:15:10Z</time>
    </trkpt>
    <trkpt lat="50.9419960" lon="6.9805179">
      <ele>47.4</ele>
      <time>2019-09-01T11:15:11Z</time>
    </trkpt>
    <trkpt lat="50.9422466" lon="6.9807142">
      <ele>46.4</ele>
      <time>2019-09-01T11:15:15Z</time>
    </trkpt>
    <trkpt lat="50.9424578" lon="6.9808562">
      <ele>45.6</ele>
      <time>2019-09-01T11:15:18Z</time>
    </trkpt>
    <trkpt lat="50.9429598" lon="6.9811979">
      <ele>44.0</ele>
      <time>2019-09-01T11:15:26Z</time>
    </trkpt>
    <trkpt lat="50.9431532" lon="6.9812929">
      <ele>43.8</ele>
      <time>2019-09-01T11:15:29Z</time>
    </trkpt>
    <trkpt lat="50.9434364" lon="6.9814765">
      <ele>42.8</ele>
      <time>2019-09-01T11:15:34Z</time>
    </trkpt>
    <trkpt lat="50.9435384" lon="6.9815555">
      <ele>42.2</ele>
      <time>2019-09-01T11:15:36Z</time>
    </trkpt>
    <trkpt lat="50.9437453" lon="6.9817337">
      <ele>41.8</ele>
      <time>2019-09-01T11:15:40Z</time>
    </trkpt>
    <trkpt lat="50.9438016" lon="6.9817892">
      <ele>41.6</ele>
      <time>2019-09-01T11:15:41Z</time>
    </trkpt>
    <trkpt lat="50.9438603" lon="6.9818454">
      <ele>41.8</ele>
      <time>2019-09-01T11:15:42Z</time>
    </trkpt>
    <trkpt lat="50.9439173" lon="6.9819023">
      <ele>41.8</ele>
      <time>2019-09-01T11:15:43Z</time>
    </trkpt>
    <trkpt lat="50.9439682" lon="6.9819578">
      <ele>41.6</ele>
      <time>2019-09-01T11:15:44Z</time>
    </trkpt>
    <trkpt lat="50.9440208" lon="6.9820107">
      <ele>41.4</ele>
      <time>2019-09-01T11:15:45Z</time>
    </trkpt>
    <trkpt lat="50.9440768" lon="6.9820650">
      <ele>41.4</ele>
      <time>2019-09-01T11:15:46Z</time>
    </trkpt>
    <trkpt lat="50.9441276" lon="6.9821204">
      <ele>41.2</ele>
      <time>2019-09-01T11:15:47Z</time>
    </trkpt>
    <trkpt lat="50.9446127" lon="6.9826576">
      <ele>41.0</ele>
      <time>2019-09-01T11:15:56Z</time>
    </trkpt>
    <trkpt lat="50.9448602" lon="6.9829960">
      <ele>41.2</ele>
      <time>2019-09-01T11:16:01Z</time>
    </trkpt>
    <trkpt lat="50.9450827" lon="6.9833742">
      <ele>41.2</ele>
      <time>2019-09-01T11:16:06Z</time>
    </trkpt>
    <trkpt lat="50.9451554" lon="6.9835423">
      <ele>41.4</ele>
      <time>2019-09-01T11:16:08Z</time>
    </trkpt>
    <trkpt lat="50.9452483" lon="6.9836611">
      <ele>41.4</ele>
      <time>2019-09-01T11:16:10Z</time>
    </trkpt>
    <trkpt lat="50.9454691" lon="6.9838783">
      <ele>42.0</ele>
      <time>2019-09-01T11:16:15Z</time>
    </trkpt>
    <trkpt lat="50.9459681" lon="6.9843431">
      <ele>42.2</ele>
      <time>2019-09-01T11:16:25Z</time>
    </trkpt>
    <trkpt lat="50.9464923" lon="6.9847481">
      <ele>43.0</ele>
      <time>2019-09-01T11:16:33Z</time>
    </trkpt>
    <trkpt lat="50.9470174" lon="6.9851766">
      <ele>44.0</ele>
      <time>2019-09-01T11:16:41Z</time>
    </trkpt>
    <trkpt lat="50.9472222" lon="6.9853577">
      <ele>44.2</ele>
      <time>2019-09-01T11:16:44Z</time>
    </trkpt>
    <trkpt lat="50.9475394" lon="6.9857443">
      <ele>44.4</ele>
      <time>2019-09-01T11:16:49Z</time>
    </trkpt>
    <trkpt lat="50.9476593" lon="6.9858957">
      <ele>44.8</ele>
      <time>2019-09-01T11:16:51Z</time>
    </trkpt>
    <trkpt lat="50.9478872" lon="6.9859975">
      <ele>44.4</ele>
      <time>2019-09-01T11:16:54Z</time>
    </trkpt>
    <trkpt lat="50.9480339" lon="6.9861301">
      <ele>44.6</ele>
      <time>2019-09-01T11:16:56Z</time>
    </trkpt>
    <trkpt lat="50.9481023" lon="6.9861982">
      <ele>44.6</ele>
      <time>2019-09-01T11:16:57Z</time>
    </trkpt>
    <trkpt lat="50.9481749" lon="6.9862596">
      <ele>44.4</ele>
      <time>2019-09-01T11:16:58Z</time>
    </trkpt>
    <trkpt lat="50.9482494" lon="6.9863207">
      <ele>44.2</ele>
      <time>2019-09-01T11:16:59Z</time>
    </trkpt>
    <trkpt lat="50.9483921" lon="6.9864385">
      <ele>44.0</ele>
      <time>2019-09-01T11:17:01Z</time>
    </trkpt>
    <trkpt lat="50.9484633" lon="6.9864920">
      <ele>44.0</ele>
      <time>2019-09-01T11:17:02Z</time>
    </trkpt>
    <trkpt lat="50.9485334" lon="6.9865451">
      <ele>44.0</ele>
      <time>2019-09-01T11:17:03Z</time>
    </trkpt>
    <trkpt lat="50.9486710" lon="6.9866591">
      <ele>44.0</ele>
      <time>2019-09-01T11:17:05Z</time>
    </trkpt>
    <trkpt lat="50.9490927" lon="6.9869555">
      <ele>44.8</ele>
      <time>2019-09-01T11:17:11Z</time>
    </trkpt>
    <trkpt lat="50.9492975" lon="6.9871081">
      <ele>45.2</ele>
      <time>2019-09-01T11:17:14Z</time>
    </trkpt>
    <trkpt lat="50.9494895" lon="6.9872861">
      <ele>45.6</ele>
      <time>2019-09-01T11:17:17Z</time>
    </trkpt>
    <trkpt lat="50.9498672" lon="6.9876271">
      <ele>45.8</ele>
      <time>2019-09-01T11:17:23Z</time>
    </trkpt>
    <trkpt lat="50.9503452" lon="6.9880482">
      <ele>45.4</ele>
      <time>2019-09-01T11:17:32Z</time>
    </trkpt>
    <trkpt lat="50.9506573" lon="6.9883439">
      <ele>45.2</ele>
      <time>2019-09-01T11:17:38Z</time>
    </trkpt>
    <trkpt lat="50.9507797" lon="6.9884497">
      <ele>45.0</ele>
      <time>2019-09-01T11:17:40Z</time>
    </trkpt>
    <trkpt lat="50.9512964" lon="6.9889265">
      <ele>44.2</ele>
      <time>2019-09-01T11:17:48Z</time>
    </trkpt>
    <trkpt lat="50.9515253" lon="6.9891171">
      <ele>44.2</ele>
      <time>2019-09-01T11:17:52Z</time>
    </trkpt>
    <trkpt lat="50.9517234" lon="6.9892890">
      <ele>44.2</ele>
      <time>2019-09-01T11:17:56Z</time>
    </trkpt>
    <trkpt lat="50.9517596" lon="6.9893145">
      <ele>44.4</ele>
      <time>2019-09-01T11:17:57Z</time>
    </trkpt>
    <trkpt lat="50.9517838" lon="6.9893973">
      <ele>45.0</ele>
      <time>2019-09-01T11:17:59Z</time>
    </trkpt>
    <trkpt lat="50.9517575" lon="6.9895032">
      <ele>45.0</ele>
      <time>2019-09-01T11:18:01Z</time>
    </trkpt>
    <trkpt lat="50.9516630" lon="6.9900294">
      <ele>45.6</ele>
      <time>2019-09-01T11:18:10Z</time>
    </trkpt>
    <trkpt lat="50.9517665" lon="6.9901615">
      <ele>46.2</ele>
      <time>2019-09-01T11:18:13Z</time>
    </trkpt>
    <trkpt lat="50.9519618" lon="6.9903420">
      <ele>46.8</ele>
      <time>2019-09-01T11:18:18Z</time>
    </trkpt>
    <trkpt lat="50.9520600" lon="6.9904394">
      <ele>47.0</ele>
      <time>2019-09-01T11:18:20Z</time>
    </trkpt>
    <trkpt lat="50.9520839" lon="6.9906079">
      <ele>47.2</ele>
      <time>2019-09-01T11:18:22Z</time>
    </trkpt>
    <trkpt lat="50.9520445" lon="6.9907850">
      <ele>47.6</ele>
      <time>2019-09-01T11:18:24Z</time>
    </trkpt>
    <trkpt lat="50.9518938" lon="6.9916355">
      <ele>47.8</ele>
      <time>2019-09-01T11:18:33Z</time>
    </trkpt>
    <trkpt lat="50.9519793" lon="6.9918081">
      <ele>48.4</ele>
      <time>2019-09-01T11:18:37Z</time>
    </trkpt>
    <trkpt lat="50.9520826" lon="6.9918660">
      <ele>48.8</ele>
      <time>2019-09-01T11:18:39Z</time>
    </trkpt>
    <trkpt lat="50.9524961" lon="6.9921764">
      <ele>49.8</ele>
      <time>2019-09-01T11:18:51Z</time>
    </trkpt>
    <trkpt lat="50.9525044" lon="6.9926968">
      <ele>50.0</ele>
      <time>2019-09-01T11:19:03Z</time>
    </trkpt>
    <trkpt lat="50.9524610" lon="6.9926875">
      <ele>50.4</ele>
      <time>2019-09-01T11:19:05Z</time>
    </trkpt>
    <trkpt lat="50.9521495" lon="6.9925970">
      <ele>51.8</ele>
      <time>2019-09-01T11:19:14Z</time>
    </trkpt>
    <trkpt lat="50.9521020" lon="6.9925822">
      <ele>52.6</ele>
      <time>2019-09-01T11:19:18Z</time>
    </trkpt>
  </trkseg></trk>
</gpx>
