<?xml version="1.0" encoding="UTF-8"?>
<gpx version="1.1" creator="Diary FIT converter" xmlns="http://www.topografix.com/GPX/1/1">
  <trk><name>Running</name><trkseg>
    <trkpt lat="67.7992264" lon="24.8750317">
      <time>2025-03-27T10:15:21Z</time>
    </trkpt>
    <trkpt lat="67.7992264" lon="24.8750317">
      <time>2025-03-27T10:15:22Z</time>
    </trkpt>
    <trkpt lat="67.7988056" lon="24.8759288">
      <time>2025-03-27T10:15:44Z</time>
    </trkpt>
    <trkpt lat="67.7987592" lon="24.8759753">
      <time>2025-03-27T10:15:46Z</time>
    </trkpt>
    <trkpt lat="67.7986880" lon="24.8759955">
      <time>2025-03-27T10:15:49Z</time>
    </trkpt>
    <trkpt lat="67.7986662" lon="24.8759878">
      <time>2025-03-27T10:15:50Z</time>
    </trkpt>
    <trkpt lat="67.7986458" lon="24.8759699">
      <time>2025-03-27T10:15:51Z</time>
    </trkpt>
    <trkpt lat="67.7985828" lon="24.8758831">
      <time>2025-03-27T10:15:54Z</time>
    </trkpt>
    <trkpt lat="67.7985102" lon="24.8756965">
      <time>2025-03-27T10:15:58Z</time>
    </trkpt>
    <trkpt lat="67.7984920" lon="24.8755711">
      <time>2025-03-27T10:16:00Z</time>
    </trkpt>
    <trkpt lat="67.7984914" lon="24.8755107">
      <time>2025-03-27T10:16:01Z</time>
    </trkpt>
    <trkpt lat="67.7985019" lon="24.8753888">
      <time>2025-03-27T10:16:03Z</time>
    </trkpt>
    <trkpt lat="67.7985094" lon="24.8753333">
      <time>2025-03-27T10:16:04Z</time>
    </trkpt>
    <trkpt lat="67.7986148" lon="24.8748910">
      <time>2025-03-27T10:16:11Z</time>
    </trkpt>
    <trkpt lat="67.7987004" lon="24.8744897">
      <time>2025-03-27T10:16:18Z</time>
    </trkpt>
    <trkpt lat="67.7987978" lon="24.8740624">
      <time>2025-03-27T10:16:25Z</time>
    </trkpt>
    <trkpt lat="67.7988210" lon="24.8739423">
      <time>2025-03-27T10:16:27Z</time>
    </trkpt>
    <trkpt lat="67.7989373" lon="24.8735238">
      <time>2025-03-27T10:16:35Z</time>
    </trkpt>
    <trkpt lat="67.7990009" lon="24.8733889">
      <time>2025-03-27T10:16:38Z</time>
    </trkpt>
    <trkpt lat="67.7990239" lon="24.8733524">
      <time>2025-03-27T10:16:39Z</time>
    </trkpt>
    <trkpt lat="67.7991013" lon="24.8732291">
      <time>2025-03-27T10:16:42Z</time>
    </trkpt>
    <trkpt lat="67.7991293" lon="24.8731843">
      <time>2025-03-27T10:16:43Z</time>
    </trkpt>
    <trkpt lat="67.7992714" lon="24.8728576">
      <time>2025-03-27T10:16:49Z</time>
    </trkpt>
    <trkpt lat="67.7993199" lon="24.8725243">
      <time>2025-03-27T10:16:54Z</time>
    </trkpt>
    <trkpt lat="67.7993353" lon="24.8723952">
      <time>2025-03-27T10:16:56Z</time>
    </trkpt>
    <trkpt lat="67.7993474" lon="24.8720485">
      <time>2025-03-27T10:17:01Z</time>
    </trkpt>
    <trkpt lat="67.7993479" lon="24.8717902">
      <time>2025-03-27T10:17:05Z</time>
    </trkpt>
    <trkpt lat="67.7993458" lon="24.8716606">
      <time>2025-03-27T10:17:07Z</time>
    </trkpt>
    <trkpt lat="67.7993387" lon="24.8715386">
      <time>2025-03-27T10:17:09Z</time>
    </trkpt>
    <trkpt lat="67.7993006" lon="24.8711815">
      <time>2025-03-27T10:17:15Z</time>
    </trkpt>
    <trkpt lat="67.7992682" lon="24.8710287">
      <time>2025-03-27T10:17:18Z</time>
    </trkpt>
    <trkpt lat="67.7992477" lon="24.8709409">
      <time>2025-03-27T10:17:20Z</time>
    </trkpt>
    <trkpt lat="67.7992260" lon="24.8707991">
      <time>2025-03-27T10:17:23Z</time>
    </trkpt>
    <trkpt lat="67.7991803" lon="24.8705906">
      <time>2025-03-27T10:17:28Z</time>
    </trkpt>
    <trkpt lat="67.7991393" lon="24.8704062">
      <time>2025-03-27T10:17:32Z</time>
    </trkpt>
    <trkpt lat="67.7991156" lon="24.8702384">
      <time>2025-03-27T10:17:35Z</time>
    </trkpt>
    <trkpt lat="67.7991071" lon="24.8701060">
      <time>2025-03-27T10:17:37Z</time>
    </trkpt>
    <trkpt lat="67.7991092" lon="24.8697238">
      <time>2025-03-27T10:17:44Z</time>
    </trkpt>
    <trkpt lat="67.7991611" lon="24.8694131">
      <time>2025-03-27T10:17:51Z</time>
    </trkpt>
    <trkpt lat="67.7992132" lon="24.8691345">
      <time>2025-03-27T10:17:57Z</time>
    </trkpt>
    <trkpt lat="67.7992289" lon="24.8690415">
      <time>2025-03-27T10:17:59Z</time>
    </trkpt>
    <trkpt lat="67.7992588" lon="24.8689047">
      <time>2025-03-27T10:18:02Z</time>
    </trkpt>
    <trkpt lat="67.7992864" lon="24.8687574">
      <time>2025-03-27T10:18:05Z</time>
    </trkpt>
    <trkpt lat="67.7993026" lon="24.8686570">
      <time>2025-03-27T10:18:07Z</time>
    </trkpt>
    <trkpt lat="67.7993435" lon="24.8684859">
      <time>2025-03-27T10:18:11Z</time>
    </trkpt>
    <trkpt lat="67.7993543" lon="24.8684381">
      <time>2025-03-27T10:18:12Z</time>
    </trkpt>
    <trkpt lat="67.7993859" lon="24.8683253">
      <time>2025-03-27T10:18:14Z</time>
    </trkpt>
    <trkpt lat="67.7994126" lon="24.8681994">
      <time>2025-03-27T10:18:16Z</time>
    </trkpt>
    <trkpt lat="67.7994543" lon="24.8680566">
      <time>2025-03-27T10:18:18Z</time>
    </trkpt>
    <trkpt lat="67.7994779" lon="24.8679849">
      <time>2025-03-27T10:18:19Z</time>
    </trkpt>
    <trkpt lat="67.7995693" lon="24.8676287">
      <time>2025-03-27T10:18:23Z</time>
    </trkpt>
    <trkpt lat="67.7995885" lon="24.8674288">
      <time>2025-03-27T10:18:25Z</time>
    </trkpt>
    <trkpt lat="67.7996007" lon="24.8672987">
      <time>2025-03-27T10:18:26Z</time>
    </trkpt>
    <trkpt lat="67.7996134" lon="24.8672047">
      <time>2025-03-27T10:18:27Z</time>
    </trkpt>
    <trkpt lat="67.7996389" lon="24.8670536">
      <time>2025-03-27T10:18:29Z</time>
    </trkpt>
    <trkpt lat="67.7996547" lon="24.8669278">
      <time>2025-03-27T10:18:31Z</time>
    </trkpt>
    <trkpt lat="67.7996787" lon="24.8665766">
      <time>2025-03-27T10:18:37Z</time>
    </trkpt>
    <trkpt lat="67.7996879" lon="24.8664456">
      <time>2025-03-27T10:18:39Z</time>
    </trkpt>
    <trkpt lat="67.7996972" lon="24.8663227">
      <time>2025-03-27T10:18:41Z</time>
    </trkpt>
    <trkpt lat="67.7997039" lon="24.8661959">
      <time>2025-03-27T10:18:43Z</time>
    </trkpt>
    <trkpt lat="67.7997077" lon="24.8661245">
      <time>2025-03-27T10:18:44Z</time>
    </trkpt>
    <trkpt lat="67.7997417" lon="24.8657449">
      <time>2025-03-27T10:18:48Z</time>
    </trkpt>
    <trkpt lat="67.7997748" lon="24.8652559">
      <time>2025-03-27T10:18:52Z</time>
    </trkpt>
    <trkpt lat="67.7997844" lon="24.8651409">
      <time>2025-03-27T10:18:53Z</time>
    </trkpt>
    <trkpt lat="67.7997893" lon="24.8650315">
      <time>2025-03-27T10:18:54Z</time>
    </trkpt>
    <trkpt lat="67.7998055" lon="24.8647496">
      <time>2025-03-27T10:18:57Z</time>
    </trkpt>
    <trkpt lat="67.7998099" lon="24.8646755">
      <time>2025-03-27T10:18:58Z</time>
    </trkpt>
    <trkpt lat="67.7998378" lon="24.8643155">
      <time>2025-03-27T10:19:04Z</time>
    </trkpt>
    <trkpt lat="67.7998504" lon="24.8639730">
      <time>2025-03-27T10:19:10Z</time>
    </trkpt>
    <trkpt lat="67.7998628" lon="24.8638322">
      <time>2025-03-27T10:19:13Z</time>
    </trkpt>
    <trkpt lat="67.7999316" lon="24.8634296">
      <time>2025-03-27T10:19:21Z</time>
    </trkpt>
    <trkpt lat="67.8000257" lon="24.8630912">
      <time>2025-03-27T10:19:26Z</time>
    </trkpt>
    <trkpt lat="67.8000668" lon="24.8629417">
      <time>2025-03-27T10:19:28Z</time>
    </trkpt>
    <trkpt lat="67.8001535" lon="24.8625416">
      <time>2025-03-27T10:19:33Z</time>
    </trkpt>
    <trkpt lat="67.8002029" lon="24.8622818">
      <time>2025-03-27T10:19:36Z</time>
    </trkpt>
    <trkpt lat="67.8002166" lon="24.8622071">
      <time>2025-03-27T10:19:37Z</time>
    </trkpt>
    <trkpt lat="67.8002408" lon="24.8619973">
      <time>2025-03-27T10:19:40Z</time>
    </trkpt>
    <trkpt lat="67.8002654" lon="24.8617624">
      <time>2025-03-27T10:19:44Z</time>
    </trkpt>
    <trkpt lat="67.8002719" lon="24.8617041">
      <time>2025-03-27T10:19:45Z</time>
    </trkpt>
    <trkpt lat="67.8002767" lon="24.8616511">
      <time>2025-03-27T10:19:46Z</time>
    </trkpt>
    <trkpt lat="67.8002972" lon="24.8612239">
      <time>2025-03-27T10:19:54Z</time>
    </trkpt>
    <trkpt lat="67.8003377" lon="24.8608922">
      <time>2025-03-27T10:20:00Z</time>
    </trkpt>
    <trkpt lat="67.8004274" lon="24.8605963">
      <time>2025-03-27T10:20:06Z</time>
    </trkpt>
    <trkpt lat="67.8005911" lon="24.8603601">
      <time>2025-03-27T10:20:13Z</time>
    </trkpt>
    <trkpt lat="67.8006391" lon="24.8602977">
      <time>2025-03-27T10:20:15Z</time>
    </trkpt>
    <trkpt lat="67.8007745" lon="24.8600981">
      <time>2025-03-27T10:20:21Z</time>
    </trkpt>
    <trkpt lat="67.8008727" lon="24.8598278">
      <time>2025-03-27T10:20:27Z</time>
    </trkpt>
    <trkpt lat="67.8009247" lon="24.8595467">
      <time>2025-03-27T10:20:32Z</time>
    </trkpt>
    <trkpt lat="67.8009328" lon="24.8594964">
      <time>2025-03-27T10:20:33Z</time>
    </trkpt>
    <trkpt lat="67.8009576" lon="24.8592402">
      <time>2025-03-27T10:20:38Z</time>
    </trkpt>
    <trkpt lat="67.8009630" lon="24.8591286">
      <time>2025-03-27T10:20:40Z</time>
    </trkpt>
    <trkpt lat="67.8009875" lon="24.8589577">
      <time>2025-03-27T10:20:43Z</time>
    </trkpt>
    <trkpt lat="67.8010122" lon="24.8588372">
      <time>2025-03-27T10:20:45Z</time>
    </trkpt>
    <trkpt lat="67.8010312" lon="24.8587036">
      <time>2025-03-27T10:20:47Z</time>
    </trkpt>
    <trkpt lat="67.8010401" lon="24.8586298">
      <time>2025-03-27T10:20:48Z</time>
    </trkpt>
    <trkpt lat="67.8011181" lon="24.8582398">
      <time>2025-03-27T10:20:54Z</time>
    </trkpt>
    <trkpt lat="67.8012272" lon="24.8577958">
      <time>2025-03-27T10:21:02Z</time>
    </trkpt>
    <trkpt lat="67.8012430" lon="24.8577065">
      <time>2025-03-27T10:21:04Z</time>
    </trkpt>
    <trkpt lat="67.8012671" lon="24.8576269">
      <time>2025-03-27T10:21:06Z</time>
    </trkpt>
    <trkpt lat="67.8012775" lon="24.8575864">
      <time>2025-03-27T10:21:07Z</time>
    </trkpt>
    <trkpt lat="67.8013327" lon="24.8573819">
      <time>2025-03-27T10:21:12Z</time>
    </trkpt>
    <trkpt lat="67.8014264" lon="24.8570822">
      <time>2025-03-27T10:21:19Z</time>
    </trkpt>
    <trkpt lat="67.8015099" lon="24.8567838">
      <time>2025-03-27T10:21:25Z</time>
    </trkpt>
    <trkpt lat="67.8016012" lon="24.8565027">
      <time>2025-03-27T10:21:31Z</time>
    </trkpt>
    <trkpt lat="67.8016287" lon="24.8564412">
      <time>2025-03-27T10:21:33Z</time>
    </trkpt>
    <trkpt lat="67.8016711" lon="24.8563293">
      <time>2025-03-27T10:21:36Z</time>
    </trkpt>
    <trkpt lat="67.8017459" lon="24.8560709">
      <time>2025-03-27T10:21:41Z</time>
    </trkpt>
    <trkpt lat="67.8017576" lon="24.8560084">
      <time>2025-03-27T10:21:42Z</time>
    </trkpt>
    <trkpt lat="67.8017775" lon="24.8558729">
      <time>2025-03-27T10:21:44Z</time>
    </trkpt>
    <trkpt lat="67.8017867" lon="24.8558138">
      <time>2025-03-27T10:21:45Z</time>
    </trkpt>
    <trkpt lat="67.8018068" lon="24.8556304">
      <time>2025-03-27T10:21:48Z</time>
    </trkpt>
    <trkpt lat="67.8018199" lon="24.8555273">
      <time>2025-03-27T10:21:50Z</time>
    </trkpt>
    <trkpt lat="67.8018378" lon="24.8554117">
      <time>2025-03-27T10:21:52Z</time>
    </trkpt>
    <trkpt lat="67.8018711" lon="24.8551778">
      <time>2025-03-27T10:21:56Z</time>
    </trkpt>
    <trkpt lat="67.8018921" lon="24.8550441">
      <time>2025-03-27T10:21:59Z</time>
    </trkpt>
    <trkpt lat="67.8019140" lon="24.8549157">
      <time>2025-03-27T10:22:02Z</time>
    </trkpt>
    <trkpt lat="67.8019488" lon="24.8547561">
      <time>2025-03-27T10:22:05Z</time>
    </trkpt>
    <trkpt lat="67.8020015" lon="24.8546465">
      <time>2025-03-27T10:22:08Z</time>
    </trkpt>
    <trkpt lat="67.8020248" lon="24.8546491">
      <time>2025-03-27T10:22:09Z</time>
    </trkpt>
    <trkpt lat="67.8020887" lon="24.8547523">
      <time>2025-03-27T10:22:12Z</time>
    </trkpt>
    <trkpt lat="67.8021481" lon="24.8549712">
      <time>2025-03-27T10:22:15Z</time>
    </trkpt>
    <trkpt lat="67.8021824" lon="24.8551726">
      <time>2025-03-27T10:22:17Z</time>
    </trkpt>
    <trkpt lat="67.8022114" lon="24.8553719">
      <time>2025-03-27T10:22:19Z</time>
    </trkpt>
    <trkpt lat="67.8022374" lon="24.8555595">
      <time>2025-03-27T10:22:21Z</time>
    </trkpt>
    <trkpt lat="67.8022586" lon="24.8556307">
      <time>2025-03-27T10:22:22Z</time>
    </trkpt>
    <trkpt lat="67.8023571" lon="24.8558101">
      <time>2025-03-27T10:22:26Z</time>
    </trkpt>
    <trkpt lat="67.8024673" lon="24.8559930">
      <time>2025-03-27T10:22:30Z</time>
    </trkpt>
    <trkpt lat="67.8024974" lon="24.8560604">
      <time>2025-03-27T10:22:31Z</time>
    </trkpt>
    <trkpt lat="67.8026767" lon="24.8564089">
      <time>2025-03-27T10:22:36Z</time>
    </trkpt>
    <trkpt lat="67.8027662" lon="24.8565842">
      <time>2025-03-27T10:22:39Z</time>
    </trkpt>
    <trkpt lat="67.8028327" lon="24.8566602">
      <time>2025-03-27T10:22:41Z</time>
    </trkpt>
    <trkpt lat="67.8030120" lon="24.8567691">
      <time>2025-03-27T10:22:45Z</time>
    </trkpt>
    <trkpt lat="67.8030983" lon="24.8568270">
      <time>2025-03-27T10:22:47Z</time>
    </trkpt>
    <trkpt lat="67.8032597" lon="24.8570950">
      <time>2025-03-27T10:22:51Z</time>
    </trkpt>
    <trkpt lat="67.8033014" lon="24.8571915">
      <time>2025-03-27T10:22:52Z</time>
    </trkpt>
    <trkpt lat="67.8034728" lon="24.8575493">
      <time>2025-03-27T10:22:56Z</time>
    </trkpt>
    <trkpt lat="67.8035190" lon="24.8576232">
      <time>2025-03-27T10:22:57Z</time>
    </trkpt>
    <trkpt lat="67.8036456" lon="24.8578050">
      <time>2025-03-27T10:23:00Z</time>
    </trkpt>
    <trkpt lat="67.8037934" lon="24.8579268">
      <time>2025-03-27T10:23:03Z</time>
    </trkpt>
    <trkpt lat="67.8038955" lon="24.8579343">
      <time>2025-03-27T10:23:05Z</time>
    </trkpt>
    <trkpt lat="67.8040504" lon="24.8578586">
      <time>2025-03-27T10:23:08Z</time>
    </trkpt>
    <trkpt lat="67.8041945" lon="24.8578337">
      <time>2025-03-27T10:23:11Z</time>
    </trkpt>
    <trkpt lat="67.8042860" lon="24.8578682">
      <time>2025-03-27T10:23:13Z</time>
    </trkpt>
    <trkpt lat="67.8043273" lon="24.8578937">
      <time>2025-03-27T10:23:14Z</time>
    </trkpt>
    <trkpt lat="67.8044021" lon="24.8579657">
      <time>2025-03-27T10:23:16Z</time>
    </trkpt>
    <trkpt lat="67.8044648" lon="24.8580521">
      <time>2025-03-27T10:23:18Z</time>
    </trkpt>
    <trkpt lat="67.8044921" lon="24.8581021">
      <time>2025-03-27T10:23:19Z</time>
    </trkpt>
    <trkpt lat="67.8046528" lon="24.8583784">
      <time>2025-03-27T10:23:25Z</time>
    </trkpt>
    <trkpt lat="67.8046789" lon="24.8584321">
      <time>2025-03-27T10:23:26Z</time>
    </trkpt>
    <trkpt lat="67.8047935" lon="24.8588425">
      <time>2025-03-27T10:23:31Z</time>
    </trkpt>
    <trkpt lat="67.8048036" lon="24.8589344">
      <time>2025-03-27T10:23:32Z</time>
    </trkpt>
    <trkpt lat="67.8048392" lon="24.8594062">
      <time>2025-03-27T10:23:37Z</time>
    </trkpt>
    <trkpt lat="67.8048732" lon="24.8596187">
      <time>2025-03-27T10:23:39Z</time>
    </trkpt>
    <trkpt lat="67.8050009" lon="24.8601015">
      <time>2025-03-27T10:23:44Z</time>
    </trkpt>
    <trkpt lat="67.8051154" lon="24.8604969">
      <time>2025-03-27T10:23:49Z</time>
    </trkpt>
    <trkpt lat="67.8051525" lon="24.8606215">
      <time>2025-03-27T10:23:51Z</time>
    </trkpt>
    <trkpt lat="67.8052552" lon="24.8610076">
      <time>2025-03-27T10:23:57Z</time>
    </trkpt>
    <trkpt lat="67.8053393" lon="24.8614164">
      <time>2025-03-27T10:24:03Z</time>
    </trkpt>
    <trkpt lat="67.8053800" lon="24.8616390">
      <time>2025-03-27T10:24:06Z</time>
    </trkpt>
    <trkpt lat="67.8054189" lon="24.8618818">
      <time>2025-03-27T10:24:09Z</time>
    </trkpt>
    <trkpt lat="67.8055013" lon="24.8622872">
      <time>2025-03-27T10:24:14Z</time>
    </trkpt>
    <trkpt lat="67.8055345" lon="24.8624416">
      <time>2025-03-27T10:24:16Z</time>
    </trkpt>
    <trkpt lat="67.8056295" lon="24.8628309">
      <time>2025-03-27T10:24:22Z</time>
    </trkpt>
    <trkpt lat="67.8057099" lon="24.8630813">
      <time>2025-03-27T10:24:27Z</time>
    </trkpt>
    <trkpt lat="67.8057807" lon="24.8634497">
      <time>2025-03-27T10:24:33Z</time>
    </trkpt>
    <trkpt lat="67.8058285" lon="24.8638547">
      <time>2025-03-27T10:24:40Z</time>
    </trkpt>
    <trkpt lat="67.8058374" lon="24.8639129">
      <time>2025-03-27T10:24:41Z</time>
    </trkpt>
    <trkpt lat="67.8058701" lon="24.8642071">
      <time>2025-03-27T10:24:45Z</time>
    </trkpt>
    <trkpt lat="67.8059313" lon="24.8646588">
      <time>2025-03-27T10:24:50Z</time>
    </trkpt>
    <trkpt lat="67.8059651" lon="24.8650762">
      <time>2025-03-27T10:24:55Z</time>
    </trkpt>
    <trkpt lat="67.8059820" lon="24.8654328">
      <time>2025-03-27T10:25:00Z</time>
    </trkpt>
    <trkpt lat="67.8059939" lon="24.8659279">
      <time>2025-03-27T10:25:07Z</time>
    </trkpt>
    <trkpt lat="67.8060008" lon="24.8659927">
      <time>2025-03-27T10:25:08Z</time>
    </trkpt>
    <trkpt lat="67.8060204" lon="24.8661027">
      <time>2025-03-27T10:25:10Z</time>
    </trkpt>
    <trkpt lat="67.8060659" lon="24.8662337">
      <time>2025-03-27T10:25:13Z</time>
    </trkpt>
    <trkpt lat="67.8062096" lon="24.8663828">
      <time>2025-03-27T10:25:19Z</time>
    </trkpt>
    <trkpt lat="67.8062494" lon="24.8666325">
      <time>2025-03-27T10:25:23Z</time>
    </trkpt>
    <trkpt lat="67.8063045" lon="24.8670162">
      <time>2025-03-27T10:25:29Z</time>
    </trkpt>
    <trkpt lat="67.8063312" lon="24.8670487">
      <time>2025-03-27T10:25:30Z</time>
    </trkpt>
    <trkpt lat="67.8064852" lon="24.8672603">
      <time>2025-03-27T10:25:36Z</time>
    </trkpt>
    <trkpt lat="67.8066555" lon="24.8674727">
      <time>2025-03-27T10:25:42Z</time>
    </trkpt>
    <trkpt lat="67.8067076" lon="24.8675412">
      <time>2025-03-27T10:25:44Z</time>
    </trkpt>
    <trkpt lat="67.8068477" lon="24.8677195">
      <time>2025-03-27T10:25:50Z</time>
    </trkpt>
    <trkpt lat="67.8068962" lon="24.8677807">
      <time>2025-03-27T10:25:52Z</time>
    </trkpt>
    <trkpt lat="67.8070636" lon="24.8680094">
      <time>2025-03-27T10:25:59Z</time>
    </trkpt>
    <trkpt lat="67.8071054" lon="24.8680477">
      <time>2025-03-27T10:26:01Z</time>
    </trkpt>
    <trkpt lat="67.8072206" lon="24.8681259">
      <time>2025-03-27T10:26:07Z</time>
    </trkpt>
    <trkpt lat="67.8073656" lon="24.8682763">
      <time>2025-03-27T10:26:13Z</time>
    </trkpt>
    <trkpt lat="67.8074992" lon="24.8684776">
      <time>2025-03-27T10:26:19Z</time>
    </trkpt>
    <trkpt lat="67.8075879" lon="24.8686155">
      <time>2025-03-27T10:26:23Z</time>
    </trkpt>
    <trkpt lat="67.8076086" lon="24.8686616">
      <time>2025-03-27T10:26:24Z</time>
    </trkpt>
    <trkpt lat="67.8077357" lon="24.8689117">
      <time>2025-03-27T10:26:30Z</time>
    </trkpt>
    <trkpt lat="67.8078724" lon="24.8692436">
      <time>2025-03-27T10:26:37Z</time>
    </trkpt>
    <trkpt lat="67.8078869" lon="24.8692961">
      <time>2025-03-27T10:26:38Z</time>
    </trkpt>
    <trkpt lat="67.8079945" lon="24.8696307">
      <time>2025-03-27T10:26:45Z</time>
    </trkpt>
    <trkpt lat="67.8080126" lon="24.8696723">
      <time>2025-03-27T10:26:46Z</time>
    </trkpt>
    <trkpt lat="67.8081463" lon="24.8700335">
      <time>2025-03-27T10:26:53Z</time>
    </trkpt>
    <trkpt lat="67.8082442" lon="24.8702896">
      <time>2025-03-27T10:26:58Z</time>
    </trkpt>
    <trkpt lat="67.8083788" lon="24.8705765">
      <time>2025-03-27T10:27:04Z</time>
    </trkpt>
    <trkpt lat="67.8085050" lon="24.8709860">
      <time>2025-03-27T10:27:11Z</time>
    </trkpt>
    <trkpt lat="67.8086585" lon="24.8712635">
      <time>2025-03-27T10:27:17Z</time>
    </trkpt>
    <trkpt lat="67.8087729" lon="24.8714884">
      <time>2025-03-27T10:27:22Z</time>
    </trkpt>
    <trkpt lat="67.8089072" lon="24.8717515">
      <time>2025-03-27T10:27:28Z</time>
    </trkpt>
    <trkpt lat="67.8090684" lon="24.8719715">
      <time>2025-03-27T10:27:35Z</time>
    </trkpt>
    <trkpt lat="67.8092118" lon="24.8720964">
      <time>2025-03-27T10:27:41Z</time>
    </trkpt>
    <trkpt lat="67.8093849" lon="24.8723042">
      <time>2025-03-27T10:27:48Z</time>
    </trkpt>
    <trkpt lat="67.8095475" lon="24.8725053">
      <time>2025-03-27T10:27:54Z</time>
    </trkpt>
    <trkpt lat="67.8095890" lon="24.8725905">
      <time>2025-03-27T10:27:56Z</time>
    </trkpt>
    <trkpt lat="67.8096879" lon="24.8727710">
      <time>2025-03-27T10:28:00Z</time>
    </trkpt>
    <trkpt lat="67.8097453" lon="24.8728815">
      <time>2025-03-27T10:28:03Z</time>
    </trkpt>
    <trkpt lat="67.8098431" lon="24.8730775">
      <time>2025-03-27T10:28:08Z</time>
    </trkpt>
    <trkpt lat="67.8098591" lon="24.8731184">
      <time>2025-03-27T10:28:09Z</time>
    </trkpt>
    <trkpt lat="67.8099550" lon="24.8732217">
      <time>2025-03-27T10:28:14Z</time>
    </trkpt>
    <trkpt lat="67.8100462" lon="24.8731713">
      <time>2025-03-27T10:28:18Z</time>
    </trkpt>
    <trkpt lat="67.8100912" lon="24.8731169">
      <time>2025-03-27T10:28:20Z</time>
    </trkpt>
    <trkpt lat="67.8102384" lon="24.8727828">
      <time>2025-03-27T10:28:28Z</time>
    </trkpt>
    <trkpt lat="67.8103156" lon="24.8725455">
      <time>2025-03-27T10:28:34Z</time>
    </trkpt>
    <trkpt lat="67.8104478" lon="24.8723301">
      <time>2025-03-27T10:28:42Z</time>
    </trkpt>
    <trkpt lat="67.8106018" lon="24.8721808">
      <time>2025-03-27T10:28:50Z</time>
    </trkpt>
    <trkpt lat="67.8107493" lon="24.8719803">
      <time>2025-03-27T10:28:58Z</time>
    </trkpt>
    <trkpt lat="67.8107843" lon="24.8719197">
      <time>2025-03-27T10:29:00Z</time>
    </trkpt>
    <trkpt lat="67.8109107" lon="24.8717439">
      <time>2025-03-27T10:29:06Z</time>
    </trkpt>
    <trkpt lat="67.8109931" lon="24.8716913">
      <time>2025-03-27T10:29:10Z</time>
    </trkpt>
    <trkpt lat="67.8110150" lon="24.8716914">
      <time>2025-03-27T10:29:11Z</time>
    </trkpt>
    <trkpt lat="67.8111448" lon="24.8716764">
      <time>2025-03-27T10:29:18Z</time>
    </trkpt>
    <trkpt lat="67.8112669" lon="24.8716443">
      <time>2025-03-27T10:29:25Z</time>
    </trkpt>
    <trkpt lat="67.8113025" lon="24.8716401">
      <time>2025-03-27T10:29:27Z</time>
    </trkpt>
    <trkpt lat="67.8114106" lon="24.8716893">
      <time>2025-03-27T10:29:33Z</time>
    </trkpt>
    <trkpt lat="67.8115448" lon="24.8716499">
      <time>2025-03-27T10:29:38Z</time>
    </trkpt>
    <trkpt lat="67.8117219" lon="24.8714711">
      <time>2025-03-27T10:29:44Z</time>
    </trkpt>
    <trkpt lat="67.8119008" lon="24.8712535">
      <time>2025-03-27T10:29:50Z</time>
    </trkpt>
    <trkpt lat="67.8119699" lon="24.8711913">
      <time>2025-03-27T10:29:52Z</time>
    </trkpt>
    <trkpt lat="67.8120653" lon="24.8710919">
      <time>2025-03-27T10:29:55Z</time>
    </trkpt>
    <trkpt lat="67.8122630" lon="24.8709428">
      <time>2025-03-27T10:30:01Z</time>
    </trkpt>
    <trkpt lat="67.8124465" lon="24.8708626">
      <time>2025-03-27T10:30:06Z</time>
    </trkpt>
    <trkpt lat="67.8124856" lon="24.8708147">
      <time>2025-03-27T10:30:07Z</time>
    </trkpt>
    <trkpt lat="67.8126500" lon="24.8704783">
      <time>2025-03-27T10:30:13Z</time>
    </trkpt>
    <trkpt lat="67.8127026" lon="24.8703887">
      <time>2025-03-27T10:30:15Z</time>
    </trkpt>
    <trkpt lat="67.8128621" lon="24.8701014">
      <time>2025-03-27T10:30:20Z</time>
    </trkpt>
    <trkpt lat="67.8129044" lon="24.8700304">
      <time>2025-03-27T10:30:21Z</time>
    </trkpt>
    <trkpt lat="67.8130833" lon="24.8697214">
      <time>2025-03-27T10:30:25Z</time>
    </trkpt>
    <trkpt lat="67.8131236" lon="24.8696514">
      <time>2025-03-27T10:30:26Z</time>
    </trkpt>
    <trkpt lat="67.8132305" lon="24.8694845">
      <time>2025-03-27T10:30:29Z</time>
    </trkpt>
    <trkpt lat="67.8132901" lon="24.8693702">
      <time>2025-03-27T10:30:31Z</time>
    </trkpt>
    <trkpt lat="67.8134377" lon="24.8690241">
      <time>2025-03-27T10:30:37Z</time>
    </trkpt>
    <trkpt lat="67.8135198" lon="24.8688442">
      <time>2025-03-27T10:30:39Z</time>
    </trkpt>
    <trkpt lat="67.8135947" lon="24.8686823">
      <time>2025-03-27T10:30:41Z</time>
    </trkpt>
    <trkpt lat="67.8136671" lon="24.8685338">
      <time>2025-03-27T10:30:43Z</time>
    </trkpt>
    <trkpt lat="67.8137035" lon="24.8684613">
      <time>2025-03-27T10:30:44Z</time>
    </trkpt>
    <trkpt lat="67.8137346" lon="24.8683745">
      <time>2025-03-27T10:30:45Z</time>
    </trkpt>
    <trkpt lat="67.8137822" lon="24.8681953">
      <time>2025-03-27T10:30:47Z</time>
    </trkpt>
    <trkpt lat="67.8138289" lon="24.8680133">
      <time>2025-03-27T10:30:49Z</time>
    </trkpt>
    <trkpt lat="67.8138556" lon="24.8679322">
      <time>2025-03-27T10:30:50Z</time>
    </trkpt>
    <trkpt lat="67.8138973" lon="24.8677194">
      <time>2025-03-27T10:30:52Z</time>
    </trkpt>
    <trkpt lat="67.8139124" lon="24.8676220">
      <time>2025-03-27T10:30:53Z</time>
    </trkpt>
    <trkpt lat="67.8139365" lon="24.8674510">
      <time>2025-03-27T10:30:55Z</time>
    </trkpt>
    <trkpt lat="67.8139780" lon="24.8670889">
      <time>2025-03-27T10:30:59Z</time>
    </trkpt>
    <trkpt lat="67.8140158" lon="24.8666105">
      <time>2025-03-27T10:31:04Z</time>
    </trkpt>
    <trkpt lat="67.8140431" lon="24.8663559">
      <time>2025-03-27T10:31:07Z</time>
    </trkpt>
    <trkpt lat="67.8141272" lon="24.8658663">
      <time>2025-03-27T10:31:13Z</time>
    </trkpt>
    <trkpt lat="67.8141464" lon="24.8656929">
      <time>2025-03-27T10:31:15Z</time>
    </trkpt>
    <trkpt lat="67.8141732" lon="24.8652602">
      <time>2025-03-27T10:31:20Z</time>
    </trkpt>
    <trkpt lat="67.8141678" lon="24.8648775">
      <time>2025-03-27T10:31:25Z</time>
    </trkpt>
    <trkpt lat="67.8141963" lon="24.8644045">
      <time>2025-03-27T10:31:31Z</time>
    </trkpt>
    <trkpt lat="67.8142163" lon="24.8642408">
      <time>2025-03-27T10:31:33Z</time>
    </trkpt>
    <trkpt lat="67.8142484" lon="24.8639678">
      <time>2025-03-27T10:31:36Z</time>
    </trkpt>
    <trkpt lat="67.8143096" lon="24.8635701">
      <time>2025-03-27T10:31:41Z</time>
    </trkpt>
    <trkpt lat="67.8144413" lon="24.8631431">
      <time>2025-03-27T10:31:47Z</time>
    </trkpt>
    <trkpt lat="67.8145914" lon="24.8627740">
      <time>2025-03-27T10:31:53Z</time>
    </trkpt>
    <trkpt lat="67.8147319" lon="24.8625656">
      <time>2025-03-27T10:31:58Z</time>
    </trkpt>
    <trkpt lat="67.8149152" lon="24.8624299">
      <time>2025-03-27T10:32:04Z</time>
    </trkpt>
    <trkpt lat="67.8151023" lon="24.8623347">
      <time>2025-03-27T10:32:10Z</time>
    </trkpt>
    <trkpt lat="67.8151303" lon="24.8623307">
      <time>2025-03-27T10:32:11Z</time>
    </trkpt>
    <trkpt lat="67.8153216" lon="24.8622080">
      <time>2025-03-27T10:32:18Z</time>
    </trkpt>
    <trkpt lat="67.8154905" lon="24.8620307">
      <time>2025-03-27T10:32:25Z</time>
    </trkpt>
    <trkpt lat="67.8155110" lon="24.8619904">
      <time>2025-03-27T10:32:26Z</time>
    </trkpt>
    <trkpt lat="67.8156618" lon="24.8617663">
      <time>2025-03-27T10:32:33Z</time>
    </trkpt>
    <trkpt lat="67.8157802" lon="24.8614628">
      <time>2025-03-27T10:32:40Z</time>
    </trkpt>
    <trkpt lat="67.8158297" lon="24.8610678">
      <time>2025-03-27T10:32:46Z</time>
    </trkpt>
    <trkpt lat="67.8158620" lon="24.8606671">
      <time>2025-03-27T10:32:52Z</time>
    </trkpt>
    <trkpt lat="67.8158662" lon="24.8605847">
      <time>2025-03-27T10:32:53Z</time>
    </trkpt>
    <trkpt lat="67.8158765" lon="24.8601347">
      <time>2025-03-27T10:33:00Z</time>
    </trkpt>
    <trkpt lat="67.8159037" lon="24.8597798">
      <time>2025-03-27T10:33:06Z</time>
    </trkpt>
    <trkpt lat="67.8159086" lon="24.8596780">
      <time>2025-03-27T10:33:08Z</time>
    </trkpt>
    <trkpt lat="67.8159271" lon="24.8593925">
      <time>2025-03-27T10:33:13Z</time>
    </trkpt>
    <trkpt lat="67.8159374" lon="24.8591896">
      <time>2025-03-27T10:33:16Z</time>
    </trkpt>
    <trkpt lat="67.8159441" lon="24.8589306">
      <time>2025-03-27T10:33:21Z</time>
    </trkpt>
    <trkpt lat="67.8159472" lon="24.8588586">
      <time>2025-03-27T10:33:23Z</time>
    </trkpt>
    <trkpt lat="67.8159514" lon="24.8587097">
      <time>2025-03-27T10:33:28Z</time>
    </trkpt>
    <trkpt lat="67.8159529" lon="24.8586137">
      <time>2025-03-27T10:33:31Z</time>
    </trkpt>
    <trkpt lat="67.8159691" lon="24.8585247">
      <time>2025-03-27T10:33:34Z</time>
    </trkpt>
    <trkpt lat="67.8159832" lon="24.8584665">
      <time>2025-03-27T10:33:40Z</time>
    </trkpt>
    <trkpt lat="67.8159856" lon="24.8584676">
      <time>2025-03-27T10:33:42Z</time>
    </trkpt>
    <trkpt lat="67.8167204" lon="24.8557988">
      <time>2025-03-27T10:34:54Z</time>
    </trkpt>
    <trkpt lat="67.8167113" lon="24.8557440">
      <time>2025-03-27T10:34:55Z</time>
    </trkpt>
    <trkpt lat="67.8167023" lon="24.8556935">
      <time>2025-03-27T10:34:56Z</time>
    </trkpt>
    <trkpt lat="67.8166200" lon="24.8554033">
      <time>2025-03-27T10:35:02Z</time>
    </trkpt>
    <trkpt lat="67.8165561" lon="24.8552062">
      <time>2025-03-27T10:35:06Z</time>
    </trkpt>
    <trkpt lat="67.8165230" lon="24.8551092">
      <time>2025-03-27T10:35:08Z</time>
    </trkpt>
    <trkpt lat="67.8165074" lon="24.8550576">
      <time>2025-03-27T10:35:09Z</time>
    </trkpt>
    <trkpt lat="67.8164743" lon="24.8549675">
      <time>2025-03-27T10:35:11Z</time>
    </trkpt>
    <trkpt lat="67.8164282" lon="24.8548380">
      <time>2025-03-27T10:35:14Z</time>
    </trkpt>
    <trkpt lat="67.8164127" lon="24.8547990">
      <time>2025-03-27T10:35:15Z</time>
    </trkpt>
    <trkpt lat="67.8163870" lon="24.8547114">
      <time>2025-03-27T10:35:17Z</time>
    </trkpt>
    <trkpt lat="67.8163468" lon="24.8545551">
      <time>2025-03-27T10:35:20Z</time>
    </trkpt>
    <trkpt lat="67.8162865" lon="24.8542805">
      <time>2025-03-27T10:35:26Z</time>
    </trkpt>
    <trkpt lat="67.8162526" lon="24.8538770">
      <time>2025-03-27T10:35:34Z</time>
    </trkpt>
    <trkpt lat="67.8162328" lon="24.8533896">
      <time>2025-03-27T10:35:44Z</time>
    </trkpt>
    <trkpt lat="67.8162030" lon="24.8530694">
      <time>2025-03-27T10:35:52Z</time>
    </trkpt>
    <trkpt lat="67.8162104" lon="24.8526774">
      <time>2025-03-27T10:35:59Z</time>
    </trkpt>
    <trkpt lat="67.8162383" lon="24.8526324">
      <time>2025-03-27T10:36:01Z</time>
    </trkpt>
    <trkpt lat="67.8162979" lon="24.8526126">
      <time>2025-03-27T10:36:04Z</time>
    </trkpt>
    <trkpt lat="67.8164544" lon="24.8525778">
      <time>2025-03-27T10:36:10Z</time>
    </trkpt>
    <trkpt lat="67.8165715" lon="24.8523213">
      <time>2025-03-27T10:36:15Z</time>
    </trkpt>
    <trkpt lat="67.8165899" lon="24.8518286">
      <time>2025-03-27T10:36:21Z</time>
    </trkpt>
    <trkpt lat="67.8165736" lon="24.8514727">
      <time>2025-03-27T10:36:26Z</time>
    </trkpt>
    <trkpt lat="67.8165865" lon="24.8510842">
      <time>2025-03-27T10:36:31Z</time>
    </trkpt>
    <trkpt lat="67.8166171" lon="24.8505091">
      <time>2025-03-27T10:36:36Z</time>
    </trkpt>
    <trkpt lat="67.8166303" lon="24.8500090">
      <time>2025-03-27T10:36:40Z</time>
    </trkpt>
    <trkpt lat="67.8166548" lon="24.8496413">
      <time>2025-03-27T10:36:43Z</time>
    </trkpt>
    <trkpt lat="67.8166872" lon="24.8492477">
      <time>2025-03-27T10:36:46Z</time>
    </trkpt>
    <trkpt lat="67.8167102" lon="24.8487989">
      <time>2025-03-27T10:36:50Z</time>
    </trkpt>
    <trkpt lat="67.8167418" lon="24.8483636">
      <time>2025-03-27T10:36:54Z</time>
    </trkpt>
    <trkpt lat="67.8167495" lon="24.8482232">
      <time>2025-03-27T10:36:55Z</time>
    </trkpt>
    <trkpt lat="67.8167475" lon="24.8480118">
      <time>2025-03-27T10:36:57Z</time>
    </trkpt>
    <trkpt lat="67.8167382" lon="24.8478556">
      <time>2025-03-27T10:36:59Z</time>
    </trkpt>
    <trkpt lat="67.8167162" lon="24.8477524">
      <time>2025-03-27T10:37:01Z</time>
    </trkpt>
    <trkpt lat="67.8166376" lon="24.8474806">
      <time>2025-03-27T10:37:07Z</time>
    </trkpt>
    <trkpt lat="67.8165639" lon="24.8471744">
      <time>2025-03-27T10:37:13Z</time>
    </trkpt>
    <trkpt lat="67.8165134" lon="24.8467423">
      <time>2025-03-27T10:37:18Z</time>
    </trkpt>
    <trkpt lat="67.8165155" lon="24.8463332">
      <time>2025-03-27T10:37:22Z</time>
    </trkpt>
    <trkpt lat="67.8165107" lon="24.8460984">
      <time>2025-03-27T10:37:24Z</time>
    </trkpt>
    <trkpt lat="67.8164857" lon="24.8458472">
      <time>2025-03-27T10:37:27Z</time>
    </trkpt>
    <trkpt lat="67.8164457" lon="24.8454499">
      <time>2025-03-27T10:37:32Z</time>
    </trkpt>
    <trkpt lat="67.8164145" lon="24.8452270">
      <time>2025-03-27T10:37:35Z</time>
    </trkpt>
    <trkpt lat="67.8163830" lon="24.8449506">
      <time>2025-03-27T10:37:39Z</time>
    </trkpt>
    <trkpt lat="67.8163541" lon="24.8446884">
      <time>2025-03-27T10:37:43Z</time>
    </trkpt>
    <trkpt lat="67.8163262" lon="24.8445906">
      <time>2025-03-27T10:37:45Z</time>
    </trkpt>
    <trkpt lat="67.8162780" lon="24.8444863">
      <time>2025-03-27T10:37:48Z</time>
    </trkpt>
    <trkpt lat="67.8162412" lon="24.8444280">
      <time>2025-03-27T10:37:50Z</time>
    </trkpt>
    <trkpt lat="67.8161729" lon="24.8442486">
      <time>2025-03-27T10:37:55Z</time>
    </trkpt>
    <trkpt lat="67.8160983" lon="24.8440104">
      <time>2025-03-27T10:38:01Z</time>
    </trkpt>
    <trkpt lat="67.8160033" lon="24.8436702">
      <time>2025-03-27T10:38:08Z</time>
    </trkpt>
    <trkpt lat="67.8159575" lon="24.8434011">
      <time>2025-03-27T10:38:13Z</time>
    </trkpt>
    <trkpt lat="67.8159573" lon="24.8433352">
      <time>2025-03-27T10:38:14Z</time>
    </trkpt>
    <trkpt lat="67.8159927" lon="24.8429346">
      <time>2025-03-27T10:38:20Z</time>
    </trkpt>
    <trkpt lat="67.8160356" lon="24.8424442">
      <time>2025-03-27T10:38:27Z</time>
    </trkpt>
    <trkpt lat="67.8160355" lon="24.8423557">
      <time>2025-03-27T10:38:28Z</time>
    </trkpt>
    <trkpt lat="67.8160176" lon="24.8420114">
      <time>2025-03-27T10:38:33Z</time>
    </trkpt>
    <trkpt lat="67.8160162" lon="24.8416601">
      <time>2025-03-27T10:38:38Z</time>
    </trkpt>
    <trkpt lat="67.8160109" lon="24.8412908">
      <time>2025-03-27T10:38:43Z</time>
    </trkpt>
    <trkpt lat="67.8160042" lon="24.8410313">
      <time>2025-03-27T10:38:47Z</time>
    </trkpt>
    <trkpt lat="67.8159945" lon="24.8407123">
      <time>2025-03-27T10:38:51Z</time>
    </trkpt>
    <trkpt lat="67.8159595" lon="24.8402174">
      <time>2025-03-27T10:38:58Z</time>
    </trkpt>
    <trkpt lat="67.8158974" lon="24.8397675">
      <time>2025-03-27T10:39:04Z</time>
    </trkpt>
    <trkpt lat="67.8158572" lon="24.8394520">
      <time>2025-03-27T10:39:09Z</time>
    </trkpt>
    <trkpt lat="67.8158121" lon="24.8391179">
      <time>2025-03-27T10:39:15Z</time>
    </trkpt>
    <trkpt lat="67.8157662" lon="24.8388236">
      <time>2025-03-27T10:39:21Z</time>
    </trkpt>
    <trkpt lat="67.8157297" lon="24.8384634">
      <time>2025-03-27T10:39:27Z</time>
    </trkpt>
    <trkpt lat="67.8157201" lon="24.8383587">
      <time>2025-03-27T10:39:29Z</time>
    </trkpt>
    <trkpt lat="67.8157060" lon="24.8381946">
      <time>2025-03-27T10:39:32Z</time>
    </trkpt>
    <trkpt lat="67.8156504" lon="24.8378133">
      <time>2025-03-27T10:39:39Z</time>
    </trkpt>
    <trkpt lat="67.8156269" lon="24.8376924">
      <time>2025-03-27T10:39:41Z</time>
    </trkpt>
    <trkpt lat="67.8155761" lon="24.8375133">
      <time>2025-03-27T10:39:45Z</time>
    </trkpt>
    <trkpt lat="67.8154612" lon="24.8371034">
      <time>2025-03-27T10:39:53Z</time>
    </trkpt>
    <trkpt lat="67.8154270" lon="24.8367498">
      <time>2025-03-27T10:39:58Z</time>
    </trkpt>
    <trkpt lat="67.8154151" lon="24.8363821">
      <time>2025-03-27T10:40:04Z</time>
    </trkpt>
    <trkpt lat="67.8153477" lon="24.8359016">
      <time>2025-03-27T10:40:12Z</time>
    </trkpt>
    <trkpt lat="67.8153383" lon="24.8358393">
      <time>2025-03-27T10:40:13Z</time>
    </trkpt>
    <trkpt lat="67.8152638" lon="24.8354359">
      <time>2025-03-27T10:40:19Z</time>
    </trkpt>
    <trkpt lat="67.8152022" lon="24.8351323">
      <time>2025-03-27T10:40:24Z</time>
    </trkpt>
    <trkpt lat="67.8151815" lon="24.8349800">
      <time>2025-03-27T10:40:26Z</time>
    </trkpt>
    <trkpt lat="67.8151442" lon="24.8344993">
      <time>2025-03-27T10:40:32Z</time>
    </trkpt>
    <trkpt lat="67.8151425" lon="24.8343914">
      <time>2025-03-27T10:40:33Z</time>
    </trkpt>
    <trkpt lat="67.8151038" lon="24.8339083">
      <time>2025-03-27T10:40:38Z</time>
    </trkpt>
    <trkpt lat="67.8150791" lon="24.8335866">
      <time>2025-03-27T10:40:41Z</time>
    </trkpt>
    <trkpt lat="67.8150397" lon="24.8330013">
      <time>2025-03-27T10:40:46Z</time>
    </trkpt>
    <trkpt lat="67.8150294" lon="24.8328863">
      <time>2025-03-27T10:40:47Z</time>
    </trkpt>
    <trkpt lat="67.8149908" lon="24.8325915">
      <time>2025-03-27T10:40:50Z</time>
    </trkpt>
    <trkpt lat="67.8149620" lon="24.8324433">
      <time>2025-03-27T10:40:52Z</time>
    </trkpt>
    <trkpt lat="67.8148935" lon="24.8320823">
      <time>2025-03-27T10:40:57Z</time>
    </trkpt>
    <trkpt lat="67.8148118" lon="24.8318795">
      <time>2025-03-27T10:41:01Z</time>
    </trkpt>
    <trkpt lat="67.8147598" lon="24.8317880">
      <time>2025-03-27T10:41:03Z</time>
    </trkpt>
    <trkpt lat="67.8146141" lon="24.8315863">
      <time>2025-03-27T10:41:07Z</time>
    </trkpt>
    <trkpt lat="67.8145848" lon="24.8315484">
      <time>2025-03-27T10:41:08Z</time>
    </trkpt>
    <trkpt lat="67.8144830" lon="24.8315137">
      <time>2025-03-27T10:41:12Z</time>
    </trkpt>
    <trkpt lat="67.8143039" lon="24.8316176">
      <time>2025-03-27T10:41:19Z</time>
    </trkpt>
    <trkpt lat="67.8142553" lon="24.8316596">
      <time>2025-03-27T10:41:21Z</time>
    </trkpt>
    <trkpt lat="67.8141707" lon="24.8317427">
      <time>2025-03-27T10:41:25Z</time>
    </trkpt>
    <trkpt lat="67.8141356" lon="24.8317790">
      <time>2025-03-27T10:41:27Z</time>
    </trkpt>
    <trkpt lat="67.8141009" lon="24.8318258">
      <time>2025-03-27T10:41:29Z</time>
    </trkpt>
    <trkpt lat="67.8140682" lon="24.8318817">
      <time>2025-03-27T10:41:31Z</time>
    </trkpt>
    <trkpt lat="67.8140029" lon="24.8320141">
      <time>2025-03-27T10:41:35Z</time>
    </trkpt>
    <trkpt lat="67.8139255" lon="24.8321577">
      <time>2025-03-27T10:41:39Z</time>
    </trkpt>
    <trkpt lat="67.8137878" lon="24.8324314">
      <time>2025-03-27T10:41:46Z</time>
    </trkpt>
    <trkpt lat="67.8136396" lon="24.8327163">
      <time>2025-03-27T10:41:53Z</time>
    </trkpt>
    <trkpt lat="67.8135996" lon="24.8327859">
      <time>2025-03-27T10:41:55Z</time>
    </trkpt>
    <trkpt lat="67.8134410" lon="24.8330518">
      <time>2025-03-27T10:42:03Z</time>
    </trkpt>
    <trkpt lat="67.8133462" lon="24.8331882">
      <time>2025-03-27T10:42:08Z</time>
    </trkpt>
    <trkpt lat="67.8131534" lon="24.8333937">
      <time>2025-03-27T10:42:16Z</time>
    </trkpt>
    <trkpt lat="67.8130989" lon="24.8334613">
      <time>2025-03-27T10:42:18Z</time>
    </trkpt>
    <trkpt lat="67.8128996" lon="24.8337450">
      <time>2025-03-27T10:42:23Z</time>
    </trkpt>
    <trkpt lat="67.8128582" lon="24.8338424">
      <time>2025-03-27T10:42:24Z</time>
    </trkpt>
    <trkpt lat="67.8127882" lon="24.8340932">
      <time>2025-03-27T10:42:27Z</time>
    </trkpt>
    <trkpt lat="67.8127495" lon="24.8343244">
      <time>2025-03-27T10:42:30Z</time>
    </trkpt>
    <trkpt lat="67.8127287" lon="24.8344578">
      <time>2025-03-27T10:42:32Z</time>
    </trkpt>
    <trkpt lat="67.8126862" lon="24.8348909">
      <time>2025-03-27T10:42:38Z</time>
    </trkpt>
    <trkpt lat="67.8126737" lon="24.8351433">
      <time>2025-03-27T10:42:41Z</time>
    </trkpt>
    <trkpt lat="67.8126644" lon="24.8352867">
      <time>2025-03-27T10:42:43Z</time>
    </trkpt>
    <trkpt lat="67.8126609" lon="24.8353492">
      <time>2025-03-27T10:42:44Z</time>
    </trkpt>
    <trkpt lat="67.8125851" lon="24.8356479">
      <time>2025-03-27T10:42:49Z</time>
    </trkpt>
    <trkpt lat="67.8124851" lon="24.8358275">
      <time>2025-03-27T10:42:54Z</time>
    </trkpt>
    <trkpt lat="67.8123894" lon="24.8360719">
      <time>2025-03-27T10:42:59Z</time>
    </trkpt>
    <trkpt lat="67.8122358" lon="24.8359347">
      <time>2025-03-27T10:43:03Z</time>
    </trkpt>
    <trkpt lat="67.8121880" lon="24.8360218">
      <time>2025-03-27T10:43:05Z</time>
    </trkpt>
    <trkpt lat="67.8120579" lon="24.8358244">
      <time>2025-03-27T10:43:11Z</time>
    </trkpt>
    <trkpt lat="67.8119918" lon="24.8357303">
      <time>2025-03-27T10:43:16Z</time>
    </trkpt>
    <trkpt lat="67.8119258" lon="24.8356571">
      <time>2025-03-27T10:43:20Z</time>
    </trkpt>
    <trkpt lat="67.8118565" lon="24.8355679">
      <time>2025-03-27T10:43:24Z</time>
    </trkpt>
    <trkpt lat="67.8118080" lon="24.8355037">
      <time>2025-03-27T10:43:27Z</time>
    </trkpt>
    <trkpt lat="67.8117463" lon="24.8354373">
      <time>2025-03-27T10:43:30Z</time>
    </trkpt>
    <trkpt lat="67.8116272" lon="24.8353856">
      <time>2025-03-27T10:43:35Z</time>
    </trkpt>
    <trkpt lat="67.8115466" lon="24.8354039">
      <time>2025-03-27T10:43:38Z</time>
    </trkpt>
    <trkpt lat="67.8114196" lon="24.8356214">
      <time>2025-03-27T10:43:43Z</time>
    </trkpt>
    <trkpt lat="67.8113335" lon="24.8360103">
      <time>2025-03-27T10:43:49Z</time>
    </trkpt>
    <trkpt lat="67.8113223" lon="24.8365207">
      <time>2025-03-27T10:43:55Z</time>
    </trkpt>
    <trkpt lat="67.8113184" lon="24.8368088">
      <time>2025-03-27T10:43:58Z</time>
    </trkpt>
    <trkpt lat="67.8112882" lon="24.8372438">
      <time>2025-03-27T10:44:02Z</time>
    </trkpt>
    <trkpt lat="67.8111562" lon="24.8377050">
      <time>2025-03-27T10:44:07Z</time>
    </trkpt>
    <trkpt lat="67.8109694" lon="24.8379492">
      <time>2025-03-27T10:44:12Z</time>
    </trkpt>
    <trkpt lat="67.8108178" lon="24.8380368">
      <time>2025-03-27T10:44:17Z</time>
    </trkpt>
    <trkpt lat="67.8106856" lon="24.8379518">
      <time>2025-03-27T10:44:22Z</time>
    </trkpt>
    <trkpt lat="67.8105504" lon="24.8376352">
      <time>2025-03-27T10:44:29Z</time>
    </trkpt>
    <trkpt lat="67.8104716" lon="24.8371376">
      <time>2025-03-27T10:44:37Z</time>
    </trkpt>
    <trkpt lat="67.8104069" lon="24.8366916">
      <time>2025-03-27T10:44:44Z</time>
    </trkpt>
    <trkpt lat="67.8103986" lon="24.8366333">
      <time>2025-03-27T10:44:45Z</time>
    </trkpt>
    <trkpt lat="67.8103271" lon="24.8364038">
      <time>2025-03-27T10:44:50Z</time>
    </trkpt>
    <trkpt lat="67.8101696" lon="24.8362512">
      <time>2025-03-27T10:44:56Z</time>
    </trkpt>
    <trkpt lat="67.8099571" lon="24.8362853">
      <time>2025-03-27T10:45:01Z</time>
    </trkpt>
    <trkpt lat="67.8098016" lon="24.8363373">
      <time>2025-03-27T10:45:05Z</time>
    </trkpt>
    <trkpt lat="67.8096992" lon="24.8363259">
      <time>2025-03-27T10:45:08Z</time>
    </trkpt>
    <trkpt lat="67.8095265" lon="24.8360879">
      <time>2025-03-27T10:45:14Z</time>
    </trkpt>
    <trkpt lat="67.8093967" lon="24.8357330">
      <time>2025-03-27T10:45:19Z</time>
    </trkpt>
    <trkpt lat="67.8093670" lon="24.8356653">
      <time>2025-03-27T10:45:20Z</time>
    </trkpt>
    <trkpt lat="67.8092247" lon="24.8353287">
      <time>2025-03-27T10:45:25Z</time>
    </trkpt>
    <trkpt lat="67.8091013" lon="24.8350237">
      <time>2025-03-27T10:45:29Z</time>
    </trkpt>
    <trkpt lat="67.8089974" lon="24.8346200">
      <time>2025-03-27T10:45:33Z</time>
    </trkpt>
    <trkpt lat="67.8089279" lon="24.8343190">
      <time>2025-03-27T10:45:36Z</time>
    </trkpt>
    <trkpt lat="67.8088971" lon="24.8342134">
      <time>2025-03-27T10:45:37Z</time>
    </trkpt>
    <trkpt lat="67.8087487" lon="24.8338294">
      <time>2025-03-27T10:45:41Z</time>
    </trkpt>
    <trkpt lat="67.8086927" lon="24.8336355">
      <time>2025-03-27T10:45:43Z</time>
    </trkpt>
    <trkpt lat="67.8086671" lon="24.8334434">
      <time>2025-03-27T10:45:45Z</time>
    </trkpt>
    <trkpt lat="67.8086644" lon="24.8333463">
      <time>2025-03-27T10:45:46Z</time>
    </trkpt>
    <trkpt lat="67.8086715" lon="24.8329313">
      <time>2025-03-27T10:45:51Z</time>
    </trkpt>
    <trkpt lat="67.8087002" lon="24.8325738">
      <time>2025-03-27T10:45:56Z</time>
    </trkpt>
    <trkpt lat="67.8086701" lon="24.8321517">
      <time>2025-03-27T10:46:02Z</time>
    </trkpt>
    <trkpt lat="67.8086547" lon="24.8320983">
      <time>2025-03-27T10:46:03Z</time>
    </trkpt>
    <trkpt lat="67.8086337" lon="24.8320580">
      <time>2025-03-27T10:46:04Z</time>
    </trkpt>
    <trkpt lat="67.8085467" lon="24.8318917">
      <time>2025-03-27T10:46:07Z</time>
    </trkpt>
    <trkpt lat="67.8084068" lon="24.8315084">
      <time>2025-03-27T10:46:12Z</time>
    </trkpt>
    <trkpt lat="67.8083856" lon="24.8314128">
      <time>2025-03-27T10:46:13Z</time>
    </trkpt>
    <trkpt lat="67.8083021" lon="24.8310452">
      <time>2025-03-27T10:46:17Z</time>
    </trkpt>
    <trkpt lat="67.8082535" lon="24.8308512">
      <time>2025-03-27T10:46:19Z</time>
    </trkpt>
    <trkpt lat="67.8081522" lon="24.8303555">
      <time>2025-03-27T10:46:23Z</time>
    </trkpt>
    <trkpt lat="67.8081352" lon="24.8302111">
      <time>2025-03-27T10:46:24Z</time>
    </trkpt>
    <trkpt lat="67.8080820" lon="24.8297227">
      <time>2025-03-27T10:46:28Z</time>
    </trkpt>
    <trkpt lat="67.8080727" lon="24.8295268">
      <time>2025-03-27T10:46:30Z</time>
    </trkpt>
    <trkpt lat="67.8080639" lon="24.8294492">
      <time>2025-03-27T10:46:31Z</time>
    </trkpt>
    <trkpt lat="67.8080223" lon="24.8292880">
      <time>2025-03-27T10:46:34Z</time>
    </trkpt>
    <trkpt lat="67.8080114" lon="24.8292449">
      <time>2025-03-27T10:46:35Z</time>
    </trkpt>
    <trkpt lat="67.8079863" lon="24.8291731">
      <time>2025-03-27T10:46:37Z</time>
    </trkpt>
    <trkpt lat="67.8079594" lon="24.8290841">
      <time>2025-03-27T10:46:40Z</time>
    </trkpt>
    <trkpt lat="67.8079509" lon="24.8290631">
      <time>2025-03-27T10:46:42Z</time>
    </trkpt>
    <trkpt lat="67.8079427" lon="24.8290547">
      <time>2025-03-27T10:46:45Z</time>
    </trkpt>
    <trkpt lat="67.8077475" lon="24.8287635">
      <time>2025-03-27T10:47:34Z</time>
    </trkpt>
    <trkpt lat="67.8077023" lon="24.8287310">
      <time>2025-03-27T10:47:35Z</time>
    </trkpt>
    <trkpt lat="67.8074480" lon="24.8285780">
      <time>2025-03-27T10:47:40Z</time>
    </trkpt>
    <trkpt lat="67.8072709" lon="24.8284756">
      <time>2025-03-27T10:47:42Z</time>
    </trkpt>
    <trkpt lat="67.8070856" lon="24.8283505">
      <time>2025-03-27T10:47:44Z</time>
    </trkpt>
    <trkpt lat="67.8068487" lon="24.8281905">
      <time>2025-03-27T10:47:47Z</time>
    </trkpt>
    <trkpt lat="67.8067372" lon="24.8281153">
      <time>2025-03-27T10:47:49Z</time>
    </trkpt>
    <trkpt lat="67.8065749" lon="24.8280213">
      <time>2025-03-27T10:47:52Z</time>
    </trkpt>
    <trkpt lat="67.8064026" lon="24.8279052">
      <time>2025-03-27T10:47:57Z</time>
    </trkpt>
    <trkpt lat="67.8062189" lon="24.8278505">
      <time>2025-03-27T10:48:03Z</time>
    </trkpt>
    <trkpt lat="67.8061930" lon="24.8278421">
      <time>2025-03-27T10:48:04Z</time>
    </trkpt>
    <trkpt lat="67.8060278" lon="24.8277955">
      <time>2025-03-27T10:48:11Z</time>
    </trkpt>
    <trkpt lat="67.8059882" lon="24.8278040">
      <time>2025-03-27T10:48:15Z</time>
    </trkpt>
    <trkpt lat="67.8059692" lon="24.8278118">
      <time>2025-03-27T10:48:17Z</time>
    </trkpt>
    <trkpt lat="67.8059240" lon="24.8278048">
      <time>2025-03-27T10:48:20Z</time>
    </trkpt>
    <trkpt lat="67.8058823" lon="24.8278063">
      <time>2025-03-27T10:48:23Z</time>
    </trkpt>
    <trkpt lat="67.8058755" lon="24.8277940">
      <time>2025-03-27T10:48:24Z</time>
    </trkpt>
    <trkpt lat="67.8057592" lon="24.8275660">
      <time>2025-03-27T10:48:32Z</time>
    </trkpt>
    <trkpt lat="67.8057238" lon="24.8274245">
      <time>2025-03-27T10:48:35Z</time>
    </trkpt>
    <trkpt lat="67.8056948" lon="24.8273374">
      <time>2025-03-27T10:48:37Z</time>
    </trkpt>
    <trkpt lat="67.8056648" lon="24.8272549">
      <time>2025-03-27T10:48:39Z</time>
    </trkpt>
    <trkpt lat="67.8056285" lon="24.8271404">
      <time>2025-03-27T10:48:42Z</time>
    </trkpt>
    <trkpt lat="67.8055817" lon="24.8269616">
      <time>2025-03-27T10:48:46Z</time>
    </trkpt>
    <trkpt lat="67.8055425" lon="24.8268188">
      <time>2025-03-27T10:48:49Z</time>
    </trkpt>
    <trkpt lat="67.8054826" lon="24.8266102">
      <time>2025-03-27T10:48:53Z</time>
    </trkpt>
    <trkpt lat="67.8054665" lon="24.8265584">
      <time>2025-03-27T10:48:54Z</time>
    </trkpt>
    <trkpt lat="67.8054476" lon="24.8265042">
      <time>2025-03-27T10:48:55Z</time>
    </trkpt>
    <trkpt lat="67.8054316" lon="24.8264544">
      <time>2025-03-27T10:48:56Z</time>
    </trkpt>
    <trkpt lat="67.8054177" lon="24.8264071">
      <time>2025-03-27T10:48:57Z</time>
    </trkpt>
    <trkpt lat="67.8053917" lon="24.8263075">
      <time>2025-03-27T10:48:59Z</time>
    </trkpt>
    <trkpt lat="67.8053751" lon="24.8262675">
      <time>2025-03-27T10:49:00Z</time>
    </trkpt>
    <trkpt lat="67.8053630" lon="24.8262184">
      <time>2025-03-27T10:49:01Z</time>
    </trkpt>
    <trkpt lat="67.8053504" lon="24.8261163">
      <time>2025-03-27T10:49:03Z</time>
    </trkpt>
    <trkpt lat="67.8053447" lon="24.8260090">
      <time>2025-03-27T10:49:05Z</time>
    </trkpt>
    <trkpt lat="67.8053403" lon="24.8259651">
      <time>2025-03-27T10:49:06Z</time>
    </trkpt>
    <trkpt lat="67.8053313" lon="24.8258177">
      <time>2025-03-27T10:49:09Z</time>
    </trkpt>
    <trkpt lat="67.8053283" lon="24.8256834">
      <time>2025-03-27T10:49:12Z</time>
    </trkpt>
    <trkpt lat="67.8053267" lon="24.8255226">
      <time>2025-03-27T10:49:16Z</time>
    </trkpt>
    <trkpt lat="67.8053284" lon="24.8254421">
      <time>2025-03-27T10:49:18Z</time>
    </trkpt>
    <trkpt lat="67.8053223" lon="24.8251689">
      <time>2025-03-27T10:49:24Z</time>
    </trkpt>
    <trkpt lat="67.8053202" lon="24.8250122">
      <time>2025-03-27T10:49:27Z</time>
    </trkpt>
    <trkpt lat="67.8053205" lon="24.8249571">
      <time>2025-03-27T10:49:28Z</time>
    </trkpt>
    <trkpt lat="67.8053168" lon="24.8248448">
      <time>2025-03-27T10:49:30Z</time>
    </trkpt>
    <trkpt lat="67.8053183" lon="24.8247309">
      <time>2025-03-27T10:49:32Z</time>
    </trkpt>
    <trkpt lat="67.8053182" lon="24.8245645">
      <time>2025-03-27T10:49:35Z</time>
    </trkpt>
    <trkpt lat="67.8053191" lon="24.8245076">
      <time>2025-03-27T10:49:36Z</time>
    </trkpt>
    <trkpt lat="67.8053169" lon="24.8244560">
      <time>2025-03-27T10:49:37Z</time>
    </trkpt>
    <trkpt lat="67.8053136" lon="24.8244053">
      <time>2025-03-27T10:49:38Z</time>
    </trkpt>
    <trkpt lat="67.8053040" lon="24.8241087">
      <time>2025-03-27T10:49:43Z</time>
    </trkpt>
    <trkpt lat="67.8052983" lon="24.8240517">
      <time>2025-03-27T10:49:44Z</time>
    </trkpt>
    <trkpt lat="67.8052962" lon="24.8238746">
      <time>2025-03-27T10:49:47Z</time>
    </trkpt>
    <trkpt lat="67.8052808" lon="24.8236620">
      <time>2025-03-27T10:49:51Z</time>
    </trkpt>
    <trkpt lat="67.8052814" lon="24.8236096">
      <time>2025-03-27T10:49:52Z</time>
    </trkpt>
    <trkpt lat="67.8052832" lon="24.8235067">
      <time>2025-03-27T10:49:54Z</time>
    </trkpt>
    <trkpt lat="67.8052877" lon="24.8232971">
      <time>2025-03-27T10:49:58Z</time>
    </trkpt>
    <trkpt lat="67.8053055" lon="24.8229863">
      <time>2025-03-27T10:50:04Z</time>
    </trkpt>
    <trkpt lat="67.8053240" lon="24.8228290">
      <time>2025-03-27T10:50:07Z</time>
    </trkpt>
    <trkpt lat="67.8053328" lon="24.8223489">
      <time>2025-03-27T10:50:14Z</time>
    </trkpt>
    <trkpt lat="67.8053156" lon="24.8218309">
      <time>2025-03-27T10:50:18Z</time>
    </trkpt>
    <trkpt lat="67.8053027" lon="24.8212825">
      <time>2025-03-27T10:50:22Z</time>
    </trkpt>
    <trkpt lat="67.8052840" lon="24.8209049">
      <time>2025-03-27T10:50:26Z</time>
    </trkpt>
    <trkpt lat="67.8052795" lon="24.8208485">
      <time>2025-03-27T10:50:27Z</time>
    </trkpt>
    <trkpt lat="67.8052511" lon="24.8205074">
      <time>2025-03-27T10:50:33Z</time>
    </trkpt>
    <trkpt lat="67.8052066" lon="24.8201893">
      <time>2025-03-27T10:50:39Z</time>
    </trkpt>
    <trkpt lat="67.8051950" lon="24.8198347">
      <time>2025-03-27T10:50:45Z</time>
    </trkpt>
    <trkpt lat="67.8051736" lon="24.8194357">
      <time>2025-03-27T10:50:52Z</time>
    </trkpt>
    <trkpt lat="67.8051720" lon="24.8190436">
      <time>2025-03-27T10:50:59Z</time>
    </trkpt>
    <trkpt lat="67.8051804" lon="24.8188095">
      <time>2025-03-27T10:51:03Z</time>
    </trkpt>
    <trkpt lat="67.8051840" lon="24.8186713">
      <time>2025-03-27T10:51:05Z</time>
    </trkpt>
    <trkpt lat="67.8051921" lon="24.8184690">
      <time>2025-03-27T10:51:08Z</time>
    </trkpt>
    <trkpt lat="67.8051920" lon="24.8181566">
      <time>2025-03-27T10:51:13Z</time>
    </trkpt>
    <trkpt lat="67.8051695" lon="24.8180171">
      <time>2025-03-27T10:51:16Z</time>
    </trkpt>
    <trkpt lat="67.8051243" lon="24.8178100">
      <time>2025-03-27T10:51:21Z</time>
    </trkpt>
    <trkpt lat="67.8050581" lon="24.8176584">
      <time>2025-03-27T10:51:26Z</time>
    </trkpt>
    <trkpt lat="67.8050410" lon="24.8176382">
      <time>2025-03-27T10:51:27Z</time>
    </trkpt>
    <trkpt lat="67.8049794" lon="24.8175702">
      <time>2025-03-27T10:51:31Z</time>
    </trkpt>
    <trkpt lat="67.8049640" lon="24.8175580">
      <time>2025-03-27T10:51:32Z</time>
    </trkpt>
    <trkpt lat="67.8049140" lon="24.8175289">
      <time>2025-03-27T10:51:35Z</time>
    </trkpt>
    <trkpt lat="67.8048400" lon="24.8175371">
      <time>2025-03-27T10:51:39Z</time>
    </trkpt>
    <trkpt lat="67.8047707" lon="24.8175706">
      <time>2025-03-27T10:51:42Z</time>
    </trkpt>
    <trkpt lat="67.8046399" lon="24.8177460">
      <time>2025-03-27T10:51:48Z</time>
    </trkpt>
    <trkpt lat="67.8045875" lon="24.8178582">
      <time>2025-03-27T10:51:51Z</time>
    </trkpt>
    <trkpt lat="67.8045354" lon="24.8179931">
      <time>2025-03-27T10:51:54Z</time>
    </trkpt>
    <trkpt lat="67.8045005" lon="24.8180777">
      <time>2025-03-27T10:51:56Z</time>
    </trkpt>
    <trkpt lat="67.8044805" lon="24.8181177">
      <time>2025-03-27T10:51:57Z</time>
    </trkpt>
    <trkpt lat="67.8044153" lon="24.8181939">
      <time>2025-03-27T10:52:00Z</time>
    </trkpt>
    <trkpt lat="67.8043933" lon="24.8182091">
      <time>2025-03-27T10:52:01Z</time>
    </trkpt>
    <trkpt lat="67.8042482" lon="24.8182843">
      <time>2025-03-27T10:52:08Z</time>
    </trkpt>
    <trkpt lat="67.8040961" lon="24.8182416">
      <time>2025-03-27T10:52:14Z</time>
    </trkpt>
    <trkpt lat="67.8040696" lon="24.8182287">
      <time>2025-03-27T10:52:15Z</time>
    </trkpt>
    <trkpt lat="67.8040450" lon="24.8182216">
      <time>2025-03-27T10:52:16Z</time>
    </trkpt>
    <trkpt lat="67.8039880" lon="24.8182095">
      <time>2025-03-27T10:52:18Z</time>
    </trkpt>
    <trkpt lat="67.8038203" lon="24.8181368">
      <time>2025-03-27T10:52:23Z</time>
    </trkpt>
    <trkpt lat="67.8036676" lon="24.8181920">
      <time>2025-03-27T10:52:28Z</time>
    </trkpt>
    <trkpt lat="67.8036055" lon="24.8182755">
      <time>2025-03-27T10:52:31Z</time>
    </trkpt>
    <trkpt lat="67.8035550" lon="24.8183673">
      <time>2025-03-27T10:52:34Z</time>
    </trkpt>
    <trkpt lat="67.8034571" lon="24.8185283">
      <time>2025-03-27T10:52:40Z</time>
    </trkpt>
    <trkpt lat="67.8033347" lon="24.8186331">
      <time>2025-03-27T10:52:47Z</time>
    </trkpt>
    <trkpt lat="67.8032915" lon="24.8186345">
      <time>2025-03-27T10:52:49Z</time>
    </trkpt>
    <trkpt lat="67.8032303" lon="24.8186668">
      <time>2025-03-27T10:52:52Z</time>
    </trkpt>
    <trkpt lat="67.8031856" lon="24.8187101">
      <time>2025-03-27T10:52:54Z</time>
    </trkpt>
    <trkpt lat="67.8031108" lon="24.8187694">
      <time>2025-03-27T10:52:58Z</time>
    </trkpt>
    <trkpt lat="67.8030712" lon="24.8188072">
      <time>2025-03-27T10:53:00Z</time>
    </trkpt>
    <trkpt lat="67.8030336" lon="24.8188467">
      <time>2025-03-27T10:53:02Z</time>
    </trkpt>
    <trkpt lat="67.8029264" lon="24.8189208">
      <time>2025-03-27T10:53:07Z</time>
    </trkpt>
    <trkpt lat="67.8028890" lon="24.8189483">
      <time>2025-03-27T10:53:09Z</time>
    </trkpt>
    <trkpt lat="67.8027851" lon="24.8190328">
      <time>2025-03-27T10:53:14Z</time>
    </trkpt>
    <trkpt lat="67.8027490" lon="24.8190774">
      <time>2025-03-27T10:53:16Z</time>
    </trkpt>
    <trkpt lat="67.8026375" lon="24.8192236">
      <time>2025-03-27T10:53:23Z</time>
    </trkpt>
    <trkpt lat="67.8025668" lon="24.8193748">
      <time>2025-03-27T10:53:27Z</time>
    </trkpt>
    <trkpt lat="67.8024940" lon="24.8195739">
      <time>2025-03-27T10:53:32Z</time>
    </trkpt>
    <trkpt lat="67.8024320" lon="24.8197806">
      <time>2025-03-27T10:53:37Z</time>
    </trkpt>
    <trkpt lat="67.8023891" lon="24.8199594">
      <time>2025-03-27T10:53:41Z</time>
    </trkpt>
    <trkpt lat="67.8022874" lon="24.8203540">
      <time>2025-03-27T10:53:49Z</time>
    </trkpt>
    <trkpt lat="67.8022394" lon="24.8205039">
      <time>2025-03-27T10:53:53Z</time>
    </trkpt>
    <trkpt lat="67.8021702" lon="24.8207084">
      <time>2025-03-27T10:53:59Z</time>
    </trkpt>
    <trkpt lat="67.8020958" lon="24.8210859">
      <time>2025-03-27T10:54:07Z</time>
    </trkpt>
    <trkpt lat="67.8021040" lon="24.8212584">
      <time>2025-03-27T10:54:09Z</time>
    </trkpt>
    <trkpt lat="67.8021222" lon="24.8214691">
      <time>2025-03-27T10:54:11Z</time>
    </trkpt>
    <trkpt lat="67.8021617" lon="24.8218156">
      <time>2025-03-27T10:54:14Z</time>
    </trkpt>
    <trkpt lat="67.8021912" lon="24.8220277">
      <time>2025-03-27T10:54:16Z</time>
    </trkpt>
    <trkpt lat="67.8022565" lon="24.8225042">
      <time>2025-03-27T10:54:21Z</time>
    </trkpt>
    <trkpt lat="67.8022875" lon="24.8226847">
      <time>2025-03-27T10:54:23Z</time>
    </trkpt>
    <trkpt lat="67.8022993" lon="24.8227748">
      <time>2025-03-27T10:54:24Z</time>
    </trkpt>
    <trkpt lat="67.8023119" lon="24.8228624">
      <time>2025-03-27T10:54:25Z</time>
    </trkpt>
    <trkpt lat="67.8023540" lon="24.8231199">
      <time>2025-03-27T10:54:28Z</time>
    </trkpt>
    <trkpt lat="67.8024052" lon="24.8236272">
      <time>2025-03-27T10:54:34Z</time>
    </trkpt>
    <trkpt lat="67.8024155" lon="24.8237502">
      <time>2025-03-27T10:54:36Z</time>
    </trkpt>
    <trkpt lat="67.8024217" lon="24.8238432">
      <time>2025-03-27T10:54:37Z</time>
    </trkpt>
    <trkpt lat="67.8024467" lon="24.8242313">
      <time>2025-03-27T10:54:42Z</time>
    </trkpt>
    <trkpt lat="67.8024503" lon="24.8246759">
      <time>2025-03-27T10:54:48Z</time>
    </trkpt>
    <trkpt lat="67.8024424" lon="24.8248644">
      <time>2025-03-27T10:54:51Z</time>
    </trkpt>
    <trkpt lat="67.8024166" lon="24.8251649">
      <time>2025-03-27T10:54:56Z</time>
    </trkpt>
    <trkpt lat="67.8024118" lon="24.8252171">
      <time>2025-03-27T10:54:57Z</time>
    </trkpt>
    <trkpt lat="67.8023725" lon="24.8256965">
      <time>2025-03-27T10:55:05Z</time>
    </trkpt>
    <trkpt lat="67.8023326" lon="24.8261352">
      <time>2025-03-27T10:55:12Z</time>
    </trkpt>
    <trkpt lat="67.8023281" lon="24.8263609">
      <time>2025-03-27T10:55:15Z</time>
    </trkpt>
    <trkpt lat="67.8023310" lon="24.8265613">
      <time>2025-03-27T10:55:18Z</time>
    </trkpt>
    <trkpt lat="67.8023509" lon="24.8268825">
      <time>2025-03-27T10:55:23Z</time>
    </trkpt>
    <trkpt lat="67.8023771" lon="24.8270909">
      <time>2025-03-27T10:55:26Z</time>
    </trkpt>
    <trkpt lat="67.8023901" lon="24.8271503">
      <time>2025-03-27T10:55:27Z</time>
    </trkpt>
    <trkpt lat="67.8024040" lon="24.8272061">
      <time>2025-03-27T10:55:28Z</time>
    </trkpt>
    <trkpt lat="67.8024328" lon="24.8272979">
      <time>2025-03-27T10:55:30Z</time>
    </trkpt>
    <trkpt lat="67.8024928" lon="24.8274766">
      <time>2025-03-27T10:55:35Z</time>
    </trkpt>
    <trkpt lat="67.8025128" lon="24.8275416">
      <time>2025-03-27T10:55:37Z</time>
    </trkpt>
    <trkpt lat="67.8025188" lon="24.8275602">
      <time>2025-03-27T10:55:38Z</time>
    </trkpt>
    <trkpt lat="67.8025328" lon="24.8276131">
      <time>2025-03-27T10:55:40Z</time>
    </trkpt>
    <trkpt lat="67.8025442" lon="24.8276432">
      <time>2025-03-27T10:55:41Z</time>
    </trkpt>
    <trkpt lat="67.8025627" lon="24.8276897">
      <time>2025-03-27T10:55:43Z</time>
    </trkpt>
    <trkpt lat="67.8026065" lon="24.8277854">
      <time>2025-03-27T10:55:47Z</time>
    </trkpt>
    <trkpt lat="67.8026715" lon="24.8279555">
      <time>2025-03-27T10:55:53Z</time>
    </trkpt>
    <trkpt lat="67.8026825" lon="24.8279993">
      <time>2025-03-27T10:55:54Z</time>
    </trkpt>
    <trkpt lat="67.8027076" lon="24.8280864">
      <time>2025-03-27T10:55:56Z</time>
    </trkpt>
    <trkpt lat="67.8027388" lon="24.8282235">
      <time>2025-03-27T10:55:59Z</time>
    </trkpt>
    <trkpt lat="67.8027537" lon="24.8283096">
      <time>2025-03-27T10:56:01Z</time>
    </trkpt>
    <trkpt lat="67.8027626" lon="24.8283521">
      <time>2025-03-27T10:56:02Z</time>
    </trkpt>
    <trkpt lat="67.8027889" lon="24.8285420">
      <time>2025-03-27T10:56:07Z</time>
    </trkpt>
    <trkpt lat="67.8027984" lon="24.8286454">
      <time>2025-03-27T10:56:09Z</time>
    </trkpt>
    <trkpt lat="67.8028149" lon="24.8288020">
      <time>2025-03-27T10:56:12Z</time>
    </trkpt>
    <trkpt lat="67.8028209" lon="24.8289475">
      <time>2025-03-27T10:56:15Z</time>
    </trkpt>
    <trkpt lat="67.8028652" lon="24.8293650">
      <time>2025-03-27T10:56:22Z</time>
    </trkpt>
    <trkpt lat="67.8028962" lon="24.8298482">
      <time>2025-03-27T10:56:29Z</time>
    </trkpt>
    <trkpt lat="67.8028957" lon="24.8299816">
      <time>2025-03-27T10:56:31Z</time>
    </trkpt>
    <trkpt lat="67.8028916" lon="24.8301105">
      <time>2025-03-27T10:56:33Z</time>
    </trkpt>
    <trkpt lat="67.8028878" lon="24.8302397">
      <time>2025-03-27T10:56:35Z</time>
    </trkpt>
    <trkpt lat="67.8028776" lon="24.8304134">
      <time>2025-03-27T10:56:38Z</time>
    </trkpt>
    <trkpt lat="67.8028657" lon="24.8306205">
      <time>2025-03-27T10:56:42Z</time>
    </trkpt>
    <trkpt lat="67.8028574" lon="24.8307212">
      <time>2025-03-27T10:56:44Z</time>
    </trkpt>
    <trkpt lat="67.8028505" lon="24.8307755">
      <time>2025-03-27T10:56:45Z</time>
    </trkpt>
    <trkpt lat="67.8027849" lon="24.8313175">
      <time>2025-03-27T10:56:52Z</time>
    </trkpt>
    <trkpt lat="67.8026548" lon="24.8318239">
      <time>2025-03-27T10:56:57Z</time>
    </trkpt>
    <trkpt lat="67.8026265" lon="24.8318958">
      <time>2025-03-27T10:56:58Z</time>
    </trkpt>
    <trkpt lat="67.8025439" lon="24.8320685">
      <time>2025-03-27T10:57:00Z</time>
    </trkpt>
    <trkpt lat="67.8024710" lon="24.8322117">
      <time>2025-03-27T10:57:02Z</time>
    </trkpt>
    <trkpt lat="67.8024053" lon="24.8323262">
      <time>2025-03-27T10:57:04Z</time>
    </trkpt>
    <trkpt lat="67.8022990" lon="24.8325039">
      <time>2025-03-27T10:57:08Z</time>
    </trkpt>
    <trkpt lat="67.8022241" lon="24.8328110">
      <time>2025-03-27T10:57:13Z</time>
    </trkpt>
    <trkpt lat="67.8022021" lon="24.8331574">
      <time>2025-03-27T10:57:18Z</time>
    </trkpt>
    <trkpt lat="67.8022134" lon="24.8335250">
      <time>2025-03-27T10:57:23Z</time>
    </trkpt>
    <trkpt lat="67.8022293" lon="24.8339974">
      <time>2025-03-27T10:57:29Z</time>
    </trkpt>
    <trkpt lat="67.8022337" lon="24.8341579">
      <time>2025-03-27T10:57:31Z</time>
    </trkpt>
    <trkpt lat="67.8022444" lon="24.8343926">
      <time>2025-03-27T10:57:34Z</time>
    </trkpt>
    <trkpt lat="67.8022494" lon="24.8345350">
      <time>2025-03-27T10:57:36Z</time>
    </trkpt>
    <trkpt lat="67.8022528" lon="24.8346129">
      <time>2025-03-27T10:57:37Z</time>
    </trkpt>
    <trkpt lat="67.8022540" lon="24.8347050">
      <time>2025-03-27T10:57:38Z</time>
    </trkpt>
    <trkpt lat="67.8022588" lon="24.8347821">
      <time>2025-03-27T10:57:39Z</time>
    </trkpt>
    <trkpt lat="67.8022747" lon="24.8349854">
      <time>2025-03-27T10:57:42Z</time>
    </trkpt>
    <trkpt lat="67.8022821" lon="24.8350758">
      <time>2025-03-27T10:57:43Z</time>
    </trkpt>
    <trkpt lat="67.8023486" lon="24.8355458">
      <time>2025-03-27T10:57:49Z</time>
    </trkpt>
    <trkpt lat="67.8024356" lon="24.8359693">
      <time>2025-03-27T10:57:55Z</time>
    </trkpt>
    <trkpt lat="67.8024492" lon="24.8360339">
      <time>2025-03-27T10:57:56Z</time>
    </trkpt>
    <trkpt lat="67.8025119" lon="24.8364274">
      <time>2025-03-27T10:58:02Z</time>
    </trkpt>
    <trkpt lat="67.8025378" lon="24.8369263">
      <time>2025-03-27T10:58:09Z</time>
    </trkpt>
    <trkpt lat="67.8025506" lon="24.8374597">
      <time>2025-03-27T10:58:16Z</time>
    </trkpt>
    <trkpt lat="67.8025701" lon="24.8380460">
      <time>2025-03-27T10:58:21Z</time>
    </trkpt>
    <trkpt lat="67.8025751" lon="24.8385743">
      <time>2025-03-27T10:58:25Z</time>
    </trkpt>
    <trkpt lat="67.8025554" lon="24.8388365">
      <time>2025-03-27T10:58:27Z</time>
    </trkpt>
    <trkpt lat="67.8024896" lon="24.8392493">
      <time>2025-03-27T10:58:31Z</time>
    </trkpt>
    <trkpt lat="67.8024725" lon="24.8393377">
      <time>2025-03-27T10:58:32Z</time>
    </trkpt>
    <trkpt lat="67.8024171" lon="24.8395927">
      <time>2025-03-27T10:58:35Z</time>
    </trkpt>
    <trkpt lat="67.8023492" lon="24.8399898">
      <time>2025-03-27T10:58:40Z</time>
    </trkpt>
    <trkpt lat="67.8022543" lon="24.8404352">
      <time>2025-03-27T10:58:46Z</time>
    </trkpt>
    <trkpt lat="67.8022299" lon="24.8405618">
      <time>2025-03-27T10:58:48Z</time>
    </trkpt>
    <trkpt lat="67.8021431" lon="24.8409956">
      <time>2025-03-27T10:58:54Z</time>
    </trkpt>
    <trkpt lat="67.8021229" lon="24.8410787">
      <time>2025-03-27T10:58:55Z</time>
    </trkpt>
    <trkpt lat="67.8020906" lon="24.8413144">
      <time>2025-03-27T10:58:58Z</time>
    </trkpt>
    <trkpt lat="67.8020669" lon="24.8414873">
      <time>2025-03-27T10:59:00Z</time>
    </trkpt>
    <trkpt lat="67.8020017" lon="24.8419173">
      <time>2025-03-27T10:59:06Z</time>
    </trkpt>
    <trkpt lat="67.8019753" lon="24.8421317">
      <time>2025-03-27T10:59:09Z</time>
    </trkpt>
    <trkpt lat="67.8019340" lon="24.8423503">
      <time>2025-03-27T10:59:12Z</time>
    </trkpt>
    <trkpt lat="67.8019203" lon="24.8424211">
      <time>2025-03-27T10:59:13Z</time>
    </trkpt>
    <trkpt lat="67.8018453" lon="24.8428571">
      <time>2025-03-27T10:59:19Z</time>
    </trkpt>
    <trkpt lat="67.8018344" lon="24.8429278">
      <time>2025-03-27T10:59:20Z</time>
    </trkpt>
    <trkpt lat="67.8017684" lon="24.8434198">
      <time>2025-03-27T10:59:26Z</time>
    </trkpt>
    <trkpt lat="67.8017341" lon="24.8439025">
      <time>2025-03-27T10:59:31Z</time>
    </trkpt>
    <trkpt lat="67.8017346" lon="24.8439953">
      <time>2025-03-27T10:59:32Z</time>
    </trkpt>
    <trkpt lat="67.8017490" lon="24.8444978">
      <time>2025-03-27T10:59:38Z</time>
    </trkpt>
    <trkpt lat="67.8017497" lon="24.8445763">
      <time>2025-03-27T10:59:39Z</time>
    </trkpt>
    <trkpt lat="67.8017391" lon="24.8450687">
      <time>2025-03-27T10:59:46Z</time>
    </trkpt>
    <trkpt lat="67.8017251" lon="24.8451788">
      <time>2025-03-27T10:59:48Z</time>
    </trkpt>
    <trkpt lat="67.8017220" lon="24.8452314">
      <time>2025-03-27T10:59:49Z</time>
    </trkpt>
    <trkpt lat="67.8017027" lon="24.8453367">
      <time>2025-03-27T10:59:51Z</time>
    </trkpt>
    <trkpt lat="67.8016934" lon="24.8453931">
      <time>2025-03-27T10:59:52Z</time>
    </trkpt>
    <trkpt lat="67.8016722" lon="24.8455227">
      <time>2025-03-27T10:59:54Z</time>
    </trkpt>
    <trkpt lat="67.8016587" lon="24.8455837">
      <time>2025-03-27T10:59:55Z</time>
    </trkpt>
    <trkpt lat="67.8016157" lon="24.8457672">
      <time>2025-03-27T10:59:58Z</time>
    </trkpt>
    <trkpt lat="67.8015741" lon="24.8459108">
      <time>2025-03-27T11:00:01Z</time>
    </trkpt>
    <trkpt lat="67.8015455" lon="24.8460299">
      <time>2025-03-27T11:00:03Z</time>
    </trkpt>
    <trkpt lat="67.8015135" lon="24.8461328">
      <time>2025-03-27T11:00:05Z</time>
    </trkpt>
    <trkpt lat="67.8014438" lon="24.8464739">
      <time>2025-03-27T11:00:10Z</time>
    </trkpt>
    <trkpt lat="67.8014209" lon="24.8466195">
      <time>2025-03-27T11:00:12Z</time>
    </trkpt>
    <trkpt lat="67.8013711" lon="24.8471097">
      <time>2025-03-27T11:00:19Z</time>
    </trkpt>
    <trkpt lat="67.8013655" lon="24.8472003">
      <time>2025-03-27T11:00:20Z</time>
    </trkpt>
    <trkpt lat="67.8013237" lon="24.8476625">
      <time>2025-03-27T11:00:27Z</time>
    </trkpt>
    <trkpt lat="67.8012753" lon="24.8479534">
      <time>2025-03-27T11:00:33Z</time>
    </trkpt>
    <trkpt lat="67.8011801" lon="24.8482558">
      <time>2025-03-27T11:00:41Z</time>
    </trkpt>
    <trkpt lat="67.8010955" lon="24.8485058">
      <time>2025-03-27T11:00:45Z</time>
    </trkpt>
    <trkpt lat="67.8010675" lon="24.8486051">
      <time>2025-03-27T11:00:46Z</time>
    </trkpt>
    <trkpt lat="67.8009986" lon="24.8492149">
      <time>2025-03-27T11:00:51Z</time>
    </trkpt>
    <trkpt lat="67.8009950" lon="24.8493654">
      <time>2025-03-27T11:00:52Z</time>
    </trkpt>
    <trkpt lat="67.8009839" lon="24.8497764">
      <time>2025-03-27T11:00:55Z</time>
    </trkpt>
    <trkpt lat="67.8009608" lon="24.8500047">
      <time>2025-03-27T11:00:57Z</time>
    </trkpt>
    <trkpt lat="67.8009335" lon="24.8501950">
      <time>2025-03-27T11:00:59Z</time>
    </trkpt>
    <trkpt lat="67.8009282" lon="24.8502748">
      <time>2025-03-27T11:01:00Z</time>
    </trkpt>
    <trkpt lat="67.8009118" lon="24.8504961">
      <time>2025-03-27T11:01:03Z</time>
    </trkpt>
    <trkpt lat="67.8008437" lon="24.8509707">
      <time>2025-03-27T11:01:09Z</time>
    </trkpt>
    <trkpt lat="67.8008061" lon="24.8513503">
      <time>2025-03-27T11:01:13Z</time>
    </trkpt>
    <trkpt lat="67.8007953" lon="24.8514426">
      <time>2025-03-27T11:01:14Z</time>
    </trkpt>
    <trkpt lat="67.8007699" lon="24.8516102">
      <time>2025-03-27T11:01:16Z</time>
    </trkpt>
    <trkpt lat="67.8007597" lon="24.8516879">
      <time>2025-03-27T11:01:17Z</time>
    </trkpt>
    <trkpt lat="67.8007225" lon="24.8519187">
      <time>2025-03-27T11:01:21Z</time>
    </trkpt>
    <trkpt lat="67.8007128" lon="24.8520117">
      <time>2025-03-27T11:01:23Z</time>
    </trkpt>
    <trkpt lat="67.8007021" lon="24.8521961">
      <time>2025-03-27T11:01:26Z</time>
    </trkpt>
    <trkpt lat="67.8007006" lon="24.8522692">
      <time>2025-03-27T11:01:27Z</time>
    </trkpt>
    <trkpt lat="67.8006989" lon="24.8527428">
      <time>2025-03-27T11:01:32Z</time>
    </trkpt>
    <trkpt lat="67.8007051" lon="24.8533125">
      <time>2025-03-27T11:01:36Z</time>
    </trkpt>
    <trkpt lat="67.8006584" lon="24.8538419">
      <time>2025-03-27T11:01:39Z</time>
    </trkpt>
    <trkpt lat="67.8006447" lon="24.8543061">
      <time>2025-03-27T11:01:41Z</time>
    </trkpt>
    <trkpt lat="67.8006805" lon="24.8549068">
      <time>2025-03-27T11:01:44Z</time>
    </trkpt>
    <trkpt lat="67.8007160" lon="24.8552694">
      <time>2025-03-27T11:01:46Z</time>
    </trkpt>
    <trkpt lat="67.8007333" lon="24.8554285">
      <time>2025-03-27T11:01:47Z</time>
    </trkpt>
    <trkpt lat="67.8007952" lon="24.8560156">
      <time>2025-03-27T11:01:51Z</time>
    </trkpt>
    <trkpt lat="67.8008187" lon="24.8562737">
      <time>2025-03-27T11:01:53Z</time>
    </trkpt>
    <trkpt lat="67.8008707" lon="24.8567910">
      <time>2025-03-27T11:01:57Z</time>
    </trkpt>
    <trkpt lat="67.8009060" lon="24.8570484">
      <time>2025-03-27T11:01:59Z</time>
    </trkpt>
    <trkpt lat="67.8009647" lon="24.8574472">
      <time>2025-03-27T11:02:02Z</time>
    </trkpt>
    <trkpt lat="67.8010265" lon="24.8578725">
      <time>2025-03-27T11:02:05Z</time>
    </trkpt>
    <trkpt lat="67.8010542" lon="24.8582619">
      <time>2025-03-27T11:02:08Z</time>
    </trkpt>
    <trkpt lat="67.8010519" lon="24.8584407">
      <time>2025-03-27T11:02:10Z</time>
    </trkpt>
    <trkpt lat="67.8010065" lon="24.8589580">
      <time>2025-03-27T11:02:16Z</time>
    </trkpt>
    <trkpt lat="67.8009560" lon="24.8594943">
      <time>2025-03-27T11:02:22Z</time>
    </trkpt>
    <trkpt lat="67.8008644" lon="24.8599851">
      <time>2025-03-27T11:02:28Z</time>
    </trkpt>
    <trkpt lat="67.8007181" lon="24.8603200">
      <time>2025-03-27T11:02:34Z</time>
    </trkpt>
    <trkpt lat="67.8006916" lon="24.8603670">
      <time>2025-03-27T11:02:35Z</time>
    </trkpt>
    <trkpt lat="67.8005393" lon="24.8605807">
      <time>2025-03-27T11:02:41Z</time>
    </trkpt>
    <trkpt lat="67.8003966" lon="24.8609212">
      <time>2025-03-27T11:02:48Z</time>
    </trkpt>
    <trkpt lat="67.8003508" lon="24.8612685">
      <time>2025-03-27T11:02:52Z</time>
    </trkpt>
    <trkpt lat="67.8003097" lon="24.8617462">
      <time>2025-03-27T11:02:57Z</time>
    </trkpt>
    <trkpt lat="67.8002440" lon="24.8622715">
      <time>2025-03-27T11:03:02Z</time>
    </trkpt>
    <trkpt lat="67.8002080" lon="24.8625461">
      <time>2025-03-27T11:03:05Z</time>
    </trkpt>
    <trkpt lat="67.8001421" lon="24.8628898">
      <time>2025-03-27T11:03:10Z</time>
    </trkpt>
    <trkpt lat="67.8000717" lon="24.8631927">
      <time>2025-03-27T11:03:16Z</time>
    </trkpt>
    <trkpt lat="67.8000106" lon="24.8634588">
      <time>2025-03-27T11:03:22Z</time>
    </trkpt>
    <trkpt lat="67.7999493" lon="24.8637131">
      <time>2025-03-27T11:03:27Z</time>
    </trkpt>
    <trkpt lat="67.7999400" lon="24.8637767">
      <time>2025-03-27T11:03:28Z</time>
    </trkpt>
    <trkpt lat="67.7999218" lon="24.8639210">
      <time>2025-03-27T11:03:30Z</time>
    </trkpt>
    <trkpt lat="67.7998719" lon="24.8644043">
      <time>2025-03-27T11:03:35Z</time>
    </trkpt>
    <trkpt lat="67.7998668" lon="24.8644879">
      <time>2025-03-27T11:03:36Z</time>
    </trkpt>
    <trkpt lat="67.7998320" lon="24.8650453">
      <time>2025-03-27T11:03:41Z</time>
    </trkpt>
    <trkpt lat="67.7998198" lon="24.8653188">
      <time>2025-03-27T11:03:44Z</time>
    </trkpt>
    <trkpt lat="67.7997890" lon="24.8658006">
      <time>2025-03-27T11:03:50Z</time>
    </trkpt>
    <trkpt lat="67.7997669" lon="24.8661510">
      <time>2025-03-27T11:03:56Z</time>
    </trkpt>
    <trkpt lat="67.7997315" lon="24.8666400">
      <time>2025-03-27T11:04:03Z</time>
    </trkpt>
    <trkpt lat="67.7997255" lon="24.8667316">
      <time>2025-03-27T11:04:04Z</time>
    </trkpt>
    <trkpt lat="67.7997017" lon="24.8672622">
      <time>2025-03-27T11:04:10Z</time>
    </trkpt>
    <trkpt lat="67.7996370" lon="24.8676780">
      <time>2025-03-27T11:04:16Z</time>
    </trkpt>
    <trkpt lat="67.7995773" lon="24.8679222">
      <time>2025-03-27T11:04:21Z</time>
    </trkpt>
    <trkpt lat="67.7994601" lon="24.8683003">
      <time>2025-03-27T11:04:29Z</time>
    </trkpt>
    <trkpt lat="67.7993453" lon="24.8687115">
      <time>2025-03-27T11:04:37Z</time>
    </trkpt>
    <trkpt lat="67.7992825" lon="24.8690486">
      <time>2025-03-27T11:04:42Z</time>
    </trkpt>
    <trkpt lat="67.7992091" lon="24.8694278">
      <time>2025-03-27T11:04:47Z</time>
    </trkpt>
    <trkpt lat="67.7991379" lon="24.8699640">
      <time>2025-03-27T11:04:53Z</time>
    </trkpt>
    <trkpt lat="67.7991315" lon="24.8700710">
      <time>2025-03-27T11:04:54Z</time>
    </trkpt>
    <trkpt lat="67.7991806" lon="24.8705772">
      <time>2025-03-27T11:04:59Z</time>
    </trkpt>
    <trkpt lat="67.7992892" lon="24.8710402">
      <time>2025-03-27T11:05:04Z</time>
    </trkpt>
    <trkpt lat="67.7993469" lon="24.8713852">
      <time>2025-03-27T11:05:07Z</time>
    </trkpt>
    <trkpt lat="67.7993562" lon="24.8714650">
      <time>2025-03-27T11:05:08Z</time>
    </trkpt>
    <trkpt lat="67.7993656" lon="24.8715592">
      <time>2025-03-27T11:05:09Z</time>
    </trkpt>
    <trkpt lat="67.7993937" lon="24.8720352">
      <time>2025-03-27T11:05:14Z</time>
    </trkpt>
    <trkpt lat="67.7993903" lon="24.8721514">
      <time>2025-03-27T11:05:15Z</time>
    </trkpt>
    <trkpt lat="67.7993587" lon="24.8726382">
      <time>2025-03-27T11:05:20Z</time>
    </trkpt>
    <trkpt lat="67.7993413" lon="24.8727554">
      <time>2025-03-27T11:05:21Z</time>
    </trkpt>
    <trkpt lat="67.7992241" lon="24.8731906">
      <time>2025-03-27T11:05:27Z</time>
    </trkpt>
    <trkpt lat="67.7990540" lon="24.8734396">
      <time>2025-03-27T11:05:33Z</time>
    </trkpt>
    <trkpt lat="67.7989453" lon="24.8736458">
      <time>2025-03-27T11:05:38Z</time>
    </trkpt>
    <trkpt lat="67.7989116" lon="24.8737638">
      <time>2025-03-27T11:05:40Z</time>
    </trkpt>
    <trkpt lat="67.7988153" lon="24.8741935">
      <time>2025-03-27T11:05:46Z</time>
    </trkpt>
    <trkpt lat="67.7987931" lon="24.8743489">
      <time>2025-03-27T11:05:48Z</time>
    </trkpt>
    <trkpt lat="67.7987197" lon="24.8746870">
      <time>2025-03-27T11:05:53Z</time>
    </trkpt>
    <trkpt lat="67.7986775" lon="24.8748659">
      <time>2025-03-27T11:05:56Z</time>
    </trkpt>
    <trkpt lat="67.7986022" lon="24.8751449">
      <time>2025-03-27T11:06:01Z</time>
    </trkpt>
    <trkpt lat="67.7985000" lon="24.8755941">
      <time>2025-03-27T11:06:09Z</time>
    </trkpt>
    <trkpt lat="67.7985021" lon="24.8756593">
      <time>2025-03-27T11:06:10Z</time>
    </trkpt>
    <trkpt lat="67.7985529" lon="24.8758396">
      <time>2025-03-27T11:06:13Z</time>
    </trkpt>
    <trkpt lat="67.7987035" lon="24.8760022">
      <time>2025-03-27T11:06:18Z</time>
    </trkpt>
    <trkpt lat="67.7988684" lon="24.8758982">
      <time>2025-03-27T11:06:23Z</time>
    </trkpt>
    <trkpt lat="67.7989800" lon="24.8756290">
      <time>2025-03-27T11:06:28Z</time>
    </trkpt>
    <trkpt lat="67.7990935" lon="24.8752827">
      <time>2025-03-27T11:06:34Z</time>
    </trkpt>
    <trkpt lat="67.7992136" lon="24.8750820">
      <time>2025-03-27T11:06:40Z</time>
    </trkpt>
    <trkpt lat="67.7992572" lon="24.8750282">
      <time>2025-03-27T11:06:45Z</time>
    </trkpt>
  </trkseg></trk>
</gpx>
