<?xml version="1.0" encoding="UTF-8"?>
<gpx version="1.1" creator="Diary FIT converter" xmlns="http://www.topografix.com/GPX/1/1">
  <trk><name>Running</name><trkseg>
    <trkpt lat="38.7089490" lon="-9.1508972">
      <time>2020-10-22T05:59:44Z</time>
    </trkpt>
    <trkpt lat="38.7088409" lon="-9.1507023">
      <time>2020-10-22T05:59:46Z</time>
    </trkpt>
    <trkpt lat="38.7087958" lon="-9.1507347">
      <time>2020-10-22T05:59:48Z</time>
    </trkpt>
    <trkpt lat="38.7087601" lon="-9.1507349">
      <time>2020-10-22T05:59:49Z</time>
    </trkpt>
    <trkpt lat="38.7087327" lon="-9.1507249">
      <time>2020-10-22T05:59:50Z</time>
    </trkpt>
    <trkpt lat="38.7086522" lon="-9.1506906">
      <time>2020-10-22T05:59:53Z</time>
    </trkpt>
    <trkpt lat="38.7086089" lon="-9.1506581">
      <time>2020-10-22T05:59:55Z</time>
    </trkpt>
    <trkpt lat="38.7085684" lon="-9.1506154">
      <time>2020-10-22T05:59:57Z</time>
    </trkpt>
    <trkpt lat="38.7084541" lon="-9.1505354">
      <time>2020-10-22T06:00:03Z</time>
    </trkpt>
    <trkpt lat="38.7084331" lon="-9.1505327">
      <time>2020-10-22T06:00:04Z</time>
    </trkpt>
    <trkpt lat="38.7083774" lon="-9.1505270">
      <time>2020-10-22T06:00:07Z</time>
    </trkpt>
    <trkpt lat="38.7082639" lon="-9.1505262">
      <time>2020-10-22T06:00:13Z</time>
    </trkpt>
    <trkpt lat="38.7081049" lon="-9.1505218">
      <time>2020-10-22T06:00:20Z</time>
    </trkpt>
    <trkpt lat="38.7079502" lon="-9.1504731">
      <time>2020-10-22T06:00:26Z</time>
    </trkpt>
    <trkpt lat="38.7079020" lon="-9.1504658">
      <time>2020-10-22T06:00:28Z</time>
    </trkpt>
    <trkpt lat="38.7078562" lon="-9.1504846">
      <time>2020-10-22T06:00:31Z</time>
    </trkpt>
    <trkpt lat="38.7078017" lon="-9.1504786">
      <time>2020-10-22T06:00:34Z</time>
    </trkpt>
    <trkpt lat="38.7077810" lon="-9.1504776">
      <time>2020-10-22T06:00:35Z</time>
    </trkpt>
    <trkpt lat="38.7075753" lon="-9.1504043">
      <time>2020-10-22T06:00:42Z</time>
    </trkpt>
    <trkpt lat="38.7073785" lon="-9.1503501">
      <time>2020-10-22T06:00:48Z</time>
    </trkpt>
    <trkpt lat="38.7071866" lon="-9.1503345">
      <time>2020-10-22T06:00:54Z</time>
    </trkpt>
    <trkpt lat="38.7071550" lon="-9.1503404">
      <time>2020-10-22T06:00:55Z</time>
    </trkpt>
    <trkpt lat="38.7069709" lon="-9.1503528">
      <time>2020-10-22T06:01:01Z</time>
    </trkpt>
    <trkpt lat="38.7069226" lon="-9.1503351">
      <time>2020-10-22T06:01:03Z</time>
    </trkpt>
    <trkpt lat="38.7067731" lon="-9.1502747">
      <time>2020-10-22T06:01:10Z</time>
    </trkpt>
    <trkpt lat="38.7067156" lon="-9.1502798">
      <time>2020-10-22T06:01:12Z</time>
    </trkpt>
    <trkpt lat="38.7066747" lon="-9.1502416">
      <time>2020-10-22T06:01:15Z</time>
    </trkpt>
    <trkpt lat="38.7066578" lon="-9.1500793">
      <time>2020-10-22T06:01:21Z</time>
    </trkpt>
    <trkpt lat="38.7066352" lon="-9.1499728">
      <time>2020-10-22T06:01:25Z</time>
    </trkpt>
    <trkpt lat="38.7066495" lon="-9.1498857">
      <time>2020-10-22T06:01:28Z</time>
    </trkpt>
    <trkpt lat="38.7066443" lon="-9.1496500">
      <time>2020-10-22T06:01:36Z</time>
    </trkpt>
    <trkpt lat="38.7066399" lon="-9.1496309">
      <time>2020-10-22T06:01:37Z</time>
    </trkpt>
    <trkpt lat="38.7065896" lon="-9.1494162">
      <time>2020-10-22T06:01:45Z</time>
    </trkpt>
    <trkpt lat="38.7066097" lon="-9.1492044">
      <time>2020-10-22T06:01:52Z</time>
    </trkpt>
    <trkpt lat="38.7065688" lon="-9.1490281">
      <time>2020-10-22T06:01:59Z</time>
    </trkpt>
    <trkpt lat="38.7065630" lon="-9.1488365">
      <time>2020-10-22T06:02:05Z</time>
    </trkpt>
    <trkpt lat="38.7064588" lon="-9.1487568">
      <time>2020-10-22T06:02:09Z</time>
    </trkpt>
    <trkpt lat="38.7062873" lon="-9.1487831">
      <time>2020-10-22T06:02:15Z</time>
    </trkpt>
    <trkpt lat="38.7062549" lon="-9.1487681">
      <time>2020-10-22T06:02:17Z</time>
    </trkpt>
    <trkpt lat="38.7062543" lon="-9.1487489">
      <time>2020-10-22T06:02:18Z</time>
    </trkpt>
    <trkpt lat="38.7062939" lon="-9.1485762">
      <time>2020-10-22T06:02:24Z</time>
    </trkpt>
    <trkpt lat="38.7063089" lon="-9.1483924">
      <time>2020-10-22T06:02:30Z</time>
    </trkpt>
    <trkpt lat="38.7063101" lon="-9.1481860">
      <time>2020-10-22T06:02:37Z</time>
    </trkpt>
    <trkpt lat="38.7063132" lon="-9.1481558">
      <time>2020-10-22T06:02:38Z</time>
    </trkpt>
    <trkpt lat="38.7063164" lon="-9.1479501">
      <time>2020-10-22T06:02:45Z</time>
    </trkpt>
    <trkpt lat="38.7063120" lon="-9.1476894">
      <time>2020-10-22T06:02:54Z</time>
    </trkpt>
    <trkpt lat="38.7063396" lon="-9.1474636">
      <time>2020-10-22T06:03:03Z</time>
    </trkpt>
    <trkpt lat="38.7063719" lon="-9.1472191">
      <time>2020-10-22T06:03:10Z</time>
    </trkpt>
    <trkpt lat="38.7063604" lon="-9.1470564">
      <time>2020-10-22T06:03:17Z</time>
    </trkpt>
    <trkpt lat="38.7063618" lon="-9.1468040">
      <time>2020-10-22T06:03:25Z</time>
    </trkpt>
    <trkpt lat="38.7063621" lon="-9.1467355">
      <time>2020-10-22T06:03:27Z</time>
    </trkpt>
    <trkpt lat="38.7063354" lon="-9.1464914">
      <time>2020-10-22T06:03:35Z</time>
    </trkpt>
    <trkpt lat="38.7063389" lon="-9.1464281">
      <time>2020-10-22T06:03:37Z</time>
    </trkpt>
    <trkpt lat="38.7063331" lon="-9.1463089">
      <time>2020-10-22T06:03:41Z</time>
    </trkpt>
    <trkpt lat="38.7063294" lon="-9.1462400">
      <time>2020-10-22T06:03:43Z</time>
    </trkpt>
    <trkpt lat="38.7063245" lon="-9.1460701">
      <time>2020-10-22T06:03:47Z</time>
    </trkpt>
    <trkpt lat="38.7063517" lon="-9.1459520">
      <time>2020-10-22T06:03:51Z</time>
    </trkpt>
    <trkpt lat="38.7063545" lon="-9.1458631">
      <time>2020-10-22T06:03:55Z</time>
    </trkpt>
    <trkpt lat="38.7063312" lon="-9.1457615">
      <time>2020-10-22T06:03:58Z</time>
    </trkpt>
    <trkpt lat="38.7063459" lon="-9.1456059">
      <time>2020-10-22T06:04:02Z</time>
    </trkpt>
    <trkpt lat="38.7063459" lon="-9.1455127">
      <time>2020-10-22T06:04:05Z</time>
    </trkpt>
    <trkpt lat="38.7063148" lon="-9.1452674">
      <time>2020-10-22T06:04:12Z</time>
    </trkpt>
    <trkpt lat="38.7063048" lon="-9.1451743">
      <time>2020-10-22T06:04:15Z</time>
    </trkpt>
    <trkpt lat="38.7063041" lon="-9.1450904">
      <time>2020-10-22T06:04:18Z</time>
    </trkpt>
    <trkpt lat="38.7063053" lon="-9.1450056">
      <time>2020-10-22T06:04:21Z</time>
    </trkpt>
    <trkpt lat="38.7062537" lon="-9.1448321">
      <time>2020-10-22T06:04:26Z</time>
    </trkpt>
    <trkpt lat="38.7062490" lon="-9.1447393">
      <time>2020-10-22T06:04:29Z</time>
    </trkpt>
    <trkpt lat="38.7062297" lon="-9.1445129">
      <time>2020-10-22T06:04:36Z</time>
    </trkpt>
    <trkpt lat="38.7062287" lon="-9.1443254">
      <time>2020-10-22T06:04:42Z</time>
    </trkpt>
    <trkpt lat="38.7061821" lon="-9.1441678">
      <time>2020-10-22T06:04:47Z</time>
    </trkpt>
    <trkpt lat="38.7060526" lon="-9.1440362">
      <time>2020-10-22T06:04:53Z</time>
    </trkpt>
    <trkpt lat="38.7058686" lon="-9.1439683">
      <time>2020-10-22T06:04:59Z</time>
    </trkpt>
    <trkpt lat="38.7058369" lon="-9.1439592">
      <time>2020-10-22T06:05:00Z</time>
    </trkpt>
    <trkpt lat="38.7056454" lon="-9.1439120">
      <time>2020-10-22T06:05:06Z</time>
    </trkpt>
    <trkpt lat="38.7056206" lon="-9.1439113">
      <time>2020-10-22T06:05:07Z</time>
    </trkpt>
    <trkpt lat="38.7054740" lon="-9.1439113">
      <time>2020-10-22T06:05:13Z</time>
    </trkpt>
    <trkpt lat="38.7052869" lon="-9.1438813">
      <time>2020-10-22T06:05:21Z</time>
    </trkpt>
    <trkpt lat="38.7051650" lon="-9.1437713">
      <time>2020-10-22T06:05:28Z</time>
    </trkpt>
    <trkpt lat="38.7051452" lon="-9.1436329">
      <time>2020-10-22T06:05:33Z</time>
    </trkpt>
    <trkpt lat="38.7051445" lon="-9.1435938">
      <time>2020-10-22T06:05:34Z</time>
    </trkpt>
    <trkpt lat="38.7051477" lon="-9.1433846">
      <time>2020-10-22T06:05:41Z</time>
    </trkpt>
    <trkpt lat="38.7051410" lon="-9.1432393">
      <time>2020-10-22T06:05:46Z</time>
    </trkpt>
    <trkpt lat="38.7051935" lon="-9.1430775">
      <time>2020-10-22T06:05:52Z</time>
    </trkpt>
    <trkpt lat="38.7051983" lon="-9.1430481">
      <time>2020-10-22T06:05:53Z</time>
    </trkpt>
    <trkpt lat="38.7052165" lon="-9.1428161">
      <time>2020-10-22T06:06:01Z</time>
    </trkpt>
    <trkpt lat="38.7052800" lon="-9.1426242">
      <time>2020-10-22T06:06:08Z</time>
    </trkpt>
    <trkpt lat="38.7053316" lon="-9.1424063">
      <time>2020-10-22T06:06:16Z</time>
    </trkpt>
    <trkpt lat="38.7053796" lon="-9.1422416">
      <time>2020-10-22T06:06:23Z</time>
    </trkpt>
    <trkpt lat="38.7054172" lon="-9.1420612">
      <time>2020-10-22T06:06:29Z</time>
    </trkpt>
    <trkpt lat="38.7054521" lon="-9.1418494">
      <time>2020-10-22T06:06:36Z</time>
    </trkpt>
    <trkpt lat="38.7054636" lon="-9.1417432">
      <time>2020-10-22T06:06:40Z</time>
    </trkpt>
    <trkpt lat="38.7054799" lon="-9.1416904">
      <time>2020-10-22T06:06:42Z</time>
    </trkpt>
    <trkpt lat="38.7054987" lon="-9.1415390">
      <time>2020-10-22T06:06:47Z</time>
    </trkpt>
    <trkpt lat="38.7055079" lon="-9.1414767">
      <time>2020-10-22T06:06:49Z</time>
    </trkpt>
    <trkpt lat="38.7055174" lon="-9.1414140">
      <time>2020-10-22T06:06:51Z</time>
    </trkpt>
    <trkpt lat="38.7055511" lon="-9.1413341">
      <time>2020-10-22T06:06:54Z</time>
    </trkpt>
    <trkpt lat="38.7056081" lon="-9.1411642">
      <time>2020-10-22T06:07:00Z</time>
    </trkpt>
    <trkpt lat="38.7056427" lon="-9.1410065">
      <time>2020-10-22T06:07:05Z</time>
    </trkpt>
    <trkpt lat="38.7056639" lon="-9.1409179">
      <time>2020-10-22T06:07:08Z</time>
    </trkpt>
    <trkpt lat="38.7057210" lon="-9.1406737">
      <time>2020-10-22T06:07:16Z</time>
    </trkpt>
    <trkpt lat="38.7057256" lon="-9.1406464">
      <time>2020-10-22T06:07:17Z</time>
    </trkpt>
    <trkpt lat="38.7057567" lon="-9.1405264">
      <time>2020-10-22T06:07:21Z</time>
    </trkpt>
    <trkpt lat="38.7057612" lon="-9.1404036">
      <time>2020-10-22T06:07:25Z</time>
    </trkpt>
    <trkpt lat="38.7057801" lon="-9.1401945">
      <time>2020-10-22T06:07:32Z</time>
    </trkpt>
    <trkpt lat="38.7057815" lon="-9.1401618">
      <time>2020-10-22T06:07:33Z</time>
    </trkpt>
    <trkpt lat="38.7058372" lon="-9.1399636">
      <time>2020-10-22T06:07:40Z</time>
    </trkpt>
    <trkpt lat="38.7059127" lon="-9.1397384">
      <time>2020-10-22T06:07:48Z</time>
    </trkpt>
    <trkpt lat="38.7059497" lon="-9.1395795">
      <time>2020-10-22T06:07:54Z</time>
    </trkpt>
    <trkpt lat="38.7059654" lon="-9.1395263">
      <time>2020-10-22T06:07:56Z</time>
    </trkpt>
    <trkpt lat="38.7060126" lon="-9.1394205">
      <time>2020-10-22T06:08:01Z</time>
    </trkpt>
    <trkpt lat="38.7060316" lon="-9.1393457">
      <time>2020-10-22T06:08:04Z</time>
    </trkpt>
    <trkpt lat="38.7060520" lon="-9.1392722">
      <time>2020-10-22T06:08:07Z</time>
    </trkpt>
    <trkpt lat="38.7061095" lon="-9.1390329">
      <time>2020-10-22T06:08:16Z</time>
    </trkpt>
    <trkpt lat="38.7061213" lon="-9.1389845">
      <time>2020-10-22T06:08:18Z</time>
    </trkpt>
    <trkpt lat="38.7061507" lon="-9.1388530">
      <time>2020-10-22T06:08:23Z</time>
    </trkpt>
    <trkpt lat="38.7061765" lon="-9.1387509">
      <time>2020-10-22T06:08:27Z</time>
    </trkpt>
    <trkpt lat="38.7062058" lon="-9.1386482">
      <time>2020-10-22T06:08:31Z</time>
    </trkpt>
    <trkpt lat="38.7062417" lon="-9.1384741">
      <time>2020-10-22T06:08:38Z</time>
    </trkpt>
    <trkpt lat="38.7062353" lon="-9.1384324">
      <time>2020-10-22T06:08:40Z</time>
    </trkpt>
    <trkpt lat="38.7062324" lon="-9.1384184">
      <time>2020-10-22T06:08:41Z</time>
    </trkpt>
    <trkpt lat="38.7062381" lon="-9.1383698">
      <time>2020-10-22T06:10:07Z</time>
    </trkpt>
    <trkpt lat="38.7062472" lon="-9.1383522">
      <time>2020-10-22T06:10:08Z</time>
    </trkpt>
    <trkpt lat="38.7062634" lon="-9.1383120">
      <time>2020-10-22T06:10:10Z</time>
    </trkpt>
    <trkpt lat="38.7063146" lon="-9.1381482">
      <time>2020-10-22T06:10:16Z</time>
    </trkpt>
    <trkpt lat="38.7063394" lon="-9.1380621">
      <time>2020-10-22T06:10:19Z</time>
    </trkpt>
    <trkpt lat="38.7063763" lon="-9.1379163">
      <time>2020-10-22T06:10:24Z</time>
    </trkpt>
    <trkpt lat="38.7063851" lon="-9.1378876">
      <time>2020-10-22T06:10:25Z</time>
    </trkpt>
    <trkpt lat="38.7064549" lon="-9.1376447">
      <time>2020-10-22T06:10:33Z</time>
    </trkpt>
    <trkpt lat="38.7064835" lon="-9.1375317">
      <time>2020-10-22T06:10:37Z</time>
    </trkpt>
    <trkpt lat="38.7065271" lon="-9.1374278">
      <time>2020-10-22T06:10:41Z</time>
    </trkpt>
    <trkpt lat="38.7065483" lon="-9.1373428">
      <time>2020-10-22T06:10:44Z</time>
    </trkpt>
    <trkpt lat="38.7066108" lon="-9.1371263">
      <time>2020-10-22T06:10:52Z</time>
    </trkpt>
    <trkpt lat="38.7066120" lon="-9.1370966">
      <time>2020-10-22T06:10:53Z</time>
    </trkpt>
    <trkpt lat="38.7066432" lon="-9.1369049">
      <time>2020-10-22T06:11:00Z</time>
    </trkpt>
    <trkpt lat="38.7066832" lon="-9.1367147">
      <time>2020-10-22T06:11:08Z</time>
    </trkpt>
    <trkpt lat="38.7066875" lon="-9.1366988">
      <time>2020-10-22T06:11:09Z</time>
    </trkpt>
    <trkpt lat="38.7067120" lon="-9.1366029">
      <time>2020-10-22T06:11:17Z</time>
    </trkpt>
    <trkpt lat="38.7067050" lon="-9.1365858">
      <time>2020-10-22T06:11:19Z</time>
    </trkpt>
    <trkpt lat="38.7066965" lon="-9.1366012">
      <time>2020-10-22T06:11:23Z</time>
    </trkpt>
    <trkpt lat="38.7066937" lon="-9.1366149">
      <time>2020-10-22T06:11:28Z</time>
    </trkpt>
    <trkpt lat="38.7067318" lon="-9.1364584">
      <time>2020-10-22T06:11:44Z</time>
    </trkpt>
    <trkpt lat="38.7067407" lon="-9.1364336">
      <time>2020-10-22T06:11:45Z</time>
    </trkpt>
    <trkpt lat="38.7067647" lon="-9.1363273">
      <time>2020-10-22T06:11:48Z</time>
    </trkpt>
    <trkpt lat="38.7067804" lon="-9.1362731">
      <time>2020-10-22T06:11:50Z</time>
    </trkpt>
    <trkpt lat="38.7068031" lon="-9.1361770">
      <time>2020-10-22T06:11:53Z</time>
    </trkpt>
    <trkpt lat="38.7068223" lon="-9.1360895">
      <time>2020-10-22T06:11:56Z</time>
    </trkpt>
    <trkpt lat="38.7068570" lon="-9.1359100">
      <time>2020-10-22T06:12:02Z</time>
    </trkpt>
    <trkpt lat="38.7069033" lon="-9.1357467">
      <time>2020-10-22T06:12:08Z</time>
    </trkpt>
    <trkpt lat="38.7069072" lon="-9.1357207">
      <time>2020-10-22T06:12:09Z</time>
    </trkpt>
    <trkpt lat="38.7069315" lon="-9.1356712">
      <time>2020-10-22T06:12:14Z</time>
    </trkpt>
    <trkpt lat="38.7069316" lon="-9.1356612">
      <time>2020-10-22T06:12:15Z</time>
    </trkpt>
    <trkpt lat="38.7069694" lon="-9.1356477">
      <time>2020-10-22T06:12:54Z</time>
    </trkpt>
    <trkpt lat="38.7069943" lon="-9.1356415">
      <time>2020-10-22T06:12:55Z</time>
    </trkpt>
    <trkpt lat="38.7070181" lon="-9.1356291">
      <time>2020-10-22T06:12:56Z</time>
    </trkpt>
    <trkpt lat="38.7070735" lon="-9.1355546">
      <time>2020-10-22T06:12:59Z</time>
    </trkpt>
    <trkpt lat="38.7071038" lon="-9.1354745">
      <time>2020-10-22T06:13:02Z</time>
    </trkpt>
    <trkpt lat="38.7071083" lon="-9.1354437">
      <time>2020-10-22T06:13:03Z</time>
    </trkpt>
    <trkpt lat="38.7071141" lon="-9.1353502">
      <time>2020-10-22T06:13:06Z</time>
    </trkpt>
    <trkpt lat="38.7070877" lon="-9.1352272">
      <time>2020-10-22T06:13:11Z</time>
    </trkpt>
    <trkpt lat="38.7070695" lon="-9.1351717">
      <time>2020-10-22T06:13:13Z</time>
    </trkpt>
    <trkpt lat="38.7070568" lon="-9.1351449">
      <time>2020-10-22T06:13:14Z</time>
    </trkpt>
    <trkpt lat="38.7070803" lon="-9.1350194">
      <time>2020-10-22T06:13:18Z</time>
    </trkpt>
    <trkpt lat="38.7071353" lon="-9.1348474">
      <time>2020-10-22T06:13:24Z</time>
    </trkpt>
    <trkpt lat="38.7071413" lon="-9.1348159">
      <time>2020-10-22T06:13:25Z</time>
    </trkpt>
    <trkpt lat="38.7071623" lon="-9.1346938">
      <time>2020-10-22T06:13:30Z</time>
    </trkpt>
    <trkpt lat="38.7071953" lon="-9.1346206">
      <time>2020-10-22T06:13:33Z</time>
    </trkpt>
    <trkpt lat="38.7072463" lon="-9.1344310">
      <time>2020-10-22T06:13:41Z</time>
    </trkpt>
    <trkpt lat="38.7072528" lon="-9.1343753">
      <time>2020-10-22T06:13:43Z</time>
    </trkpt>
    <trkpt lat="38.7072669" lon="-9.1343292">
      <time>2020-10-22T06:13:45Z</time>
    </trkpt>
    <trkpt lat="38.7073239" lon="-9.1341657">
      <time>2020-10-22T06:13:51Z</time>
    </trkpt>
    <trkpt lat="38.7073434" lon="-9.1341005">
      <time>2020-10-22T06:13:53Z</time>
    </trkpt>
    <trkpt lat="38.7073506" lon="-9.1339671">
      <time>2020-10-22T06:13:57Z</time>
    </trkpt>
    <trkpt lat="38.7073573" lon="-9.1337731">
      <time>2020-10-22T06:14:03Z</time>
    </trkpt>
    <trkpt lat="38.7073611" lon="-9.1337419">
      <time>2020-10-22T06:14:04Z</time>
    </trkpt>
    <trkpt lat="38.7074100" lon="-9.1335758">
      <time>2020-10-22T06:14:10Z</time>
    </trkpt>
    <trkpt lat="38.7074838" lon="-9.1333610">
      <time>2020-10-22T06:14:18Z</time>
    </trkpt>
    <trkpt lat="38.7075095" lon="-9.1333219">
      <time>2020-10-22T06:14:20Z</time>
    </trkpt>
    <trkpt lat="38.7075734" lon="-9.1332565">
      <time>2020-10-22T06:14:23Z</time>
    </trkpt>
    <trkpt lat="38.7076049" lon="-9.1332475">
      <time>2020-10-22T06:14:24Z</time>
    </trkpt>
    <trkpt lat="38.7076224" lon="-9.1332320">
      <time>2020-10-22T06:14:25Z</time>
    </trkpt>
    <trkpt lat="38.7076923" lon="-9.1332397">
      <time>2020-10-22T06:14:48Z</time>
    </trkpt>
    <trkpt lat="38.7076933" lon="-9.1332403">
      <time>2020-10-22T06:14:49Z</time>
    </trkpt>
    <trkpt lat="38.7077183" lon="-9.1330147">
      <time>2020-10-22T06:14:58Z</time>
    </trkpt>
    <trkpt lat="38.7077184" lon="-9.1329412">
      <time>2020-10-22T06:15:00Z</time>
    </trkpt>
    <trkpt lat="38.7077713" lon="-9.1327883">
      <time>2020-10-22T06:15:05Z</time>
    </trkpt>
    <trkpt lat="38.7078732" lon="-9.1325666">
      <time>2020-10-22T06:15:13Z</time>
    </trkpt>
    <trkpt lat="38.7078968" lon="-9.1325091">
      <time>2020-10-22T06:15:15Z</time>
    </trkpt>
    <trkpt lat="38.7079966" lon="-9.1323079">
      <time>2020-10-22T06:15:23Z</time>
    </trkpt>
    <trkpt lat="38.7080881" lon="-9.1320830">
      <time>2020-10-22T06:15:31Z</time>
    </trkpt>
    <trkpt lat="38.7080990" lon="-9.1320563">
      <time>2020-10-22T06:15:32Z</time>
    </trkpt>
    <trkpt lat="38.7081249" lon="-9.1320066">
      <time>2020-10-22T06:15:34Z</time>
    </trkpt>
    <trkpt lat="38.7081635" lon="-9.1319405">
      <time>2020-10-22T06:15:37Z</time>
    </trkpt>
    <trkpt lat="38.7082156" lon="-9.1318359">
      <time>2020-10-22T06:15:41Z</time>
    </trkpt>
    <trkpt lat="38.7082584" lon="-9.1317287">
      <time>2020-10-22T06:15:45Z</time>
    </trkpt>
    <trkpt lat="38.7083199" lon="-9.1315767">
      <time>2020-10-22T06:15:51Z</time>
    </trkpt>
    <trkpt lat="38.7083675" lon="-9.1314706">
      <time>2020-10-22T06:15:55Z</time>
    </trkpt>
    <trkpt lat="38.7084000" lon="-9.1313829">
      <time>2020-10-22T06:15:58Z</time>
    </trkpt>
    <trkpt lat="38.7084912" lon="-9.1311838">
      <time>2020-10-22T06:16:05Z</time>
    </trkpt>
    <trkpt lat="38.7085189" lon="-9.1311325">
      <time>2020-10-22T06:16:07Z</time>
    </trkpt>
    <trkpt lat="38.7085916" lon="-9.1309809">
      <time>2020-10-22T06:16:13Z</time>
    </trkpt>
    <trkpt lat="38.7086296" lon="-9.1309014">
      <time>2020-10-22T06:16:16Z</time>
    </trkpt>
    <trkpt lat="38.7086775" lon="-9.1307940">
      <time>2020-10-22T06:16:20Z</time>
    </trkpt>
    <trkpt lat="38.7087209" lon="-9.1307220">
      <time>2020-10-22T06:16:23Z</time>
    </trkpt>
    <trkpt lat="38.7087682" lon="-9.1305979">
      <time>2020-10-22T06:16:28Z</time>
    </trkpt>
    <trkpt lat="38.7087757" lon="-9.1305759">
      <time>2020-10-22T06:16:29Z</time>
    </trkpt>
    <trkpt lat="38.7088199" lon="-9.1304535">
      <time>2020-10-22T06:16:35Z</time>
    </trkpt>
    <trkpt lat="38.7088414" lon="-9.1304245">
      <time>2020-10-22T06:16:37Z</time>
    </trkpt>
    <trkpt lat="38.7089384" lon="-9.1302760">
      <time>2020-10-22T06:16:45Z</time>
    </trkpt>
    <trkpt lat="38.7089592" lon="-9.1302568">
      <time>2020-10-22T06:16:46Z</time>
    </trkpt>
    <trkpt lat="38.7090205" lon="-9.1301582">
      <time>2020-10-22T06:16:50Z</time>
    </trkpt>
    <trkpt lat="38.7091158" lon="-9.1299496">
      <time>2020-10-22T06:16:58Z</time>
    </trkpt>
    <trkpt lat="38.7091248" lon="-9.1299350">
      <time>2020-10-22T06:16:59Z</time>
    </trkpt>
    <trkpt lat="38.7091940" lon="-9.1298209">
      <time>2020-10-22T06:17:05Z</time>
    </trkpt>
    <trkpt lat="38.7092420" lon="-9.1297425">
      <time>2020-10-22T06:17:09Z</time>
    </trkpt>
    <trkpt lat="38.7092458" lon="-9.1297414">
      <time>2020-10-22T06:17:10Z</time>
    </trkpt>
    <trkpt lat="38.7092471" lon="-9.1297446">
      <time>2020-10-22T06:17:11Z</time>
    </trkpt>
    <trkpt lat="38.7092933" lon="-9.1297464">
      <time>2020-10-22T06:17:14Z</time>
    </trkpt>
    <trkpt lat="38.7093433" lon="-9.1297024">
      <time>2020-10-22T06:17:16Z</time>
    </trkpt>
    <trkpt lat="38.7094454" lon="-9.1295531">
      <time>2020-10-22T06:17:22Z</time>
    </trkpt>
    <trkpt lat="38.7095206" lon="-9.1294518">
      <time>2020-10-22T06:17:27Z</time>
    </trkpt>
    <trkpt lat="38.7095854" lon="-9.1293542">
      <time>2020-10-22T06:17:31Z</time>
    </trkpt>
    <trkpt lat="38.7096636" lon="-9.1292467">
      <time>2020-10-22T06:17:36Z</time>
    </trkpt>
    <trkpt lat="38.7098032" lon="-9.1291197">
      <time>2020-10-22T06:17:42Z</time>
    </trkpt>
    <trkpt lat="38.7099602" lon="-9.1289829">
      <time>2020-10-22T06:17:49Z</time>
    </trkpt>
    <trkpt lat="38.7100923" lon="-9.1288991">
      <time>2020-10-22T06:17:54Z</time>
    </trkpt>
    <trkpt lat="38.7100902" lon="-9.1288836">
      <time>2020-10-22T06:17:55Z</time>
    </trkpt>
    <trkpt lat="38.7100787" lon="-9.1288574">
      <time>2020-10-22T06:17:57Z</time>
    </trkpt>
    <trkpt lat="38.7100510" lon="-9.1288521">
      <time>2020-10-22T06:17:58Z</time>
    </trkpt>
    <trkpt lat="38.7099426" lon="-9.1286972">
      <time>2020-10-22T06:18:04Z</time>
    </trkpt>
    <trkpt lat="38.7099443" lon="-9.1286728">
      <time>2020-10-22T06:18:05Z</time>
    </trkpt>
    <trkpt lat="38.7099577" lon="-9.1286494">
      <time>2020-10-22T06:18:07Z</time>
    </trkpt>
    <trkpt lat="38.7099387" lon="-9.1285733">
      <time>2020-10-22T06:18:59Z</time>
    </trkpt>
    <trkpt lat="38.7099387" lon="-9.1285748">
      <time>2020-10-22T06:19:00Z</time>
    </trkpt>
    <trkpt lat="38.7098540" lon="-9.1287373">
      <time>2020-10-22T06:19:09Z</time>
    </trkpt>
    <trkpt lat="38.7098200" lon="-9.1287937">
      <time>2020-10-22T06:19:11Z</time>
    </trkpt>
    <trkpt lat="38.7097673" lon="-9.1288611">
      <time>2020-10-22T06:19:14Z</time>
    </trkpt>
    <trkpt lat="38.7097289" lon="-9.1288955">
      <time>2020-10-22T06:19:16Z</time>
    </trkpt>
    <trkpt lat="38.7096943" lon="-9.1289239">
      <time>2020-10-22T06:19:18Z</time>
    </trkpt>
    <trkpt lat="38.7096076" lon="-9.1290393">
      <time>2020-10-22T06:19:24Z</time>
    </trkpt>
    <trkpt lat="38.7095390" lon="-9.1291581">
      <time>2020-10-22T06:19:29Z</time>
    </trkpt>
    <trkpt lat="38.7095150" lon="-9.1292064">
      <time>2020-10-22T06:19:31Z</time>
    </trkpt>
    <trkpt lat="38.7095020" lon="-9.1292287">
      <time>2020-10-22T06:19:32Z</time>
    </trkpt>
    <trkpt lat="38.7094641" lon="-9.1293030">
      <time>2020-10-22T06:19:35Z</time>
    </trkpt>
    <trkpt lat="38.7094327" lon="-9.1294020">
      <time>2020-10-22T06:19:39Z</time>
    </trkpt>
    <trkpt lat="38.7093534" lon="-9.1296118">
      <time>2020-10-22T06:19:47Z</time>
    </trkpt>
    <trkpt lat="38.7093488" lon="-9.1297104">
      <time>2020-10-22T06:19:51Z</time>
    </trkpt>
    <trkpt lat="38.7093217" lon="-9.1297382">
      <time>2020-10-22T06:19:53Z</time>
    </trkpt>
    <trkpt lat="38.7093046" lon="-9.1297400">
      <time>2020-10-22T06:19:54Z</time>
    </trkpt>
    <trkpt lat="38.7092645" lon="-9.1297455">
      <time>2020-10-22T06:19:56Z</time>
    </trkpt>
    <trkpt lat="38.7092472" lon="-9.1297616">
      <time>2020-10-22T06:19:57Z</time>
    </trkpt>
    <trkpt lat="38.7091786" lon="-9.1298593">
      <time>2020-10-22T06:20:02Z</time>
    </trkpt>
    <trkpt lat="38.7091518" lon="-9.1299295">
      <time>2020-10-22T06:20:05Z</time>
    </trkpt>
    <trkpt lat="38.7091105" lon="-9.1300365">
      <time>2020-10-22T06:20:09Z</time>
    </trkpt>
    <trkpt lat="38.7090675" lon="-9.1301396">
      <time>2020-10-22T06:20:13Z</time>
    </trkpt>
    <trkpt lat="38.7089754" lon="-9.1302799">
      <time>2020-10-22T06:20:20Z</time>
    </trkpt>
    <trkpt lat="38.7089480" lon="-9.1303077">
      <time>2020-10-22T06:20:22Z</time>
    </trkpt>
    <trkpt lat="38.7089264" lon="-9.1303495">
      <time>2020-10-22T06:20:24Z</time>
    </trkpt>
    <trkpt lat="38.7088683" lon="-9.1304883">
      <time>2020-10-22T06:20:30Z</time>
    </trkpt>
    <trkpt lat="38.7088537" lon="-9.1305409">
      <time>2020-10-22T06:20:32Z</time>
    </trkpt>
    <trkpt lat="38.7087860" lon="-9.1307191">
      <time>2020-10-22T06:20:39Z</time>
    </trkpt>
    <trkpt lat="38.7087015" lon="-9.1308913">
      <time>2020-10-22T06:20:46Z</time>
    </trkpt>
    <trkpt lat="38.7086355" lon="-9.1310429">
      <time>2020-10-22T06:20:52Z</time>
    </trkpt>
    <trkpt lat="38.7086219" lon="-9.1310667">
      <time>2020-10-22T06:20:53Z</time>
    </trkpt>
    <trkpt lat="38.7085861" lon="-9.1311475">
      <time>2020-10-22T06:20:56Z</time>
    </trkpt>
    <trkpt lat="38.7085374" lon="-9.1312776">
      <time>2020-10-22T06:21:01Z</time>
    </trkpt>
    <trkpt lat="38.7084833" lon="-9.1314041">
      <time>2020-10-22T06:21:06Z</time>
    </trkpt>
    <trkpt lat="38.7084532" lon="-9.1314790">
      <time>2020-10-22T06:21:09Z</time>
    </trkpt>
    <trkpt lat="38.7083566" lon="-9.1316989">
      <time>2020-10-22T06:21:18Z</time>
    </trkpt>
    <trkpt lat="38.7083151" lon="-9.1317968">
      <time>2020-10-22T06:21:22Z</time>
    </trkpt>
    <trkpt lat="38.7082587" lon="-9.1319222">
      <time>2020-10-22T06:21:27Z</time>
    </trkpt>
    <trkpt lat="38.7082106" lon="-9.1320202">
      <time>2020-10-22T06:21:31Z</time>
    </trkpt>
    <trkpt lat="38.7081161" lon="-9.1322180">
      <time>2020-10-22T06:21:39Z</time>
    </trkpt>
    <trkpt lat="38.7080941" lon="-9.1322718">
      <time>2020-10-22T06:21:41Z</time>
    </trkpt>
    <trkpt lat="38.7080362" lon="-9.1324224">
      <time>2020-10-22T06:21:47Z</time>
    </trkpt>
    <trkpt lat="38.7079945" lon="-9.1325200">
      <time>2020-10-22T06:21:51Z</time>
    </trkpt>
    <trkpt lat="38.7079036" lon="-9.1327396">
      <time>2020-10-22T06:22:00Z</time>
    </trkpt>
    <trkpt lat="38.7078703" lon="-9.1328137">
      <time>2020-10-22T06:22:03Z</time>
    </trkpt>
    <trkpt lat="38.7078133" lon="-9.1329825">
      <time>2020-10-22T06:22:10Z</time>
    </trkpt>
    <trkpt lat="38.7077928" lon="-9.1330744">
      <time>2020-10-22T06:22:42Z</time>
    </trkpt>
    <trkpt lat="38.7077928" lon="-9.1330744">
      <time>2020-10-22T06:22:43Z</time>
    </trkpt>
    <trkpt lat="38.7077042" lon="-9.1332695">
      <time>2020-10-22T06:22:51Z</time>
    </trkpt>
    <trkpt lat="38.7076691" lon="-9.1333277">
      <time>2020-10-22T06:22:53Z</time>
    </trkpt>
    <trkpt lat="38.7076319" lon="-9.1335204">
      <time>2020-10-22T06:22:59Z</time>
    </trkpt>
    <trkpt lat="38.7075920" lon="-9.1336598">
      <time>2020-10-22T06:23:04Z</time>
    </trkpt>
    <trkpt lat="38.7075210" lon="-9.1338338">
      <time>2020-10-22T06:23:10Z</time>
    </trkpt>
    <trkpt lat="38.7075096" lon="-9.1338621">
      <time>2020-10-22T06:23:11Z</time>
    </trkpt>
    <trkpt lat="38.7074761" lon="-9.1339522">
      <time>2020-10-22T06:23:14Z</time>
    </trkpt>
    <trkpt lat="38.7074644" lon="-9.1340248">
      <time>2020-10-22T06:23:16Z</time>
    </trkpt>
    <trkpt lat="38.7074430" lon="-9.1341313">
      <time>2020-10-22T06:23:19Z</time>
    </trkpt>
    <trkpt lat="38.7073719" lon="-9.1343506">
      <time>2020-10-22T06:23:26Z</time>
    </trkpt>
    <trkpt lat="38.7073287" lon="-9.1345769">
      <time>2020-10-22T06:23:33Z</time>
    </trkpt>
    <trkpt lat="38.7072531" lon="-9.1348134">
      <time>2020-10-22T06:23:41Z</time>
    </trkpt>
    <trkpt lat="38.7072403" lon="-9.1348427">
      <time>2020-10-22T06:23:42Z</time>
    </trkpt>
    <trkpt lat="38.7071653" lon="-9.1350297">
      <time>2020-10-22T06:23:49Z</time>
    </trkpt>
    <trkpt lat="38.7071522" lon="-9.1351577">
      <time>2020-10-22T06:23:53Z</time>
    </trkpt>
    <trkpt lat="38.7071373" lon="-9.1352554">
      <time>2020-10-22T06:23:56Z</time>
    </trkpt>
    <trkpt lat="38.7071340" lon="-9.1354027">
      <time>2020-10-22T06:24:01Z</time>
    </trkpt>
    <trkpt lat="38.7071232" lon="-9.1354849">
      <time>2020-10-22T06:24:04Z</time>
    </trkpt>
    <trkpt lat="38.7070720" lon="-9.1356839">
      <time>2020-10-22T06:24:11Z</time>
    </trkpt>
    <trkpt lat="38.7070659" lon="-9.1357128">
      <time>2020-10-22T06:24:12Z</time>
    </trkpt>
    <trkpt lat="38.7070424" lon="-9.1358818">
      <time>2020-10-22T06:24:18Z</time>
    </trkpt>
    <trkpt lat="38.7069847" lon="-9.1360252">
      <time>2020-10-22T06:24:24Z</time>
    </trkpt>
    <trkpt lat="38.7069753" lon="-9.1360755">
      <time>2020-10-22T06:24:26Z</time>
    </trkpt>
    <trkpt lat="38.7069192" lon="-9.1363069">
      <time>2020-10-22T06:24:35Z</time>
    </trkpt>
    <trkpt lat="38.7068904" lon="-9.1363431">
      <time>2020-10-22T06:24:37Z</time>
    </trkpt>
    <trkpt lat="38.7068000" lon="-9.1363648">
      <time>2020-10-22T06:24:42Z</time>
    </trkpt>
    <trkpt lat="38.7067888" lon="-9.1363738">
      <time>2020-10-22T06:24:43Z</time>
    </trkpt>
    <trkpt lat="38.7067686" lon="-9.1364423">
      <time>2020-10-22T06:24:46Z</time>
    </trkpt>
    <trkpt lat="38.7067476" lon="-9.1365444">
      <time>2020-10-22T06:24:50Z</time>
    </trkpt>
    <trkpt lat="38.7067191" lon="-9.1366636">
      <time>2020-10-22T06:24:55Z</time>
    </trkpt>
    <trkpt lat="38.7067116" lon="-9.1366884">
      <time>2020-10-22T06:24:56Z</time>
    </trkpt>
    <trkpt lat="38.7066612" lon="-9.1369204">
      <time>2020-10-22T06:25:05Z</time>
    </trkpt>
    <trkpt lat="38.7066476" lon="-9.1369892">
      <time>2020-10-22T06:25:08Z</time>
    </trkpt>
    <trkpt lat="38.7066021" lon="-9.1372119">
      <time>2020-10-22T06:25:17Z</time>
    </trkpt>
    <trkpt lat="38.7065483" lon="-9.1374331">
      <time>2020-10-22T06:25:26Z</time>
    </trkpt>
    <trkpt lat="38.7064946" lon="-9.1376483">
      <time>2020-10-22T06:25:35Z</time>
    </trkpt>
    <trkpt lat="38.7064883" lon="-9.1376740">
      <time>2020-10-22T06:25:36Z</time>
    </trkpt>
    <trkpt lat="38.7064311" lon="-9.1379165">
      <time>2020-10-22T06:25:45Z</time>
    </trkpt>
    <trkpt lat="38.7064268" lon="-9.1379347">
      <time>2020-10-22T06:25:46Z</time>
    </trkpt>
    <trkpt lat="38.7063735" lon="-9.1381569">
      <time>2020-10-22T06:25:55Z</time>
    </trkpt>
    <trkpt lat="38.7063655" lon="-9.1381838">
      <time>2020-10-22T06:25:56Z</time>
    </trkpt>
    <trkpt lat="38.7063288" lon="-9.1383703">
      <time>2020-10-22T06:26:03Z</time>
    </trkpt>
    <trkpt lat="38.7063109" lon="-9.1384442">
      <time>2020-10-22T06:26:06Z</time>
    </trkpt>
    <trkpt lat="38.7062530" lon="-9.1386312">
      <time>2020-10-22T06:26:14Z</time>
    </trkpt>
    <trkpt lat="38.7062185" lon="-9.1387550">
      <time>2020-10-22T06:26:19Z</time>
    </trkpt>
    <trkpt lat="38.7062125" lon="-9.1387798">
      <time>2020-10-22T06:26:20Z</time>
    </trkpt>
    <trkpt lat="38.7061632" lon="-9.1390018">
      <time>2020-10-22T06:26:29Z</time>
    </trkpt>
    <trkpt lat="38.7061129" lon="-9.1392228">
      <time>2020-10-22T06:26:37Z</time>
    </trkpt>
    <trkpt lat="38.7061064" lon="-9.1392522">
      <time>2020-10-22T06:26:38Z</time>
    </trkpt>
    <trkpt lat="38.7060468" lon="-9.1394679">
      <time>2020-10-22T06:26:46Z</time>
    </trkpt>
    <trkpt lat="38.7059881" lon="-9.1396835">
      <time>2020-10-22T06:26:54Z</time>
    </trkpt>
    <trkpt lat="38.7059380" lon="-9.1398480">
      <time>2020-10-22T06:27:00Z</time>
    </trkpt>
    <trkpt lat="38.7058928" lon="-9.1400507">
      <time>2020-10-22T06:27:07Z</time>
    </trkpt>
    <trkpt lat="38.7058340" lon="-9.1402690">
      <time>2020-10-22T06:27:15Z</time>
    </trkpt>
    <trkpt lat="38.7058236" lon="-9.1403253">
      <time>2020-10-22T06:27:17Z</time>
    </trkpt>
    <trkpt lat="38.7057599" lon="-9.1405545">
      <time>2020-10-22T06:27:26Z</time>
    </trkpt>
    <trkpt lat="38.7057521" lon="-9.1405805">
      <time>2020-10-22T06:27:27Z</time>
    </trkpt>
    <trkpt lat="38.7056868" lon="-9.1408183">
      <time>2020-10-22T06:27:36Z</time>
    </trkpt>
    <trkpt lat="38.7056806" lon="-9.1408453">
      <time>2020-10-22T06:27:37Z</time>
    </trkpt>
    <trkpt lat="38.7056460" lon="-9.1409998">
      <time>2020-10-22T06:27:43Z</time>
    </trkpt>
    <trkpt lat="38.7056265" lon="-9.1410777">
      <time>2020-10-22T06:27:46Z</time>
    </trkpt>
    <trkpt lat="38.7055827" lon="-9.1412927">
      <time>2020-10-22T06:27:54Z</time>
    </trkpt>
    <trkpt lat="38.7055403" lon="-9.1415188">
      <time>2020-10-22T06:28:03Z</time>
    </trkpt>
    <trkpt lat="38.7055391" lon="-9.1415399">
      <time>2020-10-22T06:28:04Z</time>
    </trkpt>
    <trkpt lat="38.7055343" lon="-9.1416596">
      <time>2020-10-22T06:28:09Z</time>
    </trkpt>
    <trkpt lat="38.7054981" lon="-9.1418423">
      <time>2020-10-22T06:28:17Z</time>
    </trkpt>
    <trkpt lat="38.7054610" lon="-9.1420239">
      <time>2020-10-22T06:28:25Z</time>
    </trkpt>
    <trkpt lat="38.7054252" lon="-9.1421954">
      <time>2020-10-22T06:28:32Z</time>
    </trkpt>
    <trkpt lat="38.7053708" lon="-9.1424166">
      <time>2020-10-22T06:28:41Z</time>
    </trkpt>
    <trkpt lat="38.7053606" lon="-9.1424390">
      <time>2020-10-22T06:28:42Z</time>
    </trkpt>
    <trkpt lat="38.7053164" lon="-9.1426618">
      <time>2020-10-22T06:28:51Z</time>
    </trkpt>
    <trkpt lat="38.7052678" lon="-9.1428923">
      <time>2020-10-22T06:29:01Z</time>
    </trkpt>
    <trkpt lat="38.7052492" lon="-9.1429811">
      <time>2020-10-22T06:29:05Z</time>
    </trkpt>
    <trkpt lat="38.7052413" lon="-9.1430502">
      <time>2020-10-22T06:29:08Z</time>
    </trkpt>
    <trkpt lat="38.7052252" lon="-9.1432112">
      <time>2020-10-22T06:29:15Z</time>
    </trkpt>
    <trkpt lat="38.7052164" lon="-9.1432894">
      <time>2020-10-22T06:29:18Z</time>
    </trkpt>
    <trkpt lat="38.7052066" lon="-9.1435401">
      <time>2020-10-22T06:29:28Z</time>
    </trkpt>
    <trkpt lat="38.7052021" lon="-9.1436686">
      <time>2020-10-22T06:29:33Z</time>
    </trkpt>
    <trkpt lat="38.7052165" lon="-9.1438309">
      <time>2020-10-22T06:29:39Z</time>
    </trkpt>
    <trkpt lat="38.7052846" lon="-9.1439536">
      <time>2020-10-22T06:29:45Z</time>
    </trkpt>
    <trkpt lat="38.7054188" lon="-9.1440018">
      <time>2020-10-22T06:29:52Z</time>
    </trkpt>
    <trkpt lat="38.7055761" lon="-9.1439985">
      <time>2020-10-22T06:30:00Z</time>
    </trkpt>
    <trkpt lat="38.7056656" lon="-9.1440076">
      <time>2020-10-22T06:30:04Z</time>
    </trkpt>
    <trkpt lat="38.7057108" lon="-9.1440055">
      <time>2020-10-22T06:30:06Z</time>
    </trkpt>
    <trkpt lat="38.7057775" lon="-9.1440029">
      <time>2020-10-22T06:30:09Z</time>
    </trkpt>
    <trkpt lat="38.7058632" lon="-9.1440258">
      <time>2020-10-22T06:30:13Z</time>
    </trkpt>
    <trkpt lat="38.7059898" lon="-9.1441289">
      <time>2020-10-22T06:30:20Z</time>
    </trkpt>
    <trkpt lat="38.7060024" lon="-9.1441477">
      <time>2020-10-22T06:30:21Z</time>
    </trkpt>
    <trkpt lat="38.7061276" lon="-9.1442714">
      <time>2020-10-22T06:30:28Z</time>
    </trkpt>
    <trkpt lat="38.7061885" lon="-9.1444791">
      <time>2020-10-22T06:30:36Z</time>
    </trkpt>
    <trkpt lat="38.7062356" lon="-9.1446162">
      <time>2020-10-22T06:30:41Z</time>
    </trkpt>
    <trkpt lat="38.7062391" lon="-9.1448237">
      <time>2020-10-22T06:30:48Z</time>
    </trkpt>
    <trkpt lat="38.7062313" lon="-9.1450821">
      <time>2020-10-22T06:30:57Z</time>
    </trkpt>
    <trkpt lat="38.7062290" lon="-9.1451315">
      <time>2020-10-22T06:30:59Z</time>
    </trkpt>
    <trkpt lat="38.7062300" lon="-9.1451547">
      <time>2020-10-22T06:31:00Z</time>
    </trkpt>
    <trkpt lat="38.7062399" lon="-9.1452823">
      <time>2020-10-22T06:31:04Z</time>
    </trkpt>
    <trkpt lat="38.7062306" lon="-9.1455404">
      <time>2020-10-22T06:31:12Z</time>
    </trkpt>
    <trkpt lat="38.7062374" lon="-9.1456924">
      <time>2020-10-22T06:31:17Z</time>
    </trkpt>
    <trkpt lat="38.7062419" lon="-9.1457804">
      <time>2020-10-22T06:31:20Z</time>
    </trkpt>
    <trkpt lat="38.7062507" lon="-9.1460309">
      <time>2020-10-22T06:31:29Z</time>
    </trkpt>
    <trkpt lat="38.7062762" lon="-9.1462660">
      <time>2020-10-22T06:31:37Z</time>
    </trkpt>
    <trkpt lat="38.7062902" lon="-9.1464990">
      <time>2020-10-22T06:31:45Z</time>
    </trkpt>
    <trkpt lat="38.7063220" lon="-9.1467414">
      <time>2020-10-22T06:31:53Z</time>
    </trkpt>
    <trkpt lat="38.7063416" lon="-9.1469103">
      <time>2020-10-22T06:31:59Z</time>
    </trkpt>
    <trkpt lat="38.7063630" lon="-9.1471341">
      <time>2020-10-22T06:32:07Z</time>
    </trkpt>
    <trkpt lat="38.7063889" lon="-9.1472666">
      <time>2020-10-22T06:32:14Z</time>
    </trkpt>
    <trkpt lat="38.7064284" lon="-9.1472886">
      <time>2020-10-22T06:32:17Z</time>
    </trkpt>
    <trkpt lat="38.7064338" lon="-9.1472863">
      <time>2020-10-22T06:32:19Z</time>
    </trkpt>
    <trkpt lat="38.7064303" lon="-9.1472810">
      <time>2020-10-22T06:32:21Z</time>
    </trkpt>
    <trkpt lat="38.7065806" lon="-9.1473371">
      <time>2020-10-22T06:32:31Z</time>
    </trkpt>
    <trkpt lat="38.7066179" lon="-9.1473872">
      <time>2020-10-22T06:32:33Z</time>
    </trkpt>
    <trkpt lat="38.7066470" lon="-9.1475554">
      <time>2020-10-22T06:32:38Z</time>
    </trkpt>
    <trkpt lat="38.7066503" lon="-9.1478010">
      <time>2020-10-22T06:32:46Z</time>
    </trkpt>
    <trkpt lat="38.7066498" lon="-9.1478331">
      <time>2020-10-22T06:32:47Z</time>
    </trkpt>
    <trkpt lat="38.7066346" lon="-9.1480392">
      <time>2020-10-22T06:32:54Z</time>
    </trkpt>
    <trkpt lat="38.7066376" lon="-9.1480955">
      <time>2020-10-22T06:32:56Z</time>
    </trkpt>
    <trkpt lat="38.7066557" lon="-9.1483285">
      <time>2020-10-22T06:33:04Z</time>
    </trkpt>
    <trkpt lat="38.7066789" lon="-9.1485518">
      <time>2020-10-22T06:33:12Z</time>
    </trkpt>
    <trkpt lat="38.7066715" lon="-9.1487870">
      <time>2020-10-22T06:33:20Z</time>
    </trkpt>
    <trkpt lat="38.7066800" lon="-9.1489492">
      <time>2020-10-22T06:33:25Z</time>
    </trkpt>
    <trkpt lat="38.7066818" lon="-9.1490175">
      <time>2020-10-22T06:33:27Z</time>
    </trkpt>
    <trkpt lat="38.7067013" lon="-9.1492312">
      <time>2020-10-22T06:33:34Z</time>
    </trkpt>
    <trkpt lat="38.7067189" lon="-9.1493572">
      <time>2020-10-22T06:33:39Z</time>
    </trkpt>
    <trkpt lat="38.7067399" lon="-9.1494972">
      <time>2020-10-22T06:33:45Z</time>
    </trkpt>
    <trkpt lat="38.7067461" lon="-9.1495914">
      <time>2020-10-22T06:33:49Z</time>
    </trkpt>
    <trkpt lat="38.7067339" lon="-9.1496530">
      <time>2020-10-22T06:33:52Z</time>
    </trkpt>
    <trkpt lat="38.7067279" lon="-9.1497754">
      <time>2020-10-22T06:33:57Z</time>
    </trkpt>
    <trkpt lat="38.7067360" lon="-9.1499715">
      <time>2020-10-22T06:34:04Z</time>
    </trkpt>
    <trkpt lat="38.7067497" lon="-9.1501715">
      <time>2020-10-22T06:34:11Z</time>
    </trkpt>
    <trkpt lat="38.7067462" lon="-9.1504048">
      <time>2020-10-22T06:34:19Z</time>
    </trkpt>
    <trkpt lat="38.7067268" lon="-9.1506478">
      <time>2020-10-22T06:34:27Z</time>
    </trkpt>
    <trkpt lat="38.7067250" lon="-9.1506771">
      <time>2020-10-22T06:34:28Z</time>
    </trkpt>
    <trkpt lat="38.7067398" lon="-9.1509169">
      <time>2020-10-22T06:34:37Z</time>
    </trkpt>
    <trkpt lat="38.7067695" lon="-9.1511468">
      <time>2020-10-22T06:34:46Z</time>
    </trkpt>
    <trkpt lat="38.7067807" lon="-9.1511875">
      <time>2020-10-22T06:34:48Z</time>
    </trkpt>
    <trkpt lat="38.7067877" lon="-9.1513439">
      <time>2020-10-22T06:34:55Z</time>
    </trkpt>
    <trkpt lat="38.7067794" lon="-9.1515862">
      <time>2020-10-22T06:35:06Z</time>
    </trkpt>
    <trkpt lat="38.7067771" lon="-9.1516534">
      <time>2020-10-22T06:35:09Z</time>
    </trkpt>
    <trkpt lat="38.7067886" lon="-9.1519037">
      <time>2020-10-22T06:35:18Z</time>
    </trkpt>
    <trkpt lat="38.7068019" lon="-9.1520469">
      <time>2020-10-22T06:35:23Z</time>
    </trkpt>
    <trkpt lat="38.7067999" lon="-9.1520986">
      <time>2020-10-22T06:35:25Z</time>
    </trkpt>
    <trkpt lat="38.7068176" lon="-9.1523259">
      <time>2020-10-22T06:35:33Z</time>
    </trkpt>
    <trkpt lat="38.7068478" lon="-9.1523680">
      <time>2020-10-22T06:35:35Z</time>
    </trkpt>
    <trkpt lat="38.7069575" lon="-9.1524554">
      <time>2020-10-22T06:35:41Z</time>
    </trkpt>
    <trkpt lat="38.7071048" lon="-9.1525117">
      <time>2020-10-22T06:35:48Z</time>
    </trkpt>
    <trkpt lat="38.7072138" lon="-9.1526070">
      <time>2020-10-22T06:35:55Z</time>
    </trkpt>
    <trkpt lat="38.7073384" lon="-9.1526459">
      <time>2020-10-22T06:36:00Z</time>
    </trkpt>
    <trkpt lat="38.7073861" lon="-9.1526551">
      <time>2020-10-22T06:36:02Z</time>
    </trkpt>
    <trkpt lat="38.7075252" lon="-9.1525383">
      <time>2020-10-22T06:36:08Z</time>
    </trkpt>
    <trkpt lat="38.7076004" lon="-9.1523619">
      <time>2020-10-22T06:36:14Z</time>
    </trkpt>
    <trkpt lat="38.7076005" lon="-9.1522686">
      <time>2020-10-22T06:36:17Z</time>
    </trkpt>
    <trkpt lat="38.7075944" lon="-9.1521422">
      <time>2020-10-22T06:36:21Z</time>
    </trkpt>
    <trkpt lat="38.7076072" lon="-9.1519299">
      <time>2020-10-22T06:36:28Z</time>
    </trkpt>
    <trkpt lat="38.7075880" lon="-9.1517102">
      <time>2020-10-22T06:36:36Z</time>
    </trkpt>
    <trkpt lat="38.7075882" lon="-9.1516853">
      <time>2020-10-22T06:36:37Z</time>
    </trkpt>
    <trkpt lat="38.7075866" lon="-9.1516325">
      <time>2020-10-22T06:36:39Z</time>
    </trkpt>
    <trkpt lat="38.7076140" lon="-9.1514941">
      <time>2020-10-22T06:36:45Z</time>
    </trkpt>
    <trkpt lat="38.7076203" lon="-9.1513561">
      <time>2020-10-22T06:36:51Z</time>
    </trkpt>
    <trkpt lat="38.7076200" lon="-9.1512240">
      <time>2020-10-22T06:36:57Z</time>
    </trkpt>
    <trkpt lat="38.7076313" lon="-9.1510064">
      <time>2020-10-22T06:37:05Z</time>
    </trkpt>
    <trkpt lat="38.7076294" lon="-9.1508076">
      <time>2020-10-22T06:37:12Z</time>
    </trkpt>
    <trkpt lat="38.7076982" lon="-9.1506333">
      <time>2020-10-22T06:37:19Z</time>
    </trkpt>
    <trkpt lat="38.7077366" lon="-9.1506240">
      <time>2020-10-22T06:37:21Z</time>
    </trkpt>
    <trkpt lat="38.7077987" lon="-9.1506319">
      <time>2020-10-22T06:37:25Z</time>
    </trkpt>
    <trkpt lat="38.7078997" lon="-9.1506405">
      <time>2020-10-22T06:37:31Z</time>
    </trkpt>
    <trkpt lat="38.7079835" lon="-9.1506546">
      <time>2020-10-22T06:37:36Z</time>
    </trkpt>
    <trkpt lat="38.7081915" lon="-9.1506474">
      <time>2020-10-22T06:37:45Z</time>
    </trkpt>
    <trkpt lat="38.7082784" lon="-9.1506666">
      <time>2020-10-22T06:37:50Z</time>
    </trkpt>
    <trkpt lat="38.7082984" lon="-9.1506803">
      <time>2020-10-22T06:37:51Z</time>
    </trkpt>
    <trkpt lat="38.7084370" lon="-9.1506764">
      <time>2020-10-22T06:37:57Z</time>
    </trkpt>
    <trkpt lat="38.7084980" lon="-9.1506718">
      <time>2020-10-22T06:38:00Z</time>
    </trkpt>
    <trkpt lat="38.7085402" lon="-9.1506918">
      <time>2020-10-22T06:38:02Z</time>
    </trkpt>
    <trkpt lat="38.7086545" lon="-9.1506344">
      <time>2020-10-22T06:38:06Z</time>
    </trkpt>
    <trkpt lat="38.7087916" lon="-9.1505882">
      <time>2020-10-22T06:38:10Z</time>
    </trkpt>
    <trkpt lat="38.7088379" lon="-9.1505875">
      <time>2020-10-22T06:38:12Z</time>
    </trkpt>
    <trkpt lat="38.7088824" lon="-9.1506128">
      <time>2020-10-22T06:38:16Z</time>
    </trkpt>
    <trkpt lat="38.7088904" lon="-9.1506149">
      <time>2020-10-22T06:38:18Z</time>
    </trkpt>
    <trkpt lat="38.7088824" lon="-9.1506297">
      <time>2020-10-22T06:38:21Z</time>
    </trkpt>
    <trkpt lat="38.7088841" lon="-9.1505947">
      <time>2020-10-22T06:38:26Z</time>
    </trkpt>
    <trkpt lat="38.7088978" lon="-9.1505865">
      <time>2020-10-22T06:38:28Z</time>
    </trkpt>
    <trkpt lat="38.7089425" lon="-9.1505910">
      <time>2020-10-22T06:38:30Z</time>
    </trkpt>
    <trkpt lat="38.7089858" lon="-9.1505998">
      <time>2020-10-22T06:38:32Z</time>
    </trkpt>
    <trkpt lat="38.7089973" lon="-9.1505920">
      <time>2020-10-22T06:38:34Z</time>
    </trkpt>
    <trkpt lat="38.7090148" lon="-9.1506425">
      <time>2020-10-22T06:38:37Z</time>
    </trkpt>
    <trkpt lat="38.7090183" lon="-9.1506448">
      <time>2020-10-22T06:38:39Z</time>
    </trkpt>
    <trkpt lat="38.7090202" lon="-9.1506499">
      <time>2020-10-22T06:38:41Z</time>
    </trkpt>
    <trkpt lat="38.7090254" lon="-9.1506481">
      <time>2020-10-22T06:38:42Z</time>
    </trkpt>
    <trkpt lat="38.7090400" lon="-9.1506571">
      <time>2020-10-22T06:38:43Z</time>
    </trkpt>
    <trkpt lat="38.7090534" lon="-9.1506648">
      <time>2020-10-22T06:38:46Z</time>
    </trkpt>
    <trkpt lat="38.7090622" lon="-9.1506591">
      <time>2020-10-22T06:38:47Z</time>
    </trkpt>
    <trkpt lat="38.7090868" lon="-9.1506215">
      <time>2020-10-22T06:38:50Z</time>
    </trkpt>
    <trkpt lat="38.7090932" lon="-9.1506158">
      <time>2020-10-22T06:38:51Z</time>
    </trkpt>
  </trkseg></trk>
</gpx>
