<?xml version="1.0" encoding="UTF-8"?>
<gpx version="1.1" creator="Diary FIT converter" xmlns="http://www.topografix.com/GPX/1/1">
  <trk><name>Cycling</name><trkseg>
    <trkpt lat="50.9720348" lon="6.8665446">
      <time>2025-08-29T17:35:26Z</time>
    </trkpt>
    <trkpt lat="50.9720348" lon="6.8665446">
      <time>2025-08-29T17:35:27Z</time>
    </trkpt>
    <trkpt lat="50.9721895" lon="6.8664238">
      <time>2025-08-29T17:35:29Z</time>
    </trkpt>
    <trkpt lat="50.9723239" lon="6.8663114">
      <time>2025-08-29T17:35:31Z</time>
    </trkpt>
    <trkpt lat="50.9724685" lon="6.8661839">
      <time>2025-08-29T17:35:33Z</time>
    </trkpt>
    <trkpt lat="50.9725957" lon="6.8660626">
      <time>2025-08-29T17:35:35Z</time>
    </trkpt>
    <trkpt lat="50.9730722" lon="6.8657166">
      <time>2025-08-29T17:35:41Z</time>
    </trkpt>
    <trkpt lat="50.9733753" lon="6.8652545">
      <time>2025-08-29T17:35:47Z</time>
    </trkpt>
    <trkpt lat="50.9736436" lon="6.8646442">
      <time>2025-08-29T17:35:54Z</time>
    </trkpt>
    <trkpt lat="50.9738277" lon="6.8641475">
      <time>2025-08-29T17:36:00Z</time>
    </trkpt>
    <trkpt lat="50.9738427" lon="6.8640648">
      <time>2025-08-29T17:36:01Z</time>
    </trkpt>
    <trkpt lat="50.9738731" lon="6.8638970">
      <time>2025-08-29T17:36:03Z</time>
    </trkpt>
    <trkpt lat="50.9738978" lon="6.8638236">
      <time>2025-08-29T17:36:05Z</time>
    </trkpt>
    <trkpt lat="50.9739253" lon="6.8637528">
      <time>2025-08-29T17:36:06Z</time>
    </trkpt>
    <trkpt lat="50.9739492" lon="6.8636801">
      <time>2025-08-29T17:36:07Z</time>
    </trkpt>
    <trkpt lat="50.9740143" lon="6.8635312">
      <time>2025-08-29T17:36:08Z</time>
    </trkpt>
    <trkpt lat="50.9741395" lon="6.8633570">
      <time>2025-08-29T17:36:11Z</time>
    </trkpt>
    <trkpt lat="50.9741882" lon="6.8633102">
      <time>2025-08-29T17:36:12Z</time>
    </trkpt>
    <trkpt lat="50.9744209" lon="6.8629504">
      <time>2025-08-29T17:36:18Z</time>
    </trkpt>
    <trkpt lat="50.9744209" lon="6.8629504">
      <time>2025-08-29T17:36:19Z</time>
    </trkpt>
    <trkpt lat="50.9745593" lon="6.8626929">
      <time>2025-08-29T17:36:22Z</time>
    </trkpt>
    <trkpt lat="50.9746475" lon="6.8624867">
      <time>2025-08-29T17:36:25Z</time>
    </trkpt>
    <trkpt lat="50.9746749" lon="6.8624137">
      <time>2025-08-29T17:36:26Z</time>
    </trkpt>
    <trkpt lat="50.9747001" lon="6.8623402">
      <time>2025-08-29T17:36:27Z</time>
    </trkpt>
    <trkpt lat="50.9747855" lon="6.8620231">
      <time>2025-08-29T17:36:31Z</time>
    </trkpt>
    <trkpt lat="50.9748366" lon="6.8618920">
      <time>2025-08-29T17:36:33Z</time>
    </trkpt>
    <trkpt lat="50.9749621" lon="6.8613907">
      <time>2025-08-29T17:36:40Z</time>
    </trkpt>
    <trkpt lat="50.9749830" lon="6.8613114">
      <time>2025-08-29T17:36:41Z</time>
    </trkpt>
    <trkpt lat="50.9750616" lon="6.8610403">
      <time>2025-08-29T17:36:45Z</time>
    </trkpt>
    <trkpt lat="50.9750859" lon="6.8609732">
      <time>2025-08-29T17:36:46Z</time>
    </trkpt>
    <trkpt lat="50.9751299" lon="6.8608445">
      <time>2025-08-29T17:36:48Z</time>
    </trkpt>
    <trkpt lat="50.9751729" lon="6.8607157">
      <time>2025-08-29T17:36:51Z</time>
    </trkpt>
    <trkpt lat="50.9752318" lon="6.8605318">
      <time>2025-08-29T17:36:53Z</time>
    </trkpt>
    <trkpt lat="50.9752398" lon="6.8604721">
      <time>2025-08-29T17:36:54Z</time>
    </trkpt>
    <trkpt lat="50.9752683" lon="6.8602636">
      <time>2025-08-29T17:36:57Z</time>
    </trkpt>
    <trkpt lat="50.9752938" lon="6.8601970">
      <time>2025-08-29T17:36:58Z</time>
    </trkpt>
    <trkpt lat="50.9753241" lon="6.8601319">
      <time>2025-08-29T17:36:59Z</time>
    </trkpt>
    <trkpt lat="50.9754912" lon="6.8596997">
      <time>2025-08-29T17:37:05Z</time>
    </trkpt>
    <trkpt lat="50.9755499" lon="6.8595550">
      <time>2025-08-29T17:37:07Z</time>
    </trkpt>
    <trkpt lat="50.9756204" lon="6.8594463">
      <time>2025-08-29T17:37:09Z</time>
    </trkpt>
    <trkpt lat="50.9756308" lon="6.8593082">
      <time>2025-08-29T17:37:11Z</time>
    </trkpt>
    <trkpt lat="50.9756417" lon="6.8592448">
      <time>2025-08-29T17:37:12Z</time>
    </trkpt>
    <trkpt lat="50.9756578" lon="6.8591844">
      <time>2025-08-29T17:37:13Z</time>
    </trkpt>
    <trkpt lat="50.9756921" lon="6.8590588">
      <time>2025-08-29T17:37:15Z</time>
    </trkpt>
    <trkpt lat="50.9757171" lon="6.8589097">
      <time>2025-08-29T17:37:17Z</time>
    </trkpt>
    <trkpt lat="50.9757742" lon="6.8587925">
      <time>2025-08-29T17:37:19Z</time>
    </trkpt>
    <trkpt lat="50.9758131" lon="6.8587731">
      <time>2025-08-29T17:37:20Z</time>
    </trkpt>
    <trkpt lat="50.9758334" lon="6.8587260">
      <time>2025-08-29T17:37:21Z</time>
    </trkpt>
    <trkpt lat="50.9758302" lon="6.8586669">
      <time>2025-08-29T17:37:23Z</time>
    </trkpt>
    <trkpt lat="50.9758282" lon="6.8584588">
      <time>2025-08-29T17:37:25Z</time>
    </trkpt>
    <trkpt lat="50.9758776" lon="6.8583396">
      <time>2025-08-29T17:37:27Z</time>
    </trkpt>
    <trkpt lat="50.9759717" lon="6.8580557">
      <time>2025-08-29T17:37:31Z</time>
    </trkpt>
    <trkpt lat="50.9760033" lon="6.8578908">
      <time>2025-08-29T17:37:33Z</time>
    </trkpt>
    <trkpt lat="50.9760274" lon="6.8577189">
      <time>2025-08-29T17:37:35Z</time>
    </trkpt>
    <trkpt lat="50.9760903" lon="6.8574841">
      <time>2025-08-29T17:37:38Z</time>
    </trkpt>
    <trkpt lat="50.9762462" lon="6.8569370">
      <time>2025-08-29T17:37:45Z</time>
    </trkpt>
    <trkpt lat="50.9762923" lon="6.8567654">
      <time>2025-08-29T17:37:47Z</time>
    </trkpt>
    <trkpt lat="50.9764622" lon="6.8562002">
      <time>2025-08-29T17:37:54Z</time>
    </trkpt>
    <trkpt lat="50.9766280" lon="6.8556421">
      <time>2025-08-29T17:38:01Z</time>
    </trkpt>
    <trkpt lat="50.9767535" lon="6.8552474">
      <time>2025-08-29T17:38:06Z</time>
    </trkpt>
    <trkpt lat="50.9769513" lon="6.8546112">
      <time>2025-08-29T17:38:14Z</time>
    </trkpt>
    <trkpt lat="50.9772046" lon="6.8539449">
      <time>2025-08-29T17:38:23Z</time>
    </trkpt>
    <trkpt lat="50.9775066" lon="6.8531701">
      <time>2025-08-29T17:38:34Z</time>
    </trkpt>
    <trkpt lat="50.9776185" lon="6.8528876">
      <time>2025-08-29T17:38:38Z</time>
    </trkpt>
    <trkpt lat="50.9776677" lon="6.8527459">
      <time>2025-08-29T17:38:40Z</time>
    </trkpt>
    <trkpt lat="50.9776796" lon="6.8526671">
      <time>2025-08-29T17:38:41Z</time>
    </trkpt>
    <trkpt lat="50.9776844" lon="6.8525870">
      <time>2025-08-29T17:38:42Z</time>
    </trkpt>
    <trkpt lat="50.9777143" lon="6.8524140">
      <time>2025-08-29T17:38:45Z</time>
    </trkpt>
    <trkpt lat="50.9777327" lon="6.8523726">
      <time>2025-08-29T17:38:49Z</time>
    </trkpt>
    <trkpt lat="50.9777686" lon="6.8523093">
      <time>2025-08-29T17:38:57Z</time>
    </trkpt>
    <trkpt lat="50.9777786" lon="6.8522601">
      <time>2025-08-29T17:38:58Z</time>
    </trkpt>
    <trkpt lat="50.9778109" lon="6.8521493">
      <time>2025-08-29T17:39:00Z</time>
    </trkpt>
    <trkpt lat="50.9778855" lon="6.8519981">
      <time>2025-08-29T17:39:03Z</time>
    </trkpt>
    <trkpt lat="50.9779576" lon="6.8517206">
      <time>2025-08-29T17:39:07Z</time>
    </trkpt>
    <trkpt lat="50.9779681" lon="6.8516382">
      <time>2025-08-29T17:39:08Z</time>
    </trkpt>
    <trkpt lat="50.9780128" lon="6.8513945">
      <time>2025-08-29T17:39:11Z</time>
    </trkpt>
    <trkpt lat="50.9780643" lon="6.8512084">
      <time>2025-08-29T17:39:14Z</time>
    </trkpt>
    <trkpt lat="50.9782183" lon="6.8507792">
      <time>2025-08-29T17:39:19Z</time>
    </trkpt>
    <trkpt lat="50.9783939" lon="6.8502755">
      <time>2025-08-29T17:39:26Z</time>
    </trkpt>
    <trkpt lat="50.9784420" lon="6.8501395">
      <time>2025-08-29T17:39:28Z</time>
    </trkpt>
    <trkpt lat="50.9785782" lon="6.8498572">
      <time>2025-08-29T17:39:32Z</time>
    </trkpt>
    <trkpt lat="50.9786762" lon="6.8494508">
      <time>2025-08-29T17:39:37Z</time>
    </trkpt>
    <trkpt lat="50.9789149" lon="6.8487750">
      <time>2025-08-29T17:39:46Z</time>
    </trkpt>
    <trkpt lat="50.9790866" lon="6.8483413">
      <time>2025-08-29T17:39:52Z</time>
    </trkpt>
    <trkpt lat="50.9791431" lon="6.8481791">
      <time>2025-08-29T17:39:54Z</time>
    </trkpt>
    <trkpt lat="50.9792904" lon="6.8477853">
      <time>2025-08-29T17:39:59Z</time>
    </trkpt>
    <trkpt lat="50.9794075" lon="6.8474655">
      <time>2025-08-29T17:40:03Z</time>
    </trkpt>
    <trkpt lat="50.9794983" lon="6.8472257">
      <time>2025-08-29T17:40:08Z</time>
    </trkpt>
    <trkpt lat="50.9795340" lon="6.8472009">
      <time>2025-08-29T17:40:09Z</time>
    </trkpt>
    <trkpt lat="50.9796624" lon="6.8473092">
      <time>2025-08-29T17:40:11Z</time>
    </trkpt>
    <trkpt lat="50.9799475" lon="6.8476228">
      <time>2025-08-29T17:40:18Z</time>
    </trkpt>
    <trkpt lat="50.9800410" lon="6.8476002">
      <time>2025-08-29T17:40:20Z</time>
    </trkpt>
    <trkpt lat="50.9800827" lon="6.8475456">
      <time>2025-08-29T17:40:21Z</time>
    </trkpt>
    <trkpt lat="50.9801174" lon="6.8474722">
      <time>2025-08-29T17:40:22Z</time>
    </trkpt>
    <trkpt lat="50.9801735" lon="6.8473136">
      <time>2025-08-29T17:40:24Z</time>
    </trkpt>
    <trkpt lat="50.9803043" lon="6.8468329">
      <time>2025-08-29T17:40:30Z</time>
    </trkpt>
    <trkpt lat="50.9803028" lon="6.8467625">
      <time>2025-08-29T17:40:31Z</time>
    </trkpt>
    <trkpt lat="50.9802482" lon="6.8465875">
      <time>2025-08-29T17:40:35Z</time>
    </trkpt>
    <trkpt lat="50.9801965" lon="6.8464683">
      <time>2025-08-29T17:40:38Z</time>
    </trkpt>
    <trkpt lat="50.9801968" lon="6.8464154">
      <time>2025-08-29T17:40:39Z</time>
    </trkpt>
    <trkpt lat="50.9802432" lon="6.8462524">
      <time>2025-08-29T17:40:43Z</time>
    </trkpt>
    <trkpt lat="50.9802236" lon="6.8463119">
      <time>2025-08-29T17:40:46Z</time>
    </trkpt>
    <trkpt lat="50.9802246" lon="6.8463247">
      <time>2025-08-29T17:40:48Z</time>
    </trkpt>
    <trkpt lat="50.9779923" lon="6.8512991">
      <time>2025-08-29T18:18:27Z</time>
    </trkpt>
    <trkpt lat="50.9780123" lon="6.8514076">
      <time>2025-08-29T18:18:28Z</time>
    </trkpt>
    <trkpt lat="50.9779608" lon="6.8517482">
      <time>2025-08-29T18:18:33Z</time>
    </trkpt>
    <trkpt lat="50.9779427" lon="6.8518071">
      <time>2025-08-29T18:18:34Z</time>
    </trkpt>
    <trkpt lat="50.9778321" lon="6.8521105">
      <time>2025-08-29T18:18:39Z</time>
    </trkpt>
    <trkpt lat="50.9777834" lon="6.8522341">
      <time>2025-08-29T18:18:41Z</time>
    </trkpt>
    <trkpt lat="50.9776955" lon="6.8525367">
      <time>2025-08-29T18:18:46Z</time>
    </trkpt>
    <trkpt lat="50.9776943" lon="6.8526118">
      <time>2025-08-29T18:18:47Z</time>
    </trkpt>
    <trkpt lat="50.9776861" lon="6.8526881">
      <time>2025-08-29T18:18:48Z</time>
    </trkpt>
    <trkpt lat="50.9776475" lon="6.8528262">
      <time>2025-08-29T18:18:50Z</time>
    </trkpt>
    <trkpt lat="50.9776226" lon="6.8528919">
      <time>2025-08-29T18:18:51Z</time>
    </trkpt>
    <trkpt lat="50.9774727" lon="6.8532849">
      <time>2025-08-29T18:18:57Z</time>
    </trkpt>
    <trkpt lat="50.9773840" lon="6.8534884">
      <time>2025-08-29T18:19:00Z</time>
    </trkpt>
    <trkpt lat="50.9773004" lon="6.8536970">
      <time>2025-08-29T18:19:03Z</time>
    </trkpt>
    <trkpt lat="50.9770994" lon="6.8541977">
      <time>2025-08-29T18:19:10Z</time>
    </trkpt>
    <trkpt lat="50.9770484" lon="6.8543472">
      <time>2025-08-29T18:19:12Z</time>
    </trkpt>
    <trkpt lat="50.9768491" lon="6.8550010">
      <time>2025-08-29T18:19:21Z</time>
    </trkpt>
    <trkpt lat="50.9767320" lon="6.8553578">
      <time>2025-08-29T18:19:26Z</time>
    </trkpt>
    <trkpt lat="50.9766908" lon="6.8554981">
      <time>2025-08-29T18:19:28Z</time>
    </trkpt>
    <trkpt lat="50.9765799" lon="6.8558624">
      <time>2025-08-29T18:19:33Z</time>
    </trkpt>
    <trkpt lat="50.9764908" lon="6.8561428">
      <time>2025-08-29T18:19:37Z</time>
    </trkpt>
    <trkpt lat="50.9764292" lon="6.8563496">
      <time>2025-08-29T18:19:40Z</time>
    </trkpt>
    <trkpt lat="50.9763692" lon="6.8565527">
      <time>2025-08-29T18:19:43Z</time>
    </trkpt>
    <trkpt lat="50.9763089" lon="6.8567616">
      <time>2025-08-29T18:19:46Z</time>
    </trkpt>
    <trkpt lat="50.9761727" lon="6.8572305">
      <time>2025-08-29T18:19:53Z</time>
    </trkpt>
    <trkpt lat="50.9760330" lon="6.8577592">
      <time>2025-08-29T18:20:01Z</time>
    </trkpt>
    <trkpt lat="50.9760161" lon="6.8578911">
      <time>2025-08-29T18:20:03Z</time>
    </trkpt>
    <trkpt lat="50.9759867" lon="6.8580382">
      <time>2025-08-29T18:20:05Z</time>
    </trkpt>
    <trkpt lat="50.9759436" lon="6.8581703">
      <time>2025-08-29T18:20:07Z</time>
    </trkpt>
    <trkpt lat="50.9759182" lon="6.8582365">
      <time>2025-08-29T18:20:08Z</time>
    </trkpt>
    <trkpt lat="50.9758464" lon="6.8584130">
      <time>2025-08-29T18:20:11Z</time>
    </trkpt>
    <trkpt lat="50.9758289" lon="6.8585975">
      <time>2025-08-29T18:20:14Z</time>
    </trkpt>
    <trkpt lat="50.9758008" lon="6.8588007">
      <time>2025-08-29T18:20:18Z</time>
    </trkpt>
    <trkpt lat="50.9756709" lon="6.8590990">
      <time>2025-08-29T18:20:24Z</time>
    </trkpt>
    <trkpt lat="50.9756198" lon="6.8593706">
      <time>2025-08-29T18:20:29Z</time>
    </trkpt>
    <trkpt lat="50.9756267" lon="6.8594305">
      <time>2025-08-29T18:20:30Z</time>
    </trkpt>
    <trkpt lat="50.9756115" lon="6.8594769">
      <time>2025-08-29T18:20:31Z</time>
    </trkpt>
    <trkpt lat="50.9755590" lon="6.8595279">
      <time>2025-08-29T18:20:33Z</time>
    </trkpt>
    <trkpt lat="50.9754767" lon="6.8597617">
      <time>2025-08-29T18:20:37Z</time>
    </trkpt>
    <trkpt lat="50.9754584" lon="6.8598248">
      <time>2025-08-29T18:20:38Z</time>
    </trkpt>
    <trkpt lat="50.9753369" lon="6.8601260">
      <time>2025-08-29T18:20:43Z</time>
    </trkpt>
    <trkpt lat="50.9752934" lon="6.8602380">
      <time>2025-08-29T18:20:45Z</time>
    </trkpt>
    <trkpt lat="50.9752074" lon="6.8606363">
      <time>2025-08-29T18:20:51Z</time>
    </trkpt>
    <trkpt lat="50.9750815" lon="6.8610689">
      <time>2025-08-29T18:20:56Z</time>
    </trkpt>
    <trkpt lat="50.9750043" lon="6.8613554">
      <time>2025-08-29T18:20:59Z</time>
    </trkpt>
    <trkpt lat="50.9749762" lon="6.8614490">
      <time>2025-08-29T18:21:00Z</time>
    </trkpt>
    <trkpt lat="50.9748902" lon="6.8617480">
      <time>2025-08-29T18:21:03Z</time>
    </trkpt>
    <trkpt lat="50.9748123" lon="6.8620460">
      <time>2025-08-29T18:21:06Z</time>
    </trkpt>
    <trkpt lat="50.9747585" lon="6.8622432">
      <time>2025-08-29T18:21:08Z</time>
    </trkpt>
    <trkpt lat="50.9746941" lon="6.8624335">
      <time>2025-08-29T18:21:10Z</time>
    </trkpt>
    <trkpt lat="50.9746598" lon="6.8625264">
      <time>2025-08-29T18:21:11Z</time>
    </trkpt>
    <trkpt lat="50.9744606" lon="6.8629359">
      <time>2025-08-29T18:21:16Z</time>
    </trkpt>
    <trkpt lat="50.9744208" lon="6.8630081">
      <time>2025-08-29T18:21:17Z</time>
    </trkpt>
    <trkpt lat="50.9741648" lon="6.8634129">
      <time>2025-08-29T18:21:23Z</time>
    </trkpt>
    <trkpt lat="50.9738992" lon="6.8639620">
      <time>2025-08-29T18:21:31Z</time>
    </trkpt>
    <trkpt lat="50.9738842" lon="6.8641146">
      <time>2025-08-29T18:21:33Z</time>
    </trkpt>
    <trkpt lat="50.9738383" lon="6.8642744">
      <time>2025-08-29T18:21:35Z</time>
    </trkpt>
    <trkpt lat="50.9738098" lon="6.8643656">
      <time>2025-08-29T18:21:36Z</time>
    </trkpt>
    <trkpt lat="50.9736643" lon="6.8647509">
      <time>2025-08-29T18:21:40Z</time>
    </trkpt>
    <trkpt lat="50.9735604" lon="6.8650253">
      <time>2025-08-29T18:21:43Z</time>
    </trkpt>
    <trkpt lat="50.9734268" lon="6.8652845">
      <time>2025-08-29T18:21:46Z</time>
    </trkpt>
    <trkpt lat="50.9733731" lon="6.8653636">
      <time>2025-08-29T18:21:47Z</time>
    </trkpt>
    <trkpt lat="50.9732039" lon="6.8655986">
      <time>2025-08-29T18:21:50Z</time>
    </trkpt>
    <trkpt lat="50.9730729" lon="6.8657318">
      <time>2025-08-29T18:21:52Z</time>
    </trkpt>
    <trkpt lat="50.9728022" lon="6.8659621">
      <time>2025-08-29T18:21:56Z</time>
    </trkpt>
    <trkpt lat="50.9726637" lon="6.8660866">
      <time>2025-08-29T18:21:58Z</time>
    </trkpt>
    <trkpt lat="50.9725303" lon="6.8662167">
      <time>2025-08-29T18:22:00Z</time>
    </trkpt>
    <trkpt lat="50.9723276" lon="6.8664185">
      <time>2025-08-29T18:22:03Z</time>
    </trkpt>
    <trkpt lat="50.9722597" lon="6.8664799">
      <time>2025-08-29T18:22:04Z</time>
    </trkpt>
    <trkpt lat="50.9720508" lon="6.8666749">
      <time>2025-08-29T18:22:07Z</time>
    </trkpt>
    <trkpt lat="50.9719110" lon="6.8668013">
      <time>2025-08-29T18:22:09Z</time>
    </trkpt>
    <trkpt lat="50.9718413" lon="6.8668634">
      <time>2025-08-29T18:22:10Z</time>
    </trkpt>
    <trkpt lat="50.9717753" lon="6.8669277">
      <time>2025-08-29T18:22:11Z</time>
    </trkpt>
    <trkpt lat="50.9715800" lon="6.8670998">
      <time>2025-08-29T18:22:14Z</time>
    </trkpt>
    <trkpt lat="50.9714137" lon="6.8672564">
      <time>2025-08-29T18:22:17Z</time>
    </trkpt>
    <trkpt lat="50.9712013" lon="6.8674000">
      <time>2025-08-29T18:22:21Z</time>
    </trkpt>
    <trkpt lat="50.9711104" lon="6.8674730">
      <time>2025-08-29T18:22:23Z</time>
    </trkpt>
    <trkpt lat="50.9709537" lon="6.8676000">
      <time>2025-08-29T18:22:27Z</time>
    </trkpt>
    <trkpt lat="50.9708890" lon="6.8676751">
      <time>2025-08-29T18:22:29Z</time>
    </trkpt>
    <trkpt lat="50.9708403" lon="6.8677473">
      <time>2025-08-29T18:22:31Z</time>
    </trkpt>
    <trkpt lat="50.9707926" lon="6.8678707">
      <time>2025-08-29T18:22:33Z</time>
    </trkpt>
    <trkpt lat="50.9706763" lon="6.8682703">
      <time>2025-08-29T18:22:39Z</time>
    </trkpt>
    <trkpt lat="50.9706045" lon="6.8684724">
      <time>2025-08-29T18:22:42Z</time>
    </trkpt>
    <trkpt lat="50.9705811" lon="6.8685347">
      <time>2025-08-29T18:22:43Z</time>
    </trkpt>
    <trkpt lat="50.9705572" lon="6.8686008">
      <time>2025-08-29T18:22:44Z</time>
    </trkpt>
    <trkpt lat="50.9704832" lon="6.8688536">
      <time>2025-08-29T18:22:48Z</time>
    </trkpt>
    <trkpt lat="50.9704490" lon="6.8689742">
      <time>2025-08-29T18:22:50Z</time>
    </trkpt>
    <trkpt lat="50.9703070" lon="6.8694544">
      <time>2025-08-29T18:22:59Z</time>
    </trkpt>
    <trkpt lat="50.9702770" lon="6.8696907">
      <time>2025-08-29T18:23:04Z</time>
    </trkpt>
    <trkpt lat="50.9702579" lon="6.8697762">
      <time>2025-08-29T18:23:08Z</time>
    </trkpt>
    <trkpt lat="50.9702602" lon="6.8697836">
      <time>2025-08-29T18:23:10Z</time>
    </trkpt>
    <trkpt lat="50.9702447" lon="6.8698350">
      <time>2025-08-29T18:23:34Z</time>
    </trkpt>
    <trkpt lat="50.9702422" lon="6.8698753">
      <time>2025-08-29T18:23:35Z</time>
    </trkpt>
    <trkpt lat="50.9701591" lon="6.8700168">
      <time>2025-08-29T18:23:39Z</time>
    </trkpt>
    <trkpt lat="50.9700768" lon="6.8700012">
      <time>2025-08-29T18:23:41Z</time>
    </trkpt>
    <trkpt lat="50.9699988" lon="6.8699672">
      <time>2025-08-29T18:23:43Z</time>
    </trkpt>
    <trkpt lat="50.9697670" lon="6.8698622">
      <time>2025-08-29T18:23:48Z</time>
    </trkpt>
    <trkpt lat="50.9695745" lon="6.8697422">
      <time>2025-08-29T18:23:53Z</time>
    </trkpt>
    <trkpt lat="50.9695340" lon="6.8697236">
      <time>2025-08-29T18:23:54Z</time>
    </trkpt>
    <trkpt lat="50.9692117" lon="6.8695736">
      <time>2025-08-29T18:24:02Z</time>
    </trkpt>
    <trkpt lat="50.9691303" lon="6.8695606">
      <time>2025-08-29T18:24:04Z</time>
    </trkpt>
    <trkpt lat="50.9690601" lon="6.8695705">
      <time>2025-08-29T18:24:06Z</time>
    </trkpt>
    <trkpt lat="50.9690266" lon="6.8695696">
      <time>2025-08-29T18:24:07Z</time>
    </trkpt>
    <trkpt lat="50.9689427" lon="6.8695564">
      <time>2025-08-29T18:24:11Z</time>
    </trkpt>
    <trkpt lat="50.9689340" lon="6.8695566">
      <time>2025-08-29T18:24:13Z</time>
    </trkpt>
    <trkpt lat="50.9689075" lon="6.8695352">
      <time>2025-08-29T18:24:30Z</time>
    </trkpt>
    <trkpt lat="50.9688877" lon="6.8695270">
      <time>2025-08-29T18:24:31Z</time>
    </trkpt>
    <trkpt lat="50.9687261" lon="6.8695187">
      <time>2025-08-29T18:24:36Z</time>
    </trkpt>
    <trkpt lat="50.9686873" lon="6.8695253">
      <time>2025-08-29T18:24:37Z</time>
    </trkpt>
    <trkpt lat="50.9686177" lon="6.8694471">
      <time>2025-08-29T18:24:39Z</time>
    </trkpt>
    <trkpt lat="50.9685384" lon="6.8693882">
      <time>2025-08-29T18:24:41Z</time>
    </trkpt>
    <trkpt lat="50.9684452" lon="6.8693526">
      <time>2025-08-29T18:24:43Z</time>
    </trkpt>
    <trkpt lat="50.9680639" lon="6.8692166">
      <time>2025-08-29T18:24:51Z</time>
    </trkpt>
    <trkpt lat="50.9677359" lon="6.8690797">
      <time>2025-08-29T18:24:58Z</time>
    </trkpt>
    <trkpt lat="50.9676387" lon="6.8690402">
      <time>2025-08-29T18:25:00Z</time>
    </trkpt>
    <trkpt lat="50.9673543" lon="6.8689147">
      <time>2025-08-29T18:25:06Z</time>
    </trkpt>
    <trkpt lat="50.9672586" lon="6.8688645">
      <time>2025-08-29T18:25:08Z</time>
    </trkpt>
    <trkpt lat="50.9669128" lon="6.8686878">
      <time>2025-08-29T18:25:15Z</time>
    </trkpt>
    <trkpt lat="50.9668666" lon="6.8686622">
      <time>2025-08-29T18:25:16Z</time>
    </trkpt>
    <trkpt lat="50.9665731" lon="6.8685621">
      <time>2025-08-29T18:25:23Z</time>
    </trkpt>
    <trkpt lat="50.9665387" lon="6.8685978">
      <time>2025-08-29T18:25:24Z</time>
    </trkpt>
    <trkpt lat="50.9664780" lon="6.8687021">
      <time>2025-08-29T18:25:26Z</time>
    </trkpt>
    <trkpt lat="50.9663036" lon="6.8691331">
      <time>2025-08-29T18:25:33Z</time>
    </trkpt>
    <trkpt lat="50.9660778" lon="6.8698189">
      <time>2025-08-29T18:25:42Z</time>
    </trkpt>
    <trkpt lat="50.9657970" lon="6.8704795">
      <time>2025-08-29T18:25:50Z</time>
    </trkpt>
    <trkpt lat="50.9656739" lon="6.8707803">
      <time>2025-08-29T18:25:54Z</time>
    </trkpt>
    <trkpt lat="50.9656878" lon="6.8709003">
      <time>2025-08-29T18:25:56Z</time>
    </trkpt>
    <trkpt lat="50.9657040" lon="6.8710844">
      <time>2025-08-29T18:25:59Z</time>
    </trkpt>
    <trkpt lat="50.9656985" lon="6.8711645">
      <time>2025-08-29T18:26:00Z</time>
    </trkpt>
    <trkpt lat="50.9656942" lon="6.8712457">
      <time>2025-08-29T18:26:01Z</time>
    </trkpt>
    <trkpt lat="50.9656689" lon="6.8716291">
      <time>2025-08-29T18:26:06Z</time>
    </trkpt>
    <trkpt lat="50.9656607" lon="6.8719410">
      <time>2025-08-29T18:26:10Z</time>
    </trkpt>
    <trkpt lat="50.9656332" lon="6.8722635">
      <time>2025-08-29T18:26:15Z</time>
    </trkpt>
    <trkpt lat="50.9656035" lon="6.8723818">
      <time>2025-08-29T18:26:17Z</time>
    </trkpt>
    <trkpt lat="50.9655900" lon="6.8725201">
      <time>2025-08-29T18:26:19Z</time>
    </trkpt>
    <trkpt lat="50.9655759" lon="6.8725874">
      <time>2025-08-29T18:26:20Z</time>
    </trkpt>
    <trkpt lat="50.9655571" lon="6.8726605">
      <time>2025-08-29T18:26:21Z</time>
    </trkpt>
    <trkpt lat="50.9655089" lon="6.8727824">
      <time>2025-08-29T18:26:23Z</time>
    </trkpt>
    <trkpt lat="50.9654503" lon="6.8729021">
      <time>2025-08-29T18:26:25Z</time>
    </trkpt>
    <trkpt lat="50.9652568" lon="6.8732648">
      <time>2025-08-29T18:26:31Z</time>
    </trkpt>
    <trkpt lat="50.9651551" lon="6.8734337">
      <time>2025-08-29T18:26:34Z</time>
    </trkpt>
    <trkpt lat="50.9648962" lon="6.8739197">
      <time>2025-08-29T18:26:42Z</time>
    </trkpt>
    <trkpt lat="50.9646645" lon="6.8744975">
      <time>2025-08-29T18:26:50Z</time>
    </trkpt>
    <trkpt lat="50.9644724" lon="6.8752041">
      <time>2025-08-29T18:26:59Z</time>
    </trkpt>
    <trkpt lat="50.9643397" lon="6.8758146">
      <time>2025-08-29T18:27:07Z</time>
    </trkpt>
    <trkpt lat="50.9643203" lon="6.8759458">
      <time>2025-08-29T18:27:09Z</time>
    </trkpt>
    <trkpt lat="50.9642626" lon="6.8762541">
      <time>2025-08-29T18:27:14Z</time>
    </trkpt>
    <trkpt lat="50.9641626" lon="6.8766890">
      <time>2025-08-29T18:27:21Z</time>
    </trkpt>
    <trkpt lat="50.9641098" lon="6.8769719">
      <time>2025-08-29T18:27:25Z</time>
    </trkpt>
    <trkpt lat="50.9640351" lon="6.8772685">
      <time>2025-08-29T18:27:29Z</time>
    </trkpt>
    <trkpt lat="50.9638887" lon="6.8777956">
      <time>2025-08-29T18:27:37Z</time>
    </trkpt>
    <trkpt lat="50.9638258" lon="6.8779457">
      <time>2025-08-29T18:27:40Z</time>
    </trkpt>
    <trkpt lat="50.9637885" lon="6.8779421">
      <time>2025-08-29T18:27:41Z</time>
    </trkpt>
    <trkpt lat="50.9636990" lon="6.8778126">
      <time>2025-08-29T18:27:44Z</time>
    </trkpt>
    <trkpt lat="50.9635120" lon="6.8774910">
      <time>2025-08-29T18:27:51Z</time>
    </trkpt>
    <trkpt lat="50.9634666" lon="6.8774139">
      <time>2025-08-29T18:27:53Z</time>
    </trkpt>
    <trkpt lat="50.9634499" lon="6.8773624">
      <time>2025-08-29T18:27:54Z</time>
    </trkpt>
    <trkpt lat="50.9634465" lon="6.8773153">
      <time>2025-08-29T18:27:55Z</time>
    </trkpt>
    <trkpt lat="50.9634661" lon="6.8772412">
      <time>2025-08-29T18:27:57Z</time>
    </trkpt>
    <trkpt lat="50.9634738" lon="6.8772165">
      <time>2025-08-29T18:28:00Z</time>
    </trkpt>
    <trkpt lat="50.9633012" lon="6.8775913">
      <time>2025-08-29T18:35:13Z</time>
    </trkpt>
    <trkpt lat="50.9633276" lon="6.8774133">
      <time>2025-08-29T18:35:14Z</time>
    </trkpt>
    <trkpt lat="50.9633317" lon="6.8773898">
      <time>2025-08-29T18:35:15Z</time>
    </trkpt>
  </trkseg></trk>
</gpx>
