<?xml version="1.0" encoding="UTF-8"?>
<gpx version="1.1" creator="Diary FIT converter" xmlns="http://www.topografix.com/GPX/1/1">
  <trk><name>Running</name><trkseg>
    <trkpt lat="50.9630680" lon="6.8763368">
      <time>2021-05-29T14:04:14Z</time>
    </trkpt>
    <trkpt lat="50.9630680" lon="6.8763368">
      <time>2021-05-29T14:04:15Z</time>
    </trkpt>
    <trkpt lat="50.9629640" lon="6.8763516">
      <time>2021-05-29T14:04:18Z</time>
    </trkpt>
    <trkpt lat="50.9629312" lon="6.8763347">
      <time>2021-05-29T14:04:19Z</time>
    </trkpt>
    <trkpt lat="50.9627952" lon="6.8764092">
      <time>2021-05-29T14:04:26Z</time>
    </trkpt>
    <trkpt lat="50.9627814" lon="6.8764400">
      <time>2021-05-29T14:04:28Z</time>
    </trkpt>
    <trkpt lat="50.9627558" lon="6.8765048">
      <time>2021-05-29T14:04:31Z</time>
    </trkpt>
    <trkpt lat="50.9626412" lon="6.8765440">
      <time>2021-05-29T14:04:37Z</time>
    </trkpt>
    <trkpt lat="50.9625727" lon="6.8765186">
      <time>2021-05-29T14:04:40Z</time>
    </trkpt>
    <trkpt lat="50.9625247" lon="6.8765129">
      <time>2021-05-29T14:04:42Z</time>
    </trkpt>
    <trkpt lat="50.9625054" lon="6.8765097">
      <time>2021-05-29T14:04:43Z</time>
    </trkpt>
    <trkpt lat="50.9624322" lon="6.8765003">
      <time>2021-05-29T14:04:46Z</time>
    </trkpt>
    <trkpt lat="50.9623439" lon="6.8764921">
      <time>2021-05-29T14:04:50Z</time>
    </trkpt>
    <trkpt lat="50.9621970" lon="6.8765297">
      <time>2021-05-29T14:04:56Z</time>
    </trkpt>
    <trkpt lat="50.9620532" lon="6.8764854">
      <time>2021-05-29T14:05:04Z</time>
    </trkpt>
    <trkpt lat="50.9620424" lon="6.8764898">
      <time>2021-05-29T14:05:05Z</time>
    </trkpt>
    <trkpt lat="50.9620295" lon="6.8765238">
      <time>2021-05-29T14:05:07Z</time>
    </trkpt>
    <trkpt lat="50.9620255" lon="6.8765555">
      <time>2021-05-29T14:05:08Z</time>
    </trkpt>
    <trkpt lat="50.9620279" lon="6.8767729">
      <time>2021-05-29T14:05:15Z</time>
    </trkpt>
    <trkpt lat="50.9619688" lon="6.8769314">
      <time>2021-05-29T14:05:21Z</time>
    </trkpt>
    <trkpt lat="50.9618145" lon="6.8770436">
      <time>2021-05-29T14:05:28Z</time>
    </trkpt>
    <trkpt lat="50.9617066" lon="6.8770871">
      <time>2021-05-29T14:05:33Z</time>
    </trkpt>
    <trkpt lat="50.9616791" lon="6.8770865">
      <time>2021-05-29T14:05:35Z</time>
    </trkpt>
    <trkpt lat="50.9616530" lon="6.8770915">
      <time>2021-05-29T14:05:37Z</time>
    </trkpt>
    <trkpt lat="50.9615793" lon="6.8771256">
      <time>2021-05-29T14:05:41Z</time>
    </trkpt>
    <trkpt lat="50.9615400" lon="6.8771438">
      <time>2021-05-29T14:05:43Z</time>
    </trkpt>
    <trkpt lat="50.9614731" lon="6.8772110">
      <time>2021-05-29T14:05:46Z</time>
    </trkpt>
    <trkpt lat="50.9614155" lon="6.8772575">
      <time>2021-05-29T14:05:48Z</time>
    </trkpt>
    <trkpt lat="50.9613364" lon="6.8773184">
      <time>2021-05-29T14:05:51Z</time>
    </trkpt>
    <trkpt lat="50.9612556" lon="6.8773272">
      <time>2021-05-29T14:05:55Z</time>
    </trkpt>
    <trkpt lat="50.9612354" lon="6.8773400">
      <time>2021-05-29T14:05:56Z</time>
    </trkpt>
    <trkpt lat="50.9611060" lon="6.8774703">
      <time>2021-05-29T14:06:03Z</time>
    </trkpt>
    <trkpt lat="50.9610584" lon="6.8774963">
      <time>2021-05-29T14:06:05Z</time>
    </trkpt>
    <trkpt lat="50.9609683" lon="6.8774961">
      <time>2021-05-29T14:06:09Z</time>
    </trkpt>
    <trkpt lat="50.9609453" lon="6.8774973">
      <time>2021-05-29T14:06:10Z</time>
    </trkpt>
    <trkpt lat="50.9608670" lon="6.8775168">
      <time>2021-05-29T14:06:13Z</time>
    </trkpt>
    <trkpt lat="50.9607947" lon="6.8775486">
      <time>2021-05-29T14:06:16Z</time>
    </trkpt>
    <trkpt lat="50.9607052" lon="6.8775880">
      <time>2021-05-29T14:06:20Z</time>
    </trkpt>
    <trkpt lat="50.9606085" lon="6.8776400">
      <time>2021-05-29T14:06:25Z</time>
    </trkpt>
    <trkpt lat="50.9605909" lon="6.8776458">
      <time>2021-05-29T14:06:26Z</time>
    </trkpt>
    <trkpt lat="50.9604037" lon="6.8776876">
      <time>2021-05-29T14:06:35Z</time>
    </trkpt>
    <trkpt lat="50.9603129" lon="6.8777235">
      <time>2021-05-29T14:06:39Z</time>
    </trkpt>
    <trkpt lat="50.9602800" lon="6.8777246">
      <time>2021-05-29T14:06:41Z</time>
    </trkpt>
    <trkpt lat="50.9601828" lon="6.8777587">
      <time>2021-05-29T14:06:45Z</time>
    </trkpt>
    <trkpt lat="50.9600544" lon="6.8776878">
      <time>2021-05-29T14:06:51Z</time>
    </trkpt>
    <trkpt lat="50.9600204" lon="6.8776572">
      <time>2021-05-29T14:06:53Z</time>
    </trkpt>
    <trkpt lat="50.9599298" lon="6.8775795">
      <time>2021-05-29T14:06:58Z</time>
    </trkpt>
    <trkpt lat="50.9598165" lon="6.8774096">
      <time>2021-05-29T14:07:04Z</time>
    </trkpt>
    <trkpt lat="50.9597677" lon="6.8771497">
      <time>2021-05-29T14:07:10Z</time>
    </trkpt>
    <trkpt lat="50.9597742" lon="6.8770720">
      <time>2021-05-29T14:07:12Z</time>
    </trkpt>
    <trkpt lat="50.9598046" lon="6.8769161">
      <time>2021-05-29T14:07:16Z</time>
    </trkpt>
    <trkpt lat="50.9598145" lon="6.8766063">
      <time>2021-05-29T14:07:24Z</time>
    </trkpt>
    <trkpt lat="50.9597713" lon="6.8763286">
      <time>2021-05-29T14:07:31Z</time>
    </trkpt>
    <trkpt lat="50.9597285" lon="6.8760416">
      <time>2021-05-29T14:07:40Z</time>
    </trkpt>
    <trkpt lat="50.9597274" lon="6.8760181">
      <time>2021-05-29T14:07:41Z</time>
    </trkpt>
    <trkpt lat="50.9597134" lon="6.8758837">
      <time>2021-05-29T14:07:45Z</time>
    </trkpt>
    <trkpt lat="50.9597071" lon="6.8757483">
      <time>2021-05-29T14:07:49Z</time>
    </trkpt>
    <trkpt lat="50.9596932" lon="6.8755592">
      <time>2021-05-29T14:07:54Z</time>
    </trkpt>
    <trkpt lat="50.9596958" lon="6.8754405">
      <time>2021-05-29T14:07:57Z</time>
    </trkpt>
    <trkpt lat="50.9597014" lon="6.8751438">
      <time>2021-05-29T14:08:05Z</time>
    </trkpt>
    <trkpt lat="50.9597062" lon="6.8751070">
      <time>2021-05-29T14:08:06Z</time>
    </trkpt>
    <trkpt lat="50.9597244" lon="6.8748585">
      <time>2021-05-29T14:08:13Z</time>
    </trkpt>
    <trkpt lat="50.9597217" lon="6.8748262">
      <time>2021-05-29T14:08:14Z</time>
    </trkpt>
    <trkpt lat="50.9597278" lon="6.8746096">
      <time>2021-05-29T14:08:20Z</time>
    </trkpt>
    <trkpt lat="50.9597271" lon="6.8745719">
      <time>2021-05-29T14:08:21Z</time>
    </trkpt>
    <trkpt lat="50.9597339" lon="6.8744621">
      <time>2021-05-29T14:08:24Z</time>
    </trkpt>
    <trkpt lat="50.9597483" lon="6.8742715">
      <time>2021-05-29T14:08:29Z</time>
    </trkpt>
    <trkpt lat="50.9597637" lon="6.8740037">
      <time>2021-05-29T14:08:36Z</time>
    </trkpt>
    <trkpt lat="50.9598025" lon="6.8736882">
      <time>2021-05-29T14:08:45Z</time>
    </trkpt>
    <trkpt lat="50.9597993" lon="6.8735908">
      <time>2021-05-29T14:08:48Z</time>
    </trkpt>
    <trkpt lat="50.9597584" lon="6.8734161">
      <time>2021-05-29T14:08:53Z</time>
    </trkpt>
    <trkpt lat="50.9597231" lon="6.8731247">
      <time>2021-05-29T14:09:00Z</time>
    </trkpt>
    <trkpt lat="50.9597204" lon="6.8730911">
      <time>2021-05-29T14:09:01Z</time>
    </trkpt>
    <trkpt lat="50.9597003" lon="6.8729589">
      <time>2021-05-29T14:09:06Z</time>
    </trkpt>
    <trkpt lat="50.9596451" lon="6.8727568">
      <time>2021-05-29T14:09:12Z</time>
    </trkpt>
    <trkpt lat="50.9595986" lon="6.8724719">
      <time>2021-05-29T14:09:20Z</time>
    </trkpt>
    <trkpt lat="50.9595953" lon="6.8724458">
      <time>2021-05-29T14:09:21Z</time>
    </trkpt>
    <trkpt lat="50.9595736" lon="6.8722562">
      <time>2021-05-29T14:09:27Z</time>
    </trkpt>
    <trkpt lat="50.9595212" lon="6.8719895">
      <time>2021-05-29T14:09:34Z</time>
    </trkpt>
    <trkpt lat="50.9594903" lon="6.8718749">
      <time>2021-05-29T14:09:37Z</time>
    </trkpt>
    <trkpt lat="50.9594675" lon="6.8718153">
      <time>2021-05-29T14:09:39Z</time>
    </trkpt>
    <trkpt lat="50.9593869" lon="6.8715486">
      <time>2021-05-29T14:09:47Z</time>
    </trkpt>
    <trkpt lat="50.9593161" lon="6.8712743">
      <time>2021-05-29T14:09:55Z</time>
    </trkpt>
    <trkpt lat="50.9592987" lon="6.8712126">
      <time>2021-05-29T14:09:57Z</time>
    </trkpt>
    <trkpt lat="50.9592390" lon="6.8710562">
      <time>2021-05-29T14:10:02Z</time>
    </trkpt>
    <trkpt lat="50.9592129" lon="6.8709932">
      <time>2021-05-29T14:10:04Z</time>
    </trkpt>
    <trkpt lat="50.9591489" lon="6.8709148">
      <time>2021-05-29T14:10:08Z</time>
    </trkpt>
    <trkpt lat="50.9590366" lon="6.8708345">
      <time>2021-05-29T14:10:15Z</time>
    </trkpt>
    <trkpt lat="50.9589437" lon="6.8708485">
      <time>2021-05-29T14:10:20Z</time>
    </trkpt>
    <trkpt lat="50.9588841" lon="6.8708364">
      <time>2021-05-29T14:10:23Z</time>
    </trkpt>
    <trkpt lat="50.9588473" lon="6.8708310">
      <time>2021-05-29T14:10:25Z</time>
    </trkpt>
    <trkpt lat="50.9587674" lon="6.8708272">
      <time>2021-05-29T14:10:28Z</time>
    </trkpt>
    <trkpt lat="50.9586933" lon="6.8707995">
      <time>2021-05-29T14:10:32Z</time>
    </trkpt>
    <trkpt lat="50.9586141" lon="6.8707867">
      <time>2021-05-29T14:10:35Z</time>
    </trkpt>
    <trkpt lat="50.9585359" lon="6.8707847">
      <time>2021-05-29T14:10:39Z</time>
    </trkpt>
    <trkpt lat="50.9584721" lon="6.8707511">
      <time>2021-05-29T14:10:42Z</time>
    </trkpt>
    <trkpt lat="50.9583574" lon="6.8705546">
      <time>2021-05-29T14:10:48Z</time>
    </trkpt>
    <trkpt lat="50.9583334" lon="6.8704422">
      <time>2021-05-29T14:10:50Z</time>
    </trkpt>
    <trkpt lat="50.9583227" lon="6.8703173">
      <time>2021-05-29T14:10:52Z</time>
    </trkpt>
    <trkpt lat="50.9583539" lon="6.8701831">
      <time>2021-05-29T14:10:56Z</time>
    </trkpt>
    <trkpt lat="50.9583591" lon="6.8701445">
      <time>2021-05-29T14:10:57Z</time>
    </trkpt>
    <trkpt lat="50.9584269" lon="6.8698593">
      <time>2021-05-29T14:11:03Z</time>
    </trkpt>
    <trkpt lat="50.9584309" lon="6.8698048">
      <time>2021-05-29T14:11:04Z</time>
    </trkpt>
    <trkpt lat="50.9585022" lon="6.8695534">
      <time>2021-05-29T14:11:11Z</time>
    </trkpt>
    <trkpt lat="50.9585629" lon="6.8692699">
      <time>2021-05-29T14:11:18Z</time>
    </trkpt>
    <trkpt lat="50.9586495" lon="6.8689996">
      <time>2021-05-29T14:11:25Z</time>
    </trkpt>
    <trkpt lat="50.9586709" lon="6.8688039">
      <time>2021-05-29T14:11:31Z</time>
    </trkpt>
    <trkpt lat="50.9586645" lon="6.8687777">
      <time>2021-05-29T14:11:32Z</time>
    </trkpt>
    <trkpt lat="50.9586421" lon="6.8687366">
      <time>2021-05-29T14:11:34Z</time>
    </trkpt>
    <trkpt lat="50.9585981" lon="6.8687018">
      <time>2021-05-29T14:11:36Z</time>
    </trkpt>
    <trkpt lat="50.9585329" lon="6.8686899">
      <time>2021-05-29T14:11:40Z</time>
    </trkpt>
    <trkpt lat="50.9585073" lon="6.8686965">
      <time>2021-05-29T14:11:42Z</time>
    </trkpt>
    <trkpt lat="50.9585146" lon="6.8686904">
      <time>2021-05-29T14:11:45Z</time>
    </trkpt>
    <trkpt lat="50.9585242" lon="6.8686901">
      <time>2021-05-29T14:11:46Z</time>
    </trkpt>
    <trkpt lat="50.9585241" lon="6.8686913">
      <time>2021-05-29T14:11:49Z</time>
    </trkpt>
    <trkpt lat="50.9584948" lon="6.8686775">
      <time>2021-05-29T14:11:51Z</time>
    </trkpt>
    <trkpt lat="50.9584767" lon="6.8686185">
      <time>2021-05-29T14:11:53Z</time>
    </trkpt>
    <trkpt lat="50.9584677" lon="6.8685540">
      <time>2021-05-29T14:11:55Z</time>
    </trkpt>
    <trkpt lat="50.9584493" lon="6.8685037">
      <time>2021-05-29T14:12:00Z</time>
    </trkpt>
    <trkpt lat="50.9584650" lon="6.8683713">
      <time>2021-05-29T14:12:05Z</time>
    </trkpt>
    <trkpt lat="50.9585160" lon="6.8682965">
      <time>2021-05-29T14:12:09Z</time>
    </trkpt>
    <trkpt lat="50.9585282" lon="6.8682896">
      <time>2021-05-29T14:12:10Z</time>
    </trkpt>
    <trkpt lat="50.9585686" lon="6.8682728">
      <time>2021-05-29T14:12:13Z</time>
    </trkpt>
    <trkpt lat="50.9586115" lon="6.8682637">
      <time>2021-05-29T14:12:16Z</time>
    </trkpt>
    <trkpt lat="50.9587064" lon="6.8682028">
      <time>2021-05-29T14:12:21Z</time>
    </trkpt>
    <trkpt lat="50.9587235" lon="6.8681794">
      <time>2021-05-29T14:12:22Z</time>
    </trkpt>
    <trkpt lat="50.9587361" lon="6.8681558">
      <time>2021-05-29T14:12:23Z</time>
    </trkpt>
    <trkpt lat="50.9588284" lon="6.8679023">
      <time>2021-05-29T14:12:31Z</time>
    </trkpt>
    <trkpt lat="50.9588546" lon="6.8676554">
      <time>2021-05-29T14:12:38Z</time>
    </trkpt>
    <trkpt lat="50.9589040" lon="6.8674608">
      <time>2021-05-29T14:12:45Z</time>
    </trkpt>
    <trkpt lat="50.9589062" lon="6.8674301">
      <time>2021-05-29T14:12:46Z</time>
    </trkpt>
    <trkpt lat="50.9588934" lon="6.8674115">
      <time>2021-05-29T14:12:47Z</time>
    </trkpt>
    <trkpt lat="50.9588349" lon="6.8674113">
      <time>2021-05-29T14:12:50Z</time>
    </trkpt>
    <trkpt lat="50.9587229" lon="6.8674426">
      <time>2021-05-29T14:12:56Z</time>
    </trkpt>
    <trkpt lat="50.9585863" lon="6.8674998">
      <time>2021-05-29T14:13:04Z</time>
    </trkpt>
    <trkpt lat="50.9585061" lon="6.8675317">
      <time>2021-05-29T14:13:09Z</time>
    </trkpt>
    <trkpt lat="50.9584526" lon="6.8675631">
      <time>2021-05-29T14:13:12Z</time>
    </trkpt>
    <trkpt lat="50.9583077" lon="6.8676494">
      <time>2021-05-29T14:13:20Z</time>
    </trkpt>
    <trkpt lat="50.9581800" lon="6.8676917">
      <time>2021-05-29T14:13:26Z</time>
    </trkpt>
    <trkpt lat="50.9580415" lon="6.8677346">
      <time>2021-05-29T14:13:32Z</time>
    </trkpt>
    <trkpt lat="50.9579987" lon="6.8677569">
      <time>2021-05-29T14:13:34Z</time>
    </trkpt>
    <trkpt lat="50.9578859" lon="6.8677845">
      <time>2021-05-29T14:13:41Z</time>
    </trkpt>
    <trkpt lat="50.9577268" lon="6.8678238">
      <time>2021-05-29T14:13:49Z</time>
    </trkpt>
    <trkpt lat="50.9575637" lon="6.8679027">
      <time>2021-05-29T14:13:57Z</time>
    </trkpt>
    <trkpt lat="50.9574034" lon="6.8679659">
      <time>2021-05-29T14:14:05Z</time>
    </trkpt>
    <trkpt lat="50.9572156" lon="6.8680004">
      <time>2021-05-29T14:14:13Z</time>
    </trkpt>
    <trkpt lat="50.9570309" lon="6.8680388">
      <time>2021-05-29T14:14:20Z</time>
    </trkpt>
    <trkpt lat="50.9569711" lon="6.8680499">
      <time>2021-05-29T14:14:23Z</time>
    </trkpt>
    <trkpt lat="50.9568832" lon="6.8681057">
      <time>2021-05-29T14:14:27Z</time>
    </trkpt>
    <trkpt lat="50.9567468" lon="6.8681828">
      <time>2021-05-29T14:14:34Z</time>
    </trkpt>
    <trkpt lat="50.9566183" lon="6.8682373">
      <time>2021-05-29T14:14:40Z</time>
    </trkpt>
    <trkpt lat="50.9565778" lon="6.8682626">
      <time>2021-05-29T14:14:42Z</time>
    </trkpt>
    <trkpt lat="50.9564912" lon="6.8683371">
      <time>2021-05-29T14:14:47Z</time>
    </trkpt>
    <trkpt lat="50.9564561" lon="6.8683511">
      <time>2021-05-29T14:14:49Z</time>
    </trkpt>
    <trkpt lat="50.9564114" lon="6.8683594">
      <time>2021-05-29T14:14:52Z</time>
    </trkpt>
    <trkpt lat="50.9563422" lon="6.8683870">
      <time>2021-05-29T14:14:55Z</time>
    </trkpt>
    <trkpt lat="50.9562947" lon="6.8683926">
      <time>2021-05-29T14:14:57Z</time>
    </trkpt>
    <trkpt lat="50.9562367" lon="6.8684025">
      <time>2021-05-29T14:15:00Z</time>
    </trkpt>
    <trkpt lat="50.9561279" lon="6.8684295">
      <time>2021-05-29T14:15:06Z</time>
    </trkpt>
    <trkpt lat="50.9561053" lon="6.8684325">
      <time>2021-05-29T14:15:07Z</time>
    </trkpt>
    <trkpt lat="50.9559698" lon="6.8684491">
      <time>2021-05-29T14:15:15Z</time>
    </trkpt>
    <trkpt lat="50.9559113" lon="6.8684707">
      <time>2021-05-29T14:15:19Z</time>
    </trkpt>
    <trkpt lat="50.9558636" lon="6.8684824">
      <time>2021-05-29T14:15:22Z</time>
    </trkpt>
    <trkpt lat="50.9557431" lon="6.8684879">
      <time>2021-05-29T14:15:30Z</time>
    </trkpt>
    <trkpt lat="50.9556186" lon="6.8684869">
      <time>2021-05-29T14:15:38Z</time>
    </trkpt>
    <trkpt lat="50.9556027" lon="6.8684915">
      <time>2021-05-29T14:15:39Z</time>
    </trkpt>
    <trkpt lat="50.9555712" lon="6.8684935">
      <time>2021-05-29T14:15:41Z</time>
    </trkpt>
    <trkpt lat="50.9554883" lon="6.8685166">
      <time>2021-05-29T14:15:45Z</time>
    </trkpt>
    <trkpt lat="50.9554683" lon="6.8685151">
      <time>2021-05-29T14:15:46Z</time>
    </trkpt>
    <trkpt lat="50.9554198" lon="6.8685153">
      <time>2021-05-29T14:15:49Z</time>
    </trkpt>
    <trkpt lat="50.9553999" lon="6.8685180">
      <time>2021-05-29T14:15:50Z</time>
    </trkpt>
    <trkpt lat="50.9552726" lon="6.8685037">
      <time>2021-05-29T14:15:57Z</time>
    </trkpt>
    <trkpt lat="50.9551521" lon="6.8685133">
      <time>2021-05-29T14:16:04Z</time>
    </trkpt>
    <trkpt lat="50.9551366" lon="6.8685167">
      <time>2021-05-29T14:16:05Z</time>
    </trkpt>
    <trkpt lat="50.9550628" lon="6.8685356">
      <time>2021-05-29T14:16:09Z</time>
    </trkpt>
    <trkpt lat="50.9549068" lon="6.8685752">
      <time>2021-05-29T14:16:18Z</time>
    </trkpt>
    <trkpt lat="50.9548895" lon="6.8685744">
      <time>2021-05-29T14:16:19Z</time>
    </trkpt>
    <trkpt lat="50.9548269" lon="6.8685735">
      <time>2021-05-29T14:16:23Z</time>
    </trkpt>
    <trkpt lat="50.9547911" lon="6.8685761">
      <time>2021-05-29T14:16:25Z</time>
    </trkpt>
    <trkpt lat="50.9546405" lon="6.8685991">
      <time>2021-05-29T14:16:33Z</time>
    </trkpt>
    <trkpt lat="50.9545831" lon="6.8686076">
      <time>2021-05-29T14:16:35Z</time>
    </trkpt>
    <trkpt lat="50.9544235" lon="6.8686213">
      <time>2021-05-29T14:16:42Z</time>
    </trkpt>
    <trkpt lat="50.9543063" lon="6.8686239">
      <time>2021-05-29T14:16:48Z</time>
    </trkpt>
    <trkpt lat="50.9541148" lon="6.8686571">
      <time>2021-05-29T14:16:58Z</time>
    </trkpt>
    <trkpt lat="50.9540948" lon="6.8686616">
      <time>2021-05-29T14:16:59Z</time>
    </trkpt>
    <trkpt lat="50.9539924" lon="6.8686861">
      <time>2021-05-29T14:17:04Z</time>
    </trkpt>
    <trkpt lat="50.9539765" lon="6.8686930">
      <time>2021-05-29T14:17:05Z</time>
    </trkpt>
    <trkpt lat="50.9538946" lon="6.8687253">
      <time>2021-05-29T14:17:10Z</time>
    </trkpt>
    <trkpt lat="50.9537332" lon="6.8687821">
      <time>2021-05-29T14:17:18Z</time>
    </trkpt>
    <trkpt lat="50.9535888" lon="6.8688168">
      <time>2021-05-29T14:17:26Z</time>
    </trkpt>
    <trkpt lat="50.9535155" lon="6.8688221">
      <time>2021-05-29T14:17:30Z</time>
    </trkpt>
    <trkpt lat="50.9534367" lon="6.8688298">
      <time>2021-05-29T14:17:34Z</time>
    </trkpt>
    <trkpt lat="50.9532846" lon="6.8689221">
      <time>2021-05-29T14:17:43Z</time>
    </trkpt>
    <trkpt lat="50.9531389" lon="6.8689692">
      <time>2021-05-29T14:17:50Z</time>
    </trkpt>
    <trkpt lat="50.9530715" lon="6.8689702">
      <time>2021-05-29T14:17:54Z</time>
    </trkpt>
    <trkpt lat="50.9530419" lon="6.8689782">
      <time>2021-05-29T14:17:56Z</time>
    </trkpt>
    <trkpt lat="50.9530090" lon="6.8689816">
      <time>2021-05-29T14:17:59Z</time>
    </trkpt>
    <trkpt lat="50.9530052" lon="6.8689808">
      <time>2021-05-29T14:18:01Z</time>
    </trkpt>
    <trkpt lat="50.9530142" lon="6.8689817">
      <time>2021-05-29T14:18:02Z</time>
    </trkpt>
    <trkpt lat="50.9530679" lon="6.8689764">
      <time>2021-05-29T14:18:05Z</time>
    </trkpt>
    <trkpt lat="50.9530893" lon="6.8689741">
      <time>2021-05-29T14:18:06Z</time>
    </trkpt>
    <trkpt lat="50.9531967" lon="6.8689541">
      <time>2021-05-29T14:18:12Z</time>
    </trkpt>
    <trkpt lat="50.9532100" lon="6.8689351">
      <time>2021-05-29T14:18:13Z</time>
    </trkpt>
    <trkpt lat="50.9532182" lon="6.8689080">
      <time>2021-05-29T14:18:14Z</time>
    </trkpt>
    <trkpt lat="50.9532203" lon="6.8688508">
      <time>2021-05-29T14:18:16Z</time>
    </trkpt>
    <trkpt lat="50.9532181" lon="6.8688180">
      <time>2021-05-29T14:18:17Z</time>
    </trkpt>
    <trkpt lat="50.9531660" lon="6.8685552">
      <time>2021-05-29T14:18:25Z</time>
    </trkpt>
    <trkpt lat="50.9531568" lon="6.8684913">
      <time>2021-05-29T14:18:27Z</time>
    </trkpt>
    <trkpt lat="50.9531207" lon="6.8682277">
      <time>2021-05-29T14:18:36Z</time>
    </trkpt>
    <trkpt lat="50.9530761" lon="6.8679798">
      <time>2021-05-29T14:18:44Z</time>
    </trkpt>
    <trkpt lat="50.9530641" lon="6.8678864">
      <time>2021-05-29T14:18:47Z</time>
    </trkpt>
    <trkpt lat="50.9530279" lon="6.8675924">
      <time>2021-05-29T14:18:56Z</time>
    </trkpt>
    <trkpt lat="50.9529987" lon="6.8672949">
      <time>2021-05-29T14:19:05Z</time>
    </trkpt>
    <trkpt lat="50.9529731" lon="6.8670410">
      <time>2021-05-29T14:19:14Z</time>
    </trkpt>
    <trkpt lat="50.9529708" lon="6.8670116">
      <time>2021-05-29T14:19:15Z</time>
    </trkpt>
    <trkpt lat="50.9529506" lon="6.8667671">
      <time>2021-05-29T14:19:23Z</time>
    </trkpt>
    <trkpt lat="50.9529480" lon="6.8667354">
      <time>2021-05-29T14:19:24Z</time>
    </trkpt>
    <trkpt lat="50.9529077" lon="6.8664530">
      <time>2021-05-29T14:19:33Z</time>
    </trkpt>
    <trkpt lat="50.9528797" lon="6.8661948">
      <time>2021-05-29T14:19:42Z</time>
    </trkpt>
    <trkpt lat="50.9528659" lon="6.8660817">
      <time>2021-05-29T14:19:46Z</time>
    </trkpt>
    <trkpt lat="50.9528499" lon="6.8659392">
      <time>2021-05-29T14:19:51Z</time>
    </trkpt>
    <trkpt lat="50.9528017" lon="6.8656564">
      <time>2021-05-29T14:20:01Z</time>
    </trkpt>
    <trkpt lat="50.9527672" lon="6.8655070">
      <time>2021-05-29T14:20:07Z</time>
    </trkpt>
    <trkpt lat="50.9527479" lon="6.8654311">
      <time>2021-05-29T14:20:10Z</time>
    </trkpt>
    <trkpt lat="50.9527286" lon="6.8653413">
      <time>2021-05-29T14:20:14Z</time>
    </trkpt>
    <trkpt lat="50.9527145" lon="6.8651819">
      <time>2021-05-29T14:20:20Z</time>
    </trkpt>
    <trkpt lat="50.9527117" lon="6.8651366">
      <time>2021-05-29T14:20:22Z</time>
    </trkpt>
    <trkpt lat="50.9527075" lon="6.8650467">
      <time>2021-05-29T14:20:26Z</time>
    </trkpt>
    <trkpt lat="50.9527033" lon="6.8649942">
      <time>2021-05-29T14:20:28Z</time>
    </trkpt>
    <trkpt lat="50.9526988" lon="6.8649681">
      <time>2021-05-29T14:20:29Z</time>
    </trkpt>
    <trkpt lat="50.9526809" lon="6.8647695">
      <time>2021-05-29T14:20:35Z</time>
    </trkpt>
    <trkpt lat="50.9527377" lon="6.8646176">
      <time>2021-05-29T14:20:41Z</time>
    </trkpt>
    <trkpt lat="50.9528788" lon="6.8645491">
      <time>2021-05-29T14:20:48Z</time>
    </trkpt>
    <trkpt lat="50.9530095" lon="6.8645127">
      <time>2021-05-29T14:20:55Z</time>
    </trkpt>
    <trkpt lat="50.9531689" lon="6.8645224">
      <time>2021-05-29T14:21:03Z</time>
    </trkpt>
    <trkpt lat="50.9532650" lon="6.8645209">
      <time>2021-05-29T14:21:08Z</time>
    </trkpt>
    <trkpt lat="50.9532988" lon="6.8645070">
      <time>2021-05-29T14:21:10Z</time>
    </trkpt>
    <trkpt lat="50.9534546" lon="6.8644997">
      <time>2021-05-29T14:21:17Z</time>
    </trkpt>
    <trkpt lat="50.9536098" lon="6.8644925">
      <time>2021-05-29T14:21:25Z</time>
    </trkpt>
    <trkpt lat="50.9536498" lon="6.8644848">
      <time>2021-05-29T14:21:27Z</time>
    </trkpt>
    <trkpt lat="50.9537146" lon="6.8644719">
      <time>2021-05-29T14:21:31Z</time>
    </trkpt>
    <trkpt lat="50.9538589" lon="6.8644297">
      <time>2021-05-29T14:21:39Z</time>
    </trkpt>
    <trkpt lat="50.9539856" lon="6.8643902">
      <time>2021-05-29T14:21:46Z</time>
    </trkpt>
    <trkpt lat="50.9540188" lon="6.8643631">
      <time>2021-05-29T14:21:48Z</time>
    </trkpt>
    <trkpt lat="50.9541346" lon="6.8643109">
      <time>2021-05-29T14:21:54Z</time>
    </trkpt>
    <trkpt lat="50.9542702" lon="6.8642920">
      <time>2021-05-29T14:22:00Z</time>
    </trkpt>
    <trkpt lat="50.9543567" lon="6.8642690">
      <time>2021-05-29T14:22:04Z</time>
    </trkpt>
    <trkpt lat="50.9544193" lon="6.8642429">
      <time>2021-05-29T14:22:07Z</time>
    </trkpt>
    <trkpt lat="50.9544616" lon="6.8642297">
      <time>2021-05-29T14:22:09Z</time>
    </trkpt>
    <trkpt lat="50.9546324" lon="6.8641770">
      <time>2021-05-29T14:22:17Z</time>
    </trkpt>
    <trkpt lat="50.9546701" lon="6.8641625">
      <time>2021-05-29T14:22:19Z</time>
    </trkpt>
    <trkpt lat="50.9546911" lon="6.8641545">
      <time>2021-05-29T14:22:20Z</time>
    </trkpt>
    <trkpt lat="50.9548545" lon="6.8640993">
      <time>2021-05-29T14:22:29Z</time>
    </trkpt>
    <trkpt lat="50.9548738" lon="6.8640949">
      <time>2021-05-29T14:22:30Z</time>
    </trkpt>
    <trkpt lat="50.9550342" lon="6.8640501">
      <time>2021-05-29T14:22:39Z</time>
    </trkpt>
    <trkpt lat="50.9551749" lon="6.8640028">
      <time>2021-05-29T14:22:47Z</time>
    </trkpt>
    <trkpt lat="50.9553580" lon="6.8639486">
      <time>2021-05-29T14:22:57Z</time>
    </trkpt>
    <trkpt lat="50.9553762" lon="6.8639414">
      <time>2021-05-29T14:22:58Z</time>
    </trkpt>
    <trkpt lat="50.9554794" lon="6.8639133">
      <time>2021-05-29T14:23:04Z</time>
    </trkpt>
    <trkpt lat="50.9555313" lon="6.8638963">
      <time>2021-05-29T14:23:07Z</time>
    </trkpt>
    <trkpt lat="50.9556218" lon="6.8638637">
      <time>2021-05-29T14:23:12Z</time>
    </trkpt>
    <trkpt lat="50.9556974" lon="6.8638403">
      <time>2021-05-29T14:23:16Z</time>
    </trkpt>
    <trkpt lat="50.9557706" lon="6.8638214">
      <time>2021-05-29T14:23:20Z</time>
    </trkpt>
    <trkpt lat="50.9558945" lon="6.8637906">
      <time>2021-05-29T14:23:27Z</time>
    </trkpt>
    <trkpt lat="50.9559506" lon="6.8637727">
      <time>2021-05-29T14:23:30Z</time>
    </trkpt>
    <trkpt lat="50.9559668" lon="6.8637657">
      <time>2021-05-29T14:23:31Z</time>
    </trkpt>
    <trkpt lat="50.9561479" lon="6.8637207">
      <time>2021-05-29T14:23:41Z</time>
    </trkpt>
    <trkpt lat="50.9561656" lon="6.8637156">
      <time>2021-05-29T14:23:42Z</time>
    </trkpt>
    <trkpt lat="50.9562211" lon="6.8637002">
      <time>2021-05-29T14:23:45Z</time>
    </trkpt>
    <trkpt lat="50.9563112" lon="6.8636711">
      <time>2021-05-29T14:23:49Z</time>
    </trkpt>
    <trkpt lat="50.9564291" lon="6.8636350">
      <time>2021-05-29T14:23:54Z</time>
    </trkpt>
    <trkpt lat="50.9566196" lon="6.8635801">
      <time>2021-05-29T14:24:03Z</time>
    </trkpt>
    <trkpt lat="50.9566598" lon="6.8635673">
      <time>2021-05-29T14:24:05Z</time>
    </trkpt>
    <trkpt lat="50.9568247" lon="6.8635105">
      <time>2021-05-29T14:24:13Z</time>
    </trkpt>
    <trkpt lat="50.9568860" lon="6.8634977">
      <time>2021-05-29T14:24:16Z</time>
    </trkpt>
    <trkpt lat="50.9570163" lon="6.8634549">
      <time>2021-05-29T14:24:23Z</time>
    </trkpt>
    <trkpt lat="50.9570720" lon="6.8634363">
      <time>2021-05-29T14:24:26Z</time>
    </trkpt>
    <trkpt lat="50.9572603" lon="6.8633716">
      <time>2021-05-29T14:24:35Z</time>
    </trkpt>
    <trkpt lat="50.9572826" lon="6.8633616">
      <time>2021-05-29T14:24:36Z</time>
    </trkpt>
    <trkpt lat="50.9573441" lon="6.8633345">
      <time>2021-05-29T14:24:39Z</time>
    </trkpt>
    <trkpt lat="50.9574834" lon="6.8632913">
      <time>2021-05-29T14:24:46Z</time>
    </trkpt>
    <trkpt lat="50.9576652" lon="6.8632290">
      <time>2021-05-29T14:24:55Z</time>
    </trkpt>
    <trkpt lat="50.9578440" lon="6.8631871">
      <time>2021-05-29T14:25:04Z</time>
    </trkpt>
    <trkpt lat="50.9578621" lon="6.8631835">
      <time>2021-05-29T14:25:05Z</time>
    </trkpt>
    <trkpt lat="50.9579371" lon="6.8631488">
      <time>2021-05-29T14:25:09Z</time>
    </trkpt>
    <trkpt lat="50.9580119" lon="6.8631326">
      <time>2021-05-29T14:25:13Z</time>
    </trkpt>
    <trkpt lat="50.9581171" lon="6.8630691">
      <time>2021-05-29T14:25:19Z</time>
    </trkpt>
    <trkpt lat="50.9582262" lon="6.8630131">
      <time>2021-05-29T14:25:26Z</time>
    </trkpt>
    <trkpt lat="50.9583413" lon="6.8629518">
      <time>2021-05-29T14:25:33Z</time>
    </trkpt>
    <trkpt lat="50.9584204" lon="6.8628985">
      <time>2021-05-29T14:25:38Z</time>
    </trkpt>
    <trkpt lat="50.9584457" lon="6.8628903">
      <time>2021-05-29T14:25:40Z</time>
    </trkpt>
    <trkpt lat="50.9585410" lon="6.8627976">
      <time>2021-05-29T14:25:45Z</time>
    </trkpt>
    <trkpt lat="50.9586052" lon="6.8627272">
      <time>2021-05-29T14:25:50Z</time>
    </trkpt>
    <trkpt lat="50.9587137" lon="6.8626293">
      <time>2021-05-29T14:25:58Z</time>
    </trkpt>
    <trkpt lat="50.9587277" lon="6.8626148">
      <time>2021-05-29T14:25:59Z</time>
    </trkpt>
    <trkpt lat="50.9588095" lon="6.8625616">
      <time>2021-05-29T14:26:05Z</time>
    </trkpt>
    <trkpt lat="50.9588933" lon="6.8625215">
      <time>2021-05-29T14:26:10Z</time>
    </trkpt>
    <trkpt lat="50.9589423" lon="6.8624981">
      <time>2021-05-29T14:26:13Z</time>
    </trkpt>
    <trkpt lat="50.9589820" lon="6.8624455">
      <time>2021-05-29T14:26:16Z</time>
    </trkpt>
    <trkpt lat="50.9589931" lon="6.8624298">
      <time>2021-05-29T14:26:17Z</time>
    </trkpt>
    <trkpt lat="50.9590530" lon="6.8623939">
      <time>2021-05-29T14:26:20Z</time>
    </trkpt>
    <trkpt lat="50.9590681" lon="6.8623857">
      <time>2021-05-29T14:26:21Z</time>
    </trkpt>
    <trkpt lat="50.9591291" lon="6.8623405">
      <time>2021-05-29T14:26:25Z</time>
    </trkpt>
    <trkpt lat="50.9591628" lon="6.8623246">
      <time>2021-05-29T14:26:27Z</time>
    </trkpt>
    <trkpt lat="50.9593249" lon="6.8622525">
      <time>2021-05-29T14:26:35Z</time>
    </trkpt>
    <trkpt lat="50.9594221" lon="6.8622393">
      <time>2021-05-29T14:26:39Z</time>
    </trkpt>
    <trkpt lat="50.9595269" lon="6.8622032">
      <time>2021-05-29T14:26:45Z</time>
    </trkpt>
    <trkpt lat="50.9596325" lon="6.8621597">
      <time>2021-05-29T14:26:52Z</time>
    </trkpt>
    <trkpt lat="50.9595751" lon="6.8621117">
      <time>2021-05-29T14:26:56Z</time>
    </trkpt>
    <trkpt lat="50.9595649" lon="6.8620846">
      <time>2021-05-29T14:26:57Z</time>
    </trkpt>
    <trkpt lat="50.9595508" lon="6.8619055">
      <time>2021-05-29T14:27:03Z</time>
    </trkpt>
    <trkpt lat="50.9595705" lon="6.8617134">
      <time>2021-05-29T14:27:09Z</time>
    </trkpt>
    <trkpt lat="50.9595723" lon="6.8615239">
      <time>2021-05-29T14:27:15Z</time>
    </trkpt>
    <trkpt lat="50.9595721" lon="6.8612756">
      <time>2021-05-29T14:27:23Z</time>
    </trkpt>
    <trkpt lat="50.9595751" lon="6.8611166">
      <time>2021-05-29T14:27:29Z</time>
    </trkpt>
    <trkpt lat="50.9595767" lon="6.8609985">
      <time>2021-05-29T14:27:33Z</time>
    </trkpt>
    <trkpt lat="50.9595810" lon="6.8609709">
      <time>2021-05-29T14:27:34Z</time>
    </trkpt>
    <trkpt lat="50.9595867" lon="6.8608912">
      <time>2021-05-29T14:27:37Z</time>
    </trkpt>
    <trkpt lat="50.9596100" lon="6.8606602">
      <time>2021-05-29T14:27:45Z</time>
    </trkpt>
    <trkpt lat="50.9596129" lon="6.8606317">
      <time>2021-05-29T14:27:46Z</time>
    </trkpt>
    <trkpt lat="50.9596291" lon="6.8604744">
      <time>2021-05-29T14:27:52Z</time>
    </trkpt>
    <trkpt lat="50.9596555" lon="6.8602377">
      <time>2021-05-29T14:28:01Z</time>
    </trkpt>
    <trkpt lat="50.9596557" lon="6.8600847">
      <time>2021-05-29T14:28:06Z</time>
    </trkpt>
    <trkpt lat="50.9596719" lon="6.8599394">
      <time>2021-05-29T14:28:11Z</time>
    </trkpt>
    <trkpt lat="50.9596837" lon="6.8596841">
      <time>2021-05-29T14:28:20Z</time>
    </trkpt>
    <trkpt lat="50.9597034" lon="6.8594705">
      <time>2021-05-29T14:28:28Z</time>
    </trkpt>
    <trkpt lat="50.9597246" lon="6.8592010">
      <time>2021-05-29T14:28:38Z</time>
    </trkpt>
    <trkpt lat="50.9597340" lon="6.8589143">
      <time>2021-05-29T14:28:48Z</time>
    </trkpt>
    <trkpt lat="50.9597274" lon="6.8588857">
      <time>2021-05-29T14:28:49Z</time>
    </trkpt>
    <trkpt lat="50.9597353" lon="6.8586509">
      <time>2021-05-29T14:28:56Z</time>
    </trkpt>
    <trkpt lat="50.9597519" lon="6.8584671">
      <time>2021-05-29T14:29:03Z</time>
    </trkpt>
    <trkpt lat="50.9597693" lon="6.8582835">
      <time>2021-05-29T14:29:10Z</time>
    </trkpt>
    <trkpt lat="50.9597866" lon="6.8580518">
      <time>2021-05-29T14:29:18Z</time>
    </trkpt>
    <trkpt lat="50.9597927" lon="6.8579539">
      <time>2021-05-29T14:29:21Z</time>
    </trkpt>
    <trkpt lat="50.9598158" lon="6.8576690">
      <time>2021-05-29T14:29:31Z</time>
    </trkpt>
    <trkpt lat="50.9598495" lon="6.8574010">
      <time>2021-05-29T14:29:41Z</time>
    </trkpt>
    <trkpt lat="50.9598704" lon="6.8572006">
      <time>2021-05-29T14:29:48Z</time>
    </trkpt>
    <trkpt lat="50.9598756" lon="6.8571404">
      <time>2021-05-29T14:29:50Z</time>
    </trkpt>
    <trkpt lat="50.9598913" lon="6.8569896">
      <time>2021-05-29T14:29:55Z</time>
    </trkpt>
    <trkpt lat="50.9599000" lon="6.8568489">
      <time>2021-05-29T14:29:59Z</time>
    </trkpt>
    <trkpt lat="50.9599181" lon="6.8565516">
      <time>2021-05-29T14:30:09Z</time>
    </trkpt>
    <trkpt lat="50.9599191" lon="6.8564490">
      <time>2021-05-29T14:30:12Z</time>
    </trkpt>
    <trkpt lat="50.9599297" lon="6.8562171">
      <time>2021-05-29T14:30:20Z</time>
    </trkpt>
    <trkpt lat="50.9599365" lon="6.8560971">
      <time>2021-05-29T14:30:24Z</time>
    </trkpt>
    <trkpt lat="50.9599511" lon="6.8559185">
      <time>2021-05-29T14:30:30Z</time>
    </trkpt>
    <trkpt lat="50.9599677" lon="6.8556284">
      <time>2021-05-29T14:30:40Z</time>
    </trkpt>
    <trkpt lat="50.9599678" lon="6.8555950">
      <time>2021-05-29T14:30:41Z</time>
    </trkpt>
    <trkpt lat="50.9599865" lon="6.8552970">
      <time>2021-05-29T14:30:50Z</time>
    </trkpt>
    <trkpt lat="50.9599895" lon="6.8552606">
      <time>2021-05-29T14:30:51Z</time>
    </trkpt>
    <trkpt lat="50.9600061" lon="6.8549723">
      <time>2021-05-29T14:30:59Z</time>
    </trkpt>
    <trkpt lat="50.9600080" lon="6.8548987">
      <time>2021-05-29T14:31:01Z</time>
    </trkpt>
    <trkpt lat="50.9600240" lon="6.8547028">
      <time>2021-05-29T14:31:07Z</time>
    </trkpt>
    <trkpt lat="50.9600347" lon="6.8545669">
      <time>2021-05-29T14:31:12Z</time>
    </trkpt>
    <trkpt lat="50.9600658" lon="6.8542827">
      <time>2021-05-29T14:31:22Z</time>
    </trkpt>
    <trkpt lat="50.9600669" lon="6.8542304">
      <time>2021-05-29T14:31:24Z</time>
    </trkpt>
    <trkpt lat="50.9600797" lon="6.8540565">
      <time>2021-05-29T14:31:30Z</time>
    </trkpt>
    <trkpt lat="50.9600802" lon="6.8539921">
      <time>2021-05-29T14:31:32Z</time>
    </trkpt>
    <trkpt lat="50.9601039" lon="6.8537262">
      <time>2021-05-29T14:31:41Z</time>
    </trkpt>
    <trkpt lat="50.9601066" lon="6.8536979">
      <time>2021-05-29T14:31:42Z</time>
    </trkpt>
    <trkpt lat="50.9601001" lon="6.8534004">
      <time>2021-05-29T14:31:51Z</time>
    </trkpt>
    <trkpt lat="50.9601455" lon="6.8531669">
      <time>2021-05-29T14:31:59Z</time>
    </trkpt>
    <trkpt lat="50.9601647" lon="6.8528875">
      <time>2021-05-29T14:32:08Z</time>
    </trkpt>
    <trkpt lat="50.9601840" lon="6.8525917">
      <time>2021-05-29T14:32:17Z</time>
    </trkpt>
    <trkpt lat="50.9601839" lon="6.8525527">
      <time>2021-05-29T14:32:18Z</time>
    </trkpt>
    <trkpt lat="50.9601961" lon="6.8522636">
      <time>2021-05-29T14:32:27Z</time>
    </trkpt>
    <trkpt lat="50.9601948" lon="6.8522300">
      <time>2021-05-29T14:32:28Z</time>
    </trkpt>
    <trkpt lat="50.9602096" lon="6.8519320">
      <time>2021-05-29T14:32:38Z</time>
    </trkpt>
    <trkpt lat="50.9602134" lon="6.8518757">
      <time>2021-05-29T14:32:40Z</time>
    </trkpt>
    <trkpt lat="50.9602757" lon="6.8516059">
      <time>2021-05-29T14:32:50Z</time>
    </trkpt>
    <trkpt lat="50.9603951" lon="6.8515756">
      <time>2021-05-29T14:32:56Z</time>
    </trkpt>
    <trkpt lat="50.9605667" lon="6.8515667">
      <time>2021-05-29T14:33:05Z</time>
    </trkpt>
    <trkpt lat="50.9606330" lon="6.8515664">
      <time>2021-05-29T14:33:09Z</time>
    </trkpt>
    <trkpt lat="50.9607234" lon="6.8515761">
      <time>2021-05-29T14:33:14Z</time>
    </trkpt>
    <trkpt lat="50.9608679" lon="6.8515958">
      <time>2021-05-29T14:33:22Z</time>
    </trkpt>
    <trkpt lat="50.9610121" lon="6.8516070">
      <time>2021-05-29T14:33:30Z</time>
    </trkpt>
    <trkpt lat="50.9611330" lon="6.8516105">
      <time>2021-05-29T14:33:37Z</time>
    </trkpt>
    <trkpt lat="50.9611711" lon="6.8516062">
      <time>2021-05-29T14:33:39Z</time>
    </trkpt>
    <trkpt lat="50.9613245" lon="6.8516083">
      <time>2021-05-29T14:33:47Z</time>
    </trkpt>
    <trkpt lat="50.9615058" lon="6.8516296">
      <time>2021-05-29T14:33:57Z</time>
    </trkpt>
    <trkpt lat="50.9615254" lon="6.8516280">
      <time>2021-05-29T14:33:59Z</time>
    </trkpt>
    <trkpt lat="50.9615653" lon="6.8516254">
      <time>2021-05-29T14:34:01Z</time>
    </trkpt>
    <trkpt lat="50.9616030" lon="6.8516291">
      <time>2021-05-29T14:34:03Z</time>
    </trkpt>
    <trkpt lat="50.9616234" lon="6.8516296">
      <time>2021-05-29T14:34:04Z</time>
    </trkpt>
    <trkpt lat="50.9617043" lon="6.8516444">
      <time>2021-05-29T14:34:08Z</time>
    </trkpt>
    <trkpt lat="50.9617690" lon="6.8516437">
      <time>2021-05-29T14:34:11Z</time>
    </trkpt>
    <trkpt lat="50.9618104" lon="6.8516432">
      <time>2021-05-29T14:34:13Z</time>
    </trkpt>
    <trkpt lat="50.9619393" lon="6.8516587">
      <time>2021-05-29T14:34:20Z</time>
    </trkpt>
    <trkpt lat="50.9620829" lon="6.8516647">
      <time>2021-05-29T14:34:28Z</time>
    </trkpt>
    <trkpt lat="50.9621219" lon="6.8516639">
      <time>2021-05-29T14:34:30Z</time>
    </trkpt>
    <trkpt lat="50.9622263" lon="6.8516728">
      <time>2021-05-29T14:34:36Z</time>
    </trkpt>
    <trkpt lat="50.9624194" lon="6.8516617">
      <time>2021-05-29T14:34:46Z</time>
    </trkpt>
    <trkpt lat="50.9624527" lon="6.8516663">
      <time>2021-05-29T14:34:48Z</time>
    </trkpt>
    <trkpt lat="50.9626389" lon="6.8516811">
      <time>2021-05-29T14:34:58Z</time>
    </trkpt>
    <trkpt lat="50.9628185" lon="6.8516755">
      <time>2021-05-29T14:35:07Z</time>
    </trkpt>
    <trkpt lat="50.9629830" lon="6.8516620">
      <time>2021-05-29T14:35:16Z</time>
    </trkpt>
    <trkpt lat="50.9631610" lon="6.8516676">
      <time>2021-05-29T14:35:26Z</time>
    </trkpt>
    <trkpt lat="50.9633379" lon="6.8516794">
      <time>2021-05-29T14:35:36Z</time>
    </trkpt>
    <trkpt lat="50.9634662" lon="6.8516917">
      <time>2021-05-29T14:35:44Z</time>
    </trkpt>
    <trkpt lat="50.9635983" lon="6.8516976">
      <time>2021-05-29T14:35:52Z</time>
    </trkpt>
    <trkpt lat="50.9637493" lon="6.8517035">
      <time>2021-05-29T14:36:01Z</time>
    </trkpt>
    <trkpt lat="50.9638038" lon="6.8516999">
      <time>2021-05-29T14:36:04Z</time>
    </trkpt>
    <trkpt lat="50.9638933" lon="6.8516925">
      <time>2021-05-29T14:36:09Z</time>
    </trkpt>
    <trkpt lat="50.9639583" lon="6.8516930">
      <time>2021-05-29T14:36:13Z</time>
    </trkpt>
    <trkpt lat="50.9639938" lon="6.8516943">
      <time>2021-05-29T14:36:15Z</time>
    </trkpt>
    <trkpt lat="50.9641184" lon="6.8517836">
      <time>2021-05-29T14:36:22Z</time>
    </trkpt>
    <trkpt lat="50.9641447" lon="6.8518934">
      <time>2021-05-29T14:36:26Z</time>
    </trkpt>
    <trkpt lat="50.9641502" lon="6.8519214">
      <time>2021-05-29T14:36:27Z</time>
    </trkpt>
    <trkpt lat="50.9641826" lon="6.8520701">
      <time>2021-05-29T14:36:32Z</time>
    </trkpt>
    <trkpt lat="50.9641871" lon="6.8521267">
      <time>2021-05-29T14:36:34Z</time>
    </trkpt>
    <trkpt lat="50.9641927" lon="6.8521830">
      <time>2021-05-29T14:36:36Z</time>
    </trkpt>
    <trkpt lat="50.9642172" lon="6.8521825">
      <time>2021-05-29T14:36:38Z</time>
    </trkpt>
    <trkpt lat="50.9643748" lon="6.8521067">
      <time>2021-05-29T14:36:46Z</time>
    </trkpt>
    <trkpt lat="50.9645205" lon="6.8520861">
      <time>2021-05-29T14:36:54Z</time>
    </trkpt>
    <trkpt lat="50.9645373" lon="6.8520862">
      <time>2021-05-29T14:36:55Z</time>
    </trkpt>
    <trkpt lat="50.9647159" lon="6.8520572">
      <time>2021-05-29T14:37:05Z</time>
    </trkpt>
    <trkpt lat="50.9649118" lon="6.8520183">
      <time>2021-05-29T14:37:15Z</time>
    </trkpt>
    <trkpt lat="50.9650850" lon="6.8520064">
      <time>2021-05-29T14:37:24Z</time>
    </trkpt>
    <trkpt lat="50.9652235" lon="6.8519847">
      <time>2021-05-29T14:37:32Z</time>
    </trkpt>
    <trkpt lat="50.9652783" lon="6.8519707">
      <time>2021-05-29T14:37:35Z</time>
    </trkpt>
    <trkpt lat="50.9653645" lon="6.8519505">
      <time>2021-05-29T14:37:40Z</time>
    </trkpt>
    <trkpt lat="50.9653828" lon="6.8519477">
      <time>2021-05-29T14:37:41Z</time>
    </trkpt>
    <trkpt lat="50.9655398" lon="6.8519233">
      <time>2021-05-29T14:37:50Z</time>
    </trkpt>
    <trkpt lat="50.9655572" lon="6.8519204">
      <time>2021-05-29T14:37:51Z</time>
    </trkpt>
    <trkpt lat="50.9655763" lon="6.8519152">
      <time>2021-05-29T14:37:52Z</time>
    </trkpt>
    <trkpt lat="50.9657157" lon="6.8518940">
      <time>2021-05-29T14:38:00Z</time>
    </trkpt>
    <trkpt lat="50.9657769" lon="6.8518763">
      <time>2021-05-29T14:38:04Z</time>
    </trkpt>
    <trkpt lat="50.9658600" lon="6.8518440">
      <time>2021-05-29T14:38:09Z</time>
    </trkpt>
    <trkpt lat="50.9659758" lon="6.8518180">
      <time>2021-05-29T14:38:16Z</time>
    </trkpt>
    <trkpt lat="50.9659933" lon="6.8518171">
      <time>2021-05-29T14:38:17Z</time>
    </trkpt>
    <trkpt lat="50.9660803" lon="6.8518109">
      <time>2021-05-29T14:38:22Z</time>
    </trkpt>
    <trkpt lat="50.9661878" lon="6.8517969">
      <time>2021-05-29T14:38:28Z</time>
    </trkpt>
    <trkpt lat="50.9662715" lon="6.8517821">
      <time>2021-05-29T14:38:33Z</time>
    </trkpt>
    <trkpt lat="50.9663264" lon="6.8517803">
      <time>2021-05-29T14:38:36Z</time>
    </trkpt>
    <trkpt lat="50.9665201" lon="6.8517472">
      <time>2021-05-29T14:38:47Z</time>
    </trkpt>
    <trkpt lat="50.9666649" lon="6.8517316">
      <time>2021-05-29T14:38:56Z</time>
    </trkpt>
    <trkpt lat="50.9667474" lon="6.8517052">
      <time>2021-05-29T14:39:01Z</time>
    </trkpt>
    <trkpt lat="50.9668476" lon="6.8516922">
      <time>2021-05-29T14:39:07Z</time>
    </trkpt>
    <trkpt lat="50.9669873" lon="6.8516775">
      <time>2021-05-29T14:39:15Z</time>
    </trkpt>
    <trkpt lat="50.9670885" lon="6.8516669">
      <time>2021-05-29T14:39:21Z</time>
    </trkpt>
    <trkpt lat="50.9671345" lon="6.8516670">
      <time>2021-05-29T14:39:24Z</time>
    </trkpt>
    <trkpt lat="50.9672547" lon="6.8516370">
      <time>2021-05-29T14:39:31Z</time>
    </trkpt>
    <trkpt lat="50.9673295" lon="6.8516230">
      <time>2021-05-29T14:39:35Z</time>
    </trkpt>
    <trkpt lat="50.9673493" lon="6.8516187">
      <time>2021-05-29T14:39:36Z</time>
    </trkpt>
    <trkpt lat="50.9674960" lon="6.8515887">
      <time>2021-05-29T14:39:44Z</time>
    </trkpt>
    <trkpt lat="50.9676808" lon="6.8515547">
      <time>2021-05-29T14:39:54Z</time>
    </trkpt>
    <trkpt lat="50.9678099" lon="6.8515345">
      <time>2021-05-29T14:40:01Z</time>
    </trkpt>
    <trkpt lat="50.9678460" lon="6.8515276">
      <time>2021-05-29T14:40:03Z</time>
    </trkpt>
    <trkpt lat="50.9679731" lon="6.8515058">
      <time>2021-05-29T14:40:10Z</time>
    </trkpt>
    <trkpt lat="50.9679893" lon="6.8515006">
      <time>2021-05-29T14:40:11Z</time>
    </trkpt>
    <trkpt lat="50.9681443" lon="6.8514807">
      <time>2021-05-29T14:40:20Z</time>
    </trkpt>
    <trkpt lat="50.9683112" lon="6.8514501">
      <time>2021-05-29T14:40:29Z</time>
    </trkpt>
    <trkpt lat="50.9685014" lon="6.8514107">
      <time>2021-05-29T14:40:40Z</time>
    </trkpt>
    <trkpt lat="50.9685337" lon="6.8514035">
      <time>2021-05-29T14:40:42Z</time>
    </trkpt>
    <trkpt lat="50.9687114" lon="6.8513860">
      <time>2021-05-29T14:40:52Z</time>
    </trkpt>
    <trkpt lat="50.9688392" lon="6.8513646">
      <time>2021-05-29T14:40:59Z</time>
    </trkpt>
    <trkpt lat="50.9690065" lon="6.8513350">
      <time>2021-05-29T14:41:08Z</time>
    </trkpt>
    <trkpt lat="50.9691982" lon="6.8513088">
      <time>2021-05-29T14:41:18Z</time>
    </trkpt>
    <trkpt lat="50.9692378" lon="6.8513075">
      <time>2021-05-29T14:41:20Z</time>
    </trkpt>
    <trkpt lat="50.9693911" lon="6.8513545">
      <time>2021-05-29T14:41:28Z</time>
    </trkpt>
    <trkpt lat="50.9694927" lon="6.8513620">
      <time>2021-05-29T14:41:34Z</time>
    </trkpt>
    <trkpt lat="50.9695873" lon="6.8513616">
      <time>2021-05-29T14:41:39Z</time>
    </trkpt>
    <trkpt lat="50.9696184" lon="6.8513987">
      <time>2021-05-29T14:41:41Z</time>
    </trkpt>
    <trkpt lat="50.9696374" lon="6.8515767">
      <time>2021-05-29T14:41:47Z</time>
    </trkpt>
    <trkpt lat="50.9696491" lon="6.8517732">
      <time>2021-05-29T14:41:54Z</time>
    </trkpt>
    <trkpt lat="50.9696655" lon="6.8520217">
      <time>2021-05-29T14:42:02Z</time>
    </trkpt>
    <trkpt lat="50.9696874" lon="6.8521339">
      <time>2021-05-29T14:42:06Z</time>
    </trkpt>
    <trkpt lat="50.9696951" lon="6.8522148">
      <time>2021-05-29T14:42:09Z</time>
    </trkpt>
    <trkpt lat="50.9697077" lon="6.8522721">
      <time>2021-05-29T14:42:11Z</time>
    </trkpt>
    <trkpt lat="50.9697284" lon="6.8523721">
      <time>2021-05-29T14:42:15Z</time>
    </trkpt>
    <trkpt lat="50.9697477" lon="6.8524883">
      <time>2021-05-29T14:42:20Z</time>
    </trkpt>
    <trkpt lat="50.9697549" lon="6.8525127">
      <time>2021-05-29T14:42:21Z</time>
    </trkpt>
    <trkpt lat="50.9697673" lon="6.8527041">
      <time>2021-05-29T14:42:28Z</time>
    </trkpt>
    <trkpt lat="50.9697671" lon="6.8527322">
      <time>2021-05-29T14:42:29Z</time>
    </trkpt>
    <trkpt lat="50.9697757" lon="6.8527897">
      <time>2021-05-29T14:42:31Z</time>
    </trkpt>
    <trkpt lat="50.9697884" lon="6.8528723">
      <time>2021-05-29T14:42:34Z</time>
    </trkpt>
    <trkpt lat="50.9698048" lon="6.8531004">
      <time>2021-05-29T14:42:43Z</time>
    </trkpt>
    <trkpt lat="50.9698297" lon="6.8533035">
      <time>2021-05-29T14:42:51Z</time>
    </trkpt>
    <trkpt lat="50.9698504" lon="6.8535734">
      <time>2021-05-29T14:43:00Z</time>
    </trkpt>
    <trkpt lat="50.9698685" lon="6.8537069">
      <time>2021-05-29T14:43:05Z</time>
    </trkpt>
    <trkpt lat="50.9699035" lon="6.8539689">
      <time>2021-05-29T14:43:14Z</time>
    </trkpt>
    <trkpt lat="50.9699426" lon="6.8542219">
      <time>2021-05-29T14:43:23Z</time>
    </trkpt>
    <trkpt lat="50.9699490" lon="6.8544654">
      <time>2021-05-29T14:43:31Z</time>
    </trkpt>
    <trkpt lat="50.9699620" lon="6.8545942">
      <time>2021-05-29T14:43:36Z</time>
    </trkpt>
    <trkpt lat="50.9699619" lon="6.8546213">
      <time>2021-05-29T14:43:37Z</time>
    </trkpt>
    <trkpt lat="50.9699838" lon="6.8548827">
      <time>2021-05-29T14:43:46Z</time>
    </trkpt>
    <trkpt lat="50.9699930" lon="6.8549717">
      <time>2021-05-29T14:43:49Z</time>
    </trkpt>
    <trkpt lat="50.9700110" lon="6.8551124">
      <time>2021-05-29T14:43:54Z</time>
    </trkpt>
    <trkpt lat="50.9700137" lon="6.8552222">
      <time>2021-05-29T14:43:58Z</time>
    </trkpt>
    <trkpt lat="50.9700317" lon="6.8553800">
      <time>2021-05-29T14:44:04Z</time>
    </trkpt>
    <trkpt lat="50.9700401" lon="6.8556273">
      <time>2021-05-29T14:44:13Z</time>
    </trkpt>
    <trkpt lat="50.9700546" lon="6.8557958">
      <time>2021-05-29T14:44:19Z</time>
    </trkpt>
    <trkpt lat="50.9700684" lon="6.8560422">
      <time>2021-05-29T14:44:27Z</time>
    </trkpt>
    <trkpt lat="50.9700843" lon="6.8562807">
      <time>2021-05-29T14:44:35Z</time>
    </trkpt>
    <trkpt lat="50.9700880" lon="6.8563421">
      <time>2021-05-29T14:44:37Z</time>
    </trkpt>
    <trkpt lat="50.9700858" lon="6.8564846">
      <time>2021-05-29T14:44:42Z</time>
    </trkpt>
    <trkpt lat="50.9700933" lon="6.8565454">
      <time>2021-05-29T14:44:44Z</time>
    </trkpt>
    <trkpt lat="50.9701013" lon="6.8567339">
      <time>2021-05-29T14:44:49Z</time>
    </trkpt>
    <trkpt lat="50.9700966" lon="6.8569097">
      <time>2021-05-29T14:44:54Z</time>
    </trkpt>
    <trkpt lat="50.9700966" lon="6.8569408">
      <time>2021-05-29T14:44:55Z</time>
    </trkpt>
    <trkpt lat="50.9700867" lon="6.8572506">
      <time>2021-05-29T14:45:04Z</time>
    </trkpt>
    <trkpt lat="50.9700714" lon="6.8574937">
      <time>2021-05-29T14:45:12Z</time>
    </trkpt>
    <trkpt lat="50.9700369" lon="6.8577499">
      <time>2021-05-29T14:45:20Z</time>
    </trkpt>
    <trkpt lat="50.9700172" lon="6.8578945">
      <time>2021-05-29T14:45:25Z</time>
    </trkpt>
    <trkpt lat="50.9700075" lon="6.8579533">
      <time>2021-05-29T14:45:27Z</time>
    </trkpt>
    <trkpt lat="50.9699902" lon="6.8581293">
      <time>2021-05-29T14:45:33Z</time>
    </trkpt>
    <trkpt lat="50.9699759" lon="6.8583552">
      <time>2021-05-29T14:45:41Z</time>
    </trkpt>
    <trkpt lat="50.9699669" lon="6.8584052">
      <time>2021-05-29T14:45:43Z</time>
    </trkpt>
    <trkpt lat="50.9699590" lon="6.8584880">
      <time>2021-05-29T14:45:46Z</time>
    </trkpt>
    <trkpt lat="50.9699555" lon="6.8585157">
      <time>2021-05-29T14:45:47Z</time>
    </trkpt>
    <trkpt lat="50.9699159" lon="6.8586815">
      <time>2021-05-29T14:45:53Z</time>
    </trkpt>
    <trkpt lat="50.9699141" lon="6.8587972">
      <time>2021-05-29T14:45:58Z</time>
    </trkpt>
    <trkpt lat="50.9698964" lon="6.8589013">
      <time>2021-05-29T14:46:02Z</time>
    </trkpt>
    <trkpt lat="50.9698879" lon="6.8589583">
      <time>2021-05-29T14:46:04Z</time>
    </trkpt>
    <trkpt lat="50.9698411" lon="6.8591290">
      <time>2021-05-29T14:46:10Z</time>
    </trkpt>
    <trkpt lat="50.9698251" lon="6.8591792">
      <time>2021-05-29T14:46:12Z</time>
    </trkpt>
    <trkpt lat="50.9698163" lon="6.8592654">
      <time>2021-05-29T14:46:16Z</time>
    </trkpt>
    <trkpt lat="50.9698248" lon="6.8592799">
      <time>2021-05-29T14:46:17Z</time>
    </trkpt>
    <trkpt lat="50.9698093" lon="6.8593543">
      <time>2021-05-29T14:46:20Z</time>
    </trkpt>
    <trkpt lat="50.9698010" lon="6.8593822">
      <time>2021-05-29T14:46:21Z</time>
    </trkpt>
    <trkpt lat="50.9697910" lon="6.8594479">
      <time>2021-05-29T14:46:23Z</time>
    </trkpt>
    <trkpt lat="50.9697846" lon="6.8594759">
      <time>2021-05-29T14:46:24Z</time>
    </trkpt>
    <trkpt lat="50.9697687" lon="6.8595049">
      <time>2021-05-29T14:46:25Z</time>
    </trkpt>
    <trkpt lat="50.9697554" lon="6.8595296">
      <time>2021-05-29T14:46:26Z</time>
    </trkpt>
    <trkpt lat="50.9697433" lon="6.8596460">
      <time>2021-05-29T14:46:30Z</time>
    </trkpt>
    <trkpt lat="50.9697328" lon="6.8596946">
      <time>2021-05-29T14:46:32Z</time>
    </trkpt>
    <trkpt lat="50.9697077" lon="6.8598234">
      <time>2021-05-29T14:46:37Z</time>
    </trkpt>
    <trkpt lat="50.9697007" lon="6.8598807">
      <time>2021-05-29T14:46:39Z</time>
    </trkpt>
    <trkpt lat="50.9697004" lon="6.8600708">
      <time>2021-05-29T14:46:46Z</time>
    </trkpt>
    <trkpt lat="50.9697028" lon="6.8602927">
      <time>2021-05-29T14:46:53Z</time>
    </trkpt>
    <trkpt lat="50.9696862" lon="6.8605561">
      <time>2021-05-29T14:47:02Z</time>
    </trkpt>
    <trkpt lat="50.9696701" lon="6.8606085">
      <time>2021-05-29T14:47:04Z</time>
    </trkpt>
    <trkpt lat="50.9696453" lon="6.8606965">
      <time>2021-05-29T14:47:07Z</time>
    </trkpt>
    <trkpt lat="50.9696390" lon="6.8609198">
      <time>2021-05-29T14:47:15Z</time>
    </trkpt>
    <trkpt lat="50.9696502" lon="6.8611104">
      <time>2021-05-29T14:47:22Z</time>
    </trkpt>
    <trkpt lat="50.9696816" lon="6.8613551">
      <time>2021-05-29T14:47:30Z</time>
    </trkpt>
    <trkpt lat="50.9697174" lon="6.8616062">
      <time>2021-05-29T14:47:37Z</time>
    </trkpt>
    <trkpt lat="50.9697607" lon="6.8618494">
      <time>2021-05-29T14:47:45Z</time>
    </trkpt>
    <trkpt lat="50.9697733" lon="6.8618995">
      <time>2021-05-29T14:47:47Z</time>
    </trkpt>
    <trkpt lat="50.9698048" lon="6.8619720">
      <time>2021-05-29T14:47:50Z</time>
    </trkpt>
    <trkpt lat="50.9698730" lon="6.8622053">
      <time>2021-05-29T14:47:58Z</time>
    </trkpt>
    <trkpt lat="50.9699226" lon="6.8623014">
      <time>2021-05-29T14:48:02Z</time>
    </trkpt>
    <trkpt lat="50.9699400" lon="6.8623577">
      <time>2021-05-29T14:48:04Z</time>
    </trkpt>
    <trkpt lat="50.9700108" lon="6.8625329">
      <time>2021-05-29T14:48:11Z</time>
    </trkpt>
    <trkpt lat="50.9700613" lon="6.8626199">
      <time>2021-05-29T14:48:15Z</time>
    </trkpt>
    <trkpt lat="50.9701228" lon="6.8627028">
      <time>2021-05-29T14:48:19Z</time>
    </trkpt>
    <trkpt lat="50.9702052" lon="6.8628788">
      <time>2021-05-29T14:48:27Z</time>
    </trkpt>
    <trkpt lat="50.9703264" lon="6.8630434">
      <time>2021-05-29T14:48:34Z</time>
    </trkpt>
    <trkpt lat="50.9704368" lon="6.8632565">
      <time>2021-05-29T14:48:42Z</time>
    </trkpt>
    <trkpt lat="50.9704789" lon="6.8634475">
      <time>2021-05-29T14:48:49Z</time>
    </trkpt>
    <trkpt lat="50.9704817" lon="6.8634711">
      <time>2021-05-29T14:48:50Z</time>
    </trkpt>
    <trkpt lat="50.9705171" lon="6.8635861">
      <time>2021-05-29T14:48:55Z</time>
    </trkpt>
    <trkpt lat="50.9705246" lon="6.8636119">
      <time>2021-05-29T14:48:56Z</time>
    </trkpt>
    <trkpt lat="50.9705529" lon="6.8637015">
      <time>2021-05-29T14:49:01Z</time>
    </trkpt>
    <trkpt lat="50.9705706" lon="6.8637387">
      <time>2021-05-29T14:49:03Z</time>
    </trkpt>
    <trkpt lat="50.9705736" lon="6.8637895">
      <time>2021-05-29T14:49:05Z</time>
    </trkpt>
    <trkpt lat="50.9705818" lon="6.8638113">
      <time>2021-05-29T14:49:06Z</time>
    </trkpt>
    <trkpt lat="50.9706196" lon="6.8638897">
      <time>2021-05-29T14:49:10Z</time>
    </trkpt>
    <trkpt lat="50.9706457" lon="6.8639505">
      <time>2021-05-29T14:49:13Z</time>
    </trkpt>
    <trkpt lat="50.9706893" lon="6.8641180">
      <time>2021-05-29T14:49:20Z</time>
    </trkpt>
    <trkpt lat="50.9707067" lon="6.8642412">
      <time>2021-05-29T14:49:26Z</time>
    </trkpt>
    <trkpt lat="50.9707099" lon="6.8642682">
      <time>2021-05-29T14:49:27Z</time>
    </trkpt>
    <trkpt lat="50.9707248" lon="6.8644530">
      <time>2021-05-29T14:49:34Z</time>
    </trkpt>
    <trkpt lat="50.9707352" lon="6.8645555">
      <time>2021-05-29T14:49:41Z</time>
    </trkpt>
    <trkpt lat="50.9707293" lon="6.8645578">
      <time>2021-05-29T14:49:43Z</time>
    </trkpt>
    <trkpt lat="50.9707210" lon="6.8645521">
      <time>2021-05-29T14:49:44Z</time>
    </trkpt>
    <trkpt lat="50.9707175" lon="6.8645438">
      <time>2021-05-29T14:49:46Z</time>
    </trkpt>
    <trkpt lat="50.9707159" lon="6.8645691">
      <time>2021-05-29T14:49:49Z</time>
    </trkpt>
    <trkpt lat="50.9707107" lon="6.8645868">
      <time>2021-05-29T14:49:56Z</time>
    </trkpt>
    <trkpt lat="50.9706491" lon="6.8643162">
      <time>2021-05-29T14:50:05Z</time>
    </trkpt>
    <trkpt lat="50.9706321" lon="6.8642910">
      <time>2021-05-29T14:50:06Z</time>
    </trkpt>
    <trkpt lat="50.9706086" lon="6.8642329">
      <time>2021-05-29T14:50:08Z</time>
    </trkpt>
    <trkpt lat="50.9705868" lon="6.8641366">
      <time>2021-05-29T14:50:11Z</time>
    </trkpt>
    <trkpt lat="50.9705872" lon="6.8641168">
      <time>2021-05-29T14:50:12Z</time>
    </trkpt>
    <trkpt lat="50.9705865" lon="6.8640641">
      <time>2021-05-29T14:50:14Z</time>
    </trkpt>
    <trkpt lat="50.9705602" lon="6.8639451">
      <time>2021-05-29T14:50:19Z</time>
    </trkpt>
    <trkpt lat="50.9705145" lon="6.8638140">
      <time>2021-05-29T14:50:25Z</time>
    </trkpt>
    <trkpt lat="50.9704506" lon="6.8636167">
      <time>2021-05-29T14:50:33Z</time>
    </trkpt>
    <trkpt lat="50.9704370" lon="6.8635383">
      <time>2021-05-29T14:50:36Z</time>
    </trkpt>
    <trkpt lat="50.9704249" lon="6.8634798">
      <time>2021-05-29T14:50:38Z</time>
    </trkpt>
    <trkpt lat="50.9704150" lon="6.8634813">
      <time>2021-05-29T14:50:39Z</time>
    </trkpt>
    <trkpt lat="50.9704176" lon="6.8635142">
      <time>2021-05-29T14:50:41Z</time>
    </trkpt>
    <trkpt lat="50.9704361" lon="6.8635292">
      <time>2021-05-29T14:50:42Z</time>
    </trkpt>
    <trkpt lat="50.9704771" lon="6.8635781">
      <time>2021-05-29T14:50:45Z</time>
    </trkpt>
    <trkpt lat="50.9704922" lon="6.8636179">
      <time>2021-05-29T14:50:47Z</time>
    </trkpt>
    <trkpt lat="50.9704979" lon="6.8636612">
      <time>2021-05-29T14:50:49Z</time>
    </trkpt>
    <trkpt lat="50.9705008" lon="6.8637867">
      <time>2021-05-29T14:50:54Z</time>
    </trkpt>
    <trkpt lat="50.9705878" lon="6.8639666">
      <time>2021-05-29T14:51:00Z</time>
    </trkpt>
    <trkpt lat="50.9706282" lon="6.8641312">
      <time>2021-05-29T14:51:06Z</time>
    </trkpt>
    <trkpt lat="50.9706410" lon="6.8641866">
      <time>2021-05-29T14:51:08Z</time>
    </trkpt>
    <trkpt lat="50.9706988" lon="6.8644604">
      <time>2021-05-29T14:51:15Z</time>
    </trkpt>
    <trkpt lat="50.9707049" lon="6.8644997">
      <time>2021-05-29T14:51:16Z</time>
    </trkpt>
    <trkpt lat="50.9707250" lon="6.8647473">
      <time>2021-05-29T14:51:23Z</time>
    </trkpt>
    <trkpt lat="50.9706843" lon="6.8650385">
      <time>2021-05-29T14:51:32Z</time>
    </trkpt>
    <trkpt lat="50.9706817" lon="6.8650647">
      <time>2021-05-29T14:51:33Z</time>
    </trkpt>
    <trkpt lat="50.9706757" lon="6.8651863">
      <time>2021-05-29T14:51:37Z</time>
    </trkpt>
    <trkpt lat="50.9706777" lon="6.8653085">
      <time>2021-05-29T14:51:41Z</time>
    </trkpt>
    <trkpt lat="50.9707162" lon="6.8655101">
      <time>2021-05-29T14:51:48Z</time>
    </trkpt>
    <trkpt lat="50.9706958" lon="6.8657485">
      <time>2021-05-29T14:51:56Z</time>
    </trkpt>
    <trkpt lat="50.9706973" lon="6.8658138">
      <time>2021-05-29T14:52:01Z</time>
    </trkpt>
    <trkpt lat="50.9707041" lon="6.8658191">
      <time>2021-05-29T14:52:03Z</time>
    </trkpt>
    <trkpt lat="50.9707023" lon="6.8658025">
      <time>2021-05-29T14:52:08Z</time>
    </trkpt>
    <trkpt lat="50.9707038" lon="6.8657885">
      <time>2021-05-29T14:52:10Z</time>
    </trkpt>
    <trkpt lat="50.9707064" lon="6.8658091">
      <time>2021-05-29T14:52:14Z</time>
    </trkpt>
    <trkpt lat="50.9707053" lon="6.8658032">
      <time>2021-05-29T14:52:15Z</time>
    </trkpt>
    <trkpt lat="50.9707355" lon="6.8660478">
      <time>2021-05-29T14:52:52Z</time>
    </trkpt>
    <trkpt lat="50.9707335" lon="6.8660999">
      <time>2021-05-29T14:52:53Z</time>
    </trkpt>
    <trkpt lat="50.9707301" lon="6.8662015">
      <time>2021-05-29T14:52:55Z</time>
    </trkpt>
    <trkpt lat="50.9707555" lon="6.8664171">
      <time>2021-05-29T14:53:00Z</time>
    </trkpt>
    <trkpt lat="50.9707776" lon="6.8665521">
      <time>2021-05-29T14:53:04Z</time>
    </trkpt>
    <trkpt lat="50.9707862" lon="6.8666544">
      <time>2021-05-29T14:53:07Z</time>
    </trkpt>
    <trkpt lat="50.9708154" lon="6.8668370">
      <time>2021-05-29T14:53:12Z</time>
    </trkpt>
    <trkpt lat="50.9708133" lon="6.8670881">
      <time>2021-05-29T14:53:20Z</time>
    </trkpt>
    <trkpt lat="50.9707910" lon="6.8673270">
      <time>2021-05-29T14:53:28Z</time>
    </trkpt>
    <trkpt lat="50.9707919" lon="6.8675510">
      <time>2021-05-29T14:53:35Z</time>
    </trkpt>
    <trkpt lat="50.9707587" lon="6.8677529">
      <time>2021-05-29T14:53:43Z</time>
    </trkpt>
    <trkpt lat="50.9707310" lon="6.8679233">
      <time>2021-05-29T14:53:49Z</time>
    </trkpt>
    <trkpt lat="50.9706894" lon="6.8681066">
      <time>2021-05-29T14:53:56Z</time>
    </trkpt>
    <trkpt lat="50.9706595" lon="6.8682973">
      <time>2021-05-29T14:54:03Z</time>
    </trkpt>
    <trkpt lat="50.9706236" lon="6.8684541">
      <time>2021-05-29T14:54:09Z</time>
    </trkpt>
    <trkpt lat="50.9706055" lon="6.8685438">
      <time>2021-05-29T14:54:13Z</time>
    </trkpt>
    <trkpt lat="50.9706053" lon="6.8685762">
      <time>2021-05-29T14:54:15Z</time>
    </trkpt>
    <trkpt lat="50.9706008" lon="6.8686328">
      <time>2021-05-29T14:54:18Z</time>
    </trkpt>
    <trkpt lat="50.9705806" lon="6.8687141">
      <time>2021-05-29T14:54:21Z</time>
    </trkpt>
    <trkpt lat="50.9704752" lon="6.8689390">
      <time>2021-05-29T14:54:29Z</time>
    </trkpt>
    <trkpt lat="50.9704687" lon="6.8689556">
      <time>2021-05-29T14:54:30Z</time>
    </trkpt>
    <trkpt lat="50.9704413" lon="6.8690651">
      <time>2021-05-29T14:54:34Z</time>
    </trkpt>
    <trkpt lat="50.9704051" lon="6.8692190">
      <time>2021-05-29T14:54:39Z</time>
    </trkpt>
    <trkpt lat="50.9703331" lon="6.8694277">
      <time>2021-05-29T14:54:47Z</time>
    </trkpt>
    <trkpt lat="50.9702950" lon="6.8695251">
      <time>2021-05-29T14:54:51Z</time>
    </trkpt>
    <trkpt lat="50.9702867" lon="6.8695681">
      <time>2021-05-29T14:54:53Z</time>
    </trkpt>
    <trkpt lat="50.9702602" lon="6.8697429">
      <time>2021-05-29T14:55:00Z</time>
    </trkpt>
    <trkpt lat="50.9702190" lon="6.8699417">
      <time>2021-05-29T14:55:06Z</time>
    </trkpt>
    <trkpt lat="50.9702022" lon="6.8700088">
      <time>2021-05-29T14:55:08Z</time>
    </trkpt>
    <trkpt lat="50.9701881" lon="6.8700321">
      <time>2021-05-29T14:55:09Z</time>
    </trkpt>
    <trkpt lat="50.9701289" lon="6.8700613">
      <time>2021-05-29T14:55:12Z</time>
    </trkpt>
    <trkpt lat="50.9699437" lon="6.8700178">
      <time>2021-05-29T14:55:21Z</time>
    </trkpt>
    <trkpt lat="50.9697990" lon="6.8698985">
      <time>2021-05-29T14:55:29Z</time>
    </trkpt>
    <trkpt lat="50.9696856" lon="6.8698981">
      <time>2021-05-29T14:55:36Z</time>
    </trkpt>
    <trkpt lat="50.9696748" lon="6.8699241">
      <time>2021-05-29T14:55:37Z</time>
    </trkpt>
    <trkpt lat="50.9696575" lon="6.8700174">
      <time>2021-05-29T14:55:40Z</time>
    </trkpt>
    <trkpt lat="50.9696403" lon="6.8702212">
      <time>2021-05-29T14:55:47Z</time>
    </trkpt>
    <trkpt lat="50.9696276" lon="6.8703161">
      <time>2021-05-29T14:55:50Z</time>
    </trkpt>
    <trkpt lat="50.9696131" lon="6.8706206">
      <time>2021-05-29T14:55:59Z</time>
    </trkpt>
    <trkpt lat="50.9696119" lon="6.8706516">
      <time>2021-05-29T14:56:00Z</time>
    </trkpt>
    <trkpt lat="50.9695960" lon="6.8708894">
      <time>2021-05-29T14:56:08Z</time>
    </trkpt>
    <trkpt lat="50.9695973" lon="6.8709238">
      <time>2021-05-29T14:56:09Z</time>
    </trkpt>
    <trkpt lat="50.9696090" lon="6.8710690">
      <time>2021-05-29T14:56:15Z</time>
    </trkpt>
    <trkpt lat="50.9696002" lon="6.8713058">
      <time>2021-05-29T14:56:23Z</time>
    </trkpt>
    <trkpt lat="50.9695341" lon="6.8715651">
      <time>2021-05-29T14:56:31Z</time>
    </trkpt>
    <trkpt lat="50.9695217" lon="6.8715974">
      <time>2021-05-29T14:56:32Z</time>
    </trkpt>
    <trkpt lat="50.9694870" lon="6.8716956">
      <time>2021-05-29T14:56:35Z</time>
    </trkpt>
    <trkpt lat="50.9694465" lon="6.8718444">
      <time>2021-05-29T14:56:40Z</time>
    </trkpt>
    <trkpt lat="50.9693837" lon="6.8720008">
      <time>2021-05-29T14:56:46Z</time>
    </trkpt>
    <trkpt lat="50.9693590" lon="6.8720583">
      <time>2021-05-29T14:56:49Z</time>
    </trkpt>
    <trkpt lat="50.9693104" lon="6.8722193">
      <time>2021-05-29T14:56:55Z</time>
    </trkpt>
    <trkpt lat="50.9692790" lon="6.8723354">
      <time>2021-05-29T14:56:59Z</time>
    </trkpt>
    <trkpt lat="50.9692159" lon="6.8725341">
      <time>2021-05-29T14:57:06Z</time>
    </trkpt>
    <trkpt lat="50.9691190" lon="6.8727874">
      <time>2021-05-29T14:57:15Z</time>
    </trkpt>
    <trkpt lat="50.9690472" lon="6.8730486">
      <time>2021-05-29T14:57:24Z</time>
    </trkpt>
    <trkpt lat="50.9690383" lon="6.8730736">
      <time>2021-05-29T14:57:25Z</time>
    </trkpt>
    <trkpt lat="50.9690170" lon="6.8731485">
      <time>2021-05-29T14:57:28Z</time>
    </trkpt>
    <trkpt lat="50.9689392" lon="6.8733193">
      <time>2021-05-29T14:57:33Z</time>
    </trkpt>
    <trkpt lat="50.9689043" lon="6.8734079">
      <time>2021-05-29T14:57:36Z</time>
    </trkpt>
    <trkpt lat="50.9688807" lon="6.8735285">
      <time>2021-05-29T14:57:40Z</time>
    </trkpt>
    <trkpt lat="50.9688779" lon="6.8735539">
      <time>2021-05-29T14:57:41Z</time>
    </trkpt>
    <trkpt lat="50.9688556" lon="6.8737255">
      <time>2021-05-29T14:57:49Z</time>
    </trkpt>
    <trkpt lat="50.9688304" lon="6.8737571">
      <time>2021-05-29T14:57:53Z</time>
    </trkpt>
    <trkpt lat="50.9688246" lon="6.8737709">
      <time>2021-05-29T14:57:55Z</time>
    </trkpt>
    <trkpt lat="50.9688292" lon="6.8737695">
      <time>2021-05-29T14:57:56Z</time>
    </trkpt>
    <trkpt lat="50.9688429" lon="6.8737495">
      <time>2021-05-29T14:57:58Z</time>
    </trkpt>
    <trkpt lat="50.9688434" lon="6.8737379">
      <time>2021-05-29T14:58:00Z</time>
    </trkpt>
    <trkpt lat="50.9688434" lon="6.8737382">
      <time>2021-05-29T14:58:01Z</time>
    </trkpt>
    <trkpt lat="50.9688452" lon="6.8737416">
      <time>2021-05-29T14:58:02Z</time>
    </trkpt>
    <trkpt lat="50.9688466" lon="6.8737446">
      <time>2021-05-29T14:58:04Z</time>
    </trkpt>
    <trkpt lat="50.9688466" lon="6.8737446">
      <time>2021-05-29T14:58:09Z</time>
    </trkpt>
    <trkpt lat="50.9688466" lon="6.8737461">
      <time>2021-05-29T14:58:16Z</time>
    </trkpt>
    <trkpt lat="50.9687772" lon="6.8737421">
      <time>2021-05-29T14:58:19Z</time>
    </trkpt>
    <trkpt lat="50.9686574" lon="6.8736602">
      <time>2021-05-29T14:58:23Z</time>
    </trkpt>
    <trkpt lat="50.9684998" lon="6.8735927">
      <time>2021-05-29T14:58:29Z</time>
    </trkpt>
    <trkpt lat="50.9683249" lon="6.8735730">
      <time>2021-05-29T14:58:37Z</time>
    </trkpt>
    <trkpt lat="50.9682453" lon="6.8735770">
      <time>2021-05-29T14:58:41Z</time>
    </trkpt>
    <trkpt lat="50.9681847" lon="6.8735722">
      <time>2021-05-29T14:58:44Z</time>
    </trkpt>
    <trkpt lat="50.9681194" lon="6.8735796">
      <time>2021-05-29T14:58:47Z</time>
    </trkpt>
    <trkpt lat="50.9680138" lon="6.8735880">
      <time>2021-05-29T14:58:52Z</time>
    </trkpt>
    <trkpt lat="50.9679753" lon="6.8735810">
      <time>2021-05-29T14:58:54Z</time>
    </trkpt>
    <trkpt lat="50.9678385" lon="6.8735168">
      <time>2021-05-29T14:59:00Z</time>
    </trkpt>
    <trkpt lat="50.9676673" lon="6.8735087">
      <time>2021-05-29T14:59:08Z</time>
    </trkpt>
    <trkpt lat="50.9674978" lon="6.8734877">
      <time>2021-05-29T14:59:16Z</time>
    </trkpt>
    <trkpt lat="50.9673214" lon="6.8734719">
      <time>2021-05-29T14:59:25Z</time>
    </trkpt>
    <trkpt lat="50.9671604" lon="6.8734616">
      <time>2021-05-29T14:59:34Z</time>
    </trkpt>
    <trkpt lat="50.9669982" lon="6.8734979">
      <time>2021-05-29T14:59:42Z</time>
    </trkpt>
    <trkpt lat="50.9668330" lon="6.8734495">
      <time>2021-05-29T14:59:51Z</time>
    </trkpt>
    <trkpt lat="50.9666914" lon="6.8733649">
      <time>2021-05-29T14:59:58Z</time>
    </trkpt>
    <trkpt lat="50.9665269" lon="6.8732565">
      <time>2021-05-29T15:00:08Z</time>
    </trkpt>
    <trkpt lat="50.9664359" lon="6.8733522">
      <time>2021-05-29T15:00:14Z</time>
    </trkpt>
    <trkpt lat="50.9663671" lon="6.8735230">
      <time>2021-05-29T15:00:20Z</time>
    </trkpt>
    <trkpt lat="50.9662587" lon="6.8736659">
      <time>2021-05-29T15:00:27Z</time>
    </trkpt>
    <trkpt lat="50.9661825" lon="6.8739555">
      <time>2021-05-29T15:00:37Z</time>
    </trkpt>
    <trkpt lat="50.9661813" lon="6.8739757">
      <time>2021-05-29T15:00:38Z</time>
    </trkpt>
    <trkpt lat="50.9661307" lon="6.8741637">
      <time>2021-05-29T15:00:45Z</time>
    </trkpt>
    <trkpt lat="50.9660705" lon="6.8743394">
      <time>2021-05-29T15:00:52Z</time>
    </trkpt>
    <trkpt lat="50.9660518" lon="6.8744458">
      <time>2021-05-29T15:00:56Z</time>
    </trkpt>
    <trkpt lat="50.9660276" lon="6.8744991">
      <time>2021-05-29T15:00:58Z</time>
    </trkpt>
    <trkpt lat="50.9659161" lon="6.8747388">
      <time>2021-05-29T15:01:07Z</time>
    </trkpt>
    <trkpt lat="50.9658519" lon="6.8749521">
      <time>2021-05-29T15:01:15Z</time>
    </trkpt>
    <trkpt lat="50.9657700" lon="6.8750535">
      <time>2021-05-29T15:01:21Z</time>
    </trkpt>
    <trkpt lat="50.9657576" lon="6.8750637">
      <time>2021-05-29T15:01:22Z</time>
    </trkpt>
    <trkpt lat="50.9656923" lon="6.8751521">
      <time>2021-05-29T15:01:26Z</time>
    </trkpt>
    <trkpt lat="50.9655686" lon="6.8752961">
      <time>2021-05-29T15:01:34Z</time>
    </trkpt>
    <trkpt lat="50.9654898" lon="6.8755147">
      <time>2021-05-29T15:01:41Z</time>
    </trkpt>
    <trkpt lat="50.9654191" lon="6.8757171">
      <time>2021-05-29T15:01:48Z</time>
    </trkpt>
    <trkpt lat="50.9653790" lon="6.8758022">
      <time>2021-05-29T15:01:51Z</time>
    </trkpt>
    <trkpt lat="50.9653430" lon="6.8758075">
      <time>2021-05-29T15:01:53Z</time>
    </trkpt>
    <trkpt lat="50.9652438" lon="6.8756992">
      <time>2021-05-29T15:01:59Z</time>
    </trkpt>
    <trkpt lat="50.9650992" lon="6.8755296">
      <time>2021-05-29T15:02:08Z</time>
    </trkpt>
    <trkpt lat="50.9649356" lon="6.8753937">
      <time>2021-05-29T15:02:17Z</time>
    </trkpt>
    <trkpt lat="50.9649178" lon="6.8753798">
      <time>2021-05-29T15:02:18Z</time>
    </trkpt>
    <trkpt lat="50.9648707" lon="6.8753285">
      <time>2021-05-29T15:02:21Z</time>
    </trkpt>
    <trkpt lat="50.9648050" lon="6.8752511">
      <time>2021-05-29T15:02:25Z</time>
    </trkpt>
    <trkpt lat="50.9646475" lon="6.8750978">
      <time>2021-05-29T15:02:33Z</time>
    </trkpt>
    <trkpt lat="50.9646340" lon="6.8750770">
      <time>2021-05-29T15:02:34Z</time>
    </trkpt>
    <trkpt lat="50.9645318" lon="6.8750159">
      <time>2021-05-29T15:02:41Z</time>
    </trkpt>
    <trkpt lat="50.9645180" lon="6.8750328">
      <time>2021-05-29T15:02:42Z</time>
    </trkpt>
    <trkpt lat="50.9644697" lon="6.8751745">
      <time>2021-05-29T15:02:47Z</time>
    </trkpt>
    <trkpt lat="50.9644121" lon="6.8754609">
      <time>2021-05-29T15:02:56Z</time>
    </trkpt>
    <trkpt lat="50.9644056" lon="6.8754921">
      <time>2021-05-29T15:02:57Z</time>
    </trkpt>
    <trkpt lat="50.9643667" lon="6.8756904">
      <time>2021-05-29T15:03:04Z</time>
    </trkpt>
    <trkpt lat="50.9643375" lon="6.8759214">
      <time>2021-05-29T15:03:11Z</time>
    </trkpt>
    <trkpt lat="50.9643217" lon="6.8760598">
      <time>2021-05-29T15:03:15Z</time>
    </trkpt>
    <trkpt lat="50.9642744" lon="6.8761806">
      <time>2021-05-29T15:03:19Z</time>
    </trkpt>
    <trkpt lat="50.9642553" lon="6.8761872">
      <time>2021-05-29T15:03:20Z</time>
    </trkpt>
    <trkpt lat="50.9641919" lon="6.8761706">
      <time>2021-05-29T15:03:23Z</time>
    </trkpt>
    <trkpt lat="50.9640854" lon="6.8761534">
      <time>2021-05-29T15:03:28Z</time>
    </trkpt>
    <trkpt lat="50.9640380" lon="6.8761507">
      <time>2021-05-29T15:03:31Z</time>
    </trkpt>
    <trkpt lat="50.9640063" lon="6.8761454">
      <time>2021-05-29T15:03:33Z</time>
    </trkpt>
    <trkpt lat="50.9638826" lon="6.8760268">
      <time>2021-05-29T15:03:39Z</time>
    </trkpt>
    <trkpt lat="50.9637399" lon="6.8760260">
      <time>2021-05-29T15:03:45Z</time>
    </trkpt>
    <trkpt lat="50.9636087" lon="6.8760275">
      <time>2021-05-29T15:03:51Z</time>
    </trkpt>
    <trkpt lat="50.9635023" lon="6.8759818">
      <time>2021-05-29T15:03:57Z</time>
    </trkpt>
    <trkpt lat="50.9634963" lon="6.8759851">
      <time>2021-05-29T15:03:58Z</time>
    </trkpt>
    <trkpt lat="50.9635029" lon="6.8759994">
      <time>2021-05-29T15:04:01Z</time>
    </trkpt>
    <trkpt lat="50.9634992" lon="6.8759892">
      <time>2021-05-29T15:04:03Z</time>
    </trkpt>
  </trkseg></trk>
</gpx>
