<?xml version="1.0" encoding="UTF-8"?>
<gpx version="1.1" creator="Diary FIT converter" xmlns="http://www.topografix.com/GPX/1/1">
  <trk><name>Cycling</name><trkseg>
    <trkpt lat="50.8750319" lon="7.0822571">
      <time>2020-03-01T05:48:57Z</time>
    </trkpt>
    <trkpt lat="50.8750565" lon="7.0822148">
      <time>2020-03-01T05:48:58Z</time>
    </trkpt>
    <trkpt lat="50.8750825" lon="7.0821904">
      <time>2020-03-01T05:49:00Z</time>
    </trkpt>
    <trkpt lat="50.8751317" lon="7.0821769">
      <time>2020-03-01T05:49:02Z</time>
    </trkpt>
    <trkpt lat="50.8752305" lon="7.0821319">
      <time>2020-03-01T05:49:05Z</time>
    </trkpt>
    <trkpt lat="50.8752960" lon="7.0821019">
      <time>2020-03-01T05:49:07Z</time>
    </trkpt>
    <trkpt lat="50.8754646" lon="7.0819846">
      <time>2020-03-01T05:49:11Z</time>
    </trkpt>
    <trkpt lat="50.8755479" lon="7.0819235">
      <time>2020-03-01T05:49:13Z</time>
    </trkpt>
    <trkpt lat="50.8755993" lon="7.0817809">
      <time>2020-03-01T05:49:15Z</time>
    </trkpt>
    <trkpt lat="50.8756016" lon="7.0817049">
      <time>2020-03-01T05:49:16Z</time>
    </trkpt>
    <trkpt lat="50.8755956" lon="7.0816308">
      <time>2020-03-01T05:49:17Z</time>
    </trkpt>
    <trkpt lat="50.8755646" lon="7.0813893">
      <time>2020-03-01T05:49:20Z</time>
    </trkpt>
    <trkpt lat="50.8755158" lon="7.0810729">
      <time>2020-03-01T05:49:24Z</time>
    </trkpt>
    <trkpt lat="50.8754803" lon="7.0808998">
      <time>2020-03-01T05:49:26Z</time>
    </trkpt>
    <trkpt lat="50.8754649" lon="7.0808239">
      <time>2020-03-01T05:49:27Z</time>
    </trkpt>
    <trkpt lat="50.8753840" lon="7.0803613">
      <time>2020-03-01T05:49:33Z</time>
    </trkpt>
    <trkpt lat="50.8753639" lon="7.0802545">
      <time>2020-03-01T05:49:35Z</time>
    </trkpt>
    <trkpt lat="50.8753333" lon="7.0800981">
      <time>2020-03-01T05:49:37Z</time>
    </trkpt>
    <trkpt lat="50.8752894" lon="7.0798800">
      <time>2020-03-01T05:49:40Z</time>
    </trkpt>
    <trkpt lat="50.8752789" lon="7.0798180">
      <time>2020-03-01T05:49:41Z</time>
    </trkpt>
    <trkpt lat="50.8752504" lon="7.0796455">
      <time>2020-03-01T05:49:43Z</time>
    </trkpt>
    <trkpt lat="50.8752127" lon="7.0794086">
      <time>2020-03-01T05:49:46Z</time>
    </trkpt>
    <trkpt lat="50.8751765" lon="7.0791786">
      <time>2020-03-01T05:49:49Z</time>
    </trkpt>
    <trkpt lat="50.8751653" lon="7.0791054">
      <time>2020-03-01T05:49:50Z</time>
    </trkpt>
    <trkpt lat="50.8750903" lon="7.0787598">
      <time>2020-03-01T05:49:55Z</time>
    </trkpt>
    <trkpt lat="50.8750753" lon="7.0786894">
      <time>2020-03-01T05:49:56Z</time>
    </trkpt>
    <trkpt lat="50.8749784" lon="7.0781503">
      <time>2020-03-01T05:50:03Z</time>
    </trkpt>
    <trkpt lat="50.8748979" lon="7.0777181">
      <time>2020-03-01T05:50:08Z</time>
    </trkpt>
    <trkpt lat="50.8747909" lon="7.0771161">
      <time>2020-03-01T05:50:15Z</time>
    </trkpt>
    <trkpt lat="50.8746608" lon="7.0764426">
      <time>2020-03-01T05:50:23Z</time>
    </trkpt>
    <trkpt lat="50.8746465" lon="7.0763668">
      <time>2020-03-01T05:50:24Z</time>
    </trkpt>
    <trkpt lat="50.8745293" lon="7.0757522">
      <time>2020-03-01T05:50:32Z</time>
    </trkpt>
    <trkpt lat="50.8743808" lon="7.0750304">
      <time>2020-03-01T05:50:41Z</time>
    </trkpt>
    <trkpt lat="50.8742593" lon="7.0744185">
      <time>2020-03-01T05:50:49Z</time>
    </trkpt>
    <trkpt lat="50.8742078" lon="7.0741897">
      <time>2020-03-01T05:50:52Z</time>
    </trkpt>
    <trkpt lat="50.8741733" lon="7.0741465">
      <time>2020-03-01T05:50:53Z</time>
    </trkpt>
    <trkpt lat="50.8741258" lon="7.0741306">
      <time>2020-03-01T05:50:54Z</time>
    </trkpt>
    <trkpt lat="50.8740319" lon="7.0741591">
      <time>2020-03-01T05:50:56Z</time>
    </trkpt>
    <trkpt lat="50.8736209" lon="7.0743913">
      <time>2020-03-01T05:51:04Z</time>
    </trkpt>
    <trkpt lat="50.8732444" lon="7.0746195">
      <time>2020-03-01T05:51:11Z</time>
    </trkpt>
    <trkpt lat="50.8730817" lon="7.0747052">
      <time>2020-03-01T05:51:14Z</time>
    </trkpt>
    <trkpt lat="50.8726729" lon="7.0749264">
      <time>2020-03-01T05:51:21Z</time>
    </trkpt>
    <trkpt lat="50.8726192" lon="7.0749615">
      <time>2020-03-01T05:51:22Z</time>
    </trkpt>
    <trkpt lat="50.8725111" lon="7.0749827">
      <time>2020-03-01T05:51:24Z</time>
    </trkpt>
    <trkpt lat="50.8724640" lon="7.0749439">
      <time>2020-03-01T05:51:25Z</time>
    </trkpt>
    <trkpt lat="50.8724267" lon="7.0748855">
      <time>2020-03-01T05:51:26Z</time>
    </trkpt>
    <trkpt lat="50.8723977" lon="7.0747455">
      <time>2020-03-01T05:51:28Z</time>
    </trkpt>
    <trkpt lat="50.8723476" lon="7.0740675">
      <time>2020-03-01T05:51:36Z</time>
    </trkpt>
    <trkpt lat="50.8723272" lon="7.0737680">
      <time>2020-03-01T05:51:39Z</time>
    </trkpt>
    <trkpt lat="50.8722994" lon="7.0733579">
      <time>2020-03-01T05:51:43Z</time>
    </trkpt>
    <trkpt lat="50.8722884" lon="7.0732531">
      <time>2020-03-01T05:51:44Z</time>
    </trkpt>
    <trkpt lat="50.8722675" lon="7.0728415">
      <time>2020-03-01T05:51:48Z</time>
    </trkpt>
    <trkpt lat="50.8722774" lon="7.0726569">
      <time>2020-03-01T05:51:50Z</time>
    </trkpt>
    <trkpt lat="50.8723145" lon="7.0723137">
      <time>2020-03-01T05:51:54Z</time>
    </trkpt>
    <trkpt lat="50.8723241" lon="7.0722312">
      <time>2020-03-01T05:51:55Z</time>
    </trkpt>
    <trkpt lat="50.8723319" lon="7.0721570">
      <time>2020-03-01T05:51:56Z</time>
    </trkpt>
    <trkpt lat="50.8723373" lon="7.0718807">
      <time>2020-03-01T05:52:00Z</time>
    </trkpt>
    <trkpt lat="50.8723029" lon="7.0715461">
      <time>2020-03-01T05:52:06Z</time>
    </trkpt>
    <trkpt lat="50.8722485" lon="7.0712817">
      <time>2020-03-01T05:52:12Z</time>
    </trkpt>
    <trkpt lat="50.8722385" lon="7.0712421">
      <time>2020-03-01T05:52:13Z</time>
    </trkpt>
    <trkpt lat="50.8721488" lon="7.0709224">
      <time>2020-03-01T05:52:20Z</time>
    </trkpt>
    <trkpt lat="50.8720833" lon="7.0705953">
      <time>2020-03-01T05:52:27Z</time>
    </trkpt>
    <trkpt lat="50.8720713" lon="7.0705485">
      <time>2020-03-01T05:52:28Z</time>
    </trkpt>
    <trkpt lat="50.8720289" lon="7.0703820">
      <time>2020-03-01T05:52:31Z</time>
    </trkpt>
    <trkpt lat="50.8719812" lon="7.0701736">
      <time>2020-03-01T05:52:34Z</time>
    </trkpt>
    <trkpt lat="50.8718887" lon="7.0697382">
      <time>2020-03-01T05:52:39Z</time>
    </trkpt>
    <trkpt lat="50.8717509" lon="7.0691935">
      <time>2020-03-01T05:52:44Z</time>
    </trkpt>
    <trkpt lat="50.8717224" lon="7.0690707">
      <time>2020-03-01T05:52:45Z</time>
    </trkpt>
    <trkpt lat="50.8715795" lon="7.0684562">
      <time>2020-03-01T05:52:50Z</time>
    </trkpt>
    <trkpt lat="50.8715165" lon="7.0680933">
      <time>2020-03-01T05:52:53Z</time>
    </trkpt>
    <trkpt lat="50.8715014" lon="7.0678701">
      <time>2020-03-01T05:52:55Z</time>
    </trkpt>
    <trkpt lat="50.8714704" lon="7.0673011">
      <time>2020-03-01T05:53:01Z</time>
    </trkpt>
    <trkpt lat="50.8714710" lon="7.0672165">
      <time>2020-03-01T05:53:02Z</time>
    </trkpt>
    <trkpt lat="50.8715117" lon="7.0670620">
      <time>2020-03-01T05:53:04Z</time>
    </trkpt>
    <trkpt lat="50.8716493" lon="7.0669218">
      <time>2020-03-01T05:53:07Z</time>
    </trkpt>
    <trkpt lat="50.8720412" lon="7.0665637">
      <time>2020-03-01T05:53:15Z</time>
    </trkpt>
    <trkpt lat="50.8724339" lon="7.0660611">
      <time>2020-03-01T05:53:24Z</time>
    </trkpt>
    <trkpt lat="50.8725702" lon="7.0657748">
      <time>2020-03-01T05:53:28Z</time>
    </trkpt>
    <trkpt lat="50.8727148" lon="7.0653978">
      <time>2020-03-01T05:53:33Z</time>
    </trkpt>
    <trkpt lat="50.8729204" lon="7.0648722">
      <time>2020-03-01T05:53:40Z</time>
    </trkpt>
    <trkpt lat="50.8730257" lon="7.0646310">
      <time>2020-03-01T05:53:43Z</time>
    </trkpt>
    <trkpt lat="50.8733080" lon="7.0641253">
      <time>2020-03-01T05:53:51Z</time>
    </trkpt>
    <trkpt lat="50.8735964" lon="7.0637342">
      <time>2020-03-01T05:53:58Z</time>
    </trkpt>
    <trkpt lat="50.8739058" lon="7.0633511">
      <time>2020-03-01T05:54:05Z</time>
    </trkpt>
    <trkpt lat="50.8740040" lon="7.0632461">
      <time>2020-03-01T05:54:07Z</time>
    </trkpt>
    <trkpt lat="50.8741432" lon="7.0630685">
      <time>2020-03-01T05:54:10Z</time>
    </trkpt>
    <trkpt lat="50.8744806" lon="7.0626568">
      <time>2020-03-01T05:54:17Z</time>
    </trkpt>
    <trkpt lat="50.8745260" lon="7.0626016">
      <time>2020-03-01T05:54:18Z</time>
    </trkpt>
    <trkpt lat="50.8749634" lon="7.0620439">
      <time>2020-03-01T05:54:28Z</time>
    </trkpt>
    <trkpt lat="50.8752794" lon="7.0616172">
      <time>2020-03-01T05:54:36Z</time>
    </trkpt>
    <trkpt lat="50.8755263" lon="7.0613233">
      <time>2020-03-01T05:54:42Z</time>
    </trkpt>
    <trkpt lat="50.8756138" lon="7.0612371">
      <time>2020-03-01T05:54:44Z</time>
    </trkpt>
    <trkpt lat="50.8759555" lon="7.0608488">
      <time>2020-03-01T05:54:52Z</time>
    </trkpt>
    <trkpt lat="50.8762621" lon="7.0604721">
      <time>2020-03-01T05:54:59Z</time>
    </trkpt>
    <trkpt lat="50.8767211" lon="7.0599117">
      <time>2020-03-01T05:55:09Z</time>
    </trkpt>
    <trkpt lat="50.8767732" lon="7.0598465">
      <time>2020-03-01T05:55:10Z</time>
    </trkpt>
    <trkpt lat="50.8769808" lon="7.0595947">
      <time>2020-03-01T05:55:14Z</time>
    </trkpt>
    <trkpt lat="50.8770874" lon="7.0595082">
      <time>2020-03-01T05:55:16Z</time>
    </trkpt>
    <trkpt lat="50.8772406" lon="7.0593760">
      <time>2020-03-01T05:55:19Z</time>
    </trkpt>
    <trkpt lat="50.8773171" lon="7.0592513">
      <time>2020-03-01T05:55:21Z</time>
    </trkpt>
    <trkpt lat="50.8773547" lon="7.0590977">
      <time>2020-03-01T05:55:23Z</time>
    </trkpt>
    <trkpt lat="50.8773611" lon="7.0590177">
      <time>2020-03-01T05:55:24Z</time>
    </trkpt>
    <trkpt lat="50.8773689" lon="7.0587855">
      <time>2020-03-01T05:55:27Z</time>
    </trkpt>
    <trkpt lat="50.8773835" lon="7.0587116">
      <time>2020-03-01T05:55:28Z</time>
    </trkpt>
    <trkpt lat="50.8774117" lon="7.0586561">
      <time>2020-03-01T05:55:29Z</time>
    </trkpt>
    <trkpt lat="50.8774885" lon="7.0585636">
      <time>2020-03-01T05:55:31Z</time>
    </trkpt>
    <trkpt lat="50.8777345" lon="7.0583159">
      <time>2020-03-01T05:55:36Z</time>
    </trkpt>
    <trkpt lat="50.8779390" lon="7.0580987">
      <time>2020-03-01T05:55:40Z</time>
    </trkpt>
    <trkpt lat="50.8780401" lon="7.0579899">
      <time>2020-03-01T05:55:42Z</time>
    </trkpt>
    <trkpt lat="50.8780937" lon="7.0579360">
      <time>2020-03-01T05:55:43Z</time>
    </trkpt>
    <trkpt lat="50.8785441" lon="7.0574639">
      <time>2020-03-01T05:55:52Z</time>
    </trkpt>
    <trkpt lat="50.8786701" lon="7.0573024">
      <time>2020-03-01T05:55:55Z</time>
    </trkpt>
    <trkpt lat="50.8788091" lon="7.0571531">
      <time>2020-03-01T05:55:58Z</time>
    </trkpt>
    <trkpt lat="50.8789572" lon="7.0569990">
      <time>2020-03-01T05:56:01Z</time>
    </trkpt>
    <trkpt lat="50.8791717" lon="7.0567669">
      <time>2020-03-01T05:56:05Z</time>
    </trkpt>
    <trkpt lat="50.8792885" lon="7.0566494">
      <time>2020-03-01T05:56:07Z</time>
    </trkpt>
    <trkpt lat="50.8795208" lon="7.0563997">
      <time>2020-03-01T05:56:11Z</time>
    </trkpt>
    <trkpt lat="50.8797960" lon="7.0561278">
      <time>2020-03-01T05:56:16Z</time>
    </trkpt>
    <trkpt lat="50.8798452" lon="7.0560746">
      <time>2020-03-01T05:56:17Z</time>
    </trkpt>
    <trkpt lat="50.8800049" lon="7.0559402">
      <time>2020-03-01T05:56:20Z</time>
    </trkpt>
    <trkpt lat="50.8801093" lon="7.0558723">
      <time>2020-03-01T05:56:22Z</time>
    </trkpt>
    <trkpt lat="50.8801643" lon="7.0558441">
      <time>2020-03-01T05:56:23Z</time>
    </trkpt>
    <trkpt lat="50.8803792" lon="7.0557107">
      <time>2020-03-01T05:56:27Z</time>
    </trkpt>
    <trkpt lat="50.8804891" lon="7.0556689">
      <time>2020-03-01T05:56:29Z</time>
    </trkpt>
    <trkpt lat="50.8806548" lon="7.0556610">
      <time>2020-03-01T05:56:32Z</time>
    </trkpt>
    <trkpt lat="50.8807646" lon="7.0556261">
      <time>2020-03-01T05:56:34Z</time>
    </trkpt>
    <trkpt lat="50.8811877" lon="7.0555340">
      <time>2020-03-01T05:56:41Z</time>
    </trkpt>
    <trkpt lat="50.8812363" lon="7.0554968">
      <time>2020-03-01T05:56:42Z</time>
    </trkpt>
    <trkpt lat="50.8812764" lon="7.0554399">
      <time>2020-03-01T05:56:43Z</time>
    </trkpt>
    <trkpt lat="50.8813332" lon="7.0552807">
      <time>2020-03-01T05:56:45Z</time>
    </trkpt>
    <trkpt lat="50.8814282" lon="7.0548173">
      <time>2020-03-01T05:56:50Z</time>
    </trkpt>
    <trkpt lat="50.8814485" lon="7.0547245">
      <time>2020-03-01T05:56:51Z</time>
    </trkpt>
    <trkpt lat="50.8814984" lon="7.0545420">
      <time>2020-03-01T05:56:53Z</time>
    </trkpt>
    <trkpt lat="50.8815670" lon="7.0544167">
      <time>2020-03-01T05:56:55Z</time>
    </trkpt>
    <trkpt lat="50.8816669" lon="7.0544100">
      <time>2020-03-01T05:56:57Z</time>
    </trkpt>
    <trkpt lat="50.8817250" lon="7.0544299">
      <time>2020-03-01T05:56:58Z</time>
    </trkpt>
    <trkpt lat="50.8821338" lon="7.0545336">
      <time>2020-03-01T05:57:04Z</time>
    </trkpt>
    <trkpt lat="50.8823507" lon="7.0545580">
      <time>2020-03-01T05:57:07Z</time>
    </trkpt>
    <trkpt lat="50.8824906" lon="7.0545742">
      <time>2020-03-01T05:57:09Z</time>
    </trkpt>
    <trkpt lat="50.8827162" lon="7.0545951">
      <time>2020-03-01T05:57:12Z</time>
    </trkpt>
    <trkpt lat="50.8829989" lon="7.0546166">
      <time>2020-03-01T05:57:16Z</time>
    </trkpt>
    <trkpt lat="50.8832956" lon="7.0546062">
      <time>2020-03-01T05:57:20Z</time>
    </trkpt>
    <trkpt lat="50.8835838" lon="7.0545896">
      <time>2020-03-01T05:57:24Z</time>
    </trkpt>
    <trkpt lat="50.8838791" lon="7.0545531">
      <time>2020-03-01T05:57:28Z</time>
    </trkpt>
    <trkpt lat="50.8843204" lon="7.0544755">
      <time>2020-03-01T05:57:34Z</time>
    </trkpt>
    <trkpt lat="50.8843938" lon="7.0544438">
      <time>2020-03-01T05:57:35Z</time>
    </trkpt>
    <trkpt lat="50.8846151" lon="7.0543621">
      <time>2020-03-01T05:57:38Z</time>
    </trkpt>
    <trkpt lat="50.8848480" lon="7.0542872">
      <time>2020-03-01T05:57:41Z</time>
    </trkpt>
    <trkpt lat="50.8849827" lon="7.0542270">
      <time>2020-03-01T05:57:43Z</time>
    </trkpt>
    <trkpt lat="50.8853139" lon="7.0541316">
      <time>2020-03-01T05:57:47Z</time>
    </trkpt>
    <trkpt lat="50.8854771" lon="7.0541018">
      <time>2020-03-01T05:57:49Z</time>
    </trkpt>
    <trkpt lat="50.8858878" lon="7.0540423">
      <time>2020-03-01T05:57:54Z</time>
    </trkpt>
    <trkpt lat="50.8860286" lon="7.0540137">
      <time>2020-03-01T05:57:56Z</time>
    </trkpt>
    <trkpt lat="50.8862623" lon="7.0539449">
      <time>2020-03-01T05:57:59Z</time>
    </trkpt>
    <trkpt lat="50.8864626" lon="7.0538650">
      <time>2020-03-01T05:58:02Z</time>
    </trkpt>
    <trkpt lat="50.8867165" lon="7.0535754">
      <time>2020-03-01T05:58:06Z</time>
    </trkpt>
    <trkpt lat="50.8868076" lon="7.0534729">
      <time>2020-03-01T05:58:07Z</time>
    </trkpt>
    <trkpt lat="50.8869780" lon="7.0533472">
      <time>2020-03-01T05:58:09Z</time>
    </trkpt>
    <trkpt lat="50.8873764" lon="7.0530799">
      <time>2020-03-01T05:58:13Z</time>
    </trkpt>
    <trkpt lat="50.8874725" lon="7.0530284">
      <time>2020-03-01T05:58:14Z</time>
    </trkpt>
    <trkpt lat="50.8876421" lon="7.0529264">
      <time>2020-03-01T05:58:16Z</time>
    </trkpt>
    <trkpt lat="50.8878344" lon="7.0528212">
      <time>2020-03-01T05:58:18Z</time>
    </trkpt>
    <trkpt lat="50.8879287" lon="7.0527683">
      <time>2020-03-01T05:58:19Z</time>
    </trkpt>
    <trkpt lat="50.8883253" lon="7.0525241">
      <time>2020-03-01T05:58:23Z</time>
    </trkpt>
    <trkpt lat="50.8885083" lon="7.0524036">
      <time>2020-03-01T05:58:25Z</time>
    </trkpt>
    <trkpt lat="50.8888581" lon="7.0521680">
      <time>2020-03-01T05:58:29Z</time>
    </trkpt>
    <trkpt lat="50.8889358" lon="7.0520949">
      <time>2020-03-01T05:58:30Z</time>
    </trkpt>
    <trkpt lat="50.8890878" lon="7.0519484">
      <time>2020-03-01T05:58:32Z</time>
    </trkpt>
    <trkpt lat="50.8892406" lon="7.0518034">
      <time>2020-03-01T05:58:34Z</time>
    </trkpt>
    <trkpt lat="50.8893143" lon="7.0517236">
      <time>2020-03-01T05:58:35Z</time>
    </trkpt>
    <trkpt lat="50.8894576" lon="7.0515438">
      <time>2020-03-01T05:58:37Z</time>
    </trkpt>
    <trkpt lat="50.8895371" lon="7.0514594">
      <time>2020-03-01T05:58:38Z</time>
    </trkpt>
    <trkpt lat="50.8899926" lon="7.0509588">
      <time>2020-03-01T05:58:44Z</time>
    </trkpt>
    <trkpt lat="50.8901332" lon="7.0507953">
      <time>2020-03-01T05:58:46Z</time>
    </trkpt>
    <trkpt lat="50.8905164" lon="7.0503183">
      <time>2020-03-01T05:58:52Z</time>
    </trkpt>
    <trkpt lat="50.8908554" lon="7.0498469">
      <time>2020-03-01T05:58:58Z</time>
    </trkpt>
    <trkpt lat="50.8911924" lon="7.0493848">
      <time>2020-03-01T05:59:04Z</time>
    </trkpt>
    <trkpt lat="50.8912464" lon="7.0493101">
      <time>2020-03-01T05:59:05Z</time>
    </trkpt>
    <trkpt lat="50.8913011" lon="7.0492366">
      <time>2020-03-01T05:59:06Z</time>
    </trkpt>
    <trkpt lat="50.8914685" lon="7.0490243">
      <time>2020-03-01T05:59:09Z</time>
    </trkpt>
    <trkpt lat="50.8916365" lon="7.0488465">
      <time>2020-03-01T05:59:12Z</time>
    </trkpt>
    <trkpt lat="50.8916943" lon="7.0487909">
      <time>2020-03-01T05:59:13Z</time>
    </trkpt>
    <trkpt lat="50.8918616" lon="7.0486030">
      <time>2020-03-01T05:59:16Z</time>
    </trkpt>
    <trkpt lat="50.8919604" lon="7.0484484">
      <time>2020-03-01T05:59:18Z</time>
    </trkpt>
    <trkpt lat="50.8922515" lon="7.0479688">
      <time>2020-03-01T05:59:24Z</time>
    </trkpt>
    <trkpt lat="50.8923649" lon="7.0477725">
      <time>2020-03-01T05:59:26Z</time>
    </trkpt>
    <trkpt lat="50.8925589" lon="7.0474271">
      <time>2020-03-01T05:59:30Z</time>
    </trkpt>
    <trkpt lat="50.8928016" lon="7.0469731">
      <time>2020-03-01T05:59:35Z</time>
    </trkpt>
    <trkpt lat="50.8930453" lon="7.0465188">
      <time>2020-03-01T05:59:40Z</time>
    </trkpt>
    <trkpt lat="50.8932633" lon="7.0460581">
      <time>2020-03-01T05:59:45Z</time>
    </trkpt>
    <trkpt lat="50.8935362" lon="7.0454206">
      <time>2020-03-01T05:59:52Z</time>
    </trkpt>
    <trkpt lat="50.8938344" lon="7.0447079">
      <time>2020-03-01T06:00:00Z</time>
    </trkpt>
    <trkpt lat="50.8939027" lon="7.0445306">
      <time>2020-03-01T06:00:02Z</time>
    </trkpt>
    <trkpt lat="50.8941813" lon="7.0437986">
      <time>2020-03-01T06:00:10Z</time>
    </trkpt>
    <trkpt lat="50.8942904" lon="7.0435055">
      <time>2020-03-01T06:00:13Z</time>
    </trkpt>
    <trkpt lat="50.8944787" lon="7.0429088">
      <time>2020-03-01T06:00:19Z</time>
    </trkpt>
    <trkpt lat="50.8945394" lon="7.0427120">
      <time>2020-03-01T06:00:21Z</time>
    </trkpt>
    <trkpt lat="50.8947611" lon="7.0419130">
      <time>2020-03-01T06:00:29Z</time>
    </trkpt>
    <trkpt lat="50.8947858" lon="7.0418171">
      <time>2020-03-01T06:00:30Z</time>
    </trkpt>
    <trkpt lat="50.8949391" lon="7.0411815">
      <time>2020-03-01T06:00:37Z</time>
    </trkpt>
    <trkpt lat="50.8949655" lon="7.0410703">
      <time>2020-03-01T06:00:38Z</time>
    </trkpt>
    <trkpt lat="50.8950055" lon="7.0408872">
      <time>2020-03-01T06:00:40Z</time>
    </trkpt>
    <trkpt lat="50.8950465" lon="7.0406972">
      <time>2020-03-01T06:00:42Z</time>
    </trkpt>
    <trkpt lat="50.8950892" lon="7.0405071">
      <time>2020-03-01T06:00:44Z</time>
    </trkpt>
    <trkpt lat="50.8951314" lon="7.0403201">
      <time>2020-03-01T06:00:46Z</time>
    </trkpt>
    <trkpt lat="50.8951944" lon="7.0400373">
      <time>2020-03-01T06:00:49Z</time>
    </trkpt>
    <trkpt lat="50.8953043" lon="7.0395545">
      <time>2020-03-01T06:00:54Z</time>
    </trkpt>
    <trkpt lat="50.8953871" lon="7.0391742">
      <time>2020-03-01T06:00:58Z</time>
    </trkpt>
    <trkpt lat="50.8954649" lon="7.0387797">
      <time>2020-03-01T06:01:02Z</time>
    </trkpt>
    <trkpt lat="50.8955306" lon="7.0383791">
      <time>2020-03-01T06:01:06Z</time>
    </trkpt>
    <trkpt lat="50.8955900" lon="7.0380881">
      <time>2020-03-01T06:01:09Z</time>
    </trkpt>
    <trkpt lat="50.8956722" lon="7.0376365">
      <time>2020-03-01T06:01:14Z</time>
    </trkpt>
    <trkpt lat="50.8956892" lon="7.0375208">
      <time>2020-03-01T06:01:15Z</time>
    </trkpt>
    <trkpt lat="50.8957318" lon="7.0372349">
      <time>2020-03-01T06:01:18Z</time>
    </trkpt>
    <trkpt lat="50.8957691" lon="7.0369515">
      <time>2020-03-01T06:01:21Z</time>
    </trkpt>
    <trkpt lat="50.8958585" lon="7.0363200">
      <time>2020-03-01T06:01:28Z</time>
    </trkpt>
    <trkpt lat="50.8958932" lon="7.0359816">
      <time>2020-03-01T06:01:32Z</time>
    </trkpt>
    <trkpt lat="50.8959395" lon="7.0355972">
      <time>2020-03-01T06:01:36Z</time>
    </trkpt>
    <trkpt lat="50.8959889" lon="7.0351560">
      <time>2020-03-01T06:01:41Z</time>
    </trkpt>
    <trkpt lat="50.8960844" lon="7.0343143">
      <time>2020-03-01T06:01:51Z</time>
    </trkpt>
    <trkpt lat="50.8961651" lon="7.0336287">
      <time>2020-03-01T06:01:59Z</time>
    </trkpt>
    <trkpt lat="50.8961999" lon="7.0332861">
      <time>2020-03-01T06:02:03Z</time>
    </trkpt>
    <trkpt lat="50.8962443" lon="7.0329405">
      <time>2020-03-01T06:02:07Z</time>
    </trkpt>
    <trkpt lat="50.8962550" lon="7.0328557">
      <time>2020-03-01T06:02:08Z</time>
    </trkpt>
    <trkpt lat="50.8962734" lon="7.0326805">
      <time>2020-03-01T06:02:10Z</time>
    </trkpt>
    <trkpt lat="50.8963006" lon="7.0324192">
      <time>2020-03-01T06:02:13Z</time>
    </trkpt>
    <trkpt lat="50.8963204" lon="7.0321650">
      <time>2020-03-01T06:02:16Z</time>
    </trkpt>
    <trkpt lat="50.8963882" lon="7.0314318">
      <time>2020-03-01T06:02:25Z</time>
    </trkpt>
    <trkpt lat="50.8964116" lon="7.0311893">
      <time>2020-03-01T06:02:28Z</time>
    </trkpt>
    <trkpt lat="50.8964330" lon="7.0308508">
      <time>2020-03-01T06:02:32Z</time>
    </trkpt>
    <trkpt lat="50.8964418" lon="7.0306794">
      <time>2020-03-01T06:02:34Z</time>
    </trkpt>
    <trkpt lat="50.8964449" lon="7.0305959">
      <time>2020-03-01T06:02:35Z</time>
    </trkpt>
    <trkpt lat="50.8964544" lon="7.0303503">
      <time>2020-03-01T06:02:38Z</time>
    </trkpt>
    <trkpt lat="50.8964661" lon="7.0299639">
      <time>2020-03-01T06:02:43Z</time>
    </trkpt>
    <trkpt lat="50.8964700" lon="7.0298155">
      <time>2020-03-01T06:02:45Z</time>
    </trkpt>
    <trkpt lat="50.8964784" lon="7.0295136">
      <time>2020-03-01T06:02:49Z</time>
    </trkpt>
    <trkpt lat="50.8964864" lon="7.0292799">
      <time>2020-03-01T06:02:52Z</time>
    </trkpt>
    <trkpt lat="50.8964903" lon="7.0289593">
      <time>2020-03-01T06:02:56Z</time>
    </trkpt>
    <trkpt lat="50.8964973" lon="7.0285623">
      <time>2020-03-01T06:03:01Z</time>
    </trkpt>
    <trkpt lat="50.8964927" lon="7.0284122">
      <time>2020-03-01T06:03:03Z</time>
    </trkpt>
    <trkpt lat="50.8964927" lon="7.0283329">
      <time>2020-03-01T06:03:04Z</time>
    </trkpt>
    <trkpt lat="50.8965007" lon="7.0281023">
      <time>2020-03-01T06:03:07Z</time>
    </trkpt>
    <trkpt lat="50.8965010" lon="7.0279172">
      <time>2020-03-01T06:03:09Z</time>
    </trkpt>
    <trkpt lat="50.8965064" lon="7.0275694">
      <time>2020-03-01T06:03:13Z</time>
    </trkpt>
    <trkpt lat="50.8965042" lon="7.0274046">
      <time>2020-03-01T06:03:15Z</time>
    </trkpt>
    <trkpt lat="50.8964914" lon="7.0269616">
      <time>2020-03-01T06:03:21Z</time>
    </trkpt>
    <trkpt lat="50.8964799" lon="7.0266776">
      <time>2020-03-01T06:03:25Z</time>
    </trkpt>
    <trkpt lat="50.8964741" lon="7.0263392">
      <time>2020-03-01T06:03:29Z</time>
    </trkpt>
    <trkpt lat="50.8964582" lon="7.0258475">
      <time>2020-03-01T06:03:35Z</time>
    </trkpt>
    <trkpt lat="50.8964525" lon="7.0256040">
      <time>2020-03-01T06:03:38Z</time>
    </trkpt>
    <trkpt lat="50.8964495" lon="7.0255207">
      <time>2020-03-01T06:03:39Z</time>
    </trkpt>
    <trkpt lat="50.8964469" lon="7.0252043">
      <time>2020-03-01T06:03:43Z</time>
    </trkpt>
    <trkpt lat="50.8964324" lon="7.0249720">
      <time>2020-03-01T06:03:46Z</time>
    </trkpt>
    <trkpt lat="50.8964064" lon="7.0241756">
      <time>2020-03-01T06:03:56Z</time>
    </trkpt>
    <trkpt lat="50.8963973" lon="7.0240273">
      <time>2020-03-01T06:03:58Z</time>
    </trkpt>
    <trkpt lat="50.8963930" lon="7.0238111">
      <time>2020-03-01T06:04:01Z</time>
    </trkpt>
    <trkpt lat="50.8963778" lon="7.0233209">
      <time>2020-03-01T06:04:08Z</time>
    </trkpt>
    <trkpt lat="50.8963780" lon="7.0232501">
      <time>2020-03-01T06:04:09Z</time>
    </trkpt>
    <trkpt lat="50.8963730" lon="7.0230252">
      <time>2020-03-01T06:04:12Z</time>
    </trkpt>
    <trkpt lat="50.8963651" lon="7.0227812">
      <time>2020-03-01T06:04:15Z</time>
    </trkpt>
    <trkpt lat="50.8963563" lon="7.0226167">
      <time>2020-03-01T06:04:17Z</time>
    </trkpt>
    <trkpt lat="50.8963552" lon="7.0223271">
      <time>2020-03-01T06:04:21Z</time>
    </trkpt>
    <trkpt lat="50.8963520" lon="7.0222586">
      <time>2020-03-01T06:04:22Z</time>
    </trkpt>
    <trkpt lat="50.8963489" lon="7.0221868">
      <time>2020-03-01T06:04:23Z</time>
    </trkpt>
    <trkpt lat="50.8963319" lon="7.0218716">
      <time>2020-03-01T06:04:27Z</time>
    </trkpt>
    <trkpt lat="50.8963304" lon="7.0217837">
      <time>2020-03-01T06:04:28Z</time>
    </trkpt>
    <trkpt lat="50.8963288" lon="7.0216961">
      <time>2020-03-01T06:04:29Z</time>
    </trkpt>
    <trkpt lat="50.8963257" lon="7.0211690">
      <time>2020-03-01T06:04:35Z</time>
    </trkpt>
    <trkpt lat="50.8963227" lon="7.0210833">
      <time>2020-03-01T06:04:36Z</time>
    </trkpt>
    <trkpt lat="50.8963149" lon="7.0209985">
      <time>2020-03-01T06:04:37Z</time>
    </trkpt>
    <trkpt lat="50.8962970" lon="7.0206564">
      <time>2020-03-01T06:04:41Z</time>
    </trkpt>
    <trkpt lat="50.8962678" lon="7.0201675">
      <time>2020-03-01T06:04:47Z</time>
    </trkpt>
    <trkpt lat="50.8962561" lon="7.0198501">
      <time>2020-03-01T06:04:51Z</time>
    </trkpt>
    <trkpt lat="50.8962514" lon="7.0197041">
      <time>2020-03-01T06:04:53Z</time>
    </trkpt>
    <trkpt lat="50.8962510" lon="7.0196336">
      <time>2020-03-01T06:04:54Z</time>
    </trkpt>
    <trkpt lat="50.8962305" lon="7.0192526">
      <time>2020-03-01T06:04:59Z</time>
    </trkpt>
    <trkpt lat="50.8962148" lon="7.0188372">
      <time>2020-03-01T06:05:04Z</time>
    </trkpt>
    <trkpt lat="50.8962102" lon="7.0186662">
      <time>2020-03-01T06:05:06Z</time>
    </trkpt>
    <trkpt lat="50.8962294" lon="7.0179704">
      <time>2020-03-01T06:05:14Z</time>
    </trkpt>
    <trkpt lat="50.8962346" lon="7.0173026">
      <time>2020-03-01T06:05:22Z</time>
    </trkpt>
    <trkpt lat="50.8962364" lon="7.0169917">
      <time>2020-03-01T06:05:26Z</time>
    </trkpt>
    <trkpt lat="50.8962411" lon="7.0165417">
      <time>2020-03-01T06:05:31Z</time>
    </trkpt>
    <trkpt lat="50.8962765" lon="7.0157846">
      <time>2020-03-01T06:05:40Z</time>
    </trkpt>
    <trkpt lat="50.8962832" lon="7.0156810">
      <time>2020-03-01T06:05:41Z</time>
    </trkpt>
    <trkpt lat="50.8963278" lon="7.0153656">
      <time>2020-03-01T06:05:45Z</time>
    </trkpt>
    <trkpt lat="50.8963567" lon="7.0151865">
      <time>2020-03-01T06:05:47Z</time>
    </trkpt>
    <trkpt lat="50.8964504" lon="7.0148416">
      <time>2020-03-01T06:05:52Z</time>
    </trkpt>
    <trkpt lat="50.8964712" lon="7.0147768">
      <time>2020-03-01T06:05:53Z</time>
    </trkpt>
    <trkpt lat="50.8965054" lon="7.0146335">
      <time>2020-03-01T06:05:55Z</time>
    </trkpt>
    <trkpt lat="50.8965084" lon="7.0145583">
      <time>2020-03-01T06:05:56Z</time>
    </trkpt>
    <trkpt lat="50.8965044" lon="7.0144838">
      <time>2020-03-01T06:05:57Z</time>
    </trkpt>
    <trkpt lat="50.8964966" lon="7.0143375">
      <time>2020-03-01T06:05:59Z</time>
    </trkpt>
    <trkpt lat="50.8965042" lon="7.0142616">
      <time>2020-03-01T06:06:00Z</time>
    </trkpt>
    <trkpt lat="50.8965354" lon="7.0140518">
      <time>2020-03-01T06:06:03Z</time>
    </trkpt>
    <trkpt lat="50.8966124" lon="7.0134297">
      <time>2020-03-01T06:06:11Z</time>
    </trkpt>
    <trkpt lat="50.8967128" lon="7.0127682">
      <time>2020-03-01T06:06:19Z</time>
    </trkpt>
    <trkpt lat="50.8968324" lon="7.0119947">
      <time>2020-03-01T06:06:28Z</time>
    </trkpt>
    <trkpt lat="50.8969069" lon="7.0115605">
      <time>2020-03-01T06:06:33Z</time>
    </trkpt>
    <trkpt lat="50.8969469" lon="7.0112987">
      <time>2020-03-01T06:06:36Z</time>
    </trkpt>
    <trkpt lat="50.8970531" lon="7.0105734">
      <time>2020-03-01T06:06:44Z</time>
    </trkpt>
    <trkpt lat="50.8971292" lon="7.0101005">
      <time>2020-03-01T06:06:49Z</time>
    </trkpt>
    <trkpt lat="50.8971586" lon="7.0099136">
      <time>2020-03-01T06:06:51Z</time>
    </trkpt>
    <trkpt lat="50.8972268" lon="7.0092602">
      <time>2020-03-01T06:06:58Z</time>
    </trkpt>
    <trkpt lat="50.8973412" lon="7.0083726">
      <time>2020-03-01T06:07:08Z</time>
    </trkpt>
    <trkpt lat="50.8973826" lon="7.0080042">
      <time>2020-03-01T06:07:12Z</time>
    </trkpt>
    <trkpt lat="50.8974434" lon="7.0076029">
      <time>2020-03-01T06:07:17Z</time>
    </trkpt>
    <trkpt lat="50.8975289" lon="7.0068920">
      <time>2020-03-01T06:07:25Z</time>
    </trkpt>
    <trkpt lat="50.8975676" lon="7.0066020">
      <time>2020-03-01T06:07:28Z</time>
    </trkpt>
    <trkpt lat="50.8976134" lon="7.0063228">
      <time>2020-03-01T06:07:31Z</time>
    </trkpt>
    <trkpt lat="50.8976590" lon="7.0058228">
      <time>2020-03-01T06:07:36Z</time>
    </trkpt>
    <trkpt lat="50.8976771" lon="7.0056316">
      <time>2020-03-01T06:07:38Z</time>
    </trkpt>
    <trkpt lat="50.8977255" lon="7.0048927">
      <time>2020-03-01T06:07:46Z</time>
    </trkpt>
    <trkpt lat="50.8977439" lon="7.0045282">
      <time>2020-03-01T06:07:50Z</time>
    </trkpt>
    <trkpt lat="50.8977357" lon="7.0043616">
      <time>2020-03-01T06:07:52Z</time>
    </trkpt>
    <trkpt lat="50.8977159" lon="7.0042939">
      <time>2020-03-01T06:07:53Z</time>
    </trkpt>
    <trkpt lat="50.8976769" lon="7.0042382">
      <time>2020-03-01T06:07:54Z</time>
    </trkpt>
    <trkpt lat="50.8976425" lon="7.0042242">
      <time>2020-03-01T06:07:55Z</time>
    </trkpt>
    <trkpt lat="50.8975978" lon="7.0042157">
      <time>2020-03-01T06:07:56Z</time>
    </trkpt>
    <trkpt lat="50.8974082" lon="7.0041749">
      <time>2020-03-01T06:08:00Z</time>
    </trkpt>
    <trkpt lat="50.8973132" lon="7.0041516">
      <time>2020-03-01T06:08:02Z</time>
    </trkpt>
    <trkpt lat="50.8972317" lon="7.0040765">
      <time>2020-03-01T06:08:04Z</time>
    </trkpt>
    <trkpt lat="50.8972159" lon="7.0040082">
      <time>2020-03-01T06:08:05Z</time>
    </trkpt>
    <trkpt lat="50.8972219" lon="7.0039283">
      <time>2020-03-01T06:08:06Z</time>
    </trkpt>
    <trkpt lat="50.8972548" lon="7.0037630">
      <time>2020-03-01T06:08:08Z</time>
    </trkpt>
    <trkpt lat="50.8973586" lon="7.0032557">
      <time>2020-03-01T06:08:14Z</time>
    </trkpt>
    <trkpt lat="50.8973658" lon="7.0031742">
      <time>2020-03-01T06:08:15Z</time>
    </trkpt>
    <trkpt lat="50.8973711" lon="7.0030120">
      <time>2020-03-01T06:08:17Z</time>
    </trkpt>
    <trkpt lat="50.8974105" lon="7.0028664">
      <time>2020-03-01T06:08:19Z</time>
    </trkpt>
    <trkpt lat="50.8975256" lon="7.0024242">
      <time>2020-03-01T06:08:25Z</time>
    </trkpt>
    <trkpt lat="50.8976455" lon="7.0018014">
      <time>2020-03-01T06:08:33Z</time>
    </trkpt>
    <trkpt lat="50.8976744" lon="7.0017304">
      <time>2020-03-01T06:08:34Z</time>
    </trkpt>
    <trkpt lat="50.8977957" lon="7.0014751">
      <time>2020-03-01T06:08:38Z</time>
    </trkpt>
    <trkpt lat="50.8978311" lon="7.0013590">
      <time>2020-03-01T06:08:40Z</time>
    </trkpt>
    <trkpt lat="50.8978645" lon="7.0012259">
      <time>2020-03-01T06:08:42Z</time>
    </trkpt>
    <trkpt lat="50.8979033" lon="7.0010125">
      <time>2020-03-01T06:08:45Z</time>
    </trkpt>
    <trkpt lat="50.8979920" lon="7.0005512">
      <time>2020-03-01T06:08:51Z</time>
    </trkpt>
    <trkpt lat="50.8980231" lon="7.0004782">
      <time>2020-03-01T06:08:52Z</time>
    </trkpt>
    <trkpt lat="50.8980640" lon="7.0004331">
      <time>2020-03-01T06:08:53Z</time>
    </trkpt>
    <trkpt lat="50.8981402" lon="7.0004368">
      <time>2020-03-01T06:08:55Z</time>
    </trkpt>
    <trkpt lat="50.8983566" lon="7.0005408">
      <time>2020-03-01T06:08:59Z</time>
    </trkpt>
    <trkpt lat="50.8984488" lon="7.0004537">
      <time>2020-03-01T06:09:01Z</time>
    </trkpt>
    <trkpt lat="50.8985330" lon="7.0000920">
      <time>2020-03-01T06:09:05Z</time>
    </trkpt>
    <trkpt lat="50.8986742" lon="6.9996858">
      <time>2020-03-01T06:09:10Z</time>
    </trkpt>
    <trkpt lat="50.8988882" lon="6.9990699">
      <time>2020-03-01T06:09:18Z</time>
    </trkpt>
    <trkpt lat="50.8990106" lon="6.9987363">
      <time>2020-03-01T06:09:22Z</time>
    </trkpt>
    <trkpt lat="50.8991294" lon="6.9984380">
      <time>2020-03-01T06:09:26Z</time>
    </trkpt>
    <trkpt lat="50.8993628" lon="6.9978749">
      <time>2020-03-01T06:09:34Z</time>
    </trkpt>
    <trkpt lat="50.8995112" lon="6.9974921">
      <time>2020-03-01T06:09:39Z</time>
    </trkpt>
    <trkpt lat="50.8996885" lon="6.9970648">
      <time>2020-03-01T06:09:45Z</time>
    </trkpt>
    <trkpt lat="50.8997174" lon="6.9969888">
      <time>2020-03-01T06:09:46Z</time>
    </trkpt>
    <trkpt lat="50.8998478" lon="6.9966881">
      <time>2020-03-01T06:09:50Z</time>
    </trkpt>
    <trkpt lat="50.8999367" lon="6.9964574">
      <time>2020-03-01T06:09:53Z</time>
    </trkpt>
    <trkpt lat="50.9001136" lon="6.9959784">
      <time>2020-03-01T06:09:59Z</time>
    </trkpt>
    <trkpt lat="50.9001717" lon="6.9958475">
      <time>2020-03-01T06:10:01Z</time>
    </trkpt>
    <trkpt lat="50.9004435" lon="6.9951990">
      <time>2020-03-01T06:10:09Z</time>
    </trkpt>
    <trkpt lat="50.9007074" lon="6.9946372">
      <time>2020-03-01T06:10:17Z</time>
    </trkpt>
    <trkpt lat="50.9009057" lon="6.9941963">
      <time>2020-03-01T06:10:23Z</time>
    </trkpt>
    <trkpt lat="50.9010255" lon="6.9939563">
      <time>2020-03-01T06:10:26Z</time>
    </trkpt>
    <trkpt lat="50.9011403" lon="6.9937060">
      <time>2020-03-01T06:10:29Z</time>
    </trkpt>
    <trkpt lat="50.9012949" lon="6.9934215">
      <time>2020-03-01T06:10:33Z</time>
    </trkpt>
    <trkpt lat="50.9013393" lon="6.9933497">
      <time>2020-03-01T06:10:34Z</time>
    </trkpt>
    <trkpt lat="50.9013882" lon="6.9932690">
      <time>2020-03-01T06:10:35Z</time>
    </trkpt>
    <trkpt lat="50.9014415" lon="6.9931886">
      <time>2020-03-01T06:10:37Z</time>
    </trkpt>
    <trkpt lat="50.9014637" lon="6.9931413">
      <time>2020-03-01T06:10:38Z</time>
    </trkpt>
    <trkpt lat="50.9015151" lon="6.9930260">
      <time>2020-03-01T06:10:41Z</time>
    </trkpt>
    <trkpt lat="50.9015519" lon="6.9929391">
      <time>2020-03-01T06:10:43Z</time>
    </trkpt>
    <trkpt lat="50.9020045" lon="6.9922776">
      <time>2020-03-01T06:10:47Z</time>
    </trkpt>
    <trkpt lat="50.9020113" lon="6.9921681">
      <time>2020-03-01T06:10:49Z</time>
    </trkpt>
    <trkpt lat="50.9020403" lon="6.9921220">
      <time>2020-03-01T06:10:50Z</time>
    </trkpt>
    <trkpt lat="50.9022701" lon="6.9918481">
      <time>2020-03-01T06:10:55Z</time>
    </trkpt>
    <trkpt lat="50.9025712" lon="6.9914335">
      <time>2020-03-01T06:11:02Z</time>
    </trkpt>
    <trkpt lat="50.9026176" lon="6.9913806">
      <time>2020-03-01T06:11:03Z</time>
    </trkpt>
    <trkpt lat="50.9030727" lon="6.9908287">
      <time>2020-03-01T06:11:13Z</time>
    </trkpt>
    <trkpt lat="50.9033448" lon="6.9905181">
      <time>2020-03-01T06:11:19Z</time>
    </trkpt>
    <trkpt lat="50.9033937" lon="6.9904735">
      <time>2020-03-01T06:11:20Z</time>
    </trkpt>
    <trkpt lat="50.9037916" lon="6.9901365">
      <time>2020-03-01T06:11:28Z</time>
    </trkpt>
    <trkpt lat="50.9038409" lon="6.9901017">
      <time>2020-03-01T06:11:29Z</time>
    </trkpt>
    <trkpt lat="50.9042293" lon="6.9898285">
      <time>2020-03-01T06:11:36Z</time>
    </trkpt>
    <trkpt lat="50.9045374" lon="6.9895470">
      <time>2020-03-01T06:11:41Z</time>
    </trkpt>
    <trkpt lat="50.9048088" lon="6.9892886">
      <time>2020-03-01T06:11:45Z</time>
    </trkpt>
    <trkpt lat="50.9050603" lon="6.9890623">
      <time>2020-03-01T06:11:49Z</time>
    </trkpt>
    <trkpt lat="50.9055716" lon="6.9886252">
      <time>2020-03-01T06:11:57Z</time>
    </trkpt>
    <trkpt lat="50.9056345" lon="6.9885864">
      <time>2020-03-01T06:11:58Z</time>
    </trkpt>
    <trkpt lat="50.9059535" lon="6.9883943">
      <time>2020-03-01T06:12:03Z</time>
    </trkpt>
    <trkpt lat="50.9064415" lon="6.9882425">
      <time>2020-03-01T06:12:10Z</time>
    </trkpt>
    <trkpt lat="50.9068322" lon="6.9881698">
      <time>2020-03-01T06:12:15Z</time>
    </trkpt>
    <trkpt lat="50.9071973" lon="6.9880299">
      <time>2020-03-01T06:12:20Z</time>
    </trkpt>
    <trkpt lat="50.9073354" lon="6.9879537">
      <time>2020-03-01T06:12:22Z</time>
    </trkpt>
    <trkpt lat="50.9077216" lon="6.9877120">
      <time>2020-03-01T06:12:28Z</time>
    </trkpt>
    <trkpt lat="50.9080329" lon="6.9875097">
      <time>2020-03-01T06:12:33Z</time>
    </trkpt>
    <trkpt lat="50.9081497" lon="6.9874354">
      <time>2020-03-01T06:12:35Z</time>
    </trkpt>
    <trkpt lat="50.9082669" lon="6.9873602">
      <time>2020-03-01T06:12:37Z</time>
    </trkpt>
    <trkpt lat="50.9083840" lon="6.9872814">
      <time>2020-03-01T06:12:39Z</time>
    </trkpt>
    <trkpt lat="50.9085662" lon="6.9871616">
      <time>2020-03-01T06:12:42Z</time>
    </trkpt>
    <trkpt lat="50.9087412" lon="6.9870546">
      <time>2020-03-01T06:12:45Z</time>
    </trkpt>
    <trkpt lat="50.9087996" lon="6.9870094">
      <time>2020-03-01T06:12:46Z</time>
    </trkpt>
    <trkpt lat="50.9091317" lon="6.9867309">
      <time>2020-03-01T06:12:52Z</time>
    </trkpt>
    <trkpt lat="50.9091908" lon="6.9867039">
      <time>2020-03-01T06:12:53Z</time>
    </trkpt>
    <trkpt lat="50.9092538" lon="6.9866961">
      <time>2020-03-01T06:12:54Z</time>
    </trkpt>
    <trkpt lat="50.9093659" lon="6.9867438">
      <time>2020-03-01T06:12:56Z</time>
    </trkpt>
    <trkpt lat="50.9094765" lon="6.9868140">
      <time>2020-03-01T06:12:58Z</time>
    </trkpt>
    <trkpt lat="50.9096088" lon="6.9867966">
      <time>2020-03-01T06:13:00Z</time>
    </trkpt>
    <trkpt lat="50.9097993" lon="6.9866429">
      <time>2020-03-01T06:13:03Z</time>
    </trkpt>
    <trkpt lat="50.9098594" lon="6.9865876">
      <time>2020-03-01T06:13:04Z</time>
    </trkpt>
    <trkpt lat="50.9101660" lon="6.9862716">
      <time>2020-03-01T06:13:09Z</time>
    </trkpt>
    <trkpt lat="50.9102100" lon="6.9862486">
      <time>2020-03-01T06:13:10Z</time>
    </trkpt>
    <trkpt lat="50.9102642" lon="6.9862414">
      <time>2020-03-01T06:13:11Z</time>
    </trkpt>
    <trkpt lat="50.9103608" lon="6.9862630">
      <time>2020-03-01T06:13:13Z</time>
    </trkpt>
    <trkpt lat="50.9104131" lon="6.9862747">
      <time>2020-03-01T06:13:14Z</time>
    </trkpt>
    <trkpt lat="50.9105144" lon="6.9862366">
      <time>2020-03-01T06:13:16Z</time>
    </trkpt>
    <trkpt lat="50.9107614" lon="6.9859372">
      <time>2020-03-01T06:13:22Z</time>
    </trkpt>
    <trkpt lat="50.9111207" lon="6.9855080">
      <time>2020-03-01T06:13:30Z</time>
    </trkpt>
    <trkpt lat="50.9113106" lon="6.9852831">
      <time>2020-03-01T06:13:34Z</time>
    </trkpt>
    <trkpt lat="50.9114042" lon="6.9851622">
      <time>2020-03-01T06:13:36Z</time>
    </trkpt>
    <trkpt lat="50.9115000" lon="6.9850524">
      <time>2020-03-01T06:13:38Z</time>
    </trkpt>
    <trkpt lat="50.9119063" lon="6.9845888">
      <time>2020-03-01T06:13:46Z</time>
    </trkpt>
    <trkpt lat="50.9121130" lon="6.9843668">
      <time>2020-03-01T06:13:50Z</time>
    </trkpt>
    <trkpt lat="50.9122722" lon="6.9841889">
      <time>2020-03-01T06:13:53Z</time>
    </trkpt>
    <trkpt lat="50.9123290" lon="6.9841228">
      <time>2020-03-01T06:13:54Z</time>
    </trkpt>
    <trkpt lat="50.9124941" lon="6.9839368">
      <time>2020-03-01T06:13:57Z</time>
    </trkpt>
    <trkpt lat="50.9126603" lon="6.9837552">
      <time>2020-03-01T06:14:00Z</time>
    </trkpt>
    <trkpt lat="50.9127119" lon="6.9836980">
      <time>2020-03-01T06:14:01Z</time>
    </trkpt>
    <trkpt lat="50.9129786" lon="6.9834219">
      <time>2020-03-01T06:14:06Z</time>
    </trkpt>
    <trkpt lat="50.9131345" lon="6.9832645">
      <time>2020-03-01T06:14:09Z</time>
    </trkpt>
    <trkpt lat="50.9135027" lon="6.9829282">
      <time>2020-03-01T06:14:16Z</time>
    </trkpt>
    <trkpt lat="50.9138253" lon="6.9826457">
      <time>2020-03-01T06:14:22Z</time>
    </trkpt>
    <trkpt lat="50.9138783" lon="6.9825994">
      <time>2020-03-01T06:14:23Z</time>
    </trkpt>
    <trkpt lat="50.9140304" lon="6.9824435">
      <time>2020-03-01T06:14:26Z</time>
    </trkpt>
    <trkpt lat="50.9143975" lon="6.9820702">
      <time>2020-03-01T06:14:33Z</time>
    </trkpt>
    <trkpt lat="50.9145136" lon="6.9819607">
      <time>2020-03-01T06:14:35Z</time>
    </trkpt>
    <trkpt lat="50.9149661" lon="6.9815383">
      <time>2020-03-01T06:14:43Z</time>
    </trkpt>
    <trkpt lat="50.9154823" lon="6.9810512">
      <time>2020-03-01T06:14:52Z</time>
    </trkpt>
    <trkpt lat="50.9158251" lon="6.9807358">
      <time>2020-03-01T06:14:58Z</time>
    </trkpt>
    <trkpt lat="50.9163280" lon="6.9802679">
      <time>2020-03-01T06:15:07Z</time>
    </trkpt>
    <trkpt lat="50.9163845" lon="6.9802169">
      <time>2020-03-01T06:15:08Z</time>
    </trkpt>
    <trkpt lat="50.9166776" lon="6.9799289">
      <time>2020-03-01T06:15:14Z</time>
    </trkpt>
    <trkpt lat="50.9167301" lon="6.9798909">
      <time>2020-03-01T06:15:15Z</time>
    </trkpt>
    <trkpt lat="50.9170503" lon="6.9796180">
      <time>2020-03-01T06:15:21Z</time>
    </trkpt>
    <trkpt lat="50.9172100" lon="6.9794840">
      <time>2020-03-01T06:15:24Z</time>
    </trkpt>
    <trkpt lat="50.9175176" lon="6.9792178">
      <time>2020-03-01T06:15:30Z</time>
    </trkpt>
    <trkpt lat="50.9175659" lon="6.9791695">
      <time>2020-03-01T06:15:31Z</time>
    </trkpt>
    <trkpt lat="50.9176622" lon="6.9790732">
      <time>2020-03-01T06:15:33Z</time>
    </trkpt>
    <trkpt lat="50.9178127" lon="6.9789614">
      <time>2020-03-01T06:15:36Z</time>
    </trkpt>
    <trkpt lat="50.9179577" lon="6.9788550">
      <time>2020-03-01T06:15:39Z</time>
    </trkpt>
    <trkpt lat="50.9180635" lon="6.9787679">
      <time>2020-03-01T06:15:41Z</time>
    </trkpt>
    <trkpt lat="50.9181670" lon="6.9786584">
      <time>2020-03-01T06:15:43Z</time>
    </trkpt>
    <trkpt lat="50.9182006" lon="6.9786086">
      <time>2020-03-01T06:15:44Z</time>
    </trkpt>
    <trkpt lat="50.9182405" lon="6.9785466">
      <time>2020-03-01T06:15:45Z</time>
    </trkpt>
    <trkpt lat="50.9183262" lon="6.9784385">
      <time>2020-03-01T06:15:47Z</time>
    </trkpt>
    <trkpt lat="50.9183740" lon="6.9783927">
      <time>2020-03-01T06:15:48Z</time>
    </trkpt>
    <trkpt lat="50.9186439" lon="6.9781905">
      <time>2020-03-01T06:15:53Z</time>
    </trkpt>
    <trkpt lat="50.9187481" lon="6.9781096">
      <time>2020-03-01T06:15:55Z</time>
    </trkpt>
    <trkpt lat="50.9191189" lon="6.9778184">
      <time>2020-03-01T06:16:02Z</time>
    </trkpt>
    <trkpt lat="50.9191733" lon="6.9777799">
      <time>2020-03-01T06:16:03Z</time>
    </trkpt>
    <trkpt lat="50.9196737" lon="6.9774240">
      <time>2020-03-01T06:16:12Z</time>
    </trkpt>
    <trkpt lat="50.9197306" lon="6.9773785">
      <time>2020-03-01T06:16:13Z</time>
    </trkpt>
    <trkpt lat="50.9200585" lon="6.9771139">
      <time>2020-03-01T06:16:19Z</time>
    </trkpt>
    <trkpt lat="50.9203340" lon="6.9769043">
      <time>2020-03-01T06:16:24Z</time>
    </trkpt>
    <trkpt lat="50.9208468" lon="6.9765330">
      <time>2020-03-01T06:16:33Z</time>
    </trkpt>
    <trkpt lat="50.9209047" lon="6.9764895">
      <time>2020-03-01T06:16:34Z</time>
    </trkpt>
    <trkpt lat="50.9213012" lon="6.9762018">
      <time>2020-03-01T06:16:41Z</time>
    </trkpt>
    <trkpt lat="50.9215247" lon="6.9760458">
      <time>2020-03-01T06:16:45Z</time>
    </trkpt>
    <trkpt lat="50.9217575" lon="6.9758889">
      <time>2020-03-01T06:16:49Z</time>
    </trkpt>
    <trkpt lat="50.9218685" lon="6.9758082">
      <time>2020-03-01T06:16:51Z</time>
    </trkpt>
    <trkpt lat="50.9223700" lon="6.9754850">
      <time>2020-03-01T06:17:00Z</time>
    </trkpt>
    <trkpt lat="50.9227583" lon="6.9752342">
      <time>2020-03-01T06:17:07Z</time>
    </trkpt>
    <trkpt lat="50.9231414" lon="6.9749643">
      <time>2020-03-01T06:17:14Z</time>
    </trkpt>
    <trkpt lat="50.9232585" lon="6.9748869">
      <time>2020-03-01T06:17:16Z</time>
    </trkpt>
    <trkpt lat="50.9235520" lon="6.9746984">
      <time>2020-03-01T06:17:21Z</time>
    </trkpt>
    <trkpt lat="50.9237224" lon="6.9745970">
      <time>2020-03-01T06:17:24Z</time>
    </trkpt>
    <trkpt lat="50.9239539" lon="6.9744619">
      <time>2020-03-01T06:17:28Z</time>
    </trkpt>
    <trkpt lat="50.9241176" lon="6.9743816">
      <time>2020-03-01T06:17:31Z</time>
    </trkpt>
    <trkpt lat="50.9245090" lon="6.9741397">
      <time>2020-03-01T06:17:38Z</time>
    </trkpt>
    <trkpt lat="50.9249364" lon="6.9738749">
      <time>2020-03-01T06:17:45Z</time>
    </trkpt>
    <trkpt lat="50.9252447" lon="6.9736876">
      <time>2020-03-01T06:17:50Z</time>
    </trkpt>
    <trkpt lat="50.9255624" lon="6.9735057">
      <time>2020-03-01T06:17:55Z</time>
    </trkpt>
    <trkpt lat="50.9261262" lon="6.9731716">
      <time>2020-03-01T06:18:04Z</time>
    </trkpt>
    <trkpt lat="50.9265857" lon="6.9729695">
      <time>2020-03-01T06:18:11Z</time>
    </trkpt>
    <trkpt lat="50.9270969" lon="6.9727218">
      <time>2020-03-01T06:18:19Z</time>
    </trkpt>
    <trkpt lat="50.9271648" lon="6.9726859">
      <time>2020-03-01T06:18:20Z</time>
    </trkpt>
    <trkpt lat="50.9274291" lon="6.9725506">
      <time>2020-03-01T06:18:24Z</time>
    </trkpt>
    <trkpt lat="50.9275652" lon="6.9725870">
      <time>2020-03-01T06:18:26Z</time>
    </trkpt>
    <trkpt lat="50.9276732" lon="6.9727399">
      <time>2020-03-01T06:18:28Z</time>
    </trkpt>
    <trkpt lat="50.9277155" lon="6.9728387">
      <time>2020-03-01T06:18:29Z</time>
    </trkpt>
    <trkpt lat="50.9278656" lon="6.9732415">
      <time>2020-03-01T06:18:33Z</time>
    </trkpt>
    <trkpt lat="50.9279909" lon="6.9736191">
      <time>2020-03-01T06:18:37Z</time>
    </trkpt>
    <trkpt lat="50.9280141" lon="6.9736838">
      <time>2020-03-01T06:18:38Z</time>
    </trkpt>
    <trkpt lat="50.9280943" lon="6.9737891">
      <time>2020-03-01T06:18:40Z</time>
    </trkpt>
    <trkpt lat="50.9281906" lon="6.9737589">
      <time>2020-03-01T06:18:42Z</time>
    </trkpt>
    <trkpt lat="50.9282314" lon="6.9737273">
      <time>2020-03-01T06:18:43Z</time>
    </trkpt>
    <trkpt lat="50.9283908" lon="6.9735985">
      <time>2020-03-01T06:18:46Z</time>
    </trkpt>
    <trkpt lat="50.9284920" lon="6.9735253">
      <time>2020-03-01T06:18:48Z</time>
    </trkpt>
    <trkpt lat="50.9286364" lon="6.9734042">
      <time>2020-03-01T06:18:51Z</time>
    </trkpt>
    <trkpt lat="50.9287308" lon="6.9733303">
      <time>2020-03-01T06:18:53Z</time>
    </trkpt>
    <trkpt lat="50.9288608" lon="6.9732066">
      <time>2020-03-01T06:18:56Z</time>
    </trkpt>
    <trkpt lat="50.9290298" lon="6.9730703">
      <time>2020-03-01T06:19:00Z</time>
    </trkpt>
    <trkpt lat="50.9293550" lon="6.9727966">
      <time>2020-03-01T06:19:08Z</time>
    </trkpt>
    <trkpt lat="50.9296511" lon="6.9725664">
      <time>2020-03-01T06:19:14Z</time>
    </trkpt>
    <trkpt lat="50.9299035" lon="6.9723842">
      <time>2020-03-01T06:19:19Z</time>
    </trkpt>
    <trkpt lat="50.9300961" lon="6.9722140">
      <time>2020-03-01T06:19:23Z</time>
    </trkpt>
    <trkpt lat="50.9303611" lon="6.9720013">
      <time>2020-03-01T06:19:28Z</time>
    </trkpt>
    <trkpt lat="50.9305697" lon="6.9718371">
      <time>2020-03-01T06:19:32Z</time>
    </trkpt>
    <trkpt lat="50.9309782" lon="6.9715001">
      <time>2020-03-01T06:19:40Z</time>
    </trkpt>
    <trkpt lat="50.9310771" lon="6.9714137">
      <time>2020-03-01T06:19:42Z</time>
    </trkpt>
    <trkpt lat="50.9311222" lon="6.9713750">
      <time>2020-03-01T06:19:43Z</time>
    </trkpt>
    <trkpt lat="50.9314480" lon="6.9711464">
      <time>2020-03-01T06:19:49Z</time>
    </trkpt>
    <trkpt lat="50.9316494" lon="6.9709932">
      <time>2020-03-01T06:19:53Z</time>
    </trkpt>
    <trkpt lat="50.9317684" lon="6.9709539">
      <time>2020-03-01T06:19:55Z</time>
    </trkpt>
    <trkpt lat="50.9321022" lon="6.9708018">
      <time>2020-03-01T06:20:01Z</time>
    </trkpt>
    <trkpt lat="50.9322727" lon="6.9708018">
      <time>2020-03-01T06:20:04Z</time>
    </trkpt>
    <trkpt lat="50.9324134" lon="6.9708228">
      <time>2020-03-01T06:20:07Z</time>
    </trkpt>
    <trkpt lat="50.9324447" lon="6.9708387">
      <time>2020-03-01T06:20:08Z</time>
    </trkpt>
    <trkpt lat="50.9325332" lon="6.9709119">
      <time>2020-03-01T06:20:12Z</time>
    </trkpt>
    <trkpt lat="50.9325745" lon="6.9710173">
      <time>2020-03-01T06:20:17Z</time>
    </trkpt>
    <trkpt lat="50.9325956" lon="6.9710446">
      <time>2020-03-01T06:20:18Z</time>
    </trkpt>
    <trkpt lat="50.9326549" lon="6.9710757">
      <time>2020-03-01T06:20:20Z</time>
    </trkpt>
    <trkpt lat="50.9327008" lon="6.9710746">
      <time>2020-03-01T06:20:21Z</time>
    </trkpt>
    <trkpt lat="50.9329769" lon="6.9710487">
      <time>2020-03-01T06:20:27Z</time>
    </trkpt>
    <trkpt lat="50.9333202" lon="6.9709920">
      <time>2020-03-01T06:20:34Z</time>
    </trkpt>
    <trkpt lat="50.9337152" lon="6.9709289">
      <time>2020-03-01T06:20:42Z</time>
    </trkpt>
    <trkpt lat="50.9338148" lon="6.9709163">
      <time>2020-03-01T06:20:44Z</time>
    </trkpt>
    <trkpt lat="50.9339114" lon="6.9709059">
      <time>2020-03-01T06:20:46Z</time>
    </trkpt>
    <trkpt lat="50.9340128" lon="6.9708915">
      <time>2020-03-01T06:20:48Z</time>
    </trkpt>
    <trkpt lat="50.9340621" lon="6.9708869">
      <time>2020-03-01T06:20:49Z</time>
    </trkpt>
    <trkpt lat="50.9341735" lon="6.9708788">
      <time>2020-03-01T06:20:51Z</time>
    </trkpt>
    <trkpt lat="50.9342744" lon="6.9708814">
      <time>2020-03-01T06:20:53Z</time>
    </trkpt>
    <trkpt lat="50.9344319" lon="6.9708907">
      <time>2020-03-01T06:20:56Z</time>
    </trkpt>
    <trkpt lat="50.9344751" lon="6.9708943">
      <time>2020-03-01T06:20:57Z</time>
    </trkpt>
    <trkpt lat="50.9347722" lon="6.9709371">
      <time>2020-03-01T06:21:03Z</time>
    </trkpt>
    <trkpt lat="50.9348636" lon="6.9709287">
      <time>2020-03-01T06:21:05Z</time>
    </trkpt>
    <trkpt lat="50.9349759" lon="6.9709498">
      <time>2020-03-01T06:21:08Z</time>
    </trkpt>
    <trkpt lat="50.9350557" lon="6.9709786">
      <time>2020-03-01T06:21:10Z</time>
    </trkpt>
    <trkpt lat="50.9352074" lon="6.9710467">
      <time>2020-03-01T06:21:14Z</time>
    </trkpt>
    <trkpt lat="50.9354350" lon="6.9710824">
      <time>2020-03-01T06:21:20Z</time>
    </trkpt>
    <trkpt lat="50.9355354" lon="6.9711226">
      <time>2020-03-01T06:21:22Z</time>
    </trkpt>
    <trkpt lat="50.9356367" lon="6.9711588">
      <time>2020-03-01T06:21:24Z</time>
    </trkpt>
    <trkpt lat="50.9356860" lon="6.9711761">
      <time>2020-03-01T06:21:25Z</time>
    </trkpt>
    <trkpt lat="50.9358750" lon="6.9712082">
      <time>2020-03-01T06:21:29Z</time>
    </trkpt>
    <trkpt lat="50.9359190" lon="6.9712186">
      <time>2020-03-01T06:21:30Z</time>
    </trkpt>
    <trkpt lat="50.9360176" lon="6.9712749">
      <time>2020-03-01T06:21:32Z</time>
    </trkpt>
    <trkpt lat="50.9361171" lon="6.9713239">
      <time>2020-03-01T06:21:34Z</time>
    </trkpt>
    <trkpt lat="50.9361652" lon="6.9713439">
      <time>2020-03-01T06:21:35Z</time>
    </trkpt>
    <trkpt lat="50.9362119" lon="6.9713627">
      <time>2020-03-01T06:21:36Z</time>
    </trkpt>
    <trkpt lat="50.9363683" lon="6.9714564">
      <time>2020-03-01T06:21:39Z</time>
    </trkpt>
    <trkpt lat="50.9365751" lon="6.9715249">
      <time>2020-03-01T06:21:43Z</time>
    </trkpt>
    <trkpt lat="50.9367174" lon="6.9715755">
      <time>2020-03-01T06:21:46Z</time>
    </trkpt>
    <trkpt lat="50.9368639" lon="6.9716211">
      <time>2020-03-01T06:21:49Z</time>
    </trkpt>
    <trkpt lat="50.9369654" lon="6.9716794">
      <time>2020-03-01T06:21:51Z</time>
    </trkpt>
    <trkpt lat="50.9370723" lon="6.9716682">
      <time>2020-03-01T06:21:53Z</time>
    </trkpt>
    <trkpt lat="50.9371297" lon="6.9716506">
      <time>2020-03-01T06:21:54Z</time>
    </trkpt>
    <trkpt lat="50.9371874" lon="6.9716492">
      <time>2020-03-01T06:21:55Z</time>
    </trkpt>
    <trkpt lat="50.9373050" lon="6.9716480">
      <time>2020-03-01T06:21:57Z</time>
    </trkpt>
    <trkpt lat="50.9373629" lon="6.9716514">
      <time>2020-03-01T06:21:58Z</time>
    </trkpt>
    <trkpt lat="50.9376466" lon="6.9715967">
      <time>2020-03-01T06:22:03Z</time>
    </trkpt>
    <trkpt lat="50.9376997" lon="6.9715817">
      <time>2020-03-01T06:22:04Z</time>
    </trkpt>
    <trkpt lat="50.9378162" lon="6.9715679">
      <time>2020-03-01T06:22:06Z</time>
    </trkpt>
    <trkpt lat="50.9379994" lon="6.9715935">
      <time>2020-03-01T06:22:09Z</time>
    </trkpt>
    <trkpt lat="50.9383412" lon="6.9716128">
      <time>2020-03-01T06:22:15Z</time>
    </trkpt>
    <trkpt lat="50.9385097" lon="6.9716919">
      <time>2020-03-01T06:22:18Z</time>
    </trkpt>
    <trkpt lat="50.9386802" lon="6.9717667">
      <time>2020-03-01T06:22:21Z</time>
    </trkpt>
    <trkpt lat="50.9387346" lon="6.9717962">
      <time>2020-03-01T06:22:22Z</time>
    </trkpt>
    <trkpt lat="50.9388349" lon="6.9718877">
      <time>2020-03-01T06:22:24Z</time>
    </trkpt>
    <trkpt lat="50.9388750" lon="6.9719379">
      <time>2020-03-01T06:22:25Z</time>
    </trkpt>
    <trkpt lat="50.9389173" lon="6.9719905">
      <time>2020-03-01T06:22:26Z</time>
    </trkpt>
    <trkpt lat="50.9390455" lon="6.9721495">
      <time>2020-03-01T06:22:29Z</time>
    </trkpt>
    <trkpt lat="50.9390816" lon="6.9722076">
      <time>2020-03-01T06:22:30Z</time>
    </trkpt>
    <trkpt lat="50.9392164" lon="6.9724674">
      <time>2020-03-01T06:22:34Z</time>
    </trkpt>
    <trkpt lat="50.9392821" lon="6.9726182">
      <time>2020-03-01T06:22:36Z</time>
    </trkpt>
    <trkpt lat="50.9393394" lon="6.9727654">
      <time>2020-03-01T06:22:38Z</time>
    </trkpt>
    <trkpt lat="50.9393862" lon="6.9728967">
      <time>2020-03-01T06:22:40Z</time>
    </trkpt>
    <trkpt lat="50.9395392" lon="6.9732332">
      <time>2020-03-01T06:22:46Z</time>
    </trkpt>
    <trkpt lat="50.9396503" lon="6.9733565">
      <time>2020-03-01T06:22:51Z</time>
    </trkpt>
    <trkpt lat="50.9396672" lon="6.9733668">
      <time>2020-03-01T06:22:52Z</time>
    </trkpt>
    <trkpt lat="50.9396863" lon="6.9734355">
      <time>2020-03-01T06:22:54Z</time>
    </trkpt>
    <trkpt lat="50.9396909" lon="6.9734881">
      <time>2020-03-01T06:22:56Z</time>
    </trkpt>
    <trkpt lat="50.9397100" lon="6.9734999">
      <time>2020-03-01T06:22:58Z</time>
    </trkpt>
    <trkpt lat="50.9398561" lon="6.9735130">
      <time>2020-03-01T06:23:04Z</time>
    </trkpt>
    <trkpt lat="50.9399312" lon="6.9735953">
      <time>2020-03-01T06:23:07Z</time>
    </trkpt>
    <trkpt lat="50.9399402" lon="6.9736377">
      <time>2020-03-01T06:23:08Z</time>
    </trkpt>
    <trkpt lat="50.9399330" lon="6.9739908">
      <time>2020-03-01T06:23:14Z</time>
    </trkpt>
    <trkpt lat="50.9399374" lon="6.9744051">
      <time>2020-03-01T06:23:19Z</time>
    </trkpt>
    <trkpt lat="50.9399204" lon="6.9750921">
      <time>2020-03-01T06:23:27Z</time>
    </trkpt>
    <trkpt lat="50.9398828" lon="6.9757134">
      <time>2020-03-01T06:23:34Z</time>
    </trkpt>
    <trkpt lat="50.9398568" lon="6.9760275">
      <time>2020-03-01T06:23:38Z</time>
    </trkpt>
    <trkpt lat="50.9398450" lon="6.9761768">
      <time>2020-03-01T06:23:40Z</time>
    </trkpt>
    <trkpt lat="50.9397975" lon="6.9766595">
      <time>2020-03-01T06:23:46Z</time>
    </trkpt>
    <trkpt lat="50.9397949" lon="6.9769949">
      <time>2020-03-01T06:23:50Z</time>
    </trkpt>
    <trkpt lat="50.9398037" lon="6.9771586">
      <time>2020-03-01T06:23:52Z</time>
    </trkpt>
    <trkpt lat="50.9397697" lon="6.9774163">
      <time>2020-03-01T06:23:55Z</time>
    </trkpt>
    <trkpt lat="50.9397327" lon="6.9778676">
      <time>2020-03-01T06:24:00Z</time>
    </trkpt>
    <trkpt lat="50.9397095" lon="6.9784568">
      <time>2020-03-01T06:24:07Z</time>
    </trkpt>
    <trkpt lat="50.9397198" lon="6.9785370">
      <time>2020-03-01T06:24:08Z</time>
    </trkpt>
    <trkpt lat="50.9397390" lon="6.9786935">
      <time>2020-03-01T06:24:10Z</time>
    </trkpt>
    <trkpt lat="50.9397675" lon="6.9788474">
      <time>2020-03-01T06:24:12Z</time>
    </trkpt>
    <trkpt lat="50.9398051" lon="6.9789765">
      <time>2020-03-01T06:24:14Z</time>
    </trkpt>
    <trkpt lat="50.9398834" lon="6.9790628">
      <time>2020-03-01T06:24:16Z</time>
    </trkpt>
    <trkpt lat="50.9401601" lon="6.9792685">
      <time>2020-03-01T06:24:21Z</time>
    </trkpt>
    <trkpt lat="50.9402579" lon="6.9793890">
      <time>2020-03-01T06:24:23Z</time>
    </trkpt>
    <trkpt lat="50.9403482" lon="6.9794945">
      <time>2020-03-01T06:24:25Z</time>
    </trkpt>
    <trkpt lat="50.9403693" lon="6.9795173">
      <time>2020-03-01T06:24:26Z</time>
    </trkpt>
    <trkpt lat="50.9404347" lon="6.9795733">
      <time>2020-03-01T06:24:28Z</time>
    </trkpt>
    <trkpt lat="50.9404692" lon="6.9796141">
      <time>2020-03-01T06:24:29Z</time>
    </trkpt>
    <trkpt lat="50.9405144" lon="6.9796764">
      <time>2020-03-01T06:24:30Z</time>
    </trkpt>
    <trkpt lat="50.9405999" lon="6.9797875">
      <time>2020-03-01T06:24:32Z</time>
    </trkpt>
    <trkpt lat="50.9408926" lon="6.9798802">
      <time>2020-03-01T06:24:37Z</time>
    </trkpt>
    <trkpt lat="50.9409541" lon="6.9798943">
      <time>2020-03-01T06:24:38Z</time>
    </trkpt>
    <trkpt lat="50.9410850" lon="6.9799107">
      <time>2020-03-01T06:24:40Z</time>
    </trkpt>
    <trkpt lat="50.9411292" lon="6.9799347">
      <time>2020-03-01T06:24:41Z</time>
    </trkpt>
    <trkpt lat="50.9414318" lon="6.9801338">
      <time>2020-03-01T06:24:48Z</time>
    </trkpt>
    <trkpt lat="50.9416517" lon="6.9802523">
      <time>2020-03-01T06:24:53Z</time>
    </trkpt>
    <trkpt lat="50.9417724" lon="6.9803590">
      <time>2020-03-01T06:24:56Z</time>
    </trkpt>
    <trkpt lat="50.9420647" lon="6.9805789">
      <time>2020-03-01T06:25:02Z</time>
    </trkpt>
    <trkpt lat="50.9424008" lon="6.9808303">
      <time>2020-03-01T06:25:09Z</time>
    </trkpt>
    <trkpt lat="50.9425413" lon="6.9809245">
      <time>2020-03-01T06:25:12Z</time>
    </trkpt>
    <trkpt lat="50.9427113" lon="6.9810393">
      <time>2020-03-01T06:25:16Z</time>
    </trkpt>
    <trkpt lat="50.9427536" lon="6.9810711">
      <time>2020-03-01T06:25:17Z</time>
    </trkpt>
    <trkpt lat="50.9428821" lon="6.9811599">
      <time>2020-03-01T06:25:20Z</time>
    </trkpt>
    <trkpt lat="50.9429492" lon="6.9812189">
      <time>2020-03-01T06:25:22Z</time>
    </trkpt>
    <trkpt lat="50.9430683" lon="6.9813130">
      <time>2020-03-01T06:25:25Z</time>
    </trkpt>
    <trkpt lat="50.9431602" lon="6.9813620">
      <time>2020-03-01T06:25:27Z</time>
    </trkpt>
    <trkpt lat="50.9434792" lon="6.9816395">
      <time>2020-03-01T06:25:35Z</time>
    </trkpt>
    <trkpt lat="50.9435684" lon="6.9817088">
      <time>2020-03-01T06:25:37Z</time>
    </trkpt>
    <trkpt lat="50.9437264" lon="6.9818906">
      <time>2020-03-01T06:25:41Z</time>
    </trkpt>
    <trkpt lat="50.9440831" lon="6.9822347">
      <time>2020-03-01T06:25:49Z</time>
    </trkpt>
    <trkpt lat="50.9443653" lon="6.9824638">
      <time>2020-03-01T06:25:55Z</time>
    </trkpt>
    <trkpt lat="50.9443884" lon="6.9824928">
      <time>2020-03-01T06:25:56Z</time>
    </trkpt>
    <trkpt lat="50.9447699" lon="6.9829697">
      <time>2020-03-01T06:26:05Z</time>
    </trkpt>
    <trkpt lat="50.9448476" lon="6.9830695">
      <time>2020-03-01T06:26:07Z</time>
    </trkpt>
    <trkpt lat="50.9449338" lon="6.9831582">
      <time>2020-03-01T06:26:09Z</time>
    </trkpt>
    <trkpt lat="50.9449826" lon="6.9831919">
      <time>2020-03-01T06:26:10Z</time>
    </trkpt>
    <trkpt lat="50.9450336" lon="6.9832379">
      <time>2020-03-01T06:26:11Z</time>
    </trkpt>
    <trkpt lat="50.9452154" lon="6.9834702">
      <time>2020-03-01T06:26:15Z</time>
    </trkpt>
    <trkpt lat="50.9453216" lon="6.9835531">
      <time>2020-03-01T06:26:17Z</time>
    </trkpt>
    <trkpt lat="50.9454741" lon="6.9836879">
      <time>2020-03-01T06:26:20Z</time>
    </trkpt>
    <trkpt lat="50.9456258" lon="6.9838246">
      <time>2020-03-01T06:26:23Z</time>
    </trkpt>
    <trkpt lat="50.9457205" lon="6.9839135">
      <time>2020-03-01T06:26:25Z</time>
    </trkpt>
    <trkpt lat="50.9458527" lon="6.9840515">
      <time>2020-03-01T06:26:28Z</time>
    </trkpt>
    <trkpt lat="50.9459720" lon="6.9842986">
      <time>2020-03-01T06:26:32Z</time>
    </trkpt>
    <trkpt lat="50.9460044" lon="6.9843543">
      <time>2020-03-01T06:26:33Z</time>
    </trkpt>
    <trkpt lat="50.9461343" lon="6.9845014">
      <time>2020-03-01T06:26:36Z</time>
    </trkpt>
    <trkpt lat="50.9465178" lon="6.9848242">
      <time>2020-03-01T06:26:43Z</time>
    </trkpt>
    <trkpt lat="50.9467006" lon="6.9849739">
      <time>2020-03-01T06:26:46Z</time>
    </trkpt>
    <trkpt lat="50.9469421" lon="6.9851901">
      <time>2020-03-01T06:26:50Z</time>
    </trkpt>
    <trkpt lat="50.9471179" lon="6.9853358">
      <time>2020-03-01T06:26:53Z</time>
    </trkpt>
    <trkpt lat="50.9472228" lon="6.9854066">
      <time>2020-03-01T06:26:55Z</time>
    </trkpt>
    <trkpt lat="50.9472772" lon="6.9854489">
      <time>2020-03-01T06:26:56Z</time>
    </trkpt>
    <trkpt lat="50.9475356" lon="6.9856875">
      <time>2020-03-01T06:27:01Z</time>
    </trkpt>
    <trkpt lat="50.9475705" lon="6.9857456">
      <time>2020-03-01T06:27:02Z</time>
    </trkpt>
    <trkpt lat="50.9476363" lon="6.9858464">
      <time>2020-03-01T06:27:03Z</time>
    </trkpt>
    <trkpt lat="50.9476645" lon="6.9858791">
      <time>2020-03-01T06:27:04Z</time>
    </trkpt>
    <trkpt lat="50.9477379" lon="6.9859395">
      <time>2020-03-01T06:27:06Z</time>
    </trkpt>
    <trkpt lat="50.9477754" lon="6.9859653">
      <time>2020-03-01T06:27:07Z</time>
    </trkpt>
    <trkpt lat="50.9479483" lon="6.9860976">
      <time>2020-03-01T06:27:10Z</time>
    </trkpt>
    <trkpt lat="50.9483868" lon="6.9864532">
      <time>2020-03-01T06:27:19Z</time>
    </trkpt>
    <trkpt lat="50.9487346" lon="6.9867417">
      <time>2020-03-01T06:27:26Z</time>
    </trkpt>
    <trkpt lat="50.9487850" lon="6.9867822">
      <time>2020-03-01T06:27:27Z</time>
    </trkpt>
    <trkpt lat="50.9489301" lon="6.9869087">
      <time>2020-03-01T06:27:30Z</time>
    </trkpt>
    <trkpt lat="50.9491403" lon="6.9870897">
      <time>2020-03-01T06:27:34Z</time>
    </trkpt>
    <trkpt lat="50.9493583" lon="6.9872676">
      <time>2020-03-01T06:27:38Z</time>
    </trkpt>
    <trkpt lat="50.9495195" lon="6.9873945">
      <time>2020-03-01T06:27:41Z</time>
    </trkpt>
    <trkpt lat="50.9496167" lon="6.9874721">
      <time>2020-03-01T06:27:43Z</time>
    </trkpt>
    <trkpt lat="50.9497473" lon="6.9875878">
      <time>2020-03-01T06:27:46Z</time>
    </trkpt>
    <trkpt lat="50.9498370" lon="6.9876680">
      <time>2020-03-01T06:27:48Z</time>
    </trkpt>
    <trkpt lat="50.9500381" lon="6.9878373">
      <time>2020-03-01T06:27:52Z</time>
    </trkpt>
    <trkpt lat="50.9503920" lon="6.9881647">
      <time>2020-03-01T06:27:59Z</time>
    </trkpt>
    <trkpt lat="50.9505621" lon="6.9883253">
      <time>2020-03-01T06:28:03Z</time>
    </trkpt>
    <trkpt lat="50.9506514" lon="6.9884058">
      <time>2020-03-01T06:28:05Z</time>
    </trkpt>
    <trkpt lat="50.9506988" lon="6.9884469">
      <time>2020-03-01T06:28:06Z</time>
    </trkpt>
    <trkpt lat="50.9509407" lon="6.9886601">
      <time>2020-03-01T06:28:11Z</time>
    </trkpt>
    <trkpt lat="50.9510948" lon="6.9887908">
      <time>2020-03-01T06:28:14Z</time>
    </trkpt>
    <trkpt lat="50.9514168" lon="6.9890516">
      <time>2020-03-01T06:28:20Z</time>
    </trkpt>
    <trkpt lat="50.9516615" lon="6.9892628">
      <time>2020-03-01T06:28:25Z</time>
    </trkpt>
    <trkpt lat="50.9517098" lon="6.9892964">
      <time>2020-03-01T06:28:26Z</time>
    </trkpt>
    <trkpt lat="50.9517438" lon="6.9893389">
      <time>2020-03-01T06:28:27Z</time>
    </trkpt>
    <trkpt lat="50.9517659" lon="6.9894570">
      <time>2020-03-01T06:28:29Z</time>
    </trkpt>
    <trkpt lat="50.9517310" lon="6.9895771">
      <time>2020-03-01T06:28:31Z</time>
    </trkpt>
    <trkpt lat="50.9517136" lon="6.9896504">
      <time>2020-03-01T06:28:32Z</time>
    </trkpt>
    <trkpt lat="50.9516890" lon="6.9897166">
      <time>2020-03-01T06:28:33Z</time>
    </trkpt>
    <trkpt lat="50.9516248" lon="6.9899037">
      <time>2020-03-01T06:28:36Z</time>
    </trkpt>
    <trkpt lat="50.9516106" lon="6.9899638">
      <time>2020-03-01T06:28:37Z</time>
    </trkpt>
    <trkpt lat="50.9516082" lon="6.9900213">
      <time>2020-03-01T06:28:38Z</time>
    </trkpt>
    <trkpt lat="50.9516327" lon="6.9901178">
      <time>2020-03-01T06:28:40Z</time>
    </trkpt>
    <trkpt lat="50.9516820" lon="6.9901978">
      <time>2020-03-01T06:28:42Z</time>
    </trkpt>
    <trkpt lat="50.9517595" lon="6.9902643">
      <time>2020-03-01T06:28:44Z</time>
    </trkpt>
    <trkpt lat="50.9519557" lon="6.9905019">
      <time>2020-03-01T06:28:50Z</time>
    </trkpt>
    <trkpt lat="50.9519848" lon="6.9906368">
      <time>2020-03-01T06:28:52Z</time>
    </trkpt>
    <trkpt lat="50.9519731" lon="6.9907144">
      <time>2020-03-01T06:28:53Z</time>
    </trkpt>
    <trkpt lat="50.9518991" lon="6.9911181">
      <time>2020-03-01T06:28:58Z</time>
    </trkpt>
    <trkpt lat="50.9518907" lon="6.9912026">
      <time>2020-03-01T06:28:59Z</time>
    </trkpt>
    <trkpt lat="50.9518803" lon="6.9912863">
      <time>2020-03-01T06:29:00Z</time>
    </trkpt>
    <trkpt lat="50.9518290" lon="6.9915835">
      <time>2020-03-01T06:29:04Z</time>
    </trkpt>
    <trkpt lat="50.9518286" lon="6.9916702">
      <time>2020-03-01T06:29:06Z</time>
    </trkpt>
    <trkpt lat="50.9518455" lon="6.9916912">
      <time>2020-03-01T06:29:07Z</time>
    </trkpt>
    <trkpt lat="50.9519477" lon="6.9917475">
      <time>2020-03-01T06:29:10Z</time>
    </trkpt>
    <trkpt lat="50.9521329" lon="6.9918618">
      <time>2020-03-01T06:29:15Z</time>
    </trkpt>
    <trkpt lat="50.9522041" lon="6.9918941">
      <time>2020-03-01T06:29:17Z</time>
    </trkpt>
    <trkpt lat="50.9523549" lon="6.9919817">
      <time>2020-03-01T06:29:21Z</time>
    </trkpt>
    <trkpt lat="50.9524607" lon="6.9920714">
      <time>2020-03-01T06:29:24Z</time>
    </trkpt>
    <trkpt lat="50.9525261" lon="6.9922227">
      <time>2020-03-01T06:29:28Z</time>
    </trkpt>
    <trkpt lat="50.9525470" lon="6.9923425">
      <time>2020-03-01T06:29:31Z</time>
    </trkpt>
    <trkpt lat="50.9525548" lon="6.9924058">
      <time>2020-03-01T06:29:33Z</time>
    </trkpt>
    <trkpt lat="50.9525497" lon="6.9924420">
      <time>2020-03-01T06:29:34Z</time>
    </trkpt>
    <trkpt lat="50.9525440" lon="6.9925527">
      <time>2020-03-01T06:29:38Z</time>
    </trkpt>
    <trkpt lat="50.9525411" lon="6.9925547">
      <time>2020-03-01T06:29:39Z</time>
    </trkpt>
    <trkpt lat="50.9525347" lon="6.9925819">
      <time>2020-03-01T06:29:47Z</time>
    </trkpt>
    <trkpt lat="50.9525323" lon="6.9926200">
      <time>2020-03-01T06:29:49Z</time>
    </trkpt>
    <trkpt lat="50.9525286" lon="6.9926351">
      <time>2020-03-01T06:29:50Z</time>
    </trkpt>
  </trkseg></trk>
</gpx>
