<?xml version="1.0" encoding="UTF-8"?>
<gpx version="1.1" creator="Diary FIT converter" xmlns="http://www.topografix.com/GPX/1/1">
  <trk><name>Running</name><trkseg>
    <trkpt lat="50.9634182" lon="6.8760493">
      <time>2021-01-20T05:40:11Z</time>
    </trkpt>
    <trkpt lat="50.9633302" lon="6.8762648">
      <time>2021-01-20T05:40:15Z</time>
    </trkpt>
    <trkpt lat="50.9633341" lon="6.8763176">
      <time>2021-01-20T05:40:16Z</time>
    </trkpt>
    <trkpt lat="50.9633557" lon="6.8764736">
      <time>2021-01-20T05:40:19Z</time>
    </trkpt>
    <trkpt lat="50.9633276" lon="6.8765202">
      <time>2021-01-20T05:40:21Z</time>
    </trkpt>
    <trkpt lat="50.9633120" lon="6.8765605">
      <time>2021-01-20T05:40:22Z</time>
    </trkpt>
    <trkpt lat="50.9633000" lon="6.8765660">
      <time>2021-01-20T05:40:23Z</time>
    </trkpt>
    <trkpt lat="50.9632724" lon="6.8767522">
      <time>2021-01-20T05:40:29Z</time>
    </trkpt>
    <trkpt lat="50.9632510" lon="6.8767926">
      <time>2021-01-20T05:40:31Z</time>
    </trkpt>
    <trkpt lat="50.9631925" lon="6.8767997">
      <time>2021-01-20T05:40:33Z</time>
    </trkpt>
    <trkpt lat="50.9630063" lon="6.8767621">
      <time>2021-01-20T05:40:38Z</time>
    </trkpt>
    <trkpt lat="50.9628306" lon="6.8766196">
      <time>2021-01-20T05:40:45Z</time>
    </trkpt>
    <trkpt lat="50.9626781" lon="6.8765929">
      <time>2021-01-20T05:40:51Z</time>
    </trkpt>
    <trkpt lat="50.9626781" lon="6.8765929">
      <time>2021-01-20T05:40:52Z</time>
    </trkpt>
    <trkpt lat="50.9625868" lon="6.8765651">
      <time>2021-01-20T05:40:55Z</time>
    </trkpt>
    <trkpt lat="50.9625090" lon="6.8765901">
      <time>2021-01-20T05:40:58Z</time>
    </trkpt>
    <trkpt lat="50.9623688" lon="6.8766062">
      <time>2021-01-20T05:41:04Z</time>
    </trkpt>
    <trkpt lat="50.9621876" lon="6.8765975">
      <time>2021-01-20T05:41:09Z</time>
    </trkpt>
    <trkpt lat="50.9621580" lon="6.8765819">
      <time>2021-01-20T05:41:10Z</time>
    </trkpt>
    <trkpt lat="50.9620109" lon="6.8765181">
      <time>2021-01-20T05:41:16Z</time>
    </trkpt>
    <trkpt lat="50.9619972" lon="6.8765430">
      <time>2021-01-20T05:41:17Z</time>
    </trkpt>
    <trkpt lat="50.9619869" lon="6.8767196">
      <time>2021-01-20T05:41:22Z</time>
    </trkpt>
    <trkpt lat="50.9619931" lon="6.8769748">
      <time>2021-01-20T05:41:29Z</time>
    </trkpt>
    <trkpt lat="50.9620220" lon="6.8772497">
      <time>2021-01-20T05:41:37Z</time>
    </trkpt>
    <trkpt lat="50.9620326" lon="6.8773860">
      <time>2021-01-20T05:41:40Z</time>
    </trkpt>
    <trkpt lat="50.9620516" lon="6.8774779">
      <time>2021-01-20T05:41:43Z</time>
    </trkpt>
    <trkpt lat="50.9620724" lon="6.8776080">
      <time>2021-01-20T05:41:47Z</time>
    </trkpt>
    <trkpt lat="50.9620735" lon="6.8776778">
      <time>2021-01-20T05:41:49Z</time>
    </trkpt>
    <trkpt lat="50.9620752" lon="6.8777912">
      <time>2021-01-20T05:41:52Z</time>
    </trkpt>
    <trkpt lat="50.9620787" lon="6.8778686">
      <time>2021-01-20T05:41:54Z</time>
    </trkpt>
    <trkpt lat="50.9620678" lon="6.8780881">
      <time>2021-01-20T05:42:00Z</time>
    </trkpt>
    <trkpt lat="50.9620770" lon="6.8781719">
      <time>2021-01-20T05:42:02Z</time>
    </trkpt>
    <trkpt lat="50.9620705" lon="6.8783504">
      <time>2021-01-20T05:42:06Z</time>
    </trkpt>
    <trkpt lat="50.9620304" lon="6.8786008">
      <time>2021-01-20T05:42:12Z</time>
    </trkpt>
    <trkpt lat="50.9620457" lon="6.8787124">
      <time>2021-01-20T05:42:16Z</time>
    </trkpt>
    <trkpt lat="50.9620620" lon="6.8787243">
      <time>2021-01-20T05:42:17Z</time>
    </trkpt>
    <trkpt lat="50.9622364" lon="6.8787868">
      <time>2021-01-20T05:42:24Z</time>
    </trkpt>
    <trkpt lat="50.9622636" lon="6.8787834">
      <time>2021-01-20T05:42:25Z</time>
    </trkpt>
    <trkpt lat="50.9624478" lon="6.8788336">
      <time>2021-01-20T05:42:32Z</time>
    </trkpt>
    <trkpt lat="50.9625036" lon="6.8788579">
      <time>2021-01-20T05:42:34Z</time>
    </trkpt>
    <trkpt lat="50.9626454" lon="6.8789413">
      <time>2021-01-20T05:42:40Z</time>
    </trkpt>
    <trkpt lat="50.9628220" lon="6.8790517">
      <time>2021-01-20T05:42:47Z</time>
    </trkpt>
    <trkpt lat="50.9628635" lon="6.8791258">
      <time>2021-01-20T05:42:49Z</time>
    </trkpt>
    <trkpt lat="50.9628690" lon="6.8792088">
      <time>2021-01-20T05:42:51Z</time>
    </trkpt>
    <trkpt lat="50.9628239" lon="6.8795034">
      <time>2021-01-20T05:42:57Z</time>
    </trkpt>
    <trkpt lat="50.9628124" lon="6.8795416">
      <time>2021-01-20T05:42:58Z</time>
    </trkpt>
    <trkpt lat="50.9627633" lon="6.8797939">
      <time>2021-01-20T05:43:05Z</time>
    </trkpt>
    <trkpt lat="50.9627107" lon="6.8800611">
      <time>2021-01-20T05:43:12Z</time>
    </trkpt>
    <trkpt lat="50.9626697" lon="6.8803652">
      <time>2021-01-20T05:43:20Z</time>
    </trkpt>
    <trkpt lat="50.9626355" lon="6.8806534">
      <time>2021-01-20T05:43:27Z</time>
    </trkpt>
    <trkpt lat="50.9626205" lon="6.8807273">
      <time>2021-01-20T05:43:29Z</time>
    </trkpt>
    <trkpt lat="50.9625923" lon="6.8809229">
      <time>2021-01-20T05:43:34Z</time>
    </trkpt>
    <trkpt lat="50.9625614" lon="6.8812312">
      <time>2021-01-20T05:43:42Z</time>
    </trkpt>
    <trkpt lat="50.9625614" lon="6.8812704">
      <time>2021-01-20T05:43:43Z</time>
    </trkpt>
    <trkpt lat="50.9625242" lon="6.8815640">
      <time>2021-01-20T05:43:51Z</time>
    </trkpt>
    <trkpt lat="50.9625224" lon="6.8816017">
      <time>2021-01-20T05:43:52Z</time>
    </trkpt>
    <trkpt lat="50.9625154" lon="6.8816360">
      <time>2021-01-20T05:43:53Z</time>
    </trkpt>
    <trkpt lat="50.9624847" lon="6.8817721">
      <time>2021-01-20T05:43:57Z</time>
    </trkpt>
    <trkpt lat="50.9624451" lon="6.8819732">
      <time>2021-01-20T05:44:03Z</time>
    </trkpt>
    <trkpt lat="50.9624154" lon="6.8822136">
      <time>2021-01-20T05:44:09Z</time>
    </trkpt>
    <trkpt lat="50.9623916" lon="6.8824321">
      <time>2021-01-20T05:44:15Z</time>
    </trkpt>
    <trkpt lat="50.9623620" lon="6.8826242">
      <time>2021-01-20T05:44:20Z</time>
    </trkpt>
    <trkpt lat="50.9623139" lon="6.8828531">
      <time>2021-01-20T05:44:27Z</time>
    </trkpt>
    <trkpt lat="50.9622219" lon="6.8831356">
      <time>2021-01-20T05:44:34Z</time>
    </trkpt>
    <trkpt lat="50.9622081" lon="6.8831739">
      <time>2021-01-20T05:44:35Z</time>
    </trkpt>
    <trkpt lat="50.9622059" lon="6.8832137">
      <time>2021-01-20T05:44:36Z</time>
    </trkpt>
    <trkpt lat="50.9622143" lon="6.8833258">
      <time>2021-01-20T05:44:39Z</time>
    </trkpt>
    <trkpt lat="50.9622037" lon="6.8835976">
      <time>2021-01-20T05:44:46Z</time>
    </trkpt>
    <trkpt lat="50.9621625" lon="6.8838190">
      <time>2021-01-20T05:44:52Z</time>
    </trkpt>
    <trkpt lat="50.9620994" lon="6.8841245">
      <time>2021-01-20T05:45:00Z</time>
    </trkpt>
    <trkpt lat="50.9620911" lon="6.8842375">
      <time>2021-01-20T05:45:03Z</time>
    </trkpt>
    <trkpt lat="50.9620757" lon="6.8842423">
      <time>2021-01-20T05:45:04Z</time>
    </trkpt>
    <trkpt lat="50.9620253" lon="6.8841490">
      <time>2021-01-20T05:45:08Z</time>
    </trkpt>
    <trkpt lat="50.9619630" lon="6.8839019">
      <time>2021-01-20T05:45:15Z</time>
    </trkpt>
    <trkpt lat="50.9618706" lon="6.8836200">
      <time>2021-01-20T05:45:23Z</time>
    </trkpt>
    <trkpt lat="50.9618601" lon="6.8835852">
      <time>2021-01-20T05:45:24Z</time>
    </trkpt>
    <trkpt lat="50.9617696" lon="6.8833340">
      <time>2021-01-20T05:45:31Z</time>
    </trkpt>
    <trkpt lat="50.9617556" lon="6.8832970">
      <time>2021-01-20T05:45:32Z</time>
    </trkpt>
    <trkpt lat="50.9616976" lon="6.8831191">
      <time>2021-01-20T05:45:37Z</time>
    </trkpt>
    <trkpt lat="50.9616265" lon="6.8828341">
      <time>2021-01-20T05:45:45Z</time>
    </trkpt>
    <trkpt lat="50.9615569" lon="6.8825978">
      <time>2021-01-20T05:45:52Z</time>
    </trkpt>
    <trkpt lat="50.9614813" lon="6.8823109">
      <time>2021-01-20T05:46:00Z</time>
    </trkpt>
    <trkpt lat="50.9614577" lon="6.8822422">
      <time>2021-01-20T05:46:02Z</time>
    </trkpt>
    <trkpt lat="50.9614203" lon="6.8820925">
      <time>2021-01-20T05:46:06Z</time>
    </trkpt>
    <trkpt lat="50.9613796" lon="6.8819561">
      <time>2021-01-20T05:46:10Z</time>
    </trkpt>
    <trkpt lat="50.9613300" lon="6.8818071">
      <time>2021-01-20T05:46:14Z</time>
    </trkpt>
    <trkpt lat="50.9612909" lon="6.8816635">
      <time>2021-01-20T05:46:18Z</time>
    </trkpt>
    <trkpt lat="50.9612268" lon="6.8813959">
      <time>2021-01-20T05:46:25Z</time>
    </trkpt>
    <trkpt lat="50.9612078" lon="6.8813175">
      <time>2021-01-20T05:46:27Z</time>
    </trkpt>
    <trkpt lat="50.9611316" lon="6.8810377">
      <time>2021-01-20T05:46:34Z</time>
    </trkpt>
    <trkpt lat="50.9611119" lon="6.8809636">
      <time>2021-01-20T05:46:36Z</time>
    </trkpt>
    <trkpt lat="50.9610727" lon="6.8808067">
      <time>2021-01-20T05:46:40Z</time>
    </trkpt>
    <trkpt lat="50.9610155" lon="6.8806155">
      <time>2021-01-20T05:46:45Z</time>
    </trkpt>
    <trkpt lat="50.9609459" lon="6.8803530">
      <time>2021-01-20T05:46:52Z</time>
    </trkpt>
    <trkpt lat="50.9609353" lon="6.8803153">
      <time>2021-01-20T05:46:53Z</time>
    </trkpt>
    <trkpt lat="50.9608753" lon="6.8800444">
      <time>2021-01-20T05:47:00Z</time>
    </trkpt>
    <trkpt lat="50.9608432" lon="6.8799325">
      <time>2021-01-20T05:47:03Z</time>
    </trkpt>
    <trkpt lat="50.9607748" lon="6.8796288">
      <time>2021-01-20T05:47:11Z</time>
    </trkpt>
    <trkpt lat="50.9607624" lon="6.8795469">
      <time>2021-01-20T05:47:13Z</time>
    </trkpt>
    <trkpt lat="50.9607718" lon="6.8792905">
      <time>2021-01-20T05:47:20Z</time>
    </trkpt>
    <trkpt lat="50.9608435" lon="6.8789994">
      <time>2021-01-20T05:47:28Z</time>
    </trkpt>
    <trkpt lat="50.9608551" lon="6.8789634">
      <time>2021-01-20T05:47:29Z</time>
    </trkpt>
    <trkpt lat="50.9609225" lon="6.8787789">
      <time>2021-01-20T05:47:35Z</time>
    </trkpt>
    <trkpt lat="50.9610282" lon="6.8786441">
      <time>2021-01-20T05:47:41Z</time>
    </trkpt>
    <trkpt lat="50.9610968" lon="6.8785440">
      <time>2021-01-20T05:47:45Z</time>
    </trkpt>
    <trkpt lat="50.9611084" lon="6.8785216">
      <time>2021-01-20T05:47:46Z</time>
    </trkpt>
    <trkpt lat="50.9612511" lon="6.8784070">
      <time>2021-01-20T05:47:53Z</time>
    </trkpt>
    <trkpt lat="50.9614342" lon="6.8784413">
      <time>2021-01-20T05:48:01Z</time>
    </trkpt>
    <trkpt lat="50.9614595" lon="6.8784516">
      <time>2021-01-20T05:48:02Z</time>
    </trkpt>
    <trkpt lat="50.9616503" lon="6.8784881">
      <time>2021-01-20T05:48:10Z</time>
    </trkpt>
    <trkpt lat="50.9616741" lon="6.8784946">
      <time>2021-01-20T05:48:11Z</time>
    </trkpt>
    <trkpt lat="50.9618583" lon="6.8785461">
      <time>2021-01-20T05:48:19Z</time>
    </trkpt>
    <trkpt lat="50.9618796" lon="6.8785603">
      <time>2021-01-20T05:48:20Z</time>
    </trkpt>
    <trkpt lat="50.9620582" lon="6.8786422">
      <time>2021-01-20T05:48:27Z</time>
    </trkpt>
    <trkpt lat="50.9620857" lon="6.8786606">
      <time>2021-01-20T05:48:28Z</time>
    </trkpt>
    <trkpt lat="50.9622348" lon="6.8787434">
      <time>2021-01-20T05:48:35Z</time>
    </trkpt>
    <trkpt lat="50.9624205" lon="6.8788358">
      <time>2021-01-20T05:48:44Z</time>
    </trkpt>
    <trkpt lat="50.9626195" lon="6.8789112">
      <time>2021-01-20T05:48:52Z</time>
    </trkpt>
    <trkpt lat="50.9627199" lon="6.8789712">
      <time>2021-01-20T05:48:57Z</time>
    </trkpt>
    <trkpt lat="50.9627364" lon="6.8789905">
      <time>2021-01-20T05:48:58Z</time>
    </trkpt>
    <trkpt lat="50.9627721" lon="6.8790522">
      <time>2021-01-20T05:49:00Z</time>
    </trkpt>
    <trkpt lat="50.9627972" lon="6.8791763">
      <time>2021-01-20T05:49:03Z</time>
    </trkpt>
    <trkpt lat="50.9627977" lon="6.8794397">
      <time>2021-01-20T05:49:08Z</time>
    </trkpt>
    <trkpt lat="50.9627775" lon="6.8797246">
      <time>2021-01-20T05:49:15Z</time>
    </trkpt>
    <trkpt lat="50.9627660" lon="6.8800384">
      <time>2021-01-20T05:49:23Z</time>
    </trkpt>
    <trkpt lat="50.9627231" lon="6.8802960">
      <time>2021-01-20T05:49:30Z</time>
    </trkpt>
    <trkpt lat="50.9626844" lon="6.8805281">
      <time>2021-01-20T05:49:36Z</time>
    </trkpt>
    <trkpt lat="50.9626726" lon="6.8806141">
      <time>2021-01-20T05:49:38Z</time>
    </trkpt>
    <trkpt lat="50.9626333" lon="6.8809082">
      <time>2021-01-20T05:49:45Z</time>
    </trkpt>
    <trkpt lat="50.9626192" lon="6.8811545">
      <time>2021-01-20T05:49:51Z</time>
    </trkpt>
    <trkpt lat="50.9625885" lon="6.8814205">
      <time>2021-01-20T05:49:58Z</time>
    </trkpt>
    <trkpt lat="50.9625334" lon="6.8817277">
      <time>2021-01-20T05:50:06Z</time>
    </trkpt>
    <trkpt lat="50.9624802" lon="6.8819451">
      <time>2021-01-20T05:50:12Z</time>
    </trkpt>
    <trkpt lat="50.9624267" lon="6.8822002">
      <time>2021-01-20T05:50:19Z</time>
    </trkpt>
    <trkpt lat="50.9624073" lon="6.8824699">
      <time>2021-01-20T05:50:26Z</time>
    </trkpt>
    <trkpt lat="50.9623901" lon="6.8825053">
      <time>2021-01-20T05:50:27Z</time>
    </trkpt>
    <trkpt lat="50.9623214" lon="6.8827964">
      <time>2021-01-20T05:50:35Z</time>
    </trkpt>
    <trkpt lat="50.9622813" lon="6.8828934">
      <time>2021-01-20T05:50:38Z</time>
    </trkpt>
    <trkpt lat="50.9622634" lon="6.8829954">
      <time>2021-01-20T05:50:41Z</time>
    </trkpt>
    <trkpt lat="50.9622404" lon="6.8832492">
      <time>2021-01-20T05:50:48Z</time>
    </trkpt>
    <trkpt lat="50.9622333" lon="6.8833185">
      <time>2021-01-20T05:50:50Z</time>
    </trkpt>
    <trkpt lat="50.9622047" lon="6.8836001">
      <time>2021-01-20T05:50:56Z</time>
    </trkpt>
    <trkpt lat="50.9621991" lon="6.8836817">
      <time>2021-01-20T05:50:58Z</time>
    </trkpt>
    <trkpt lat="50.9621818" lon="6.8839046">
      <time>2021-01-20T05:51:04Z</time>
    </trkpt>
    <trkpt lat="50.9621573" lon="6.8841181">
      <time>2021-01-20T05:51:10Z</time>
    </trkpt>
    <trkpt lat="50.9620924" lon="6.8842603">
      <time>2021-01-20T05:51:15Z</time>
    </trkpt>
    <trkpt lat="50.9620737" lon="6.8842489">
      <time>2021-01-20T05:51:16Z</time>
    </trkpt>
    <trkpt lat="50.9620266" lon="6.8841919">
      <time>2021-01-20T05:51:18Z</time>
    </trkpt>
    <trkpt lat="50.9619958" lon="6.8840795">
      <time>2021-01-20T05:51:21Z</time>
    </trkpt>
    <trkpt lat="50.9619153" lon="6.8837971">
      <time>2021-01-20T05:51:28Z</time>
    </trkpt>
    <trkpt lat="50.9618907" lon="6.8837277">
      <time>2021-01-20T05:51:30Z</time>
    </trkpt>
    <trkpt lat="50.9618010" lon="6.8834670">
      <time>2021-01-20T05:51:37Z</time>
    </trkpt>
    <trkpt lat="50.9617766" lon="6.8833851">
      <time>2021-01-20T05:51:39Z</time>
    </trkpt>
    <trkpt lat="50.9617062" lon="6.8830875">
      <time>2021-01-20T05:51:46Z</time>
    </trkpt>
    <trkpt lat="50.9616447" lon="6.8828605">
      <time>2021-01-20T05:51:52Z</time>
    </trkpt>
    <trkpt lat="50.9615547" lon="6.8826131">
      <time>2021-01-20T05:51:59Z</time>
    </trkpt>
    <trkpt lat="50.9615441" lon="6.8825832">
      <time>2021-01-20T05:52:00Z</time>
    </trkpt>
    <trkpt lat="50.9614864" lon="6.8823067">
      <time>2021-01-20T05:52:08Z</time>
    </trkpt>
    <trkpt lat="50.9614721" lon="6.8822408">
      <time>2021-01-20T05:52:10Z</time>
    </trkpt>
    <trkpt lat="50.9614362" lon="6.8821178">
      <time>2021-01-20T05:52:13Z</time>
    </trkpt>
    <trkpt lat="50.9614098" lon="6.8819812">
      <time>2021-01-20T05:52:17Z</time>
    </trkpt>
    <trkpt lat="50.9613408" lon="6.8817149">
      <time>2021-01-20T05:52:25Z</time>
    </trkpt>
    <trkpt lat="50.9613270" lon="6.8816725">
      <time>2021-01-20T05:52:26Z</time>
    </trkpt>
    <trkpt lat="50.9612449" lon="6.8813885">
      <time>2021-01-20T05:52:34Z</time>
    </trkpt>
    <trkpt lat="50.9612179" lon="6.8812703">
      <time>2021-01-20T05:52:37Z</time>
    </trkpt>
    <trkpt lat="50.9611441" lon="6.8810274">
      <time>2021-01-20T05:52:44Z</time>
    </trkpt>
    <trkpt lat="50.9610824" lon="6.8807817">
      <time>2021-01-20T05:52:52Z</time>
    </trkpt>
    <trkpt lat="50.9610030" lon="6.8804892">
      <time>2021-01-20T05:53:00Z</time>
    </trkpt>
    <trkpt lat="50.9609945" lon="6.8804513">
      <time>2021-01-20T05:53:01Z</time>
    </trkpt>
    <trkpt lat="50.9609195" lon="6.8801822">
      <time>2021-01-20T05:53:08Z</time>
    </trkpt>
    <trkpt lat="50.9609113" lon="6.8801440">
      <time>2021-01-20T05:53:09Z</time>
    </trkpt>
    <trkpt lat="50.9608540" lon="6.8799121">
      <time>2021-01-20T05:53:15Z</time>
    </trkpt>
    <trkpt lat="50.9608423" lon="6.8798735">
      <time>2021-01-20T05:53:16Z</time>
    </trkpt>
    <trkpt lat="50.9607840" lon="6.8795888">
      <time>2021-01-20T05:53:23Z</time>
    </trkpt>
    <trkpt lat="50.9607742" lon="6.8792917">
      <time>2021-01-20T05:53:30Z</time>
    </trkpt>
    <trkpt lat="50.9608542" lon="6.8790230">
      <time>2021-01-20T05:53:37Z</time>
    </trkpt>
    <trkpt lat="50.9608940" lon="6.8789099">
      <time>2021-01-20T05:53:40Z</time>
    </trkpt>
    <trkpt lat="50.9609774" lon="6.8787236">
      <time>2021-01-20T05:53:46Z</time>
    </trkpt>
    <trkpt lat="50.9610345" lon="6.8786214">
      <time>2021-01-20T05:53:50Z</time>
    </trkpt>
    <trkpt lat="50.9611295" lon="6.8785250">
      <time>2021-01-20T05:53:55Z</time>
    </trkpt>
    <trkpt lat="50.9612239" lon="6.8784354">
      <time>2021-01-20T05:54:00Z</time>
    </trkpt>
    <trkpt lat="50.9612451" lon="6.8784347">
      <time>2021-01-20T05:54:01Z</time>
    </trkpt>
    <trkpt lat="50.9613215" lon="6.8784403">
      <time>2021-01-20T05:54:05Z</time>
    </trkpt>
    <trkpt lat="50.9615064" lon="6.8784838">
      <time>2021-01-20T05:54:12Z</time>
    </trkpt>
    <trkpt lat="50.9617067" lon="6.8785506">
      <time>2021-01-20T05:54:19Z</time>
    </trkpt>
    <trkpt lat="50.9618070" lon="6.8785795">
      <time>2021-01-20T05:54:22Z</time>
    </trkpt>
    <trkpt lat="50.9620033" lon="6.8786668">
      <time>2021-01-20T05:54:29Z</time>
    </trkpt>
    <trkpt lat="50.9620637" lon="6.8786927">
      <time>2021-01-20T05:54:31Z</time>
    </trkpt>
    <trkpt lat="50.9622207" lon="6.8787670">
      <time>2021-01-20T05:54:38Z</time>
    </trkpt>
    <trkpt lat="50.9623828" lon="6.8788201">
      <time>2021-01-20T05:54:45Z</time>
    </trkpt>
    <trkpt lat="50.9625751" lon="6.8789004">
      <time>2021-01-20T05:54:53Z</time>
    </trkpt>
    <trkpt lat="50.9627555" lon="6.8790040">
      <time>2021-01-20T05:55:00Z</time>
    </trkpt>
    <trkpt lat="50.9628091" lon="6.8791496">
      <time>2021-01-20T05:55:04Z</time>
    </trkpt>
    <trkpt lat="50.9628115" lon="6.8791908">
      <time>2021-01-20T05:55:05Z</time>
    </trkpt>
    <trkpt lat="50.9627905" lon="6.8794524">
      <time>2021-01-20T05:55:11Z</time>
    </trkpt>
    <trkpt lat="50.9627766" lon="6.8797019">
      <time>2021-01-20T05:55:17Z</time>
    </trkpt>
    <trkpt lat="50.9627688" lon="6.8800268">
      <time>2021-01-20T05:55:25Z</time>
    </trkpt>
    <trkpt lat="50.9627437" lon="6.8802558">
      <time>2021-01-20T05:55:31Z</time>
    </trkpt>
    <trkpt lat="50.9627118" lon="6.8805411">
      <time>2021-01-20T05:55:38Z</time>
    </trkpt>
    <trkpt lat="50.9627090" lon="6.8805834">
      <time>2021-01-20T05:55:39Z</time>
    </trkpt>
    <trkpt lat="50.9626654" lon="6.8808824">
      <time>2021-01-20T05:55:47Z</time>
    </trkpt>
    <trkpt lat="50.9626553" lon="6.8809184">
      <time>2021-01-20T05:55:48Z</time>
    </trkpt>
    <trkpt lat="50.9626109" lon="6.8812261">
      <time>2021-01-20T05:55:56Z</time>
    </trkpt>
    <trkpt lat="50.9626082" lon="6.8812605">
      <time>2021-01-20T05:55:57Z</time>
    </trkpt>
    <trkpt lat="50.9625729" lon="6.8815256">
      <time>2021-01-20T05:56:04Z</time>
    </trkpt>
    <trkpt lat="50.9625609" lon="6.8815979">
      <time>2021-01-20T05:56:06Z</time>
    </trkpt>
    <trkpt lat="50.9625051" lon="6.8818996">
      <time>2021-01-20T05:56:14Z</time>
    </trkpt>
    <trkpt lat="50.9624559" lon="6.8821732">
      <time>2021-01-20T05:56:21Z</time>
    </trkpt>
    <trkpt lat="50.9624460" lon="6.8822162">
      <time>2021-01-20T05:56:22Z</time>
    </trkpt>
    <trkpt lat="50.9624055" lon="6.8824952">
      <time>2021-01-20T05:56:29Z</time>
    </trkpt>
    <trkpt lat="50.9623836" lon="6.8825621">
      <time>2021-01-20T05:56:31Z</time>
    </trkpt>
    <trkpt lat="50.9623525" lon="6.8827456">
      <time>2021-01-20T05:56:36Z</time>
    </trkpt>
    <trkpt lat="50.9623184" lon="6.8829471">
      <time>2021-01-20T05:56:42Z</time>
    </trkpt>
    <trkpt lat="50.9623139" lon="6.8830376">
      <time>2021-01-20T05:56:45Z</time>
    </trkpt>
    <trkpt lat="50.9622840" lon="6.8831103">
      <time>2021-01-20T05:56:47Z</time>
    </trkpt>
    <trkpt lat="50.9622562" lon="6.8833785">
      <time>2021-01-20T05:56:54Z</time>
    </trkpt>
    <trkpt lat="50.9622316" lon="6.8836042">
      <time>2021-01-20T05:57:00Z</time>
    </trkpt>
    <trkpt lat="50.9622052" lon="6.8838403">
      <time>2021-01-20T05:57:06Z</time>
    </trkpt>
    <trkpt lat="50.9621741" lon="6.8840486">
      <time>2021-01-20T05:57:12Z</time>
    </trkpt>
    <trkpt lat="50.9621510" lon="6.8841741">
      <time>2021-01-20T05:57:16Z</time>
    </trkpt>
    <trkpt lat="50.9621472" lon="6.8842063">
      <time>2021-01-20T05:57:17Z</time>
    </trkpt>
    <trkpt lat="50.9621343" lon="6.8842327">
      <time>2021-01-20T05:57:18Z</time>
    </trkpt>
    <trkpt lat="50.9621077" lon="6.8842274">
      <time>2021-01-20T05:57:20Z</time>
    </trkpt>
    <trkpt lat="50.9619912" lon="6.8839685">
      <time>2021-01-20T05:57:27Z</time>
    </trkpt>
    <trkpt lat="50.9619637" lon="6.8838845">
      <time>2021-01-20T05:57:29Z</time>
    </trkpt>
    <trkpt lat="50.9618958" lon="6.8836828">
      <time>2021-01-20T05:57:34Z</time>
    </trkpt>
    <trkpt lat="50.9618378" lon="6.8835295">
      <time>2021-01-20T05:57:38Z</time>
    </trkpt>
    <trkpt lat="50.9617679" lon="6.8832520">
      <time>2021-01-20T05:57:45Z</time>
    </trkpt>
    <trkpt lat="50.9617547" lon="6.8832108">
      <time>2021-01-20T05:57:46Z</time>
    </trkpt>
    <trkpt lat="50.9616971" lon="6.8829607">
      <time>2021-01-20T05:57:53Z</time>
    </trkpt>
    <trkpt lat="50.9616091" lon="6.8826738">
      <time>2021-01-20T05:58:01Z</time>
    </trkpt>
    <trkpt lat="50.9615967" lon="6.8826338">
      <time>2021-01-20T05:58:02Z</time>
    </trkpt>
    <trkpt lat="50.9615240" lon="6.8823829">
      <time>2021-01-20T05:58:10Z</time>
    </trkpt>
    <trkpt lat="50.9615165" lon="6.8823461">
      <time>2021-01-20T05:58:11Z</time>
    </trkpt>
    <trkpt lat="50.9614382" lon="6.8820698">
      <time>2021-01-20T05:58:19Z</time>
    </trkpt>
    <trkpt lat="50.9614266" lon="6.8820354">
      <time>2021-01-20T05:58:20Z</time>
    </trkpt>
    <trkpt lat="50.9613351" lon="6.8817488">
      <time>2021-01-20T05:58:28Z</time>
    </trkpt>
    <trkpt lat="50.9612550" lon="6.8814557">
      <time>2021-01-20T05:58:36Z</time>
    </trkpt>
    <trkpt lat="50.9612488" lon="6.8814186">
      <time>2021-01-20T05:58:37Z</time>
    </trkpt>
    <trkpt lat="50.9611752" lon="6.8811530">
      <time>2021-01-20T05:58:44Z</time>
    </trkpt>
    <trkpt lat="50.9611566" lon="6.8810919">
      <time>2021-01-20T05:58:46Z</time>
    </trkpt>
    <trkpt lat="50.9610725" lon="6.8808184">
      <time>2021-01-20T05:58:53Z</time>
    </trkpt>
    <trkpt lat="50.9610105" lon="6.8805917">
      <time>2021-01-20T05:58:59Z</time>
    </trkpt>
    <trkpt lat="50.9609315" lon="6.8803059">
      <time>2021-01-20T05:59:06Z</time>
    </trkpt>
    <trkpt lat="50.9609168" lon="6.8802667">
      <time>2021-01-20T05:59:07Z</time>
    </trkpt>
    <trkpt lat="50.9608371" lon="6.8799985">
      <time>2021-01-20T05:59:14Z</time>
    </trkpt>
    <trkpt lat="50.9608184" lon="6.8799183">
      <time>2021-01-20T05:59:16Z</time>
    </trkpt>
    <trkpt lat="50.9607672" lon="6.8796327">
      <time>2021-01-20T05:59:23Z</time>
    </trkpt>
    <trkpt lat="50.9607516" lon="6.8795540">
      <time>2021-01-20T05:59:25Z</time>
    </trkpt>
    <trkpt lat="50.9607519" lon="6.8793071">
      <time>2021-01-20T05:59:31Z</time>
    </trkpt>
    <trkpt lat="50.9608319" lon="6.8790085">
      <time>2021-01-20T05:59:38Z</time>
    </trkpt>
    <trkpt lat="50.9609477" lon="6.8787560">
      <time>2021-01-20T05:59:46Z</time>
    </trkpt>
    <trkpt lat="50.9610599" lon="6.8785722">
      <time>2021-01-20T05:59:54Z</time>
    </trkpt>
    <trkpt lat="50.9611628" lon="6.8784355">
      <time>2021-01-20T06:00:00Z</time>
    </trkpt>
    <trkpt lat="50.9612917" lon="6.8784033">
      <time>2021-01-20T06:00:06Z</time>
    </trkpt>
    <trkpt lat="50.9614669" lon="6.8784876">
      <time>2021-01-20T06:00:13Z</time>
    </trkpt>
    <trkpt lat="50.9615047" lon="6.8784966">
      <time>2021-01-20T06:00:14Z</time>
    </trkpt>
    <trkpt lat="50.9616896" lon="6.8785154">
      <time>2021-01-20T06:00:21Z</time>
    </trkpt>
    <trkpt lat="50.9617355" lon="6.8785290">
      <time>2021-01-20T06:00:23Z</time>
    </trkpt>
    <trkpt lat="50.9619148" lon="6.8786118">
      <time>2021-01-20T06:00:30Z</time>
    </trkpt>
    <trkpt lat="50.9619346" lon="6.8786248">
      <time>2021-01-20T06:00:31Z</time>
    </trkpt>
    <trkpt lat="50.9620896" lon="6.8787157">
      <time>2021-01-20T06:00:39Z</time>
    </trkpt>
    <trkpt lat="50.9622848" lon="6.8787911">
      <time>2021-01-20T06:00:46Z</time>
    </trkpt>
    <trkpt lat="50.9623361" lon="6.8788088">
      <time>2021-01-20T06:00:48Z</time>
    </trkpt>
    <trkpt lat="50.9625309" lon="6.8789101">
      <time>2021-01-20T06:00:55Z</time>
    </trkpt>
    <trkpt lat="50.9626942" lon="6.8789895">
      <time>2021-01-20T06:01:01Z</time>
    </trkpt>
    <trkpt lat="50.9627757" lon="6.8790748">
      <time>2021-01-20T06:01:04Z</time>
    </trkpt>
    <trkpt lat="50.9628036" lon="6.8791379">
      <time>2021-01-20T06:01:06Z</time>
    </trkpt>
    <trkpt lat="50.9627939" lon="6.8793717">
      <time>2021-01-20T06:01:11Z</time>
    </trkpt>
    <trkpt lat="50.9628000" lon="6.8796198">
      <time>2021-01-20T06:01:17Z</time>
    </trkpt>
    <trkpt lat="50.9627780" lon="6.8798576">
      <time>2021-01-20T06:01:23Z</time>
    </trkpt>
    <trkpt lat="50.9627614" lon="6.8801194">
      <time>2021-01-20T06:01:30Z</time>
    </trkpt>
    <trkpt lat="50.9627326" lon="6.8803296">
      <time>2021-01-20T06:01:35Z</time>
    </trkpt>
    <trkpt lat="50.9627114" lon="6.8804777">
      <time>2021-01-20T06:01:39Z</time>
    </trkpt>
    <trkpt lat="50.9626486" lon="6.8807811">
      <time>2021-01-20T06:01:47Z</time>
    </trkpt>
    <trkpt lat="50.9625752" lon="6.8810496">
      <time>2021-01-20T06:01:55Z</time>
    </trkpt>
    <trkpt lat="50.9625311" lon="6.8813598">
      <time>2021-01-20T06:02:04Z</time>
    </trkpt>
    <trkpt lat="50.9625168" lon="6.8814227">
      <time>2021-01-20T06:02:06Z</time>
    </trkpt>
    <trkpt lat="50.9624894" lon="6.8816148">
      <time>2021-01-20T06:02:12Z</time>
    </trkpt>
    <trkpt lat="50.9624422" lon="6.8818835">
      <time>2021-01-20T06:02:20Z</time>
    </trkpt>
    <trkpt lat="50.9623938" lon="6.8822022">
      <time>2021-01-20T06:02:27Z</time>
    </trkpt>
    <trkpt lat="50.9623845" lon="6.8822842">
      <time>2021-01-20T06:02:29Z</time>
    </trkpt>
    <trkpt lat="50.9623406" lon="6.8825732">
      <time>2021-01-20T06:02:37Z</time>
    </trkpt>
    <trkpt lat="50.9623327" lon="6.8826058">
      <time>2021-01-20T06:02:38Z</time>
    </trkpt>
    <trkpt lat="50.9622976" lon="6.8828225">
      <time>2021-01-20T06:02:45Z</time>
    </trkpt>
    <trkpt lat="50.9622958" lon="6.8830108">
      <time>2021-01-20T06:02:51Z</time>
    </trkpt>
    <trkpt lat="50.9622875" lon="6.8832641">
      <time>2021-01-20T06:02:58Z</time>
    </trkpt>
    <trkpt lat="50.9622518" lon="6.8835645">
      <time>2021-01-20T06:03:06Z</time>
    </trkpt>
    <trkpt lat="50.9622043" lon="6.8838415">
      <time>2021-01-20T06:03:13Z</time>
    </trkpt>
    <trkpt lat="50.9621704" lon="6.8840200">
      <time>2021-01-20T06:03:18Z</time>
    </trkpt>
    <trkpt lat="50.9621376" lon="6.8841738">
      <time>2021-01-20T06:03:23Z</time>
    </trkpt>
    <trkpt lat="50.9621232" lon="6.8841857">
      <time>2021-01-20T06:03:24Z</time>
    </trkpt>
    <trkpt lat="50.9620807" lon="6.8841416">
      <time>2021-01-20T06:03:27Z</time>
    </trkpt>
    <trkpt lat="50.9619966" lon="6.8839196">
      <time>2021-01-20T06:03:34Z</time>
    </trkpt>
    <trkpt lat="50.9618919" lon="6.8836578">
      <time>2021-01-20T06:03:41Z</time>
    </trkpt>
    <trkpt lat="50.9618826" lon="6.8836314">
      <time>2021-01-20T06:03:42Z</time>
    </trkpt>
    <trkpt lat="50.9617949" lon="6.8833822">
      <time>2021-01-20T06:03:49Z</time>
    </trkpt>
    <trkpt lat="50.9617193" lon="6.8830981">
      <time>2021-01-20T06:03:56Z</time>
    </trkpt>
    <trkpt lat="50.9616259" lon="6.8828252">
      <time>2021-01-20T06:04:03Z</time>
    </trkpt>
    <trkpt lat="50.9616034" lon="6.8827458">
      <time>2021-01-20T06:04:05Z</time>
    </trkpt>
    <trkpt lat="50.9615385" lon="6.8825762">
      <time>2021-01-20T06:04:10Z</time>
    </trkpt>
    <trkpt lat="50.9615145" lon="6.8825096">
      <time>2021-01-20T06:04:12Z</time>
    </trkpt>
    <trkpt lat="50.9614288" lon="6.8822212">
      <time>2021-01-20T06:04:19Z</time>
    </trkpt>
    <trkpt lat="50.9614191" lon="6.8821879">
      <time>2021-01-20T06:04:20Z</time>
    </trkpt>
    <trkpt lat="50.9613434" lon="6.8819256">
      <time>2021-01-20T06:04:26Z</time>
    </trkpt>
    <trkpt lat="50.9612800" lon="6.8816793">
      <time>2021-01-20T06:04:32Z</time>
    </trkpt>
    <trkpt lat="50.9611975" lon="6.8814184">
      <time>2021-01-20T06:04:39Z</time>
    </trkpt>
    <trkpt lat="50.9611224" lon="6.8811233">
      <time>2021-01-20T06:04:46Z</time>
    </trkpt>
    <trkpt lat="50.9611012" lon="6.8810486">
      <time>2021-01-20T06:04:48Z</time>
    </trkpt>
    <trkpt lat="50.9610251" lon="6.8807707">
      <time>2021-01-20T06:04:55Z</time>
    </trkpt>
    <trkpt lat="50.9610148" lon="6.8807354">
      <time>2021-01-20T06:04:56Z</time>
    </trkpt>
    <trkpt lat="50.9609342" lon="6.8804757">
      <time>2021-01-20T06:05:03Z</time>
    </trkpt>
    <trkpt lat="50.9609220" lon="6.8804384">
      <time>2021-01-20T06:05:04Z</time>
    </trkpt>
    <trkpt lat="50.9608540" lon="6.8801364">
      <time>2021-01-20T06:05:12Z</time>
    </trkpt>
    <trkpt lat="50.9608457" lon="6.8800953">
      <time>2021-01-20T06:05:13Z</time>
    </trkpt>
    <trkpt lat="50.9607724" lon="6.8798099">
      <time>2021-01-20T06:05:21Z</time>
    </trkpt>
    <trkpt lat="50.9607628" lon="6.8797679">
      <time>2021-01-20T06:05:22Z</time>
    </trkpt>
    <trkpt lat="50.9607256" lon="6.8794741">
      <time>2021-01-20T06:05:30Z</time>
    </trkpt>
    <trkpt lat="50.9607276" lon="6.8792647">
      <time>2021-01-20T06:05:35Z</time>
    </trkpt>
    <trkpt lat="50.9607287" lon="6.8792055">
      <time>2021-01-20T06:05:36Z</time>
    </trkpt>
    <trkpt lat="50.9607594" lon="6.8790475">
      <time>2021-01-20T06:05:40Z</time>
    </trkpt>
    <trkpt lat="50.9607885" lon="6.8789797">
      <time>2021-01-20T06:05:42Z</time>
    </trkpt>
    <trkpt lat="50.9608757" lon="6.8787151">
      <time>2021-01-20T06:05:49Z</time>
    </trkpt>
    <trkpt lat="50.9609534" lon="6.8785973">
      <time>2021-01-20T06:05:54Z</time>
    </trkpt>
    <trkpt lat="50.9609890" lon="6.8785594">
      <time>2021-01-20T06:05:56Z</time>
    </trkpt>
    <trkpt lat="50.9610699" lon="6.8785134">
      <time>2021-01-20T06:05:59Z</time>
    </trkpt>
    <trkpt lat="50.9612511" lon="6.8783867">
      <time>2021-01-20T06:06:06Z</time>
    </trkpt>
    <trkpt lat="50.9612784" lon="6.8783839">
      <time>2021-01-20T06:06:07Z</time>
    </trkpt>
    <trkpt lat="50.9614312" lon="6.8784283">
      <time>2021-01-20T06:06:14Z</time>
    </trkpt>
    <trkpt lat="50.9616087" lon="6.8785192">
      <time>2021-01-20T06:06:22Z</time>
    </trkpt>
    <trkpt lat="50.9617988" lon="6.8785898">
      <time>2021-01-20T06:06:29Z</time>
    </trkpt>
    <trkpt lat="50.9619596" lon="6.8786531">
      <time>2021-01-20T06:06:35Z</time>
    </trkpt>
    <trkpt lat="50.9621185" lon="6.8787197">
      <time>2021-01-20T06:06:41Z</time>
    </trkpt>
    <trkpt lat="50.9622736" lon="6.8787858">
      <time>2021-01-20T06:06:48Z</time>
    </trkpt>
    <trkpt lat="50.9624743" lon="6.8788538">
      <time>2021-01-20T06:06:55Z</time>
    </trkpt>
    <trkpt lat="50.9625029" lon="6.8788653">
      <time>2021-01-20T06:06:56Z</time>
    </trkpt>
    <trkpt lat="50.9626645" lon="6.8789352">
      <time>2021-01-20T06:07:03Z</time>
    </trkpt>
    <trkpt lat="50.9627622" lon="6.8790955">
      <time>2021-01-20T06:07:09Z</time>
    </trkpt>
    <trkpt lat="50.9627682" lon="6.8793919">
      <time>2021-01-20T06:07:15Z</time>
    </trkpt>
    <trkpt lat="50.9627785" lon="6.8794767">
      <time>2021-01-20T06:07:17Z</time>
    </trkpt>
    <trkpt lat="50.9627679" lon="6.8797769">
      <time>2021-01-20T06:07:24Z</time>
    </trkpt>
    <trkpt lat="50.9627103" lon="6.8800806">
      <time>2021-01-20T06:07:31Z</time>
    </trkpt>
    <trkpt lat="50.9626693" lon="6.8803834">
      <time>2021-01-20T06:07:39Z</time>
    </trkpt>
    <trkpt lat="50.9626320" lon="6.8806658">
      <time>2021-01-20T06:07:46Z</time>
    </trkpt>
    <trkpt lat="50.9625709" lon="6.8809150">
      <time>2021-01-20T06:07:53Z</time>
    </trkpt>
    <trkpt lat="50.9625332" lon="6.8812100">
      <time>2021-01-20T06:08:01Z</time>
    </trkpt>
    <trkpt lat="50.9625274" lon="6.8812467">
      <time>2021-01-20T06:08:02Z</time>
    </trkpt>
    <trkpt lat="50.9625151" lon="6.8814280">
      <time>2021-01-20T06:08:07Z</time>
    </trkpt>
    <trkpt lat="50.9624970" lon="6.8815094">
      <time>2021-01-20T06:08:09Z</time>
    </trkpt>
    <trkpt lat="50.9624400" lon="6.8818146">
      <time>2021-01-20T06:08:17Z</time>
    </trkpt>
    <trkpt lat="50.9624063" lon="6.8821017">
      <time>2021-01-20T06:08:24Z</time>
    </trkpt>
    <trkpt lat="50.9623914" lon="6.8821692">
      <time>2021-01-20T06:08:26Z</time>
    </trkpt>
    <trkpt lat="50.9623532" lon="6.8824258">
      <time>2021-01-20T06:08:33Z</time>
    </trkpt>
    <trkpt lat="50.9623240" lon="6.8826964">
      <time>2021-01-20T06:08:40Z</time>
    </trkpt>
    <trkpt lat="50.9623257" lon="6.8829630">
      <time>2021-01-20T06:08:46Z</time>
    </trkpt>
    <trkpt lat="50.9622538" lon="6.8832226">
      <time>2021-01-20T06:08:53Z</time>
    </trkpt>
    <trkpt lat="50.9622070" lon="6.8834531">
      <time>2021-01-20T06:08:59Z</time>
    </trkpt>
    <trkpt lat="50.9621746" lon="6.8837256">
      <time>2021-01-20T06:09:05Z</time>
    </trkpt>
    <trkpt lat="50.9621178" lon="6.8839444">
      <time>2021-01-20T06:09:11Z</time>
    </trkpt>
    <trkpt lat="50.9620858" lon="6.8841513">
      <time>2021-01-20T06:09:17Z</time>
    </trkpt>
    <trkpt lat="50.9620589" lon="6.8842100">
      <time>2021-01-20T06:09:19Z</time>
    </trkpt>
    <trkpt lat="50.9620254" lon="6.8842014">
      <time>2021-01-20T06:09:21Z</time>
    </trkpt>
    <trkpt lat="50.9619440" lon="6.8839860">
      <time>2021-01-20T06:09:27Z</time>
    </trkpt>
    <trkpt lat="50.9618596" lon="6.8836989">
      <time>2021-01-20T06:09:34Z</time>
    </trkpt>
    <trkpt lat="50.9617793" lon="6.8834222">
      <time>2021-01-20T06:09:41Z</time>
    </trkpt>
    <trkpt lat="50.9617674" lon="6.8833816">
      <time>2021-01-20T06:09:42Z</time>
    </trkpt>
    <trkpt lat="50.9616981" lon="6.8831163">
      <time>2021-01-20T06:09:49Z</time>
    </trkpt>
    <trkpt lat="50.9616891" lon="6.8830783">
      <time>2021-01-20T06:09:50Z</time>
    </trkpt>
    <trkpt lat="50.9616049" lon="6.8828094">
      <time>2021-01-20T06:09:57Z</time>
    </trkpt>
    <trkpt lat="50.9615127" lon="6.8825375">
      <time>2021-01-20T06:10:04Z</time>
    </trkpt>
    <trkpt lat="50.9614525" lon="6.8822572">
      <time>2021-01-20T06:10:11Z</time>
    </trkpt>
    <trkpt lat="50.9614187" lon="6.8821324">
      <time>2021-01-20T06:10:14Z</time>
    </trkpt>
    <trkpt lat="50.9614068" lon="6.8820902">
      <time>2021-01-20T06:10:15Z</time>
    </trkpt>
    <trkpt lat="50.9613383" lon="6.8818261">
      <time>2021-01-20T06:10:22Z</time>
    </trkpt>
    <trkpt lat="50.9613259" lon="6.8817814">
      <time>2021-01-20T06:10:23Z</time>
    </trkpt>
    <trkpt lat="50.9612720" lon="6.8815602">
      <time>2021-01-20T06:10:29Z</time>
    </trkpt>
    <trkpt lat="50.9611965" lon="6.8812896">
      <time>2021-01-20T06:10:36Z</time>
    </trkpt>
    <trkpt lat="50.9611620" lon="6.8811711">
      <time>2021-01-20T06:10:39Z</time>
    </trkpt>
    <trkpt lat="50.9610904" lon="6.8808999">
      <time>2021-01-20T06:10:46Z</time>
    </trkpt>
    <trkpt lat="50.9610264" lon="6.8806961">
      <time>2021-01-20T06:10:51Z</time>
    </trkpt>
    <trkpt lat="50.9609442" lon="6.8804187">
      <time>2021-01-20T06:10:58Z</time>
    </trkpt>
    <trkpt lat="50.9609154" lon="6.8802985">
      <time>2021-01-20T06:11:01Z</time>
    </trkpt>
    <trkpt lat="50.9608386" lon="6.8800137">
      <time>2021-01-20T06:11:08Z</time>
    </trkpt>
    <trkpt lat="50.9608197" lon="6.8799338">
      <time>2021-01-20T06:11:10Z</time>
    </trkpt>
    <trkpt lat="50.9608035" lon="6.8798565">
      <time>2021-01-20T06:11:12Z</time>
    </trkpt>
    <trkpt lat="50.9607857" lon="6.8797783">
      <time>2021-01-20T06:11:14Z</time>
    </trkpt>
    <trkpt lat="50.9607538" lon="6.8796629">
      <time>2021-01-20T06:11:17Z</time>
    </trkpt>
    <trkpt lat="50.9607299" lon="6.8794680">
      <time>2021-01-20T06:11:22Z</time>
    </trkpt>
    <trkpt lat="50.9607251" lon="6.8793574">
      <time>2021-01-20T06:11:25Z</time>
    </trkpt>
    <trkpt lat="50.9607622" lon="6.8791257">
      <time>2021-01-20T06:11:31Z</time>
    </trkpt>
    <trkpt lat="50.9607930" lon="6.8790192">
      <time>2021-01-20T06:11:34Z</time>
    </trkpt>
    <trkpt lat="50.9608158" lon="6.8789093">
      <time>2021-01-20T06:11:37Z</time>
    </trkpt>
    <trkpt lat="50.9608456" lon="6.8788062">
      <time>2021-01-20T06:11:40Z</time>
    </trkpt>
    <trkpt lat="50.9609501" lon="6.8786725">
      <time>2021-01-20T06:11:45Z</time>
    </trkpt>
    <trkpt lat="50.9610413" lon="6.8785460">
      <time>2021-01-20T06:11:51Z</time>
    </trkpt>
    <trkpt lat="50.9612297" lon="6.8784089">
      <time>2021-01-20T06:11:59Z</time>
    </trkpt>
    <trkpt lat="50.9614244" lon="6.8784421">
      <time>2021-01-20T06:12:07Z</time>
    </trkpt>
    <trkpt lat="50.9615892" lon="6.8784955">
      <time>2021-01-20T06:12:14Z</time>
    </trkpt>
    <trkpt lat="50.9617868" lon="6.8785664">
      <time>2021-01-20T06:12:22Z</time>
    </trkpt>
    <trkpt lat="50.9618135" lon="6.8785781">
      <time>2021-01-20T06:12:23Z</time>
    </trkpt>
    <trkpt lat="50.9619440" lon="6.8786009">
      <time>2021-01-20T06:12:29Z</time>
    </trkpt>
    <trkpt lat="50.9619584" lon="6.8785806">
      <time>2021-01-20T06:12:30Z</time>
    </trkpt>
    <trkpt lat="50.9619689" lon="6.8784753">
      <time>2021-01-20T06:12:33Z</time>
    </trkpt>
    <trkpt lat="50.9620041" lon="6.8782951">
      <time>2021-01-20T06:12:38Z</time>
    </trkpt>
    <trkpt lat="50.9620211" lon="6.8781636">
      <time>2021-01-20T06:12:41Z</time>
    </trkpt>
    <trkpt lat="50.9620307" lon="6.8780797">
      <time>2021-01-20T06:12:43Z</time>
    </trkpt>
    <trkpt lat="50.9620534" lon="6.8778853">
      <time>2021-01-20T06:12:47Z</time>
    </trkpt>
    <trkpt lat="50.9620590" lon="6.8776473">
      <time>2021-01-20T06:12:53Z</time>
    </trkpt>
    <trkpt lat="50.9620502" lon="6.8773417">
      <time>2021-01-20T06:13:01Z</time>
    </trkpt>
    <trkpt lat="50.9620274" lon="6.8771204">
      <time>2021-01-20T06:13:07Z</time>
    </trkpt>
    <trkpt lat="50.9620191" lon="6.8768292">
      <time>2021-01-20T06:13:15Z</time>
    </trkpt>
    <trkpt lat="50.9620040" lon="6.8765128">
      <time>2021-01-20T06:13:22Z</time>
    </trkpt>
    <trkpt lat="50.9620043" lon="6.8764696">
      <time>2021-01-20T06:13:23Z</time>
    </trkpt>
    <trkpt lat="50.9620936" lon="6.8762844">
      <time>2021-01-20T06:13:29Z</time>
    </trkpt>
    <trkpt lat="50.9621782" lon="6.8763492">
      <time>2021-01-20T06:13:34Z</time>
    </trkpt>
    <trkpt lat="50.9623921" lon="6.8764118">
      <time>2021-01-20T06:13:41Z</time>
    </trkpt>
    <trkpt lat="50.9625763" lon="6.8764476">
      <time>2021-01-20T06:13:47Z</time>
    </trkpt>
    <trkpt lat="50.9627229" lon="6.8764533">
      <time>2021-01-20T06:13:52Z</time>
    </trkpt>
    <trkpt lat="50.9629169" lon="6.8765143">
      <time>2021-01-20T06:14:00Z</time>
    </trkpt>
    <trkpt lat="50.9630483" lon="6.8764668">
      <time>2021-01-20T06:14:06Z</time>
    </trkpt>
    <trkpt lat="50.9631484" lon="6.8762558">
      <time>2021-01-20T06:14:12Z</time>
    </trkpt>
    <trkpt lat="50.9632818" lon="6.8760216">
      <time>2021-01-20T06:14:19Z</time>
    </trkpt>
    <trkpt lat="50.9633288" lon="6.8758680">
      <time>2021-01-20T06:14:24Z</time>
    </trkpt>
    <trkpt lat="50.9633587" lon="6.8758596">
      <time>2021-01-20T06:14:26Z</time>
    </trkpt>
    <trkpt lat="50.9633848" lon="6.8758626">
      <time>2021-01-20T06:14:28Z</time>
    </trkpt>
    <trkpt lat="50.9634323" lon="6.8758762">
      <time>2021-01-20T06:14:31Z</time>
    </trkpt>
    <trkpt lat="50.9634463" lon="6.8758911">
      <time>2021-01-20T06:14:33Z</time>
    </trkpt>
    <trkpt lat="50.9634513" lon="6.8759019">
      <time>2021-01-20T06:14:34Z</time>
    </trkpt>
  </trkseg></trk>
</gpx>
