<?xml version="1.0" encoding="UTF-8"?>
<gpx version="1.1" creator="Diary FIT converter" xmlns="http://www.topografix.com/GPX/1/1">
  <trk><name>Running</name><trkseg>
    <trkpt lat="50.9627971" lon="6.8765575">
      <time>2020-11-04T18:45:45Z</time>
    </trkpt>
    <trkpt lat="50.9625958" lon="6.8764344">
      <time>2020-11-04T18:45:52Z</time>
    </trkpt>
    <trkpt lat="50.9624148" lon="6.8763886">
      <time>2020-11-04T18:45:58Z</time>
    </trkpt>
    <trkpt lat="50.9623350" lon="6.8763688">
      <time>2020-11-04T18:46:01Z</time>
    </trkpt>
    <trkpt lat="50.9623106" lon="6.8763673">
      <time>2020-11-04T18:46:02Z</time>
    </trkpt>
    <trkpt lat="50.9621208" lon="6.8763402">
      <time>2020-11-04T18:46:09Z</time>
    </trkpt>
    <trkpt lat="50.9621014" lon="6.8763264">
      <time>2020-11-04T18:46:10Z</time>
    </trkpt>
    <trkpt lat="50.9620145" lon="6.8763544">
      <time>2020-11-04T18:46:14Z</time>
    </trkpt>
    <trkpt lat="50.9619913" lon="6.8764180">
      <time>2020-11-04T18:46:16Z</time>
    </trkpt>
    <trkpt lat="50.9620010" lon="6.8765611">
      <time>2020-11-04T18:46:19Z</time>
    </trkpt>
    <trkpt lat="50.9620045" lon="6.8767744">
      <time>2020-11-04T18:46:23Z</time>
    </trkpt>
    <trkpt lat="50.9619670" lon="6.8768672">
      <time>2020-11-04T18:46:25Z</time>
    </trkpt>
    <trkpt lat="50.9619055" lon="6.8769115">
      <time>2020-11-04T18:46:27Z</time>
    </trkpt>
    <trkpt lat="50.9618519" lon="6.8769397">
      <time>2020-11-04T18:46:29Z</time>
    </trkpt>
    <trkpt lat="50.9617514" lon="6.8770000">
      <time>2020-11-04T18:46:32Z</time>
    </trkpt>
    <trkpt lat="50.9615547" lon="6.8770936">
      <time>2020-11-04T18:46:38Z</time>
    </trkpt>
    <trkpt lat="50.9615025" lon="6.8771205">
      <time>2020-11-04T18:46:39Z</time>
    </trkpt>
    <trkpt lat="50.9613199" lon="6.8772336">
      <time>2020-11-04T18:46:44Z</time>
    </trkpt>
    <trkpt lat="50.9611874" lon="6.8773119">
      <time>2020-11-04T18:46:48Z</time>
    </trkpt>
    <trkpt lat="50.9610497" lon="6.8773832">
      <time>2020-11-04T18:46:53Z</time>
    </trkpt>
    <trkpt lat="50.9608534" lon="6.8774344">
      <time>2020-11-04T18:46:59Z</time>
    </trkpt>
    <trkpt lat="50.9607313" lon="6.8774626">
      <time>2020-11-04T18:47:03Z</time>
    </trkpt>
    <trkpt lat="50.9606675" lon="6.8774890">
      <time>2020-11-04T18:47:05Z</time>
    </trkpt>
    <trkpt lat="50.9606329" lon="6.8774981">
      <time>2020-11-04T18:47:06Z</time>
    </trkpt>
    <trkpt lat="50.9605246" lon="6.8775500">
      <time>2020-11-04T18:47:09Z</time>
    </trkpt>
    <trkpt lat="50.9603325" lon="6.8776450">
      <time>2020-11-04T18:47:15Z</time>
    </trkpt>
    <trkpt lat="50.9601560" lon="6.8777126">
      <time>2020-11-04T18:47:21Z</time>
    </trkpt>
    <trkpt lat="50.9600191" lon="6.8775769">
      <time>2020-11-04T18:47:27Z</time>
    </trkpt>
    <trkpt lat="50.9598569" lon="6.8774212">
      <time>2020-11-04T18:47:33Z</time>
    </trkpt>
    <trkpt lat="50.9598199" lon="6.8773556">
      <time>2020-11-04T18:47:35Z</time>
    </trkpt>
    <trkpt lat="50.9597545" lon="6.8770971">
      <time>2020-11-04T18:47:41Z</time>
    </trkpt>
    <trkpt lat="50.9598107" lon="6.8768471">
      <time>2020-11-04T18:47:47Z</time>
    </trkpt>
    <trkpt lat="50.9597954" lon="6.8765597">
      <time>2020-11-04T18:47:53Z</time>
    </trkpt>
    <trkpt lat="50.9597517" lon="6.8762399">
      <time>2020-11-04T18:48:00Z</time>
    </trkpt>
    <trkpt lat="50.9597388" lon="6.8761582">
      <time>2020-11-04T18:48:02Z</time>
    </trkpt>
    <trkpt lat="50.9596980" lon="6.8758431">
      <time>2020-11-04T18:48:09Z</time>
    </trkpt>
    <trkpt lat="50.9596822" lon="6.8756955">
      <time>2020-11-04T18:48:12Z</time>
    </trkpt>
    <trkpt lat="50.9596807" lon="6.8754713">
      <time>2020-11-04T18:48:17Z</time>
    </trkpt>
    <trkpt lat="50.9596799" lon="6.8751345">
      <time>2020-11-04T18:48:24Z</time>
    </trkpt>
    <trkpt lat="50.9596956" lon="6.8748201">
      <time>2020-11-04T18:48:31Z</time>
    </trkpt>
    <trkpt lat="50.9597032" lon="6.8747180">
      <time>2020-11-04T18:48:33Z</time>
    </trkpt>
    <trkpt lat="50.9597098" lon="6.8745834">
      <time>2020-11-04T18:48:36Z</time>
    </trkpt>
    <trkpt lat="50.9597352" lon="6.8742912">
      <time>2020-11-04T18:48:42Z</time>
    </trkpt>
    <trkpt lat="50.9597528" lon="6.8740071">
      <time>2020-11-04T18:48:48Z</time>
    </trkpt>
    <trkpt lat="50.9597562" lon="6.8739738">
      <time>2020-11-04T18:48:49Z</time>
    </trkpt>
    <trkpt lat="50.9597631" lon="6.8738410">
      <time>2020-11-04T18:48:52Z</time>
    </trkpt>
    <trkpt lat="50.9597693" lon="6.8736740">
      <time>2020-11-04T18:48:56Z</time>
    </trkpt>
    <trkpt lat="50.9597373" lon="6.8733541">
      <time>2020-11-04T18:49:04Z</time>
    </trkpt>
    <trkpt lat="50.9596977" lon="6.8730591">
      <time>2020-11-04T18:49:11Z</time>
    </trkpt>
    <trkpt lat="50.9597113" lon="6.8729293">
      <time>2020-11-04T18:49:16Z</time>
    </trkpt>
    <trkpt lat="50.9596664" lon="6.8727037">
      <time>2020-11-04T18:49:22Z</time>
    </trkpt>
    <trkpt lat="50.9596604" lon="6.8726598">
      <time>2020-11-04T18:49:23Z</time>
    </trkpt>
    <trkpt lat="50.9595918" lon="6.8723507">
      <time>2020-11-04T18:49:30Z</time>
    </trkpt>
    <trkpt lat="50.9595844" lon="6.8723162">
      <time>2020-11-04T18:49:31Z</time>
    </trkpt>
    <trkpt lat="50.9595411" lon="6.8720052">
      <time>2020-11-04T18:49:38Z</time>
    </trkpt>
    <trkpt lat="50.9595347" lon="6.8719622">
      <time>2020-11-04T18:49:39Z</time>
    </trkpt>
    <trkpt lat="50.9594693" lon="6.8716643">
      <time>2020-11-04T18:49:46Z</time>
    </trkpt>
    <trkpt lat="50.9593855" lon="6.8713891">
      <time>2020-11-04T18:49:53Z</time>
    </trkpt>
    <trkpt lat="50.9593734" lon="6.8713612">
      <time>2020-11-04T18:49:54Z</time>
    </trkpt>
    <trkpt lat="50.9592879" lon="6.8710696">
      <time>2020-11-04T18:50:02Z</time>
    </trkpt>
    <trkpt lat="50.9592627" lon="6.8709982">
      <time>2020-11-04T18:50:04Z</time>
    </trkpt>
    <trkpt lat="50.9592242" lon="6.8707692">
      <time>2020-11-04T18:50:10Z</time>
    </trkpt>
    <trkpt lat="50.9592840" lon="6.8705495">
      <time>2020-11-04T18:50:16Z</time>
    </trkpt>
    <trkpt lat="50.9594311" lon="6.8704433">
      <time>2020-11-04T18:50:23Z</time>
    </trkpt>
    <trkpt lat="50.9595990" lon="6.8703583">
      <time>2020-11-04T18:50:30Z</time>
    </trkpt>
    <trkpt lat="50.9597195" lon="6.8703437">
      <time>2020-11-04T18:50:35Z</time>
    </trkpt>
    <trkpt lat="50.9597810" lon="6.8703313">
      <time>2020-11-04T18:50:38Z</time>
    </trkpt>
    <trkpt lat="50.9598988" lon="6.8703087">
      <time>2020-11-04T18:50:43Z</time>
    </trkpt>
    <trkpt lat="50.9601030" lon="6.8702390">
      <time>2020-11-04T18:50:50Z</time>
    </trkpt>
    <trkpt lat="50.9603037" lon="6.8701962">
      <time>2020-11-04T18:50:57Z</time>
    </trkpt>
    <trkpt lat="50.9604848" lon="6.8701815">
      <time>2020-11-04T18:51:02Z</time>
    </trkpt>
    <trkpt lat="50.9606754" lon="6.8701439">
      <time>2020-11-04T18:51:07Z</time>
    </trkpt>
    <trkpt lat="50.9607569" lon="6.8701203">
      <time>2020-11-04T18:51:10Z</time>
    </trkpt>
    <trkpt lat="50.9608634" lon="6.8700678">
      <time>2020-11-04T18:51:14Z</time>
    </trkpt>
    <trkpt lat="50.9608898" lon="6.8700539">
      <time>2020-11-04T18:51:15Z</time>
    </trkpt>
    <trkpt lat="50.9610157" lon="6.8700054">
      <time>2020-11-04T18:51:19Z</time>
    </trkpt>
    <trkpt lat="50.9610929" lon="6.8699593">
      <time>2020-11-04T18:51:22Z</time>
    </trkpt>
    <trkpt lat="50.9612447" lon="6.8698756">
      <time>2020-11-04T18:51:30Z</time>
    </trkpt>
    <trkpt lat="50.9613395" lon="6.8698380">
      <time>2020-11-04T18:51:34Z</time>
    </trkpt>
    <trkpt lat="50.9614001" lon="6.8698316">
      <time>2020-11-04T18:51:36Z</time>
    </trkpt>
    <trkpt lat="50.9614818" lon="6.8698118">
      <time>2020-11-04T18:51:39Z</time>
    </trkpt>
    <trkpt lat="50.9615639" lon="6.8697744">
      <time>2020-11-04T18:51:42Z</time>
    </trkpt>
    <trkpt lat="50.9617418" lon="6.8697086">
      <time>2020-11-04T18:51:49Z</time>
    </trkpt>
    <trkpt lat="50.9619497" lon="6.8696774">
      <time>2020-11-04T18:51:56Z</time>
    </trkpt>
    <trkpt lat="50.9620002" lon="6.8696609">
      <time>2020-11-04T18:51:58Z</time>
    </trkpt>
    <trkpt lat="50.9621548" lon="6.8696109">
      <time>2020-11-04T18:52:04Z</time>
    </trkpt>
    <trkpt lat="50.9622901" lon="6.8696013">
      <time>2020-11-04T18:52:09Z</time>
    </trkpt>
    <trkpt lat="50.9623405" lon="6.8695965">
      <time>2020-11-04T18:52:11Z</time>
    </trkpt>
    <trkpt lat="50.9625468" lon="6.8695899">
      <time>2020-11-04T18:52:19Z</time>
    </trkpt>
    <trkpt lat="50.9625692" lon="6.8695872">
      <time>2020-11-04T18:52:20Z</time>
    </trkpt>
    <trkpt lat="50.9627535" lon="6.8695568">
      <time>2020-11-04T18:52:27Z</time>
    </trkpt>
    <trkpt lat="50.9629545" lon="6.8695292">
      <time>2020-11-04T18:52:34Z</time>
    </trkpt>
    <trkpt lat="50.9630837" lon="6.8694786">
      <time>2020-11-04T18:52:39Z</time>
    </trkpt>
    <trkpt lat="50.9632687" lon="6.8694838">
      <time>2020-11-04T18:52:45Z</time>
    </trkpt>
    <trkpt lat="50.9633281" lon="6.8694811">
      <time>2020-11-04T18:52:47Z</time>
    </trkpt>
    <trkpt lat="50.9635325" lon="6.8694830">
      <time>2020-11-04T18:52:54Z</time>
    </trkpt>
    <trkpt lat="50.9637136" lon="6.8695057">
      <time>2020-11-04T18:53:01Z</time>
    </trkpt>
    <trkpt lat="50.9637346" lon="6.8695072">
      <time>2020-11-04T18:53:02Z</time>
    </trkpt>
    <trkpt lat="50.9638195" lon="6.8695319">
      <time>2020-11-04T18:53:05Z</time>
    </trkpt>
    <trkpt lat="50.9638862" lon="6.8695447">
      <time>2020-11-04T18:53:07Z</time>
    </trkpt>
    <trkpt lat="50.9640810" lon="6.8695110">
      <time>2020-11-04T18:53:14Z</time>
    </trkpt>
    <trkpt lat="50.9640913" lon="6.8694831">
      <time>2020-11-04T18:53:15Z</time>
    </trkpt>
    <trkpt lat="50.9641357" lon="6.8692872">
      <time>2020-11-04T18:53:20Z</time>
    </trkpt>
    <trkpt lat="50.9641543" lon="6.8690712">
      <time>2020-11-04T18:53:26Z</time>
    </trkpt>
    <trkpt lat="50.9642006" lon="6.8688361">
      <time>2020-11-04T18:53:31Z</time>
    </trkpt>
    <trkpt lat="50.9642389" lon="6.8685313">
      <time>2020-11-04T18:53:38Z</time>
    </trkpt>
    <trkpt lat="50.9642480" lon="6.8684887">
      <time>2020-11-04T18:53:39Z</time>
    </trkpt>
    <trkpt lat="50.9642694" lon="6.8682188">
      <time>2020-11-04T18:53:46Z</time>
    </trkpt>
    <trkpt lat="50.9642605" lon="6.8679496">
      <time>2020-11-04T18:53:53Z</time>
    </trkpt>
    <trkpt lat="50.9643209" lon="6.8678748">
      <time>2020-11-04T18:53:57Z</time>
    </trkpt>
    <trkpt lat="50.9643361" lon="6.8678699">
      <time>2020-11-04T18:53:58Z</time>
    </trkpt>
    <trkpt lat="50.9643610" lon="6.8678643">
      <time>2020-11-04T18:53:59Z</time>
    </trkpt>
    <trkpt lat="50.9643890" lon="6.8678663">
      <time>2020-11-04T18:54:00Z</time>
    </trkpt>
    <trkpt lat="50.9644846" lon="6.8679000">
      <time>2020-11-04T18:54:04Z</time>
    </trkpt>
    <trkpt lat="50.9646127" lon="6.8679481">
      <time>2020-11-04T18:54:09Z</time>
    </trkpt>
    <trkpt lat="50.9647860" lon="6.8680892">
      <time>2020-11-04T18:54:15Z</time>
    </trkpt>
    <trkpt lat="50.9649802" lon="6.8681671">
      <time>2020-11-04T18:54:21Z</time>
    </trkpt>
    <trkpt lat="50.9651769" lon="6.8682115">
      <time>2020-11-04T18:54:27Z</time>
    </trkpt>
    <trkpt lat="50.9652575" lon="6.8682292">
      <time>2020-11-04T18:54:30Z</time>
    </trkpt>
    <trkpt lat="50.9654494" lon="6.8682894">
      <time>2020-11-04T18:54:37Z</time>
    </trkpt>
    <trkpt lat="50.9654772" lon="6.8682980">
      <time>2020-11-04T18:54:38Z</time>
    </trkpt>
    <trkpt lat="50.9656506" lon="6.8683739">
      <time>2020-11-04T18:54:44Z</time>
    </trkpt>
    <trkpt lat="50.9657332" lon="6.8684031">
      <time>2020-11-04T18:54:47Z</time>
    </trkpt>
    <trkpt lat="50.9659189" lon="6.8684713">
      <time>2020-11-04T18:54:53Z</time>
    </trkpt>
    <trkpt lat="50.9660119" lon="6.8684905">
      <time>2020-11-04T18:54:56Z</time>
    </trkpt>
    <trkpt lat="50.9660963" lon="6.8686058">
      <time>2020-11-04T18:55:00Z</time>
    </trkpt>
    <trkpt lat="50.9661582" lon="6.8688753">
      <time>2020-11-04T18:55:05Z</time>
    </trkpt>
    <trkpt lat="50.9661594" lon="6.8689710">
      <time>2020-11-04T18:55:07Z</time>
    </trkpt>
    <trkpt lat="50.9661605" lon="6.8692577">
      <time>2020-11-04T18:55:13Z</time>
    </trkpt>
    <trkpt lat="50.9661494" lon="6.8693523">
      <time>2020-11-04T18:55:15Z</time>
    </trkpt>
    <trkpt lat="50.9660895" lon="6.8696783">
      <time>2020-11-04T18:55:22Z</time>
    </trkpt>
    <trkpt lat="50.9660816" lon="6.8697228">
      <time>2020-11-04T18:55:23Z</time>
    </trkpt>
    <trkpt lat="50.9660400" lon="6.8700322">
      <time>2020-11-04T18:55:30Z</time>
    </trkpt>
    <trkpt lat="50.9659755" lon="6.8701405">
      <time>2020-11-04T18:55:33Z</time>
    </trkpt>
    <trkpt lat="50.9658327" lon="6.8703299">
      <time>2020-11-04T18:55:39Z</time>
    </trkpt>
    <trkpt lat="50.9657923" lon="6.8703942">
      <time>2020-11-04T18:55:41Z</time>
    </trkpt>
    <trkpt lat="50.9656684" lon="6.8706459">
      <time>2020-11-04T18:55:48Z</time>
    </trkpt>
    <trkpt lat="50.9656545" lon="6.8706922">
      <time>2020-11-04T18:55:49Z</time>
    </trkpt>
    <trkpt lat="50.9655960" lon="6.8708835">
      <time>2020-11-04T18:55:53Z</time>
    </trkpt>
    <trkpt lat="50.9655288" lon="6.8711139">
      <time>2020-11-04T18:55:58Z</time>
    </trkpt>
    <trkpt lat="50.9654441" lon="6.8713845">
      <time>2020-11-04T18:56:04Z</time>
    </trkpt>
    <trkpt lat="50.9653849" lon="6.8715842">
      <time>2020-11-04T18:56:09Z</time>
    </trkpt>
    <trkpt lat="50.9653089" lon="6.8718814">
      <time>2020-11-04T18:56:16Z</time>
    </trkpt>
    <trkpt lat="50.9652696" lon="6.8720904">
      <time>2020-11-04T18:56:22Z</time>
    </trkpt>
    <trkpt lat="50.9652820" lon="6.8721071">
      <time>2020-11-04T18:56:23Z</time>
    </trkpt>
    <trkpt lat="50.9653581" lon="6.8721368">
      <time>2020-11-04T18:56:26Z</time>
    </trkpt>
    <trkpt lat="50.9654831" lon="6.8722414">
      <time>2020-11-04T18:56:31Z</time>
    </trkpt>
    <trkpt lat="50.9655286" lon="6.8723378">
      <time>2020-11-04T18:56:33Z</time>
    </trkpt>
    <trkpt lat="50.9655503" lon="6.8724345">
      <time>2020-11-04T18:56:35Z</time>
    </trkpt>
    <trkpt lat="50.9654904" lon="6.8727439">
      <time>2020-11-04T18:56:42Z</time>
    </trkpt>
    <trkpt lat="50.9654220" lon="6.8728399">
      <time>2020-11-04T18:56:45Z</time>
    </trkpt>
    <trkpt lat="50.9653184" lon="6.8730178">
      <time>2020-11-04T18:56:50Z</time>
    </trkpt>
    <trkpt lat="50.9651917" lon="6.8732256">
      <time>2020-11-04T18:56:56Z</time>
    </trkpt>
    <trkpt lat="50.9651489" lon="6.8732916">
      <time>2020-11-04T18:56:58Z</time>
    </trkpt>
    <trkpt lat="50.9650672" lon="6.8734163">
      <time>2020-11-04T18:57:02Z</time>
    </trkpt>
    <trkpt lat="50.9650076" lon="6.8735255">
      <time>2020-11-04T18:57:06Z</time>
    </trkpt>
    <trkpt lat="50.9648919" lon="6.8737530">
      <time>2020-11-04T18:57:12Z</time>
    </trkpt>
    <trkpt lat="50.9648768" lon="6.8737806">
      <time>2020-11-04T18:57:13Z</time>
    </trkpt>
    <trkpt lat="50.9647776" lon="6.8739529">
      <time>2020-11-04T18:57:19Z</time>
    </trkpt>
    <trkpt lat="50.9647412" lon="6.8740258">
      <time>2020-11-04T18:57:21Z</time>
    </trkpt>
    <trkpt lat="50.9646418" lon="6.8742663">
      <time>2020-11-04T18:57:28Z</time>
    </trkpt>
    <trkpt lat="50.9646087" lon="6.8743525">
      <time>2020-11-04T18:57:30Z</time>
    </trkpt>
    <trkpt lat="50.9645629" lon="6.8745080">
      <time>2020-11-04T18:57:34Z</time>
    </trkpt>
    <trkpt lat="50.9645299" lon="6.8746348">
      <time>2020-11-04T18:57:37Z</time>
    </trkpt>
    <trkpt lat="50.9644532" lon="6.8749512">
      <time>2020-11-04T18:57:44Z</time>
    </trkpt>
    <trkpt lat="50.9644460" lon="6.8749877">
      <time>2020-11-04T18:57:45Z</time>
    </trkpt>
    <trkpt lat="50.9643790" lon="6.8753043">
      <time>2020-11-04T18:57:52Z</time>
    </trkpt>
    <trkpt lat="50.9643704" lon="6.8753779">
      <time>2020-11-04T18:57:54Z</time>
    </trkpt>
    <trkpt lat="50.9643455" lon="6.8755478">
      <time>2020-11-04T18:57:58Z</time>
    </trkpt>
    <trkpt lat="50.9643314" lon="6.8756281">
      <time>2020-11-04T18:58:00Z</time>
    </trkpt>
    <trkpt lat="50.9643110" lon="6.8757160">
      <time>2020-11-04T18:58:02Z</time>
    </trkpt>
    <trkpt lat="50.9642569" lon="6.8760021">
      <time>2020-11-04T18:58:09Z</time>
    </trkpt>
    <trkpt lat="50.9642233" lon="6.8761081">
      <time>2020-11-04T18:58:12Z</time>
    </trkpt>
    <trkpt lat="50.9642025" lon="6.8761199">
      <time>2020-11-04T18:58:13Z</time>
    </trkpt>
    <trkpt lat="50.9640598" lon="6.8761115">
      <time>2020-11-04T18:58:18Z</time>
    </trkpt>
    <trkpt lat="50.9638963" lon="6.8760838">
      <time>2020-11-04T18:58:24Z</time>
    </trkpt>
    <trkpt lat="50.9637241" lon="6.8760146">
      <time>2020-11-04T18:58:29Z</time>
    </trkpt>
    <trkpt lat="50.9635819" lon="6.8759514">
      <time>2020-11-04T18:58:34Z</time>
    </trkpt>
    <trkpt lat="50.9634119" lon="6.8759179">
      <time>2020-11-04T18:58:39Z</time>
    </trkpt>
    <trkpt lat="50.9632211" lon="6.8759417">
      <time>2020-11-04T18:58:45Z</time>
    </trkpt>
    <trkpt lat="50.9631795" lon="6.8759637">
      <time>2020-11-04T18:58:47Z</time>
    </trkpt>
    <trkpt lat="50.9630624" lon="6.8761780">
      <time>2020-11-04T18:58:53Z</time>
    </trkpt>
    <trkpt lat="50.9629769" lon="6.8764575">
      <time>2020-11-04T18:59:00Z</time>
    </trkpt>
    <trkpt lat="50.9629228" lon="6.8765549">
      <time>2020-11-04T18:59:03Z</time>
    </trkpt>
    <trkpt lat="50.9628993" lon="6.8765523">
      <time>2020-11-04T18:59:04Z</time>
    </trkpt>
    <trkpt lat="50.9627679" lon="6.8764726">
      <time>2020-11-04T18:59:09Z</time>
    </trkpt>
    <trkpt lat="50.9625885" lon="6.8763842">
      <time>2020-11-04T18:59:16Z</time>
    </trkpt>
    <trkpt lat="50.9625619" lon="6.8763757">
      <time>2020-11-04T18:59:17Z</time>
    </trkpt>
    <trkpt lat="50.9623789" lon="6.8763212">
      <time>2020-11-04T18:59:23Z</time>
    </trkpt>
    <trkpt lat="50.9623546" lon="6.8763178">
      <time>2020-11-04T18:59:24Z</time>
    </trkpt>
    <trkpt lat="50.9621622" lon="6.8762974">
      <time>2020-11-04T18:59:31Z</time>
    </trkpt>
    <trkpt lat="50.9620243" lon="6.8762538">
      <time>2020-11-04T18:59:37Z</time>
    </trkpt>
    <trkpt lat="50.9619853" lon="6.8762644">
      <time>2020-11-04T18:59:38Z</time>
    </trkpt>
    <trkpt lat="50.9619726" lon="6.8762835">
      <time>2020-11-04T18:59:39Z</time>
    </trkpt>
    <trkpt lat="50.9619591" lon="6.8763138">
      <time>2020-11-04T18:59:40Z</time>
    </trkpt>
    <trkpt lat="50.9619732" lon="6.8765376">
      <time>2020-11-04T18:59:45Z</time>
    </trkpt>
    <trkpt lat="50.9619295" lon="6.8768165">
      <time>2020-11-04T18:59:50Z</time>
    </trkpt>
    <trkpt lat="50.9618976" lon="6.8768419">
      <time>2020-11-04T18:59:51Z</time>
    </trkpt>
    <trkpt lat="50.9617079" lon="6.8769983">
      <time>2020-11-04T18:59:57Z</time>
    </trkpt>
    <trkpt lat="50.9616755" lon="6.8770263">
      <time>2020-11-04T18:59:58Z</time>
    </trkpt>
    <trkpt lat="50.9615098" lon="6.8771775">
      <time>2020-11-04T19:00:03Z</time>
    </trkpt>
    <trkpt lat="50.9613803" lon="6.8772558">
      <time>2020-11-04T19:00:07Z</time>
    </trkpt>
    <trkpt lat="50.9612557" lon="6.8773066">
      <time>2020-11-04T19:00:11Z</time>
    </trkpt>
    <trkpt lat="50.9612011" lon="6.8773397">
      <time>2020-11-04T19:00:13Z</time>
    </trkpt>
    <trkpt lat="50.9611676" lon="6.8773615">
      <time>2020-11-04T19:00:14Z</time>
    </trkpt>
    <trkpt lat="50.9609996" lon="6.8774662">
      <time>2020-11-04T19:00:20Z</time>
    </trkpt>
    <trkpt lat="50.9609297" lon="6.8774984">
      <time>2020-11-04T19:00:22Z</time>
    </trkpt>
    <trkpt lat="50.9607443" lon="6.8775575">
      <time>2020-11-04T19:00:28Z</time>
    </trkpt>
    <trkpt lat="50.9607094" lon="6.8775646">
      <time>2020-11-04T19:00:29Z</time>
    </trkpt>
    <trkpt lat="50.9606052" lon="6.8776181">
      <time>2020-11-04T19:00:32Z</time>
    </trkpt>
    <trkpt lat="50.9604965" lon="6.8776712">
      <time>2020-11-04T19:00:35Z</time>
    </trkpt>
    <trkpt lat="50.9603098" lon="6.8777621">
      <time>2020-11-04T19:00:41Z</time>
    </trkpt>
    <trkpt lat="50.9602248" lon="6.8777874">
      <time>2020-11-04T19:00:44Z</time>
    </trkpt>
    <trkpt lat="50.9600959" lon="6.8777514">
      <time>2020-11-04T19:00:49Z</time>
    </trkpt>
    <trkpt lat="50.9599626" lon="6.8776115">
      <time>2020-11-04T19:00:55Z</time>
    </trkpt>
    <trkpt lat="50.9599050" lon="6.8775769">
      <time>2020-11-04T19:00:57Z</time>
    </trkpt>
    <trkpt lat="50.9598814" lon="6.8775555">
      <time>2020-11-04T19:00:58Z</time>
    </trkpt>
    <trkpt lat="50.9597758" lon="6.8774056">
      <time>2020-11-04T19:01:03Z</time>
    </trkpt>
    <trkpt lat="50.9597610" lon="6.8771537">
      <time>2020-11-04T19:01:09Z</time>
    </trkpt>
    <trkpt lat="50.9598089" lon="6.8768733">
      <time>2020-11-04T19:01:15Z</time>
    </trkpt>
    <trkpt lat="50.9597979" lon="6.8765833">
      <time>2020-11-04T19:01:22Z</time>
    </trkpt>
    <trkpt lat="50.9597460" lon="6.8762801">
      <time>2020-11-04T19:01:29Z</time>
    </trkpt>
    <trkpt lat="50.9597334" lon="6.8761444">
      <time>2020-11-04T19:01:32Z</time>
    </trkpt>
    <trkpt lat="50.9596944" lon="6.8758499">
      <time>2020-11-04T19:01:39Z</time>
    </trkpt>
    <trkpt lat="50.9596943" lon="6.8757175">
      <time>2020-11-04T19:01:42Z</time>
    </trkpt>
    <trkpt lat="50.9596865" lon="6.8754054">
      <time>2020-11-04T19:01:49Z</time>
    </trkpt>
    <trkpt lat="50.9596912" lon="6.8753197">
      <time>2020-11-04T19:01:51Z</time>
    </trkpt>
    <trkpt lat="50.9597162" lon="6.8750137">
      <time>2020-11-04T19:01:58Z</time>
    </trkpt>
    <trkpt lat="50.9597203" lon="6.8749708">
      <time>2020-11-04T19:01:59Z</time>
    </trkpt>
    <trkpt lat="50.9597485" lon="6.8746707">
      <time>2020-11-04T19:02:06Z</time>
    </trkpt>
    <trkpt lat="50.9597559" lon="6.8746305">
      <time>2020-11-04T19:02:07Z</time>
    </trkpt>
    <trkpt lat="50.9597828" lon="6.8743291">
      <time>2020-11-04T19:02:14Z</time>
    </trkpt>
    <trkpt lat="50.9597979" lon="6.8740208">
      <time>2020-11-04T19:02:21Z</time>
    </trkpt>
    <trkpt lat="50.9597968" lon="6.8739791">
      <time>2020-11-04T19:02:22Z</time>
    </trkpt>
    <trkpt lat="50.9598165" lon="6.8736960">
      <time>2020-11-04T19:02:29Z</time>
    </trkpt>
    <trkpt lat="50.9597936" lon="6.8734851">
      <time>2020-11-04T19:02:34Z</time>
    </trkpt>
    <trkpt lat="50.9597270" lon="6.8731947">
      <time>2020-11-04T19:02:41Z</time>
    </trkpt>
    <trkpt lat="50.9597246" lon="6.8731603">
      <time>2020-11-04T19:02:42Z</time>
    </trkpt>
    <trkpt lat="50.9597065" lon="6.8729316">
      <time>2020-11-04T19:02:48Z</time>
    </trkpt>
    <trkpt lat="50.9596698" lon="6.8727084">
      <time>2020-11-04T19:02:54Z</time>
    </trkpt>
    <trkpt lat="50.9596549" lon="6.8726073">
      <time>2020-11-04T19:02:56Z</time>
    </trkpt>
    <trkpt lat="50.9596296" lon="6.8723081">
      <time>2020-11-04T19:03:03Z</time>
    </trkpt>
    <trkpt lat="50.9596075" lon="6.8721836">
      <time>2020-11-04T19:03:06Z</time>
    </trkpt>
    <trkpt lat="50.9595500" lon="6.8719031">
      <time>2020-11-04T19:03:13Z</time>
    </trkpt>
    <trkpt lat="50.9594726" lon="6.8716197">
      <time>2020-11-04T19:03:20Z</time>
    </trkpt>
    <trkpt lat="50.9594603" lon="6.8715803">
      <time>2020-11-04T19:03:21Z</time>
    </trkpt>
    <trkpt lat="50.9593797" lon="6.8713099">
      <time>2020-11-04T19:03:28Z</time>
    </trkpt>
    <trkpt lat="50.9593680" lon="6.8712708">
      <time>2020-11-04T19:03:29Z</time>
    </trkpt>
    <trkpt lat="50.9592877" lon="6.8710443">
      <time>2020-11-04T19:03:36Z</time>
    </trkpt>
    <trkpt lat="50.9592700" lon="6.8708395">
      <time>2020-11-04T19:03:42Z</time>
    </trkpt>
    <trkpt lat="50.9592699" lon="6.8708029">
      <time>2020-11-04T19:03:43Z</time>
    </trkpt>
    <trkpt lat="50.9593143" lon="6.8706217">
      <time>2020-11-04T19:03:48Z</time>
    </trkpt>
    <trkpt lat="50.9594635" lon="6.8704653">
      <time>2020-11-04T19:03:55Z</time>
    </trkpt>
    <trkpt lat="50.9596288" lon="6.8703473">
      <time>2020-11-04T19:04:02Z</time>
    </trkpt>
    <trkpt lat="50.9598274" lon="6.8702780">
      <time>2020-11-04T19:04:10Z</time>
    </trkpt>
    <trkpt lat="50.9598499" lon="6.8702712">
      <time>2020-11-04T19:04:11Z</time>
    </trkpt>
    <trkpt lat="50.9600322" lon="6.8702479">
      <time>2020-11-04T19:04:18Z</time>
    </trkpt>
    <trkpt lat="50.9600776" lon="6.8702318">
      <time>2020-11-04T19:04:20Z</time>
    </trkpt>
    <trkpt lat="50.9602783" lon="6.8701948">
      <time>2020-11-04T19:04:27Z</time>
    </trkpt>
    <trkpt lat="50.9603276" lon="6.8701893">
      <time>2020-11-04T19:04:29Z</time>
    </trkpt>
    <trkpt lat="50.9605137" lon="6.8701673">
      <time>2020-11-04T19:04:37Z</time>
    </trkpt>
    <trkpt lat="50.9605384" lon="6.8701600">
      <time>2020-11-04T19:04:38Z</time>
    </trkpt>
    <trkpt lat="50.9607413" lon="6.8701070">
      <time>2020-11-04T19:04:45Z</time>
    </trkpt>
    <trkpt lat="50.9608837" lon="6.8700330">
      <time>2020-11-04T19:04:51Z</time>
    </trkpt>
    <trkpt lat="50.9610230" lon="6.8699471">
      <time>2020-11-04T19:04:57Z</time>
    </trkpt>
    <trkpt lat="50.9612112" lon="6.8699000">
      <time>2020-11-04T19:05:04Z</time>
    </trkpt>
    <trkpt lat="50.9613379" lon="6.8698658">
      <time>2020-11-04T19:05:10Z</time>
    </trkpt>
    <trkpt lat="50.9615351" lon="6.8698280">
      <time>2020-11-04T19:05:18Z</time>
    </trkpt>
    <trkpt lat="50.9615876" lon="6.8698094">
      <time>2020-11-04T19:05:20Z</time>
    </trkpt>
    <trkpt lat="50.9617644" lon="6.8697522">
      <time>2020-11-04T19:05:26Z</time>
    </trkpt>
    <trkpt lat="50.9618482" lon="6.8697445">
      <time>2020-11-04T19:05:29Z</time>
    </trkpt>
    <trkpt lat="50.9620277" lon="6.8697171">
      <time>2020-11-04T19:05:36Z</time>
    </trkpt>
    <trkpt lat="50.9620549" lon="6.8697130">
      <time>2020-11-04T19:05:37Z</time>
    </trkpt>
    <trkpt lat="50.9622161" lon="6.8696759">
      <time>2020-11-04T19:05:43Z</time>
    </trkpt>
    <trkpt lat="50.9624167" lon="6.8696387">
      <time>2020-11-04T19:05:50Z</time>
    </trkpt>
    <trkpt lat="50.9625837" lon="6.8696075">
      <time>2020-11-04T19:05:56Z</time>
    </trkpt>
    <trkpt lat="50.9627767" lon="6.8695966">
      <time>2020-11-04T19:06:04Z</time>
    </trkpt>
    <trkpt lat="50.9629808" lon="6.8695827">
      <time>2020-11-04T19:06:11Z</time>
    </trkpt>
    <trkpt lat="50.9630323" lon="6.8695630">
      <time>2020-11-04T19:06:13Z</time>
    </trkpt>
    <trkpt lat="50.9631881" lon="6.8695341">
      <time>2020-11-04T19:06:18Z</time>
    </trkpt>
    <trkpt lat="50.9633944" lon="6.8695595">
      <time>2020-11-04T19:06:26Z</time>
    </trkpt>
    <trkpt lat="50.9635709" lon="6.8695523">
      <time>2020-11-04T19:06:33Z</time>
    </trkpt>
    <trkpt lat="50.9636266" lon="6.8695630">
      <time>2020-11-04T19:06:35Z</time>
    </trkpt>
    <trkpt lat="50.9637526" lon="6.8695762">
      <time>2020-11-04T19:06:41Z</time>
    </trkpt>
    <trkpt lat="50.9639492" lon="6.8696188">
      <time>2020-11-04T19:06:49Z</time>
    </trkpt>
    <trkpt lat="50.9640546" lon="6.8695671">
      <time>2020-11-04T19:06:54Z</time>
    </trkpt>
    <trkpt lat="50.9641408" lon="6.8693205">
      <time>2020-11-04T19:07:02Z</time>
    </trkpt>
    <trkpt lat="50.9641753" lon="6.8691090">
      <time>2020-11-04T19:07:07Z</time>
    </trkpt>
    <trkpt lat="50.9641970" lon="6.8688566">
      <time>2020-11-04T19:07:12Z</time>
    </trkpt>
    <trkpt lat="50.9642511" lon="6.8685931">
      <time>2020-11-04T19:07:19Z</time>
    </trkpt>
    <trkpt lat="50.9642843" lon="6.8683723">
      <time>2020-11-04T19:07:25Z</time>
    </trkpt>
    <trkpt lat="50.9642795" lon="6.8680849">
      <time>2020-11-04T19:07:31Z</time>
    </trkpt>
    <trkpt lat="50.9642684" lon="6.8679848">
      <time>2020-11-04T19:07:34Z</time>
    </trkpt>
    <trkpt lat="50.9642807" lon="6.8678739">
      <time>2020-11-04T19:07:37Z</time>
    </trkpt>
    <trkpt lat="50.9643118" lon="6.8678147">
      <time>2020-11-04T19:07:39Z</time>
    </trkpt>
    <trkpt lat="50.9644885" lon="6.8678029">
      <time>2020-11-04T19:07:45Z</time>
    </trkpt>
    <trkpt lat="50.9646884" lon="6.8679189">
      <time>2020-11-04T19:07:52Z</time>
    </trkpt>
    <trkpt lat="50.9648262" lon="6.8681004">
      <time>2020-11-04T19:07:58Z</time>
    </trkpt>
    <trkpt lat="50.9648749" lon="6.8681497">
      <time>2020-11-04T19:08:00Z</time>
    </trkpt>
    <trkpt lat="50.9649426" lon="6.8681867">
      <time>2020-11-04T19:08:03Z</time>
    </trkpt>
    <trkpt lat="50.9651420" lon="6.8682616">
      <time>2020-11-04T19:08:10Z</time>
    </trkpt>
    <trkpt lat="50.9653214" lon="6.8683119">
      <time>2020-11-04T19:08:16Z</time>
    </trkpt>
    <trkpt lat="50.9654042" lon="6.8683378">
      <time>2020-11-04T19:08:19Z</time>
    </trkpt>
    <trkpt lat="50.9655884" lon="6.8683947">
      <time>2020-11-04T19:08:26Z</time>
    </trkpt>
    <trkpt lat="50.9656846" lon="6.8684345">
      <time>2020-11-04T19:08:30Z</time>
    </trkpt>
    <trkpt lat="50.9658670" lon="6.8685153">
      <time>2020-11-04T19:08:37Z</time>
    </trkpt>
    <trkpt lat="50.9659248" lon="6.8685335">
      <time>2020-11-04T19:08:39Z</time>
    </trkpt>
    <trkpt lat="50.9660969" lon="6.8686006">
      <time>2020-11-04T19:08:46Z</time>
    </trkpt>
    <trkpt lat="50.9661326" lon="6.8686448">
      <time>2020-11-04T19:08:48Z</time>
    </trkpt>
    <trkpt lat="50.9661479" lon="6.8687315">
      <time>2020-11-04T19:08:50Z</time>
    </trkpt>
    <trkpt lat="50.9661841" lon="6.8689982">
      <time>2020-11-04T19:08:56Z</time>
    </trkpt>
    <trkpt lat="50.9661766" lon="6.8693147">
      <time>2020-11-04T19:09:03Z</time>
    </trkpt>
    <trkpt lat="50.9661637" lon="6.8694530">
      <time>2020-11-04T19:09:06Z</time>
    </trkpt>
    <trkpt lat="50.9661151" lon="6.8697722">
      <time>2020-11-04T19:09:13Z</time>
    </trkpt>
    <trkpt lat="50.9661135" lon="6.8698165">
      <time>2020-11-04T19:09:14Z</time>
    </trkpt>
    <trkpt lat="50.9660566" lon="6.8701055">
      <time>2020-11-04T19:09:22Z</time>
    </trkpt>
    <trkpt lat="50.9659253" lon="6.8703586">
      <time>2020-11-04T19:09:29Z</time>
    </trkpt>
    <trkpt lat="50.9658938" lon="6.8704310">
      <time>2020-11-04T19:09:31Z</time>
    </trkpt>
    <trkpt lat="50.9658214" lon="6.8705746">
      <time>2020-11-04T19:09:35Z</time>
    </trkpt>
    <trkpt lat="50.9657005" lon="6.8707131">
      <time>2020-11-04T19:09:40Z</time>
    </trkpt>
    <trkpt lat="50.9656657" lon="6.8709176">
      <time>2020-11-04T19:09:45Z</time>
    </trkpt>
    <trkpt lat="50.9656919" lon="6.8712553">
      <time>2020-11-04T19:09:53Z</time>
    </trkpt>
    <trkpt lat="50.9656817" lon="6.8715471">
      <time>2020-11-04T19:09:59Z</time>
    </trkpt>
    <trkpt lat="50.9656777" lon="6.8716390">
      <time>2020-11-04T19:10:01Z</time>
    </trkpt>
    <trkpt lat="50.9656809" lon="6.8719322">
      <time>2020-11-04T19:10:07Z</time>
    </trkpt>
    <trkpt lat="50.9656867" lon="6.8720249">
      <time>2020-11-04T19:10:09Z</time>
    </trkpt>
    <trkpt lat="50.9656328" lon="6.8723238">
      <time>2020-11-04T19:10:15Z</time>
    </trkpt>
    <trkpt lat="50.9656150" lon="6.8723706">
      <time>2020-11-04T19:10:16Z</time>
    </trkpt>
    <trkpt lat="50.9655550" lon="6.8726132">
      <time>2020-11-04T19:10:22Z</time>
    </trkpt>
    <trkpt lat="50.9654433" lon="6.8728870">
      <time>2020-11-04T19:10:29Z</time>
    </trkpt>
    <trkpt lat="50.9653103" lon="6.8731578">
      <time>2020-11-04T19:10:37Z</time>
    </trkpt>
    <trkpt lat="50.9652898" lon="6.8731923">
      <time>2020-11-04T19:10:38Z</time>
    </trkpt>
    <trkpt lat="50.9651458" lon="6.8734074">
      <time>2020-11-04T19:10:45Z</time>
    </trkpt>
    <trkpt lat="50.9651259" lon="6.8734414">
      <time>2020-11-04T19:10:46Z</time>
    </trkpt>
    <trkpt lat="50.9649981" lon="6.8736702">
      <time>2020-11-04T19:10:53Z</time>
    </trkpt>
    <trkpt lat="50.9649479" lon="6.8737632">
      <time>2020-11-04T19:10:56Z</time>
    </trkpt>
    <trkpt lat="50.9649019" lon="6.8738779">
      <time>2020-11-04T19:11:00Z</time>
    </trkpt>
    <trkpt lat="50.9647890" lon="6.8741325">
      <time>2020-11-04T19:11:06Z</time>
    </trkpt>
    <trkpt lat="50.9647690" lon="6.8741741">
      <time>2020-11-04T19:11:07Z</time>
    </trkpt>
    <trkpt lat="50.9646742" lon="6.8744373">
      <time>2020-11-04T19:11:13Z</time>
    </trkpt>
    <trkpt lat="50.9646600" lon="6.8744813">
      <time>2020-11-04T19:11:14Z</time>
    </trkpt>
    <trkpt lat="50.9645832" lon="6.8747475">
      <time>2020-11-04T19:11:21Z</time>
    </trkpt>
    <trkpt lat="50.9645537" lon="6.8748671">
      <time>2020-11-04T19:11:24Z</time>
    </trkpt>
    <trkpt lat="50.9645034" lon="6.8751841">
      <time>2020-11-04T19:11:31Z</time>
    </trkpt>
    <trkpt lat="50.9644973" lon="6.8752225">
      <time>2020-11-04T19:11:32Z</time>
    </trkpt>
    <trkpt lat="50.9644434" lon="6.8755068">
      <time>2020-11-04T19:11:39Z</time>
    </trkpt>
    <trkpt lat="50.9644183" lon="6.8755955">
      <time>2020-11-04T19:11:41Z</time>
    </trkpt>
    <trkpt lat="50.9643572" lon="6.8758652">
      <time>2020-11-04T19:11:47Z</time>
    </trkpt>
    <trkpt lat="50.9643340" lon="6.8760006">
      <time>2020-11-04T19:11:50Z</time>
    </trkpt>
    <trkpt lat="50.9642834" lon="6.8761967">
      <time>2020-11-04T19:11:55Z</time>
    </trkpt>
    <trkpt lat="50.9642235" lon="6.8762304">
      <time>2020-11-04T19:11:57Z</time>
    </trkpt>
    <trkpt lat="50.9641706" lon="6.8762197">
      <time>2020-11-04T19:11:59Z</time>
    </trkpt>
    <trkpt lat="50.9640570" lon="6.8761991">
      <time>2020-11-04T19:12:03Z</time>
    </trkpt>
    <trkpt lat="50.9638795" lon="6.8761384">
      <time>2020-11-04T19:12:09Z</time>
    </trkpt>
    <trkpt lat="50.9637327" lon="6.8760327">
      <time>2020-11-04T19:12:14Z</time>
    </trkpt>
    <trkpt lat="50.9635597" lon="6.8760496">
      <time>2020-11-04T19:12:19Z</time>
    </trkpt>
    <trkpt lat="50.9633727" lon="6.8760258">
      <time>2020-11-04T19:12:25Z</time>
    </trkpt>
    <trkpt lat="50.9633703" lon="6.8760182">
      <time>2020-11-04T19:12:26Z</time>
    </trkpt>
    <trkpt lat="50.9633703" lon="6.8760226">
      <time>2020-11-04T19:12:27Z</time>
    </trkpt>
  </trkseg></trk>
</gpx>
