<?xml version="1.0" encoding="UTF-8"?>
<gpx version="1.1" creator="Diary FIT converter" xmlns="http://www.topografix.com/GPX/1/1">
  <trk><name>Running</name><trkseg>
    <trkpt lat="50.9633391" lon="6.8768525">
      <time>2021-01-22T06:09:01Z</time>
    </trkpt>
    <trkpt lat="50.9633779" lon="6.8770219">
      <time>2021-01-22T06:09:05Z</time>
    </trkpt>
    <trkpt lat="50.9634387" lon="6.8771517">
      <time>2021-01-22T06:09:09Z</time>
    </trkpt>
    <trkpt lat="50.9634574" lon="6.8771786">
      <time>2021-01-22T06:09:10Z</time>
    </trkpt>
    <trkpt lat="50.9634851" lon="6.8773174">
      <time>2021-01-22T06:09:13Z</time>
    </trkpt>
    <trkpt lat="50.9635118" lon="6.8773855">
      <time>2021-01-22T06:09:15Z</time>
    </trkpt>
    <trkpt lat="50.9635104" lon="6.8774260">
      <time>2021-01-22T06:09:16Z</time>
    </trkpt>
    <trkpt lat="50.9635433" lon="6.8775232">
      <time>2021-01-22T06:09:19Z</time>
    </trkpt>
    <trkpt lat="50.9636351" lon="6.8776631">
      <time>2021-01-22T06:09:24Z</time>
    </trkpt>
    <trkpt lat="50.9636622" lon="6.8777119">
      <time>2021-01-22T06:09:25Z</time>
    </trkpt>
    <trkpt lat="50.9637148" lon="6.8778252">
      <time>2021-01-22T06:09:28Z</time>
    </trkpt>
    <trkpt lat="50.9637852" lon="6.8779238">
      <time>2021-01-22T06:09:32Z</time>
    </trkpt>
    <trkpt lat="50.9638031" lon="6.8779533">
      <time>2021-01-22T06:09:33Z</time>
    </trkpt>
    <trkpt lat="50.9639513" lon="6.8780913">
      <time>2021-01-22T06:09:38Z</time>
    </trkpt>
    <trkpt lat="50.9641028" lon="6.8782731">
      <time>2021-01-22T06:09:44Z</time>
    </trkpt>
    <trkpt lat="50.9641918" lon="6.8784208">
      <time>2021-01-22T06:09:47Z</time>
    </trkpt>
    <trkpt lat="50.9642885" lon="6.8785485">
      <time>2021-01-22T06:09:51Z</time>
    </trkpt>
    <trkpt lat="50.9644316" lon="6.8786911">
      <time>2021-01-22T06:09:57Z</time>
    </trkpt>
    <trkpt lat="50.9644744" lon="6.8788715">
      <time>2021-01-22T06:10:02Z</time>
    </trkpt>
    <trkpt lat="50.9646123" lon="6.8791029">
      <time>2021-01-22T06:10:10Z</time>
    </trkpt>
    <trkpt lat="50.9647449" lon="6.8792378">
      <time>2021-01-22T06:10:15Z</time>
    </trkpt>
    <trkpt lat="50.9647706" lon="6.8792900">
      <time>2021-01-22T06:10:17Z</time>
    </trkpt>
    <trkpt lat="50.9648690" lon="6.8795150">
      <time>2021-01-22T06:10:24Z</time>
    </trkpt>
    <trkpt lat="50.9649904" lon="6.8796376">
      <time>2021-01-22T06:10:30Z</time>
    </trkpt>
    <trkpt lat="50.9651220" lon="6.8798263">
      <time>2021-01-22T06:10:37Z</time>
    </trkpt>
    <trkpt lat="50.9652355" lon="6.8799505">
      <time>2021-01-22T06:10:42Z</time>
    </trkpt>
    <trkpt lat="50.9652516" lon="6.8799819">
      <time>2021-01-22T06:10:43Z</time>
    </trkpt>
    <trkpt lat="50.9653553" lon="6.8801234">
      <time>2021-01-22T06:10:48Z</time>
    </trkpt>
    <trkpt lat="50.9653783" lon="6.8801451">
      <time>2021-01-22T06:10:49Z</time>
    </trkpt>
    <trkpt lat="50.9655309" lon="6.8803100">
      <time>2021-01-22T06:10:55Z</time>
    </trkpt>
    <trkpt lat="50.9655608" lon="6.8803373">
      <time>2021-01-22T06:10:56Z</time>
    </trkpt>
    <trkpt lat="50.9657372" lon="6.8805260">
      <time>2021-01-22T06:11:03Z</time>
    </trkpt>
    <trkpt lat="50.9658817" lon="6.8806437">
      <time>2021-01-22T06:11:08Z</time>
    </trkpt>
    <trkpt lat="50.9660124" lon="6.8807915">
      <time>2021-01-22T06:11:13Z</time>
    </trkpt>
    <trkpt lat="50.9661645" lon="6.8809650">
      <time>2021-01-22T06:11:19Z</time>
    </trkpt>
    <trkpt lat="50.9661884" lon="6.8809930">
      <time>2021-01-22T06:11:20Z</time>
    </trkpt>
    <trkpt lat="50.9663625" lon="6.8811634">
      <time>2021-01-22T06:11:26Z</time>
    </trkpt>
    <trkpt lat="50.9664232" lon="6.8813788">
      <time>2021-01-22T06:11:31Z</time>
    </trkpt>
    <trkpt lat="50.9663422" lon="6.8815965">
      <time>2021-01-22T06:11:36Z</time>
    </trkpt>
    <trkpt lat="50.9662440" lon="6.8818320">
      <time>2021-01-22T06:11:41Z</time>
    </trkpt>
    <trkpt lat="50.9661806" lon="6.8820518">
      <time>2021-01-22T06:11:46Z</time>
    </trkpt>
    <trkpt lat="50.9660624" lon="6.8823043">
      <time>2021-01-22T06:11:52Z</time>
    </trkpt>
    <trkpt lat="50.9659398" lon="6.8825327">
      <time>2021-01-22T06:11:58Z</time>
    </trkpt>
    <trkpt lat="50.9658667" lon="6.8826694">
      <time>2021-01-22T06:12:02Z</time>
    </trkpt>
    <trkpt lat="50.9658286" lon="6.8827391">
      <time>2021-01-22T06:12:04Z</time>
    </trkpt>
    <trkpt lat="50.9658202" lon="6.8827751">
      <time>2021-01-22T06:12:05Z</time>
    </trkpt>
    <trkpt lat="50.9657695" lon="6.8829531">
      <time>2021-01-22T06:12:10Z</time>
    </trkpt>
    <trkpt lat="50.9656802" lon="6.8831968">
      <time>2021-01-22T06:12:17Z</time>
    </trkpt>
    <trkpt lat="50.9656315" lon="6.8832997">
      <time>2021-01-22T06:12:20Z</time>
    </trkpt>
    <trkpt lat="50.9655778" lon="6.8834214">
      <time>2021-01-22T06:12:23Z</time>
    </trkpt>
    <trkpt lat="50.9654823" lon="6.8835996">
      <time>2021-01-22T06:12:28Z</time>
    </trkpt>
    <trkpt lat="50.9654146" lon="6.8837282">
      <time>2021-01-22T06:12:32Z</time>
    </trkpt>
    <trkpt lat="50.9653055" lon="6.8839646">
      <time>2021-01-22T06:12:38Z</time>
    </trkpt>
    <trkpt lat="50.9652692" lon="6.8840422">
      <time>2021-01-22T06:12:40Z</time>
    </trkpt>
    <trkpt lat="50.9651505" lon="6.8842985">
      <time>2021-01-22T06:12:47Z</time>
    </trkpt>
    <trkpt lat="50.9650160" lon="6.8845702">
      <time>2021-01-22T06:12:54Z</time>
    </trkpt>
    <trkpt lat="50.9649734" lon="6.8846508">
      <time>2021-01-22T06:12:56Z</time>
    </trkpt>
    <trkpt lat="50.9648603" lon="6.8848941">
      <time>2021-01-22T06:13:03Z</time>
    </trkpt>
    <trkpt lat="50.9647750" lon="6.8851249">
      <time>2021-01-22T06:13:09Z</time>
    </trkpt>
    <trkpt lat="50.9646447" lon="6.8853672">
      <time>2021-01-22T06:13:16Z</time>
    </trkpt>
    <trkpt lat="50.9646219" lon="6.8853892">
      <time>2021-01-22T06:13:17Z</time>
    </trkpt>
    <trkpt lat="50.9645239" lon="6.8855908">
      <time>2021-01-22T06:13:23Z</time>
    </trkpt>
    <trkpt lat="50.9644267" lon="6.8857998">
      <time>2021-01-22T06:13:30Z</time>
    </trkpt>
    <trkpt lat="50.9643380" lon="6.8859912">
      <time>2021-01-22T06:13:36Z</time>
    </trkpt>
    <trkpt lat="50.9642188" lon="6.8862407">
      <time>2021-01-22T06:13:43Z</time>
    </trkpt>
    <trkpt lat="50.9642011" lon="6.8862755">
      <time>2021-01-22T06:13:44Z</time>
    </trkpt>
    <trkpt lat="50.9641212" lon="6.8865103">
      <time>2021-01-22T06:13:50Z</time>
    </trkpt>
    <trkpt lat="50.9640709" lon="6.8866353">
      <time>2021-01-22T06:13:53Z</time>
    </trkpt>
    <trkpt lat="50.9640086" lon="6.8867626">
      <time>2021-01-22T06:13:57Z</time>
    </trkpt>
    <trkpt lat="50.9639129" lon="6.8869841">
      <time>2021-01-22T06:14:03Z</time>
    </trkpt>
    <trkpt lat="50.9638680" lon="6.8870281">
      <time>2021-01-22T06:14:05Z</time>
    </trkpt>
    <trkpt lat="50.9638317" lon="6.8870738">
      <time>2021-01-22T06:14:07Z</time>
    </trkpt>
    <trkpt lat="50.9637446" lon="6.8873095">
      <time>2021-01-22T06:14:13Z</time>
    </trkpt>
    <trkpt lat="50.9636233" lon="6.8875466">
      <time>2021-01-22T06:14:19Z</time>
    </trkpt>
    <trkpt lat="50.9635782" lon="6.8876340">
      <time>2021-01-22T06:14:21Z</time>
    </trkpt>
    <trkpt lat="50.9634903" lon="6.8878247">
      <time>2021-01-22T06:14:26Z</time>
    </trkpt>
    <trkpt lat="50.9634557" lon="6.8880025">
      <time>2021-01-22T06:14:30Z</time>
    </trkpt>
    <trkpt lat="50.9634114" lon="6.8881012">
      <time>2021-01-22T06:14:33Z</time>
    </trkpt>
    <trkpt lat="50.9632781" lon="6.8883523">
      <time>2021-01-22T06:14:40Z</time>
    </trkpt>
    <trkpt lat="50.9632012" lon="6.8885057">
      <time>2021-01-22T06:14:44Z</time>
    </trkpt>
    <trkpt lat="50.9630748" lon="6.8887292">
      <time>2021-01-22T06:14:50Z</time>
    </trkpt>
    <trkpt lat="50.9630515" lon="6.8888113">
      <time>2021-01-22T06:14:52Z</time>
    </trkpt>
    <trkpt lat="50.9630052" lon="6.8890042">
      <time>2021-01-22T06:14:57Z</time>
    </trkpt>
    <trkpt lat="50.9629016" lon="6.8891782">
      <time>2021-01-22T06:15:03Z</time>
    </trkpt>
    <trkpt lat="50.9628049" lon="6.8894331">
      <time>2021-01-22T06:15:10Z</time>
    </trkpt>
    <trkpt lat="50.9627976" lon="6.8894632">
      <time>2021-01-22T06:15:11Z</time>
    </trkpt>
    <trkpt lat="50.9624576" lon="6.8899560">
      <time>2021-01-22T06:15:26Z</time>
    </trkpt>
    <trkpt lat="50.9623161" lon="6.8901997">
      <time>2021-01-22T06:15:33Z</time>
    </trkpt>
    <trkpt lat="50.9622329" lon="6.8904385">
      <time>2021-01-22T06:15:41Z</time>
    </trkpt>
    <trkpt lat="50.9621869" lon="6.8906696">
      <time>2021-01-22T06:15:48Z</time>
    </trkpt>
    <trkpt lat="50.9621004" lon="6.8909088">
      <time>2021-01-22T06:15:55Z</time>
    </trkpt>
    <trkpt lat="50.9620147" lon="6.8911037">
      <time>2021-01-22T06:16:01Z</time>
    </trkpt>
    <trkpt lat="50.9619264" lon="6.8912782">
      <time>2021-01-22T06:16:06Z</time>
    </trkpt>
    <trkpt lat="50.9619052" lon="6.8913504">
      <time>2021-01-22T06:16:08Z</time>
    </trkpt>
    <trkpt lat="50.9618458" lon="6.8915301">
      <time>2021-01-22T06:16:13Z</time>
    </trkpt>
    <trkpt lat="50.9618302" lon="6.8915642">
      <time>2021-01-22T06:16:14Z</time>
    </trkpt>
    <trkpt lat="50.9618142" lon="6.8915996">
      <time>2021-01-22T06:16:15Z</time>
    </trkpt>
    <trkpt lat="50.9617403" lon="6.8917405">
      <time>2021-01-22T06:16:19Z</time>
    </trkpt>
    <trkpt lat="50.9617209" lon="6.8917756">
      <time>2021-01-22T06:16:20Z</time>
    </trkpt>
    <trkpt lat="50.9616029" lon="6.8920252">
      <time>2021-01-22T06:16:27Z</time>
    </trkpt>
    <trkpt lat="50.9615026" lon="6.8922686">
      <time>2021-01-22T06:16:34Z</time>
    </trkpt>
    <trkpt lat="50.9614305" lon="6.8923750">
      <time>2021-01-22T06:16:38Z</time>
    </trkpt>
    <trkpt lat="50.9614027" lon="6.8923899">
      <time>2021-01-22T06:16:39Z</time>
    </trkpt>
    <trkpt lat="50.9613761" lon="6.8923898">
      <time>2021-01-22T06:16:40Z</time>
    </trkpt>
    <trkpt lat="50.9613086" lon="6.8923369">
      <time>2021-01-22T06:16:43Z</time>
    </trkpt>
    <trkpt lat="50.9612814" lon="6.8922770">
      <time>2021-01-22T06:16:45Z</time>
    </trkpt>
    <trkpt lat="50.9612585" lon="6.8921987">
      <time>2021-01-22T06:16:47Z</time>
    </trkpt>
    <trkpt lat="50.9611206" lon="6.8919816">
      <time>2021-01-22T06:16:53Z</time>
    </trkpt>
    <trkpt lat="50.9610827" lon="6.8919543">
      <time>2021-01-22T06:16:54Z</time>
    </trkpt>
    <trkpt lat="50.9609294" lon="6.8917807">
      <time>2021-01-22T06:16:59Z</time>
    </trkpt>
    <trkpt lat="50.9609080" lon="6.8917452">
      <time>2021-01-22T06:17:00Z</time>
    </trkpt>
    <trkpt lat="50.9607199" lon="6.8916039">
      <time>2021-01-22T06:17:06Z</time>
    </trkpt>
    <trkpt lat="50.9605744" lon="6.8914850">
      <time>2021-01-22T06:17:11Z</time>
    </trkpt>
    <trkpt lat="50.9604672" lon="6.8912334">
      <time>2021-01-22T06:17:17Z</time>
    </trkpt>
    <trkpt lat="50.9603705" lon="6.8910107">
      <time>2021-01-22T06:17:23Z</time>
    </trkpt>
    <trkpt lat="50.9602765" lon="6.8908404">
      <time>2021-01-22T06:17:28Z</time>
    </trkpt>
    <trkpt lat="50.9602372" lon="6.8906321">
      <time>2021-01-22T06:17:33Z</time>
    </trkpt>
    <trkpt lat="50.9601828" lon="6.8903514">
      <time>2021-01-22T06:17:39Z</time>
    </trkpt>
    <trkpt lat="50.9601784" lon="6.8902021">
      <time>2021-01-22T06:17:41Z</time>
    </trkpt>
    <trkpt lat="50.9601681" lon="6.8898923">
      <time>2021-01-22T06:17:47Z</time>
    </trkpt>
    <trkpt lat="50.9601745" lon="6.8896713">
      <time>2021-01-22T06:17:51Z</time>
    </trkpt>
    <trkpt lat="50.9602151" lon="6.8893744">
      <time>2021-01-22T06:17:58Z</time>
    </trkpt>
    <trkpt lat="50.9602175" lon="6.8893245">
      <time>2021-01-22T06:17:59Z</time>
    </trkpt>
    <trkpt lat="50.9604299" lon="6.8883203">
      <time>2021-01-22T06:18:23Z</time>
    </trkpt>
    <trkpt lat="50.9604521" lon="6.8882631">
      <time>2021-01-22T06:18:26Z</time>
    </trkpt>
    <trkpt lat="50.9604538" lon="6.8880208">
      <time>2021-01-22T06:18:32Z</time>
    </trkpt>
    <trkpt lat="50.9604425" lon="6.8879832">
      <time>2021-01-22T06:18:33Z</time>
    </trkpt>
    <trkpt lat="50.9604151" lon="6.8878045">
      <time>2021-01-22T06:18:38Z</time>
    </trkpt>
    <trkpt lat="50.9603900" lon="6.8875806">
      <time>2021-01-22T06:18:44Z</time>
    </trkpt>
    <trkpt lat="50.9603720" lon="6.8874366">
      <time>2021-01-22T06:18:48Z</time>
    </trkpt>
    <trkpt lat="50.9603528" lon="6.8871603">
      <time>2021-01-22T06:18:55Z</time>
    </trkpt>
    <trkpt lat="50.9602880" lon="6.8868731">
      <time>2021-01-22T06:19:02Z</time>
    </trkpt>
    <trkpt lat="50.9602709" lon="6.8868080">
      <time>2021-01-22T06:19:04Z</time>
    </trkpt>
    <trkpt lat="50.9602188" lon="6.8866151">
      <time>2021-01-22T06:19:09Z</time>
    </trkpt>
    <trkpt lat="50.9601406" lon="6.8864022">
      <time>2021-01-22T06:19:15Z</time>
    </trkpt>
    <trkpt lat="50.9600614" lon="6.8862115">
      <time>2021-01-22T06:19:21Z</time>
    </trkpt>
    <trkpt lat="50.9600466" lon="6.8861796">
      <time>2021-01-22T06:19:22Z</time>
    </trkpt>
    <trkpt lat="50.9599950" lon="6.8860350">
      <time>2021-01-22T06:19:27Z</time>
    </trkpt>
    <trkpt lat="50.9599887" lon="6.8859617">
      <time>2021-01-22T06:19:30Z</time>
    </trkpt>
    <trkpt lat="50.9599972" lon="6.8859365">
      <time>2021-01-22T06:19:31Z</time>
    </trkpt>
    <trkpt lat="50.9601007" lon="6.8858306">
      <time>2021-01-22T06:19:37Z</time>
    </trkpt>
    <trkpt lat="50.9601902" lon="6.8858294">
      <time>2021-01-22T06:19:40Z</time>
    </trkpt>
    <trkpt lat="50.9602625" lon="6.8858047">
      <time>2021-01-22T06:19:43Z</time>
    </trkpt>
    <trkpt lat="50.9603061" lon="6.8857821">
      <time>2021-01-22T06:19:45Z</time>
    </trkpt>
    <trkpt lat="50.9604809" lon="6.8857101">
      <time>2021-01-22T06:19:52Z</time>
    </trkpt>
    <trkpt lat="50.9606105" lon="6.8857414">
      <time>2021-01-22T06:19:57Z</time>
    </trkpt>
    <trkpt lat="50.9607349" lon="6.8856689">
      <time>2021-01-22T06:20:03Z</time>
    </trkpt>
    <trkpt lat="50.9608615" lon="6.8856305">
      <time>2021-01-22T06:20:08Z</time>
    </trkpt>
    <trkpt lat="50.9610577" lon="6.8855506">
      <time>2021-01-22T06:20:16Z</time>
    </trkpt>
    <trkpt lat="50.9612195" lon="6.8854413">
      <time>2021-01-22T06:20:23Z</time>
    </trkpt>
    <trkpt lat="50.9613888" lon="6.8852627">
      <time>2021-01-22T06:20:31Z</time>
    </trkpt>
    <trkpt lat="50.9615517" lon="6.8850777">
      <time>2021-01-22T06:20:39Z</time>
    </trkpt>
    <trkpt lat="50.9617212" lon="6.8849864">
      <time>2021-01-22T06:20:46Z</time>
    </trkpt>
    <trkpt lat="50.9617538" lon="6.8849896">
      <time>2021-01-22T06:20:47Z</time>
    </trkpt>
    <trkpt lat="50.9619111" lon="6.8849395">
      <time>2021-01-22T06:20:53Z</time>
    </trkpt>
    <trkpt lat="50.9619662" lon="6.8848140">
      <time>2021-01-22T06:20:58Z</time>
    </trkpt>
    <trkpt lat="50.9619906" lon="6.8845757">
      <time>2021-01-22T06:21:04Z</time>
    </trkpt>
    <trkpt lat="50.9619994" lon="6.8842548">
      <time>2021-01-22T06:21:11Z</time>
    </trkpt>
    <trkpt lat="50.9619523" lon="6.8840328">
      <time>2021-01-22T06:21:18Z</time>
    </trkpt>
    <trkpt lat="50.9618722" lon="6.8838075">
      <time>2021-01-22T06:21:24Z</time>
    </trkpt>
    <trkpt lat="50.9618631" lon="6.8837742">
      <time>2021-01-22T06:21:25Z</time>
    </trkpt>
    <trkpt lat="50.9618027" lon="6.8835650">
      <time>2021-01-22T06:21:31Z</time>
    </trkpt>
    <trkpt lat="50.9617764" lon="6.8834938">
      <time>2021-01-22T06:21:33Z</time>
    </trkpt>
    <trkpt lat="50.9617085" lon="6.8832438">
      <time>2021-01-22T06:21:40Z</time>
    </trkpt>
    <trkpt lat="50.9616280" lon="6.8829649">
      <time>2021-01-22T06:21:47Z</time>
    </trkpt>
    <trkpt lat="50.9615405" lon="6.8827135">
      <time>2021-01-22T06:21:54Z</time>
    </trkpt>
    <trkpt lat="50.9615262" lon="6.8826709">
      <time>2021-01-22T06:21:55Z</time>
    </trkpt>
    <trkpt lat="50.9614433" lon="6.8823734">
      <time>2021-01-22T06:22:03Z</time>
    </trkpt>
    <trkpt lat="50.9613830" lon="6.8820986">
      <time>2021-01-22T06:22:10Z</time>
    </trkpt>
    <trkpt lat="50.9613716" lon="6.8820548">
      <time>2021-01-22T06:22:11Z</time>
    </trkpt>
    <trkpt lat="50.9612930" lon="6.8817677">
      <time>2021-01-22T06:22:18Z</time>
    </trkpt>
    <trkpt lat="50.9612763" lon="6.8816887">
      <time>2021-01-22T06:22:20Z</time>
    </trkpt>
    <trkpt lat="50.9612354" lon="6.8815272">
      <time>2021-01-22T06:22:24Z</time>
    </trkpt>
    <trkpt lat="50.9611632" lon="6.8812383">
      <time>2021-01-22T06:22:31Z</time>
    </trkpt>
    <trkpt lat="50.9610800" lon="6.8809670">
      <time>2021-01-22T06:22:38Z</time>
    </trkpt>
    <trkpt lat="50.9610628" lon="6.8809015">
      <time>2021-01-22T06:22:40Z</time>
    </trkpt>
    <trkpt lat="50.9609913" lon="6.8806140">
      <time>2021-01-22T06:22:47Z</time>
    </trkpt>
    <trkpt lat="50.9609789" lon="6.8805685">
      <time>2021-01-22T06:22:48Z</time>
    </trkpt>
    <trkpt lat="50.9609042" lon="6.8802797">
      <time>2021-01-22T06:22:55Z</time>
    </trkpt>
    <trkpt lat="50.9608665" lon="6.8801571">
      <time>2021-01-22T06:22:58Z</time>
    </trkpt>
    <trkpt lat="50.9607956" lon="6.8798928">
      <time>2021-01-22T06:23:05Z</time>
    </trkpt>
    <trkpt lat="50.9607677" lon="6.8798092">
      <time>2021-01-22T06:23:07Z</time>
    </trkpt>
    <trkpt lat="50.9607306" lon="6.8794984">
      <time>2021-01-22T06:23:15Z</time>
    </trkpt>
    <trkpt lat="50.9607455" lon="6.8792748">
      <time>2021-01-22T06:23:20Z</time>
    </trkpt>
    <trkpt lat="50.9607987" lon="6.8790018">
      <time>2021-01-22T06:23:26Z</time>
    </trkpt>
    <trkpt lat="50.9608019" lon="6.8789553">
      <time>2021-01-22T06:23:27Z</time>
    </trkpt>
    <trkpt lat="50.9608232" lon="6.8788859">
      <time>2021-01-22T06:23:29Z</time>
    </trkpt>
    <trkpt lat="50.9608469" lon="6.8788355">
      <time>2021-01-22T06:23:31Z</time>
    </trkpt>
    <trkpt lat="50.9609221" lon="6.8786586">
      <time>2021-01-22T06:23:38Z</time>
    </trkpt>
    <trkpt lat="50.9610756" lon="6.8784766">
      <time>2021-01-22T06:23:45Z</time>
    </trkpt>
    <trkpt lat="50.9611562" lon="6.8784042">
      <time>2021-01-22T06:23:48Z</time>
    </trkpt>
    <trkpt lat="50.9612073" lon="6.8783970">
      <time>2021-01-22T06:23:50Z</time>
    </trkpt>
    <trkpt lat="50.9612696" lon="6.8783945">
      <time>2021-01-22T06:23:52Z</time>
    </trkpt>
    <trkpt lat="50.9614172" lon="6.8784577">
      <time>2021-01-22T06:23:57Z</time>
    </trkpt>
    <trkpt lat="50.9616077" lon="6.8785127">
      <time>2021-01-22T06:24:03Z</time>
    </trkpt>
    <trkpt lat="50.9617923" lon="6.8785741">
      <time>2021-01-22T06:24:10Z</time>
    </trkpt>
    <trkpt lat="50.9619259" lon="6.8786385">
      <time>2021-01-22T06:24:15Z</time>
    </trkpt>
    <trkpt lat="50.9620090" lon="6.8786678">
      <time>2021-01-22T06:24:18Z</time>
    </trkpt>
    <trkpt lat="50.9620920" lon="6.8787053">
      <time>2021-01-22T06:24:21Z</time>
    </trkpt>
    <trkpt lat="50.9622070" lon="6.8787564">
      <time>2021-01-22T06:24:25Z</time>
    </trkpt>
    <trkpt lat="50.9623391" lon="6.8788137">
      <time>2021-01-22T06:24:30Z</time>
    </trkpt>
    <trkpt lat="50.9624330" lon="6.8788447">
      <time>2021-01-22T06:24:34Z</time>
    </trkpt>
    <trkpt lat="50.9624561" lon="6.8788540">
      <time>2021-01-22T06:24:35Z</time>
    </trkpt>
    <trkpt lat="50.9625309" lon="6.8788874">
      <time>2021-01-22T06:24:38Z</time>
    </trkpt>
    <trkpt lat="50.9626474" lon="6.8789523">
      <time>2021-01-22T06:24:43Z</time>
    </trkpt>
    <trkpt lat="50.9627607" lon="6.8790651">
      <time>2021-01-22T06:24:48Z</time>
    </trkpt>
    <trkpt lat="50.9627671" lon="6.8791043">
      <time>2021-01-22T06:24:49Z</time>
    </trkpt>
    <trkpt lat="50.9627939" lon="6.8793245">
      <time>2021-01-22T06:24:55Z</time>
    </trkpt>
    <trkpt lat="50.9627538" lon="6.8795906">
      <time>2021-01-22T06:25:01Z</time>
    </trkpt>
    <trkpt lat="50.9627404" lon="6.8796764">
      <time>2021-01-22T06:25:03Z</time>
    </trkpt>
    <trkpt lat="50.9627272" lon="6.8798516">
      <time>2021-01-22T06:25:07Z</time>
    </trkpt>
    <trkpt lat="50.9627124" lon="6.8799960">
      <time>2021-01-22T06:25:10Z</time>
    </trkpt>
    <trkpt lat="50.9626766" lon="6.8803011">
      <time>2021-01-22T06:25:17Z</time>
    </trkpt>
    <trkpt lat="50.9626506" lon="6.8804778">
      <time>2021-01-22T06:25:21Z</time>
    </trkpt>
    <trkpt lat="50.9626153" lon="6.8807746">
      <time>2021-01-22T06:25:28Z</time>
    </trkpt>
    <trkpt lat="50.9625959" lon="6.8809455">
      <time>2021-01-22T06:25:32Z</time>
    </trkpt>
    <trkpt lat="50.9625497" lon="6.8812291">
      <time>2021-01-22T06:25:39Z</time>
    </trkpt>
    <trkpt lat="50.9625444" lon="6.8812682">
      <time>2021-01-22T06:25:40Z</time>
    </trkpt>
    <trkpt lat="50.9624963" lon="6.8815506">
      <time>2021-01-22T06:25:47Z</time>
    </trkpt>
    <trkpt lat="50.9624646" lon="6.8817959">
      <time>2021-01-22T06:25:53Z</time>
    </trkpt>
    <trkpt lat="50.9624243" lon="6.8820855">
      <time>2021-01-22T06:26:01Z</time>
    </trkpt>
    <trkpt lat="50.9623851" lon="6.8824015">
      <time>2021-01-22T06:26:09Z</time>
    </trkpt>
    <trkpt lat="50.9623767" lon="6.8824446">
      <time>2021-01-22T06:26:10Z</time>
    </trkpt>
    <trkpt lat="50.9623292" lon="6.8827394">
      <time>2021-01-22T06:26:17Z</time>
    </trkpt>
    <trkpt lat="50.9622979" lon="6.8829304">
      <time>2021-01-22T06:26:23Z</time>
    </trkpt>
    <trkpt lat="50.9622565" lon="6.8832139">
      <time>2021-01-22T06:26:30Z</time>
    </trkpt>
    <trkpt lat="50.9622438" lon="6.8832746">
      <time>2021-01-22T06:26:31Z</time>
    </trkpt>
    <trkpt lat="50.9622108" lon="6.8835311">
      <time>2021-01-22T06:26:37Z</time>
    </trkpt>
    <trkpt lat="50.9621686" lon="6.8838423">
      <time>2021-01-22T06:26:45Z</time>
    </trkpt>
    <trkpt lat="50.9621117" lon="6.8841224">
      <time>2021-01-22T06:26:53Z</time>
    </trkpt>
    <trkpt lat="50.9620669" lon="6.8842532">
      <time>2021-01-22T06:26:57Z</time>
    </trkpt>
    <trkpt lat="50.9620512" lon="6.8842556">
      <time>2021-01-22T06:26:58Z</time>
    </trkpt>
    <trkpt lat="50.9619916" lon="6.8841265">
      <time>2021-01-22T06:27:02Z</time>
    </trkpt>
    <trkpt lat="50.9618834" lon="6.8838423">
      <time>2021-01-22T06:27:09Z</time>
    </trkpt>
    <trkpt lat="50.9618071" lon="6.8836094">
      <time>2021-01-22T06:27:15Z</time>
    </trkpt>
    <trkpt lat="50.9617387" lon="6.8833535">
      <time>2021-01-22T06:27:22Z</time>
    </trkpt>
    <trkpt lat="50.9616596" lon="6.8830728">
      <time>2021-01-22T06:27:29Z</time>
    </trkpt>
    <trkpt lat="50.9616528" lon="6.8830329">
      <time>2021-01-22T06:27:30Z</time>
    </trkpt>
    <trkpt lat="50.9615654" lon="6.8827788">
      <time>2021-01-22T06:27:37Z</time>
    </trkpt>
    <trkpt lat="50.9615355" lon="6.8826751">
      <time>2021-01-22T06:27:40Z</time>
    </trkpt>
    <trkpt lat="50.9614662" lon="6.8823807">
      <time>2021-01-22T06:27:48Z</time>
    </trkpt>
    <trkpt lat="50.9614542" lon="6.8823399">
      <time>2021-01-22T06:27:49Z</time>
    </trkpt>
    <trkpt lat="50.9613864" lon="6.8820915">
      <time>2021-01-22T06:27:56Z</time>
    </trkpt>
    <trkpt lat="50.9613673" lon="6.8820127">
      <time>2021-01-22T06:27:58Z</time>
    </trkpt>
    <trkpt lat="50.9612914" lon="6.8817287">
      <time>2021-01-22T06:28:06Z</time>
    </trkpt>
    <trkpt lat="50.9612817" lon="6.8816936">
      <time>2021-01-22T06:28:07Z</time>
    </trkpt>
    <trkpt lat="50.9612083" lon="6.8814350">
      <time>2021-01-22T06:28:14Z</time>
    </trkpt>
    <trkpt lat="50.9611841" lon="6.8813247">
      <time>2021-01-22T06:28:17Z</time>
    </trkpt>
    <trkpt lat="50.9611157" lon="6.8810816">
      <time>2021-01-22T06:28:24Z</time>
    </trkpt>
    <trkpt lat="50.9610385" lon="6.8807958">
      <time>2021-01-22T06:28:32Z</time>
    </trkpt>
    <trkpt lat="50.9609834" lon="6.8805903">
      <time>2021-01-22T06:28:37Z</time>
    </trkpt>
    <trkpt lat="50.9609186" lon="6.8803726">
      <time>2021-01-22T06:28:43Z</time>
    </trkpt>
    <trkpt lat="50.9608417" lon="6.8800951">
      <time>2021-01-22T06:28:50Z</time>
    </trkpt>
    <trkpt lat="50.9608172" lon="6.8800198">
      <time>2021-01-22T06:28:52Z</time>
    </trkpt>
    <trkpt lat="50.9607464" lon="6.8797180">
      <time>2021-01-22T06:29:00Z</time>
    </trkpt>
    <trkpt lat="50.9607196" lon="6.8794617">
      <time>2021-01-22T06:29:06Z</time>
    </trkpt>
    <trkpt lat="50.9607512" lon="6.8791760">
      <time>2021-01-22T06:29:13Z</time>
    </trkpt>
    <trkpt lat="50.9608364" lon="6.8788784">
      <time>2021-01-22T06:29:21Z</time>
    </trkpt>
    <trkpt lat="50.9609322" lon="6.8786927">
      <time>2021-01-22T06:29:27Z</time>
    </trkpt>
    <trkpt lat="50.9610581" lon="6.8784889">
      <time>2021-01-22T06:29:35Z</time>
    </trkpt>
    <trkpt lat="50.9611820" lon="6.8783943">
      <time>2021-01-22T06:29:41Z</time>
    </trkpt>
    <trkpt lat="50.9612424" lon="6.8783905">
      <time>2021-01-22T06:29:44Z</time>
    </trkpt>
    <trkpt lat="50.9613493" lon="6.8784250">
      <time>2021-01-22T06:29:48Z</time>
    </trkpt>
    <trkpt lat="50.9615290" lon="6.8784933">
      <time>2021-01-22T06:29:55Z</time>
    </trkpt>
    <trkpt lat="50.9615541" lon="6.8784993">
      <time>2021-01-22T06:29:56Z</time>
    </trkpt>
    <trkpt lat="50.9617409" lon="6.8785402">
      <time>2021-01-22T06:30:03Z</time>
    </trkpt>
    <trkpt lat="50.9617914" lon="6.8785632">
      <time>2021-01-22T06:30:05Z</time>
    </trkpt>
    <trkpt lat="50.9619822" lon="6.8786527">
      <time>2021-01-22T06:30:12Z</time>
    </trkpt>
    <trkpt lat="50.9621403" lon="6.8786987">
      <time>2021-01-22T06:30:18Z</time>
    </trkpt>
    <trkpt lat="50.9623010" lon="6.8787776">
      <time>2021-01-22T06:30:24Z</time>
    </trkpt>
    <trkpt lat="50.9624876" lon="6.8788759">
      <time>2021-01-22T06:30:30Z</time>
    </trkpt>
    <trkpt lat="50.9625149" lon="6.8788905">
      <time>2021-01-22T06:30:31Z</time>
    </trkpt>
    <trkpt lat="50.9627078" lon="6.8789682">
      <time>2021-01-22T06:30:38Z</time>
    </trkpt>
    <trkpt lat="50.9628016" lon="6.8790983">
      <time>2021-01-22T06:30:43Z</time>
    </trkpt>
    <trkpt lat="50.9628055" lon="6.8791286">
      <time>2021-01-22T06:30:44Z</time>
    </trkpt>
    <trkpt lat="50.9627951" lon="6.8793984">
      <time>2021-01-22T06:30:50Z</time>
    </trkpt>
    <trkpt lat="50.9627838" lon="6.8794847">
      <time>2021-01-22T06:30:52Z</time>
    </trkpt>
    <trkpt lat="50.9627620" lon="6.8796582">
      <time>2021-01-22T06:30:56Z</time>
    </trkpt>
    <trkpt lat="50.9627334" lon="6.8799771">
      <time>2021-01-22T06:31:04Z</time>
    </trkpt>
    <trkpt lat="50.9627055" lon="6.8802471">
      <time>2021-01-22T06:31:11Z</time>
    </trkpt>
    <trkpt lat="50.9626479" lon="6.8805390">
      <time>2021-01-22T06:31:18Z</time>
    </trkpt>
    <trkpt lat="50.9626381" lon="6.8806171">
      <time>2021-01-22T06:31:20Z</time>
    </trkpt>
    <trkpt lat="50.9626174" lon="6.8807768">
      <time>2021-01-22T06:31:24Z</time>
    </trkpt>
    <trkpt lat="50.9626001" lon="6.8809021">
      <time>2021-01-22T06:31:27Z</time>
    </trkpt>
    <trkpt lat="50.9625951" lon="6.8809427">
      <time>2021-01-22T06:31:28Z</time>
    </trkpt>
    <trkpt lat="50.9625794" lon="6.8811042">
      <time>2021-01-22T06:31:32Z</time>
    </trkpt>
    <trkpt lat="50.9625721" lon="6.8811798">
      <time>2021-01-22T06:31:34Z</time>
    </trkpt>
    <trkpt lat="50.9625525" lon="6.8812923">
      <time>2021-01-22T06:31:37Z</time>
    </trkpt>
    <trkpt lat="50.9625285" lon="6.8814748">
      <time>2021-01-22T06:31:42Z</time>
    </trkpt>
    <trkpt lat="50.9625097" lon="6.8815906">
      <time>2021-01-22T06:31:45Z</time>
    </trkpt>
    <trkpt lat="50.9624624" lon="6.8818704">
      <time>2021-01-22T06:31:52Z</time>
    </trkpt>
    <trkpt lat="50.9624559" lon="6.8819028">
      <time>2021-01-22T06:31:53Z</time>
    </trkpt>
    <trkpt lat="50.9624159" lon="6.8822038">
      <time>2021-01-22T06:32:01Z</time>
    </trkpt>
    <trkpt lat="50.9624196" lon="6.8822623">
      <time>2021-01-22T06:32:03Z</time>
    </trkpt>
    <trkpt lat="50.9623843" lon="6.8825291">
      <time>2021-01-22T06:32:11Z</time>
    </trkpt>
    <trkpt lat="50.9623346" lon="6.8828181">
      <time>2021-01-22T06:32:19Z</time>
    </trkpt>
    <trkpt lat="50.9623355" lon="6.8828737">
      <time>2021-01-22T06:32:21Z</time>
    </trkpt>
    <trkpt lat="50.9623360" lon="6.8829025">
      <time>2021-01-22T06:32:22Z</time>
    </trkpt>
    <trkpt lat="50.9622813" lon="6.8831181">
      <time>2021-01-22T06:32:28Z</time>
    </trkpt>
    <trkpt lat="50.9622370" lon="6.8833978">
      <time>2021-01-22T06:32:35Z</time>
    </trkpt>
    <trkpt lat="50.9622298" lon="6.8834355">
      <time>2021-01-22T06:32:36Z</time>
    </trkpt>
    <trkpt lat="50.9621926" lon="6.8836883">
      <time>2021-01-22T06:32:42Z</time>
    </trkpt>
    <trkpt lat="50.9621579" lon="6.8838743">
      <time>2021-01-22T06:32:47Z</time>
    </trkpt>
    <trkpt lat="50.9621580" lon="6.8839000">
      <time>2021-01-22T06:32:48Z</time>
    </trkpt>
    <trkpt lat="50.9621105" lon="6.8841449">
      <time>2021-01-22T06:32:55Z</time>
    </trkpt>
    <trkpt lat="50.9620324" lon="6.8841327">
      <time>2021-01-22T06:32:58Z</time>
    </trkpt>
    <trkpt lat="50.9619559" lon="6.8839521">
      <time>2021-01-22T06:33:04Z</time>
    </trkpt>
    <trkpt lat="50.9618641" lon="6.8836816">
      <time>2021-01-22T06:33:12Z</time>
    </trkpt>
    <trkpt lat="50.9618512" lon="6.8836468">
      <time>2021-01-22T06:33:13Z</time>
    </trkpt>
    <trkpt lat="50.9617768" lon="6.8833745">
      <time>2021-01-22T06:33:20Z</time>
    </trkpt>
    <trkpt lat="50.9617201" lon="6.8832523">
      <time>2021-01-22T06:33:24Z</time>
    </trkpt>
    <trkpt lat="50.9616608" lon="6.8831110">
      <time>2021-01-22T06:33:28Z</time>
    </trkpt>
    <trkpt lat="50.9616160" lon="6.8829510">
      <time>2021-01-22T06:33:32Z</time>
    </trkpt>
    <trkpt lat="50.9615708" lon="6.8827650">
      <time>2021-01-22T06:33:37Z</time>
    </trkpt>
    <trkpt lat="50.9615534" lon="6.8827038">
      <time>2021-01-22T06:33:39Z</time>
    </trkpt>
    <trkpt lat="50.9614738" lon="6.8824076">
      <time>2021-01-22T06:33:47Z</time>
    </trkpt>
    <trkpt lat="50.9614479" lon="6.8822965">
      <time>2021-01-22T06:33:50Z</time>
    </trkpt>
    <trkpt lat="50.9613648" lon="6.8820038">
      <time>2021-01-22T06:33:57Z</time>
    </trkpt>
    <trkpt lat="50.9613566" lon="6.8819711">
      <time>2021-01-22T06:33:58Z</time>
    </trkpt>
    <trkpt lat="50.9612814" lon="6.8816792">
      <time>2021-01-22T06:34:05Z</time>
    </trkpt>
    <trkpt lat="50.9612570" lon="6.8816036">
      <time>2021-01-22T06:34:07Z</time>
    </trkpt>
    <trkpt lat="50.9611960" lon="6.8813837">
      <time>2021-01-22T06:34:12Z</time>
    </trkpt>
    <trkpt lat="50.9611302" lon="6.8811479">
      <time>2021-01-22T06:34:18Z</time>
    </trkpt>
    <trkpt lat="50.9610577" lon="6.8808668">
      <time>2021-01-22T06:34:25Z</time>
    </trkpt>
    <trkpt lat="50.9610292" lon="6.8807357">
      <time>2021-01-22T06:34:28Z</time>
    </trkpt>
    <trkpt lat="50.9609514" lon="6.8804348">
      <time>2021-01-22T06:34:36Z</time>
    </trkpt>
    <trkpt lat="50.9608717" lon="6.8801653">
      <time>2021-01-22T06:34:43Z</time>
    </trkpt>
    <trkpt lat="50.9608325" lon="6.8800433">
      <time>2021-01-22T06:34:46Z</time>
    </trkpt>
    <trkpt lat="50.9607709" lon="6.8797490">
      <time>2021-01-22T06:34:53Z</time>
    </trkpt>
    <trkpt lat="50.9607657" lon="6.8797146">
      <time>2021-01-22T06:34:54Z</time>
    </trkpt>
    <trkpt lat="50.9607357" lon="6.8794098">
      <time>2021-01-22T06:35:01Z</time>
    </trkpt>
    <trkpt lat="50.9607769" lon="6.8791853">
      <time>2021-01-22T06:35:07Z</time>
    </trkpt>
    <trkpt lat="50.9608556" lon="6.8788958">
      <time>2021-01-22T06:35:15Z</time>
    </trkpt>
    <trkpt lat="50.9608840" lon="6.8787585">
      <time>2021-01-22T06:35:19Z</time>
    </trkpt>
    <trkpt lat="50.9608804" lon="6.8787286">
      <time>2021-01-22T06:35:21Z</time>
    </trkpt>
    <trkpt lat="50.9607421" lon="6.8787074">
      <time>2021-01-22T06:35:27Z</time>
    </trkpt>
    <trkpt lat="50.9605670" lon="6.8786831">
      <time>2021-01-22T06:35:34Z</time>
    </trkpt>
    <trkpt lat="50.9604326" lon="6.8786979">
      <time>2021-01-22T06:35:40Z</time>
    </trkpt>
    <trkpt lat="50.9603776" lon="6.8787143">
      <time>2021-01-22T06:35:42Z</time>
    </trkpt>
    <trkpt lat="50.9603286" lon="6.8787065">
      <time>2021-01-22T06:35:44Z</time>
    </trkpt>
    <trkpt lat="50.9602956" lon="6.8786653">
      <time>2021-01-22T06:35:46Z</time>
    </trkpt>
    <trkpt lat="50.9601657" lon="6.8785238">
      <time>2021-01-22T06:35:52Z</time>
    </trkpt>
    <trkpt lat="50.9600294" lon="6.8783820">
      <time>2021-01-22T06:35:59Z</time>
    </trkpt>
    <trkpt lat="50.9598569" lon="6.8782083">
      <time>2021-01-22T06:36:07Z</time>
    </trkpt>
    <trkpt lat="50.9598252" lon="6.8781560">
      <time>2021-01-22T06:36:09Z</time>
    </trkpt>
    <trkpt lat="50.9598191" lon="6.8781024">
      <time>2021-01-22T06:36:10Z</time>
    </trkpt>
    <trkpt lat="50.9598235" lon="6.8779013">
      <time>2021-01-22T06:36:14Z</time>
    </trkpt>
    <trkpt lat="50.9598634" lon="6.8776515">
      <time>2021-01-22T06:36:19Z</time>
    </trkpt>
    <trkpt lat="50.9599346" lon="6.8774811">
      <time>2021-01-22T06:36:24Z</time>
    </trkpt>
    <trkpt lat="50.9599533" lon="6.8774895">
      <time>2021-01-22T06:36:25Z</time>
    </trkpt>
    <trkpt lat="50.9600908" lon="6.8775992">
      <time>2021-01-22T06:36:30Z</time>
    </trkpt>
    <trkpt lat="50.9601180" lon="6.8776249">
      <time>2021-01-22T06:36:31Z</time>
    </trkpt>
    <trkpt lat="50.9602636" lon="6.8777359">
      <time>2021-01-22T06:36:38Z</time>
    </trkpt>
    <trkpt lat="50.9603944" lon="6.8776709">
      <time>2021-01-22T06:36:43Z</time>
    </trkpt>
    <trkpt lat="50.9604198" lon="6.8776634">
      <time>2021-01-22T06:36:44Z</time>
    </trkpt>
    <trkpt lat="50.9605772" lon="6.8775831">
      <time>2021-01-22T06:36:51Z</time>
    </trkpt>
    <trkpt lat="50.9607539" lon="6.8774963">
      <time>2021-01-22T06:36:58Z</time>
    </trkpt>
    <trkpt lat="50.9608813" lon="6.8774785">
      <time>2021-01-22T06:37:03Z</time>
    </trkpt>
    <trkpt lat="50.9609525" lon="6.8774610">
      <time>2021-01-22T06:37:06Z</time>
    </trkpt>
    <trkpt lat="50.9610231" lon="6.8774298">
      <time>2021-01-22T06:37:09Z</time>
    </trkpt>
    <trkpt lat="50.9610850" lon="6.8773741">
      <time>2021-01-22T06:37:12Z</time>
    </trkpt>
    <trkpt lat="50.9611805" lon="6.8772822">
      <time>2021-01-22T06:37:17Z</time>
    </trkpt>
    <trkpt lat="50.9612901" lon="6.8772309">
      <time>2021-01-22T06:37:22Z</time>
    </trkpt>
    <trkpt lat="50.9614086" lon="6.8771828">
      <time>2021-01-22T06:37:27Z</time>
    </trkpt>
    <trkpt lat="50.9614915" lon="6.8771373">
      <time>2021-01-22T06:37:30Z</time>
    </trkpt>
    <trkpt lat="50.9616224" lon="6.8770428">
      <time>2021-01-22T06:37:36Z</time>
    </trkpt>
    <trkpt lat="50.9617550" lon="6.8769510">
      <time>2021-01-22T06:37:42Z</time>
    </trkpt>
    <trkpt lat="50.9618795" lon="6.8768858">
      <time>2021-01-22T06:37:48Z</time>
    </trkpt>
    <trkpt lat="50.9619274" lon="6.8768061">
      <time>2021-01-22T06:37:51Z</time>
    </trkpt>
    <trkpt lat="50.9619750" lon="6.8766350">
      <time>2021-01-22T06:37:57Z</time>
    </trkpt>
    <trkpt lat="50.9620181" lon="6.8764024">
      <time>2021-01-22T06:38:04Z</time>
    </trkpt>
    <trkpt lat="50.9620352" lon="6.8763843">
      <time>2021-01-22T06:38:05Z</time>
    </trkpt>
    <trkpt lat="50.9621196" lon="6.8763558">
      <time>2021-01-22T06:38:09Z</time>
    </trkpt>
    <trkpt lat="50.9621626" lon="6.8763908">
      <time>2021-01-22T06:38:11Z</time>
    </trkpt>
    <trkpt lat="50.9622231" lon="6.8764023">
      <time>2021-01-22T06:38:14Z</time>
    </trkpt>
    <trkpt lat="50.9622597" lon="6.8764088">
      <time>2021-01-22T06:38:16Z</time>
    </trkpt>
    <trkpt lat="50.9623217" lon="6.8764234">
      <time>2021-01-22T06:38:19Z</time>
    </trkpt>
    <trkpt lat="50.9625050" lon="6.8764849">
      <time>2021-01-22T06:38:26Z</time>
    </trkpt>
    <trkpt lat="50.9625633" lon="6.8764909">
      <time>2021-01-22T06:38:28Z</time>
    </trkpt>
    <trkpt lat="50.9627587" lon="6.8765182">
      <time>2021-01-22T06:38:34Z</time>
    </trkpt>
    <trkpt lat="50.9628014" lon="6.8765204">
      <time>2021-01-22T06:38:36Z</time>
    </trkpt>
    <trkpt lat="50.9629937" lon="6.8765398">
      <time>2021-01-22T06:38:43Z</time>
    </trkpt>
    <trkpt lat="50.9631055" lon="6.8764313">
      <time>2021-01-22T06:38:48Z</time>
    </trkpt>
    <trkpt lat="50.9631954" lon="6.8762337">
      <time>2021-01-22T06:38:55Z</time>
    </trkpt>
    <trkpt lat="50.9632935" lon="6.8759642">
      <time>2021-01-22T06:39:03Z</time>
    </trkpt>
    <trkpt lat="50.9633577" lon="6.8758871">
      <time>2021-01-22T06:39:08Z</time>
    </trkpt>
    <trkpt lat="50.9633673" lon="6.8759037">
      <time>2021-01-22T06:39:09Z</time>
    </trkpt>
    <trkpt lat="50.9633829" lon="6.8759370">
      <time>2021-01-22T06:39:11Z</time>
    </trkpt>
    <trkpt lat="50.9633908" lon="6.8759464">
      <time>2021-01-22T06:39:12Z</time>
    </trkpt>
    <trkpt lat="50.9633943" lon="6.8759576">
      <time>2021-01-22T06:39:13Z</time>
    </trkpt>
  </trkseg></trk>
</gpx>
