<?xml version="1.0" encoding="UTF-8"?>
<gpx version="1.1" creator="Diary FIT converter" xmlns="http://www.topografix.com/GPX/1/1">
  <trk><name>Activity</name><trkseg>
    <trkpt lat="50.9597129" lon="6.8762093">
      <time>2023-06-27T19:43:47Z</time>
    </trkpt>
    <trkpt lat="50.9597222" lon="6.8761850">
      <time>2023-06-27T19:43:48Z</time>
    </trkpt>
    <trkpt lat="50.9597667" lon="6.8761353">
      <time>2023-06-27T19:43:49Z</time>
    </trkpt>
    <trkpt lat="50.9598609" lon="6.8759636">
      <time>2023-06-27T19:43:50Z</time>
    </trkpt>
    <trkpt lat="50.9598773" lon="6.8758730">
      <time>2023-06-27T19:43:51Z</time>
    </trkpt>
    <trkpt lat="50.9597861" lon="6.8756871">
      <time>2023-06-27T19:43:55Z</time>
    </trkpt>
    <trkpt lat="50.9597790" lon="6.8753261">
      <time>2023-06-27T19:44:01Z</time>
    </trkpt>
    <trkpt lat="50.9597891" lon="6.8752008">
      <time>2023-06-27T19:44:03Z</time>
    </trkpt>
    <trkpt lat="50.9597932" lon="6.8750723">
      <time>2023-06-27T19:44:05Z</time>
    </trkpt>
    <trkpt lat="50.9598082" lon="6.8749522">
      <time>2023-06-27T19:44:07Z</time>
    </trkpt>
    <trkpt lat="50.9598071" lon="6.8748940">
      <time>2023-06-27T19:44:08Z</time>
    </trkpt>
    <trkpt lat="50.9598132" lon="6.8747635">
      <time>2023-06-27T19:44:10Z</time>
    </trkpt>
    <trkpt lat="50.9598282" lon="6.8746280">
      <time>2023-06-27T19:44:12Z</time>
    </trkpt>
    <trkpt lat="50.9598625" lon="6.8742599">
      <time>2023-06-27T19:44:18Z</time>
    </trkpt>
    <trkpt lat="50.9598578" lon="6.8740707">
      <time>2023-06-27T19:44:21Z</time>
    </trkpt>
    <trkpt lat="50.9598594" lon="6.8738254">
      <time>2023-06-27T19:44:25Z</time>
    </trkpt>
    <trkpt lat="50.9598397" lon="6.8735041">
      <time>2023-06-27T19:44:31Z</time>
    </trkpt>
    <trkpt lat="50.9598106" lon="6.8733236">
      <time>2023-06-27T19:44:36Z</time>
    </trkpt>
    <trkpt lat="50.9598019" lon="6.8731764">
      <time>2023-06-27T19:44:42Z</time>
    </trkpt>
    <trkpt lat="50.9598279" lon="6.8730436">
      <time>2023-06-27T19:44:47Z</time>
    </trkpt>
    <trkpt lat="50.9598222" lon="6.8730040">
      <time>2023-06-27T19:44:48Z</time>
    </trkpt>
    <trkpt lat="50.9597958" lon="6.8729209">
      <time>2023-06-27T19:44:51Z</time>
    </trkpt>
    <trkpt lat="50.9597438" lon="6.8726816">
      <time>2023-06-27T19:44:57Z</time>
    </trkpt>
    <trkpt lat="50.9596917" lon="6.8723946">
      <time>2023-06-27T19:45:03Z</time>
    </trkpt>
    <trkpt lat="50.9596069" lon="6.8719204">
      <time>2023-06-27T19:45:12Z</time>
    </trkpt>
    <trkpt lat="50.9594493" lon="6.8715320">
      <time>2023-06-27T19:45:21Z</time>
    </trkpt>
    <trkpt lat="50.9594158" lon="6.8713984">
      <time>2023-06-27T19:45:24Z</time>
    </trkpt>
    <trkpt lat="50.9593927" lon="6.8712964">
      <time>2023-06-27T19:45:27Z</time>
    </trkpt>
    <trkpt lat="50.9593299" lon="6.8711240">
      <time>2023-06-27T19:45:32Z</time>
    </trkpt>
    <trkpt lat="50.9591964" lon="6.8709303">
      <time>2023-06-27T19:45:39Z</time>
    </trkpt>
    <trkpt lat="50.9590241" lon="6.8708204">
      <time>2023-06-27T19:45:46Z</time>
    </trkpt>
    <trkpt lat="50.9588805" lon="6.8708462">
      <time>2023-06-27T19:45:50Z</time>
    </trkpt>
    <trkpt lat="50.9588223" lon="6.8708400">
      <time>2023-06-27T19:45:52Z</time>
    </trkpt>
    <trkpt lat="50.9587269" lon="6.8708008">
      <time>2023-06-27T19:45:56Z</time>
    </trkpt>
    <trkpt lat="50.9586376" lon="6.8707692">
      <time>2023-06-27T19:45:59Z</time>
    </trkpt>
    <trkpt lat="50.9584480" lon="6.8706368">
      <time>2023-06-27T19:46:05Z</time>
    </trkpt>
    <trkpt lat="50.9583981" lon="6.8704848">
      <time>2023-06-27T19:46:10Z</time>
    </trkpt>
    <trkpt lat="50.9584026" lon="6.8704564">
      <time>2023-06-27T19:46:11Z</time>
    </trkpt>
    <trkpt lat="50.9584438" lon="6.8703014">
      <time>2023-06-27T19:46:15Z</time>
    </trkpt>
    <trkpt lat="50.9584661" lon="6.8700479">
      <time>2023-06-27T19:46:21Z</time>
    </trkpt>
    <trkpt lat="50.9585365" lon="6.8697302">
      <time>2023-06-27T19:46:28Z</time>
    </trkpt>
    <trkpt lat="50.9585605" lon="6.8695198">
      <time>2023-06-27T19:46:33Z</time>
    </trkpt>
    <trkpt lat="50.9586056" lon="6.8693624">
      <time>2023-06-27T19:46:37Z</time>
    </trkpt>
    <trkpt lat="50.9586338" lon="6.8692773">
      <time>2023-06-27T19:46:40Z</time>
    </trkpt>
    <trkpt lat="50.9586489" lon="6.8692392">
      <time>2023-06-27T19:46:42Z</time>
    </trkpt>
    <trkpt lat="50.9586626" lon="6.8691991">
      <time>2023-06-27T19:46:44Z</time>
    </trkpt>
    <trkpt lat="50.9586992" lon="6.8691150">
      <time>2023-06-27T19:46:47Z</time>
    </trkpt>
    <trkpt lat="50.9586992" lon="6.8690795">
      <time>2023-06-27T19:46:48Z</time>
    </trkpt>
    <trkpt lat="50.9587234" lon="6.8689603">
      <time>2023-06-27T19:46:51Z</time>
    </trkpt>
    <trkpt lat="50.9587315" lon="6.8687881">
      <time>2023-06-27T19:46:56Z</time>
    </trkpt>
    <trkpt lat="50.9587158" lon="6.8687670">
      <time>2023-06-27T19:46:57Z</time>
    </trkpt>
    <trkpt lat="50.9586737" lon="6.8687360">
      <time>2023-06-27T19:46:59Z</time>
    </trkpt>
    <trkpt lat="50.9585987" lon="6.8687049">
      <time>2023-06-27T19:47:06Z</time>
    </trkpt>
    <trkpt lat="50.9585817" lon="6.8687222">
      <time>2023-06-27T19:47:13Z</time>
    </trkpt>
    <trkpt lat="50.9585851" lon="6.8687246">
      <time>2023-06-27T19:47:19Z</time>
    </trkpt>
    <trkpt lat="50.9585752" lon="6.8686846">
      <time>2023-06-27T19:47:23Z</time>
    </trkpt>
    <trkpt lat="50.9585669" lon="6.8686137">
      <time>2023-06-27T19:47:25Z</time>
    </trkpt>
    <trkpt lat="50.9585526" lon="6.8685260">
      <time>2023-06-27T19:47:27Z</time>
    </trkpt>
    <trkpt lat="50.9585583" lon="6.8683548">
      <time>2023-06-27T19:47:31Z</time>
    </trkpt>
    <trkpt lat="50.9586845" lon="6.8682526">
      <time>2023-06-27T19:47:35Z</time>
    </trkpt>
    <trkpt lat="50.9588018" lon="6.8681695">
      <time>2023-06-27T19:47:38Z</time>
    </trkpt>
    <trkpt lat="50.9588634" lon="6.8680744">
      <time>2023-06-27T19:47:40Z</time>
    </trkpt>
    <trkpt lat="50.9589561" lon="6.8678527">
      <time>2023-06-27T19:47:44Z</time>
    </trkpt>
    <trkpt lat="50.9590017" lon="6.8676738">
      <time>2023-06-27T19:47:47Z</time>
    </trkpt>
    <trkpt lat="50.9590511" lon="6.8674493">
      <time>2023-06-27T19:47:51Z</time>
    </trkpt>
    <trkpt lat="50.9590932" lon="6.8672958">
      <time>2023-06-27T19:47:54Z</time>
    </trkpt>
    <trkpt lat="50.9591049" lon="6.8672399">
      <time>2023-06-27T19:47:55Z</time>
    </trkpt>
    <trkpt lat="50.9592062" lon="6.8668774">
      <time>2023-06-27T19:48:02Z</time>
    </trkpt>
    <trkpt lat="50.9592222" lon="6.8668261">
      <time>2023-06-27T19:48:03Z</time>
    </trkpt>
    <trkpt lat="50.9593744" lon="6.8662938">
      <time>2023-06-27T19:48:13Z</time>
    </trkpt>
    <trkpt lat="50.9595237" lon="6.8657263">
      <time>2023-06-27T19:48:24Z</time>
    </trkpt>
    <trkpt lat="50.9596157" lon="6.8653406">
      <time>2023-06-27T19:48:32Z</time>
    </trkpt>
    <trkpt lat="50.9596858" lon="6.8649084">
      <time>2023-06-27T19:48:40Z</time>
    </trkpt>
    <trkpt lat="50.9596737" lon="6.8644567">
      <time>2023-06-27T19:48:48Z</time>
    </trkpt>
    <trkpt lat="50.9596565" lon="6.8642890">
      <time>2023-06-27T19:48:51Z</time>
    </trkpt>
    <trkpt lat="50.9596330" lon="6.8640500">
      <time>2023-06-27T19:48:56Z</time>
    </trkpt>
    <trkpt lat="50.9595855" lon="6.8636501">
      <time>2023-06-27T19:49:04Z</time>
    </trkpt>
    <trkpt lat="50.9595425" lon="6.8630967">
      <time>2023-06-27T19:49:13Z</time>
    </trkpt>
    <trkpt lat="50.9595415" lon="6.8627124">
      <time>2023-06-27T19:49:19Z</time>
    </trkpt>
    <trkpt lat="50.9595700" lon="6.8623381">
      <time>2023-06-27T19:49:25Z</time>
    </trkpt>
    <trkpt lat="50.9596063" lon="6.8618263">
      <time>2023-06-27T19:49:33Z</time>
    </trkpt>
    <trkpt lat="50.9596062" lon="6.8617056">
      <time>2023-06-27T19:49:35Z</time>
    </trkpt>
    <trkpt lat="50.9596260" lon="6.8615337">
      <time>2023-06-27T19:49:38Z</time>
    </trkpt>
    <trkpt lat="50.9596713" lon="6.8609785">
      <time>2023-06-27T19:49:47Z</time>
    </trkpt>
    <trkpt lat="50.9597030" lon="6.8605901">
      <time>2023-06-27T19:49:53Z</time>
    </trkpt>
    <trkpt lat="50.9597156" lon="6.8604644">
      <time>2023-06-27T19:49:55Z</time>
    </trkpt>
    <trkpt lat="50.9597682" lon="6.8597145">
      <time>2023-06-27T19:50:07Z</time>
    </trkpt>
    <trkpt lat="50.9597716" lon="6.8596532">
      <time>2023-06-27T19:50:08Z</time>
    </trkpt>
    <trkpt lat="50.9598059" lon="6.8590762">
      <time>2023-06-27T19:50:17Z</time>
    </trkpt>
    <trkpt lat="50.9598505" lon="6.8585773">
      <time>2023-06-27T19:50:25Z</time>
    </trkpt>
    <trkpt lat="50.9598882" lon="6.8580885">
      <time>2023-06-27T19:50:33Z</time>
    </trkpt>
    <trkpt lat="50.9599342" lon="6.8573298">
      <time>2023-06-27T19:50:45Z</time>
    </trkpt>
    <trkpt lat="50.9599715" lon="6.8567043">
      <time>2023-06-27T19:50:55Z</time>
    </trkpt>
    <trkpt lat="50.9600068" lon="6.8559755">
      <time>2023-06-27T19:51:06Z</time>
    </trkpt>
    <trkpt lat="50.9600160" lon="6.8558445">
      <time>2023-06-27T19:51:08Z</time>
    </trkpt>
    <trkpt lat="50.9600290" lon="6.8554338">
      <time>2023-06-27T19:51:14Z</time>
    </trkpt>
    <trkpt lat="50.9600404" lon="6.8552258">
      <time>2023-06-27T19:51:17Z</time>
    </trkpt>
    <trkpt lat="50.9600647" lon="6.8548039">
      <time>2023-06-27T19:51:23Z</time>
    </trkpt>
    <trkpt lat="50.9600800" lon="6.8545950">
      <time>2023-06-27T19:51:26Z</time>
    </trkpt>
    <trkpt lat="50.9600964" lon="6.8543870">
      <time>2023-06-27T19:51:29Z</time>
    </trkpt>
    <trkpt lat="50.9601290" lon="6.8539773">
      <time>2023-06-27T19:51:35Z</time>
    </trkpt>
    <trkpt lat="50.9601559" lon="6.8533586">
      <time>2023-06-27T19:51:44Z</time>
    </trkpt>
    <trkpt lat="50.9602061" lon="6.8527317">
      <time>2023-06-27T19:51:53Z</time>
    </trkpt>
    <trkpt lat="50.9602518" lon="6.8519603">
      <time>2023-06-27T19:52:04Z</time>
    </trkpt>
    <trkpt lat="50.9602533" lon="6.8518823">
      <time>2023-06-27T19:52:05Z</time>
    </trkpt>
    <trkpt lat="50.9603119" lon="6.8511677">
      <time>2023-06-27T19:52:14Z</time>
    </trkpt>
    <trkpt lat="50.9603404" lon="6.8501952">
      <time>2023-06-27T19:52:28Z</time>
    </trkpt>
    <trkpt lat="50.9603817" lon="6.8498688">
      <time>2023-06-27T19:52:32Z</time>
    </trkpt>
    <trkpt lat="50.9604028" lon="6.8496982">
      <time>2023-06-27T19:52:34Z</time>
    </trkpt>
    <trkpt lat="50.9604476" lon="6.8492002">
      <time>2023-06-27T19:52:40Z</time>
    </trkpt>
    <trkpt lat="50.9604652" lon="6.8489518">
      <time>2023-06-27T19:52:43Z</time>
    </trkpt>
    <trkpt lat="50.9605246" lon="6.8481972">
      <time>2023-06-27T19:52:52Z</time>
    </trkpt>
    <trkpt lat="50.9605894" lon="6.8474779">
      <time>2023-06-27T19:53:01Z</time>
    </trkpt>
    <trkpt lat="50.9606215" lon="6.8470271">
      <time>2023-06-27T19:53:07Z</time>
    </trkpt>
    <trkpt lat="50.9606357" lon="6.8467253">
      <time>2023-06-27T19:53:11Z</time>
    </trkpt>
    <trkpt lat="50.9606547" lon="6.8463315">
      <time>2023-06-27T19:53:16Z</time>
    </trkpt>
    <trkpt lat="50.9606675" lon="6.8461819">
      <time>2023-06-27T19:53:18Z</time>
    </trkpt>
    <trkpt lat="50.9607085" lon="6.8456084">
      <time>2023-06-27T19:53:26Z</time>
    </trkpt>
    <trkpt lat="50.9607125" lon="6.8454693">
      <time>2023-06-27T19:53:28Z</time>
    </trkpt>
    <trkpt lat="50.9607533" lon="6.8448029">
      <time>2023-06-27T19:53:37Z</time>
    </trkpt>
    <trkpt lat="50.9607919" lon="6.8441319">
      <time>2023-06-27T19:53:46Z</time>
    </trkpt>
    <trkpt lat="50.9608040" lon="6.8439106">
      <time>2023-06-27T19:53:49Z</time>
    </trkpt>
    <trkpt lat="50.9608433" lon="6.8434178">
      <time>2023-06-27T19:53:56Z</time>
    </trkpt>
    <trkpt lat="50.9608950" lon="6.8426810">
      <time>2023-06-27T19:54:06Z</time>
    </trkpt>
    <trkpt lat="50.9608978" lon="6.8426045">
      <time>2023-06-27T19:54:07Z</time>
    </trkpt>
    <trkpt lat="50.9609151" lon="6.8422118">
      <time>2023-06-27T19:54:12Z</time>
    </trkpt>
    <trkpt lat="50.9609365" lon="6.8419573">
      <time>2023-06-27T19:54:15Z</time>
    </trkpt>
    <trkpt lat="50.9609465" lon="6.8418798">
      <time>2023-06-27T19:54:16Z</time>
    </trkpt>
    <trkpt lat="50.9609613" lon="6.8417249">
      <time>2023-06-27T19:54:18Z</time>
    </trkpt>
    <trkpt lat="50.9609805" lon="6.8414975">
      <time>2023-06-27T19:54:21Z</time>
    </trkpt>
    <trkpt lat="50.9609919" lon="6.8413531">
      <time>2023-06-27T19:54:23Z</time>
    </trkpt>
    <trkpt lat="50.9610041" lon="6.8412111">
      <time>2023-06-27T19:54:25Z</time>
    </trkpt>
    <trkpt lat="50.9610445" lon="6.8409315">
      <time>2023-06-27T19:54:29Z</time>
    </trkpt>
    <trkpt lat="50.9610527" lon="6.8407944">
      <time>2023-06-27T19:54:31Z</time>
    </trkpt>
    <trkpt lat="50.9610595" lon="6.8407365">
      <time>2023-06-27T19:54:32Z</time>
    </trkpt>
    <trkpt lat="50.9610700" lon="6.8402864">
      <time>2023-06-27T19:54:40Z</time>
    </trkpt>
    <trkpt lat="50.9611724" lon="6.8400847">
      <time>2023-06-27T19:54:44Z</time>
    </trkpt>
    <trkpt lat="50.9612009" lon="6.8398455">
      <time>2023-06-27T19:54:48Z</time>
    </trkpt>
    <trkpt lat="50.9611788" lon="6.8397860">
      <time>2023-06-27T19:54:49Z</time>
    </trkpt>
    <trkpt lat="50.9611417" lon="6.8396569">
      <time>2023-06-27T19:54:51Z</time>
    </trkpt>
    <trkpt lat="50.9611412" lon="6.8395087">
      <time>2023-06-27T19:54:53Z</time>
    </trkpt>
    <trkpt lat="50.9611496" lon="6.8392538">
      <time>2023-06-27T19:54:56Z</time>
    </trkpt>
    <trkpt lat="50.9612017" lon="6.8385167">
      <time>2023-06-27T19:55:05Z</time>
    </trkpt>
    <trkpt lat="50.9612464" lon="6.8377792">
      <time>2023-06-27T19:55:14Z</time>
    </trkpt>
    <trkpt lat="50.9612841" lon="6.8371164">
      <time>2023-06-27T19:55:23Z</time>
    </trkpt>
    <trkpt lat="50.9612991" lon="6.8367298">
      <time>2023-06-27T19:55:29Z</time>
    </trkpt>
    <trkpt lat="50.9613039" lon="6.8366752">
      <time>2023-06-27T19:55:30Z</time>
    </trkpt>
    <trkpt lat="50.9613045" lon="6.8366164">
      <time>2023-06-27T19:55:31Z</time>
    </trkpt>
    <trkpt lat="50.9613391" lon="6.8364597">
      <time>2023-06-27T19:55:34Z</time>
    </trkpt>
    <trkpt lat="50.9614820" lon="6.8362434">
      <time>2023-06-27T19:55:40Z</time>
    </trkpt>
    <trkpt lat="50.9615388" lon="6.8360273">
      <time>2023-06-27T19:55:46Z</time>
    </trkpt>
    <trkpt lat="50.9615395" lon="6.8359640">
      <time>2023-06-27T19:55:48Z</time>
    </trkpt>
    <trkpt lat="50.9615332" lon="6.8358459">
      <time>2023-06-27T19:55:52Z</time>
    </trkpt>
    <trkpt lat="50.9615293" lon="6.8358118">
      <time>2023-06-27T19:55:53Z</time>
    </trkpt>
    <trkpt lat="50.9615094" lon="6.8357478">
      <time>2023-06-27T19:55:55Z</time>
    </trkpt>
    <trkpt lat="50.9614767" lon="6.8356422">
      <time>2023-06-27T19:55:58Z</time>
    </trkpt>
    <trkpt lat="50.9614618" lon="6.8356108">
      <time>2023-06-27T19:55:59Z</time>
    </trkpt>
    <trkpt lat="50.9614442" lon="6.8355228">
      <time>2023-06-27T19:56:02Z</time>
    </trkpt>
    <trkpt lat="50.9613736" lon="6.8353866">
      <time>2023-06-27T19:56:06Z</time>
    </trkpt>
    <trkpt lat="50.9613635" lon="6.8352406">
      <time>2023-06-27T19:56:10Z</time>
    </trkpt>
    <trkpt lat="50.9613641" lon="6.8352002">
      <time>2023-06-27T19:56:11Z</time>
    </trkpt>
    <trkpt lat="50.9613851" lon="6.8348106">
      <time>2023-06-27T19:56:17Z</time>
    </trkpt>
    <trkpt lat="50.9614438" lon="6.8342009">
      <time>2023-06-27T19:56:25Z</time>
    </trkpt>
    <trkpt lat="50.9615170" lon="6.8336752">
      <time>2023-06-27T19:56:32Z</time>
    </trkpt>
    <trkpt lat="50.9615274" lon="6.8334570">
      <time>2023-06-27T19:56:35Z</time>
    </trkpt>
    <trkpt lat="50.9615361" lon="6.8331638">
      <time>2023-06-27T19:56:39Z</time>
    </trkpt>
    <trkpt lat="50.9615438" lon="6.8330898">
      <time>2023-06-27T19:56:40Z</time>
    </trkpt>
    <trkpt lat="50.9615889" lon="6.8326763">
      <time>2023-06-27T19:56:46Z</time>
    </trkpt>
    <trkpt lat="50.9616239" lon="6.8322967">
      <time>2023-06-27T19:56:52Z</time>
    </trkpt>
    <trkpt lat="50.9616373" lon="6.8321661">
      <time>2023-06-27T19:56:54Z</time>
    </trkpt>
    <trkpt lat="50.9616755" lon="6.8315634">
      <time>2023-06-27T19:57:03Z</time>
    </trkpt>
    <trkpt lat="50.9616841" lon="6.8314322">
      <time>2023-06-27T19:57:05Z</time>
    </trkpt>
    <trkpt lat="50.9616961" lon="6.8311887">
      <time>2023-06-27T19:57:09Z</time>
    </trkpt>
    <trkpt lat="50.9616963" lon="6.8310659">
      <time>2023-06-27T19:57:13Z</time>
    </trkpt>
    <trkpt lat="50.9616942" lon="6.8309425">
      <time>2023-06-27T19:57:18Z</time>
    </trkpt>
    <trkpt lat="50.9616798" lon="6.8309259">
      <time>2023-06-27T19:57:20Z</time>
    </trkpt>
    <trkpt lat="50.9616814" lon="6.8309528">
      <time>2023-06-27T19:57:23Z</time>
    </trkpt>
    <trkpt lat="50.9616974" lon="6.8309733">
      <time>2023-06-27T19:57:27Z</time>
    </trkpt>
    <trkpt lat="50.9616876" lon="6.8309296">
      <time>2023-06-27T19:57:30Z</time>
    </trkpt>
    <trkpt lat="50.9617109" lon="6.8308669">
      <time>2023-06-27T19:57:32Z</time>
    </trkpt>
    <trkpt lat="50.9618218" lon="6.8307253">
      <time>2023-06-27T19:57:37Z</time>
    </trkpt>
    <trkpt lat="50.9617884" lon="6.8305076">
      <time>2023-06-27T19:57:41Z</time>
    </trkpt>
    <trkpt lat="50.9617456" lon="6.8303841">
      <time>2023-06-27T19:57:43Z</time>
    </trkpt>
    <trkpt lat="50.9617404" lon="6.8303086">
      <time>2023-06-27T19:57:44Z</time>
    </trkpt>
    <trkpt lat="50.9617774" lon="6.8298300">
      <time>2023-06-27T19:57:50Z</time>
    </trkpt>
    <trkpt lat="50.9618438" lon="6.8293020">
      <time>2023-06-27T19:57:57Z</time>
    </trkpt>
    <trkpt lat="50.9618972" lon="6.8290772">
      <time>2023-06-27T19:58:00Z</time>
    </trkpt>
    <trkpt lat="50.9619329" lon="6.8289264">
      <time>2023-06-27T19:58:02Z</time>
    </trkpt>
    <trkpt lat="50.9619587" lon="6.8287058">
      <time>2023-06-27T19:58:05Z</time>
    </trkpt>
    <trkpt lat="50.9619597" lon="6.8286313">
      <time>2023-06-27T19:58:06Z</time>
    </trkpt>
    <trkpt lat="50.9619797" lon="6.8280117">
      <time>2023-06-27T19:58:14Z</time>
    </trkpt>
    <trkpt lat="50.9619860" lon="6.8279416">
      <time>2023-06-27T19:58:15Z</time>
    </trkpt>
    <trkpt lat="50.9619896" lon="6.8275980">
      <time>2023-06-27T19:58:20Z</time>
    </trkpt>
    <trkpt lat="50.9619916" lon="6.8275254">
      <time>2023-06-27T19:58:21Z</time>
    </trkpt>
    <trkpt lat="50.9619883" lon="6.8270869">
      <time>2023-06-27T19:58:27Z</time>
    </trkpt>
    <trkpt lat="50.9619933" lon="6.8264340">
      <time>2023-06-27T19:58:36Z</time>
    </trkpt>
    <trkpt lat="50.9620059" lon="6.8261402">
      <time>2023-06-27T19:58:40Z</time>
    </trkpt>
    <trkpt lat="50.9620125" lon="6.8257776">
      <time>2023-06-27T19:58:45Z</time>
    </trkpt>
    <trkpt lat="50.9620294" lon="6.8254020">
      <time>2023-06-27T19:58:50Z</time>
    </trkpt>
    <trkpt lat="50.9620606" lon="6.8252584">
      <time>2023-06-27T19:58:52Z</time>
    </trkpt>
    <trkpt lat="50.9621386" lon="6.8250450">
      <time>2023-06-27T19:58:55Z</time>
    </trkpt>
    <trkpt lat="50.9622168" lon="6.8249323">
      <time>2023-06-27T19:58:57Z</time>
    </trkpt>
    <trkpt lat="50.9622575" lon="6.8248895">
      <time>2023-06-27T19:58:58Z</time>
    </trkpt>
    <trkpt lat="50.9624345" lon="6.8247401">
      <time>2023-06-27T19:59:02Z</time>
    </trkpt>
    <trkpt lat="50.9627477" lon="6.8244254">
      <time>2023-06-27T19:59:10Z</time>
    </trkpt>
    <trkpt lat="50.9628869" lon="6.8242851">
      <time>2023-06-27T19:59:14Z</time>
    </trkpt>
    <trkpt lat="50.9629502" lon="6.8242142">
      <time>2023-06-27T19:59:16Z</time>
    </trkpt>
    <trkpt lat="50.9630548" lon="6.8239666">
      <time>2023-06-27T19:59:22Z</time>
    </trkpt>
    <trkpt lat="50.9630580" lon="6.8238957">
      <time>2023-06-27T19:59:24Z</time>
    </trkpt>
    <trkpt lat="50.9630392" lon="6.8238257">
      <time>2023-06-27T19:59:26Z</time>
    </trkpt>
    <trkpt lat="50.9628836" lon="6.8234539">
      <time>2023-06-27T19:59:34Z</time>
    </trkpt>
    <trkpt lat="50.9627847" lon="6.8232263">
      <time>2023-06-27T19:59:39Z</time>
    </trkpt>
    <trkpt lat="50.9626936" lon="6.8230347">
      <time>2023-06-27T19:59:43Z</time>
    </trkpt>
    <trkpt lat="50.9625655" lon="6.8227880">
      <time>2023-06-27T19:59:48Z</time>
    </trkpt>
    <trkpt lat="50.9624014" lon="6.8224829">
      <time>2023-06-27T19:59:55Z</time>
    </trkpt>
    <trkpt lat="50.9621851" lon="6.8222086">
      <time>2023-06-27T20:00:02Z</time>
    </trkpt>
    <trkpt lat="50.9619051" lon="6.8218694">
      <time>2023-06-27T20:00:11Z</time>
    </trkpt>
    <trkpt lat="50.9616223" lon="6.8215069">
      <time>2023-06-27T20:00:21Z</time>
    </trkpt>
    <trkpt lat="50.9615696" lon="6.8214233">
      <time>2023-06-27T20:00:23Z</time>
    </trkpt>
    <trkpt lat="50.9614156" lon="6.8212159">
      <time>2023-06-27T20:00:29Z</time>
    </trkpt>
    <trkpt lat="50.9613196" lon="6.8210903">
      <time>2023-06-27T20:00:34Z</time>
    </trkpt>
    <trkpt lat="50.9611314" lon="6.8208525">
      <time>2023-06-27T20:00:43Z</time>
    </trkpt>
    <trkpt lat="50.9609468" lon="6.8206469">
      <time>2023-06-27T20:00:49Z</time>
    </trkpt>
    <trkpt lat="50.9607131" lon="6.8203127">
      <time>2023-06-27T20:00:57Z</time>
    </trkpt>
    <trkpt lat="50.9603781" lon="6.8198345">
      <time>2023-06-27T20:01:08Z</time>
    </trkpt>
    <trkpt lat="50.9601330" lon="6.8193920">
      <time>2023-06-27T20:01:17Z</time>
    </trkpt>
    <trkpt lat="50.9599354" lon="6.8188843">
      <time>2023-06-27T20:01:26Z</time>
    </trkpt>
    <trkpt lat="50.9597647" lon="6.8184520">
      <time>2023-06-27T20:01:34Z</time>
    </trkpt>
    <trkpt lat="50.9596446" lon="6.8181217">
      <time>2023-06-27T20:01:40Z</time>
    </trkpt>
    <trkpt lat="50.9595440" lon="6.8178627">
      <time>2023-06-27T20:01:45Z</time>
    </trkpt>
    <trkpt lat="50.9594255" lon="6.8175390">
      <time>2023-06-27T20:01:53Z</time>
    </trkpt>
    <trkpt lat="50.9593136" lon="6.8172587">
      <time>2023-06-27T20:02:00Z</time>
    </trkpt>
    <trkpt lat="50.9592643" lon="6.8171406">
      <time>2023-06-27T20:02:03Z</time>
    </trkpt>
    <trkpt lat="50.9591881" lon="6.8169367">
      <time>2023-06-27T20:02:08Z</time>
    </trkpt>
    <trkpt lat="50.9591499" lon="6.8168358">
      <time>2023-06-27T20:02:11Z</time>
    </trkpt>
    <trkpt lat="50.9591282" lon="6.8167804">
      <time>2023-06-27T20:02:13Z</time>
    </trkpt>
    <trkpt lat="50.9591185" lon="6.8167560">
      <time>2023-06-27T20:02:14Z</time>
    </trkpt>
    <trkpt lat="50.9591136" lon="6.8167100">
      <time>2023-06-27T20:02:16Z</time>
    </trkpt>
    <trkpt lat="50.9591307" lon="6.8166905">
      <time>2023-06-27T20:02:18Z</time>
    </trkpt>
    <trkpt lat="50.9591278" lon="6.8166936">
      <time>2023-06-27T20:02:22Z</time>
    </trkpt>
    <trkpt lat="50.9590784" lon="6.8166261">
      <time>2023-06-27T20:02:30Z</time>
    </trkpt>
    <trkpt lat="50.9590682" lon="6.8166177">
      <time>2023-06-27T20:02:31Z</time>
    </trkpt>
    <trkpt lat="50.9590262" lon="6.8165222">
      <time>2023-06-27T20:02:36Z</time>
    </trkpt>
    <trkpt lat="50.9589425" lon="6.8162997">
      <time>2023-06-27T20:02:45Z</time>
    </trkpt>
    <trkpt lat="50.9588322" lon="6.8160151">
      <time>2023-06-27T20:02:55Z</time>
    </trkpt>
    <trkpt lat="50.9587443" lon="6.8157414">
      <time>2023-06-27T20:03:04Z</time>
    </trkpt>
    <trkpt lat="50.9586840" lon="6.8156136">
      <time>2023-06-27T20:03:09Z</time>
    </trkpt>
    <trkpt lat="50.9586252" lon="6.8154163">
      <time>2023-06-27T20:03:15Z</time>
    </trkpt>
    <trkpt lat="50.9585103" lon="6.8151132">
      <time>2023-06-27T20:03:24Z</time>
    </trkpt>
    <trkpt lat="50.9584951" lon="6.8150422">
      <time>2023-06-27T20:03:28Z</time>
    </trkpt>
    <trkpt lat="50.9584381" lon="6.8149034">
      <time>2023-06-27T20:03:33Z</time>
    </trkpt>
    <trkpt lat="50.9583148" lon="6.8146026">
      <time>2023-06-27T20:03:40Z</time>
    </trkpt>
    <trkpt lat="50.9581480" lon="6.8141621">
      <time>2023-06-27T20:03:49Z</time>
    </trkpt>
    <trkpt lat="50.9579342" lon="6.8135073">
      <time>2023-06-27T20:04:02Z</time>
    </trkpt>
    <trkpt lat="50.9578507" lon="6.8132398">
      <time>2023-06-27T20:04:07Z</time>
    </trkpt>
    <trkpt lat="50.9577993" lon="6.8130425">
      <time>2023-06-27T20:04:11Z</time>
    </trkpt>
    <trkpt lat="50.9576387" lon="6.8124442">
      <time>2023-06-27T20:04:22Z</time>
    </trkpt>
    <trkpt lat="50.9575257" lon="6.8120311">
      <time>2023-06-27T20:04:29Z</time>
    </trkpt>
    <trkpt lat="50.9574549" lon="6.8118548">
      <time>2023-06-27T20:04:34Z</time>
    </trkpt>
    <trkpt lat="50.9574224" lon="6.8117834">
      <time>2023-06-27T20:04:36Z</time>
    </trkpt>
    <trkpt lat="50.9573492" lon="6.8115451">
      <time>2023-06-27T20:04:47Z</time>
    </trkpt>
    <trkpt lat="50.9573641" lon="6.8114022">
      <time>2023-06-27T20:04:50Z</time>
    </trkpt>
    <trkpt lat="50.9573509" lon="6.8112092">
      <time>2023-06-27T20:04:55Z</time>
    </trkpt>
    <trkpt lat="50.9572410" lon="6.8104305">
      <time>2023-06-27T20:05:08Z</time>
    </trkpt>
    <trkpt lat="50.9572020" lon="6.8097254">
      <time>2023-06-27T20:05:14Z</time>
    </trkpt>
    <trkpt lat="50.9571823" lon="6.8096480">
      <time>2023-06-27T20:05:15Z</time>
    </trkpt>
    <trkpt lat="50.9570253" lon="6.8089234">
      <time>2023-06-27T20:05:24Z</time>
    </trkpt>
    <trkpt lat="50.9570387" lon="6.8088225">
      <time>2023-06-27T20:05:25Z</time>
    </trkpt>
    <trkpt lat="50.9569074" lon="6.8090529">
      <time>2023-06-27T20:05:29Z</time>
    </trkpt>
    <trkpt lat="50.9569128" lon="6.8090743">
      <time>2023-06-27T20:05:33Z</time>
    </trkpt>
    <trkpt lat="50.9569224" lon="6.8090898">
      <time>2023-06-27T20:05:37Z</time>
    </trkpt>
    <trkpt lat="50.9568789" lon="6.8090453">
      <time>2023-06-27T20:05:39Z</time>
    </trkpt>
    <trkpt lat="50.9566881" lon="6.8088409">
      <time>2023-06-27T20:05:44Z</time>
    </trkpt>
    <trkpt lat="50.9566204" lon="6.8087187">
      <time>2023-06-27T20:05:48Z</time>
    </trkpt>
    <trkpt lat="50.9565229" lon="6.8085051">
      <time>2023-06-27T20:05:54Z</time>
    </trkpt>
    <trkpt lat="50.9564336" lon="6.8082670">
      <time>2023-06-27T20:06:01Z</time>
    </trkpt>
    <trkpt lat="50.9563466" lon="6.8080258">
      <time>2023-06-27T20:06:07Z</time>
    </trkpt>
    <trkpt lat="50.9562749" lon="6.8078427">
      <time>2023-06-27T20:06:13Z</time>
    </trkpt>
    <trkpt lat="50.9562131" lon="6.8076646">
      <time>2023-06-27T20:06:19Z</time>
    </trkpt>
    <trkpt lat="50.9561260" lon="6.8074926">
      <time>2023-06-27T20:06:25Z</time>
    </trkpt>
    <trkpt lat="50.9560450" lon="6.8072999">
      <time>2023-06-27T20:06:30Z</time>
    </trkpt>
    <trkpt lat="50.9559183" lon="6.8070017">
      <time>2023-06-27T20:06:37Z</time>
    </trkpt>
    <trkpt lat="50.9557602" lon="6.8066416">
      <time>2023-06-27T20:06:45Z</time>
    </trkpt>
    <trkpt lat="50.9555352" lon="6.8061584">
      <time>2023-06-27T20:06:56Z</time>
    </trkpt>
    <trkpt lat="50.9554955" lon="6.8060755">
      <time>2023-06-27T20:06:58Z</time>
    </trkpt>
    <trkpt lat="50.9554511" lon="6.8059792">
      <time>2023-06-27T20:07:00Z</time>
    </trkpt>
    <trkpt lat="50.9553618" lon="6.8057934">
      <time>2023-06-27T20:07:04Z</time>
    </trkpt>
    <trkpt lat="50.9552348" lon="6.8055696">
      <time>2023-06-27T20:07:10Z</time>
    </trkpt>
    <trkpt lat="50.9550606" lon="6.8052882">
      <time>2023-06-27T20:07:17Z</time>
    </trkpt>
    <trkpt lat="50.9549063" lon="6.8050631">
      <time>2023-06-27T20:07:24Z</time>
    </trkpt>
    <trkpt lat="50.9547425" lon="6.8048835">
      <time>2023-06-27T20:07:29Z</time>
    </trkpt>
    <trkpt lat="50.9545218" lon="6.8046846">
      <time>2023-06-27T20:07:36Z</time>
    </trkpt>
    <trkpt lat="50.9543741" lon="6.8045670">
      <time>2023-06-27T20:07:43Z</time>
    </trkpt>
    <trkpt lat="50.9542658" lon="6.8044855">
      <time>2023-06-27T20:07:49Z</time>
    </trkpt>
    <trkpt lat="50.9542052" lon="6.8044220">
      <time>2023-06-27T20:07:55Z</time>
    </trkpt>
    <trkpt lat="50.9541991" lon="6.8044031">
      <time>2023-06-27T20:07:56Z</time>
    </trkpt>
    <trkpt lat="50.9542256" lon="6.8044033">
      <time>2023-06-27T20:07:59Z</time>
    </trkpt>
    <trkpt lat="50.9543586" lon="6.8045319">
      <time>2023-06-27T20:08:04Z</time>
    </trkpt>
    <trkpt lat="50.9545722" lon="6.8047356">
      <time>2023-06-27T20:08:11Z</time>
    </trkpt>
    <trkpt lat="50.9548202" lon="6.8049811">
      <time>2023-06-27T20:08:18Z</time>
    </trkpt>
    <trkpt lat="50.9550978" lon="6.8053329">
      <time>2023-06-27T20:08:26Z</time>
    </trkpt>
    <trkpt lat="50.9551523" lon="6.8054276">
      <time>2023-06-27T20:08:28Z</time>
    </trkpt>
    <trkpt lat="50.9553855" lon="6.8058485">
      <time>2023-06-27T20:08:36Z</time>
    </trkpt>
    <trkpt lat="50.9554133" lon="6.8059047">
      <time>2023-06-27T20:08:37Z</time>
    </trkpt>
    <trkpt lat="50.9555242" lon="6.8061228">
      <time>2023-06-27T20:08:41Z</time>
    </trkpt>
    <trkpt lat="50.9556301" lon="6.8063480">
      <time>2023-06-27T20:08:45Z</time>
    </trkpt>
    <trkpt lat="50.9558599" lon="6.8068566">
      <time>2023-06-27T20:08:54Z</time>
    </trkpt>
    <trkpt lat="50.9561100" lon="6.8074282">
      <time>2023-06-27T20:09:04Z</time>
    </trkpt>
    <trkpt lat="50.9561979" lon="6.8076723">
      <time>2023-06-27T20:09:08Z</time>
    </trkpt>
    <trkpt lat="50.9562252" lon="6.8077504">
      <time>2023-06-27T20:09:09Z</time>
    </trkpt>
    <trkpt lat="50.9563174" lon="6.8079927">
      <time>2023-06-27T20:09:13Z</time>
    </trkpt>
    <trkpt lat="50.9563925" lon="6.8081843">
      <time>2023-06-27T20:09:16Z</time>
    </trkpt>
    <trkpt lat="50.9564194" lon="6.8082517">
      <time>2023-06-27T20:09:17Z</time>
    </trkpt>
    <trkpt lat="50.9565342" lon="6.8085983">
      <time>2023-06-27T20:09:22Z</time>
    </trkpt>
    <trkpt lat="50.9567473" lon="6.8092377">
      <time>2023-06-27T20:09:32Z</time>
    </trkpt>
    <trkpt lat="50.9567886" lon="6.8093803">
      <time>2023-06-27T20:09:34Z</time>
    </trkpt>
    <trkpt lat="50.9569860" lon="6.8100381">
      <time>2023-06-27T20:09:44Z</time>
    </trkpt>
    <trkpt lat="50.9569977" lon="6.8100950">
      <time>2023-06-27T20:09:45Z</time>
    </trkpt>
    <trkpt lat="50.9571656" lon="6.8106593">
      <time>2023-06-27T20:09:53Z</time>
    </trkpt>
    <trkpt lat="50.9571861" lon="6.8107492">
      <time>2023-06-27T20:09:54Z</time>
    </trkpt>
    <trkpt lat="50.9572900" lon="6.8111064">
      <time>2023-06-27T20:09:59Z</time>
    </trkpt>
    <trkpt lat="50.9574363" lon="6.8116694">
      <time>2023-06-27T20:10:07Z</time>
    </trkpt>
    <trkpt lat="50.9576198" lon="6.8123279">
      <time>2023-06-27T20:10:16Z</time>
    </trkpt>
    <trkpt lat="50.9576549" lon="6.8124696">
      <time>2023-06-27T20:10:18Z</time>
    </trkpt>
    <trkpt lat="50.9578124" lon="6.8131070">
      <time>2023-06-27T20:10:27Z</time>
    </trkpt>
    <trkpt lat="50.9579986" lon="6.8137542">
      <time>2023-06-27T20:10:37Z</time>
    </trkpt>
    <trkpt lat="50.9582103" lon="6.8143823">
      <time>2023-06-27T20:10:47Z</time>
    </trkpt>
    <trkpt lat="50.9582321" lon="6.8144437">
      <time>2023-06-27T20:10:48Z</time>
    </trkpt>
    <trkpt lat="50.9583906" lon="6.8148747">
      <time>2023-06-27T20:10:55Z</time>
    </trkpt>
    <trkpt lat="50.9585235" lon="6.8152173">
      <time>2023-06-27T20:11:01Z</time>
    </trkpt>
    <trkpt lat="50.9585434" lon="6.8152801">
      <time>2023-06-27T20:11:02Z</time>
    </trkpt>
    <trkpt lat="50.9585672" lon="6.8153375">
      <time>2023-06-27T20:11:03Z</time>
    </trkpt>
    <trkpt lat="50.9586686" lon="6.8155574">
      <time>2023-06-27T20:11:07Z</time>
    </trkpt>
    <trkpt lat="50.9589132" lon="6.8162057">
      <time>2023-06-27T20:11:18Z</time>
    </trkpt>
    <trkpt lat="50.9591085" lon="6.8167245">
      <time>2023-06-27T20:11:27Z</time>
    </trkpt>
    <trkpt lat="50.9592824" lon="6.8171944">
      <time>2023-06-27T20:11:35Z</time>
    </trkpt>
    <trkpt lat="50.9594903" lon="6.8177405">
      <time>2023-06-27T20:11:44Z</time>
    </trkpt>
    <trkpt lat="50.9596074" lon="6.8180313">
      <time>2023-06-27T20:11:49Z</time>
    </trkpt>
    <trkpt lat="50.9597235" lon="6.8183227">
      <time>2023-06-27T20:11:54Z</time>
    </trkpt>
    <trkpt lat="50.9598279" lon="6.8186458">
      <time>2023-06-27T20:12:00Z</time>
    </trkpt>
    <trkpt lat="50.9599755" lon="6.8190169">
      <time>2023-06-27T20:12:07Z</time>
    </trkpt>
    <trkpt lat="50.9601677" lon="6.8194626">
      <time>2023-06-27T20:12:16Z</time>
    </trkpt>
    <trkpt lat="50.9601664" lon="6.8195423">
      <time>2023-06-27T20:12:19Z</time>
    </trkpt>
    <trkpt lat="50.9601595" lon="6.8195635">
      <time>2023-06-27T20:12:20Z</time>
    </trkpt>
    <trkpt lat="50.9602678" lon="6.8198447">
      <time>2023-06-27T20:12:29Z</time>
    </trkpt>
    <trkpt lat="50.9603052" lon="6.8198773">
      <time>2023-06-27T20:12:30Z</time>
    </trkpt>
    <trkpt lat="50.9604216" lon="6.8199554">
      <time>2023-06-27T20:12:34Z</time>
    </trkpt>
    <trkpt lat="50.9604810" lon="6.8200182">
      <time>2023-06-27T20:12:37Z</time>
    </trkpt>
    <trkpt lat="50.9605003" lon="6.8200876">
      <time>2023-06-27T20:12:39Z</time>
    </trkpt>
    <trkpt lat="50.9606960" lon="6.8204043">
      <time>2023-06-27T20:12:56Z</time>
    </trkpt>
    <trkpt lat="50.9607272" lon="6.8203971">
      <time>2023-06-27T20:12:57Z</time>
    </trkpt>
    <trkpt lat="50.9607653" lon="6.8204033">
      <time>2023-06-27T20:12:58Z</time>
    </trkpt>
    <trkpt lat="50.9608265" lon="6.8204653">
      <time>2023-06-27T20:13:01Z</time>
    </trkpt>
    <trkpt lat="50.9609384" lon="6.8205933">
      <time>2023-06-27T20:13:07Z</time>
    </trkpt>
    <trkpt lat="50.9609620" lon="6.8206169">
      <time>2023-06-27T20:13:09Z</time>
    </trkpt>
    <trkpt lat="50.9610082" lon="6.8206518">
      <time>2023-06-27T20:13:12Z</time>
    </trkpt>
    <trkpt lat="50.9610856" lon="6.8207499">
      <time>2023-06-27T20:13:20Z</time>
    </trkpt>
    <trkpt lat="50.9611944" lon="6.8208921">
      <time>2023-06-27T20:13:28Z</time>
    </trkpt>
    <trkpt lat="50.9613654" lon="6.8211280">
      <time>2023-06-27T20:13:35Z</time>
    </trkpt>
    <trkpt lat="50.9615642" lon="6.8213802">
      <time>2023-06-27T20:13:42Z</time>
    </trkpt>
    <trkpt lat="50.9617146" lon="6.8215636">
      <time>2023-06-27T20:13:47Z</time>
    </trkpt>
    <trkpt lat="50.9617844" lon="6.8216416">
      <time>2023-06-27T20:13:49Z</time>
    </trkpt>
    <trkpt lat="50.9618495" lon="6.8217297">
      <time>2023-06-27T20:13:51Z</time>
    </trkpt>
    <trkpt lat="50.9620186" lon="6.8219540">
      <time>2023-06-27T20:13:57Z</time>
    </trkpt>
    <trkpt lat="50.9621729" lon="6.8221705">
      <time>2023-06-27T20:14:03Z</time>
    </trkpt>
    <trkpt lat="50.9624252" lon="6.8225258">
      <time>2023-06-27T20:14:12Z</time>
    </trkpt>
    <trkpt lat="50.9626089" lon="6.8228541">
      <time>2023-06-27T20:14:20Z</time>
    </trkpt>
    <trkpt lat="50.9627768" lon="6.8233042">
      <time>2023-06-27T20:14:29Z</time>
    </trkpt>
    <trkpt lat="50.9628500" lon="6.8234584">
      <time>2023-06-27T20:14:32Z</time>
    </trkpt>
    <trkpt lat="50.9629238" lon="6.8235828">
      <time>2023-06-27T20:14:35Z</time>
    </trkpt>
    <trkpt lat="50.9629344" lon="6.8236245">
      <time>2023-06-27T20:14:36Z</time>
    </trkpt>
    <trkpt lat="50.9630058" lon="6.8238410">
      <time>2023-06-27T20:14:41Z</time>
    </trkpt>
    <trkpt lat="50.9630044" lon="6.8241007">
      <time>2023-06-27T20:14:46Z</time>
    </trkpt>
    <trkpt lat="50.9629345" lon="6.8242369">
      <time>2023-06-27T20:14:50Z</time>
    </trkpt>
    <trkpt lat="50.9626954" lon="6.8244813">
      <time>2023-06-27T20:14:58Z</time>
    </trkpt>
    <trkpt lat="50.9625034" lon="6.8246775">
      <time>2023-06-27T20:15:04Z</time>
    </trkpt>
    <trkpt lat="50.9623615" lon="6.8248225">
      <time>2023-06-27T20:15:08Z</time>
    </trkpt>
    <trkpt lat="50.9621841" lon="6.8250339">
      <time>2023-06-27T20:15:14Z</time>
    </trkpt>
    <trkpt lat="50.9621227" lon="6.8251135">
      <time>2023-06-27T20:15:16Z</time>
    </trkpt>
    <trkpt lat="50.9620373" lon="6.8253413">
      <time>2023-06-27T20:15:20Z</time>
    </trkpt>
    <trkpt lat="50.9620234" lon="6.8256240">
      <time>2023-06-27T20:15:25Z</time>
    </trkpt>
    <trkpt lat="50.9620223" lon="6.8261398">
      <time>2023-06-27T20:15:33Z</time>
    </trkpt>
    <trkpt lat="50.9620128" lon="6.8263342">
      <time>2023-06-27T20:15:36Z</time>
    </trkpt>
    <trkpt lat="50.9620089" lon="6.8265856">
      <time>2023-06-27T20:15:40Z</time>
    </trkpt>
    <trkpt lat="50.9620055" lon="6.8267705">
      <time>2023-06-27T20:15:43Z</time>
    </trkpt>
    <trkpt lat="50.9619927" lon="6.8271779">
      <time>2023-06-27T20:15:50Z</time>
    </trkpt>
    <trkpt lat="50.9619861" lon="6.8275391">
      <time>2023-06-27T20:15:56Z</time>
    </trkpt>
    <trkpt lat="50.9619802" lon="6.8279909">
      <time>2023-06-27T20:16:03Z</time>
    </trkpt>
    <trkpt lat="50.9619725" lon="6.8284057">
      <time>2023-06-27T20:16:10Z</time>
    </trkpt>
    <trkpt lat="50.9619569" lon="6.8288184">
      <time>2023-06-27T20:16:17Z</time>
    </trkpt>
    <trkpt lat="50.9618995" lon="6.8291603">
      <time>2023-06-27T20:16:23Z</time>
    </trkpt>
    <trkpt lat="50.9618450" lon="6.8294299">
      <time>2023-06-27T20:16:28Z</time>
    </trkpt>
    <trkpt lat="50.9618134" lon="6.8296254">
      <time>2023-06-27T20:16:32Z</time>
    </trkpt>
    <trkpt lat="50.9617916" lon="6.8297910">
      <time>2023-06-27T20:16:35Z</time>
    </trkpt>
    <trkpt lat="50.9617714" lon="6.8299707">
      <time>2023-06-27T20:16:38Z</time>
    </trkpt>
    <trkpt lat="50.9617547" lon="6.8302567">
      <time>2023-06-27T20:16:43Z</time>
    </trkpt>
    <trkpt lat="50.9616983" lon="6.8304657">
      <time>2023-06-27T20:16:48Z</time>
    </trkpt>
    <trkpt lat="50.9616016" lon="6.8306841">
      <time>2023-06-27T20:16:53Z</time>
    </trkpt>
    <trkpt lat="50.9616384" lon="6.8309218">
      <time>2023-06-27T20:16:57Z</time>
    </trkpt>
    <trkpt lat="50.9616442" lon="6.8312528">
      <time>2023-06-27T20:17:02Z</time>
    </trkpt>
    <trkpt lat="50.9616056" lon="6.8318579">
      <time>2023-06-27T20:17:10Z</time>
    </trkpt>
    <trkpt lat="50.9615747" lon="6.8321266">
      <time>2023-06-27T20:17:14Z</time>
    </trkpt>
    <trkpt lat="50.9615562" lon="6.8323615">
      <time>2023-06-27T20:17:17Z</time>
    </trkpt>
    <trkpt lat="50.9615329" lon="6.8329492">
      <time>2023-06-27T20:17:25Z</time>
    </trkpt>
    <trkpt lat="50.9614924" lon="6.8335955">
      <time>2023-06-27T20:17:34Z</time>
    </trkpt>
    <trkpt lat="50.9614493" lon="6.8339286">
      <time>2023-06-27T20:17:39Z</time>
    </trkpt>
    <trkpt lat="50.9614442" lon="6.8341280">
      <time>2023-06-27T20:17:42Z</time>
    </trkpt>
    <trkpt lat="50.9614265" lon="6.8346320">
      <time>2023-06-27T20:17:50Z</time>
    </trkpt>
    <trkpt lat="50.9613975" lon="6.8350953">
      <time>2023-06-27T20:17:58Z</time>
    </trkpt>
    <trkpt lat="50.9614511" lon="6.8355212">
      <time>2023-06-27T20:18:05Z</time>
    </trkpt>
    <trkpt lat="50.9614462" lon="6.8355813">
      <time>2023-06-27T20:18:06Z</time>
    </trkpt>
    <trkpt lat="50.9614128" lon="6.8356906">
      <time>2023-06-27T20:18:08Z</time>
    </trkpt>
    <trkpt lat="50.9613907" lon="6.8357505">
      <time>2023-06-27T20:18:09Z</time>
    </trkpt>
    <trkpt lat="50.9613640" lon="6.8358755">
      <time>2023-06-27T20:18:11Z</time>
    </trkpt>
    <trkpt lat="50.9613421" lon="6.8359921">
      <time>2023-06-27T20:18:13Z</time>
    </trkpt>
    <trkpt lat="50.9613403" lon="6.8360466">
      <time>2023-06-27T20:18:14Z</time>
    </trkpt>
    <trkpt lat="50.9613841" lon="6.8361565">
      <time>2023-06-27T20:18:16Z</time>
    </trkpt>
    <trkpt lat="50.9614071" lon="6.8364274">
      <time>2023-06-27T20:18:21Z</time>
    </trkpt>
    <trkpt lat="50.9613247" lon="6.8364874">
      <time>2023-06-27T20:18:24Z</time>
    </trkpt>
    <trkpt lat="50.9612913" lon="6.8365733">
      <time>2023-06-27T20:18:26Z</time>
    </trkpt>
    <trkpt lat="50.9612727" lon="6.8366879">
      <time>2023-06-27T20:18:28Z</time>
    </trkpt>
    <trkpt lat="50.9612666" lon="6.8370566">
      <time>2023-06-27T20:18:33Z</time>
    </trkpt>
    <trkpt lat="50.9612349" lon="6.8376462">
      <time>2023-06-27T20:18:40Z</time>
    </trkpt>
    <trkpt lat="50.9611814" lon="6.8383837">
      <time>2023-06-27T20:18:49Z</time>
    </trkpt>
    <trkpt lat="50.9611636" lon="6.8389814">
      <time>2023-06-27T20:18:56Z</time>
    </trkpt>
    <trkpt lat="50.9611414" lon="6.8391918">
      <time>2023-06-27T20:18:59Z</time>
    </trkpt>
    <trkpt lat="50.9611205" lon="6.8395678">
      <time>2023-06-27T20:19:04Z</time>
    </trkpt>
    <trkpt lat="50.9611386" lon="6.8398233">
      <time>2023-06-27T20:19:09Z</time>
    </trkpt>
    <trkpt lat="50.9611623" lon="6.8398758">
      <time>2023-06-27T20:19:13Z</time>
    </trkpt>
    <trkpt lat="50.9611846" lon="6.8400463">
      <time>2023-06-27T20:19:18Z</time>
    </trkpt>
    <trkpt lat="50.9611719" lon="6.8400818">
      <time>2023-06-27T20:19:19Z</time>
    </trkpt>
    <trkpt lat="50.9610764" lon="6.8402758">
      <time>2023-06-27T20:19:23Z</time>
    </trkpt>
    <trkpt lat="50.9610443" lon="6.8403432">
      <time>2023-06-27T20:19:24Z</time>
    </trkpt>
    <trkpt lat="50.9610340" lon="6.8404031">
      <time>2023-06-27T20:19:25Z</time>
    </trkpt>
    <trkpt lat="50.9610125" lon="6.8406535">
      <time>2023-06-27T20:19:28Z</time>
    </trkpt>
    <trkpt lat="50.9610075" lon="6.8407942">
      <time>2023-06-27T20:19:30Z</time>
    </trkpt>
    <trkpt lat="50.9609788" lon="6.8411312">
      <time>2023-06-27T20:19:34Z</time>
    </trkpt>
    <trkpt lat="50.9609647" lon="6.8416956">
      <time>2023-06-27T20:19:41Z</time>
    </trkpt>
    <trkpt lat="50.9609292" lon="6.8422125">
      <time>2023-06-27T20:19:48Z</time>
    </trkpt>
    <trkpt lat="50.9608839" lon="6.8427794">
      <time>2023-06-27T20:19:56Z</time>
    </trkpt>
    <trkpt lat="50.9608419" lon="6.8434113">
      <time>2023-06-27T20:20:05Z</time>
    </trkpt>
    <trkpt lat="50.9607859" lon="6.8438341">
      <time>2023-06-27T20:20:11Z</time>
    </trkpt>
    <trkpt lat="50.9607589" lon="6.8441923">
      <time>2023-06-27T20:20:16Z</time>
    </trkpt>
    <trkpt lat="50.9607277" lon="6.8446990">
      <time>2023-06-27T20:20:23Z</time>
    </trkpt>
    <trkpt lat="50.9607221" lon="6.8448448">
      <time>2023-06-27T20:20:25Z</time>
    </trkpt>
    <trkpt lat="50.9607114" lon="6.8451281">
      <time>2023-06-27T20:20:29Z</time>
    </trkpt>
    <trkpt lat="50.9606976" lon="6.8454921">
      <time>2023-06-27T20:20:34Z</time>
    </trkpt>
    <trkpt lat="50.9606683" lon="6.8459635">
      <time>2023-06-27T20:20:41Z</time>
    </trkpt>
    <trkpt lat="50.9606595" lon="6.8462370">
      <time>2023-06-27T20:20:45Z</time>
    </trkpt>
    <trkpt lat="50.9606039" lon="6.8468559">
      <time>2023-06-27T20:20:54Z</time>
    </trkpt>
    <trkpt lat="50.9605663" lon="6.8474166">
      <time>2023-06-27T20:21:02Z</time>
    </trkpt>
    <trkpt lat="50.9605269" lon="6.8481187">
      <time>2023-06-27T20:21:12Z</time>
    </trkpt>
    <trkpt lat="50.9605049" lon="6.8484098">
      <time>2023-06-27T20:21:16Z</time>
    </trkpt>
    <trkpt lat="50.9604989" lon="6.8486855">
      <time>2023-06-27T20:21:20Z</time>
    </trkpt>
    <trkpt lat="50.9604313" lon="6.8494687">
      <time>2023-06-27T20:21:31Z</time>
    </trkpt>
    <trkpt lat="50.9603870" lon="6.8499660">
      <time>2023-06-27T20:21:37Z</time>
    </trkpt>
    <trkpt lat="50.9603671" lon="6.8502078">
      <time>2023-06-27T20:21:40Z</time>
    </trkpt>
    <trkpt lat="50.9603515" lon="6.8504035">
      <time>2023-06-27T20:21:42Z</time>
    </trkpt>
    <trkpt lat="50.9603170" lon="6.8506875">
      <time>2023-06-27T20:21:45Z</time>
    </trkpt>
    <trkpt lat="50.9602858" lon="6.8512953">
      <time>2023-06-27T20:21:53Z</time>
    </trkpt>
    <trkpt lat="50.9602543" lon="6.8516100">
      <time>2023-06-27T20:21:57Z</time>
    </trkpt>
    <trkpt lat="50.9602427" lon="6.8518383">
      <time>2023-06-27T20:22:00Z</time>
    </trkpt>
    <trkpt lat="50.9601984" lon="6.8524736">
      <time>2023-06-27T20:22:10Z</time>
    </trkpt>
    <trkpt lat="50.9601465" lon="6.8531242">
      <time>2023-06-27T20:22:20Z</time>
    </trkpt>
    <trkpt lat="50.9601378" lon="6.8532493">
      <time>2023-06-27T20:22:22Z</time>
    </trkpt>
    <trkpt lat="50.9601020" lon="6.8538300">
      <time>2023-06-27T20:22:31Z</time>
    </trkpt>
    <trkpt lat="50.9600484" lon="6.8545781">
      <time>2023-06-27T20:22:42Z</time>
    </trkpt>
    <trkpt lat="50.9600377" lon="6.8547085">
      <time>2023-06-27T20:22:44Z</time>
    </trkpt>
    <trkpt lat="50.9600067" lon="6.8552340">
      <time>2023-06-27T20:22:52Z</time>
    </trkpt>
    <trkpt lat="50.9599742" lon="6.8557000">
      <time>2023-06-27T20:22:59Z</time>
    </trkpt>
    <trkpt lat="50.9599528" lon="6.8560907">
      <time>2023-06-27T20:23:05Z</time>
    </trkpt>
    <trkpt lat="50.9599205" lon="6.8566747">
      <time>2023-06-27T20:23:14Z</time>
    </trkpt>
    <trkpt lat="50.9598731" lon="6.8573658">
      <time>2023-06-27T20:23:25Z</time>
    </trkpt>
    <trkpt lat="50.9598421" lon="6.8578956">
      <time>2023-06-27T20:23:33Z</time>
    </trkpt>
    <trkpt lat="50.9598063" lon="6.8584005">
      <time>2023-06-27T20:23:41Z</time>
    </trkpt>
    <trkpt lat="50.9597848" lon="6.8588443">
      <time>2023-06-27T20:23:48Z</time>
    </trkpt>
    <trkpt lat="50.9597300" lon="6.8595030">
      <time>2023-06-27T20:23:58Z</time>
    </trkpt>
    <trkpt lat="50.9596927" lon="6.8599942">
      <time>2023-06-27T20:24:06Z</time>
    </trkpt>
    <trkpt lat="50.9596801" lon="6.8601138">
      <time>2023-06-27T20:24:08Z</time>
    </trkpt>
    <trkpt lat="50.9596523" lon="6.8605354">
      <time>2023-06-27T20:24:15Z</time>
    </trkpt>
    <trkpt lat="50.9596138" lon="6.8611650">
      <time>2023-06-27T20:24:25Z</time>
    </trkpt>
    <trkpt lat="50.9596049" lon="6.8615799">
      <time>2023-06-27T20:24:32Z</time>
    </trkpt>
    <trkpt lat="50.9595814" lon="6.8618629">
      <time>2023-06-27T20:24:37Z</time>
    </trkpt>
    <trkpt lat="50.9595734" lon="6.8621889">
      <time>2023-06-27T20:24:44Z</time>
    </trkpt>
    <trkpt lat="50.9595244" lon="6.8623809">
      <time>2023-06-27T20:24:49Z</time>
    </trkpt>
    <trkpt lat="50.9595151" lon="6.8627059">
      <time>2023-06-27T20:24:55Z</time>
    </trkpt>
    <trkpt lat="50.9595122" lon="6.8631247">
      <time>2023-06-27T20:25:02Z</time>
    </trkpt>
    <trkpt lat="50.9595533" lon="6.8636952">
      <time>2023-06-27T20:25:12Z</time>
    </trkpt>
    <trkpt lat="50.9596062" lon="6.8640981">
      <time>2023-06-27T20:25:19Z</time>
    </trkpt>
    <trkpt lat="50.9596335" lon="6.8644790">
      <time>2023-06-27T20:25:26Z</time>
    </trkpt>
    <trkpt lat="50.9596508" lon="6.8649322">
      <time>2023-06-27T20:25:34Z</time>
    </trkpt>
    <trkpt lat="50.9595558" lon="6.8654467">
      <time>2023-06-27T20:25:43Z</time>
    </trkpt>
    <trkpt lat="50.9594062" lon="6.8659557">
      <time>2023-06-27T20:25:51Z</time>
    </trkpt>
    <trkpt lat="50.9592475" lon="6.8665195">
      <time>2023-06-27T20:25:59Z</time>
    </trkpt>
    <trkpt lat="50.9590763" lon="6.8671130">
      <time>2023-06-27T20:26:07Z</time>
    </trkpt>
    <trkpt lat="50.9589352" lon="6.8676640">
      <time>2023-06-27T20:26:14Z</time>
    </trkpt>
    <trkpt lat="50.9588693" lon="6.8679690">
      <time>2023-06-27T20:26:18Z</time>
    </trkpt>
    <trkpt lat="50.9588484" lon="6.8680352">
      <time>2023-06-27T20:26:19Z</time>
    </trkpt>
    <trkpt lat="50.9588287" lon="6.8680927">
      <time>2023-06-27T20:26:20Z</time>
    </trkpt>
    <trkpt lat="50.9587490" lon="6.8682176">
      <time>2023-06-27T20:26:23Z</time>
    </trkpt>
    <trkpt lat="50.9587181" lon="6.8682452">
      <time>2023-06-27T20:26:24Z</time>
    </trkpt>
    <trkpt lat="50.9585452" lon="6.8683345">
      <time>2023-06-27T20:26:30Z</time>
    </trkpt>
    <trkpt lat="50.9584751" lon="6.8683827">
      <time>2023-06-27T20:26:36Z</time>
    </trkpt>
    <trkpt lat="50.9584664" lon="6.8683837">
      <time>2023-06-27T20:26:41Z</time>
    </trkpt>
    <trkpt lat="50.9584758" lon="6.8684515">
      <time>2023-06-27T20:26:51Z</time>
    </trkpt>
    <trkpt lat="50.9584840" lon="6.8684901">
      <time>2023-06-27T20:26:52Z</time>
    </trkpt>
    <trkpt lat="50.9585759" lon="6.8687037">
      <time>2023-06-27T20:26:57Z</time>
    </trkpt>
    <trkpt lat="50.9586963" lon="6.8688371">
      <time>2023-06-27T20:27:01Z</time>
    </trkpt>
    <trkpt lat="50.9586954" lon="6.8689044">
      <time>2023-06-27T20:27:02Z</time>
    </trkpt>
    <trkpt lat="50.9586850" lon="6.8689744">
      <time>2023-06-27T20:27:03Z</time>
    </trkpt>
    <trkpt lat="50.9586153" lon="6.8692665">
      <time>2023-06-27T20:27:07Z</time>
    </trkpt>
    <trkpt lat="50.9585894" lon="6.8693310">
      <time>2023-06-27T20:27:08Z</time>
    </trkpt>
    <trkpt lat="50.9585134" lon="6.8695068">
      <time>2023-06-27T20:27:11Z</time>
    </trkpt>
    <trkpt lat="50.9584881" lon="6.8695700">
      <time>2023-06-27T20:27:12Z</time>
    </trkpt>
    <trkpt lat="50.9584503" lon="6.8697129">
      <time>2023-06-27T20:27:14Z</time>
    </trkpt>
    <trkpt lat="50.9583994" lon="6.8699517">
      <time>2023-06-27T20:27:17Z</time>
    </trkpt>
    <trkpt lat="50.9583833" lon="6.8700277">
      <time>2023-06-27T20:27:18Z</time>
    </trkpt>
    <trkpt lat="50.9583760" lon="6.8701061">
      <time>2023-06-27T20:27:19Z</time>
    </trkpt>
    <trkpt lat="50.9583603" lon="6.8702593">
      <time>2023-06-27T20:27:21Z</time>
    </trkpt>
    <trkpt lat="50.9583487" lon="6.8703332">
      <time>2023-06-27T20:27:22Z</time>
    </trkpt>
    <trkpt lat="50.9583342" lon="6.8703989">
      <time>2023-06-27T20:27:23Z</time>
    </trkpt>
    <trkpt lat="50.9583309" lon="6.8704647">
      <time>2023-06-27T20:27:24Z</time>
    </trkpt>
    <trkpt lat="50.9583619" lon="6.8705646">
      <time>2023-06-27T20:27:26Z</time>
    </trkpt>
    <trkpt lat="50.9584310" lon="6.8706764">
      <time>2023-06-27T20:27:28Z</time>
    </trkpt>
    <trkpt lat="50.9584790" lon="6.8707207">
      <time>2023-06-27T20:27:29Z</time>
    </trkpt>
    <trkpt lat="50.9585283" lon="6.8707558">
      <time>2023-06-27T20:27:30Z</time>
    </trkpt>
    <trkpt lat="50.9587487" lon="6.8708314">
      <time>2023-06-27T20:27:35Z</time>
    </trkpt>
    <trkpt lat="50.9589441" lon="6.8708405">
      <time>2023-06-27T20:27:40Z</time>
    </trkpt>
    <trkpt lat="50.9591428" lon="6.8708651">
      <time>2023-06-27T20:27:45Z</time>
    </trkpt>
    <trkpt lat="50.9593303" lon="6.8710563">
      <time>2023-06-27T20:27:50Z</time>
    </trkpt>
    <trkpt lat="50.9594015" lon="6.8712914">
      <time>2023-06-27T20:27:53Z</time>
    </trkpt>
    <trkpt lat="50.9594569" lon="6.8714566">
      <time>2023-06-27T20:27:55Z</time>
    </trkpt>
    <trkpt lat="50.9594863" lon="6.8715877">
      <time>2023-06-27T20:27:57Z</time>
    </trkpt>
    <trkpt lat="50.9595202" lon="6.8717341">
      <time>2023-06-27T20:27:59Z</time>
    </trkpt>
    <trkpt lat="50.9595871" lon="6.8719197">
      <time>2023-06-27T20:28:02Z</time>
    </trkpt>
    <trkpt lat="50.9596081" lon="6.8719747">
      <time>2023-06-27T20:28:03Z</time>
    </trkpt>
    <trkpt lat="50.9596294" lon="6.8720895">
      <time>2023-06-27T20:28:05Z</time>
    </trkpt>
    <trkpt lat="50.9596500" lon="6.8721977">
      <time>2023-06-27T20:28:07Z</time>
    </trkpt>
    <trkpt lat="50.9596989" lon="6.8725013">
      <time>2023-06-27T20:28:13Z</time>
    </trkpt>
    <trkpt lat="50.9597347" lon="6.8727227">
      <time>2023-06-27T20:28:19Z</time>
    </trkpt>
    <trkpt lat="50.9597499" lon="6.8728781">
      <time>2023-06-27T20:28:24Z</time>
    </trkpt>
    <trkpt lat="50.9597549" lon="6.8728925">
      <time>2023-06-27T20:28:25Z</time>
    </trkpt>
    <trkpt lat="50.9597470" lon="6.8729102">
      <time>2023-06-27T20:28:28Z</time>
    </trkpt>
    <trkpt lat="50.9597741" lon="6.8729160">
      <time>2023-06-27T20:28:34Z</time>
    </trkpt>
    <trkpt lat="50.9597936" lon="6.8729492">
      <time>2023-06-27T20:28:40Z</time>
    </trkpt>
    <trkpt lat="50.9598146" lon="6.8731139">
      <time>2023-06-27T20:28:46Z</time>
    </trkpt>
    <trkpt lat="50.9598484" lon="6.8733190">
      <time>2023-06-27T20:28:51Z</time>
    </trkpt>
    <trkpt lat="50.9598920" lon="6.8735687">
      <time>2023-06-27T20:28:56Z</time>
    </trkpt>
    <trkpt lat="50.9598829" lon="6.8739269">
      <time>2023-06-27T20:29:03Z</time>
    </trkpt>
    <trkpt lat="50.9598515" lon="6.8742357">
      <time>2023-06-27T20:29:09Z</time>
    </trkpt>
    <trkpt lat="50.9598364" lon="6.8743421">
      <time>2023-06-27T20:29:11Z</time>
    </trkpt>
    <trkpt lat="50.9597848" lon="6.8748751">
      <time>2023-06-27T20:29:21Z</time>
    </trkpt>
    <trkpt lat="50.9597528" lon="6.8752517">
      <time>2023-06-27T20:29:28Z</time>
    </trkpt>
    <trkpt lat="50.9597359" lon="6.8755672">
      <time>2023-06-27T20:29:34Z</time>
    </trkpt>
    <trkpt lat="50.9597499" lon="6.8758062">
      <time>2023-06-27T20:29:39Z</time>
    </trkpt>
    <trkpt lat="50.9597928" lon="6.8762436">
      <time>2023-06-27T20:29:47Z</time>
    </trkpt>
    <trkpt lat="50.9598629" lon="6.8766816">
      <time>2023-06-27T20:29:55Z</time>
    </trkpt>
    <trkpt lat="50.9598269" lon="6.8770097">
      <time>2023-06-27T20:30:01Z</time>
    </trkpt>
    <trkpt lat="50.9597994" lon="6.8772870">
      <time>2023-06-27T20:30:06Z</time>
    </trkpt>
    <trkpt lat="50.9598654" lon="6.8774412">
      <time>2023-06-27T20:30:10Z</time>
    </trkpt>
    <trkpt lat="50.9600465" lon="6.8775896">
      <time>2023-06-27T20:30:16Z</time>
    </trkpt>
    <trkpt lat="50.9601875" lon="6.8777268">
      <time>2023-06-27T20:30:21Z</time>
    </trkpt>
    <trkpt lat="50.9602697" lon="6.8777535">
      <time>2023-06-27T20:30:24Z</time>
    </trkpt>
    <trkpt lat="50.9604121" lon="6.8777018">
      <time>2023-06-27T20:30:29Z</time>
    </trkpt>
    <trkpt lat="50.9606956" lon="6.8775697">
      <time>2023-06-27T20:30:37Z</time>
    </trkpt>
    <trkpt lat="50.9608906" lon="6.8775208">
      <time>2023-06-27T20:30:43Z</time>
    </trkpt>
    <trkpt lat="50.9611569" lon="6.8773889">
      <time>2023-06-27T20:30:52Z</time>
    </trkpt>
    <trkpt lat="50.9614271" lon="6.8772221">
      <time>2023-06-27T20:31:01Z</time>
    </trkpt>
    <trkpt lat="50.9616309" lon="6.8770981">
      <time>2023-06-27T20:31:08Z</time>
    </trkpt>
    <trkpt lat="50.9617525" lon="6.8770267">
      <time>2023-06-27T20:31:14Z</time>
    </trkpt>
    <trkpt lat="50.9619468" lon="6.8768546">
      <time>2023-06-27T20:31:23Z</time>
    </trkpt>
    <trkpt lat="50.9619544" lon="6.8768056">
      <time>2023-06-27T20:31:25Z</time>
    </trkpt>
    <trkpt lat="50.9619772" lon="6.8767230">
      <time>2023-06-27T20:31:28Z</time>
    </trkpt>
    <trkpt lat="50.9620070" lon="6.8766022">
      <time>2023-06-27T20:31:33Z</time>
    </trkpt>
    <trkpt lat="50.9620083" lon="6.8765912">
      <time>2023-06-27T20:31:34Z</time>
    </trkpt>
    <trkpt lat="50.9620068" lon="6.8764558">
      <time>2023-06-27T20:31:41Z</time>
    </trkpt>
    <trkpt lat="50.9620105" lon="6.8764455">
      <time>2023-06-27T20:31:42Z</time>
    </trkpt>
    <trkpt lat="50.9620458" lon="6.8763814">
      <time>2023-06-27T20:31:49Z</time>
    </trkpt>
    <trkpt lat="50.9620458" lon="6.8763804">
      <time>2023-06-27T20:31:52Z</time>
    </trkpt>
    <trkpt lat="50.9620789" lon="6.8763551">
      <time>2023-06-27T20:31:56Z</time>
    </trkpt>
    <trkpt lat="50.9621335" lon="6.8763761">
      <time>2023-06-27T20:32:00Z</time>
    </trkpt>
    <trkpt lat="50.9622058" lon="6.8763981">
      <time>2023-06-27T20:32:03Z</time>
    </trkpt>
    <trkpt lat="50.9622746" lon="6.8764081">
      <time>2023-06-27T20:32:05Z</time>
    </trkpt>
    <trkpt lat="50.9624881" lon="6.8764429">
      <time>2023-06-27T20:32:12Z</time>
    </trkpt>
    <trkpt lat="50.9626882" lon="6.8764680">
      <time>2023-06-27T20:32:19Z</time>
    </trkpt>
    <trkpt lat="50.9627102" lon="6.8764547">
      <time>2023-06-27T20:32:20Z</time>
    </trkpt>
    <trkpt lat="50.9627217" lon="6.8764309">
      <time>2023-06-27T20:32:21Z</time>
    </trkpt>
    <trkpt lat="50.9627452" lon="6.8763264">
      <time>2023-06-27T20:32:24Z</time>
    </trkpt>
    <trkpt lat="50.9627764" lon="6.8762711">
      <time>2023-06-27T20:32:26Z</time>
    </trkpt>
    <trkpt lat="50.9628356" lon="6.8762879">
      <time>2023-06-27T20:32:28Z</time>
    </trkpt>
    <trkpt lat="50.9630714" lon="6.8763285">
      <time>2023-06-27T20:32:39Z</time>
    </trkpt>
    <trkpt lat="50.9630863" lon="6.8763366">
      <time>2023-06-27T20:32:40Z</time>
    </trkpt>
    <trkpt lat="50.9631277" lon="6.8763591">
      <time>2023-06-27T20:32:42Z</time>
    </trkpt>
    <trkpt lat="50.9631556" lon="6.8763570">
      <time>2023-06-27T20:32:43Z</time>
    </trkpt>
    <trkpt lat="50.9632124" lon="6.8763210">
      <time>2023-06-27T20:32:46Z</time>
    </trkpt>
    <trkpt lat="50.9632371" lon="6.8762616">
      <time>2023-06-27T20:32:48Z</time>
    </trkpt>
    <trkpt lat="50.9632971" lon="6.8760291">
      <time>2023-06-27T20:32:55Z</time>
    </trkpt>
    <trkpt lat="50.9633229" lon="6.8759217">
      <time>2023-06-27T20:32:59Z</time>
    </trkpt>
    <trkpt lat="50.9633470" lon="6.8759104">
      <time>2023-06-27T20:33:01Z</time>
    </trkpt>
    <trkpt lat="50.9634208" lon="6.8759118">
      <time>2023-06-27T20:33:08Z</time>
    </trkpt>
    <trkpt lat="50.9634281" lon="6.8758960">
      <time>2023-06-27T20:33:13Z</time>
    </trkpt>
    <trkpt lat="50.9634278" lon="6.8758957">
      <time>2023-06-27T20:33:20Z</time>
    </trkpt>
    <trkpt lat="50.9634190" lon="6.8759231">
      <time>2023-06-27T20:33:26Z</time>
    </trkpt>
    <trkpt lat="50.9634158" lon="6.8759658">
      <time>2023-06-27T20:33:32Z</time>
    </trkpt>
    <trkpt lat="50.9639836" lon="6.8761870">
      <time>2023-06-27T20:36:37Z</time>
    </trkpt>
  </trkseg></trk>
</gpx>
