<?xml version="1.0" encoding="UTF-8"?>
<gpx version="1.1" creator="Diary FIT converter" xmlns="http://www.topografix.com/GPX/1/1">
  <trk><name>Cycling</name><trkseg>
    <trkpt lat="50.9519681" lon="6.9918742">
      <ele>46.2</ele>
      <time>2019-06-05T07:46:38Z</time>
    </trkpt>
    <trkpt lat="50.9518531" lon="6.9918758">
      <ele>47.4</ele>
      <time>2019-06-05T07:46:40Z</time>
    </trkpt>
    <trkpt lat="50.9517605" lon="6.9916904">
      <ele>48.6</ele>
      <time>2019-06-05T07:46:43Z</time>
    </trkpt>
    <trkpt lat="50.9517698" lon="6.9915094">
      <ele>48.6</ele>
      <time>2019-06-05T07:46:45Z</time>
    </trkpt>
    <trkpt lat="50.9518979" lon="6.9908218">
      <ele>46.8</ele>
      <time>2019-06-05T07:46:52Z</time>
    </trkpt>
    <trkpt lat="50.9518896" lon="6.9906582">
      <ele>47.4</ele>
      <time>2019-06-05T07:46:54Z</time>
    </trkpt>
    <trkpt lat="50.9518535" lon="6.9905141">
      <ele>48.2</ele>
      <time>2019-06-05T07:46:56Z</time>
    </trkpt>
    <trkpt lat="50.9516475" lon="6.9902546">
      <ele>49.8</ele>
      <time>2019-06-05T07:47:01Z</time>
    </trkpt>
    <trkpt lat="50.9515938" lon="6.9901278">
      <ele>50.0</ele>
      <time>2019-06-05T07:47:03Z</time>
    </trkpt>
    <trkpt lat="50.9515983" lon="6.9899962">
      <ele>49.4</ele>
      <time>2019-06-05T07:47:05Z</time>
    </trkpt>
    <trkpt lat="50.9516346" lon="6.9898530">
      <ele>49.0</ele>
      <time>2019-06-05T07:47:07Z</time>
    </trkpt>
    <trkpt lat="50.9517910" lon="6.9894641">
      <ele>46.0</ele>
      <time>2019-06-05T07:47:13Z</time>
    </trkpt>
    <trkpt lat="50.9520221" lon="6.9895670">
      <ele>46.0</ele>
      <time>2019-06-05T07:47:19Z</time>
    </trkpt>
    <trkpt lat="50.9525673" lon="6.9899704">
      <ele>48.8</ele>
      <time>2019-06-05T07:47:28Z</time>
    </trkpt>
    <trkpt lat="50.9531136" lon="6.9904264">
      <ele>52.8</ele>
      <time>2019-06-05T07:47:36Z</time>
    </trkpt>
    <trkpt lat="50.9536062" lon="6.9908285">
      <ele>54.4</ele>
      <time>2019-06-05T07:47:43Z</time>
    </trkpt>
    <trkpt lat="50.9540864" lon="6.9912304">
      <ele>56.2</ele>
      <time>2019-06-05T07:47:50Z</time>
    </trkpt>
    <trkpt lat="50.9546040" lon="6.9916513">
      <ele>56.8</ele>
      <time>2019-06-05T07:47:58Z</time>
    </trkpt>
    <trkpt lat="50.9551016" lon="6.9920476">
      <ele>58.2</ele>
      <time>2019-06-05T07:48:10Z</time>
    </trkpt>
    <trkpt lat="50.9555875" lon="6.9924689">
      <ele>61.0</ele>
      <time>2019-06-05T07:48:21Z</time>
    </trkpt>
    <trkpt lat="50.9561084" lon="6.9928794">
      <ele>62.4</ele>
      <time>2019-06-05T07:48:29Z</time>
    </trkpt>
    <trkpt lat="50.9561794" lon="6.9929381">
      <ele>62.8</ele>
      <time>2019-06-05T07:48:30Z</time>
    </trkpt>
    <trkpt lat="50.9562487" lon="6.9929914">
      <ele>63.0</ele>
      <time>2019-06-05T07:48:31Z</time>
    </trkpt>
    <trkpt lat="50.9563122" lon="6.9930496">
      <ele>63.2</ele>
      <time>2019-06-05T07:48:32Z</time>
    </trkpt>
    <trkpt lat="50.9563749" lon="6.9931057">
      <ele>63.6</ele>
      <time>2019-06-05T07:48:33Z</time>
    </trkpt>
    <trkpt lat="50.9568551" lon="6.9935712">
      <ele>64.0</ele>
      <time>2019-06-05T07:48:41Z</time>
    </trkpt>
    <trkpt lat="50.9573207" lon="6.9939737">
      <ele>63.6</ele>
      <time>2019-06-05T07:48:59Z</time>
    </trkpt>
    <trkpt lat="50.9573199" lon="6.9939670">
      <ele>63.4</ele>
      <time>2019-06-05T07:49:02Z</time>
    </trkpt>
    <trkpt lat="50.9573204" lon="6.9939665">
      <ele>63.4</ele>
      <time>2019-06-05T07:49:04Z</time>
    </trkpt>
    <trkpt lat="50.9573836" lon="6.9940119">
      <ele>63.6</ele>
      <time>2019-06-05T07:49:10Z</time>
    </trkpt>
    <trkpt lat="50.9575252" lon="6.9941120">
      <ele>63.4</ele>
      <time>2019-06-05T07:49:14Z</time>
    </trkpt>
    <trkpt lat="50.9580817" lon="6.9945373">
      <ele>63.0</ele>
      <time>2019-06-05T07:49:23Z</time>
    </trkpt>
    <trkpt lat="50.9586096" lon="6.9949991">
      <ele>63.0</ele>
      <time>2019-06-05T07:49:30Z</time>
    </trkpt>
    <trkpt lat="50.9590321" lon="6.9953919">
      <ele>63.2</ele>
      <time>2019-06-05T07:49:36Z</time>
    </trkpt>
    <trkpt lat="50.9591105" lon="6.9954451">
      <ele>63.2</ele>
      <time>2019-06-05T07:49:37Z</time>
    </trkpt>
    <trkpt lat="50.9591884" lon="6.9954988">
      <ele>63.2</ele>
      <time>2019-06-05T07:49:38Z</time>
    </trkpt>
    <trkpt lat="50.9594246" lon="6.9956708">
      <ele>63.4</ele>
      <time>2019-06-05T07:49:41Z</time>
    </trkpt>
    <trkpt lat="50.9595790" lon="6.9957834">
      <ele>63.6</ele>
      <time>2019-06-05T07:49:43Z</time>
    </trkpt>
    <trkpt lat="50.9598507" lon="6.9959878">
      <ele>63.8</ele>
      <time>2019-06-05T07:49:47Z</time>
    </trkpt>
    <trkpt lat="50.9603654" lon="6.9962919">
      <ele>64.4</ele>
      <time>2019-06-05T07:49:54Z</time>
    </trkpt>
    <trkpt lat="50.9609235" lon="6.9966572">
      <ele>65.0</ele>
      <time>2019-06-05T07:50:02Z</time>
    </trkpt>
    <trkpt lat="50.9614620" lon="6.9969567">
      <ele>66.0</ele>
      <time>2019-06-05T07:50:09Z</time>
    </trkpt>
    <trkpt lat="50.9619835" lon="6.9972356">
      <ele>66.6</ele>
      <time>2019-06-05T07:50:16Z</time>
    </trkpt>
    <trkpt lat="50.9625046" lon="6.9976118">
      <ele>67.4</ele>
      <time>2019-06-05T07:50:23Z</time>
    </trkpt>
    <trkpt lat="50.9630270" lon="6.9980528">
      <ele>66.6</ele>
      <time>2019-06-05T07:50:30Z</time>
    </trkpt>
    <trkpt lat="50.9635374" lon="6.9985647">
      <ele>66.0</ele>
      <time>2019-06-05T07:50:38Z</time>
    </trkpt>
    <trkpt lat="50.9640537" lon="6.9990355">
      <ele>65.2</ele>
      <time>2019-06-05T07:50:46Z</time>
    </trkpt>
    <trkpt lat="50.9641106" lon="6.9990860">
      <ele>65.0</ele>
      <time>2019-06-05T07:50:47Z</time>
    </trkpt>
    <trkpt lat="50.9641680" lon="6.9991415">
      <ele>64.8</ele>
      <time>2019-06-05T07:50:48Z</time>
    </trkpt>
    <trkpt lat="50.9642291" lon="6.9991979">
      <ele>64.6</ele>
      <time>2019-06-05T07:50:49Z</time>
    </trkpt>
    <trkpt lat="50.9643574" lon="6.9993324">
      <ele>64.0</ele>
      <time>2019-06-05T07:50:51Z</time>
    </trkpt>
    <trkpt lat="50.9644790" lon="6.9994653">
      <ele>63.6</ele>
      <time>2019-06-05T07:50:53Z</time>
    </trkpt>
    <trkpt lat="50.9648051" lon="6.9998749">
      <ele>63.4</ele>
      <time>2019-06-05T07:50:59Z</time>
    </trkpt>
    <trkpt lat="50.9650895" lon="7.0001404">
      <ele>64.2</ele>
      <time>2019-06-05T07:51:05Z</time>
    </trkpt>
    <trkpt lat="50.9654259" lon="7.0003557">
      <ele>65.6</ele>
      <time>2019-06-05T07:51:12Z</time>
    </trkpt>
    <trkpt lat="50.9654748" lon="7.0003824">
      <ele>65.8</ele>
      <time>2019-06-05T07:51:13Z</time>
    </trkpt>
    <trkpt lat="50.9655758" lon="7.0004269">
      <ele>66.0</ele>
      <time>2019-06-05T07:51:15Z</time>
    </trkpt>
    <trkpt lat="50.9656220" lon="7.0004570">
      <ele>66.2</ele>
      <time>2019-06-05T07:51:16Z</time>
    </trkpt>
    <trkpt lat="50.9656749" lon="7.0004814">
      <ele>66.4</ele>
      <time>2019-06-05T07:51:17Z</time>
    </trkpt>
    <trkpt lat="50.9660133" lon="7.0005706">
      <ele>69.0</ele>
      <time>2019-06-05T07:51:24Z</time>
    </trkpt>
    <trkpt lat="50.9660718" lon="7.0005709">
      <ele>69.4</ele>
      <time>2019-06-05T07:51:25Z</time>
    </trkpt>
    <trkpt lat="50.9661385" lon="7.0005605">
      <ele>70.0</ele>
      <time>2019-06-05T07:51:26Z</time>
    </trkpt>
    <trkpt lat="50.9662075" lon="7.0005456">
      <ele>70.6</ele>
      <time>2019-06-05T07:51:27Z</time>
    </trkpt>
    <trkpt lat="50.9663535" lon="7.0005630">
      <ele>71.2</ele>
      <time>2019-06-05T07:51:29Z</time>
    </trkpt>
    <trkpt lat="50.9667099" lon="7.0005843">
      <ele>72.4</ele>
      <time>2019-06-05T07:51:35Z</time>
    </trkpt>
    <trkpt lat="50.9668358" lon="7.0006511">
      <ele>72.8</ele>
      <time>2019-06-05T07:51:37Z</time>
    </trkpt>
    <trkpt lat="50.9669319" lon="7.0007657">
      <ele>73.8</ele>
      <time>2019-06-05T07:51:39Z</time>
    </trkpt>
    <trkpt lat="50.9672085" lon="7.0012699">
      <ele>76.4</ele>
      <time>2019-06-05T07:51:45Z</time>
    </trkpt>
    <trkpt lat="50.9672807" lon="7.0014609">
      <ele>77.0</ele>
      <time>2019-06-05T07:51:47Z</time>
    </trkpt>
    <trkpt lat="50.9673118" lon="7.0015701">
      <ele>76.6</ele>
      <time>2019-06-05T07:51:48Z</time>
    </trkpt>
    <trkpt lat="50.9673406" lon="7.0016641">
      <ele>77.2</ele>
      <time>2019-06-05T07:51:49Z</time>
    </trkpt>
    <trkpt lat="50.9674091" lon="7.0019017">
      <ele>76.4</ele>
      <time>2019-06-05T07:51:52Z</time>
    </trkpt>
    <trkpt lat="50.9674596" lon="7.0020558">
      <ele>74.2</ele>
      <time>2019-06-05T07:51:54Z</time>
    </trkpt>
    <trkpt lat="50.9676321" lon="7.0024602">
      <ele>71.2</ele>
      <time>2019-06-05T07:52:00Z</time>
    </trkpt>
    <trkpt lat="50.9676696" lon="7.0025191">
      <ele>71.0</ele>
      <time>2019-06-05T07:52:02Z</time>
    </trkpt>
    <trkpt lat="50.9676841" lon="7.0025415">
      <ele>71.2</ele>
      <time>2019-06-05T07:52:03Z</time>
    </trkpt>
    <trkpt lat="50.9678085" lon="7.0027778">
      <ele>72.4</ele>
      <time>2019-06-05T07:52:10Z</time>
    </trkpt>
    <trkpt lat="50.9678289" lon="7.0027934">
      <ele>72.2</ele>
      <time>2019-06-05T07:52:11Z</time>
    </trkpt>
    <trkpt lat="50.9679275" lon="7.0027881">
      <ele>73.0</ele>
      <time>2019-06-05T07:52:14Z</time>
    </trkpt>
    <trkpt lat="50.9680771" lon="7.0027659">
      <ele>74.2</ele>
      <time>2019-06-05T07:52:18Z</time>
    </trkpt>
    <trkpt lat="50.9681366" lon="7.0027656">
      <ele>74.8</ele>
      <time>2019-06-05T07:52:19Z</time>
    </trkpt>
    <trkpt lat="50.9681876" lon="7.0027587">
      <ele>74.6</ele>
      <time>2019-06-05T07:52:20Z</time>
    </trkpt>
    <trkpt lat="50.9682427" lon="7.0027584">
      <ele>75.0</ele>
      <time>2019-06-05T07:52:21Z</time>
    </trkpt>
    <trkpt lat="50.9682898" lon="7.0027499">
      <ele>75.0</ele>
      <time>2019-06-05T07:52:22Z</time>
    </trkpt>
    <trkpt lat="50.9684849" lon="7.0027426">
      <ele>74.0</ele>
      <time>2019-06-05T07:52:26Z</time>
    </trkpt>
    <trkpt lat="50.9687172" lon="7.0027515">
      <ele>72.6</ele>
      <time>2019-06-05T07:52:30Z</time>
    </trkpt>
    <trkpt lat="50.9688413" lon="7.0027540">
      <ele>72.0</ele>
      <time>2019-06-05T07:52:32Z</time>
    </trkpt>
    <trkpt lat="50.9689032" lon="7.0027504">
      <ele>71.2</ele>
      <time>2019-06-05T07:52:33Z</time>
    </trkpt>
    <trkpt lat="50.9689612" lon="7.0027420">
      <ele>70.2</ele>
      <time>2019-06-05T07:52:34Z</time>
    </trkpt>
    <trkpt lat="50.9690735" lon="7.0027263">
      <ele>69.4</ele>
      <time>2019-06-05T07:52:36Z</time>
    </trkpt>
    <trkpt lat="50.9691853" lon="7.0027185">
      <ele>69.0</ele>
      <time>2019-06-05T07:52:38Z</time>
    </trkpt>
    <trkpt lat="50.9693600" lon="7.0027026">
      <ele>70.2</ele>
      <time>2019-06-05T07:52:41Z</time>
    </trkpt>
    <trkpt lat="50.9694836" lon="7.0026952">
      <ele>71.6</ele>
      <time>2019-06-05T07:52:43Z</time>
    </trkpt>
    <trkpt lat="50.9696115" lon="7.0026887">
      <ele>71.2</ele>
      <time>2019-06-05T07:52:45Z</time>
    </trkpt>
    <trkpt lat="50.9697351" lon="7.0026805">
      <ele>71.0</ele>
      <time>2019-06-05T07:52:47Z</time>
    </trkpt>
    <trkpt lat="50.9697939" lon="7.0026767">
      <ele>71.0</ele>
      <time>2019-06-05T07:52:48Z</time>
    </trkpt>
    <trkpt lat="50.9698543" lon="7.0026743">
      <ele>70.8</ele>
      <time>2019-06-05T07:52:49Z</time>
    </trkpt>
    <trkpt lat="50.9700951" lon="7.0026574">
      <ele>69.0</ele>
      <time>2019-06-05T07:52:53Z</time>
    </trkpt>
    <trkpt lat="50.9703233" lon="7.0026135">
      <ele>70.8</ele>
      <time>2019-06-05T07:52:57Z</time>
    </trkpt>
    <trkpt lat="50.9709062" lon="7.0025850">
      <ele>70.0</ele>
      <time>2019-06-05T07:53:07Z</time>
    </trkpt>
    <trkpt lat="50.9714714" lon="7.0025055">
      <ele>70.0</ele>
      <time>2019-06-05T07:53:17Z</time>
    </trkpt>
    <trkpt lat="50.9716955" lon="7.0025006">
      <ele>70.8</ele>
      <time>2019-06-05T07:53:21Z</time>
    </trkpt>
    <trkpt lat="50.9722406" lon="7.0024320">
      <ele>72.6</ele>
      <time>2019-06-05T07:53:30Z</time>
    </trkpt>
    <trkpt lat="50.9726025" lon="7.0024132">
      <ele>72.4</ele>
      <time>2019-06-05T07:53:36Z</time>
    </trkpt>
    <trkpt lat="50.9727919" lon="7.0023919">
      <ele>71.2</ele>
      <time>2019-06-05T07:53:39Z</time>
    </trkpt>
    <trkpt lat="50.9733416" lon="7.0023876">
      <ele>76.0</ele>
      <time>2019-06-05T07:53:48Z</time>
    </trkpt>
    <trkpt lat="50.9739270" lon="7.0023412">
      <ele>75.6</ele>
      <time>2019-06-05T07:53:58Z</time>
    </trkpt>
    <trkpt lat="50.9745151" lon="7.0022793">
      <ele>69.2</ele>
      <time>2019-06-05T07:54:09Z</time>
    </trkpt>
    <trkpt lat="50.9746223" lon="7.0022733">
      <ele>69.2</ele>
      <time>2019-06-05T07:54:11Z</time>
    </trkpt>
    <trkpt lat="50.9751959" lon="7.0022943">
      <ele>69.0</ele>
      <time>2019-06-05T07:54:22Z</time>
    </trkpt>
    <trkpt lat="50.9757535" lon="7.0023649">
      <ele>58.8</ele>
      <time>2019-06-05T07:54:30Z</time>
    </trkpt>
    <trkpt lat="50.9763080" lon="7.0023262">
      <ele>57.2</ele>
      <time>2019-06-05T07:54:39Z</time>
    </trkpt>
    <trkpt lat="50.9764807" lon="7.0022921">
      <ele>58.6</ele>
      <time>2019-06-05T07:54:42Z</time>
    </trkpt>
    <trkpt lat="50.9770798" lon="7.0022552">
      <ele>57.0</ele>
      <time>2019-06-05T07:54:51Z</time>
    </trkpt>
    <trkpt lat="50.9776679" lon="7.0021811">
      <ele>51.0</ele>
      <time>2019-06-05T07:54:59Z</time>
    </trkpt>
    <trkpt lat="50.9778872" lon="7.0021731">
      <ele>50.6</ele>
      <time>2019-06-05T07:55:02Z</time>
    </trkpt>
    <trkpt lat="50.9784996" lon="7.0021453">
      <ele>48.2</ele>
      <time>2019-06-05T07:55:10Z</time>
    </trkpt>
    <trkpt lat="50.9790501" lon="7.0021265">
      <ele>47.2</ele>
      <time>2019-06-05T07:55:18Z</time>
    </trkpt>
    <trkpt lat="50.9794592" lon="7.0021411">
      <ele>47.4</ele>
      <time>2019-06-05T07:55:26Z</time>
    </trkpt>
    <trkpt lat="50.9794983" lon="7.0021434">
      <ele>47.2</ele>
      <time>2019-06-05T07:55:27Z</time>
    </trkpt>
    <trkpt lat="50.9796800" lon="7.0020783">
      <ele>46.8</ele>
      <time>2019-06-05T07:55:31Z</time>
    </trkpt>
    <trkpt lat="50.9802540" lon="7.0019267">
      <ele>48.2</ele>
      <time>2019-06-05T07:55:41Z</time>
    </trkpt>
    <trkpt lat="50.9804246" lon="7.0018442">
      <ele>48.6</ele>
      <time>2019-06-05T07:55:44Z</time>
    </trkpt>
    <trkpt lat="50.9807520" lon="7.0016688">
      <ele>48.4</ele>
      <time>2019-06-05T07:55:50Z</time>
    </trkpt>
    <trkpt lat="50.9809726" lon="7.0015368">
      <ele>47.8</ele>
      <time>2019-06-05T07:55:54Z</time>
    </trkpt>
    <trkpt lat="50.9810912" lon="7.0014669">
      <ele>47.4</ele>
      <time>2019-06-05T07:55:56Z</time>
    </trkpt>
    <trkpt lat="50.9811541" lon="7.0014283">
      <ele>47.0</ele>
      <time>2019-06-05T07:55:57Z</time>
    </trkpt>
    <trkpt lat="50.9813554" lon="7.0013089">
      <ele>46.0</ele>
      <time>2019-06-05T07:56:00Z</time>
    </trkpt>
    <trkpt lat="50.9818724" lon="7.0009612">
      <ele>44.2</ele>
      <time>2019-06-05T07:56:08Z</time>
    </trkpt>
    <trkpt lat="50.9822699" lon="7.0006926">
      <ele>43.4</ele>
      <time>2019-06-05T07:56:14Z</time>
    </trkpt>
    <trkpt lat="50.9826441" lon="7.0004055">
      <ele>43.4</ele>
      <time>2019-06-05T07:56:20Z</time>
    </trkpt>
    <trkpt lat="50.9831601" lon="7.0000760">
      <ele>45.4</ele>
      <time>2019-06-05T07:56:28Z</time>
    </trkpt>
    <trkpt lat="50.9836773" lon="6.9998149">
      <ele>50.8</ele>
      <time>2019-06-05T07:56:36Z</time>
    </trkpt>
    <trkpt lat="50.9842770" lon="6.9996542">
      <ele>50.6</ele>
      <time>2019-06-05T07:56:44Z</time>
    </trkpt>
    <trkpt lat="50.9848276" lon="6.9995253">
      <ele>53.0</ele>
      <time>2019-06-05T07:56:52Z</time>
    </trkpt>
    <trkpt lat="50.9854106" lon="6.9993560">
      <ele>54.2</ele>
      <time>2019-06-05T07:57:02Z</time>
    </trkpt>
    <trkpt lat="50.9854623" lon="6.9993389">
      <ele>54.8</ele>
      <time>2019-06-05T07:57:03Z</time>
    </trkpt>
    <trkpt lat="50.9856089" lon="6.9993087">
      <ele>57.6</ele>
      <time>2019-06-05T07:57:06Z</time>
    </trkpt>
    <trkpt lat="50.9857587" lon="6.9993124">
      <ele>57.0</ele>
      <time>2019-06-05T07:57:09Z</time>
    </trkpt>
    <trkpt lat="50.9862650" lon="6.9992438">
      <ele>53.2</ele>
      <time>2019-06-05T07:57:21Z</time>
    </trkpt>
    <trkpt lat="50.9863643" lon="6.9992416">
      <ele>52.0</ele>
      <time>2019-06-05T07:57:23Z</time>
    </trkpt>
    <trkpt lat="50.9869155" lon="6.9992914">
      <ele>49.2</ele>
      <time>2019-06-05T07:57:32Z</time>
    </trkpt>
    <trkpt lat="50.9874695" lon="6.9993624">
      <ele>47.4</ele>
      <time>2019-06-05T07:57:41Z</time>
    </trkpt>
    <trkpt lat="50.9880460" lon="6.9993761">
      <ele>46.2</ele>
      <time>2019-06-05T07:57:50Z</time>
    </trkpt>
    <trkpt lat="50.9881579" lon="6.9993859">
      <ele>46.0</ele>
      <time>2019-06-05T07:57:52Z</time>
    </trkpt>
    <trkpt lat="50.9884683" lon="6.9993785">
      <ele>46.6</ele>
      <time>2019-06-05T07:57:58Z</time>
    </trkpt>
    <trkpt lat="50.9885804" lon="6.9993692">
      <ele>47.0</ele>
      <time>2019-06-05T07:58:00Z</time>
    </trkpt>
    <trkpt lat="50.9886381" lon="6.9993639">
      <ele>46.8</ele>
      <time>2019-06-05T07:58:01Z</time>
    </trkpt>
    <trkpt lat="50.9887683" lon="6.9993400">
      <ele>46.4</ele>
      <time>2019-06-05T07:58:03Z</time>
    </trkpt>
    <trkpt lat="50.9890255" lon="6.9992752">
      <ele>46.4</ele>
      <time>2019-06-05T07:58:07Z</time>
    </trkpt>
    <trkpt lat="50.9893881" lon="6.9992285">
      <ele>52.2</ele>
      <time>2019-06-05T07:58:25Z</time>
    </trkpt>
    <trkpt lat="50.9893854" lon="6.9992206">
      <ele>53.6</ele>
      <time>2019-06-05T07:58:31Z</time>
    </trkpt>
    <trkpt lat="50.9891985" lon="6.9992274">
      <ele>41.8</ele>
      <time>2019-06-05T08:22:58Z</time>
    </trkpt>
    <trkpt lat="50.9891412" lon="6.9992315">
      <ele>42.0</ele>
      <time>2019-06-05T08:22:59Z</time>
    </trkpt>
    <trkpt lat="50.9885528" lon="6.9993262">
      <ele>43.8</ele>
      <time>2019-06-05T08:23:07Z</time>
    </trkpt>
    <trkpt lat="50.9880879" lon="6.9993651">
      <ele>44.2</ele>
      <time>2019-06-05T08:23:12Z</time>
    </trkpt>
    <trkpt lat="50.9879870" lon="6.9993481">
      <ele>44.4</ele>
      <time>2019-06-05T08:23:13Z</time>
    </trkpt>
    <trkpt lat="50.9878844" lon="6.9993372">
      <ele>44.6</ele>
      <time>2019-06-05T08:23:14Z</time>
    </trkpt>
    <trkpt lat="50.9877827" lon="6.9993255">
      <ele>45.0</ele>
      <time>2019-06-05T08:23:15Z</time>
    </trkpt>
    <trkpt lat="50.9876813" lon="6.9993179">
      <ele>45.2</ele>
      <time>2019-06-05T08:23:16Z</time>
    </trkpt>
    <trkpt lat="50.9875782" lon="6.9993165">
      <ele>45.2</ele>
      <time>2019-06-05T08:23:17Z</time>
    </trkpt>
    <trkpt lat="50.9871768" lon="6.9993036">
      <ele>45.8</ele>
      <time>2019-06-05T08:23:21Z</time>
    </trkpt>
    <trkpt lat="50.9868917" lon="6.9992488">
      <ele>46.0</ele>
      <time>2019-06-05T08:23:24Z</time>
    </trkpt>
    <trkpt lat="50.9867981" lon="6.9992427">
      <ele>46.2</ele>
      <time>2019-06-05T08:23:25Z</time>
    </trkpt>
    <trkpt lat="50.9867037" lon="6.9992446">
      <ele>46.2</ele>
      <time>2019-06-05T08:23:26Z</time>
    </trkpt>
    <trkpt lat="50.9865219" lon="6.9992645">
      <ele>46.6</ele>
      <time>2019-06-05T08:23:28Z</time>
    </trkpt>
    <trkpt lat="50.9862762" lon="6.9992788">
      <ele>46.8</ele>
      <time>2019-06-05T08:23:31Z</time>
    </trkpt>
    <trkpt lat="50.9858407" lon="6.9993111">
      <ele>46.6</ele>
      <time>2019-06-05T08:23:37Z</time>
    </trkpt>
    <trkpt lat="50.9852667" lon="6.9993971">
      <ele>46.0</ele>
      <time>2019-06-05T08:23:44Z</time>
    </trkpt>
    <trkpt lat="50.9849130" lon="6.9994974">
      <ele>46.4</ele>
      <time>2019-06-05T08:23:48Z</time>
    </trkpt>
    <trkpt lat="50.9847420" lon="6.9995411">
      <ele>46.8</ele>
      <time>2019-06-05T08:23:50Z</time>
    </trkpt>
    <trkpt lat="50.9846572" lon="6.9995615">
      <ele>47.0</ele>
      <time>2019-06-05T08:23:51Z</time>
    </trkpt>
    <trkpt lat="50.9845734" lon="6.9995841">
      <ele>47.0</ele>
      <time>2019-06-05T08:23:52Z</time>
    </trkpt>
    <trkpt lat="50.9844895" lon="6.9996073">
      <ele>47.0</ele>
      <time>2019-06-05T08:23:53Z</time>
    </trkpt>
    <trkpt lat="50.9839656" lon="6.9997998">
      <ele>46.4</ele>
      <time>2019-06-05T08:23:59Z</time>
    </trkpt>
    <trkpt lat="50.9838800" lon="6.9998298">
      <ele>46.6</ele>
      <time>2019-06-05T08:24:00Z</time>
    </trkpt>
    <trkpt lat="50.9837951" lon="6.9998624">
      <ele>46.6</ele>
      <time>2019-06-05T08:24:01Z</time>
    </trkpt>
    <trkpt lat="50.9837104" lon="6.9998983">
      <ele>46.6</ele>
      <time>2019-06-05T08:24:02Z</time>
    </trkpt>
    <trkpt lat="50.9836266" lon="6.9999349">
      <ele>46.6</ele>
      <time>2019-06-05T08:24:03Z</time>
    </trkpt>
    <trkpt lat="50.9835410" lon="6.9999742">
      <ele>46.8</ele>
      <time>2019-06-05T08:24:04Z</time>
    </trkpt>
    <trkpt lat="50.9834556" lon="7.0000142">
      <ele>46.8</ele>
      <time>2019-06-05T08:24:05Z</time>
    </trkpt>
    <trkpt lat="50.9832036" lon="7.0001379">
      <ele>46.4</ele>
      <time>2019-06-05T08:24:08Z</time>
    </trkpt>
    <trkpt lat="50.9829539" lon="7.0002883">
      <ele>46.0</ele>
      <time>2019-06-05T08:24:11Z</time>
    </trkpt>
    <trkpt lat="50.9828712" lon="7.0003362">
      <ele>46.0</ele>
      <time>2019-06-05T08:24:12Z</time>
    </trkpt>
    <trkpt lat="50.9826251" lon="7.0004815">
      <ele>46.0</ele>
      <time>2019-06-05T08:24:15Z</time>
    </trkpt>
    <trkpt lat="50.9825426" lon="7.0005303">
      <ele>46.0</ele>
      <time>2019-06-05T08:24:16Z</time>
    </trkpt>
    <trkpt lat="50.9824610" lon="7.0005805">
      <ele>46.0</ele>
      <time>2019-06-05T08:24:17Z</time>
    </trkpt>
    <trkpt lat="50.9822148" lon="7.0007334">
      <ele>45.6</ele>
      <time>2019-06-05T08:24:20Z</time>
    </trkpt>
    <trkpt lat="50.9818146" lon="7.0010047">
      <ele>45.8</ele>
      <time>2019-06-05T08:24:25Z</time>
    </trkpt>
    <trkpt lat="50.9813076" lon="7.0013457">
      <ele>45.2</ele>
      <time>2019-06-05T08:24:31Z</time>
    </trkpt>
    <trkpt lat="50.9810553" lon="7.0014890">
      <ele>45.2</ele>
      <time>2019-06-05T08:24:34Z</time>
    </trkpt>
    <trkpt lat="50.9808871" lon="7.0015711">
      <ele>45.4</ele>
      <time>2019-06-05T08:24:36Z</time>
    </trkpt>
    <trkpt lat="50.9805702" lon="7.0017562">
      <ele>45.6</ele>
      <time>2019-06-05T08:24:40Z</time>
    </trkpt>
    <trkpt lat="50.9802534" lon="7.0019170">
      <ele>45.6</ele>
      <time>2019-06-05T08:24:44Z</time>
    </trkpt>
    <trkpt lat="50.9800155" lon="7.0020335">
      <ele>45.4</ele>
      <time>2019-06-05T08:24:47Z</time>
    </trkpt>
    <trkpt lat="50.9799311" lon="7.0020546">
      <ele>45.2</ele>
      <time>2019-06-05T08:24:48Z</time>
    </trkpt>
    <trkpt lat="50.9793722" lon="7.0020714">
      <ele>44.6</ele>
      <time>2019-06-05T08:24:56Z</time>
    </trkpt>
    <trkpt lat="50.9788333" lon="7.0020987">
      <ele>43.8</ele>
      <time>2019-06-05T08:25:03Z</time>
    </trkpt>
    <trkpt lat="50.9782567" lon="7.0021669">
      <ele>44.0</ele>
      <time>2019-06-05T08:25:10Z</time>
    </trkpt>
    <trkpt lat="50.9780206" lon="7.0021777">
      <ele>43.8</ele>
      <time>2019-06-05T08:25:13Z</time>
    </trkpt>
    <trkpt lat="50.9774787" lon="7.0022379">
      <ele>43.6</ele>
      <time>2019-06-05T08:25:20Z</time>
    </trkpt>
    <trkpt lat="50.9773341" lon="7.0022551">
      <ele>43.6</ele>
      <time>2019-06-05T08:25:22Z</time>
    </trkpt>
    <trkpt lat="50.9772613" lon="7.0022605">
      <ele>43.6</ele>
      <time>2019-06-05T08:25:23Z</time>
    </trkpt>
    <trkpt lat="50.9771090" lon="7.0022727">
      <ele>44.0</ele>
      <time>2019-06-05T08:25:25Z</time>
    </trkpt>
    <trkpt lat="50.9770363" lon="7.0022839">
      <ele>44.0</ele>
      <time>2019-06-05T08:25:26Z</time>
    </trkpt>
    <trkpt lat="50.9769596" lon="7.0022927">
      <ele>44.2</ele>
      <time>2019-06-05T08:25:27Z</time>
    </trkpt>
    <trkpt lat="50.9764010" lon="7.0023191">
      <ele>44.8</ele>
      <time>2019-06-05T08:25:35Z</time>
    </trkpt>
    <trkpt lat="50.9763344" lon="7.0023282">
      <ele>45.0</ele>
      <time>2019-06-05T08:25:36Z</time>
    </trkpt>
    <trkpt lat="50.9758369" lon="7.0023324">
      <ele>46.0</ele>
      <time>2019-06-05T08:25:43Z</time>
    </trkpt>
    <trkpt lat="50.9754626" lon="7.0023739">
      <ele>46.8</ele>
      <time>2019-06-05T08:25:49Z</time>
    </trkpt>
    <trkpt lat="50.9753996" lon="7.0023929">
      <ele>47.2</ele>
      <time>2019-06-05T08:25:50Z</time>
    </trkpt>
    <trkpt lat="50.9753345" lon="7.0023974">
      <ele>47.2</ele>
      <time>2019-06-05T08:25:51Z</time>
    </trkpt>
    <trkpt lat="50.9752045" lon="7.0024247">
      <ele>47.6</ele>
      <time>2019-06-05T08:25:53Z</time>
    </trkpt>
    <trkpt lat="50.9746517" lon="7.0024941">
      <ele>49.0</ele>
      <time>2019-06-05T08:26:03Z</time>
    </trkpt>
    <trkpt lat="50.9745909" lon="7.0024764">
      <ele>49.6</ele>
      <time>2019-06-05T08:26:08Z</time>
    </trkpt>
    <trkpt lat="50.9746477" lon="7.0024476">
      <ele>49.6</ele>
      <time>2019-06-05T08:26:11Z</time>
    </trkpt>
    <trkpt lat="50.9747069" lon="7.0023940">
      <ele>49.8</ele>
      <time>2019-06-05T08:26:14Z</time>
    </trkpt>
    <trkpt lat="50.9747440" lon="7.0022766">
      <ele>50.0</ele>
      <time>2019-06-05T08:26:17Z</time>
    </trkpt>
    <trkpt lat="50.9747452" lon="7.0020506">
      <ele>50.4</ele>
      <time>2019-06-05T08:26:21Z</time>
    </trkpt>
    <trkpt lat="50.9747423" lon="7.0013103">
      <ele>55.2</ele>
      <time>2019-06-05T08:26:36Z</time>
    </trkpt>
    <trkpt lat="50.9747471" lon="7.0012320">
      <ele>55.2</ele>
      <time>2019-06-05T08:26:49Z</time>
    </trkpt>
    <trkpt lat="50.9747315" lon="7.0012450">
      <ele>55.0</ele>
      <time>2019-06-05T08:26:56Z</time>
    </trkpt>
    <trkpt lat="50.9747589" lon="7.0011130">
      <ele>55.0</ele>
      <time>2019-06-05T08:27:02Z</time>
    </trkpt>
    <trkpt lat="50.9745356" lon="7.0011982">
      <ele>54.8</ele>
      <time>2019-06-05T08:27:09Z</time>
    </trkpt>
    <trkpt lat="50.9743871" lon="7.0012934">
      <ele>54.2</ele>
      <time>2019-06-05T08:27:12Z</time>
    </trkpt>
    <trkpt lat="50.9738660" lon="7.0015277">
      <ele>52.2</ele>
      <time>2019-06-05T08:27:22Z</time>
    </trkpt>
    <trkpt lat="50.9737731" lon="7.0015574">
      <ele>51.8</ele>
      <time>2019-06-05T08:27:24Z</time>
    </trkpt>
    <trkpt lat="50.9737220" lon="7.0015766">
      <ele>51.6</ele>
      <time>2019-06-05T08:27:25Z</time>
    </trkpt>
    <trkpt lat="50.9736706" lon="7.0015868">
      <ele>51.6</ele>
      <time>2019-06-05T08:27:26Z</time>
    </trkpt>
    <trkpt lat="50.9731102" lon="7.0016724">
      <ele>49.8</ele>
      <time>2019-06-05T08:27:36Z</time>
    </trkpt>
    <trkpt lat="50.9727613" lon="7.0017382">
      <ele>49.0</ele>
      <time>2019-06-05T08:27:42Z</time>
    </trkpt>
    <trkpt lat="50.9721978" lon="7.0017631">
      <ele>48.2</ele>
      <time>2019-06-05T08:27:51Z</time>
    </trkpt>
    <trkpt lat="50.9717621" lon="7.0017894">
      <ele>48.2</ele>
      <time>2019-06-05T08:27:58Z</time>
    </trkpt>
    <trkpt lat="50.9711894" lon="7.0017574">
      <ele>48.0</ele>
      <time>2019-06-05T08:28:08Z</time>
    </trkpt>
    <trkpt lat="50.9706266" lon="7.0016697">
      <ele>46.8</ele>
      <time>2019-06-05T08:28:17Z</time>
    </trkpt>
    <trkpt lat="50.9701504" lon="7.0015451">
      <ele>45.6</ele>
      <time>2019-06-05T08:28:25Z</time>
    </trkpt>
    <trkpt lat="50.9699188" lon="7.0014916">
      <ele>44.8</ele>
      <time>2019-06-05T08:28:29Z</time>
    </trkpt>
    <trkpt lat="50.9698508" lon="7.0014665">
      <ele>45.0</ele>
      <time>2019-06-05T08:28:30Z</time>
    </trkpt>
    <trkpt lat="50.9692764" lon="7.0013140">
      <ele>42.8</ele>
      <time>2019-06-05T08:28:39Z</time>
    </trkpt>
    <trkpt lat="50.9687607" lon="7.0010399">
      <ele>43.0</ele>
      <time>2019-06-05T08:28:48Z</time>
    </trkpt>
    <trkpt lat="50.9685453" lon="7.0009412">
      <ele>42.8</ele>
      <time>2019-06-05T08:28:52Z</time>
    </trkpt>
    <trkpt lat="50.9680547" lon="7.0007690">
      <ele>41.8</ele>
      <time>2019-06-05T08:29:01Z</time>
    </trkpt>
    <trkpt lat="50.9679560" lon="7.0006506">
      <ele>42.2</ele>
      <time>2019-06-05T08:29:06Z</time>
    </trkpt>
    <trkpt lat="50.9679012" lon="7.0006098">
      <ele>42.8</ele>
      <time>2019-06-05T08:29:16Z</time>
    </trkpt>
    <trkpt lat="50.9678498" lon="7.0004670">
      <ele>42.4</ele>
      <time>2019-06-05T08:29:31Z</time>
    </trkpt>
    <trkpt lat="50.9678520" lon="7.0004457">
      <ele>42.2</ele>
      <time>2019-06-05T08:29:32Z</time>
    </trkpt>
    <trkpt lat="50.9678778" lon="7.0001245">
      <ele>41.4</ele>
      <time>2019-06-05T08:29:52Z</time>
    </trkpt>
    <trkpt lat="50.9678674" lon="7.0001013">
      <ele>41.4</ele>
      <time>2019-06-05T08:29:53Z</time>
    </trkpt>
    <trkpt lat="50.9678051" lon="7.0000335">
      <ele>41.4</ele>
      <time>2019-06-05T08:29:56Z</time>
    </trkpt>
    <trkpt lat="50.9675312" lon="6.9998945">
      <ele>41.4</ele>
      <time>2019-06-05T08:30:02Z</time>
    </trkpt>
    <trkpt lat="50.9673215" lon="6.9997848">
      <ele>41.2</ele>
      <time>2019-06-05T08:30:06Z</time>
    </trkpt>
    <trkpt lat="50.9671631" lon="6.9997081">
      <ele>41.4</ele>
      <time>2019-06-05T08:30:09Z</time>
    </trkpt>
    <trkpt lat="50.9670511" lon="6.9996388">
      <ele>41.4</ele>
      <time>2019-06-05T08:30:11Z</time>
    </trkpt>
    <trkpt lat="50.9669950" lon="6.9996009">
      <ele>41.2</ele>
      <time>2019-06-05T08:30:12Z</time>
    </trkpt>
    <trkpt lat="50.9664633" lon="6.9993394">
      <ele>41.6</ele>
      <time>2019-06-05T08:30:21Z</time>
    </trkpt>
    <trkpt lat="50.9659177" lon="6.9990489">
      <ele>41.2</ele>
      <time>2019-06-05T08:30:31Z</time>
    </trkpt>
    <trkpt lat="50.9657668" lon="6.9989363">
      <ele>41.4</ele>
      <time>2019-06-05T08:30:34Z</time>
    </trkpt>
    <trkpt lat="50.9652251" lon="6.9985651">
      <ele>41.8</ele>
      <time>2019-06-05T08:30:44Z</time>
    </trkpt>
    <trkpt lat="50.9647264" lon="6.9982355">
      <ele>41.4</ele>
      <time>2019-06-05T08:30:53Z</time>
    </trkpt>
    <trkpt lat="50.9644410" lon="6.9980461">
      <ele>41.4</ele>
      <time>2019-06-05T08:30:58Z</time>
    </trkpt>
    <trkpt lat="50.9643835" lon="6.9980043">
      <ele>41.6</ele>
      <time>2019-06-05T08:30:59Z</time>
    </trkpt>
    <trkpt lat="50.9643264" lon="6.9979528">
      <ele>41.6</ele>
      <time>2019-06-05T08:31:00Z</time>
    </trkpt>
    <trkpt lat="50.9642671" lon="6.9979052">
      <ele>41.6</ele>
      <time>2019-06-05T08:31:01Z</time>
    </trkpt>
    <trkpt lat="50.9637523" lon="6.9975467">
      <ele>41.4</ele>
      <time>2019-06-05T08:31:09Z</time>
    </trkpt>
    <trkpt lat="50.9636167" lon="6.9974529">
      <ele>41.2</ele>
      <time>2019-06-05T08:31:11Z</time>
    </trkpt>
    <trkpt lat="50.9634843" lon="6.9973713">
      <ele>41.0</ele>
      <time>2019-06-05T08:31:13Z</time>
    </trkpt>
    <trkpt lat="50.9631023" lon="6.9970987">
      <ele>41.2</ele>
      <time>2019-06-05T08:31:19Z</time>
    </trkpt>
    <trkpt lat="50.9630374" lon="6.9970539">
      <ele>41.2</ele>
      <time>2019-06-05T08:31:20Z</time>
    </trkpt>
    <trkpt lat="50.9628293" lon="6.9969647">
      <ele>41.0</ele>
      <time>2019-06-05T08:31:23Z</time>
    </trkpt>
    <trkpt lat="50.9626266" lon="6.9969505">
      <ele>41.2</ele>
      <time>2019-06-05T08:31:26Z</time>
    </trkpt>
    <trkpt lat="50.9624689" lon="6.9967603">
      <ele>41.2</ele>
      <time>2019-06-05T08:31:29Z</time>
    </trkpt>
    <trkpt lat="50.9619475" lon="6.9963788">
      <ele>41.4</ele>
      <time>2019-06-05T08:31:37Z</time>
    </trkpt>
    <trkpt lat="50.9615610" lon="6.9960944">
      <ele>41.2</ele>
      <time>2019-06-05T08:31:43Z</time>
    </trkpt>
    <trkpt lat="50.9614991" lon="6.9960427">
      <ele>41.4</ele>
      <time>2019-06-05T08:31:44Z</time>
    </trkpt>
    <trkpt lat="50.9614389" lon="6.9959887">
      <ele>41.4</ele>
      <time>2019-06-05T08:31:45Z</time>
    </trkpt>
    <trkpt lat="50.9612556" lon="6.9958226">
      <ele>41.2</ele>
      <time>2019-06-05T08:31:48Z</time>
    </trkpt>
    <trkpt lat="50.9611355" lon="6.9957201">
      <ele>41.2</ele>
      <time>2019-06-05T08:31:50Z</time>
    </trkpt>
    <trkpt lat="50.9610777" lon="6.9956639">
      <ele>41.2</ele>
      <time>2019-06-05T08:31:51Z</time>
    </trkpt>
    <trkpt lat="50.9609593" lon="6.9955575">
      <ele>41.4</ele>
      <time>2019-06-05T08:31:53Z</time>
    </trkpt>
    <trkpt lat="50.9604403" lon="6.9950741">
      <ele>41.6</ele>
      <time>2019-06-05T08:32:02Z</time>
    </trkpt>
    <trkpt lat="50.9599989" lon="6.9945472">
      <ele>41.6</ele>
      <time>2019-06-05T08:32:10Z</time>
    </trkpt>
    <trkpt lat="50.9597388" lon="6.9942008">
      <ele>41.8</ele>
      <time>2019-06-05T08:32:15Z</time>
    </trkpt>
    <trkpt lat="50.9596311" lon="6.9940618">
      <ele>41.6</ele>
      <time>2019-06-05T08:32:17Z</time>
    </trkpt>
    <trkpt lat="50.9595757" lon="6.9939933">
      <ele>41.6</ele>
      <time>2019-06-05T08:32:18Z</time>
    </trkpt>
    <trkpt lat="50.9595169" lon="6.9939386">
      <ele>41.4</ele>
      <time>2019-06-05T08:32:19Z</time>
    </trkpt>
    <trkpt lat="50.9593871" lon="6.9938421">
      <ele>41.4</ele>
      <time>2019-06-05T08:32:21Z</time>
    </trkpt>
    <trkpt lat="50.9589602" lon="6.9933136">
      <ele>41.0</ele>
      <time>2019-06-05T08:32:28Z</time>
    </trkpt>
    <trkpt lat="50.9586059" lon="6.9928671">
      <ele>40.6</ele>
      <time>2019-06-05T08:32:34Z</time>
    </trkpt>
    <trkpt lat="50.9582822" lon="6.9924470">
      <ele>40.6</ele>
      <time>2019-06-05T08:32:40Z</time>
    </trkpt>
    <trkpt lat="50.9580738" lon="6.9921872">
      <ele>40.6</ele>
      <time>2019-06-05T08:32:44Z</time>
    </trkpt>
    <trkpt lat="50.9578170" lon="6.9918593">
      <ele>40.4</ele>
      <time>2019-06-05T08:32:49Z</time>
    </trkpt>
    <trkpt lat="50.9574036" lon="6.9913552">
      <ele>40.2</ele>
      <time>2019-06-05T08:32:57Z</time>
    </trkpt>
    <trkpt lat="50.9570965" lon="6.9909520">
      <ele>40.2</ele>
      <time>2019-06-05T08:33:04Z</time>
    </trkpt>
    <trkpt lat="50.9568813" lon="6.9906849">
      <ele>40.4</ele>
      <time>2019-06-05T08:33:09Z</time>
    </trkpt>
    <trkpt lat="50.9567487" lon="6.9905280">
      <ele>40.4</ele>
      <time>2019-06-05T08:33:12Z</time>
    </trkpt>
    <trkpt lat="50.9565033" lon="6.9903440">
      <ele>40.6</ele>
      <time>2019-06-05T08:33:17Z</time>
    </trkpt>
    <trkpt lat="50.9559889" lon="6.9899752">
      <ele>40.8</ele>
      <time>2019-06-05T08:33:28Z</time>
    </trkpt>
    <trkpt lat="50.9554742" lon="6.9895411">
      <ele>41.2</ele>
      <time>2019-06-05T08:33:39Z</time>
    </trkpt>
    <trkpt lat="50.9553821" lon="6.9894461">
      <ele>41.2</ele>
      <time>2019-06-05T08:33:41Z</time>
    </trkpt>
    <trkpt lat="50.9549183" lon="6.9889727">
      <ele>42.0</ele>
      <time>2019-06-05T08:33:51Z</time>
    </trkpt>
    <trkpt lat="50.9548742" lon="6.9889153">
      <ele>42.0</ele>
      <time>2019-06-05T08:33:52Z</time>
    </trkpt>
    <trkpt lat="50.9548130" lon="6.9887696">
      <ele>42.2</ele>
      <time>2019-06-05T08:33:54Z</time>
    </trkpt>
    <trkpt lat="50.9546520" lon="6.9881943">
      <ele>42.2</ele>
      <time>2019-06-05T08:34:01Z</time>
    </trkpt>
    <trkpt lat="50.9542098" lon="6.9876989">
      <ele>43.6</ele>
      <time>2019-06-05T08:34:11Z</time>
    </trkpt>
    <trkpt lat="50.9541678" lon="6.9876530">
      <ele>43.6</ele>
      <time>2019-06-05T08:34:12Z</time>
    </trkpt>
    <trkpt lat="50.9540789" lon="6.9875494">
      <ele>44.0</ele>
      <time>2019-06-05T08:34:14Z</time>
    </trkpt>
    <trkpt lat="50.9536696" lon="6.9870778">
      <ele>45.2</ele>
      <time>2019-06-05T08:34:23Z</time>
    </trkpt>
    <trkpt lat="50.9534923" lon="6.9868645">
      <ele>45.6</ele>
      <time>2019-06-05T08:34:27Z</time>
    </trkpt>
    <trkpt lat="50.9533697" lon="6.9867049">
      <ele>45.6</ele>
      <time>2019-06-05T08:34:30Z</time>
    </trkpt>
    <trkpt lat="50.9533324" lon="6.9866497">
      <ele>45.6</ele>
      <time>2019-06-05T08:34:31Z</time>
    </trkpt>
    <trkpt lat="50.9532973" lon="6.9866003">
      <ele>45.4</ele>
      <time>2019-06-05T08:34:32Z</time>
    </trkpt>
    <trkpt lat="50.9532347" lon="6.9865128">
      <ele>45.6</ele>
      <time>2019-06-05T08:34:34Z</time>
    </trkpt>
    <trkpt lat="50.9531798" lon="6.9864347">
      <ele>45.6</ele>
      <time>2019-06-05T08:34:36Z</time>
    </trkpt>
    <trkpt lat="50.9531360" lon="6.9863703">
      <ele>45.4</ele>
      <time>2019-06-05T08:34:38Z</time>
    </trkpt>
    <trkpt lat="50.9531202" lon="6.9863441">
      <ele>45.6</ele>
      <time>2019-06-05T08:34:39Z</time>
    </trkpt>
    <trkpt lat="50.9531046" lon="6.9863243">
      <ele>45.4</ele>
      <time>2019-06-05T08:34:40Z</time>
    </trkpt>
    <trkpt lat="50.9530844" lon="6.9863190">
      <ele>45.6</ele>
      <time>2019-06-05T08:34:41Z</time>
    </trkpt>
    <trkpt lat="50.9530548" lon="6.9863274">
      <ele>45.6</ele>
      <time>2019-06-05T08:34:43Z</time>
    </trkpt>
    <trkpt lat="50.9530576" lon="6.9863471">
      <ele>45.6</ele>
      <time>2019-06-05T08:34:45Z</time>
    </trkpt>
    <trkpt lat="50.9530648" lon="6.9864004">
      <ele>45.8</ele>
      <time>2019-06-05T08:34:48Z</time>
    </trkpt>
    <trkpt lat="50.9530470" lon="6.9865053">
      <ele>46.2</ele>
      <time>2019-06-05T08:34:52Z</time>
    </trkpt>
    <trkpt lat="50.9530332" lon="6.9865447">
      <ele>46.2</ele>
      <time>2019-06-05T08:34:53Z</time>
    </trkpt>
    <trkpt lat="50.9529367" lon="6.9867731">
      <ele>47.2</ele>
      <time>2019-06-05T08:34:58Z</time>
    </trkpt>
    <trkpt lat="50.9529023" lon="6.9868772">
      <ele>47.4</ele>
      <time>2019-06-05T08:35:00Z</time>
    </trkpt>
    <trkpt lat="50.9528005" lon="6.9872010">
      <ele>47.4</ele>
      <time>2019-06-05T08:35:05Z</time>
    </trkpt>
    <trkpt lat="50.9525680" lon="6.9879784">
      <ele>47.0</ele>
      <time>2019-06-05T08:35:16Z</time>
    </trkpt>
    <trkpt lat="50.9525893" lon="6.9881298">
      <ele>46.8</ele>
      <time>2019-06-05T08:35:18Z</time>
    </trkpt>
    <trkpt lat="50.9527585" lon="6.9883592">
      <ele>46.6</ele>
      <time>2019-06-05T08:35:24Z</time>
    </trkpt>
    <trkpt lat="50.9527673" lon="6.9885036">
      <ele>46.8</ele>
      <time>2019-06-05T08:35:26Z</time>
    </trkpt>
    <trkpt lat="50.9527393" lon="6.9886691">
      <ele>46.8</ele>
      <time>2019-06-05T08:35:28Z</time>
    </trkpt>
    <trkpt lat="50.9524991" lon="6.9893434">
      <ele>47.4</ele>
      <time>2019-06-05T08:35:38Z</time>
    </trkpt>
    <trkpt lat="50.9524289" lon="6.9895485">
      <ele>47.4</ele>
      <time>2019-06-05T08:35:42Z</time>
    </trkpt>
  </trkseg></trk>
</gpx>
