<?xml version="1.0" encoding="UTF-8"?>
<gpx version="1.1" creator="Diary FIT converter" xmlns="http://www.topografix.com/GPX/1/1">
  <trk><name>Running</name><trkseg>
    <trkpt lat="50.9633888" lon="6.8758079">
      <time>2021-01-23T07:01:42Z</time>
    </trkpt>
    <trkpt lat="50.9633857" lon="6.8758082">
      <time>2021-01-23T07:01:43Z</time>
    </trkpt>
    <trkpt lat="50.9632163" lon="6.8760027">
      <time>2021-01-23T07:01:51Z</time>
    </trkpt>
    <trkpt lat="50.9631932" lon="6.8760148">
      <time>2021-01-23T07:01:52Z</time>
    </trkpt>
    <trkpt lat="50.9631613" lon="6.8760475">
      <time>2021-01-23T07:01:55Z</time>
    </trkpt>
    <trkpt lat="50.9631597" lon="6.8760762">
      <time>2021-01-23T07:01:56Z</time>
    </trkpt>
    <trkpt lat="50.9631575" lon="6.8761656">
      <time>2021-01-23T07:01:58Z</time>
    </trkpt>
    <trkpt lat="50.9631474" lon="6.8762099">
      <time>2021-01-23T07:01:59Z</time>
    </trkpt>
    <trkpt lat="50.9631258" lon="6.8763107">
      <time>2021-01-23T07:02:01Z</time>
    </trkpt>
    <trkpt lat="50.9630957" lon="6.8763897">
      <time>2021-01-23T07:02:03Z</time>
    </trkpt>
    <trkpt lat="50.9630747" lon="6.8764799">
      <time>2021-01-23T07:02:05Z</time>
    </trkpt>
    <trkpt lat="50.9630520" lon="6.8765180">
      <time>2021-01-23T07:02:06Z</time>
    </trkpt>
    <trkpt lat="50.9629859" lon="6.8765590">
      <time>2021-01-23T07:02:08Z</time>
    </trkpt>
    <trkpt lat="50.9628621" lon="6.8765082">
      <time>2021-01-23T07:02:12Z</time>
    </trkpt>
    <trkpt lat="50.9627909" lon="6.8764439">
      <time>2021-01-23T07:02:15Z</time>
    </trkpt>
    <trkpt lat="50.9626816" lon="6.8764059">
      <time>2021-01-23T07:02:19Z</time>
    </trkpt>
    <trkpt lat="50.9624917" lon="6.8763733">
      <time>2021-01-23T07:02:25Z</time>
    </trkpt>
    <trkpt lat="50.9624299" lon="6.8763831">
      <time>2021-01-23T07:02:27Z</time>
    </trkpt>
    <trkpt lat="50.9623118" lon="6.8763653">
      <time>2021-01-23T07:02:31Z</time>
    </trkpt>
    <trkpt lat="50.9622838" lon="6.8763653">
      <time>2021-01-23T07:02:32Z</time>
    </trkpt>
    <trkpt lat="50.9621220" lon="6.8763353">
      <time>2021-01-23T07:02:38Z</time>
    </trkpt>
    <trkpt lat="50.9620554" lon="6.8763388">
      <time>2021-01-23T07:02:41Z</time>
    </trkpt>
    <trkpt lat="50.9620169" lon="6.8763789">
      <time>2021-01-23T07:02:44Z</time>
    </trkpt>
    <trkpt lat="50.9620166" lon="6.8764081">
      <time>2021-01-23T07:02:45Z</time>
    </trkpt>
    <trkpt lat="50.9620424" lon="6.8765005">
      <time>2021-01-23T07:02:48Z</time>
    </trkpt>
    <trkpt lat="50.9620581" lon="6.8767255">
      <time>2021-01-23T07:02:54Z</time>
    </trkpt>
    <trkpt lat="50.9620751" lon="6.8769113">
      <time>2021-01-23T07:02:59Z</time>
    </trkpt>
    <trkpt lat="50.9620740" lon="6.8770948">
      <time>2021-01-23T07:03:03Z</time>
    </trkpt>
    <trkpt lat="50.9621028" lon="6.8773521">
      <time>2021-01-23T07:03:10Z</time>
    </trkpt>
    <trkpt lat="50.9620928" lon="6.8776307">
      <time>2021-01-23T07:03:17Z</time>
    </trkpt>
    <trkpt lat="50.9621073" lon="6.8779753">
      <time>2021-01-23T07:03:23Z</time>
    </trkpt>
    <trkpt lat="50.9621072" lon="6.8780311">
      <time>2021-01-23T07:03:24Z</time>
    </trkpt>
    <trkpt lat="50.9620763" lon="6.8783371">
      <time>2021-01-23T07:03:30Z</time>
    </trkpt>
    <trkpt lat="50.9620735" lon="6.8784265">
      <time>2021-01-23T07:03:32Z</time>
    </trkpt>
    <trkpt lat="50.9620862" lon="6.8785041">
      <time>2021-01-23T07:03:34Z</time>
    </trkpt>
    <trkpt lat="50.9621113" lon="6.8785433">
      <time>2021-01-23T07:03:36Z</time>
    </trkpt>
    <trkpt lat="50.9622406" lon="6.8786079">
      <time>2021-01-23T07:03:42Z</time>
    </trkpt>
    <trkpt lat="50.9624240" lon="6.8786927">
      <time>2021-01-23T07:03:50Z</time>
    </trkpt>
    <trkpt lat="50.9624535" lon="6.8787040">
      <time>2021-01-23T07:03:51Z</time>
    </trkpt>
    <trkpt lat="50.9626384" lon="6.8787860">
      <time>2021-01-23T07:03:58Z</time>
    </trkpt>
    <trkpt lat="50.9626800" lon="6.8788206">
      <time>2021-01-23T07:04:00Z</time>
    </trkpt>
    <trkpt lat="50.9627754" lon="6.8789633">
      <time>2021-01-23T07:04:05Z</time>
    </trkpt>
    <trkpt lat="50.9627777" lon="6.8792051">
      <time>2021-01-23T07:04:10Z</time>
    </trkpt>
    <trkpt lat="50.9627391" lon="6.8795181">
      <time>2021-01-23T07:04:16Z</time>
    </trkpt>
    <trkpt lat="50.9627230" lon="6.8796208">
      <time>2021-01-23T07:04:18Z</time>
    </trkpt>
    <trkpt lat="50.9626936" lon="6.8799282">
      <time>2021-01-23T07:04:25Z</time>
    </trkpt>
    <trkpt lat="50.9626879" lon="6.8799715">
      <time>2021-01-23T07:04:26Z</time>
    </trkpt>
    <trkpt lat="50.9626525" lon="6.8802806">
      <time>2021-01-23T07:04:33Z</time>
    </trkpt>
    <trkpt lat="50.9626249" lon="6.8804586">
      <time>2021-01-23T07:04:37Z</time>
    </trkpt>
    <trkpt lat="50.9625737" lon="6.8807673">
      <time>2021-01-23T07:04:44Z</time>
    </trkpt>
    <trkpt lat="50.9625560" lon="6.8808533">
      <time>2021-01-23T07:04:46Z</time>
    </trkpt>
    <trkpt lat="50.9625162" lon="6.8811677">
      <time>2021-01-23T07:04:53Z</time>
    </trkpt>
    <trkpt lat="50.9625016" lon="6.8812928">
      <time>2021-01-23T07:04:56Z</time>
    </trkpt>
    <trkpt lat="50.9624674" lon="6.8815925">
      <time>2021-01-23T07:05:03Z</time>
    </trkpt>
    <trkpt lat="50.9624577" lon="6.8816354">
      <time>2021-01-23T07:05:04Z</time>
    </trkpt>
    <trkpt lat="50.9624185" lon="6.8819026">
      <time>2021-01-23T07:05:10Z</time>
    </trkpt>
    <trkpt lat="50.9623822" lon="6.8821233">
      <time>2021-01-23T07:05:17Z</time>
    </trkpt>
    <trkpt lat="50.9623319" lon="6.8824169">
      <time>2021-01-23T07:05:25Z</time>
    </trkpt>
    <trkpt lat="50.9622816" lon="6.8827231">
      <time>2021-01-23T07:05:32Z</time>
    </trkpt>
    <trkpt lat="50.9622774" lon="6.8827656">
      <time>2021-01-23T07:05:33Z</time>
    </trkpt>
    <trkpt lat="50.9622245" lon="6.8830384">
      <time>2021-01-23T07:05:40Z</time>
    </trkpt>
    <trkpt lat="50.9621754" lon="6.8833351">
      <time>2021-01-23T07:05:47Z</time>
    </trkpt>
    <trkpt lat="50.9621595" lon="6.8834571">
      <time>2021-01-23T07:05:50Z</time>
    </trkpt>
    <trkpt lat="50.9621485" lon="6.8837008">
      <time>2021-01-23T07:05:57Z</time>
    </trkpt>
    <trkpt lat="50.9621270" lon="6.8839601">
      <time>2021-01-23T07:06:03Z</time>
    </trkpt>
    <trkpt lat="50.9620865" lon="6.8840660">
      <time>2021-01-23T07:06:06Z</time>
    </trkpt>
    <trkpt lat="50.9620491" lon="6.8840626">
      <time>2021-01-23T07:06:08Z</time>
    </trkpt>
    <trkpt lat="50.9619492" lon="6.8838380">
      <time>2021-01-23T07:06:14Z</time>
    </trkpt>
    <trkpt lat="50.9618553" lon="6.8835890">
      <time>2021-01-23T07:06:20Z</time>
    </trkpt>
    <trkpt lat="50.9617937" lon="6.8832926">
      <time>2021-01-23T07:06:27Z</time>
    </trkpt>
    <trkpt lat="50.9617855" lon="6.8832556">
      <time>2021-01-23T07:06:28Z</time>
    </trkpt>
    <trkpt lat="50.9616900" lon="6.8829797">
      <time>2021-01-23T07:06:35Z</time>
    </trkpt>
    <trkpt lat="50.9616420" lon="6.8828207">
      <time>2021-01-23T07:06:39Z</time>
    </trkpt>
    <trkpt lat="50.9615649" lon="6.8825550">
      <time>2021-01-23T07:06:45Z</time>
    </trkpt>
    <trkpt lat="50.9615256" lon="6.8824452">
      <time>2021-01-23T07:06:48Z</time>
    </trkpt>
    <trkpt lat="50.9614725" lon="6.8822752">
      <time>2021-01-23T07:06:53Z</time>
    </trkpt>
    <trkpt lat="50.9614562" lon="6.8821992">
      <time>2021-01-23T07:06:55Z</time>
    </trkpt>
    <trkpt lat="50.9613888" lon="6.8819149">
      <time>2021-01-23T07:07:02Z</time>
    </trkpt>
    <trkpt lat="50.9613774" lon="6.8818741">
      <time>2021-01-23T07:07:03Z</time>
    </trkpt>
    <trkpt lat="50.9612986" lon="6.8815961">
      <time>2021-01-23T07:07:10Z</time>
    </trkpt>
    <trkpt lat="50.9612763" lon="6.8815164">
      <time>2021-01-23T07:07:12Z</time>
    </trkpt>
    <trkpt lat="50.9611991" lon="6.8812180">
      <time>2021-01-23T07:07:19Z</time>
    </trkpt>
    <trkpt lat="50.9611759" lon="6.8811387">
      <time>2021-01-23T07:07:21Z</time>
    </trkpt>
    <trkpt lat="50.9611539" lon="6.8810547">
      <time>2021-01-23T07:07:23Z</time>
    </trkpt>
    <trkpt lat="50.9610756" lon="6.8807764">
      <time>2021-01-23T07:07:30Z</time>
    </trkpt>
    <trkpt lat="50.9610526" lon="6.8806923">
      <time>2021-01-23T07:07:32Z</time>
    </trkpt>
    <trkpt lat="50.9609727" lon="6.8804199">
      <time>2021-01-23T07:07:39Z</time>
    </trkpt>
    <trkpt lat="50.9609225" lon="6.8802511">
      <time>2021-01-23T07:07:43Z</time>
    </trkpt>
    <trkpt lat="50.9608430" lon="6.8799718">
      <time>2021-01-23T07:07:50Z</time>
    </trkpt>
    <trkpt lat="50.9608254" lon="6.8798997">
      <time>2021-01-23T07:07:52Z</time>
    </trkpt>
    <trkpt lat="50.9607611" lon="6.8796133">
      <time>2021-01-23T07:07:59Z</time>
    </trkpt>
    <trkpt lat="50.9607509" lon="6.8795386">
      <time>2021-01-23T07:08:01Z</time>
    </trkpt>
    <trkpt lat="50.9607395" lon="6.8794507">
      <time>2021-01-23T07:08:03Z</time>
    </trkpt>
    <trkpt lat="50.9607339" lon="6.8791333">
      <time>2021-01-23T07:08:10Z</time>
    </trkpt>
    <trkpt lat="50.9607378" lon="6.8790890">
      <time>2021-01-23T07:08:11Z</time>
    </trkpt>
    <trkpt lat="50.9607743" lon="6.8789587">
      <time>2021-01-23T07:08:14Z</time>
    </trkpt>
    <trkpt lat="50.9608014" lon="6.8788989">
      <time>2021-01-23T07:08:16Z</time>
    </trkpt>
    <trkpt lat="50.9608873" lon="6.8786897">
      <time>2021-01-23T07:08:23Z</time>
    </trkpt>
    <trkpt lat="50.9609771" lon="6.8785032">
      <time>2021-01-23T07:08:29Z</time>
    </trkpt>
    <trkpt lat="50.9611118" lon="6.8783306">
      <time>2021-01-23T07:08:37Z</time>
    </trkpt>
    <trkpt lat="50.9612685" lon="6.8783181">
      <time>2021-01-23T07:08:43Z</time>
    </trkpt>
    <trkpt lat="50.9614415" lon="6.8783594">
      <time>2021-01-23T07:08:49Z</time>
    </trkpt>
    <trkpt lat="50.9615021" lon="6.8783710">
      <time>2021-01-23T07:08:51Z</time>
    </trkpt>
    <trkpt lat="50.9616954" lon="6.8784302">
      <time>2021-01-23T07:08:57Z</time>
    </trkpt>
    <trkpt lat="50.9617592" lon="6.8784601">
      <time>2021-01-23T07:08:59Z</time>
    </trkpt>
    <trkpt lat="50.9619305" lon="6.8785658">
      <time>2021-01-23T07:09:05Z</time>
    </trkpt>
    <trkpt lat="50.9619501" lon="6.8785701">
      <time>2021-01-23T07:09:06Z</time>
    </trkpt>
    <trkpt lat="50.9621421" lon="6.8786605">
      <time>2021-01-23T07:09:13Z</time>
    </trkpt>
    <trkpt lat="50.9622402" lon="6.8786974">
      <time>2021-01-23T07:09:16Z</time>
    </trkpt>
    <trkpt lat="50.9624087" lon="6.8787672">
      <time>2021-01-23T07:09:22Z</time>
    </trkpt>
    <trkpt lat="50.9625435" lon="6.8788175">
      <time>2021-01-23T07:09:27Z</time>
    </trkpt>
    <trkpt lat="50.9626086" lon="6.8788453">
      <time>2021-01-23T07:09:29Z</time>
    </trkpt>
    <trkpt lat="50.9628046" lon="6.8788681">
      <time>2021-01-23T07:09:35Z</time>
    </trkpt>
    <trkpt lat="50.9628220" lon="6.8788954">
      <time>2021-01-23T07:09:36Z</time>
    </trkpt>
    <trkpt lat="50.9628398" lon="6.8789947">
      <time>2021-01-23T07:09:38Z</time>
    </trkpt>
    <trkpt lat="50.9628117" lon="6.8792406">
      <time>2021-01-23T07:09:43Z</time>
    </trkpt>
    <trkpt lat="50.9627694" lon="6.8795542">
      <time>2021-01-23T07:09:50Z</time>
    </trkpt>
    <trkpt lat="50.9627278" lon="6.8798415">
      <time>2021-01-23T07:09:56Z</time>
    </trkpt>
    <trkpt lat="50.9627164" lon="6.8799307">
      <time>2021-01-23T07:09:58Z</time>
    </trkpt>
    <trkpt lat="50.9627088" lon="6.8801144">
      <time>2021-01-23T07:10:02Z</time>
    </trkpt>
    <trkpt lat="50.9627099" lon="6.8802284">
      <time>2021-01-23T07:10:05Z</time>
    </trkpt>
    <trkpt lat="50.9626555" lon="6.8805130">
      <time>2021-01-23T07:10:11Z</time>
    </trkpt>
    <trkpt lat="50.9626125" lon="6.8807831">
      <time>2021-01-23T07:10:17Z</time>
    </trkpt>
    <trkpt lat="50.9626034" lon="6.8808656">
      <time>2021-01-23T07:10:19Z</time>
    </trkpt>
    <trkpt lat="50.9625497" lon="6.8811412">
      <time>2021-01-23T07:10:25Z</time>
    </trkpt>
    <trkpt lat="50.9625431" lon="6.8811825">
      <time>2021-01-23T07:10:26Z</time>
    </trkpt>
    <trkpt lat="50.9625072" lon="6.8814724">
      <time>2021-01-23T07:10:33Z</time>
    </trkpt>
    <trkpt lat="50.9624513" lon="6.8817405">
      <time>2021-01-23T07:10:39Z</time>
    </trkpt>
    <trkpt lat="50.9624432" lon="6.8817914">
      <time>2021-01-23T07:10:40Z</time>
    </trkpt>
    <trkpt lat="50.9624011" lon="6.8820887">
      <time>2021-01-23T07:10:47Z</time>
    </trkpt>
    <trkpt lat="50.9623682" lon="6.8822662">
      <time>2021-01-23T07:10:51Z</time>
    </trkpt>
    <trkpt lat="50.9623118" lon="6.8825670">
      <time>2021-01-23T07:10:58Z</time>
    </trkpt>
    <trkpt lat="50.9622925" lon="6.8826731">
      <time>2021-01-23T07:11:01Z</time>
    </trkpt>
    <trkpt lat="50.9622526" lon="6.8829020">
      <time>2021-01-23T07:11:07Z</time>
    </trkpt>
    <trkpt lat="50.9622246" lon="6.8831274">
      <time>2021-01-23T07:11:13Z</time>
    </trkpt>
    <trkpt lat="50.9621749" lon="6.8834070">
      <time>2021-01-23T07:11:20Z</time>
    </trkpt>
    <trkpt lat="50.9621486" lon="6.8836348">
      <time>2021-01-23T07:11:25Z</time>
    </trkpt>
    <trkpt lat="50.9621041" lon="6.8839381">
      <time>2021-01-23T07:11:32Z</time>
    </trkpt>
    <trkpt lat="50.9621009" lon="6.8839852">
      <time>2021-01-23T07:11:33Z</time>
    </trkpt>
    <trkpt lat="50.9620764" lon="6.8841835">
      <time>2021-01-23T07:11:38Z</time>
    </trkpt>
    <trkpt lat="50.9620543" lon="6.8841896">
      <time>2021-01-23T07:11:39Z</time>
    </trkpt>
    <trkpt lat="50.9619921" lon="6.8840566">
      <time>2021-01-23T07:11:43Z</time>
    </trkpt>
    <trkpt lat="50.9619088" lon="6.8837655">
      <time>2021-01-23T07:11:50Z</time>
    </trkpt>
    <trkpt lat="50.9618895" lon="6.8837090">
      <time>2021-01-23T07:11:51Z</time>
    </trkpt>
    <trkpt lat="50.9618057" lon="6.8834273">
      <time>2021-01-23T07:11:57Z</time>
    </trkpt>
    <trkpt lat="50.9617943" lon="6.8833847">
      <time>2021-01-23T07:11:58Z</time>
    </trkpt>
    <trkpt lat="50.9617176" lon="6.8831170">
      <time>2021-01-23T07:12:04Z</time>
    </trkpt>
    <trkpt lat="50.9616677" lon="6.8829250">
      <time>2021-01-23T07:12:08Z</time>
    </trkpt>
    <trkpt lat="50.9615876" lon="6.8826420">
      <time>2021-01-23T07:12:15Z</time>
    </trkpt>
    <trkpt lat="50.9615639" lon="6.8825692">
      <time>2021-01-23T07:12:17Z</time>
    </trkpt>
    <trkpt lat="50.9614766" lon="6.8823016">
      <time>2021-01-23T07:12:24Z</time>
    </trkpt>
    <trkpt lat="50.9614583" lon="6.8822269">
      <time>2021-01-23T07:12:26Z</time>
    </trkpt>
    <trkpt lat="50.9613954" lon="6.8819527">
      <time>2021-01-23T07:12:33Z</time>
    </trkpt>
    <trkpt lat="50.9613541" lon="6.8817987">
      <time>2021-01-23T07:12:37Z</time>
    </trkpt>
    <trkpt lat="50.9612929" lon="6.8815897">
      <time>2021-01-23T07:12:42Z</time>
    </trkpt>
    <trkpt lat="50.9612601" lon="6.8814734">
      <time>2021-01-23T07:12:45Z</time>
    </trkpt>
    <trkpt lat="50.9611789" lon="6.8812140">
      <time>2021-01-23T07:12:52Z</time>
    </trkpt>
    <trkpt lat="50.9611691" lon="6.8811728">
      <time>2021-01-23T07:12:53Z</time>
    </trkpt>
    <trkpt lat="50.9610951" lon="6.8808924">
      <time>2021-01-23T07:13:00Z</time>
    </trkpt>
    <trkpt lat="50.9610486" lon="6.8807181">
      <time>2021-01-23T07:13:04Z</time>
    </trkpt>
    <trkpt lat="50.9609654" lon="6.8804358">
      <time>2021-01-23T07:13:11Z</time>
    </trkpt>
    <trkpt lat="50.9609381" lon="6.8803058">
      <time>2021-01-23T07:13:14Z</time>
    </trkpt>
    <trkpt lat="50.9608628" lon="6.8800052">
      <time>2021-01-23T07:13:21Z</time>
    </trkpt>
    <trkpt lat="50.9608325" lon="6.8798832">
      <time>2021-01-23T07:13:24Z</time>
    </trkpt>
    <trkpt lat="50.9607647" lon="6.8795705">
      <time>2021-01-23T07:13:31Z</time>
    </trkpt>
    <trkpt lat="50.9607530" lon="6.8794713">
      <time>2021-01-23T07:13:33Z</time>
    </trkpt>
    <trkpt lat="50.9607535" lon="6.8791418">
      <time>2021-01-23T07:13:40Z</time>
    </trkpt>
    <trkpt lat="50.9607622" lon="6.8790989">
      <time>2021-01-23T07:13:41Z</time>
    </trkpt>
    <trkpt lat="50.9608329" lon="6.8788329">
      <time>2021-01-23T07:13:48Z</time>
    </trkpt>
    <trkpt lat="50.9609162" lon="6.8786337">
      <time>2021-01-23T07:13:54Z</time>
    </trkpt>
    <trkpt lat="50.9609431" lon="6.8785973">
      <time>2021-01-23T07:13:56Z</time>
    </trkpt>
    <trkpt lat="50.9609705" lon="6.8785551">
      <time>2021-01-23T07:13:58Z</time>
    </trkpt>
    <trkpt lat="50.9610138" lon="6.8784735">
      <time>2021-01-23T07:14:01Z</time>
    </trkpt>
    <trkpt lat="50.9611324" lon="6.8783508">
      <time>2021-01-23T07:14:08Z</time>
    </trkpt>
    <trkpt lat="50.9612775" lon="6.8783370">
      <time>2021-01-23T07:14:13Z</time>
    </trkpt>
    <trkpt lat="50.9614291" lon="6.8783829">
      <time>2021-01-23T07:14:19Z</time>
    </trkpt>
    <trkpt lat="50.9616297" lon="6.8784530">
      <time>2021-01-23T07:14:26Z</time>
    </trkpt>
    <trkpt lat="50.9616616" lon="6.8784628">
      <time>2021-01-23T07:14:27Z</time>
    </trkpt>
    <trkpt lat="50.9618411" lon="6.8785065">
      <time>2021-01-23T07:14:33Z</time>
    </trkpt>
    <trkpt lat="50.9620304" lon="6.8785791">
      <time>2021-01-23T07:14:40Z</time>
    </trkpt>
    <trkpt lat="50.9620840" lon="6.8786043">
      <time>2021-01-23T07:14:42Z</time>
    </trkpt>
    <trkpt lat="50.9622654" lon="6.8786735">
      <time>2021-01-23T07:14:48Z</time>
    </trkpt>
    <trkpt lat="50.9622915" lon="6.8786824">
      <time>2021-01-23T07:14:49Z</time>
    </trkpt>
    <trkpt lat="50.9624739" lon="6.8787450">
      <time>2021-01-23T07:14:56Z</time>
    </trkpt>
    <trkpt lat="50.9626500" lon="6.8788193">
      <time>2021-01-23T07:15:02Z</time>
    </trkpt>
    <trkpt lat="50.9628166" lon="6.8789316">
      <time>2021-01-23T07:15:08Z</time>
    </trkpt>
    <trkpt lat="50.9628411" lon="6.8789668">
      <time>2021-01-23T07:15:09Z</time>
    </trkpt>
    <trkpt lat="50.9628555" lon="6.8790440">
      <time>2021-01-23T07:15:11Z</time>
    </trkpt>
    <trkpt lat="50.9628422" lon="6.8791436">
      <time>2021-01-23T07:15:13Z</time>
    </trkpt>
    <trkpt lat="50.9628003" lon="6.8794806">
      <time>2021-01-23T07:15:18Z</time>
    </trkpt>
    <trkpt lat="50.9627832" lon="6.8797224">
      <time>2021-01-23T07:15:23Z</time>
    </trkpt>
    <trkpt lat="50.9627155" lon="6.8800271">
      <time>2021-01-23T07:15:30Z</time>
    </trkpt>
    <trkpt lat="50.9626656" lon="6.8803182">
      <time>2021-01-23T07:15:36Z</time>
    </trkpt>
    <trkpt lat="50.9626371" lon="6.8805575">
      <time>2021-01-23T07:15:41Z</time>
    </trkpt>
    <trkpt lat="50.9626014" lon="6.8808619">
      <time>2021-01-23T07:15:47Z</time>
    </trkpt>
    <trkpt lat="50.9625827" lon="6.8810516">
      <time>2021-01-23T07:15:51Z</time>
    </trkpt>
    <trkpt lat="50.9625312" lon="6.8813682">
      <time>2021-01-23T07:15:58Z</time>
    </trkpt>
    <trkpt lat="50.9625148" lon="6.8815416">
      <time>2021-01-23T07:16:02Z</time>
    </trkpt>
    <trkpt lat="50.9624936" lon="6.8816708">
      <time>2021-01-23T07:16:05Z</time>
    </trkpt>
    <trkpt lat="50.9624285" lon="6.8819646">
      <time>2021-01-23T07:16:12Z</time>
    </trkpt>
    <trkpt lat="50.9624200" lon="6.8820162">
      <time>2021-01-23T07:16:13Z</time>
    </trkpt>
    <trkpt lat="50.9623664" lon="6.8822938">
      <time>2021-01-23T07:16:20Z</time>
    </trkpt>
    <trkpt lat="50.9623592" lon="6.8823367">
      <time>2021-01-23T07:16:21Z</time>
    </trkpt>
    <trkpt lat="50.9623180" lon="6.8826371">
      <time>2021-01-23T07:16:29Z</time>
    </trkpt>
    <trkpt lat="50.9622916" lon="6.8827615">
      <time>2021-01-23T07:16:32Z</time>
    </trkpt>
    <trkpt lat="50.9622582" lon="6.8829538">
      <time>2021-01-23T07:16:37Z</time>
    </trkpt>
    <trkpt lat="50.9622386" lon="6.8832010">
      <time>2021-01-23T07:16:44Z</time>
    </trkpt>
    <trkpt lat="50.9621905" lon="6.8834817">
      <time>2021-01-23T07:16:51Z</time>
    </trkpt>
    <trkpt lat="50.9621847" lon="6.8835231">
      <time>2021-01-23T07:16:52Z</time>
    </trkpt>
    <trkpt lat="50.9621349" lon="6.8838249">
      <time>2021-01-23T07:16:59Z</time>
    </trkpt>
    <trkpt lat="50.9621265" lon="6.8838655">
      <time>2021-01-23T07:17:00Z</time>
    </trkpt>
    <trkpt lat="50.9621049" lon="6.8841519">
      <time>2021-01-23T07:17:07Z</time>
    </trkpt>
    <trkpt lat="50.9620359" lon="6.8842397">
      <time>2021-01-23T07:17:10Z</time>
    </trkpt>
    <trkpt lat="50.9620181" lon="6.8842147">
      <time>2021-01-23T07:17:11Z</time>
    </trkpt>
    <trkpt lat="50.9619639" lon="6.8840171">
      <time>2021-01-23T07:17:16Z</time>
    </trkpt>
    <trkpt lat="50.9618853" lon="6.8837575">
      <time>2021-01-23T07:17:22Z</time>
    </trkpt>
    <trkpt lat="50.9618433" lon="6.8836129">
      <time>2021-01-23T07:17:25Z</time>
    </trkpt>
    <trkpt lat="50.9617626" lon="6.8833023">
      <time>2021-01-23T07:17:32Z</time>
    </trkpt>
    <trkpt lat="50.9617287" lon="6.8831733">
      <time>2021-01-23T07:17:35Z</time>
    </trkpt>
    <trkpt lat="50.9616451" lon="6.8828622">
      <time>2021-01-23T07:17:42Z</time>
    </trkpt>
    <trkpt lat="50.9615985" lon="6.8827016">
      <time>2021-01-23T07:17:46Z</time>
    </trkpt>
    <trkpt lat="50.9615129" lon="6.8824219">
      <time>2021-01-23T07:17:53Z</time>
    </trkpt>
    <trkpt lat="50.9614913" lon="6.8823472">
      <time>2021-01-23T07:17:55Z</time>
    </trkpt>
    <trkpt lat="50.9614401" lon="6.8821263">
      <time>2021-01-23T07:18:01Z</time>
    </trkpt>
    <trkpt lat="50.9614305" lon="6.8820922">
      <time>2021-01-23T07:18:02Z</time>
    </trkpt>
    <trkpt lat="50.9613385" lon="6.8817553">
      <time>2021-01-23T07:18:11Z</time>
    </trkpt>
    <trkpt lat="50.9613269" lon="6.8817199">
      <time>2021-01-23T07:18:12Z</time>
    </trkpt>
    <trkpt lat="50.9612375" lon="6.8814532">
      <time>2021-01-23T07:18:19Z</time>
    </trkpt>
    <trkpt lat="50.9611996" lon="6.8813267">
      <time>2021-01-23T07:18:22Z</time>
    </trkpt>
    <trkpt lat="50.9611086" lon="6.8810014">
      <time>2021-01-23T07:18:30Z</time>
    </trkpt>
    <trkpt lat="50.9610736" lon="6.8808620">
      <time>2021-01-23T07:18:34Z</time>
    </trkpt>
    <trkpt lat="50.9609949" lon="6.8805780">
      <time>2021-01-23T07:18:41Z</time>
    </trkpt>
    <trkpt lat="50.9609443" lon="6.8804109">
      <time>2021-01-23T07:18:45Z</time>
    </trkpt>
    <trkpt lat="50.9608707" lon="6.8801502">
      <time>2021-01-23T07:18:52Z</time>
    </trkpt>
    <trkpt lat="50.9608485" lon="6.8800754">
      <time>2021-01-23T07:18:54Z</time>
    </trkpt>
    <trkpt lat="50.9607717" lon="6.8797727">
      <time>2021-01-23T07:19:02Z</time>
    </trkpt>
    <trkpt lat="50.9607634" lon="6.8797321">
      <time>2021-01-23T07:19:03Z</time>
    </trkpt>
    <trkpt lat="50.9607394" lon="6.8794278">
      <time>2021-01-23T07:19:11Z</time>
    </trkpt>
    <trkpt lat="50.9607402" lon="6.8793439">
      <time>2021-01-23T07:19:13Z</time>
    </trkpt>
    <trkpt lat="50.9608023" lon="6.8790354">
      <time>2021-01-23T07:19:21Z</time>
    </trkpt>
    <trkpt lat="50.9608696" lon="6.8787636">
      <time>2021-01-23T07:19:28Z</time>
    </trkpt>
    <trkpt lat="50.9609381" lon="6.8785924">
      <time>2021-01-23T07:19:34Z</time>
    </trkpt>
    <trkpt lat="50.9610905" lon="6.8783963">
      <time>2021-01-23T07:19:42Z</time>
    </trkpt>
    <trkpt lat="50.9612771" lon="6.8783363">
      <time>2021-01-23T07:19:48Z</time>
    </trkpt>
    <trkpt lat="50.9614016" lon="6.8783906">
      <time>2021-01-23T07:19:53Z</time>
    </trkpt>
    <trkpt lat="50.9615982" lon="6.8784719">
      <time>2021-01-23T07:20:00Z</time>
    </trkpt>
    <trkpt lat="50.9616523" lon="6.8784922">
      <time>2021-01-23T07:20:02Z</time>
    </trkpt>
    <trkpt lat="50.9618514" lon="6.8785646">
      <time>2021-01-23T07:20:09Z</time>
    </trkpt>
    <trkpt lat="50.9619039" lon="6.8785818">
      <time>2021-01-23T07:20:11Z</time>
    </trkpt>
    <trkpt lat="50.9620951" lon="6.8786364">
      <time>2021-01-23T07:20:18Z</time>
    </trkpt>
    <trkpt lat="50.9622007" lon="6.8786641">
      <time>2021-01-23T07:20:22Z</time>
    </trkpt>
    <trkpt lat="50.9623898" lon="6.8787305">
      <time>2021-01-23T07:20:29Z</time>
    </trkpt>
    <trkpt lat="50.9624397" lon="6.8787503">
      <time>2021-01-23T07:20:31Z</time>
    </trkpt>
    <trkpt lat="50.9626185" lon="6.8788376">
      <time>2021-01-23T07:20:38Z</time>
    </trkpt>
    <trkpt lat="50.9626700" lon="6.8788583">
      <time>2021-01-23T07:20:40Z</time>
    </trkpt>
    <trkpt lat="50.9628420" lon="6.8789420">
      <time>2021-01-23T07:20:47Z</time>
    </trkpt>
    <trkpt lat="50.9628581" lon="6.8789723">
      <time>2021-01-23T07:20:48Z</time>
    </trkpt>
    <trkpt lat="50.9628743" lon="6.8790509">
      <time>2021-01-23T07:20:50Z</time>
    </trkpt>
    <trkpt lat="50.9628682" lon="6.8791348">
      <time>2021-01-23T07:20:52Z</time>
    </trkpt>
    <trkpt lat="50.9628095" lon="6.8794214">
      <time>2021-01-23T07:20:59Z</time>
    </trkpt>
    <trkpt lat="50.9627848" lon="6.8795526">
      <time>2021-01-23T07:21:02Z</time>
    </trkpt>
    <trkpt lat="50.9627478" lon="6.8798579">
      <time>2021-01-23T07:21:09Z</time>
    </trkpt>
    <trkpt lat="50.9627330" lon="6.8799383">
      <time>2021-01-23T07:21:11Z</time>
    </trkpt>
    <trkpt lat="50.9627089" lon="6.8801083">
      <time>2021-01-23T07:21:15Z</time>
    </trkpt>
    <trkpt lat="50.9626898" lon="6.8802384">
      <time>2021-01-23T07:21:18Z</time>
    </trkpt>
    <trkpt lat="50.9626475" lon="6.8805442">
      <time>2021-01-23T07:21:25Z</time>
    </trkpt>
    <trkpt lat="50.9626373" lon="6.8806324">
      <time>2021-01-23T07:21:27Z</time>
    </trkpt>
    <trkpt lat="50.9626088" lon="6.8809289">
      <time>2021-01-23T07:21:34Z</time>
    </trkpt>
    <trkpt lat="50.9625925" lon="6.8811004">
      <time>2021-01-23T07:21:38Z</time>
    </trkpt>
    <trkpt lat="50.9625342" lon="6.8814224">
      <time>2021-01-23T07:21:45Z</time>
    </trkpt>
    <trkpt lat="50.9625221" lon="6.8814702">
      <time>2021-01-23T07:21:46Z</time>
    </trkpt>
    <trkpt lat="50.9624570" lon="6.8817793">
      <time>2021-01-23T07:21:53Z</time>
    </trkpt>
    <trkpt lat="50.9624365" lon="6.8819196">
      <time>2021-01-23T07:21:56Z</time>
    </trkpt>
    <trkpt lat="50.9624007" lon="6.8820976">
      <time>2021-01-23T07:22:00Z</time>
    </trkpt>
    <trkpt lat="50.9623919" lon="6.8822343">
      <time>2021-01-23T07:22:04Z</time>
    </trkpt>
    <trkpt lat="50.9623589" lon="6.8824964">
      <time>2021-01-23T07:22:11Z</time>
    </trkpt>
    <trkpt lat="50.9623053" lon="6.8827331">
      <time>2021-01-23T07:22:17Z</time>
    </trkpt>
    <trkpt lat="50.9622820" lon="6.8829859">
      <time>2021-01-23T07:22:24Z</time>
    </trkpt>
    <trkpt lat="50.9622245" lon="6.8832879">
      <time>2021-01-23T07:22:32Z</time>
    </trkpt>
    <trkpt lat="50.9622214" lon="6.8833253">
      <time>2021-01-23T07:22:33Z</time>
    </trkpt>
    <trkpt lat="50.9621970" lon="6.8835990">
      <time>2021-01-23T07:22:40Z</time>
    </trkpt>
    <trkpt lat="50.9621442" lon="6.8838969">
      <time>2021-01-23T07:22:48Z</time>
    </trkpt>
    <trkpt lat="50.9621056" lon="6.8840634">
      <time>2021-01-23T07:22:52Z</time>
    </trkpt>
    <trkpt lat="50.9620821" lon="6.8841778">
      <time>2021-01-23T07:22:55Z</time>
    </trkpt>
    <trkpt lat="50.9620616" lon="6.8842476">
      <time>2021-01-23T07:22:57Z</time>
    </trkpt>
    <trkpt lat="50.9620200" lon="6.8842737">
      <time>2021-01-23T07:22:59Z</time>
    </trkpt>
    <trkpt lat="50.9620055" lon="6.8842413">
      <time>2021-01-23T07:23:00Z</time>
    </trkpt>
    <trkpt lat="50.9619394" lon="6.8839448">
      <time>2021-01-23T07:23:06Z</time>
    </trkpt>
    <trkpt lat="50.9618862" lon="6.8837676">
      <time>2021-01-23T07:23:10Z</time>
    </trkpt>
    <trkpt lat="50.9618189" lon="6.8834864">
      <time>2021-01-23T07:23:16Z</time>
    </trkpt>
    <trkpt lat="50.9617860" lon="6.8833610">
      <time>2021-01-23T07:23:19Z</time>
    </trkpt>
    <trkpt lat="50.9617092" lon="6.8830845">
      <time>2021-01-23T07:23:26Z</time>
    </trkpt>
    <trkpt lat="50.9616979" lon="6.8830486">
      <time>2021-01-23T07:23:27Z</time>
    </trkpt>
    <trkpt lat="50.9616527" lon="6.8828412">
      <time>2021-01-23T07:23:32Z</time>
    </trkpt>
    <trkpt lat="50.9616257" lon="6.8827244">
      <time>2021-01-23T07:23:35Z</time>
    </trkpt>
    <trkpt lat="50.9616130" lon="6.8826858">
      <time>2021-01-23T07:23:36Z</time>
    </trkpt>
    <trkpt lat="50.9615411" lon="6.8824315">
      <time>2021-01-23T07:23:43Z</time>
    </trkpt>
    <trkpt lat="50.9614648" lon="6.8821623">
      <time>2021-01-23T07:23:50Z</time>
    </trkpt>
    <trkpt lat="50.9614213" lon="6.8819977">
      <time>2021-01-23T07:23:54Z</time>
    </trkpt>
    <trkpt lat="50.9613549" lon="6.8817298">
      <time>2021-01-23T07:24:01Z</time>
    </trkpt>
    <trkpt lat="50.9613436" lon="6.8816909">
      <time>2021-01-23T07:24:02Z</time>
    </trkpt>
    <trkpt lat="50.9612690" lon="6.8814143">
      <time>2021-01-23T07:24:09Z</time>
    </trkpt>
    <trkpt lat="50.9612357" lon="6.8813031">
      <time>2021-01-23T07:24:12Z</time>
    </trkpt>
    <trkpt lat="50.9611641" lon="6.8810281">
      <time>2021-01-23T07:24:19Z</time>
    </trkpt>
    <trkpt lat="50.9611419" lon="6.8809493">
      <time>2021-01-23T07:24:21Z</time>
    </trkpt>
    <trkpt lat="50.9611204" lon="6.8808698">
      <time>2021-01-23T07:24:23Z</time>
    </trkpt>
    <trkpt lat="50.9610459" lon="6.8805881">
      <time>2021-01-23T07:24:30Z</time>
    </trkpt>
    <trkpt lat="50.9610230" lon="6.8805051">
      <time>2021-01-23T07:24:32Z</time>
    </trkpt>
    <trkpt lat="50.9609746" lon="6.8803053">
      <time>2021-01-23T07:24:37Z</time>
    </trkpt>
    <trkpt lat="50.9609304" lon="6.8801536">
      <time>2021-01-23T07:24:41Z</time>
    </trkpt>
    <trkpt lat="50.9608549" lon="6.8798924">
      <time>2021-01-23T07:24:48Z</time>
    </trkpt>
    <trkpt lat="50.9608458" lon="6.8798528">
      <time>2021-01-23T07:24:49Z</time>
    </trkpt>
    <trkpt lat="50.9607846" lon="6.8795481">
      <time>2021-01-23T07:24:57Z</time>
    </trkpt>
    <trkpt lat="50.9607747" lon="6.8792483">
      <time>2021-01-23T07:25:04Z</time>
    </trkpt>
    <trkpt lat="50.9607800" lon="6.8792086">
      <time>2021-01-23T07:25:05Z</time>
    </trkpt>
    <trkpt lat="50.9608497" lon="6.8789532">
      <time>2021-01-23T07:25:12Z</time>
    </trkpt>
    <trkpt lat="50.9609198" lon="6.8787368">
      <time>2021-01-23T07:25:18Z</time>
    </trkpt>
    <trkpt lat="50.9610055" lon="6.8785674">
      <time>2021-01-23T07:25:24Z</time>
    </trkpt>
    <trkpt lat="50.9610549" lon="6.8784987">
      <time>2021-01-23T07:25:27Z</time>
    </trkpt>
    <trkpt lat="50.9611623" lon="6.8783645">
      <time>2021-01-23T07:25:32Z</time>
    </trkpt>
    <trkpt lat="50.9613432" lon="6.8783119">
      <time>2021-01-23T07:25:39Z</time>
    </trkpt>
    <trkpt lat="50.9614995" lon="6.8783700">
      <time>2021-01-23T07:25:45Z</time>
    </trkpt>
    <trkpt lat="50.9616729" lon="6.8784565">
      <time>2021-01-23T07:25:52Z</time>
    </trkpt>
    <trkpt lat="50.9617484" lon="6.8784967">
      <time>2021-01-23T07:25:55Z</time>
    </trkpt>
    <trkpt lat="50.9619220" lon="6.8785774">
      <time>2021-01-23T07:26:02Z</time>
    </trkpt>
    <trkpt lat="50.9619476" lon="6.8785873">
      <time>2021-01-23T07:26:03Z</time>
    </trkpt>
    <trkpt lat="50.9621158" lon="6.8786646">
      <time>2021-01-23T07:26:10Z</time>
    </trkpt>
    <trkpt lat="50.9622675" lon="6.8787380">
      <time>2021-01-23T07:26:16Z</time>
    </trkpt>
    <trkpt lat="50.9624289" lon="6.8787989">
      <time>2021-01-23T07:26:22Z</time>
    </trkpt>
    <trkpt lat="50.9626091" lon="6.8788633">
      <time>2021-01-23T07:26:29Z</time>
    </trkpt>
    <trkpt lat="50.9626348" lon="6.8788730">
      <time>2021-01-23T07:26:30Z</time>
    </trkpt>
    <trkpt lat="50.9627833" lon="6.8790102">
      <time>2021-01-23T07:26:36Z</time>
    </trkpt>
    <trkpt lat="50.9628509" lon="6.8791618">
      <time>2021-01-23T07:26:41Z</time>
    </trkpt>
    <trkpt lat="50.9628193" lon="6.8794258">
      <time>2021-01-23T07:26:47Z</time>
    </trkpt>
    <trkpt lat="50.9627961" lon="6.8796971">
      <time>2021-01-23T07:26:53Z</time>
    </trkpt>
    <trkpt lat="50.9627604" lon="6.8800063">
      <time>2021-01-23T07:27:00Z</time>
    </trkpt>
    <trkpt lat="50.9627241" lon="6.8802869">
      <time>2021-01-23T07:27:07Z</time>
    </trkpt>
    <trkpt lat="50.9626925" lon="6.8804841">
      <time>2021-01-23T07:27:12Z</time>
    </trkpt>
    <trkpt lat="50.9626677" lon="6.8807674">
      <time>2021-01-23T07:27:19Z</time>
    </trkpt>
    <trkpt lat="50.9626649" lon="6.8808015">
      <time>2021-01-23T07:27:20Z</time>
    </trkpt>
    <trkpt lat="50.9626126" lon="6.8810789">
      <time>2021-01-23T07:27:27Z</time>
    </trkpt>
    <trkpt lat="50.9625924" lon="6.8812120">
      <time>2021-01-23T07:27:30Z</time>
    </trkpt>
    <trkpt lat="50.9625616" lon="6.8814068">
      <time>2021-01-23T07:27:35Z</time>
    </trkpt>
    <trkpt lat="50.9625589" lon="6.8814796">
      <time>2021-01-23T07:27:37Z</time>
    </trkpt>
    <trkpt lat="50.9625116" lon="6.8817448">
      <time>2021-01-23T07:27:44Z</time>
    </trkpt>
    <trkpt lat="50.9624551" lon="6.8820327">
      <time>2021-01-23T07:27:51Z</time>
    </trkpt>
    <trkpt lat="50.9624366" lon="6.8820996">
      <time>2021-01-23T07:27:53Z</time>
    </trkpt>
    <trkpt lat="50.9624278" lon="6.8821677">
      <time>2021-01-23T07:27:55Z</time>
    </trkpt>
    <trkpt lat="50.9623981" lon="6.8823512">
      <time>2021-01-23T07:28:00Z</time>
    </trkpt>
    <trkpt lat="50.9623417" lon="6.8826368">
      <time>2021-01-23T07:28:08Z</time>
    </trkpt>
    <trkpt lat="50.9623363" lon="6.8826678">
      <time>2021-01-23T07:28:09Z</time>
    </trkpt>
    <trkpt lat="50.9622856" lon="6.8828918">
      <time>2021-01-23T07:28:15Z</time>
    </trkpt>
    <trkpt lat="50.9622636" lon="6.8830505">
      <time>2021-01-23T07:28:20Z</time>
    </trkpt>
    <trkpt lat="50.9622502" lon="6.8831773">
      <time>2021-01-23T07:28:24Z</time>
    </trkpt>
    <trkpt lat="50.9622186" lon="6.8834123">
      <time>2021-01-23T07:28:30Z</time>
    </trkpt>
    <trkpt lat="50.9621625" lon="6.8836742">
      <time>2021-01-23T07:28:36Z</time>
    </trkpt>
    <trkpt lat="50.9621358" lon="6.8839412">
      <time>2021-01-23T07:28:43Z</time>
    </trkpt>
    <trkpt lat="50.9621618" lon="6.8841188">
      <time>2021-01-23T07:28:48Z</time>
    </trkpt>
    <trkpt lat="50.9620758" lon="6.8842047">
      <time>2021-01-23T07:28:52Z</time>
    </trkpt>
    <trkpt lat="50.9620541" lon="6.8841685">
      <time>2021-01-23T07:28:53Z</time>
    </trkpt>
    <trkpt lat="50.9619811" lon="6.8839464">
      <time>2021-01-23T07:28:59Z</time>
    </trkpt>
    <trkpt lat="50.9619087" lon="6.8836855">
      <time>2021-01-23T07:29:05Z</time>
    </trkpt>
    <trkpt lat="50.9618960" lon="6.8836438">
      <time>2021-01-23T07:29:06Z</time>
    </trkpt>
    <trkpt lat="50.9618138" lon="6.8833774">
      <time>2021-01-23T07:29:12Z</time>
    </trkpt>
    <trkpt lat="50.9617757" lon="6.8832030">
      <time>2021-01-23T07:29:16Z</time>
    </trkpt>
    <trkpt lat="50.9617442" lon="6.8830842">
      <time>2021-01-23T07:29:19Z</time>
    </trkpt>
    <trkpt lat="50.9616879" lon="6.8828815">
      <time>2021-01-23T07:29:24Z</time>
    </trkpt>
    <trkpt lat="50.9616044" lon="6.8825881">
      <time>2021-01-23T07:29:31Z</time>
    </trkpt>
    <trkpt lat="50.9615314" lon="6.8823095">
      <time>2021-01-23T07:29:38Z</time>
    </trkpt>
    <trkpt lat="50.9614494" lon="6.8820369">
      <time>2021-01-23T07:29:45Z</time>
    </trkpt>
    <trkpt lat="50.9613826" lon="6.8817679">
      <time>2021-01-23T07:29:52Z</time>
    </trkpt>
    <trkpt lat="50.9613474" lon="6.8816542">
      <time>2021-01-23T07:29:55Z</time>
    </trkpt>
    <trkpt lat="50.9612773" lon="6.8813812">
      <time>2021-01-23T07:30:02Z</time>
    </trkpt>
    <trkpt lat="50.9611996" lon="6.8811146">
      <time>2021-01-23T07:30:09Z</time>
    </trkpt>
    <trkpt lat="50.9611526" lon="6.8809460">
      <time>2021-01-23T07:30:13Z</time>
    </trkpt>
    <trkpt lat="50.9610743" lon="6.8806783">
      <time>2021-01-23T07:30:20Z</time>
    </trkpt>
    <trkpt lat="50.9610523" lon="6.8806003">
      <time>2021-01-23T07:30:22Z</time>
    </trkpt>
    <trkpt lat="50.9609718" lon="6.8803302">
      <time>2021-01-23T07:30:29Z</time>
    </trkpt>
    <trkpt lat="50.9609360" lon="6.8802131">
      <time>2021-01-23T07:30:32Z</time>
    </trkpt>
    <trkpt lat="50.9608546" lon="6.8799242">
      <time>2021-01-23T07:30:40Z</time>
    </trkpt>
    <trkpt lat="50.9608456" lon="6.8798891">
      <time>2021-01-23T07:30:41Z</time>
    </trkpt>
    <trkpt lat="50.9607852" lon="6.8796184">
      <time>2021-01-23T07:30:48Z</time>
    </trkpt>
    <trkpt lat="50.9607798" lon="6.8795774">
      <time>2021-01-23T07:30:49Z</time>
    </trkpt>
    <trkpt lat="50.9607583" lon="6.8793793">
      <time>2021-01-23T07:30:54Z</time>
    </trkpt>
    <trkpt lat="50.9607601" lon="6.8792285">
      <time>2021-01-23T07:30:58Z</time>
    </trkpt>
    <trkpt lat="50.9608123" lon="6.8789210">
      <time>2021-01-23T07:31:06Z</time>
    </trkpt>
    <trkpt lat="50.9609396" lon="6.8786737">
      <time>2021-01-23T07:31:15Z</time>
    </trkpt>
    <trkpt lat="50.9609563" lon="6.8786491">
      <time>2021-01-23T07:31:16Z</time>
    </trkpt>
    <trkpt lat="50.9610884" lon="6.8784740">
      <time>2021-01-23T07:31:24Z</time>
    </trkpt>
    <trkpt lat="50.9612541" lon="6.8783531">
      <time>2021-01-23T07:31:31Z</time>
    </trkpt>
    <trkpt lat="50.9614502" lon="6.8784039">
      <time>2021-01-23T07:31:38Z</time>
    </trkpt>
    <trkpt lat="50.9615039" lon="6.8784255">
      <time>2021-01-23T07:31:40Z</time>
    </trkpt>
    <trkpt lat="50.9617047" lon="6.8784894">
      <time>2021-01-23T07:31:47Z</time>
    </trkpt>
    <trkpt lat="50.9619004" lon="6.8785762">
      <time>2021-01-23T07:31:54Z</time>
    </trkpt>
    <trkpt lat="50.9620567" lon="6.8786355">
      <time>2021-01-23T07:32:00Z</time>
    </trkpt>
    <trkpt lat="50.9622000" lon="6.8786788">
      <time>2021-01-23T07:32:06Z</time>
    </trkpt>
    <trkpt lat="50.9623732" lon="6.8787670">
      <time>2021-01-23T07:32:13Z</time>
    </trkpt>
    <trkpt lat="50.9624059" lon="6.8787787">
      <time>2021-01-23T07:32:14Z</time>
    </trkpt>
    <trkpt lat="50.9626039" lon="6.8788693">
      <time>2021-01-23T07:32:22Z</time>
    </trkpt>
    <trkpt lat="50.9626617" lon="6.8788855">
      <time>2021-01-23T07:32:24Z</time>
    </trkpt>
    <trkpt lat="50.9628074" lon="6.8789817">
      <time>2021-01-23T07:32:30Z</time>
    </trkpt>
    <trkpt lat="50.9628215" lon="6.8791015">
      <time>2021-01-23T07:32:33Z</time>
    </trkpt>
    <trkpt lat="50.9628049" lon="6.8794138">
      <time>2021-01-23T07:32:40Z</time>
    </trkpt>
    <trkpt lat="50.9627707" lon="6.8796885">
      <time>2021-01-23T07:32:47Z</time>
    </trkpt>
    <trkpt lat="50.9627373" lon="6.8800041">
      <time>2021-01-23T07:32:54Z</time>
    </trkpt>
    <trkpt lat="50.9627238" lon="6.8801253">
      <time>2021-01-23T07:32:57Z</time>
    </trkpt>
    <trkpt lat="50.9626748" lon="6.8804226">
      <time>2021-01-23T07:33:04Z</time>
    </trkpt>
    <trkpt lat="50.9626630" lon="6.8804700">
      <time>2021-01-23T07:33:05Z</time>
    </trkpt>
    <trkpt lat="50.9626274" lon="6.8807507">
      <time>2021-01-23T07:33:12Z</time>
    </trkpt>
    <trkpt lat="50.9626216" lon="6.8807886">
      <time>2021-01-23T07:33:13Z</time>
    </trkpt>
    <trkpt lat="50.9625940" lon="6.8810573">
      <time>2021-01-23T07:33:20Z</time>
    </trkpt>
    <trkpt lat="50.9625584" lon="6.8813431">
      <time>2021-01-23T07:33:27Z</time>
    </trkpt>
    <trkpt lat="50.9625283" lon="6.8815068">
      <time>2021-01-23T07:33:31Z</time>
    </trkpt>
    <trkpt lat="50.9624718" lon="6.8817829">
      <time>2021-01-23T07:33:38Z</time>
    </trkpt>
    <trkpt lat="50.9624695" lon="6.8818230">
      <time>2021-01-23T07:33:39Z</time>
    </trkpt>
    <trkpt lat="50.9623947" lon="6.8821044">
      <time>2021-01-23T07:33:46Z</time>
    </trkpt>
    <trkpt lat="50.9623730" lon="6.8823778">
      <time>2021-01-23T07:33:54Z</time>
    </trkpt>
    <trkpt lat="50.9623498" lon="6.8825525">
      <time>2021-01-23T07:33:59Z</time>
    </trkpt>
    <trkpt lat="50.9623372" lon="6.8826660">
      <time>2021-01-23T07:34:02Z</time>
    </trkpt>
    <trkpt lat="50.9622748" lon="6.8829196">
      <time>2021-01-23T07:34:09Z</time>
    </trkpt>
    <trkpt lat="50.9622408" lon="6.8831726">
      <time>2021-01-23T07:34:16Z</time>
    </trkpt>
    <trkpt lat="50.9622034" lon="6.8834871">
      <time>2021-01-23T07:34:24Z</time>
    </trkpt>
    <trkpt lat="50.9621711" lon="6.8836910">
      <time>2021-01-23T07:34:29Z</time>
    </trkpt>
    <trkpt lat="50.9621627" lon="6.8837671">
      <time>2021-01-23T07:34:31Z</time>
    </trkpt>
    <trkpt lat="50.9621368" lon="6.8840557">
      <time>2021-01-23T07:34:40Z</time>
    </trkpt>
    <trkpt lat="50.9621193" lon="6.8841616">
      <time>2021-01-23T07:34:43Z</time>
    </trkpt>
    <trkpt lat="50.9620728" lon="6.8841750">
      <time>2021-01-23T07:34:45Z</time>
    </trkpt>
    <trkpt lat="50.9620076" lon="6.8840200">
      <time>2021-01-23T07:34:49Z</time>
    </trkpt>
    <trkpt lat="50.9619228" lon="6.8837335">
      <time>2021-01-23T07:34:56Z</time>
    </trkpt>
    <trkpt lat="50.9618280" lon="6.8834385">
      <time>2021-01-23T07:35:03Z</time>
    </trkpt>
    <trkpt lat="50.9618135" lon="6.8833913">
      <time>2021-01-23T07:35:04Z</time>
    </trkpt>
    <trkpt lat="50.9617873" lon="6.8833059">
      <time>2021-01-23T07:35:06Z</time>
    </trkpt>
    <trkpt lat="50.9617028" lon="6.8830130">
      <time>2021-01-23T07:35:13Z</time>
    </trkpt>
    <trkpt lat="50.9616812" lon="6.8829241">
      <time>2021-01-23T07:35:15Z</time>
    </trkpt>
    <trkpt lat="50.9616051" lon="6.8826513">
      <time>2021-01-23T07:35:22Z</time>
    </trkpt>
    <trkpt lat="50.9615804" lon="6.8825702">
      <time>2021-01-23T07:35:24Z</time>
    </trkpt>
    <trkpt lat="50.9615040" lon="6.8822935">
      <time>2021-01-23T07:35:31Z</time>
    </trkpt>
    <trkpt lat="50.9614844" lon="6.8822139">
      <time>2021-01-23T07:35:33Z</time>
    </trkpt>
    <trkpt lat="50.9614154" lon="6.8819426">
      <time>2021-01-23T07:35:40Z</time>
    </trkpt>
    <trkpt lat="50.9613740" lon="6.8817866">
      <time>2021-01-23T07:35:44Z</time>
    </trkpt>
    <trkpt lat="50.9613006" lon="6.8815169">
      <time>2021-01-23T07:35:51Z</time>
    </trkpt>
    <trkpt lat="50.9612707" lon="6.8814027">
      <time>2021-01-23T07:35:54Z</time>
    </trkpt>
    <trkpt lat="50.9611887" lon="6.8811280">
      <time>2021-01-23T07:36:01Z</time>
    </trkpt>
    <trkpt lat="50.9611447" lon="6.8809664">
      <time>2021-01-23T07:36:05Z</time>
    </trkpt>
    <trkpt lat="50.9610718" lon="6.8806851">
      <time>2021-01-23T07:36:12Z</time>
    </trkpt>
    <trkpt lat="50.9610378" lon="6.8805632">
      <time>2021-01-23T07:36:15Z</time>
    </trkpt>
    <trkpt lat="50.9610162" lon="6.8804846">
      <time>2021-01-23T07:36:17Z</time>
    </trkpt>
    <trkpt lat="50.9609402" lon="6.8802132">
      <time>2021-01-23T07:36:24Z</time>
    </trkpt>
    <trkpt lat="50.9609269" lon="6.8801732">
      <time>2021-01-23T07:36:25Z</time>
    </trkpt>
    <trkpt lat="50.9608503" lon="6.8798834">
      <time>2021-01-23T07:36:32Z</time>
    </trkpt>
    <trkpt lat="50.9607930" lon="6.8796260">
      <time>2021-01-23T07:36:38Z</time>
    </trkpt>
    <trkpt lat="50.9607534" lon="6.8793203">
      <time>2021-01-23T07:36:45Z</time>
    </trkpt>
    <trkpt lat="50.9607531" lon="6.8792725">
      <time>2021-01-23T07:36:46Z</time>
    </trkpt>
    <trkpt lat="50.9607984" lon="6.8790215">
      <time>2021-01-23T07:36:52Z</time>
    </trkpt>
    <trkpt lat="50.9608715" lon="6.8787478">
      <time>2021-01-23T07:36:59Z</time>
    </trkpt>
    <trkpt lat="50.9608728" lon="6.8787168">
      <time>2021-01-23T07:37:00Z</time>
    </trkpt>
    <trkpt lat="50.9608230" lon="6.8786011">
      <time>2021-01-23T07:37:04Z</time>
    </trkpt>
    <trkpt lat="50.9606792" lon="6.8786279">
      <time>2021-01-23T07:37:09Z</time>
    </trkpt>
    <trkpt lat="50.9605370" lon="6.8786377">
      <time>2021-01-23T07:37:14Z</time>
    </trkpt>
    <trkpt lat="50.9604098" lon="6.8786122">
      <time>2021-01-23T07:37:19Z</time>
    </trkpt>
    <trkpt lat="50.9604112" lon="6.8785631">
      <time>2021-01-23T07:37:20Z</time>
    </trkpt>
    <trkpt lat="50.9604880" lon="6.8784233">
      <time>2021-01-23T07:37:24Z</time>
    </trkpt>
    <trkpt lat="50.9606250" lon="6.8782324">
      <time>2021-01-23T07:37:30Z</time>
    </trkpt>
    <trkpt lat="50.9607401" lon="6.8779965">
      <time>2021-01-23T07:37:36Z</time>
    </trkpt>
    <trkpt lat="50.9608630" lon="6.8777750">
      <time>2021-01-23T07:37:42Z</time>
    </trkpt>
    <trkpt lat="50.9608861" lon="6.8777304">
      <time>2021-01-23T07:37:43Z</time>
    </trkpt>
    <trkpt lat="50.9609801" lon="6.8775261">
      <time>2021-01-23T07:37:49Z</time>
    </trkpt>
    <trkpt lat="50.9611137" lon="6.8773276">
      <time>2021-01-23T07:37:57Z</time>
    </trkpt>
    <trkpt lat="50.9612946" lon="6.8772296">
      <time>2021-01-23T07:38:05Z</time>
    </trkpt>
    <trkpt lat="50.9614650" lon="6.8771314">
      <time>2021-01-23T07:38:13Z</time>
    </trkpt>
    <trkpt lat="50.9616348" lon="6.8770117">
      <time>2021-01-23T07:38:21Z</time>
    </trkpt>
    <trkpt lat="50.9616767" lon="6.8769782">
      <time>2021-01-23T07:38:23Z</time>
    </trkpt>
    <trkpt lat="50.9618311" lon="6.8768603">
      <time>2021-01-23T07:38:30Z</time>
    </trkpt>
    <trkpt lat="50.9619421" lon="6.8767442">
      <time>2021-01-23T07:38:36Z</time>
    </trkpt>
    <trkpt lat="50.9619917" lon="6.8765083">
      <time>2021-01-23T07:38:43Z</time>
    </trkpt>
    <trkpt lat="50.9620788" lon="6.8762912">
      <time>2021-01-23T07:38:49Z</time>
    </trkpt>
    <trkpt lat="50.9620916" lon="6.8762863">
      <time>2021-01-23T07:38:50Z</time>
    </trkpt>
    <trkpt lat="50.9621356" lon="6.8762986">
      <time>2021-01-23T07:38:53Z</time>
    </trkpt>
    <trkpt lat="50.9622724" lon="6.8763650">
      <time>2021-01-23T07:38:59Z</time>
    </trkpt>
    <trkpt lat="50.9624077" lon="6.8763841">
      <time>2021-01-23T07:39:04Z</time>
    </trkpt>
    <trkpt lat="50.9625645" lon="6.8764232">
      <time>2021-01-23T07:39:10Z</time>
    </trkpt>
    <trkpt lat="50.9627573" lon="6.8764535">
      <time>2021-01-23T07:39:16Z</time>
    </trkpt>
    <trkpt lat="50.9628540" lon="6.8765136">
      <time>2021-01-23T07:39:20Z</time>
    </trkpt>
    <trkpt lat="50.9628743" lon="6.8765371">
      <time>2021-01-23T07:39:21Z</time>
    </trkpt>
    <trkpt lat="50.9629710" lon="6.8765469">
      <time>2021-01-23T07:39:25Z</time>
    </trkpt>
    <trkpt lat="50.9630759" lon="6.8764098">
      <time>2021-01-23T07:39:30Z</time>
    </trkpt>
    <trkpt lat="50.9632092" lon="6.8761964">
      <time>2021-01-23T07:39:37Z</time>
    </trkpt>
    <trkpt lat="50.9632255" lon="6.8761616">
      <time>2021-01-23T07:39:38Z</time>
    </trkpt>
    <trkpt lat="50.9633314" lon="6.8759076">
      <time>2021-01-23T07:39:45Z</time>
    </trkpt>
    <trkpt lat="50.9633486" lon="6.8758920">
      <time>2021-01-23T07:39:46Z</time>
    </trkpt>
    <trkpt lat="50.9634038" lon="6.8758887">
      <time>2021-01-23T07:39:50Z</time>
    </trkpt>
    <trkpt lat="50.9634216" lon="6.8759147">
      <time>2021-01-23T07:39:51Z</time>
    </trkpt>
    <trkpt lat="50.9635855" lon="6.8759861">
      <time>2021-01-23T07:39:58Z</time>
    </trkpt>
    <trkpt lat="50.9637947" lon="6.8760146">
      <time>2021-01-23T07:40:05Z</time>
    </trkpt>
    <trkpt lat="50.9639932" lon="6.8760651">
      <time>2021-01-23T07:40:12Z</time>
    </trkpt>
    <trkpt lat="50.9641541" lon="6.8761303">
      <time>2021-01-23T07:40:19Z</time>
    </trkpt>
    <trkpt lat="50.9642240" lon="6.8763674">
      <time>2021-01-23T07:40:24Z</time>
    </trkpt>
    <trkpt lat="50.9642376" lon="6.8766170">
      <time>2021-01-23T07:40:29Z</time>
    </trkpt>
    <trkpt lat="50.9641864" lon="6.8769010">
      <time>2021-01-23T07:40:35Z</time>
    </trkpt>
    <trkpt lat="50.9641424" lon="6.8770263">
      <time>2021-01-23T07:40:38Z</time>
    </trkpt>
    <trkpt lat="50.9641145" lon="6.8771026">
      <time>2021-01-23T07:40:40Z</time>
    </trkpt>
    <trkpt lat="50.9640616" lon="6.8772965">
      <time>2021-01-23T07:40:44Z</time>
    </trkpt>
    <trkpt lat="50.9639793" lon="6.8775178">
      <time>2021-01-23T07:40:50Z</time>
    </trkpt>
    <trkpt lat="50.9638865" lon="6.8777965">
      <time>2021-01-23T07:40:57Z</time>
    </trkpt>
    <trkpt lat="50.9638255" lon="6.8778663">
      <time>2021-01-23T07:41:00Z</time>
    </trkpt>
    <trkpt lat="50.9637607" lon="6.8778535">
      <time>2021-01-23T07:41:02Z</time>
    </trkpt>
    <trkpt lat="50.9636435" lon="6.8777016">
      <time>2021-01-23T07:41:08Z</time>
    </trkpt>
    <trkpt lat="50.9635026" lon="6.8774817">
      <time>2021-01-23T07:41:15Z</time>
    </trkpt>
    <trkpt lat="50.9633798" lon="6.8772622">
      <time>2021-01-23T07:41:22Z</time>
    </trkpt>
    <trkpt lat="50.9633217" lon="6.8771654">
      <time>2021-01-23T07:41:25Z</time>
    </trkpt>
    <trkpt lat="50.9631978" lon="6.8769004">
      <time>2021-01-23T07:41:33Z</time>
    </trkpt>
    <trkpt lat="50.9631695" lon="6.8765912">
      <time>2021-01-23T07:41:40Z</time>
    </trkpt>
    <trkpt lat="50.9631797" lon="6.8765388">
      <time>2021-01-23T07:41:41Z</time>
    </trkpt>
    <trkpt lat="50.9632250" lon="6.8763377">
      <time>2021-01-23T07:41:46Z</time>
    </trkpt>
    <trkpt lat="50.9632810" lon="6.8760569">
      <time>2021-01-23T07:41:53Z</time>
    </trkpt>
    <trkpt lat="50.9633838" lon="6.8758496">
      <time>2021-01-23T07:42:00Z</time>
    </trkpt>
    <trkpt lat="50.9634286" lon="6.8758330">
      <time>2021-01-23T07:42:05Z</time>
    </trkpt>
    <trkpt lat="50.9634344" lon="6.8758352">
      <time>2021-01-23T07:42:06Z</time>
    </trkpt>
    <trkpt lat="50.9634211" lon="6.8758640">
      <time>2021-01-23T07:42:08Z</time>
    </trkpt>
  </trkseg></trk>
</gpx>
