<?xml version="1.0" encoding="UTF-8"?>
<gpx version="1.1" creator="Diary FIT converter" xmlns="http://www.topografix.com/GPX/1/1">
  <trk><name>Running</name><trkseg>
    <trkpt lat="50.9623474" lon="6.8764238">
      <time>2020-11-11T06:05:13Z</time>
    </trkpt>
    <trkpt lat="50.9622767" lon="6.8763725">
      <time>2020-11-11T06:05:17Z</time>
    </trkpt>
    <trkpt lat="50.9622534" lon="6.8763797">
      <time>2020-11-11T06:05:18Z</time>
    </trkpt>
    <trkpt lat="50.9622020" lon="6.8763838">
      <time>2020-11-11T06:05:20Z</time>
    </trkpt>
    <trkpt lat="50.9621669" lon="6.8763607">
      <time>2020-11-11T06:05:22Z</time>
    </trkpt>
    <trkpt lat="50.9621319" lon="6.8763308">
      <time>2020-11-11T06:05:24Z</time>
    </trkpt>
    <trkpt lat="50.9620951" lon="6.8763187">
      <time>2020-11-11T06:05:26Z</time>
    </trkpt>
    <trkpt lat="50.9620532" lon="6.8763518">
      <time>2020-11-11T06:05:29Z</time>
    </trkpt>
    <trkpt lat="50.9620457" lon="6.8764228">
      <time>2020-11-11T06:05:31Z</time>
    </trkpt>
    <trkpt lat="50.9620279" lon="6.8766365">
      <time>2020-11-11T06:05:36Z</time>
    </trkpt>
    <trkpt lat="50.9620196" lon="6.8766779">
      <time>2020-11-11T06:05:37Z</time>
    </trkpt>
    <trkpt lat="50.9619280" lon="6.8768581">
      <time>2020-11-11T06:05:43Z</time>
    </trkpt>
    <trkpt lat="50.9617346" lon="6.8769864">
      <time>2020-11-11T06:05:50Z</time>
    </trkpt>
    <trkpt lat="50.9615772" lon="6.8770490">
      <time>2020-11-11T06:05:56Z</time>
    </trkpt>
    <trkpt lat="50.9614456" lon="6.8771144">
      <time>2020-11-11T06:06:01Z</time>
    </trkpt>
    <trkpt lat="50.9614002" lon="6.8771653">
      <time>2020-11-11T06:06:03Z</time>
    </trkpt>
    <trkpt lat="50.9613575" lon="6.8771907">
      <time>2020-11-11T06:06:05Z</time>
    </trkpt>
    <trkpt lat="50.9613276" lon="6.8772054">
      <time>2020-11-11T06:06:06Z</time>
    </trkpt>
    <trkpt lat="50.9611307" lon="6.8773215">
      <time>2020-11-11T06:06:13Z</time>
    </trkpt>
    <trkpt lat="50.9611037" lon="6.8773345">
      <time>2020-11-11T06:06:14Z</time>
    </trkpt>
    <trkpt lat="50.9609378" lon="6.8774273">
      <time>2020-11-11T06:06:19Z</time>
    </trkpt>
    <trkpt lat="50.9608247" lon="6.8774562">
      <time>2020-11-11T06:06:23Z</time>
    </trkpt>
    <trkpt lat="50.9606994" lon="6.8775500">
      <time>2020-11-11T06:06:28Z</time>
    </trkpt>
    <trkpt lat="50.9605012" lon="6.8776360">
      <time>2020-11-11T06:06:35Z</time>
    </trkpt>
    <trkpt lat="50.9603679" lon="6.8777033">
      <time>2020-11-11T06:06:41Z</time>
    </trkpt>
    <trkpt lat="50.9602159" lon="6.8777437">
      <time>2020-11-11T06:06:46Z</time>
    </trkpt>
    <trkpt lat="50.9600280" lon="6.8776161">
      <time>2020-11-11T06:06:53Z</time>
    </trkpt>
    <trkpt lat="50.9598658" lon="6.8774610">
      <time>2020-11-11T06:07:00Z</time>
    </trkpt>
    <trkpt lat="50.9597827" lon="6.8773277">
      <time>2020-11-11T06:07:04Z</time>
    </trkpt>
    <trkpt lat="50.9597651" lon="6.8771089">
      <time>2020-11-11T06:07:09Z</time>
    </trkpt>
    <trkpt lat="50.9598187" lon="6.8769258">
      <time>2020-11-11T06:07:14Z</time>
    </trkpt>
    <trkpt lat="50.9598215" lon="6.8768797">
      <time>2020-11-11T06:07:15Z</time>
    </trkpt>
    <trkpt lat="50.9598012" lon="6.8766949">
      <time>2020-11-11T06:07:19Z</time>
    </trkpt>
    <trkpt lat="50.9597564" lon="6.8764069">
      <time>2020-11-11T06:07:25Z</time>
    </trkpt>
    <trkpt lat="50.9597446" lon="6.8763174">
      <time>2020-11-11T06:07:27Z</time>
    </trkpt>
    <trkpt lat="50.9597112" lon="6.8760609">
      <time>2020-11-11T06:07:33Z</time>
    </trkpt>
    <trkpt lat="50.9596876" lon="6.8758542">
      <time>2020-11-11T06:07:38Z</time>
    </trkpt>
    <trkpt lat="50.9596663" lon="6.8755675">
      <time>2020-11-11T06:07:45Z</time>
    </trkpt>
    <trkpt lat="50.9596718" lon="6.8753769">
      <time>2020-11-11T06:07:50Z</time>
    </trkpt>
    <trkpt lat="50.9596780" lon="6.8753487">
      <time>2020-11-11T06:07:51Z</time>
    </trkpt>
    <trkpt lat="50.9597025" lon="6.8750377">
      <time>2020-11-11T06:07:58Z</time>
    </trkpt>
    <trkpt lat="50.9597019" lon="6.8749940">
      <time>2020-11-11T06:07:59Z</time>
    </trkpt>
    <trkpt lat="50.9597223" lon="6.8746988">
      <time>2020-11-11T06:08:06Z</time>
    </trkpt>
    <trkpt lat="50.9597352" lon="6.8743761">
      <time>2020-11-11T06:08:13Z</time>
    </trkpt>
    <trkpt lat="50.9597435" lon="6.8740837">
      <time>2020-11-11T06:08:19Z</time>
    </trkpt>
    <trkpt lat="50.9597580" lon="6.8739632">
      <time>2020-11-11T06:08:22Z</time>
    </trkpt>
    <trkpt lat="50.9597589" lon="6.8736701">
      <time>2020-11-11T06:08:28Z</time>
    </trkpt>
    <trkpt lat="50.9597575" lon="6.8736242">
      <time>2020-11-11T06:08:29Z</time>
    </trkpt>
    <trkpt lat="50.9597348" lon="6.8733397">
      <time>2020-11-11T06:08:35Z</time>
    </trkpt>
    <trkpt lat="50.9597309" lon="6.8732965">
      <time>2020-11-11T06:08:36Z</time>
    </trkpt>
    <trkpt lat="50.9597128" lon="6.8731203">
      <time>2020-11-11T06:08:41Z</time>
    </trkpt>
    <trkpt lat="50.9596647" lon="6.8728334">
      <time>2020-11-11T06:08:48Z</time>
    </trkpt>
    <trkpt lat="50.9596259" lon="6.8725974">
      <time>2020-11-11T06:08:53Z</time>
    </trkpt>
    <trkpt lat="50.9595934" lon="6.8723122">
      <time>2020-11-11T06:08:59Z</time>
    </trkpt>
    <trkpt lat="50.9595910" lon="6.8722715">
      <time>2020-11-11T06:09:00Z</time>
    </trkpt>
    <trkpt lat="50.9595547" lon="6.8719380">
      <time>2020-11-11T06:09:07Z</time>
    </trkpt>
    <trkpt lat="50.9595471" lon="6.8718834">
      <time>2020-11-11T06:09:08Z</time>
    </trkpt>
    <trkpt lat="50.9594451" lon="6.8716239">
      <time>2020-11-11T06:09:14Z</time>
    </trkpt>
    <trkpt lat="50.9593853" lon="6.8714230">
      <time>2020-11-11T06:09:19Z</time>
    </trkpt>
    <trkpt lat="50.9592951" lon="6.8711477">
      <time>2020-11-11T06:09:27Z</time>
    </trkpt>
    <trkpt lat="50.9592639" lon="6.8709861">
      <time>2020-11-11T06:09:32Z</time>
    </trkpt>
    <trkpt lat="50.9592368" lon="6.8707375">
      <time>2020-11-11T06:09:38Z</time>
    </trkpt>
    <trkpt lat="50.9592415" lon="6.8707063">
      <time>2020-11-11T06:09:39Z</time>
    </trkpt>
    <trkpt lat="50.9592628" lon="6.8706587">
      <time>2020-11-11T06:09:41Z</time>
    </trkpt>
    <trkpt lat="50.9593218" lon="6.8705811">
      <time>2020-11-11T06:09:44Z</time>
    </trkpt>
    <trkpt lat="50.9594818" lon="6.8704299">
      <time>2020-11-11T06:09:50Z</time>
    </trkpt>
    <trkpt lat="50.9595080" lon="6.8704041">
      <time>2020-11-11T06:09:51Z</time>
    </trkpt>
    <trkpt lat="50.9596331" lon="6.8703679">
      <time>2020-11-11T06:09:56Z</time>
    </trkpt>
    <trkpt lat="50.9597092" lon="6.8703563">
      <time>2020-11-11T06:10:00Z</time>
    </trkpt>
    <trkpt lat="50.9597275" lon="6.8703453">
      <time>2020-11-11T06:10:01Z</time>
    </trkpt>
    <trkpt lat="50.9597473" lon="6.8703418">
      <time>2020-11-11T06:10:02Z</time>
    </trkpt>
    <trkpt lat="50.9598342" lon="6.8703525">
      <time>2020-11-11T06:10:05Z</time>
    </trkpt>
    <trkpt lat="50.9598621" lon="6.8703555">
      <time>2020-11-11T06:10:06Z</time>
    </trkpt>
    <trkpt lat="50.9599507" lon="6.8703444">
      <time>2020-11-11T06:10:09Z</time>
    </trkpt>
    <trkpt lat="50.9600046" lon="6.8703273">
      <time>2020-11-11T06:10:11Z</time>
    </trkpt>
    <trkpt lat="50.9601872" lon="6.8703062">
      <time>2020-11-11T06:10:18Z</time>
    </trkpt>
    <trkpt lat="50.9602120" lon="6.8703032">
      <time>2020-11-11T06:10:19Z</time>
    </trkpt>
    <trkpt lat="50.9603480" lon="6.8702571">
      <time>2020-11-11T06:10:24Z</time>
    </trkpt>
    <trkpt lat="50.9603914" lon="6.8702366">
      <time>2020-11-11T06:10:26Z</time>
    </trkpt>
    <trkpt lat="50.9605843" lon="6.8702399">
      <time>2020-11-11T06:10:31Z</time>
    </trkpt>
    <trkpt lat="50.9606387" lon="6.8702127">
      <time>2020-11-11T06:10:33Z</time>
    </trkpt>
    <trkpt lat="50.9608080" lon="6.8701153">
      <time>2020-11-11T06:10:39Z</time>
    </trkpt>
    <trkpt lat="50.9609853" lon="6.8700477">
      <time>2020-11-11T06:10:45Z</time>
    </trkpt>
    <trkpt lat="50.9610100" lon="6.8700327">
      <time>2020-11-11T06:10:46Z</time>
    </trkpt>
    <trkpt lat="50.9611869" lon="6.8699621">
      <time>2020-11-11T06:10:53Z</time>
    </trkpt>
    <trkpt lat="50.9612121" lon="6.8699576">
      <time>2020-11-11T06:10:54Z</time>
    </trkpt>
    <trkpt lat="50.9613325" lon="6.8698975">
      <time>2020-11-11T06:10:59Z</time>
    </trkpt>
    <trkpt lat="50.9615223" lon="6.8698580">
      <time>2020-11-11T06:11:05Z</time>
    </trkpt>
    <trkpt lat="50.9615488" lon="6.8698552">
      <time>2020-11-11T06:11:06Z</time>
    </trkpt>
    <trkpt lat="50.9617284" lon="6.8698159">
      <time>2020-11-11T06:11:12Z</time>
    </trkpt>
    <trkpt lat="50.9618787" lon="6.8697521">
      <time>2020-11-11T06:11:18Z</time>
    </trkpt>
    <trkpt lat="50.9619830" lon="6.8697183">
      <time>2020-11-11T06:11:22Z</time>
    </trkpt>
    <trkpt lat="50.9620065" lon="6.8697101">
      <time>2020-11-11T06:11:23Z</time>
    </trkpt>
    <trkpt lat="50.9620505" lon="6.8696859">
      <time>2020-11-11T06:11:25Z</time>
    </trkpt>
    <trkpt lat="50.9621047" lon="6.8696684">
      <time>2020-11-11T06:11:27Z</time>
    </trkpt>
    <trkpt lat="50.9622642" lon="6.8696691">
      <time>2020-11-11T06:11:33Z</time>
    </trkpt>
    <trkpt lat="50.9624614" lon="6.8696453">
      <time>2020-11-11T06:11:40Z</time>
    </trkpt>
    <trkpt lat="50.9625145" lon="6.8696374">
      <time>2020-11-11T06:11:42Z</time>
    </trkpt>
    <trkpt lat="50.9626594" lon="6.8695924">
      <time>2020-11-11T06:11:47Z</time>
    </trkpt>
    <trkpt lat="50.9626912" lon="6.8695881">
      <time>2020-11-11T06:11:48Z</time>
    </trkpt>
    <trkpt lat="50.9628635" lon="6.8695964">
      <time>2020-11-11T06:11:53Z</time>
    </trkpt>
    <trkpt lat="50.9630007" lon="6.8695716">
      <time>2020-11-11T06:11:58Z</time>
    </trkpt>
    <trkpt lat="50.9630404" lon="6.8695560">
      <time>2020-11-11T06:12:00Z</time>
    </trkpt>
    <trkpt lat="50.9631944" lon="6.8695480">
      <time>2020-11-11T06:12:06Z</time>
    </trkpt>
    <trkpt lat="50.9633484" lon="6.8695400">
      <time>2020-11-11T06:12:11Z</time>
    </trkpt>
    <trkpt lat="50.9635401" lon="6.8695757">
      <time>2020-11-11T06:12:18Z</time>
    </trkpt>
    <trkpt lat="50.9635874" lon="6.8695756">
      <time>2020-11-11T06:12:20Z</time>
    </trkpt>
    <trkpt lat="50.9637574" lon="6.8695995">
      <time>2020-11-11T06:12:27Z</time>
    </trkpt>
    <trkpt lat="50.9638767" lon="6.8696149">
      <time>2020-11-11T06:12:32Z</time>
    </trkpt>
    <trkpt lat="50.9639694" lon="6.8696397">
      <time>2020-11-11T06:12:36Z</time>
    </trkpt>
    <trkpt lat="50.9640066" lon="6.8696128">
      <time>2020-11-11T06:12:38Z</time>
    </trkpt>
    <trkpt lat="50.9640926" lon="6.8694229">
      <time>2020-11-11T06:12:45Z</time>
    </trkpt>
    <trkpt lat="50.9641369" lon="6.8692447">
      <time>2020-11-11T06:12:50Z</time>
    </trkpt>
    <trkpt lat="50.9641455" lon="6.8692055">
      <time>2020-11-11T06:12:51Z</time>
    </trkpt>
    <trkpt lat="50.9641823" lon="6.8690251">
      <time>2020-11-11T06:12:56Z</time>
    </trkpt>
    <trkpt lat="50.9642189" lon="6.8687181">
      <time>2020-11-11T06:13:03Z</time>
    </trkpt>
    <trkpt lat="50.9642368" lon="6.8684996">
      <time>2020-11-11T06:13:08Z</time>
    </trkpt>
    <trkpt lat="50.9642490" lon="6.8684268">
      <time>2020-11-11T06:13:10Z</time>
    </trkpt>
    <trkpt lat="50.9642326" lon="6.8681743">
      <time>2020-11-11T06:13:16Z</time>
    </trkpt>
    <trkpt lat="50.9642372" lon="6.8679785">
      <time>2020-11-11T06:13:21Z</time>
    </trkpt>
    <trkpt lat="50.9642583" lon="6.8679601">
      <time>2020-11-11T06:13:22Z</time>
    </trkpt>
    <trkpt lat="50.9644307" lon="6.8679642">
      <time>2020-11-11T06:13:28Z</time>
    </trkpt>
    <trkpt lat="50.9646188" lon="6.8679894">
      <time>2020-11-11T06:13:34Z</time>
    </trkpt>
    <trkpt lat="50.9646801" lon="6.8680061">
      <time>2020-11-11T06:13:36Z</time>
    </trkpt>
    <trkpt lat="50.9648664" lon="6.8680620">
      <time>2020-11-11T06:13:43Z</time>
    </trkpt>
    <trkpt lat="50.9649137" lon="6.8680805">
      <time>2020-11-11T06:13:45Z</time>
    </trkpt>
    <trkpt lat="50.9651120" lon="6.8681244">
      <time>2020-11-11T06:13:52Z</time>
    </trkpt>
    <trkpt lat="50.9653084" lon="6.8681661">
      <time>2020-11-11T06:14:00Z</time>
    </trkpt>
    <trkpt lat="50.9653344" lon="6.8681688">
      <time>2020-11-11T06:14:01Z</time>
    </trkpt>
    <trkpt lat="50.9655242" lon="6.8682185">
      <time>2020-11-11T06:14:08Z</time>
    </trkpt>
    <trkpt lat="50.9656420" lon="6.8682657">
      <time>2020-11-11T06:14:13Z</time>
    </trkpt>
    <trkpt lat="50.9658313" lon="6.8683228">
      <time>2020-11-11T06:14:20Z</time>
    </trkpt>
    <trkpt lat="50.9659139" lon="6.8683535">
      <time>2020-11-11T06:14:23Z</time>
    </trkpt>
    <trkpt lat="50.9661147" lon="6.8684271">
      <time>2020-11-11T06:14:31Z</time>
    </trkpt>
    <trkpt lat="50.9661842" lon="6.8684501">
      <time>2020-11-11T06:14:34Z</time>
    </trkpt>
    <trkpt lat="50.9663507" lon="6.8685759">
      <time>2020-11-11T06:14:41Z</time>
    </trkpt>
    <trkpt lat="50.9663916" lon="6.8685933">
      <time>2020-11-11T06:14:43Z</time>
    </trkpt>
    <trkpt lat="50.9664319" lon="6.8685708">
      <time>2020-11-11T06:14:45Z</time>
    </trkpt>
    <trkpt lat="50.9665630" lon="6.8684646">
      <time>2020-11-11T06:14:51Z</time>
    </trkpt>
    <trkpt lat="50.9666789" lon="6.8684815">
      <time>2020-11-11T06:14:56Z</time>
    </trkpt>
    <trkpt lat="50.9668588" lon="6.8685956">
      <time>2020-11-11T06:15:02Z</time>
    </trkpt>
    <trkpt lat="50.9669122" lon="6.8686162">
      <time>2020-11-11T06:15:04Z</time>
    </trkpt>
    <trkpt lat="50.9670911" lon="6.8687211">
      <time>2020-11-11T06:15:11Z</time>
    </trkpt>
    <trkpt lat="50.9671173" lon="6.8687327">
      <time>2020-11-11T06:15:12Z</time>
    </trkpt>
    <trkpt lat="50.9672320" lon="6.8687601">
      <time>2020-11-11T06:15:16Z</time>
    </trkpt>
    <trkpt lat="50.9672857" lon="6.8687872">
      <time>2020-11-11T06:15:18Z</time>
    </trkpt>
    <trkpt lat="50.9674581" lon="6.8688907">
      <time>2020-11-11T06:15:25Z</time>
    </trkpt>
    <trkpt lat="50.9674789" lon="6.8689070">
      <time>2020-11-11T06:15:26Z</time>
    </trkpt>
    <trkpt lat="50.9676249" lon="6.8689817">
      <time>2020-11-11T06:15:32Z</time>
    </trkpt>
    <trkpt lat="50.9677408" lon="6.8690257">
      <time>2020-11-11T06:15:37Z</time>
    </trkpt>
    <trkpt lat="50.9677917" lon="6.8690506">
      <time>2020-11-11T06:15:39Z</time>
    </trkpt>
    <trkpt lat="50.9678928" lon="6.8690788">
      <time>2020-11-11T06:15:43Z</time>
    </trkpt>
    <trkpt lat="50.9680045" lon="6.8690917">
      <time>2020-11-11T06:15:48Z</time>
    </trkpt>
    <trkpt lat="50.9681533" lon="6.8691399">
      <time>2020-11-11T06:15:54Z</time>
    </trkpt>
    <trkpt lat="50.9683250" lon="6.8691757">
      <time>2020-11-11T06:16:01Z</time>
    </trkpt>
    <trkpt lat="50.9684987" lon="6.8692530">
      <time>2020-11-11T06:16:07Z</time>
    </trkpt>
    <trkpt lat="50.9685666" lon="6.8693274">
      <time>2020-11-11T06:16:10Z</time>
    </trkpt>
    <trkpt lat="50.9686993" lon="6.8695539">
      <time>2020-11-11T06:16:17Z</time>
    </trkpt>
    <trkpt lat="50.9687326" lon="6.8698243">
      <time>2020-11-11T06:16:23Z</time>
    </trkpt>
    <trkpt lat="50.9687233" lon="6.8701478">
      <time>2020-11-11T06:16:30Z</time>
    </trkpt>
    <trkpt lat="50.9687079" lon="6.8704379">
      <time>2020-11-11T06:16:37Z</time>
    </trkpt>
    <trkpt lat="50.9687030" lon="6.8705292">
      <time>2020-11-11T06:16:39Z</time>
    </trkpt>
    <trkpt lat="50.9686889" lon="6.8708137">
      <time>2020-11-11T06:16:46Z</time>
    </trkpt>
    <trkpt lat="50.9686887" lon="6.8709106">
      <time>2020-11-11T06:16:48Z</time>
    </trkpt>
    <trkpt lat="50.9686790" lon="6.8711999">
      <time>2020-11-11T06:16:54Z</time>
    </trkpt>
    <trkpt lat="50.9686735" lon="6.8715167">
      <time>2020-11-11T06:17:00Z</time>
    </trkpt>
    <trkpt lat="50.9686978" lon="6.8718140">
      <time>2020-11-11T06:17:06Z</time>
    </trkpt>
    <trkpt lat="50.9686963" lon="6.8720568">
      <time>2020-11-11T06:17:12Z</time>
    </trkpt>
    <trkpt lat="50.9686994" lon="6.8721979">
      <time>2020-11-11T06:17:15Z</time>
    </trkpt>
    <trkpt lat="50.9686911" lon="6.8723302">
      <time>2020-11-11T06:17:18Z</time>
    </trkpt>
    <trkpt lat="50.9686869" lon="6.8726269">
      <time>2020-11-11T06:17:25Z</time>
    </trkpt>
    <trkpt lat="50.9686713" lon="6.8729487">
      <time>2020-11-11T06:17:32Z</time>
    </trkpt>
    <trkpt lat="50.9686183" lon="6.8732681">
      <time>2020-11-11T06:17:39Z</time>
    </trkpt>
    <trkpt lat="50.9685973" lon="6.8732984">
      <time>2020-11-11T06:17:40Z</time>
    </trkpt>
    <trkpt lat="50.9684544" lon="6.8733427">
      <time>2020-11-11T06:17:45Z</time>
    </trkpt>
    <trkpt lat="50.9682502" lon="6.8733757">
      <time>2020-11-11T06:17:52Z</time>
    </trkpt>
    <trkpt lat="50.9680725" lon="6.8733479">
      <time>2020-11-11T06:17:58Z</time>
    </trkpt>
    <trkpt lat="50.9680112" lon="6.8733475">
      <time>2020-11-11T06:18:00Z</time>
    </trkpt>
    <trkpt lat="50.9678235" lon="6.8733395">
      <time>2020-11-11T06:18:07Z</time>
    </trkpt>
    <trkpt lat="50.9677931" lon="6.8733436">
      <time>2020-11-11T06:18:08Z</time>
    </trkpt>
    <trkpt lat="50.9675805" lon="6.8733297">
      <time>2020-11-11T06:18:15Z</time>
    </trkpt>
    <trkpt lat="50.9674231" lon="6.8733059">
      <time>2020-11-11T06:18:20Z</time>
    </trkpt>
    <trkpt lat="50.9673960" lon="6.8733083">
      <time>2020-11-11T06:18:21Z</time>
    </trkpt>
    <trkpt lat="50.9673216" lon="6.8733020">
      <time>2020-11-11T06:18:24Z</time>
    </trkpt>
    <trkpt lat="50.9672245" lon="6.8732665">
      <time>2020-11-11T06:18:28Z</time>
    </trkpt>
    <trkpt lat="50.9671041" lon="6.8732652">
      <time>2020-11-11T06:18:33Z</time>
    </trkpt>
    <trkpt lat="50.9669260" lon="6.8732433">
      <time>2020-11-11T06:18:39Z</time>
    </trkpt>
    <trkpt lat="50.9667415" lon="6.8732486">
      <time>2020-11-11T06:18:45Z</time>
    </trkpt>
    <trkpt lat="50.9665924" lon="6.8731569">
      <time>2020-11-11T06:18:51Z</time>
    </trkpt>
    <trkpt lat="50.9664848" lon="6.8730588">
      <time>2020-11-11T06:18:56Z</time>
    </trkpt>
    <trkpt lat="50.9664739" lon="6.8729836">
      <time>2020-11-11T06:18:58Z</time>
    </trkpt>
    <trkpt lat="50.9665125" lon="6.8728227">
      <time>2020-11-11T06:19:02Z</time>
    </trkpt>
    <trkpt lat="50.9665948" lon="6.8725486">
      <time>2020-11-11T06:19:09Z</time>
    </trkpt>
    <trkpt lat="50.9666361" lon="6.8723030">
      <time>2020-11-11T06:19:15Z</time>
    </trkpt>
    <trkpt lat="50.9667154" lon="6.8720617">
      <time>2020-11-11T06:19:22Z</time>
    </trkpt>
    <trkpt lat="50.9667853" lon="6.8718383">
      <time>2020-11-11T06:19:29Z</time>
    </trkpt>
    <trkpt lat="50.9667169" lon="6.8717750">
      <time>2020-11-11T06:19:33Z</time>
    </trkpt>
    <trkpt lat="50.9666659" lon="6.8717692">
      <time>2020-11-11T06:19:35Z</time>
    </trkpt>
    <trkpt lat="50.9666048" lon="6.8717684">
      <time>2020-11-11T06:19:37Z</time>
    </trkpt>
    <trkpt lat="50.9665739" lon="6.8717523">
      <time>2020-11-11T06:19:38Z</time>
    </trkpt>
    <trkpt lat="50.9664229" lon="6.8716767">
      <time>2020-11-11T06:19:44Z</time>
    </trkpt>
    <trkpt lat="50.9663409" lon="6.8715277">
      <time>2020-11-11T06:19:50Z</time>
    </trkpt>
    <trkpt lat="50.9664307" lon="6.8714008">
      <time>2020-11-11T06:19:55Z</time>
    </trkpt>
    <trkpt lat="50.9665666" lon="6.8712491">
      <time>2020-11-11T06:20:01Z</time>
    </trkpt>
    <trkpt lat="50.9666523" lon="6.8710480">
      <time>2020-11-11T06:20:08Z</time>
    </trkpt>
    <trkpt lat="50.9666543" lon="6.8710120">
      <time>2020-11-11T06:20:09Z</time>
    </trkpt>
    <trkpt lat="50.9666608" lon="6.8709157">
      <time>2020-11-11T06:20:12Z</time>
    </trkpt>
    <trkpt lat="50.9666739" lon="6.8706444">
      <time>2020-11-11T06:20:18Z</time>
    </trkpt>
    <trkpt lat="50.9666948" lon="6.8703911">
      <time>2020-11-11T06:20:24Z</time>
    </trkpt>
    <trkpt lat="50.9667340" lon="6.8700656">
      <time>2020-11-11T06:20:31Z</time>
    </trkpt>
    <trkpt lat="50.9667673" lon="6.8698109">
      <time>2020-11-11T06:20:37Z</time>
    </trkpt>
    <trkpt lat="50.9667797" lon="6.8697361">
      <time>2020-11-11T06:20:39Z</time>
    </trkpt>
    <trkpt lat="50.9668125" lon="6.8694742">
      <time>2020-11-11T06:20:46Z</time>
    </trkpt>
    <trkpt lat="50.9668224" lon="6.8694540">
      <time>2020-11-11T06:20:47Z</time>
    </trkpt>
    <trkpt lat="50.9668678" lon="6.8692299">
      <time>2020-11-11T06:20:53Z</time>
    </trkpt>
    <trkpt lat="50.9668806" lon="6.8689701">
      <time>2020-11-11T06:20:58Z</time>
    </trkpt>
    <trkpt lat="50.9668960" lon="6.8688991">
      <time>2020-11-11T06:21:00Z</time>
    </trkpt>
    <trkpt lat="50.9668990" lon="6.8688013">
      <time>2020-11-11T06:21:03Z</time>
    </trkpt>
    <trkpt lat="50.9668584" lon="6.8687423">
      <time>2020-11-11T06:21:05Z</time>
    </trkpt>
    <trkpt lat="50.9667380" lon="6.8686788">
      <time>2020-11-11T06:21:09Z</time>
    </trkpt>
    <trkpt lat="50.9666795" lon="6.8686472">
      <time>2020-11-11T06:21:11Z</time>
    </trkpt>
    <trkpt lat="50.9664849" lon="6.8685857">
      <time>2020-11-11T06:21:18Z</time>
    </trkpt>
    <trkpt lat="50.9663728" lon="6.8687096">
      <time>2020-11-11T06:21:24Z</time>
    </trkpt>
    <trkpt lat="50.9663670" lon="6.8687542">
      <time>2020-11-11T06:21:25Z</time>
    </trkpt>
    <trkpt lat="50.9663462" lon="6.8688795">
      <time>2020-11-11T06:21:28Z</time>
    </trkpt>
    <trkpt lat="50.9662435" lon="6.8691379">
      <time>2020-11-11T06:21:36Z</time>
    </trkpt>
    <trkpt lat="50.9662330" lon="6.8691722">
      <time>2020-11-11T06:21:37Z</time>
    </trkpt>
    <trkpt lat="50.9661579" lon="6.8693913">
      <time>2020-11-11T06:21:43Z</time>
    </trkpt>
    <trkpt lat="50.9660478" lon="6.8696410">
      <time>2020-11-11T06:21:50Z</time>
    </trkpt>
    <trkpt lat="50.9660409" lon="6.8696854">
      <time>2020-11-11T06:21:51Z</time>
    </trkpt>
    <trkpt lat="50.9660087" lon="6.8699584">
      <time>2020-11-11T06:21:57Z</time>
    </trkpt>
    <trkpt lat="50.9659688" lon="6.8702290">
      <time>2020-11-11T06:22:03Z</time>
    </trkpt>
    <trkpt lat="50.9658613" lon="6.8704739">
      <time>2020-11-11T06:22:09Z</time>
    </trkpt>
    <trkpt lat="50.9658301" lon="6.8705434">
      <time>2020-11-11T06:22:11Z</time>
    </trkpt>
    <trkpt lat="50.9657152" lon="6.8707648">
      <time>2020-11-11T06:22:18Z</time>
    </trkpt>
    <trkpt lat="50.9656690" lon="6.8707936">
      <time>2020-11-11T06:22:20Z</time>
    </trkpt>
    <trkpt lat="50.9656608" lon="6.8708724">
      <time>2020-11-11T06:22:22Z</time>
    </trkpt>
    <trkpt lat="50.9656743" lon="6.8709508">
      <time>2020-11-11T06:22:24Z</time>
    </trkpt>
    <trkpt lat="50.9657019" lon="6.8711879">
      <time>2020-11-11T06:22:30Z</time>
    </trkpt>
    <trkpt lat="50.9656944" lon="6.8714887">
      <time>2020-11-11T06:22:37Z</time>
    </trkpt>
    <trkpt lat="50.9656909" lon="6.8715385">
      <time>2020-11-11T06:22:38Z</time>
    </trkpt>
    <trkpt lat="50.9656760" lon="6.8718454">
      <time>2020-11-11T06:22:44Z</time>
    </trkpt>
    <trkpt lat="50.9656640" lon="6.8721327">
      <time>2020-11-11T06:22:50Z</time>
    </trkpt>
    <trkpt lat="50.9656601" lon="6.8721808">
      <time>2020-11-11T06:22:51Z</time>
    </trkpt>
    <trkpt lat="50.9655812" lon="6.8724549">
      <time>2020-11-11T06:22:57Z</time>
    </trkpt>
    <trkpt lat="50.9655680" lon="6.8724911">
      <time>2020-11-11T06:22:58Z</time>
    </trkpt>
    <trkpt lat="50.9655050" lon="6.8727610">
      <time>2020-11-11T06:23:04Z</time>
    </trkpt>
    <trkpt lat="50.9654809" lon="6.8727959">
      <time>2020-11-11T06:23:05Z</time>
    </trkpt>
    <trkpt lat="50.9654438" lon="6.8728542">
      <time>2020-11-11T06:23:07Z</time>
    </trkpt>
    <trkpt lat="50.9654124" lon="6.8729252">
      <time>2020-11-11T06:23:09Z</time>
    </trkpt>
    <trkpt lat="50.9652901" lon="6.8731525">
      <time>2020-11-11T06:23:16Z</time>
    </trkpt>
    <trkpt lat="50.9652479" lon="6.8732121">
      <time>2020-11-11T06:23:18Z</time>
    </trkpt>
    <trkpt lat="50.9651262" lon="6.8734410">
      <time>2020-11-11T06:23:24Z</time>
    </trkpt>
    <trkpt lat="50.9651066" lon="6.8734739">
      <time>2020-11-11T06:23:25Z</time>
    </trkpt>
    <trkpt lat="50.9650084" lon="6.8736336">
      <time>2020-11-11T06:23:30Z</time>
    </trkpt>
    <trkpt lat="50.9648899" lon="6.8738586">
      <time>2020-11-11T06:23:36Z</time>
    </trkpt>
    <trkpt lat="50.9648550" lon="6.8739140">
      <time>2020-11-11T06:23:38Z</time>
    </trkpt>
    <trkpt lat="50.9647673" lon="6.8741953">
      <time>2020-11-11T06:23:45Z</time>
    </trkpt>
    <trkpt lat="50.9647547" lon="6.8742353">
      <time>2020-11-11T06:23:46Z</time>
    </trkpt>
    <trkpt lat="50.9646459" lon="6.8744976">
      <time>2020-11-11T06:23:53Z</time>
    </trkpt>
    <trkpt lat="50.9645812" lon="6.8746460">
      <time>2020-11-11T06:23:57Z</time>
    </trkpt>
    <trkpt lat="50.9645545" lon="6.8747211">
      <time>2020-11-11T06:23:59Z</time>
    </trkpt>
    <trkpt lat="50.9644797" lon="6.8750262">
      <time>2020-11-11T06:24:06Z</time>
    </trkpt>
    <trkpt lat="50.9644214" lon="6.8753313">
      <time>2020-11-11T06:24:13Z</time>
    </trkpt>
    <trkpt lat="50.9643979" lon="6.8754388">
      <time>2020-11-11T06:24:16Z</time>
    </trkpt>
    <trkpt lat="50.9643583" lon="6.8757369">
      <time>2020-11-11T06:24:23Z</time>
    </trkpt>
    <trkpt lat="50.9643347" lon="6.8758495">
      <time>2020-11-11T06:24:26Z</time>
    </trkpt>
    <trkpt lat="50.9642737" lon="6.8761412">
      <time>2020-11-11T06:24:33Z</time>
    </trkpt>
    <trkpt lat="50.9642165" lon="6.8764554">
      <time>2020-11-11T06:24:40Z</time>
    </trkpt>
    <trkpt lat="50.9642009" lon="6.8765357">
      <time>2020-11-11T06:24:42Z</time>
    </trkpt>
    <trkpt lat="50.9641431" lon="6.8768227">
      <time>2020-11-11T06:24:49Z</time>
    </trkpt>
    <trkpt lat="50.9641067" lon="6.8769833">
      <time>2020-11-11T06:24:53Z</time>
    </trkpt>
    <trkpt lat="50.9641028" lon="6.8770277">
      <time>2020-11-11T06:24:54Z</time>
    </trkpt>
    <trkpt lat="50.9640642" lon="6.8772594">
      <time>2020-11-11T06:25:00Z</time>
    </trkpt>
    <trkpt lat="50.9640050" lon="6.8774656">
      <time>2020-11-11T06:25:05Z</time>
    </trkpt>
    <trkpt lat="50.9639128" lon="6.8777442">
      <time>2020-11-11T06:25:12Z</time>
    </trkpt>
    <trkpt lat="50.9639004" lon="6.8777828">
      <time>2020-11-11T06:25:13Z</time>
    </trkpt>
    <trkpt lat="50.9638522" lon="6.8779747">
      <time>2020-11-11T06:25:18Z</time>
    </trkpt>
    <trkpt lat="50.9637912" lon="6.8779751">
      <time>2020-11-11T06:25:20Z</time>
    </trkpt>
    <trkpt lat="50.9637597" lon="6.8779534">
      <time>2020-11-11T06:25:21Z</time>
    </trkpt>
    <trkpt lat="50.9636066" lon="6.8777689">
      <time>2020-11-11T06:25:26Z</time>
    </trkpt>
    <trkpt lat="50.9634567" lon="6.8775406">
      <time>2020-11-11T06:25:32Z</time>
    </trkpt>
    <trkpt lat="50.9633182" lon="6.8773183">
      <time>2020-11-11T06:25:37Z</time>
    </trkpt>
    <trkpt lat="50.9632885" lon="6.8772893">
      <time>2020-11-11T06:25:38Z</time>
    </trkpt>
    <trkpt lat="50.9631502" lon="6.8770462">
      <time>2020-11-11T06:25:44Z</time>
    </trkpt>
    <trkpt lat="50.9630697" lon="6.8768445">
      <time>2020-11-11T06:25:49Z</time>
    </trkpt>
    <trkpt lat="50.9630497" lon="6.8768211">
      <time>2020-11-11T06:25:50Z</time>
    </trkpt>
    <trkpt lat="50.9629720" lon="6.8767931">
      <time>2020-11-11T06:25:53Z</time>
    </trkpt>
    <trkpt lat="50.9628465" lon="6.8766529">
      <time>2020-11-11T06:25:58Z</time>
    </trkpt>
    <trkpt lat="50.9627126" lon="6.8765313">
      <time>2020-11-11T06:26:04Z</time>
    </trkpt>
    <trkpt lat="50.9625247" lon="6.8764694">
      <time>2020-11-11T06:26:12Z</time>
    </trkpt>
    <trkpt lat="50.9623574" lon="6.8764425">
      <time>2020-11-11T06:26:18Z</time>
    </trkpt>
    <trkpt lat="50.9622970" lon="6.8764202">
      <time>2020-11-11T06:26:20Z</time>
    </trkpt>
    <trkpt lat="50.9621667" lon="6.8763900">
      <time>2020-11-11T06:26:25Z</time>
    </trkpt>
    <trkpt lat="50.9621385" lon="6.8763836">
      <time>2020-11-11T06:26:26Z</time>
    </trkpt>
    <trkpt lat="50.9620243" lon="6.8764157">
      <time>2020-11-11T06:26:31Z</time>
    </trkpt>
    <trkpt lat="50.9619798" lon="6.8765290">
      <time>2020-11-11T06:26:36Z</time>
    </trkpt>
    <trkpt lat="50.9619787" lon="6.8765675">
      <time>2020-11-11T06:26:37Z</time>
    </trkpt>
    <trkpt lat="50.9619801" lon="6.8766015">
      <time>2020-11-11T06:26:38Z</time>
    </trkpt>
    <trkpt lat="50.9619570" lon="6.8767996">
      <time>2020-11-11T06:26:44Z</time>
    </trkpt>
    <trkpt lat="50.9619487" lon="6.8768260">
      <time>2020-11-11T06:26:45Z</time>
    </trkpt>
    <trkpt lat="50.9618616" lon="6.8769035">
      <time>2020-11-11T06:26:49Z</time>
    </trkpt>
    <trkpt lat="50.9618124" lon="6.8769292">
      <time>2020-11-11T06:26:51Z</time>
    </trkpt>
    <trkpt lat="50.9617328" lon="6.8769540">
      <time>2020-11-11T06:26:54Z</time>
    </trkpt>
    <trkpt lat="50.9616691" lon="6.8769831">
      <time>2020-11-11T06:26:57Z</time>
    </trkpt>
    <trkpt lat="50.9615892" lon="6.8770195">
      <time>2020-11-11T06:27:00Z</time>
    </trkpt>
    <trkpt lat="50.9615564" lon="6.8770294">
      <time>2020-11-11T06:27:01Z</time>
    </trkpt>
    <trkpt lat="50.9615216" lon="6.8770418">
      <time>2020-11-11T06:27:02Z</time>
    </trkpt>
    <trkpt lat="50.9613634" lon="6.8771501">
      <time>2020-11-11T06:27:08Z</time>
    </trkpt>
    <trkpt lat="50.9612332" lon="6.8771782">
      <time>2020-11-11T06:27:13Z</time>
    </trkpt>
    <trkpt lat="50.9611806" lon="6.8772074">
      <time>2020-11-11T06:27:15Z</time>
    </trkpt>
    <trkpt lat="50.9610862" lon="6.8772782">
      <time>2020-11-11T06:27:20Z</time>
    </trkpt>
    <trkpt lat="50.9609508" lon="6.8773832">
      <time>2020-11-11T06:27:25Z</time>
    </trkpt>
    <trkpt lat="50.9607700" lon="6.8774704">
      <time>2020-11-11T06:27:31Z</time>
    </trkpt>
    <trkpt lat="50.9606101" lon="6.8775272">
      <time>2020-11-11T06:27:37Z</time>
    </trkpt>
    <trkpt lat="50.9604279" lon="6.8775506">
      <time>2020-11-11T06:27:43Z</time>
    </trkpt>
    <trkpt lat="50.9604026" lon="6.8775713">
      <time>2020-11-11T06:27:44Z</time>
    </trkpt>
    <trkpt lat="50.9602308" lon="6.8776681">
      <time>2020-11-11T06:27:50Z</time>
    </trkpt>
    <trkpt lat="50.9600582" lon="6.8775996">
      <time>2020-11-11T06:27:56Z</time>
    </trkpt>
    <trkpt lat="50.9598789" lon="6.8774367">
      <time>2020-11-11T06:28:03Z</time>
    </trkpt>
    <trkpt lat="50.9597632" lon="6.8772226">
      <time>2020-11-11T06:28:09Z</time>
    </trkpt>
    <trkpt lat="50.9597763" lon="6.8770247">
      <time>2020-11-11T06:28:14Z</time>
    </trkpt>
    <trkpt lat="50.9598156" lon="6.8767701">
      <time>2020-11-11T06:28:21Z</time>
    </trkpt>
    <trkpt lat="50.9597839" lon="6.8765103">
      <time>2020-11-11T06:28:28Z</time>
    </trkpt>
    <trkpt lat="50.9597296" lon="6.8762567">
      <time>2020-11-11T06:28:33Z</time>
    </trkpt>
    <trkpt lat="50.9596907" lon="6.8759608">
      <time>2020-11-11T06:28:39Z</time>
    </trkpt>
    <trkpt lat="50.9596894" lon="6.8759239">
      <time>2020-11-11T06:28:40Z</time>
    </trkpt>
    <trkpt lat="50.9596694" lon="6.8756116">
      <time>2020-11-11T06:28:47Z</time>
    </trkpt>
    <trkpt lat="50.9596584" lon="6.8753526">
      <time>2020-11-11T06:28:54Z</time>
    </trkpt>
    <trkpt lat="50.9596606" lon="6.8750793">
      <time>2020-11-11T06:29:00Z</time>
    </trkpt>
    <trkpt lat="50.9596908" lon="6.8748289">
      <time>2020-11-11T06:29:06Z</time>
    </trkpt>
    <trkpt lat="50.9596875" lon="6.8747793">
      <time>2020-11-11T06:29:07Z</time>
    </trkpt>
    <trkpt lat="50.9596943" lon="6.8744794">
      <time>2020-11-11T06:29:13Z</time>
    </trkpt>
    <trkpt lat="50.9597059" lon="6.8743472">
      <time>2020-11-11T06:29:16Z</time>
    </trkpt>
    <trkpt lat="50.9597420" lon="6.8740707">
      <time>2020-11-11T06:29:23Z</time>
    </trkpt>
    <trkpt lat="50.9597625" lon="6.8738163">
      <time>2020-11-11T06:29:29Z</time>
    </trkpt>
    <trkpt lat="50.9597656" lon="6.8735773">
      <time>2020-11-11T06:29:35Z</time>
    </trkpt>
    <trkpt lat="50.9597129" lon="6.8733076">
      <time>2020-11-11T06:29:41Z</time>
    </trkpt>
    <trkpt lat="50.9596782" lon="6.8731082">
      <time>2020-11-11T06:29:47Z</time>
    </trkpt>
    <trkpt lat="50.9596649" lon="6.8729780">
      <time>2020-11-11T06:29:50Z</time>
    </trkpt>
    <trkpt lat="50.9596500" lon="6.8728754">
      <time>2020-11-11T06:29:52Z</time>
    </trkpt>
    <trkpt lat="50.9596212" lon="6.8726925">
      <time>2020-11-11T06:29:57Z</time>
    </trkpt>
    <trkpt lat="50.9595788" lon="6.8724792">
      <time>2020-11-11T06:30:03Z</time>
    </trkpt>
    <trkpt lat="50.9595350" lon="6.8722599">
      <time>2020-11-11T06:30:08Z</time>
    </trkpt>
    <trkpt lat="50.9595011" lon="6.8719622">
      <time>2020-11-11T06:30:16Z</time>
    </trkpt>
    <trkpt lat="50.9594912" lon="6.8719176">
      <time>2020-11-11T06:30:17Z</time>
    </trkpt>
    <trkpt lat="50.9594173" lon="6.8716341">
      <time>2020-11-11T06:30:24Z</time>
    </trkpt>
    <trkpt lat="50.9593944" lon="6.8715571">
      <time>2020-11-11T06:30:26Z</time>
    </trkpt>
    <trkpt lat="50.9593426" lon="6.8713672">
      <time>2020-11-11T06:30:31Z</time>
    </trkpt>
    <trkpt lat="50.9592586" lon="6.8711137">
      <time>2020-11-11T06:30:38Z</time>
    </trkpt>
    <trkpt lat="50.9592483" lon="6.8710547">
      <time>2020-11-11T06:30:40Z</time>
    </trkpt>
    <trkpt lat="50.9591925" lon="6.8707446">
      <time>2020-11-11T06:30:47Z</time>
    </trkpt>
    <trkpt lat="50.9591938" lon="6.8706174">
      <time>2020-11-11T06:30:50Z</time>
    </trkpt>
    <trkpt lat="50.9592218" lon="6.8705581">
      <time>2020-11-11T06:30:52Z</time>
    </trkpt>
    <trkpt lat="50.9592830" lon="6.8704724">
      <time>2020-11-11T06:30:55Z</time>
    </trkpt>
    <trkpt lat="50.9593165" lon="6.8704563">
      <time>2020-11-11T06:30:56Z</time>
    </trkpt>
    <trkpt lat="50.9594788" lon="6.8702909">
      <time>2020-11-11T06:31:02Z</time>
    </trkpt>
    <trkpt lat="50.9595319" lon="6.8702636">
      <time>2020-11-11T06:31:04Z</time>
    </trkpt>
    <trkpt lat="50.9595834" lon="6.8702644">
      <time>2020-11-11T06:31:06Z</time>
    </trkpt>
    <trkpt lat="50.9597034" lon="6.8702461">
      <time>2020-11-11T06:31:11Z</time>
    </trkpt>
    <trkpt lat="50.9599093" lon="6.8702798">
      <time>2020-11-11T06:31:17Z</time>
    </trkpt>
    <trkpt lat="50.9600567" lon="6.8702421">
      <time>2020-11-11T06:31:23Z</time>
    </trkpt>
    <trkpt lat="50.9602000" lon="6.8701962">
      <time>2020-11-11T06:31:29Z</time>
    </trkpt>
    <trkpt lat="50.9603962" lon="6.8701911">
      <time>2020-11-11T06:31:36Z</time>
    </trkpt>
    <trkpt lat="50.9604247" lon="6.8701900">
      <time>2020-11-11T06:31:37Z</time>
    </trkpt>
    <trkpt lat="50.9606108" lon="6.8701353">
      <time>2020-11-11T06:31:44Z</time>
    </trkpt>
    <trkpt lat="50.9606412" lon="6.8701265">
      <time>2020-11-11T06:31:45Z</time>
    </trkpt>
    <trkpt lat="50.9608209" lon="6.8700184">
      <time>2020-11-11T06:31:52Z</time>
    </trkpt>
    <trkpt lat="50.9609919" lon="6.8699189">
      <time>2020-11-11T06:31:58Z</time>
    </trkpt>
    <trkpt lat="50.9611631" lon="6.8698958">
      <time>2020-11-11T06:32:04Z</time>
    </trkpt>
    <trkpt lat="50.9611784" lon="6.8698840">
      <time>2020-11-11T06:32:05Z</time>
    </trkpt>
    <trkpt lat="50.9613270" lon="6.8698660">
      <time>2020-11-11T06:32:10Z</time>
    </trkpt>
    <trkpt lat="50.9615029" lon="6.8697909">
      <time>2020-11-11T06:32:16Z</time>
    </trkpt>
    <trkpt lat="50.9615346" lon="6.8697804">
      <time>2020-11-11T06:32:17Z</time>
    </trkpt>
    <trkpt lat="50.9617009" lon="6.8697103">
      <time>2020-11-11T06:32:23Z</time>
    </trkpt>
    <trkpt lat="50.9618584" lon="6.8696783">
      <time>2020-11-11T06:32:29Z</time>
    </trkpt>
    <trkpt lat="50.9620261" lon="6.8696058">
      <time>2020-11-11T06:32:36Z</time>
    </trkpt>
    <trkpt lat="50.9621870" lon="6.8695609">
      <time>2020-11-11T06:32:42Z</time>
    </trkpt>
    <trkpt lat="50.9623686" lon="6.8695933">
      <time>2020-11-11T06:32:48Z</time>
    </trkpt>
    <trkpt lat="50.9624011" lon="6.8695964">
      <time>2020-11-11T06:32:49Z</time>
    </trkpt>
    <trkpt lat="50.9625324" lon="6.8695837">
      <time>2020-11-11T06:32:54Z</time>
    </trkpt>
    <trkpt lat="50.9626363" lon="6.8695892">
      <time>2020-11-11T06:32:58Z</time>
    </trkpt>
    <trkpt lat="50.9627329" lon="6.8695788">
      <time>2020-11-11T06:33:02Z</time>
    </trkpt>
    <trkpt lat="50.9627686" lon="6.8695529">
      <time>2020-11-11T06:33:04Z</time>
    </trkpt>
    <trkpt lat="50.9629008" lon="6.8695213">
      <time>2020-11-11T06:33:09Z</time>
    </trkpt>
    <trkpt lat="50.9630426" lon="6.8694884">
      <time>2020-11-11T06:33:14Z</time>
    </trkpt>
    <trkpt lat="50.9632311" lon="6.8695170">
      <time>2020-11-11T06:33:20Z</time>
    </trkpt>
    <trkpt lat="50.9632624" lon="6.8695189">
      <time>2020-11-11T06:33:21Z</time>
    </trkpt>
    <trkpt lat="50.9634295" lon="6.8695714">
      <time>2020-11-11T06:33:26Z</time>
    </trkpt>
    <trkpt lat="50.9635995" lon="6.8696221">
      <time>2020-11-11T06:33:32Z</time>
    </trkpt>
    <trkpt lat="50.9636962" lon="6.8696389">
      <time>2020-11-11T06:33:36Z</time>
    </trkpt>
    <trkpt lat="50.9638308" lon="6.8696392">
      <time>2020-11-11T06:33:42Z</time>
    </trkpt>
    <trkpt lat="50.9639452" lon="6.8696328">
      <time>2020-11-11T06:33:48Z</time>
    </trkpt>
    <trkpt lat="50.9640204" lon="6.8695137">
      <time>2020-11-11T06:33:53Z</time>
    </trkpt>
    <trkpt lat="50.9640716" lon="6.8692625">
      <time>2020-11-11T06:33:59Z</time>
    </trkpt>
    <trkpt lat="50.9641224" lon="6.8690152">
      <time>2020-11-11T06:34:05Z</time>
    </trkpt>
    <trkpt lat="50.9641482" lon="6.8689012">
      <time>2020-11-11T06:34:08Z</time>
    </trkpt>
    <trkpt lat="50.9641559" lon="6.8688175">
      <time>2020-11-11T06:34:10Z</time>
    </trkpt>
    <trkpt lat="50.9642083" lon="6.8685148">
      <time>2020-11-11T06:34:18Z</time>
    </trkpt>
    <trkpt lat="50.9642295" lon="6.8682184">
      <time>2020-11-11T06:34:24Z</time>
    </trkpt>
    <trkpt lat="50.9642004" lon="6.8679435">
      <time>2020-11-11T06:34:31Z</time>
    </trkpt>
    <trkpt lat="50.9642192" lon="6.8678936">
      <time>2020-11-11T06:34:33Z</time>
    </trkpt>
    <trkpt lat="50.9642675" lon="6.8678860">
      <time>2020-11-11T06:34:35Z</time>
    </trkpt>
    <trkpt lat="50.9643183" lon="6.8679084">
      <time>2020-11-11T06:34:37Z</time>
    </trkpt>
    <trkpt lat="50.9645015" lon="6.8679348">
      <time>2020-11-11T06:34:43Z</time>
    </trkpt>
    <trkpt lat="50.9646538" lon="6.8679773">
      <time>2020-11-11T06:34:50Z</time>
    </trkpt>
    <trkpt lat="50.9648351" lon="6.8681198">
      <time>2020-11-11T06:34:57Z</time>
    </trkpt>
    <trkpt lat="50.9648521" lon="6.8681452">
      <time>2020-11-11T06:35:00Z</time>
    </trkpt>
    <trkpt lat="50.9648517" lon="6.8681764">
      <time>2020-11-11T06:35:01Z</time>
    </trkpt>
    <trkpt lat="50.9648789" lon="6.8682066">
      <time>2020-11-11T06:35:04Z</time>
    </trkpt>
    <trkpt lat="50.9648972" lon="6.8682238">
      <time>2020-11-11T06:35:05Z</time>
    </trkpt>
    <trkpt lat="50.9650344" lon="6.8683093">
      <time>2020-11-11T06:35:10Z</time>
    </trkpt>
    <trkpt lat="50.9651520" lon="6.8683656">
      <time>2020-11-11T06:35:16Z</time>
    </trkpt>
    <trkpt lat="50.9652024" lon="6.8684483">
      <time>2020-11-11T06:35:21Z</time>
    </trkpt>
    <trkpt lat="50.9652163" lon="6.8684520">
      <time>2020-11-11T06:35:22Z</time>
    </trkpt>
    <trkpt lat="50.9653178" lon="6.8684843">
      <time>2020-11-11T06:35:27Z</time>
    </trkpt>
    <trkpt lat="50.9653805" lon="6.8685113">
      <time>2020-11-11T06:35:31Z</time>
    </trkpt>
    <trkpt lat="50.9654964" lon="6.8685688">
      <time>2020-11-11T06:35:38Z</time>
    </trkpt>
    <trkpt lat="50.9655372" lon="6.8685725">
      <time>2020-11-11T06:35:42Z</time>
    </trkpt>
    <trkpt lat="50.9655528" lon="6.8685762">
      <time>2020-11-11T06:35:43Z</time>
    </trkpt>
    <trkpt lat="50.9656268" lon="6.8685402">
      <time>2020-11-11T06:35:46Z</time>
    </trkpt>
    <trkpt lat="50.9657056" lon="6.8685288">
      <time>2020-11-11T06:35:49Z</time>
    </trkpt>
    <trkpt lat="50.9657275" lon="6.8685565">
      <time>2020-11-11T06:35:50Z</time>
    </trkpt>
    <trkpt lat="50.9657550" lon="6.8686584">
      <time>2020-11-11T06:35:52Z</time>
    </trkpt>
    <trkpt lat="50.9657537" lon="6.8687659">
      <time>2020-11-11T06:35:54Z</time>
    </trkpt>
    <trkpt lat="50.9657576" lon="6.8688073">
      <time>2020-11-11T06:35:55Z</time>
    </trkpt>
    <trkpt lat="50.9657700" lon="6.8689661">
      <time>2020-11-11T06:35:59Z</time>
    </trkpt>
    <trkpt lat="50.9657796" lon="6.8690147">
      <time>2020-11-11T06:36:00Z</time>
    </trkpt>
    <trkpt lat="50.9657950" lon="6.8691380">
      <time>2020-11-11T06:36:03Z</time>
    </trkpt>
    <trkpt lat="50.9658032" lon="6.8694358">
      <time>2020-11-11T06:36:09Z</time>
    </trkpt>
    <trkpt lat="50.9658269" lon="6.8695645">
      <time>2020-11-11T06:36:11Z</time>
    </trkpt>
    <trkpt lat="50.9658980" lon="6.8699321">
      <time>2020-11-11T06:36:17Z</time>
    </trkpt>
    <trkpt lat="50.9658962" lon="6.8699623">
      <time>2020-11-11T06:36:18Z</time>
    </trkpt>
    <trkpt lat="50.9658249" lon="6.8702647">
      <time>2020-11-11T06:36:26Z</time>
    </trkpt>
    <trkpt lat="50.9658044" lon="6.8703109">
      <time>2020-11-11T06:36:27Z</time>
    </trkpt>
    <trkpt lat="50.9656840" lon="6.8705483">
      <time>2020-11-11T06:36:34Z</time>
    </trkpt>
    <trkpt lat="50.9655921" lon="6.8707438">
      <time>2020-11-11T06:36:40Z</time>
    </trkpt>
    <trkpt lat="50.9655939" lon="6.8707822">
      <time>2020-11-11T06:36:41Z</time>
    </trkpt>
    <trkpt lat="50.9656184" lon="6.8708263">
      <time>2020-11-11T06:36:43Z</time>
    </trkpt>
    <trkpt lat="50.9656420" lon="6.8708752">
      <time>2020-11-11T06:36:45Z</time>
    </trkpt>
    <trkpt lat="50.9656522" lon="6.8709583">
      <time>2020-11-11T06:36:47Z</time>
    </trkpt>
    <trkpt lat="50.9656467" lon="6.8710489">
      <time>2020-11-11T06:36:49Z</time>
    </trkpt>
    <trkpt lat="50.9656571" lon="6.8712748">
      <time>2020-11-11T06:36:54Z</time>
    </trkpt>
    <trkpt lat="50.9656291" lon="6.8715753">
      <time>2020-11-11T06:37:01Z</time>
    </trkpt>
    <trkpt lat="50.9656022" lon="6.8717944">
      <time>2020-11-11T06:37:06Z</time>
    </trkpt>
    <trkpt lat="50.9655738" lon="6.8720317">
      <time>2020-11-11T06:37:12Z</time>
    </trkpt>
    <trkpt lat="50.9655729" lon="6.8720907">
      <time>2020-11-11T06:37:13Z</time>
    </trkpt>
    <trkpt lat="50.9655182" lon="6.8723181">
      <time>2020-11-11T06:37:18Z</time>
    </trkpt>
    <trkpt lat="50.9654810" lon="6.8725483">
      <time>2020-11-11T06:37:23Z</time>
    </trkpt>
    <trkpt lat="50.9654183" lon="6.8727634">
      <time>2020-11-11T06:37:28Z</time>
    </trkpt>
    <trkpt lat="50.9653124" lon="6.8729522">
      <time>2020-11-11T06:37:35Z</time>
    </trkpt>
    <trkpt lat="50.9652122" lon="6.8730560">
      <time>2020-11-11T06:37:42Z</time>
    </trkpt>
    <trkpt lat="50.9651001" lon="6.8732260">
      <time>2020-11-11T06:37:49Z</time>
    </trkpt>
    <trkpt lat="50.9651012" lon="6.8732610">
      <time>2020-11-11T06:37:50Z</time>
    </trkpt>
    <trkpt lat="50.9649960" lon="6.8734887">
      <time>2020-11-11T06:37:56Z</time>
    </trkpt>
    <trkpt lat="50.9648651" lon="6.8737293">
      <time>2020-11-11T06:38:03Z</time>
    </trkpt>
    <trkpt lat="50.9647603" lon="6.8739907">
      <time>2020-11-11T06:38:10Z</time>
    </trkpt>
    <trkpt lat="50.9646523" lon="6.8742352">
      <time>2020-11-11T06:38:16Z</time>
    </trkpt>
    <trkpt lat="50.9646372" lon="6.8742837">
      <time>2020-11-11T06:38:17Z</time>
    </trkpt>
    <trkpt lat="50.9645452" lon="6.8745583">
      <time>2020-11-11T06:38:23Z</time>
    </trkpt>
    <trkpt lat="50.9645325" lon="6.8746103">
      <time>2020-11-11T06:38:24Z</time>
    </trkpt>
    <trkpt lat="50.9644579" lon="6.8749181">
      <time>2020-11-11T06:38:31Z</time>
    </trkpt>
    <trkpt lat="50.9644490" lon="6.8749532">
      <time>2020-11-11T06:38:32Z</time>
    </trkpt>
    <trkpt lat="50.9643934" lon="6.8752755">
      <time>2020-11-11T06:38:39Z</time>
    </trkpt>
    <trkpt lat="50.9643697" lon="6.8753593">
      <time>2020-11-11T06:38:41Z</time>
    </trkpt>
    <trkpt lat="50.9642961" lon="6.8756468">
      <time>2020-11-11T06:38:48Z</time>
    </trkpt>
    <trkpt lat="50.9642507" lon="6.8759660">
      <time>2020-11-11T06:38:55Z</time>
    </trkpt>
    <trkpt lat="50.9642050" lon="6.8761879">
      <time>2020-11-11T06:39:00Z</time>
    </trkpt>
    <trkpt lat="50.9641851" lon="6.8762169">
      <time>2020-11-11T06:39:01Z</time>
    </trkpt>
    <trkpt lat="50.9641668" lon="6.8762239">
      <time>2020-11-11T06:39:02Z</time>
    </trkpt>
    <trkpt lat="50.9640936" lon="6.8762112">
      <time>2020-11-11T06:39:04Z</time>
    </trkpt>
    <trkpt lat="50.9639489" lon="6.8762236">
      <time>2020-11-11T06:39:10Z</time>
    </trkpt>
    <trkpt lat="50.9638052" lon="6.8761265">
      <time>2020-11-11T06:39:15Z</time>
    </trkpt>
    <trkpt lat="50.9636300" lon="6.8759977">
      <time>2020-11-11T06:39:21Z</time>
    </trkpt>
    <trkpt lat="50.9636002" lon="6.8759926">
      <time>2020-11-11T06:39:22Z</time>
    </trkpt>
    <trkpt lat="50.9634188" lon="6.8759566">
      <time>2020-11-11T06:39:28Z</time>
    </trkpt>
    <trkpt lat="50.9633619" lon="6.8759219">
      <time>2020-11-11T06:39:31Z</time>
    </trkpt>
  </trkseg></trk>
</gpx>
