<?xml version="1.0" encoding="UTF-8"?>
<gpx version="1.1" creator="Diary FIT converter" xmlns="http://www.topografix.com/GPX/1/1">
  <trk><name>Cycling</name><trkseg>
    <trkpt lat="50.9497873" lon="6.9874344">
      <ele>50.2</ele>
      <time>2019-09-14T15:07:58Z</time>
    </trkpt>
    <trkpt lat="50.9492604" lon="6.9870040">
      <ele>49.8</ele>
      <time>2019-09-14T15:08:09Z</time>
    </trkpt>
    <trkpt lat="50.9487360" lon="6.9865988">
      <ele>54.8</ele>
      <time>2019-09-14T15:08:20Z</time>
    </trkpt>
    <trkpt lat="50.9482940" lon="6.9862553">
      <ele>51.0</ele>
      <time>2019-09-14T15:08:29Z</time>
    </trkpt>
    <trkpt lat="50.9477905" lon="6.9857621">
      <ele>47.2</ele>
      <time>2019-09-14T15:08:40Z</time>
    </trkpt>
    <trkpt lat="50.9477114" lon="6.9856431">
      <ele>46.8</ele>
      <time>2019-09-14T15:08:42Z</time>
    </trkpt>
    <trkpt lat="50.9476185" lon="6.9855587">
      <ele>47.0</ele>
      <time>2019-09-14T15:08:44Z</time>
    </trkpt>
    <trkpt lat="50.9471304" lon="6.9851491">
      <ele>45.4</ele>
      <time>2019-09-14T15:08:54Z</time>
    </trkpt>
    <trkpt lat="50.9466306" lon="6.9847366">
      <ele>44.8</ele>
      <time>2019-09-14T15:09:04Z</time>
    </trkpt>
    <trkpt lat="50.9461627" lon="6.9842589">
      <ele>48.4</ele>
      <time>2019-09-14T15:09:15Z</time>
    </trkpt>
    <trkpt lat="50.9456461" lon="6.9838733">
      <ele>47.8</ele>
      <time>2019-09-14T15:09:25Z</time>
    </trkpt>
    <trkpt lat="50.9451409" lon="6.9834631">
      <ele>47.6</ele>
      <time>2019-09-14T15:09:35Z</time>
    </trkpt>
    <trkpt lat="50.9450472" lon="6.9833633">
      <ele>47.6</ele>
      <time>2019-09-14T15:09:37Z</time>
    </trkpt>
    <trkpt lat="50.9447935" lon="6.9830248">
      <ele>47.2</ele>
      <time>2019-09-14T15:09:43Z</time>
    </trkpt>
    <trkpt lat="50.9445733" lon="6.9827562">
      <ele>46.2</ele>
      <time>2019-09-14T15:09:48Z</time>
    </trkpt>
    <trkpt lat="50.9442183" lon="6.9823589">
      <ele>46.4</ele>
      <time>2019-09-14T15:09:56Z</time>
    </trkpt>
    <trkpt lat="50.9437318" lon="6.9819486">
      <ele>44.8</ele>
      <time>2019-09-14T15:10:06Z</time>
    </trkpt>
    <trkpt lat="50.9432389" lon="6.9815313">
      <ele>45.4</ele>
      <time>2019-09-14T15:10:16Z</time>
    </trkpt>
    <trkpt lat="50.9427631" lon="6.9810637">
      <ele>47.0</ele>
      <time>2019-09-14T15:10:26Z</time>
    </trkpt>
    <trkpt lat="50.9422351" lon="6.9806837">
      <ele>46.8</ele>
      <time>2019-09-14T15:10:36Z</time>
    </trkpt>
    <trkpt lat="50.9418423" lon="6.9803732">
      <ele>45.2</ele>
      <time>2019-09-14T15:10:44Z</time>
    </trkpt>
    <trkpt lat="50.9418052" lon="6.9803355">
      <ele>45.2</ele>
      <time>2019-09-14T15:10:45Z</time>
    </trkpt>
    <trkpt lat="50.9417737" lon="6.9803025">
      <ele>45.2</ele>
      <time>2019-09-14T15:10:46Z</time>
    </trkpt>
    <trkpt lat="50.9417455" lon="6.9802708">
      <ele>45.0</ele>
      <time>2019-09-14T15:10:47Z</time>
    </trkpt>
    <trkpt lat="50.9417027" lon="6.9801320">
      <ele>44.6</ele>
      <time>2019-09-14T15:10:50Z</time>
    </trkpt>
    <trkpt lat="50.9416950" lon="6.9800776">
      <ele>44.6</ele>
      <time>2019-09-14T15:10:51Z</time>
    </trkpt>
    <trkpt lat="50.9416815" lon="6.9800263">
      <ele>44.6</ele>
      <time>2019-09-14T15:10:52Z</time>
    </trkpt>
    <trkpt lat="50.9416636" lon="6.9799756">
      <ele>44.4</ele>
      <time>2019-09-14T15:10:53Z</time>
    </trkpt>
    <trkpt lat="50.9416454" lon="6.9799188">
      <ele>44.4</ele>
      <time>2019-09-14T15:10:54Z</time>
    </trkpt>
    <trkpt lat="50.9416389" lon="6.9798545">
      <ele>44.0</ele>
      <time>2019-09-14T15:10:55Z</time>
    </trkpt>
    <trkpt lat="50.9416396" lon="6.9794112">
      <ele>43.6</ele>
      <time>2019-09-14T15:11:02Z</time>
    </trkpt>
    <trkpt lat="50.9416717" lon="6.9790764">
      <ele>43.4</ele>
      <time>2019-09-14T15:11:07Z</time>
    </trkpt>
    <trkpt lat="50.9416820" lon="6.9790027">
      <ele>43.4</ele>
      <time>2019-09-14T15:11:08Z</time>
    </trkpt>
    <trkpt lat="50.9416940" lon="6.9789328">
      <ele>43.4</ele>
      <time>2019-09-14T15:11:09Z</time>
    </trkpt>
    <trkpt lat="50.9417042" lon="6.9787863">
      <ele>43.4</ele>
      <time>2019-09-14T15:11:11Z</time>
    </trkpt>
    <trkpt lat="50.9416764" lon="6.9786369">
      <ele>43.4</ele>
      <time>2019-09-14T15:11:13Z</time>
    </trkpt>
    <trkpt lat="50.9416466" lon="6.9785770">
      <ele>43.4</ele>
      <time>2019-09-14T15:11:14Z</time>
    </trkpt>
    <trkpt lat="50.9416105" lon="6.9785310">
      <ele>43.4</ele>
      <time>2019-09-14T15:11:15Z</time>
    </trkpt>
    <trkpt lat="50.9415293" lon="6.9784690">
      <ele>43.4</ele>
      <time>2019-09-14T15:11:17Z</time>
    </trkpt>
    <trkpt lat="50.9414873" lon="6.9784471">
      <ele>43.6</ele>
      <time>2019-09-14T15:11:18Z</time>
    </trkpt>
    <trkpt lat="50.9412730" lon="6.9783275">
      <ele>44.2</ele>
      <time>2019-09-14T15:11:23Z</time>
    </trkpt>
    <trkpt lat="50.9412379" lon="6.9782950">
      <ele>44.2</ele>
      <time>2019-09-14T15:11:24Z</time>
    </trkpt>
    <trkpt lat="50.9412052" lon="6.9782584">
      <ele>44.0</ele>
      <time>2019-09-14T15:11:25Z</time>
    </trkpt>
    <trkpt lat="50.9411735" lon="6.9782206">
      <ele>44.0</ele>
      <time>2019-09-14T15:11:26Z</time>
    </trkpt>
    <trkpt lat="50.9411431" lon="6.9781816">
      <ele>44.0</ele>
      <time>2019-09-14T15:11:27Z</time>
    </trkpt>
    <trkpt lat="50.9411147" lon="6.9781371">
      <ele>44.0</ele>
      <time>2019-09-14T15:11:28Z</time>
    </trkpt>
    <trkpt lat="50.9410931" lon="6.9780881">
      <ele>43.8</ele>
      <time>2019-09-14T15:11:29Z</time>
    </trkpt>
    <trkpt lat="50.9410811" lon="6.9780367">
      <ele>43.8</ele>
      <time>2019-09-14T15:11:30Z</time>
    </trkpt>
    <trkpt lat="50.9410771" lon="6.9779824">
      <ele>43.8</ele>
      <time>2019-09-14T15:11:31Z</time>
    </trkpt>
    <trkpt lat="50.9410806" lon="6.9779238">
      <ele>43.8</ele>
      <time>2019-09-14T15:11:32Z</time>
    </trkpt>
    <trkpt lat="50.9410893" lon="6.9778620">
      <ele>43.8</ele>
      <time>2019-09-14T15:11:33Z</time>
    </trkpt>
    <trkpt lat="50.9410995" lon="6.9778035">
      <ele>43.8</ele>
      <time>2019-09-14T15:11:34Z</time>
    </trkpt>
    <trkpt lat="50.9411443" lon="6.9775063">
      <ele>43.2</ele>
      <time>2019-09-14T15:11:39Z</time>
    </trkpt>
    <trkpt lat="50.9411546" lon="6.9772428">
      <ele>42.4</ele>
      <time>2019-09-14T15:11:46Z</time>
    </trkpt>
    <trkpt lat="50.9411313" lon="6.9772068">
      <ele>42.6</ele>
      <time>2019-09-14T15:11:50Z</time>
    </trkpt>
    <trkpt lat="50.9410801" lon="6.9765182">
      <ele>45.2</ele>
      <time>2019-09-14T15:12:51Z</time>
    </trkpt>
    <trkpt lat="50.9410833" lon="6.9764705">
      <ele>45.4</ele>
      <time>2019-09-14T15:12:52Z</time>
    </trkpt>
    <trkpt lat="50.9412029" lon="6.9756123">
      <ele>48.2</ele>
      <time>2019-09-14T15:13:09Z</time>
    </trkpt>
    <trkpt lat="50.9412050" lon="6.9755040">
      <ele>48.4</ele>
      <time>2019-09-14T15:13:11Z</time>
    </trkpt>
    <trkpt lat="50.9412244" lon="6.9752634">
      <ele>49.2</ele>
      <time>2019-09-14T15:13:16Z</time>
    </trkpt>
    <trkpt lat="50.9413344" lon="6.9746147">
      <ele>53.8</ele>
      <time>2019-09-14T15:13:41Z</time>
    </trkpt>
    <trkpt lat="50.9413396" lon="6.9743638">
      <ele>52.0</ele>
      <time>2019-09-14T15:13:57Z</time>
    </trkpt>
    <trkpt lat="50.9414875" lon="6.9739968">
      <ele>55.2</ele>
      <time>2019-09-14T15:23:55Z</time>
    </trkpt>
    <trkpt lat="50.9414963" lon="6.9739383">
      <ele>54.8</ele>
      <time>2019-09-14T15:23:56Z</time>
    </trkpt>
    <trkpt lat="50.9415329" lon="6.9737309">
      <ele>53.8</ele>
      <time>2019-09-14T15:23:59Z</time>
    </trkpt>
    <trkpt lat="50.9415436" lon="6.9732103">
      <ele>53.0</ele>
      <time>2019-09-14T15:24:05Z</time>
    </trkpt>
    <trkpt lat="50.9415867" lon="6.9723182">
      <ele>51.0</ele>
      <time>2019-09-14T15:24:14Z</time>
    </trkpt>
    <trkpt lat="50.9416051" lon="6.9713699">
      <ele>52.8</ele>
      <time>2019-09-14T15:24:23Z</time>
    </trkpt>
    <trkpt lat="50.9416477" lon="6.9704606">
      <ele>53.4</ele>
      <time>2019-09-14T15:24:33Z</time>
    </trkpt>
    <trkpt lat="50.9416563" lon="6.9696058">
      <ele>54.6</ele>
      <time>2019-09-14T15:24:42Z</time>
    </trkpt>
    <trkpt lat="50.9416603" lon="6.9687094">
      <ele>49.6</ele>
      <time>2019-09-14T15:24:53Z</time>
    </trkpt>
    <trkpt lat="50.9416197" lon="6.9677614">
      <ele>50.2</ele>
      <time>2019-09-14T15:25:02Z</time>
    </trkpt>
    <trkpt lat="50.9416084" lon="6.9668835">
      <ele>50.2</ele>
      <time>2019-09-14T15:25:10Z</time>
    </trkpt>
    <trkpt lat="50.9416130" lon="6.9659230">
      <ele>47.0</ele>
      <time>2019-09-14T15:25:18Z</time>
    </trkpt>
    <trkpt lat="50.9416395" lon="6.9650578">
      <ele>47.2</ele>
      <time>2019-09-14T15:25:26Z</time>
    </trkpt>
    <trkpt lat="50.9416725" lon="6.9641376">
      <ele>41.6</ele>
      <time>2019-09-14T15:25:34Z</time>
    </trkpt>
    <trkpt lat="50.9416856" lon="6.9631468">
      <ele>38.6</ele>
      <time>2019-09-14T15:25:41Z</time>
    </trkpt>
    <trkpt lat="50.9417798" lon="6.9621565">
      <ele>39.2</ele>
      <time>2019-09-14T15:25:48Z</time>
    </trkpt>
    <trkpt lat="50.9419547" lon="6.9613201">
      <ele>42.6</ele>
      <time>2019-09-14T15:25:53Z</time>
    </trkpt>
    <trkpt lat="50.9423389" lon="6.9605991">
      <ele>43.0</ele>
      <time>2019-09-14T15:25:59Z</time>
    </trkpt>
    <trkpt lat="50.9426085" lon="6.9602071">
      <ele>43.2</ele>
      <time>2019-09-14T15:26:03Z</time>
    </trkpt>
    <trkpt lat="50.9430268" lon="6.9596005">
      <ele>43.0</ele>
      <time>2019-09-14T15:26:10Z</time>
    </trkpt>
    <trkpt lat="50.9433399" lon="6.9591970">
      <ele>43.0</ele>
      <time>2019-09-14T15:26:16Z</time>
    </trkpt>
    <trkpt lat="50.9434660" lon="6.9589596">
      <ele>43.0</ele>
      <time>2019-09-14T15:26:19Z</time>
    </trkpt>
    <trkpt lat="50.9435085" lon="6.9588970">
      <ele>43.2</ele>
      <time>2019-09-14T15:26:20Z</time>
    </trkpt>
    <trkpt lat="50.9435585" lon="6.9588256">
      <ele>43.4</ele>
      <time>2019-09-14T15:26:22Z</time>
    </trkpt>
    <trkpt lat="50.9441334" lon="6.9585306">
      <ele>47.2</ele>
      <time>2019-09-14T15:26:40Z</time>
    </trkpt>
    <trkpt lat="50.9441697" lon="6.9585643">
      <ele>47.4</ele>
      <time>2019-09-14T15:26:42Z</time>
    </trkpt>
    <trkpt lat="50.9442207" lon="6.9585025">
      <ele>48.2</ele>
      <time>2019-09-14T15:27:28Z</time>
    </trkpt>
    <trkpt lat="50.9447488" lon="6.9581148">
      <ele>54.0</ele>
      <time>2019-09-14T15:27:38Z</time>
    </trkpt>
    <trkpt lat="50.9452608" lon="6.9576179">
      <ele>53.0</ele>
      <time>2019-09-14T15:27:44Z</time>
    </trkpt>
    <trkpt lat="50.9456123" lon="6.9569033">
      <ele>54.6</ele>
      <time>2019-09-14T15:27:51Z</time>
    </trkpt>
    <trkpt lat="50.9460087" lon="6.9563228">
      <ele>55.2</ele>
      <time>2019-09-14T15:27:59Z</time>
    </trkpt>
    <trkpt lat="50.9463610" lon="6.9558642">
      <ele>56.2</ele>
      <time>2019-09-14T15:28:06Z</time>
    </trkpt>
    <trkpt lat="50.9465337" lon="6.9555689">
      <ele>56.8</ele>
      <time>2019-09-14T15:28:10Z</time>
    </trkpt>
    <trkpt lat="50.9469379" lon="6.9551100">
      <ele>57.6</ele>
      <time>2019-09-14T15:28:17Z</time>
    </trkpt>
    <trkpt lat="50.9474283" lon="6.9545674">
      <ele>56.8</ele>
      <time>2019-09-14T15:28:23Z</time>
    </trkpt>
    <trkpt lat="50.9478939" lon="6.9540024">
      <ele>56.6</ele>
      <time>2019-09-14T15:28:29Z</time>
    </trkpt>
    <trkpt lat="50.9483612" lon="6.9534602">
      <ele>57.2</ele>
      <time>2019-09-14T15:28:35Z</time>
    </trkpt>
    <trkpt lat="50.9488593" lon="6.9529833">
      <ele>57.6</ele>
      <time>2019-09-14T15:28:41Z</time>
    </trkpt>
    <trkpt lat="50.9491222" lon="6.9527726">
      <ele>57.8</ele>
      <time>2019-09-14T15:28:44Z</time>
    </trkpt>
    <trkpt lat="50.9496174" lon="6.9522914">
      <ele>58.6</ele>
      <time>2019-09-14T15:28:52Z</time>
    </trkpt>
    <trkpt lat="50.9497443" lon="6.9522371">
      <ele>59.6</ele>
      <time>2019-09-14T15:29:00Z</time>
    </trkpt>
    <trkpt lat="50.9498086" lon="6.9522323">
      <ele>59.6</ele>
      <time>2019-09-14T15:29:38Z</time>
    </trkpt>
    <trkpt lat="50.9504040" lon="6.9518983">
      <ele>60.0</ele>
      <time>2019-09-14T15:29:47Z</time>
    </trkpt>
    <trkpt lat="50.9506312" lon="6.9517901">
      <ele>60.0</ele>
      <time>2019-09-14T15:29:49Z</time>
    </trkpt>
    <trkpt lat="50.9511992" lon="6.9515494">
      <ele>60.0</ele>
      <time>2019-09-14T15:29:53Z</time>
    </trkpt>
    <trkpt lat="50.9518014" lon="6.9513299">
      <ele>60.2</ele>
      <time>2019-09-14T15:29:57Z</time>
    </trkpt>
    <trkpt lat="50.9524029" lon="6.9510152">
      <ele>60.2</ele>
      <time>2019-09-14T15:30:01Z</time>
    </trkpt>
    <trkpt lat="50.9529774" lon="6.9505925">
      <ele>60.2</ele>
      <time>2019-09-14T15:30:05Z</time>
    </trkpt>
    <trkpt lat="50.9535082" lon="6.9500833">
      <ele>60.4</ele>
      <time>2019-09-14T15:30:09Z</time>
    </trkpt>
    <trkpt lat="50.9540535" lon="6.9494478">
      <ele>60.4</ele>
      <time>2019-09-14T15:30:13Z</time>
    </trkpt>
    <trkpt lat="50.9544784" lon="6.9487755">
      <ele>60.4</ele>
      <time>2019-09-14T15:30:16Z</time>
    </trkpt>
    <trkpt lat="50.9548157" lon="6.9479563">
      <ele>60.2</ele>
      <time>2019-09-14T15:30:19Z</time>
    </trkpt>
    <trkpt lat="50.9550411" lon="6.9470918">
      <ele>60.2</ele>
      <time>2019-09-14T15:30:22Z</time>
    </trkpt>
    <trkpt lat="50.9551678" lon="6.9461884">
      <ele>60.4</ele>
      <time>2019-09-14T15:30:25Z</time>
    </trkpt>
    <trkpt lat="50.9552077" lon="6.9453313">
      <ele>60.6</ele>
      <time>2019-09-14T15:30:28Z</time>
    </trkpt>
    <trkpt lat="50.9551218" lon="6.9444090">
      <ele>61.0</ele>
      <time>2019-09-14T15:30:31Z</time>
    </trkpt>
    <trkpt lat="50.9550174" lon="6.9435620">
      <ele>61.2</ele>
      <time>2019-09-14T15:30:34Z</time>
    </trkpt>
    <trkpt lat="50.9549178" lon="6.9426574">
      <ele>61.4</ele>
      <time>2019-09-14T15:30:37Z</time>
    </trkpt>
    <trkpt lat="50.9547683" lon="6.9416882">
      <ele>61.4</ele>
      <time>2019-09-14T15:30:40Z</time>
    </trkpt>
    <trkpt lat="50.9546673" lon="6.9407185">
      <ele>61.6</ele>
      <time>2019-09-14T15:30:43Z</time>
    </trkpt>
    <trkpt lat="50.9545795" lon="6.9397559">
      <ele>61.8</ele>
      <time>2019-09-14T15:30:46Z</time>
    </trkpt>
    <trkpt lat="50.9544593" lon="6.9388303">
      <ele>62.4</ele>
      <time>2019-09-14T15:30:49Z</time>
    </trkpt>
    <trkpt lat="50.9542775" lon="6.9379762">
      <ele>62.0</ele>
      <time>2019-09-14T15:30:52Z</time>
    </trkpt>
    <trkpt lat="50.9540915" lon="6.9371367">
      <ele>62.2</ele>
      <time>2019-09-14T15:30:55Z</time>
    </trkpt>
    <trkpt lat="50.9538979" lon="6.9363135">
      <ele>62.0</ele>
      <time>2019-09-14T15:30:58Z</time>
    </trkpt>
    <trkpt lat="50.9537097" lon="6.9354806">
      <ele>61.8</ele>
      <time>2019-09-14T15:31:01Z</time>
    </trkpt>
    <trkpt lat="50.9535818" lon="6.9348998">
      <ele>61.6</ele>
      <time>2019-09-14T15:31:03Z</time>
    </trkpt>
    <trkpt lat="50.9533853" lon="6.9340002">
      <ele>61.4</ele>
      <time>2019-09-14T15:31:06Z</time>
    </trkpt>
    <trkpt lat="50.9532036" lon="6.9330481">
      <ele>61.6</ele>
      <time>2019-09-14T15:31:09Z</time>
    </trkpt>
    <trkpt lat="50.9530803" lon="6.9320604">
      <ele>61.6</ele>
      <time>2019-09-14T15:31:12Z</time>
    </trkpt>
    <trkpt lat="50.9529821" lon="6.9310588">
      <ele>61.6</ele>
      <time>2019-09-14T15:31:15Z</time>
    </trkpt>
    <trkpt lat="50.9528829" lon="6.9300325">
      <ele>61.8</ele>
      <time>2019-09-14T15:31:18Z</time>
    </trkpt>
    <trkpt lat="50.9527771" lon="6.9290086">
      <ele>62.0</ele>
      <time>2019-09-14T15:31:21Z</time>
    </trkpt>
    <trkpt lat="50.9526640" lon="6.9279815">
      <ele>62.2</ele>
      <time>2019-09-14T15:31:24Z</time>
    </trkpt>
    <trkpt lat="50.9525655" lon="6.9269509">
      <ele>62.0</ele>
      <time>2019-09-14T15:31:27Z</time>
    </trkpt>
    <trkpt lat="50.9524579" lon="6.9259580">
      <ele>62.0</ele>
      <time>2019-09-14T15:31:30Z</time>
    </trkpt>
    <trkpt lat="50.9523370" lon="6.9249785">
      <ele>62.2</ele>
      <time>2019-09-14T15:31:33Z</time>
    </trkpt>
    <trkpt lat="50.9522147" lon="6.9240077">
      <ele>62.4</ele>
      <time>2019-09-14T15:31:36Z</time>
    </trkpt>
    <trkpt lat="50.9521078" lon="6.9230457">
      <ele>62.8</ele>
      <time>2019-09-14T15:31:39Z</time>
    </trkpt>
    <trkpt lat="50.9520138" lon="6.9220871">
      <ele>62.6</ele>
      <time>2019-09-14T15:31:42Z</time>
    </trkpt>
    <trkpt lat="50.9519866" lon="6.9217579">
      <ele>62.6</ele>
      <time>2019-09-14T15:31:43Z</time>
    </trkpt>
    <trkpt lat="50.9519345" lon="6.9210972">
      <ele>62.4</ele>
      <time>2019-09-14T15:31:45Z</time>
    </trkpt>
    <trkpt lat="50.9518616" lon="6.9201613">
      <ele>62.6</ele>
      <time>2019-09-14T15:31:48Z</time>
    </trkpt>
    <trkpt lat="50.9518215" lon="6.9195788">
      <ele>62.6</ele>
      <time>2019-09-14T15:31:50Z</time>
    </trkpt>
    <trkpt lat="50.9517442" lon="6.9185472">
      <ele>62.6</ele>
      <time>2019-09-14T15:31:54Z</time>
    </trkpt>
    <trkpt lat="50.9517249" lon="6.9183020">
      <ele>62.6</ele>
      <time>2019-09-14T15:31:55Z</time>
    </trkpt>
    <trkpt lat="50.9517061" lon="6.9180605">
      <ele>62.8</ele>
      <time>2019-09-14T15:31:56Z</time>
    </trkpt>
    <trkpt lat="50.9516862" lon="6.9178238">
      <ele>62.8</ele>
      <time>2019-09-14T15:31:57Z</time>
    </trkpt>
    <trkpt lat="50.9516466" lon="6.9172194">
      <ele>62.6</ele>
      <time>2019-09-14T15:32:00Z</time>
    </trkpt>
    <trkpt lat="50.9516296" lon="6.9170479">
      <ele>62.6</ele>
      <time>2019-09-14T15:32:01Z</time>
    </trkpt>
    <trkpt lat="50.9515950" lon="6.9167146">
      <ele>62.8</ele>
      <time>2019-09-14T15:32:03Z</time>
    </trkpt>
    <trkpt lat="50.9515806" lon="6.9165498">
      <ele>62.8</ele>
      <time>2019-09-14T15:32:04Z</time>
    </trkpt>
    <trkpt lat="50.9515714" lon="6.9163881">
      <ele>63.0</ele>
      <time>2019-09-14T15:32:05Z</time>
    </trkpt>
    <trkpt lat="50.9515390" lon="6.9158159">
      <ele>63.2</ele>
      <time>2019-09-14T15:32:09Z</time>
    </trkpt>
    <trkpt lat="50.9515099" lon="6.9154906">
      <ele>63.4</ele>
      <time>2019-09-14T15:32:12Z</time>
    </trkpt>
    <trkpt lat="50.9514233" lon="6.9153532">
      <ele>63.4</ele>
      <time>2019-09-14T15:32:17Z</time>
    </trkpt>
    <trkpt lat="50.9514142" lon="6.9153746">
      <ele>63.6</ele>
      <time>2019-09-14T15:32:18Z</time>
    </trkpt>
    <trkpt lat="50.9514203" lon="6.9154100">
      <ele>63.6</ele>
      <time>2019-09-14T15:32:19Z</time>
    </trkpt>
    <trkpt lat="50.9514222" lon="6.9154191">
      <ele>63.8</ele>
      <time>2019-09-14T15:32:20Z</time>
    </trkpt>
    <trkpt lat="50.9514319" lon="6.9154784">
      <ele>64.0</ele>
      <time>2019-09-14T15:32:21Z</time>
    </trkpt>
    <trkpt lat="50.9512680" lon="6.9156839">
      <ele>57.2</ele>
      <time>2019-09-14T15:33:23Z</time>
    </trkpt>
    <trkpt lat="50.9512503" lon="6.9156814">
      <ele>56.8</ele>
      <time>2019-09-14T15:33:24Z</time>
    </trkpt>
    <trkpt lat="50.9512618" lon="6.9155315">
      <ele>50.8</ele>
      <time>2019-09-14T15:33:33Z</time>
    </trkpt>
    <trkpt lat="50.9512180" lon="6.9154340">
      <ele>52.0</ele>
      <time>2019-09-14T15:33:39Z</time>
    </trkpt>
    <trkpt lat="50.9511782" lon="6.9153900">
      <ele>51.2</ele>
      <time>2019-09-14T15:33:44Z</time>
    </trkpt>
    <trkpt lat="50.9511864" lon="6.9153417">
      <ele>51.4</ele>
      <time>2019-09-14T15:33:45Z</time>
    </trkpt>
    <trkpt lat="50.9515928" lon="6.9147059">
      <ele>49.4</ele>
      <time>2019-09-14T15:33:59Z</time>
    </trkpt>
    <trkpt lat="50.9519783" lon="6.9142314">
      <ele>47.4</ele>
      <time>2019-09-14T15:34:09Z</time>
    </trkpt>
    <trkpt lat="50.9524071" lon="6.9136319">
      <ele>46.0</ele>
      <time>2019-09-14T15:34:20Z</time>
    </trkpt>
    <trkpt lat="50.9528265" lon="6.9130402">
      <ele>45.4</ele>
      <time>2019-09-14T15:34:31Z</time>
    </trkpt>
    <trkpt lat="50.9528913" lon="6.9129161">
      <ele>45.4</ele>
      <time>2019-09-14T15:34:33Z</time>
    </trkpt>
    <trkpt lat="50.9531311" lon="6.9125477">
      <ele>45.2</ele>
      <time>2019-09-14T15:34:40Z</time>
    </trkpt>
    <trkpt lat="50.9532986" lon="6.9122240">
      <ele>43.6</ele>
      <time>2019-09-14T15:34:46Z</time>
    </trkpt>
    <trkpt lat="50.9537194" lon="6.9116140">
      <ele>40.8</ele>
      <time>2019-09-14T15:34:58Z</time>
    </trkpt>
    <trkpt lat="50.9541441" lon="6.9110274">
      <ele>39.2</ele>
      <time>2019-09-14T15:35:09Z</time>
    </trkpt>
    <trkpt lat="50.9542795" lon="6.9109043">
      <ele>38.6</ele>
      <time>2019-09-14T15:35:12Z</time>
    </trkpt>
    <trkpt lat="50.9543368" lon="6.9107886">
      <ele>38.4</ele>
      <time>2019-09-14T15:35:14Z</time>
    </trkpt>
    <trkpt lat="50.9545453" lon="6.9099787">
      <ele>40.6</ele>
      <time>2019-09-14T15:35:24Z</time>
    </trkpt>
    <trkpt lat="50.9548009" lon="6.9091903">
      <ele>42.4</ele>
      <time>2019-09-14T15:35:35Z</time>
    </trkpt>
    <trkpt lat="50.9551023" lon="6.9084075">
      <ele>44.0</ele>
      <time>2019-09-14T15:35:46Z</time>
    </trkpt>
    <trkpt lat="50.9553501" lon="6.9076314">
      <ele>46.4</ele>
      <time>2019-09-14T15:35:56Z</time>
    </trkpt>
    <trkpt lat="50.9556144" lon="6.9068246">
      <ele>48.2</ele>
      <time>2019-09-14T15:36:06Z</time>
    </trkpt>
    <trkpt lat="50.9557386" lon="6.9063339">
      <ele>48.2</ele>
      <time>2019-09-14T15:36:12Z</time>
    </trkpt>
    <trkpt lat="50.9559931" lon="6.9056340">
      <ele>49.0</ele>
      <time>2019-09-14T15:36:22Z</time>
    </trkpt>
    <trkpt lat="50.9562903" lon="6.9048470">
      <ele>50.8</ele>
      <time>2019-09-14T15:36:33Z</time>
    </trkpt>
    <trkpt lat="50.9563202" lon="6.9047057">
      <ele>51.4</ele>
      <time>2019-09-14T15:36:35Z</time>
    </trkpt>
    <trkpt lat="50.9565880" lon="6.9039120">
      <ele>54.4</ele>
      <time>2019-09-14T15:36:47Z</time>
    </trkpt>
    <trkpt lat="50.9568868" lon="6.9031916">
      <ele>55.8</ele>
      <time>2019-09-14T15:36:57Z</time>
    </trkpt>
    <trkpt lat="50.9569816" lon="6.9027198">
      <ele>53.2</ele>
      <time>2019-09-14T15:37:03Z</time>
    </trkpt>
    <trkpt lat="50.9570829" lon="6.9024139">
      <ele>52.6</ele>
      <time>2019-09-14T15:37:07Z</time>
    </trkpt>
    <trkpt lat="50.9571029" lon="6.9023332">
      <ele>52.6</ele>
      <time>2019-09-14T15:37:08Z</time>
    </trkpt>
    <trkpt lat="50.9571281" lon="6.9022434">
      <ele>52.2</ele>
      <time>2019-09-14T15:37:09Z</time>
    </trkpt>
    <trkpt lat="50.9571493" lon="6.9021430">
      <ele>51.8</ele>
      <time>2019-09-14T15:37:10Z</time>
    </trkpt>
    <trkpt lat="50.9571666" lon="6.9020445">
      <ele>51.6</ele>
      <time>2019-09-14T15:37:11Z</time>
    </trkpt>
    <trkpt lat="50.9571841" lon="6.9019512">
      <ele>51.6</ele>
      <time>2019-09-14T15:37:12Z</time>
    </trkpt>
    <trkpt lat="50.9572060" lon="6.9018571">
      <ele>51.6</ele>
      <time>2019-09-14T15:37:13Z</time>
    </trkpt>
    <trkpt lat="50.9572311" lon="6.9017674">
      <ele>51.6</ele>
      <time>2019-09-14T15:37:14Z</time>
    </trkpt>
    <trkpt lat="50.9572571" lon="6.9016804">
      <ele>51.6</ele>
      <time>2019-09-14T15:37:15Z</time>
    </trkpt>
    <trkpt lat="50.9572856" lon="6.9015980">
      <ele>51.6</ele>
      <time>2019-09-14T15:37:16Z</time>
    </trkpt>
    <trkpt lat="50.9573163" lon="6.9015228">
      <ele>51.4</ele>
      <time>2019-09-14T15:37:17Z</time>
    </trkpt>
    <trkpt lat="50.9574709" lon="6.9010921">
      <ele>51.6</ele>
      <time>2019-09-14T15:37:23Z</time>
    </trkpt>
    <trkpt lat="50.9574896" lon="6.9010084">
      <ele>51.6</ele>
      <time>2019-09-14T15:37:24Z</time>
    </trkpt>
    <trkpt lat="50.9575060" lon="6.9009257">
      <ele>51.8</ele>
      <time>2019-09-14T15:37:25Z</time>
    </trkpt>
    <trkpt lat="50.9575497" lon="6.9007650">
      <ele>51.8</ele>
      <time>2019-09-14T15:37:27Z</time>
    </trkpt>
    <trkpt lat="50.9575757" lon="6.9006826">
      <ele>51.8</ele>
      <time>2019-09-14T15:37:28Z</time>
    </trkpt>
    <trkpt lat="50.9577591" lon="6.9002780">
      <ele>50.2</ele>
      <time>2019-09-14T15:37:33Z</time>
    </trkpt>
    <trkpt lat="50.9578003" lon="6.9001958">
      <ele>49.6</ele>
      <time>2019-09-14T15:37:34Z</time>
    </trkpt>
    <trkpt lat="50.9578853" lon="6.9000502">
      <ele>48.6</ele>
      <time>2019-09-14T15:37:36Z</time>
    </trkpt>
    <trkpt lat="50.9579218" lon="6.8999771">
      <ele>48.2</ele>
      <time>2019-09-14T15:37:37Z</time>
    </trkpt>
    <trkpt lat="50.9579579" lon="6.8999079">
      <ele>48.0</ele>
      <time>2019-09-14T15:37:38Z</time>
    </trkpt>
    <trkpt lat="50.9579952" lon="6.8998400">
      <ele>48.0</ele>
      <time>2019-09-14T15:37:39Z</time>
    </trkpt>
    <trkpt lat="50.9581155" lon="6.8996187">
      <ele>47.8</ele>
      <time>2019-09-14T15:37:42Z</time>
    </trkpt>
    <trkpt lat="50.9581539" lon="6.8995424">
      <ele>47.6</ele>
      <time>2019-09-14T15:37:43Z</time>
    </trkpt>
    <trkpt lat="50.9581897" lon="6.8994654">
      <ele>47.6</ele>
      <time>2019-09-14T15:37:44Z</time>
    </trkpt>
    <trkpt lat="50.9582245" lon="6.8993907">
      <ele>47.6</ele>
      <time>2019-09-14T15:37:45Z</time>
    </trkpt>
    <trkpt lat="50.9584885" lon="6.8988371">
      <ele>47.0</ele>
      <time>2019-09-14T15:37:53Z</time>
    </trkpt>
    <trkpt lat="50.9585213" lon="6.8987704">
      <ele>47.0</ele>
      <time>2019-09-14T15:37:54Z</time>
    </trkpt>
    <trkpt lat="50.9586943" lon="6.8984454">
      <ele>46.0</ele>
      <time>2019-09-14T15:37:59Z</time>
    </trkpt>
    <trkpt lat="50.9588322" lon="6.8981750">
      <ele>45.8</ele>
      <time>2019-09-14T15:38:03Z</time>
    </trkpt>
    <trkpt lat="50.9591591" lon="6.8974139">
      <ele>45.0</ele>
      <time>2019-09-14T15:38:13Z</time>
    </trkpt>
    <trkpt lat="50.9594853" lon="6.8967260">
      <ele>44.0</ele>
      <time>2019-09-14T15:38:23Z</time>
    </trkpt>
    <trkpt lat="50.9598136" lon="6.8960296">
      <ele>42.6</ele>
      <time>2019-09-14T15:38:33Z</time>
    </trkpt>
    <trkpt lat="50.9601437" lon="6.8953020">
      <ele>41.0</ele>
      <time>2019-09-14T15:38:43Z</time>
    </trkpt>
    <trkpt lat="50.9604373" lon="6.8946909">
      <ele>40.4</ele>
      <time>2019-09-14T15:38:52Z</time>
    </trkpt>
    <trkpt lat="50.9607999" lon="6.8940515">
      <ele>39.4</ele>
      <time>2019-09-14T15:39:03Z</time>
    </trkpt>
    <trkpt lat="50.9609668" lon="6.8937246">
      <ele>39.0</ele>
      <time>2019-09-14T15:39:09Z</time>
    </trkpt>
    <trkpt lat="50.9613125" lon="6.8930421">
      <ele>35.0</ele>
      <time>2019-09-14T15:39:23Z</time>
    </trkpt>
    <trkpt lat="50.9612681" lon="6.8929286">
      <ele>35.2</ele>
      <time>2019-09-14T15:39:25Z</time>
    </trkpt>
    <trkpt lat="50.9611369" lon="6.8926864">
      <ele>35.4</ele>
      <time>2019-09-14T15:39:30Z</time>
    </trkpt>
    <trkpt lat="50.9611170" lon="6.8925509">
      <ele>35.4</ele>
      <time>2019-09-14T15:39:32Z</time>
    </trkpt>
    <trkpt lat="50.9610744" lon="6.8924408">
      <ele>35.2</ele>
      <time>2019-09-14T15:39:34Z</time>
    </trkpt>
    <trkpt lat="50.9606987" lon="6.8917533">
      <ele>34.2</ele>
      <time>2019-09-14T15:39:46Z</time>
    </trkpt>
    <trkpt lat="50.9603757" lon="6.8910475">
      <ele>36.0</ele>
      <time>2019-09-14T15:39:56Z</time>
    </trkpt>
    <trkpt lat="50.9603496" lon="6.8909739">
      <ele>36.0</ele>
      <time>2019-09-14T15:39:57Z</time>
    </trkpt>
    <trkpt lat="50.9602566" lon="6.8905653">
      <ele>35.8</ele>
      <time>2019-09-14T15:40:02Z</time>
    </trkpt>
    <trkpt lat="50.9602092" lon="6.8902122">
      <ele>35.8</ele>
      <time>2019-09-14T15:40:06Z</time>
    </trkpt>
    <trkpt lat="50.9602838" lon="6.8893600">
      <ele>35.4</ele>
      <time>2019-09-14T15:40:15Z</time>
    </trkpt>
    <trkpt lat="50.9604383" lon="6.8886197">
      <ele>34.4</ele>
      <time>2019-09-14T15:40:24Z</time>
    </trkpt>
    <trkpt lat="50.9603989" lon="6.8883782">
      <ele>34.4</ele>
      <time>2019-09-14T15:40:27Z</time>
    </trkpt>
    <trkpt lat="50.9604088" lon="6.8881322">
      <ele>34.6</ele>
      <time>2019-09-14T15:40:30Z</time>
    </trkpt>
    <trkpt lat="50.9603250" lon="6.8874341">
      <ele>34.8</ele>
      <time>2019-09-14T15:40:39Z</time>
    </trkpt>
    <trkpt lat="50.9601777" lon="6.8865724">
      <ele>35.4</ele>
      <time>2019-09-14T15:40:51Z</time>
    </trkpt>
    <trkpt lat="50.9599340" lon="6.8859607">
      <ele>34.8</ele>
      <time>2019-09-14T15:41:01Z</time>
    </trkpt>
    <trkpt lat="50.9599798" lon="6.8858742">
      <ele>34.6</ele>
      <time>2019-09-14T15:41:04Z</time>
    </trkpt>
    <trkpt lat="50.9605474" lon="6.8858198">
      <ele>36.2</ele>
      <time>2019-09-14T15:41:22Z</time>
    </trkpt>
    <trkpt lat="50.9609296" lon="6.8857123">
      <ele>38.6</ele>
      <time>2019-09-14T15:41:33Z</time>
    </trkpt>
    <trkpt lat="50.9614406" lon="6.8854199">
      <ele>39.4</ele>
      <time>2019-09-14T15:41:46Z</time>
    </trkpt>
    <trkpt lat="50.9617773" lon="6.8851184">
      <ele>40.8</ele>
      <time>2019-09-14T15:41:55Z</time>
    </trkpt>
    <trkpt lat="50.9619318" lon="6.8850430">
      <ele>40.6</ele>
      <time>2019-09-14T15:41:59Z</time>
    </trkpt>
    <trkpt lat="50.9620543" lon="6.8842188">
      <ele>42.4</ele>
      <time>2019-09-14T15:42:12Z</time>
    </trkpt>
    <trkpt lat="50.9621123" lon="6.8838412">
      <ele>42.6</ele>
      <time>2019-09-14T15:42:17Z</time>
    </trkpt>
    <trkpt lat="50.9621387" lon="6.8836121">
      <ele>42.8</ele>
      <time>2019-09-14T15:42:20Z</time>
    </trkpt>
    <trkpt lat="50.9621574" lon="6.8834642">
      <ele>43.0</ele>
      <time>2019-09-14T15:42:22Z</time>
    </trkpt>
    <trkpt lat="50.9622799" lon="6.8826137">
      <ele>43.6</ele>
      <time>2019-09-14T15:42:33Z</time>
    </trkpt>
    <trkpt lat="50.9624098" lon="6.8817730">
      <ele>43.8</ele>
      <time>2019-09-14T15:42:44Z</time>
    </trkpt>
    <trkpt lat="50.9624697" lon="6.8814772">
      <ele>43.6</ele>
      <time>2019-09-14T15:42:48Z</time>
    </trkpt>
    <trkpt lat="50.9626139" lon="6.8805969">
      <ele>42.2</ele>
      <time>2019-09-14T15:43:00Z</time>
    </trkpt>
    <trkpt lat="50.9626506" lon="6.8803975">
      <ele>42.0</ele>
      <time>2019-09-14T15:43:03Z</time>
    </trkpt>
    <trkpt lat="50.9627807" lon="6.8795339">
      <ele>41.4</ele>
      <time>2019-09-14T15:43:16Z</time>
    </trkpt>
    <trkpt lat="50.9628564" lon="6.8790594">
      <ele>41.6</ele>
      <time>2019-09-14T15:43:24Z</time>
    </trkpt>
    <trkpt lat="50.9632734" lon="6.8784749">
      <ele>40.4</ele>
      <time>2019-09-14T15:43:40Z</time>
    </trkpt>
    <trkpt lat="50.9634994" lon="6.8783759">
      <ele>39.0</ele>
      <time>2019-09-14T15:43:46Z</time>
    </trkpt>
    <trkpt lat="50.9636151" lon="6.8782924">
      <ele>38.4</ele>
      <time>2019-09-14T15:43:50Z</time>
    </trkpt>
    <trkpt lat="50.9637424" lon="6.8780193">
      <ele>36.8</ele>
      <time>2019-09-14T15:43:57Z</time>
    </trkpt>
    <trkpt lat="50.9636589" lon="6.8777617">
      <ele>36.8</ele>
      <time>2019-09-14T15:44:02Z</time>
    </trkpt>
    <trkpt lat="50.9633095" lon="6.8770424">
      <ele>38.0</ele>
      <time>2019-09-14T15:44:18Z</time>
    </trkpt>
    <trkpt lat="50.9632063" lon="6.8768016">
      <ele>40.4</ele>
      <time>2019-09-14T15:44:25Z</time>
    </trkpt>
    <trkpt lat="50.9632092" lon="6.8767913">
      <ele>41.2</ele>
      <time>2019-09-14T15:44:27Z</time>
    </trkpt>
  </trkseg></trk>
</gpx>
