<?xml version="1.0" encoding="UTF-8"?>
<gpx version="1.1" creator="Diary FIT converter" xmlns="http://www.topografix.com/GPX/1/1">
  <trk><name>Running</name><trkseg>
    <trkpt lat="50.9631262" lon="6.8769087">
      <time>2021-02-03T18:11:06Z</time>
    </trkpt>
    <trkpt lat="50.9632474" lon="6.8770221">
      <time>2021-02-03T18:11:12Z</time>
    </trkpt>
    <trkpt lat="50.9633860" lon="6.8772071">
      <time>2021-02-03T18:11:19Z</time>
    </trkpt>
    <trkpt lat="50.9635431" lon="6.8774101">
      <time>2021-02-03T18:11:26Z</time>
    </trkpt>
    <trkpt lat="50.9635612" lon="6.8774505">
      <time>2021-02-03T18:11:27Z</time>
    </trkpt>
    <trkpt lat="50.9636177" lon="6.8775958">
      <time>2021-02-03T18:11:31Z</time>
    </trkpt>
    <trkpt lat="50.9636151" lon="6.8776248">
      <time>2021-02-03T18:11:32Z</time>
    </trkpt>
    <trkpt lat="50.9636069" lon="6.8777368">
      <time>2021-02-03T18:11:35Z</time>
    </trkpt>
    <trkpt lat="50.9636177" lon="6.8778049">
      <time>2021-02-03T18:11:37Z</time>
    </trkpt>
    <trkpt lat="50.9636663" lon="6.8778765">
      <time>2021-02-03T18:11:40Z</time>
    </trkpt>
    <trkpt lat="50.9638066" lon="6.8780577">
      <time>2021-02-03T18:11:46Z</time>
    </trkpt>
    <trkpt lat="50.9639157" lon="6.8781973">
      <time>2021-02-03T18:11:51Z</time>
    </trkpt>
    <trkpt lat="50.9640684" lon="6.8783753">
      <time>2021-02-03T18:11:57Z</time>
    </trkpt>
    <trkpt lat="50.9641116" lon="6.8784058">
      <time>2021-02-03T18:11:59Z</time>
    </trkpt>
    <trkpt lat="50.9641876" lon="6.8785257">
      <time>2021-02-03T18:12:03Z</time>
    </trkpt>
    <trkpt lat="50.9642201" lon="6.8785908">
      <time>2021-02-03T18:12:05Z</time>
    </trkpt>
    <trkpt lat="50.9643284" lon="6.8788293">
      <time>2021-02-03T18:12:12Z</time>
    </trkpt>
    <trkpt lat="50.9644700" lon="6.8789668">
      <time>2021-02-03T18:12:18Z</time>
    </trkpt>
    <trkpt lat="50.9645641" lon="6.8790922">
      <time>2021-02-03T18:12:23Z</time>
    </trkpt>
    <trkpt lat="50.9647024" lon="6.8792759">
      <time>2021-02-03T18:12:30Z</time>
    </trkpt>
    <trkpt lat="50.9648686" lon="6.8794235">
      <time>2021-02-03T18:12:37Z</time>
    </trkpt>
    <trkpt lat="50.9648911" lon="6.8794456">
      <time>2021-02-03T18:12:38Z</time>
    </trkpt>
    <trkpt lat="50.9650609" lon="6.8795615">
      <time>2021-02-03T18:12:44Z</time>
    </trkpt>
    <trkpt lat="50.9650809" lon="6.8795864">
      <time>2021-02-03T18:12:45Z</time>
    </trkpt>
    <trkpt lat="50.9651172" lon="6.8796394">
      <time>2021-02-03T18:12:47Z</time>
    </trkpt>
    <trkpt lat="50.9652116" lon="6.8797193">
      <time>2021-02-03T18:12:51Z</time>
    </trkpt>
    <trkpt lat="50.9653174" lon="6.8798378">
      <time>2021-02-03T18:12:56Z</time>
    </trkpt>
    <trkpt lat="50.9653436" lon="6.8798598">
      <time>2021-02-03T18:12:57Z</time>
    </trkpt>
    <trkpt lat="50.9654040" lon="6.8799458">
      <time>2021-02-03T18:13:00Z</time>
    </trkpt>
    <trkpt lat="50.9655747" lon="6.8801297">
      <time>2021-02-03T18:13:08Z</time>
    </trkpt>
    <trkpt lat="50.9657167" lon="6.8803446">
      <time>2021-02-03T18:13:16Z</time>
    </trkpt>
    <trkpt lat="50.9658832" lon="6.8805091">
      <time>2021-02-03T18:13:24Z</time>
    </trkpt>
    <trkpt lat="50.9659886" lon="6.8806440">
      <time>2021-02-03T18:13:30Z</time>
    </trkpt>
    <trkpt lat="50.9661654" lon="6.8807855">
      <time>2021-02-03T18:13:37Z</time>
    </trkpt>
    <trkpt lat="50.9662238" lon="6.8808614">
      <time>2021-02-03T18:13:40Z</time>
    </trkpt>
    <trkpt lat="50.9663300" lon="6.8810151">
      <time>2021-02-03T18:13:46Z</time>
    </trkpt>
    <trkpt lat="50.9663606" lon="6.8812144">
      <time>2021-02-03T18:13:51Z</time>
    </trkpt>
    <trkpt lat="50.9663010" lon="6.8815102">
      <time>2021-02-03T18:13:57Z</time>
    </trkpt>
    <trkpt lat="50.9662875" lon="6.8815561">
      <time>2021-02-03T18:13:58Z</time>
    </trkpt>
    <trkpt lat="50.9661957" lon="6.8818272">
      <time>2021-02-03T18:14:05Z</time>
    </trkpt>
    <trkpt lat="50.9661865" lon="6.8818704">
      <time>2021-02-03T18:14:06Z</time>
    </trkpt>
    <trkpt lat="50.9661443" lon="6.8820269">
      <time>2021-02-03T18:14:10Z</time>
    </trkpt>
    <trkpt lat="50.9661078" lon="6.8821416">
      <time>2021-02-03T18:14:13Z</time>
    </trkpt>
    <trkpt lat="50.9660773" lon="6.8822799">
      <time>2021-02-03T18:14:17Z</time>
    </trkpt>
    <trkpt lat="50.9660787" lon="6.8823374">
      <time>2021-02-03T18:14:19Z</time>
    </trkpt>
    <trkpt lat="50.9659881" lon="6.8824989">
      <time>2021-02-03T18:14:24Z</time>
    </trkpt>
    <trkpt lat="50.9658627" lon="6.8827175">
      <time>2021-02-03T18:14:31Z</time>
    </trkpt>
    <trkpt lat="50.9658244" lon="6.8827877">
      <time>2021-02-03T18:14:33Z</time>
    </trkpt>
    <trkpt lat="50.9657262" lon="6.8830207">
      <time>2021-02-03T18:14:40Z</time>
    </trkpt>
    <trkpt lat="50.9656056" lon="6.8832416">
      <time>2021-02-03T18:14:47Z</time>
    </trkpt>
    <trkpt lat="50.9655083" lon="6.8834266">
      <time>2021-02-03T18:14:53Z</time>
    </trkpt>
    <trkpt lat="50.9654266" lon="6.8836075">
      <time>2021-02-03T18:15:00Z</time>
    </trkpt>
    <trkpt lat="50.9653101" lon="6.8838451">
      <time>2021-02-03T18:15:07Z</time>
    </trkpt>
    <trkpt lat="50.9651919" lon="6.8840540">
      <time>2021-02-03T18:15:15Z</time>
    </trkpt>
    <trkpt lat="50.9650728" lon="6.8842893">
      <time>2021-02-03T18:15:22Z</time>
    </trkpt>
    <trkpt lat="50.9650285" lon="6.8843777">
      <time>2021-02-03T18:15:24Z</time>
    </trkpt>
    <trkpt lat="50.9649424" lon="6.8845556">
      <time>2021-02-03T18:15:29Z</time>
    </trkpt>
    <trkpt lat="50.9649079" lon="6.8846274">
      <time>2021-02-03T18:15:31Z</time>
    </trkpt>
    <trkpt lat="50.9647952" lon="6.8848561">
      <time>2021-02-03T18:15:38Z</time>
    </trkpt>
    <trkpt lat="50.9647613" lon="6.8849259">
      <time>2021-02-03T18:15:40Z</time>
    </trkpt>
    <trkpt lat="50.9646630" lon="6.8851197">
      <time>2021-02-03T18:15:46Z</time>
    </trkpt>
    <trkpt lat="50.9645552" lon="6.8853921">
      <time>2021-02-03T18:15:53Z</time>
    </trkpt>
    <trkpt lat="50.9645054" lon="6.8855110">
      <time>2021-02-03T18:15:56Z</time>
    </trkpt>
    <trkpt lat="50.9644143" lon="6.8856490">
      <time>2021-02-03T18:16:00Z</time>
    </trkpt>
    <trkpt lat="50.9643367" lon="6.8858379">
      <time>2021-02-03T18:16:06Z</time>
    </trkpt>
    <trkpt lat="50.9642318" lon="6.8860923">
      <time>2021-02-03T18:16:13Z</time>
    </trkpt>
    <trkpt lat="50.9641801" lon="6.8862410">
      <time>2021-02-03T18:16:17Z</time>
    </trkpt>
    <trkpt lat="50.9640848" lon="6.8864856">
      <time>2021-02-03T18:16:24Z</time>
    </trkpt>
    <trkpt lat="50.9640202" lon="6.8866351">
      <time>2021-02-03T18:16:28Z</time>
    </trkpt>
    <trkpt lat="50.9639184" lon="6.8867963">
      <time>2021-02-03T18:16:35Z</time>
    </trkpt>
    <trkpt lat="50.9638426" lon="6.8869456">
      <time>2021-02-03T18:16:40Z</time>
    </trkpt>
    <trkpt lat="50.9637618" lon="6.8870648">
      <time>2021-02-03T18:16:44Z</time>
    </trkpt>
    <trkpt lat="50.9636300" lon="6.8872926">
      <time>2021-02-03T18:16:51Z</time>
    </trkpt>
    <trkpt lat="50.9636049" lon="6.8873640">
      <time>2021-02-03T18:16:53Z</time>
    </trkpt>
    <trkpt lat="50.9635900" lon="6.8874039">
      <time>2021-02-03T18:16:54Z</time>
    </trkpt>
    <trkpt lat="50.9634547" lon="6.8876154">
      <time>2021-02-03T18:17:01Z</time>
    </trkpt>
    <trkpt lat="50.9634258" lon="6.8876451">
      <time>2021-02-03T18:17:02Z</time>
    </trkpt>
    <trkpt lat="50.9633302" lon="6.8878384">
      <time>2021-02-03T18:17:08Z</time>
    </trkpt>
    <trkpt lat="50.9633205" lon="6.8878770">
      <time>2021-02-03T18:17:09Z</time>
    </trkpt>
    <trkpt lat="50.9632577" lon="6.8881970">
      <time>2021-02-03T18:17:16Z</time>
    </trkpt>
    <trkpt lat="50.9632408" lon="6.8882236">
      <time>2021-02-03T18:17:17Z</time>
    </trkpt>
    <trkpt lat="50.9631189" lon="6.8884497">
      <time>2021-02-03T18:17:25Z</time>
    </trkpt>
    <trkpt lat="50.9630686" lon="6.8885346">
      <time>2021-02-03T18:17:28Z</time>
    </trkpt>
    <trkpt lat="50.9629504" lon="6.8887467">
      <time>2021-02-03T18:17:35Z</time>
    </trkpt>
    <trkpt lat="50.9628838" lon="6.8890366">
      <time>2021-02-03T18:17:43Z</time>
    </trkpt>
    <trkpt lat="50.9628231" lon="6.8892078">
      <time>2021-02-03T18:17:49Z</time>
    </trkpt>
    <trkpt lat="50.9626996" lon="6.8894541">
      <time>2021-02-03T18:17:57Z</time>
    </trkpt>
    <trkpt lat="50.9626668" lon="6.8895072">
      <time>2021-02-03T18:17:59Z</time>
    </trkpt>
    <trkpt lat="50.9626602" lon="6.8895399">
      <time>2021-02-03T18:18:00Z</time>
    </trkpt>
    <trkpt lat="50.9626256" lon="6.8896459">
      <time>2021-02-03T18:18:03Z</time>
    </trkpt>
    <trkpt lat="50.9625891" lon="6.8897606">
      <time>2021-02-03T18:18:07Z</time>
    </trkpt>
    <trkpt lat="50.9624793" lon="6.8899404">
      <time>2021-02-03T18:18:14Z</time>
    </trkpt>
    <trkpt lat="50.9624614" lon="6.8899685">
      <time>2021-02-03T18:18:15Z</time>
    </trkpt>
    <trkpt lat="50.9623365" lon="6.8901630">
      <time>2021-02-03T18:18:22Z</time>
    </trkpt>
    <trkpt lat="50.9622050" lon="6.8903713">
      <time>2021-02-03T18:18:29Z</time>
    </trkpt>
    <trkpt lat="50.9621908" lon="6.8903996">
      <time>2021-02-03T18:18:30Z</time>
    </trkpt>
    <trkpt lat="50.9621008" lon="6.8906591">
      <time>2021-02-03T18:18:38Z</time>
    </trkpt>
    <trkpt lat="50.9620896" lon="6.8906981">
      <time>2021-02-03T18:18:39Z</time>
    </trkpt>
    <trkpt lat="50.9620161" lon="6.8909597">
      <time>2021-02-03T18:18:47Z</time>
    </trkpt>
    <trkpt lat="50.9620015" lon="6.8909928">
      <time>2021-02-03T18:18:48Z</time>
    </trkpt>
    <trkpt lat="50.9619420" lon="6.8911863">
      <time>2021-02-03T18:18:54Z</time>
    </trkpt>
    <trkpt lat="50.9618309" lon="6.8914251">
      <time>2021-02-03T18:19:02Z</time>
    </trkpt>
    <trkpt lat="50.9618041" lon="6.8914865">
      <time>2021-02-03T18:19:04Z</time>
    </trkpt>
    <trkpt lat="50.9617502" lon="6.8916097">
      <time>2021-02-03T18:19:08Z</time>
    </trkpt>
    <trkpt lat="50.9616874" lon="6.8917536">
      <time>2021-02-03T18:19:13Z</time>
    </trkpt>
    <trkpt lat="50.9616027" lon="6.8919271">
      <time>2021-02-03T18:19:19Z</time>
    </trkpt>
    <trkpt lat="50.9615600" lon="6.8920154">
      <time>2021-02-03T18:19:22Z</time>
    </trkpt>
    <trkpt lat="50.9614986" lon="6.8921623">
      <time>2021-02-03T18:19:27Z</time>
    </trkpt>
    <trkpt lat="50.9614077" lon="6.8924276">
      <time>2021-02-03T18:19:35Z</time>
    </trkpt>
    <trkpt lat="50.9613916" lon="6.8924571">
      <time>2021-02-03T18:19:36Z</time>
    </trkpt>
    <trkpt lat="50.9612624" lon="6.8926872">
      <time>2021-02-03T18:19:44Z</time>
    </trkpt>
    <trkpt lat="50.9611292" lon="6.8929058">
      <time>2021-02-03T18:19:52Z</time>
    </trkpt>
    <trkpt lat="50.9610971" lon="6.8929680">
      <time>2021-02-03T18:19:54Z</time>
    </trkpt>
    <trkpt lat="50.9610043" lon="6.8932414">
      <time>2021-02-03T18:20:02Z</time>
    </trkpt>
    <trkpt lat="50.9609116" lon="6.8935158">
      <time>2021-02-03T18:20:10Z</time>
    </trkpt>
    <trkpt lat="50.9608843" lon="6.8935842">
      <time>2021-02-03T18:20:12Z</time>
    </trkpt>
    <trkpt lat="50.9608373" lon="6.8937058">
      <time>2021-02-03T18:20:16Z</time>
    </trkpt>
    <trkpt lat="50.9607449" lon="6.8938794">
      <time>2021-02-03T18:20:22Z</time>
    </trkpt>
    <trkpt lat="50.9605973" lon="6.8940892">
      <time>2021-02-03T18:20:30Z</time>
    </trkpt>
    <trkpt lat="50.9604689" lon="6.8942518">
      <time>2021-02-03T18:20:37Z</time>
    </trkpt>
    <trkpt lat="50.9603642" lon="6.8944310">
      <time>2021-02-03T18:20:44Z</time>
    </trkpt>
    <trkpt lat="50.9602263" lon="6.8946010">
      <time>2021-02-03T18:20:52Z</time>
    </trkpt>
    <trkpt lat="50.9601719" lon="6.8947395">
      <time>2021-02-03T18:20:57Z</time>
    </trkpt>
    <trkpt lat="50.9601454" lon="6.8948075">
      <time>2021-02-03T18:20:59Z</time>
    </trkpt>
    <trkpt lat="50.9600276" lon="6.8949939">
      <time>2021-02-03T18:21:06Z</time>
    </trkpt>
    <trkpt lat="50.9599145" lon="6.8952016">
      <time>2021-02-03T18:21:14Z</time>
    </trkpt>
    <trkpt lat="50.9597887" lon="6.8954245">
      <time>2021-02-03T18:21:22Z</time>
    </trkpt>
    <trkpt lat="50.9597451" lon="6.8954899">
      <time>2021-02-03T18:21:25Z</time>
    </trkpt>
    <trkpt lat="50.9596389" lon="6.8957266">
      <time>2021-02-03T18:21:33Z</time>
    </trkpt>
    <trkpt lat="50.9595466" lon="6.8959537">
      <time>2021-02-03T18:21:40Z</time>
    </trkpt>
    <trkpt lat="50.9594332" lon="6.8962002">
      <time>2021-02-03T18:21:49Z</time>
    </trkpt>
    <trkpt lat="50.9593514" lon="6.8964169">
      <time>2021-02-03T18:21:56Z</time>
    </trkpt>
    <trkpt lat="50.9592792" lon="6.8965432">
      <time>2021-02-03T18:22:01Z</time>
    </trkpt>
    <trkpt lat="50.9592021" lon="6.8966849">
      <time>2021-02-03T18:22:06Z</time>
    </trkpt>
    <trkpt lat="50.9591538" lon="6.8968496">
      <time>2021-02-03T18:22:12Z</time>
    </trkpt>
    <trkpt lat="50.9590792" lon="6.8970178">
      <time>2021-02-03T18:22:18Z</time>
    </trkpt>
    <trkpt lat="50.9590052" lon="6.8971713">
      <time>2021-02-03T18:22:23Z</time>
    </trkpt>
    <trkpt lat="50.9588841" lon="6.8974298">
      <time>2021-02-03T18:22:31Z</time>
    </trkpt>
    <trkpt lat="50.9587619" lon="6.8976679">
      <time>2021-02-03T18:22:39Z</time>
    </trkpt>
    <trkpt lat="50.9587392" lon="6.8977354">
      <time>2021-02-03T18:22:41Z</time>
    </trkpt>
    <trkpt lat="50.9586640" lon="6.8979610">
      <time>2021-02-03T18:22:48Z</time>
    </trkpt>
    <trkpt lat="50.9585578" lon="6.8982163">
      <time>2021-02-03T18:22:56Z</time>
    </trkpt>
    <trkpt lat="50.9584564" lon="6.8984470">
      <time>2021-02-03T18:23:03Z</time>
    </trkpt>
    <trkpt lat="50.9584158" lon="6.8985023">
      <time>2021-02-03T18:23:05Z</time>
    </trkpt>
    <trkpt lat="50.9583137" lon="6.8986808">
      <time>2021-02-03T18:23:11Z</time>
    </trkpt>
    <trkpt lat="50.9581750" lon="6.8989142">
      <time>2021-02-03T18:23:19Z</time>
    </trkpt>
    <trkpt lat="50.9580675" lon="6.8991219">
      <time>2021-02-03T18:23:26Z</time>
    </trkpt>
    <trkpt lat="50.9580512" lon="6.8991525">
      <time>2021-02-03T18:23:27Z</time>
    </trkpt>
    <trkpt lat="50.9579713" lon="6.8993017">
      <time>2021-02-03T18:23:32Z</time>
    </trkpt>
    <trkpt lat="50.9579372" lon="6.8993527">
      <time>2021-02-03T18:23:34Z</time>
    </trkpt>
    <trkpt lat="50.9577962" lon="6.8995498">
      <time>2021-02-03T18:23:42Z</time>
    </trkpt>
    <trkpt lat="50.9577396" lon="6.8995784">
      <time>2021-02-03T18:23:45Z</time>
    </trkpt>
    <trkpt lat="50.9577041" lon="6.8995296">
      <time>2021-02-03T18:23:47Z</time>
    </trkpt>
    <trkpt lat="50.9576245" lon="6.8993023">
      <time>2021-02-03T18:23:53Z</time>
    </trkpt>
    <trkpt lat="50.9575754" lon="6.8989869">
      <time>2021-02-03T18:24:01Z</time>
    </trkpt>
    <trkpt lat="50.9575664" lon="6.8989524">
      <time>2021-02-03T18:24:02Z</time>
    </trkpt>
    <trkpt lat="50.9575185" lon="6.8986901">
      <time>2021-02-03T18:24:09Z</time>
    </trkpt>
    <trkpt lat="50.9575037" lon="6.8986562">
      <time>2021-02-03T18:24:10Z</time>
    </trkpt>
    <trkpt lat="50.9574616" lon="6.8983586">
      <time>2021-02-03T18:24:18Z</time>
    </trkpt>
    <trkpt lat="50.9573865" lon="6.8981024">
      <time>2021-02-03T18:24:26Z</time>
    </trkpt>
    <trkpt lat="50.9573265" lon="6.8978199">
      <time>2021-02-03T18:24:35Z</time>
    </trkpt>
    <trkpt lat="50.9572671" lon="6.8975327">
      <time>2021-02-03T18:24:44Z</time>
    </trkpt>
    <trkpt lat="50.9572368" lon="6.8972752">
      <time>2021-02-03T18:24:50Z</time>
    </trkpt>
    <trkpt lat="50.9572374" lon="6.8969788">
      <time>2021-02-03T18:24:58Z</time>
    </trkpt>
    <trkpt lat="50.9572315" lon="6.8969452">
      <time>2021-02-03T18:24:59Z</time>
    </trkpt>
    <trkpt lat="50.9571799" lon="6.8966715">
      <time>2021-02-03T18:25:07Z</time>
    </trkpt>
    <trkpt lat="50.9571678" lon="6.8965746">
      <time>2021-02-03T18:25:10Z</time>
    </trkpt>
    <trkpt lat="50.9571176" lon="6.8963234">
      <time>2021-02-03T18:25:18Z</time>
    </trkpt>
    <trkpt lat="50.9570953" lon="6.8960227">
      <time>2021-02-03T18:25:27Z</time>
    </trkpt>
    <trkpt lat="50.9570797" lon="6.8959555">
      <time>2021-02-03T18:25:29Z</time>
    </trkpt>
    <trkpt lat="50.9570454" lon="6.8957525">
      <time>2021-02-03T18:25:35Z</time>
    </trkpt>
    <trkpt lat="50.9570034" lon="6.8955845">
      <time>2021-02-03T18:25:41Z</time>
    </trkpt>
    <trkpt lat="50.9569861" lon="6.8952968">
      <time>2021-02-03T18:25:49Z</time>
    </trkpt>
    <trkpt lat="50.9569810" lon="6.8952565">
      <time>2021-02-03T18:25:50Z</time>
    </trkpt>
    <trkpt lat="50.9569441" lon="6.8949770">
      <time>2021-02-03T18:25:58Z</time>
    </trkpt>
    <trkpt lat="50.9568933" lon="6.8947159">
      <time>2021-02-03T18:26:06Z</time>
    </trkpt>
    <trkpt lat="50.9568726" lon="6.8944853">
      <time>2021-02-03T18:26:13Z</time>
    </trkpt>
    <trkpt lat="50.9568222" lon="6.8941898">
      <time>2021-02-03T18:26:21Z</time>
    </trkpt>
    <trkpt lat="50.9568075" lon="6.8941116">
      <time>2021-02-03T18:26:23Z</time>
    </trkpt>
    <trkpt lat="50.9567683" lon="6.8938150">
      <time>2021-02-03T18:26:31Z</time>
    </trkpt>
    <trkpt lat="50.9567605" lon="6.8937549">
      <time>2021-02-03T18:26:33Z</time>
    </trkpt>
    <trkpt lat="50.9567048" lon="6.8934538">
      <time>2021-02-03T18:26:42Z</time>
    </trkpt>
    <trkpt lat="50.9566964" lon="6.8933907">
      <time>2021-02-03T18:26:44Z</time>
    </trkpt>
    <trkpt lat="50.9566577" lon="6.8931089">
      <time>2021-02-03T18:26:52Z</time>
    </trkpt>
    <trkpt lat="50.9566505" lon="6.8930756">
      <time>2021-02-03T18:26:53Z</time>
    </trkpt>
    <trkpt lat="50.9566033" lon="6.8928076">
      <time>2021-02-03T18:27:01Z</time>
    </trkpt>
    <trkpt lat="50.9565960" lon="6.8927745">
      <time>2021-02-03T18:27:02Z</time>
    </trkpt>
    <trkpt lat="50.9565300" lon="6.8925047">
      <time>2021-02-03T18:27:10Z</time>
    </trkpt>
    <trkpt lat="50.9564747" lon="6.8923050">
      <time>2021-02-03T18:27:17Z</time>
    </trkpt>
    <trkpt lat="50.9564184" lon="6.8921061">
      <time>2021-02-03T18:27:24Z</time>
    </trkpt>
    <trkpt lat="50.9563651" lon="6.8919129">
      <time>2021-02-03T18:27:31Z</time>
    </trkpt>
    <trkpt lat="50.9562636" lon="6.8916605">
      <time>2021-02-03T18:27:40Z</time>
    </trkpt>
    <trkpt lat="50.9561740" lon="6.8914067">
      <time>2021-02-03T18:27:48Z</time>
    </trkpt>
    <trkpt lat="50.9561637" lon="6.8913767">
      <time>2021-02-03T18:27:49Z</time>
    </trkpt>
    <trkpt lat="50.9560855" lon="6.8911711">
      <time>2021-02-03T18:27:56Z</time>
    </trkpt>
    <trkpt lat="50.9559897" lon="6.8909559">
      <time>2021-02-03T18:28:04Z</time>
    </trkpt>
    <trkpt lat="50.9558891" lon="6.8906978">
      <time>2021-02-03T18:28:13Z</time>
    </trkpt>
    <trkpt lat="50.9558171" lon="6.8905312">
      <time>2021-02-03T18:28:19Z</time>
    </trkpt>
    <trkpt lat="50.9557404" lon="6.8903288">
      <time>2021-02-03T18:28:26Z</time>
    </trkpt>
    <trkpt lat="50.9556918" lon="6.8901557">
      <time>2021-02-03T18:28:32Z</time>
    </trkpt>
    <trkpt lat="50.9555921" lon="6.8899055">
      <time>2021-02-03T18:28:40Z</time>
    </trkpt>
    <trkpt lat="50.9555815" lon="6.8898776">
      <time>2021-02-03T18:28:41Z</time>
    </trkpt>
    <trkpt lat="50.9555104" lon="6.8896828">
      <time>2021-02-03T18:28:48Z</time>
    </trkpt>
    <trkpt lat="50.9554236" lon="6.8894507">
      <time>2021-02-03T18:28:56Z</time>
    </trkpt>
    <trkpt lat="50.9553953" lon="6.8892909">
      <time>2021-02-03T18:29:01Z</time>
    </trkpt>
    <trkpt lat="50.9553905" lon="6.8891758">
      <time>2021-02-03T18:29:05Z</time>
    </trkpt>
    <trkpt lat="50.9553758" lon="6.8889033">
      <time>2021-02-03T18:29:13Z</time>
    </trkpt>
    <trkpt lat="50.9553838" lon="6.8885928">
      <time>2021-02-03T18:29:22Z</time>
    </trkpt>
    <trkpt lat="50.9553826" lon="6.8885582">
      <time>2021-02-03T18:29:23Z</time>
    </trkpt>
    <trkpt lat="50.9553875" lon="6.8885117">
      <time>2021-02-03T18:29:25Z</time>
    </trkpt>
    <trkpt lat="50.9553899" lon="6.8884275">
      <time>2021-02-03T18:29:28Z</time>
    </trkpt>
    <trkpt lat="50.9553945" lon="6.8884080">
      <time>2021-02-03T18:29:29Z</time>
    </trkpt>
    <trkpt lat="50.9554120" lon="6.8883681">
      <time>2021-02-03T18:29:32Z</time>
    </trkpt>
    <trkpt lat="50.9554312" lon="6.8883193">
      <time>2021-02-03T18:29:34Z</time>
    </trkpt>
    <trkpt lat="50.9554059" lon="6.8882603">
      <time>2021-02-03T18:29:36Z</time>
    </trkpt>
    <trkpt lat="50.9553751" lon="6.8882045">
      <time>2021-02-03T18:29:37Z</time>
    </trkpt>
    <trkpt lat="50.9553043" lon="6.8880353">
      <time>2021-02-03T18:29:40Z</time>
    </trkpt>
    <trkpt lat="50.9553002" lon="6.8879631">
      <time>2021-02-03T18:29:42Z</time>
    </trkpt>
    <trkpt lat="50.9553047" lon="6.8879210">
      <time>2021-02-03T18:29:43Z</time>
    </trkpt>
    <trkpt lat="50.9553147" lon="6.8878457">
      <time>2021-02-03T18:29:45Z</time>
    </trkpt>
    <trkpt lat="50.9553732" lon="6.8876436">
      <time>2021-02-03T18:29:52Z</time>
    </trkpt>
    <trkpt lat="50.9554102" lon="6.8873220">
      <time>2021-02-03T18:30:01Z</time>
    </trkpt>
    <trkpt lat="50.9554129" lon="6.8872859">
      <time>2021-02-03T18:30:02Z</time>
    </trkpt>
    <trkpt lat="50.9554426" lon="6.8870945">
      <time>2021-02-03T18:30:08Z</time>
    </trkpt>
    <trkpt lat="50.9554330" lon="6.8869121">
      <time>2021-02-03T18:30:13Z</time>
    </trkpt>
    <trkpt lat="50.9554504" lon="6.8866287">
      <time>2021-02-03T18:30:22Z</time>
    </trkpt>
    <trkpt lat="50.9554720" lon="6.8864520">
      <time>2021-02-03T18:30:28Z</time>
    </trkpt>
    <trkpt lat="50.9554804" lon="6.8863955">
      <time>2021-02-03T18:30:30Z</time>
    </trkpt>
    <trkpt lat="50.9555020" lon="6.8861162">
      <time>2021-02-03T18:30:39Z</time>
    </trkpt>
    <trkpt lat="50.9555096" lon="6.8858912">
      <time>2021-02-03T18:30:46Z</time>
    </trkpt>
    <trkpt lat="50.9555178" lon="6.8858022">
      <time>2021-02-03T18:30:49Z</time>
    </trkpt>
    <trkpt lat="50.9555243" lon="6.8856081">
      <time>2021-02-03T18:30:55Z</time>
    </trkpt>
    <trkpt lat="50.9555335" lon="6.8852940">
      <time>2021-02-03T18:31:04Z</time>
    </trkpt>
    <trkpt lat="50.9555805" lon="6.8849952">
      <time>2021-02-03T18:31:13Z</time>
    </trkpt>
    <trkpt lat="50.9555962" lon="6.8847145">
      <time>2021-02-03T18:31:22Z</time>
    </trkpt>
    <trkpt lat="50.9556119" lon="6.8844495">
      <time>2021-02-03T18:31:30Z</time>
    </trkpt>
    <trkpt lat="50.9556164" lon="6.8842394">
      <time>2021-02-03T18:31:37Z</time>
    </trkpt>
    <trkpt lat="50.9556105" lon="6.8839816">
      <time>2021-02-03T18:31:45Z</time>
    </trkpt>
    <trkpt lat="50.9556162" lon="6.8837493">
      <time>2021-02-03T18:31:52Z</time>
    </trkpt>
    <trkpt lat="50.9556150" lon="6.8835353">
      <time>2021-02-03T18:31:58Z</time>
    </trkpt>
    <trkpt lat="50.9556396" lon="6.8832289">
      <time>2021-02-03T18:32:07Z</time>
    </trkpt>
    <trkpt lat="50.9556384" lon="6.8831551">
      <time>2021-02-03T18:32:09Z</time>
    </trkpt>
    <trkpt lat="50.9556440" lon="6.8829478">
      <time>2021-02-03T18:32:15Z</time>
    </trkpt>
    <trkpt lat="50.9556551" lon="6.8827396">
      <time>2021-02-03T18:32:21Z</time>
    </trkpt>
    <trkpt lat="50.9556437" lon="6.8824448">
      <time>2021-02-03T18:32:28Z</time>
    </trkpt>
    <trkpt lat="50.9556247" lon="6.8821360">
      <time>2021-02-03T18:32:37Z</time>
    </trkpt>
    <trkpt lat="50.9556530" lon="6.8818413">
      <time>2021-02-03T18:32:46Z</time>
    </trkpt>
    <trkpt lat="50.9556487" lon="6.8818059">
      <time>2021-02-03T18:32:47Z</time>
    </trkpt>
    <trkpt lat="50.9556464" lon="6.8815000">
      <time>2021-02-03T18:32:56Z</time>
    </trkpt>
    <trkpt lat="50.9556474" lon="6.8814693">
      <time>2021-02-03T18:32:57Z</time>
    </trkpt>
    <trkpt lat="50.9556657" lon="6.8811808">
      <time>2021-02-03T18:33:06Z</time>
    </trkpt>
    <trkpt lat="50.9556588" lon="6.8809166">
      <time>2021-02-03T18:33:14Z</time>
    </trkpt>
    <trkpt lat="50.9556768" lon="6.8806197">
      <time>2021-02-03T18:33:23Z</time>
    </trkpt>
    <trkpt lat="50.9556796" lon="6.8804472">
      <time>2021-02-03T18:33:28Z</time>
    </trkpt>
    <trkpt lat="50.9556791" lon="6.8804073">
      <time>2021-02-03T18:33:29Z</time>
    </trkpt>
    <trkpt lat="50.9557401" lon="6.8801110">
      <time>2021-02-03T18:33:38Z</time>
    </trkpt>
    <trkpt lat="50.9558176" lon="6.8799436">
      <time>2021-02-03T18:33:44Z</time>
    </trkpt>
    <trkpt lat="50.9559010" lon="6.8798015">
      <time>2021-02-03T18:33:50Z</time>
    </trkpt>
    <trkpt lat="50.9560067" lon="6.8796315">
      <time>2021-02-03T18:33:58Z</time>
    </trkpt>
    <trkpt lat="50.9560855" lon="6.8794696">
      <time>2021-02-03T18:34:04Z</time>
    </trkpt>
    <trkpt lat="50.9561937" lon="6.8793072">
      <time>2021-02-03T18:34:11Z</time>
    </trkpt>
    <trkpt lat="50.9563089" lon="6.8791013">
      <time>2021-02-03T18:34:19Z</time>
    </trkpt>
    <trkpt lat="50.9563998" lon="6.8789234">
      <time>2021-02-03T18:34:26Z</time>
    </trkpt>
    <trkpt lat="50.9564795" lon="6.8787340">
      <time>2021-02-03T18:34:33Z</time>
    </trkpt>
    <trkpt lat="50.9565874" lon="6.8785727">
      <time>2021-02-03T18:34:40Z</time>
    </trkpt>
    <trkpt lat="50.9566737" lon="6.8782957">
      <time>2021-02-03T18:34:49Z</time>
    </trkpt>
    <trkpt lat="50.9567893" lon="6.8781255">
      <time>2021-02-03T18:34:56Z</time>
    </trkpt>
    <trkpt lat="50.9569038" lon="6.8778726">
      <time>2021-02-03T18:35:05Z</time>
    </trkpt>
    <trkpt lat="50.9569913" lon="6.8776840">
      <time>2021-02-03T18:35:12Z</time>
    </trkpt>
    <trkpt lat="50.9571095" lon="6.8774792">
      <time>2021-02-03T18:35:20Z</time>
    </trkpt>
    <trkpt lat="50.9572104" lon="6.8771999">
      <time>2021-02-03T18:35:29Z</time>
    </trkpt>
    <trkpt lat="50.9573067" lon="6.8770042">
      <time>2021-02-03T18:35:36Z</time>
    </trkpt>
    <trkpt lat="50.9574314" lon="6.8767884">
      <time>2021-02-03T18:35:44Z</time>
    </trkpt>
    <trkpt lat="50.9575344" lon="6.8765602">
      <time>2021-02-03T18:35:52Z</time>
    </trkpt>
    <trkpt lat="50.9575448" lon="6.8765301">
      <time>2021-02-03T18:35:53Z</time>
    </trkpt>
    <trkpt lat="50.9575532" lon="6.8764993">
      <time>2021-02-03T18:35:54Z</time>
    </trkpt>
    <trkpt lat="50.9575725" lon="6.8764435">
      <time>2021-02-03T18:35:56Z</time>
    </trkpt>
    <trkpt lat="50.9576430" lon="6.8762669">
      <time>2021-02-03T18:36:02Z</time>
    </trkpt>
    <trkpt lat="50.9577198" lon="6.8759734">
      <time>2021-02-03T18:36:11Z</time>
    </trkpt>
    <trkpt lat="50.9577238" lon="6.8759348">
      <time>2021-02-03T18:36:12Z</time>
    </trkpt>
    <trkpt lat="50.9577794" lon="6.8756840">
      <time>2021-02-03T18:36:20Z</time>
    </trkpt>
    <trkpt lat="50.9578287" lon="6.8754020">
      <time>2021-02-03T18:36:29Z</time>
    </trkpt>
    <trkpt lat="50.9578309" lon="6.8751950">
      <time>2021-02-03T18:36:35Z</time>
    </trkpt>
    <trkpt lat="50.9578336" lon="6.8751555">
      <time>2021-02-03T18:36:36Z</time>
    </trkpt>
    <trkpt lat="50.9578462" lon="6.8749366">
      <time>2021-02-03T18:36:42Z</time>
    </trkpt>
    <trkpt lat="50.9578535" lon="6.8748621">
      <time>2021-02-03T18:36:44Z</time>
    </trkpt>
    <trkpt lat="50.9579099" lon="6.8745747">
      <time>2021-02-03T18:36:52Z</time>
    </trkpt>
    <trkpt lat="50.9579133" lon="6.8745425">
      <time>2021-02-03T18:36:53Z</time>
    </trkpt>
    <trkpt lat="50.9579445" lon="6.8743178">
      <time>2021-02-03T18:36:59Z</time>
    </trkpt>
    <trkpt lat="50.9579651" lon="6.8740679">
      <time>2021-02-03T18:37:06Z</time>
    </trkpt>
    <trkpt lat="50.9579817" lon="6.8737747">
      <time>2021-02-03T18:37:14Z</time>
    </trkpt>
    <trkpt lat="50.9579895" lon="6.8736605">
      <time>2021-02-03T18:37:17Z</time>
    </trkpt>
    <trkpt lat="50.9580372" lon="6.8734509">
      <time>2021-02-03T18:37:23Z</time>
    </trkpt>
    <trkpt lat="50.9581041" lon="6.8732318">
      <time>2021-02-03T18:37:30Z</time>
    </trkpt>
    <trkpt lat="50.9582641" lon="6.8731942">
      <time>2021-02-03T18:37:37Z</time>
    </trkpt>
    <trkpt lat="50.9584559" lon="6.8732313">
      <time>2021-02-03T18:37:44Z</time>
    </trkpt>
    <trkpt lat="50.9586295" lon="6.8732319">
      <time>2021-02-03T18:37:51Z</time>
    </trkpt>
    <trkpt lat="50.9588012" lon="6.8732754">
      <time>2021-02-03T18:37:58Z</time>
    </trkpt>
    <trkpt lat="50.9589980" lon="6.8732915">
      <time>2021-02-03T18:38:07Z</time>
    </trkpt>
    <trkpt lat="50.9590435" lon="6.8733007">
      <time>2021-02-03T18:38:09Z</time>
    </trkpt>
    <trkpt lat="50.9591778" lon="6.8733131">
      <time>2021-02-03T18:38:15Z</time>
    </trkpt>
    <trkpt lat="50.9592234" lon="6.8733013">
      <time>2021-02-03T18:38:17Z</time>
    </trkpt>
    <trkpt lat="50.9593344" lon="6.8732453">
      <time>2021-02-03T18:38:23Z</time>
    </trkpt>
    <trkpt lat="50.9594788" lon="6.8731936">
      <time>2021-02-03T18:38:30Z</time>
    </trkpt>
    <trkpt lat="50.9596532" lon="6.8731037">
      <time>2021-02-03T18:38:38Z</time>
    </trkpt>
    <trkpt lat="50.9596741" lon="6.8730919">
      <time>2021-02-03T18:38:39Z</time>
    </trkpt>
    <trkpt lat="50.9597643" lon="6.8730194">
      <time>2021-02-03T18:38:44Z</time>
    </trkpt>
    <trkpt lat="50.9599006" lon="6.8729347">
      <time>2021-02-03T18:38:51Z</time>
    </trkpt>
    <trkpt lat="50.9600402" lon="6.8728748">
      <time>2021-02-03T18:38:57Z</time>
    </trkpt>
    <trkpt lat="50.9600638" lon="6.8728630">
      <time>2021-02-03T18:38:58Z</time>
    </trkpt>
    <trkpt lat="50.9600879" lon="6.8728564">
      <time>2021-02-03T18:38:59Z</time>
    </trkpt>
    <trkpt lat="50.9602699" lon="6.8727791">
      <time>2021-02-03T18:39:07Z</time>
    </trkpt>
    <trkpt lat="50.9604117" lon="6.8727051">
      <time>2021-02-03T18:39:13Z</time>
    </trkpt>
    <trkpt lat="50.9605769" lon="6.8726084">
      <time>2021-02-03T18:39:21Z</time>
    </trkpt>
    <trkpt lat="50.9607000" lon="6.8725141">
      <time>2021-02-03T18:39:27Z</time>
    </trkpt>
    <trkpt lat="50.9607163" lon="6.8724906">
      <time>2021-02-03T18:39:28Z</time>
    </trkpt>
    <trkpt lat="50.9607488" lon="6.8724569">
      <time>2021-02-03T18:39:30Z</time>
    </trkpt>
    <trkpt lat="50.9607734" lon="6.8724451">
      <time>2021-02-03T18:39:31Z</time>
    </trkpt>
    <trkpt lat="50.9609548" lon="6.8723894">
      <time>2021-02-03T18:39:38Z</time>
    </trkpt>
    <trkpt lat="50.9609769" lon="6.8723732">
      <time>2021-02-03T18:39:39Z</time>
    </trkpt>
    <trkpt lat="50.9610210" lon="6.8723344">
      <time>2021-02-03T18:39:41Z</time>
    </trkpt>
    <trkpt lat="50.9610644" lon="6.8723046">
      <time>2021-02-03T18:39:43Z</time>
    </trkpt>
    <trkpt lat="50.9612332" lon="6.8721917">
      <time>2021-02-03T18:39:50Z</time>
    </trkpt>
    <trkpt lat="50.9612592" lon="6.8721767">
      <time>2021-02-03T18:39:51Z</time>
    </trkpt>
    <trkpt lat="50.9613652" lon="6.8721030">
      <time>2021-02-03T18:39:56Z</time>
    </trkpt>
    <trkpt lat="50.9615220" lon="6.8720520">
      <time>2021-02-03T18:40:03Z</time>
    </trkpt>
    <trkpt lat="50.9616989" lon="6.8720175">
      <time>2021-02-03T18:40:10Z</time>
    </trkpt>
    <trkpt lat="50.9618315" lon="6.8720542">
      <time>2021-02-03T18:40:16Z</time>
    </trkpt>
    <trkpt lat="50.9620245" lon="6.8720662">
      <time>2021-02-03T18:40:24Z</time>
    </trkpt>
    <trkpt lat="50.9620642" lon="6.8720580">
      <time>2021-02-03T18:40:26Z</time>
    </trkpt>
    <trkpt lat="50.9620846" lon="6.8720049">
      <time>2021-02-03T18:40:28Z</time>
    </trkpt>
    <trkpt lat="50.9621974" lon="6.8719125">
      <time>2021-02-03T18:40:34Z</time>
    </trkpt>
    <trkpt lat="50.9623149" lon="6.8718612">
      <time>2021-02-03T18:40:40Z</time>
    </trkpt>
    <trkpt lat="50.9624733" lon="6.8717806">
      <time>2021-02-03T18:40:47Z</time>
    </trkpt>
    <trkpt lat="50.9626721" lon="6.8717988">
      <time>2021-02-03T18:40:55Z</time>
    </trkpt>
    <trkpt lat="50.9628486" lon="6.8718607">
      <time>2021-02-03T18:41:03Z</time>
    </trkpt>
    <trkpt lat="50.9629168" lon="6.8718623">
      <time>2021-02-03T18:41:06Z</time>
    </trkpt>
    <trkpt lat="50.9630409" lon="6.8718645">
      <time>2021-02-03T18:41:12Z</time>
    </trkpt>
    <trkpt lat="50.9631264" lon="6.8718350">
      <time>2021-02-03T18:41:17Z</time>
    </trkpt>
    <trkpt lat="50.9631639" lon="6.8718279">
      <time>2021-02-03T18:41:19Z</time>
    </trkpt>
    <trkpt lat="50.9632494" lon="6.8718498">
      <time>2021-02-03T18:41:23Z</time>
    </trkpt>
    <trkpt lat="50.9633946" lon="6.8719110">
      <time>2021-02-03T18:41:28Z</time>
    </trkpt>
    <trkpt lat="50.9635436" lon="6.8719634">
      <time>2021-02-03T18:41:34Z</time>
    </trkpt>
    <trkpt lat="50.9637239" lon="6.8720038">
      <time>2021-02-03T18:41:41Z</time>
    </trkpt>
    <trkpt lat="50.9637463" lon="6.8720039">
      <time>2021-02-03T18:41:42Z</time>
    </trkpt>
    <trkpt lat="50.9638274" lon="6.8720590">
      <time>2021-02-03T18:41:46Z</time>
    </trkpt>
    <trkpt lat="50.9638428" lon="6.8720943">
      <time>2021-02-03T18:41:47Z</time>
    </trkpt>
    <trkpt lat="50.9638591" lon="6.8721684">
      <time>2021-02-03T18:41:49Z</time>
    </trkpt>
    <trkpt lat="50.9638706" lon="6.8723717">
      <time>2021-02-03T18:41:54Z</time>
    </trkpt>
    <trkpt lat="50.9638950" lon="6.8726902">
      <time>2021-02-03T18:42:02Z</time>
    </trkpt>
    <trkpt lat="50.9638589" lon="6.8729553">
      <time>2021-02-03T18:42:09Z</time>
    </trkpt>
    <trkpt lat="50.9638269" lon="6.8732422">
      <time>2021-02-03T18:42:17Z</time>
    </trkpt>
    <trkpt lat="50.9638026" lon="6.8734655">
      <time>2021-02-03T18:42:23Z</time>
    </trkpt>
    <trkpt lat="50.9637913" lon="6.8734903">
      <time>2021-02-03T18:42:24Z</time>
    </trkpt>
    <trkpt lat="50.9637794" lon="6.8735234">
      <time>2021-02-03T18:42:25Z</time>
    </trkpt>
    <trkpt lat="50.9637184" lon="6.8738058">
      <time>2021-02-03T18:42:33Z</time>
    </trkpt>
    <trkpt lat="50.9636488" lon="6.8740683">
      <time>2021-02-03T18:42:40Z</time>
    </trkpt>
    <trkpt lat="50.9635783" lon="6.8743053">
      <time>2021-02-03T18:42:47Z</time>
    </trkpt>
    <trkpt lat="50.9635372" lon="6.8745284">
      <time>2021-02-03T18:42:53Z</time>
    </trkpt>
    <trkpt lat="50.9634891" lon="6.8747535">
      <time>2021-02-03T18:43:00Z</time>
    </trkpt>
    <trkpt lat="50.9634583" lon="6.8749392">
      <time>2021-02-03T18:43:05Z</time>
    </trkpt>
    <trkpt lat="50.9634411" lon="6.8750274">
      <time>2021-02-03T18:43:07Z</time>
    </trkpt>
    <trkpt lat="50.9633799" lon="6.8753122">
      <time>2021-02-03T18:43:15Z</time>
    </trkpt>
    <trkpt lat="50.9633416" lon="6.8754465">
      <time>2021-02-03T18:43:19Z</time>
    </trkpt>
    <trkpt lat="50.9633221" lon="6.8755252">
      <time>2021-02-03T18:43:21Z</time>
    </trkpt>
    <trkpt lat="50.9632682" lon="6.8757624">
      <time>2021-02-03T18:43:28Z</time>
    </trkpt>
    <trkpt lat="50.9632245" lon="6.8759441">
      <time>2021-02-03T18:43:34Z</time>
    </trkpt>
    <trkpt lat="50.9631675" lon="6.8762222">
      <time>2021-02-03T18:43:42Z</time>
    </trkpt>
    <trkpt lat="50.9631508" lon="6.8763030">
      <time>2021-02-03T18:43:44Z</time>
    </trkpt>
    <trkpt lat="50.9631042" lon="6.8765957">
      <time>2021-02-03T18:43:52Z</time>
    </trkpt>
    <trkpt lat="50.9630791" lon="6.8766658">
      <time>2021-02-03T18:43:54Z</time>
    </trkpt>
    <trkpt lat="50.9630566" lon="6.8766784">
      <time>2021-02-03T18:43:55Z</time>
    </trkpt>
    <trkpt lat="50.9629671" lon="6.8766746">
      <time>2021-02-03T18:43:58Z</time>
    </trkpt>
    <trkpt lat="50.9627744" lon="6.8765709">
      <time>2021-02-03T18:44:05Z</time>
    </trkpt>
    <trkpt lat="50.9627500" lon="6.8765575">
      <time>2021-02-03T18:44:06Z</time>
    </trkpt>
    <trkpt lat="50.9625615" lon="6.8764574">
      <time>2021-02-03T18:44:14Z</time>
    </trkpt>
    <trkpt lat="50.9623624" lon="6.8764324">
      <time>2021-02-03T18:44:22Z</time>
    </trkpt>
    <trkpt lat="50.9621960" lon="6.8763884">
      <time>2021-02-03T18:44:29Z</time>
    </trkpt>
    <trkpt lat="50.9621522" lon="6.8763617">
      <time>2021-02-03T18:44:32Z</time>
    </trkpt>
    <trkpt lat="50.9621166" lon="6.8763454">
      <time>2021-02-03T18:44:34Z</time>
    </trkpt>
    <trkpt lat="50.9620671" lon="6.8763683">
      <time>2021-02-03T18:44:37Z</time>
    </trkpt>
    <trkpt lat="50.9620609" lon="6.8764306">
      <time>2021-02-03T18:44:39Z</time>
    </trkpt>
    <trkpt lat="50.9620615" lon="6.8766016">
      <time>2021-02-03T18:44:44Z</time>
    </trkpt>
    <trkpt lat="50.9620471" lon="6.8769141">
      <time>2021-02-03T18:44:52Z</time>
    </trkpt>
    <trkpt lat="50.9620575" lon="6.8770977">
      <time>2021-02-03T18:44:57Z</time>
    </trkpt>
    <trkpt lat="50.9620606" lon="6.8773284">
      <time>2021-02-03T18:45:03Z</time>
    </trkpt>
    <trkpt lat="50.9620451" lon="6.8774829">
      <time>2021-02-03T18:45:08Z</time>
    </trkpt>
    <trkpt lat="50.9620258" lon="6.8776702">
      <time>2021-02-03T18:45:14Z</time>
    </trkpt>
    <trkpt lat="50.9620326" lon="6.8777099">
      <time>2021-02-03T18:45:15Z</time>
    </trkpt>
    <trkpt lat="50.9620363" lon="6.8779649">
      <time>2021-02-03T18:45:21Z</time>
    </trkpt>
    <trkpt lat="50.9620279" lon="6.8781997">
      <time>2021-02-03T18:45:27Z</time>
    </trkpt>
    <trkpt lat="50.9620305" lon="6.8784047">
      <time>2021-02-03T18:45:32Z</time>
    </trkpt>
    <trkpt lat="50.9620239" lon="6.8784841">
      <time>2021-02-03T18:45:34Z</time>
    </trkpt>
    <trkpt lat="50.9620242" lon="6.8786860">
      <time>2021-02-03T18:45:39Z</time>
    </trkpt>
    <trkpt lat="50.9620432" lon="6.8787150">
      <time>2021-02-03T18:45:41Z</time>
    </trkpt>
    <trkpt lat="50.9621626" lon="6.8787943">
      <time>2021-02-03T18:45:48Z</time>
    </trkpt>
    <trkpt lat="50.9623227" lon="6.8788521">
      <time>2021-02-03T18:45:56Z</time>
    </trkpt>
    <trkpt lat="50.9625159" lon="6.8789456">
      <time>2021-02-03T18:46:04Z</time>
    </trkpt>
    <trkpt lat="50.9626918" lon="6.8790509">
      <time>2021-02-03T18:46:12Z</time>
    </trkpt>
    <trkpt lat="50.9627145" lon="6.8790742">
      <time>2021-02-03T18:46:13Z</time>
    </trkpt>
    <trkpt lat="50.9627666" lon="6.8791511">
      <time>2021-02-03T18:46:16Z</time>
    </trkpt>
    <trkpt lat="50.9627770" lon="6.8792533">
      <time>2021-02-03T18:46:19Z</time>
    </trkpt>
    <trkpt lat="50.9627540" lon="6.8794941">
      <time>2021-02-03T18:46:26Z</time>
    </trkpt>
    <trkpt lat="50.9627194" lon="6.8797424">
      <time>2021-02-03T18:46:33Z</time>
    </trkpt>
    <trkpt lat="50.9626845" lon="6.8800317">
      <time>2021-02-03T18:46:40Z</time>
    </trkpt>
    <trkpt lat="50.9626714" lon="6.8801138">
      <time>2021-02-03T18:46:42Z</time>
    </trkpt>
    <trkpt lat="50.9626360" lon="6.8804265">
      <time>2021-02-03T18:46:50Z</time>
    </trkpt>
    <trkpt lat="50.9625916" lon="6.8807291">
      <time>2021-02-03T18:46:58Z</time>
    </trkpt>
    <trkpt lat="50.9625604" lon="6.8810512">
      <time>2021-02-03T18:47:06Z</time>
    </trkpt>
    <trkpt lat="50.9625292" lon="6.8813314">
      <time>2021-02-03T18:47:13Z</time>
    </trkpt>
    <trkpt lat="50.9625159" lon="6.8814541">
      <time>2021-02-03T18:47:16Z</time>
    </trkpt>
    <trkpt lat="50.9624625" lon="6.8817606">
      <time>2021-02-03T18:47:24Z</time>
    </trkpt>
    <trkpt lat="50.9624537" lon="6.8818643">
      <time>2021-02-03T18:47:27Z</time>
    </trkpt>
    <trkpt lat="50.9624028" lon="6.8820836">
      <time>2021-02-03T18:47:33Z</time>
    </trkpt>
    <trkpt lat="50.9623537" lon="6.8823770">
      <time>2021-02-03T18:47:41Z</time>
    </trkpt>
    <trkpt lat="50.9622963" lon="6.8826472">
      <time>2021-02-03T18:47:49Z</time>
    </trkpt>
    <trkpt lat="50.9622543" lon="6.8828275">
      <time>2021-02-03T18:47:55Z</time>
    </trkpt>
    <trkpt lat="50.9622179" lon="6.8830235">
      <time>2021-02-03T18:48:01Z</time>
    </trkpt>
    <trkpt lat="50.9621912" lon="6.8832603">
      <time>2021-02-03T18:48:07Z</time>
    </trkpt>
    <trkpt lat="50.9621559" lon="6.8835789">
      <time>2021-02-03T18:48:15Z</time>
    </trkpt>
    <trkpt lat="50.9621032" lon="6.8838611">
      <time>2021-02-03T18:48:22Z</time>
    </trkpt>
    <trkpt lat="50.9620942" lon="6.8839273">
      <time>2021-02-03T18:48:24Z</time>
    </trkpt>
    <trkpt lat="50.9620545" lon="6.8841797">
      <time>2021-02-03T18:48:32Z</time>
    </trkpt>
    <trkpt lat="50.9620027" lon="6.8841886">
      <time>2021-02-03T18:48:34Z</time>
    </trkpt>
    <trkpt lat="50.9619837" lon="6.8841719">
      <time>2021-02-03T18:48:35Z</time>
    </trkpt>
    <trkpt lat="50.9619101" lon="6.8839205">
      <time>2021-02-03T18:48:42Z</time>
    </trkpt>
    <trkpt lat="50.9618976" lon="6.8838819">
      <time>2021-02-03T18:48:43Z</time>
    </trkpt>
    <trkpt lat="50.9618150" lon="6.8836176">
      <time>2021-02-03T18:48:51Z</time>
    </trkpt>
    <trkpt lat="50.9618056" lon="6.8835900">
      <time>2021-02-03T18:48:52Z</time>
    </trkpt>
    <trkpt lat="50.9617299" lon="6.8833066">
      <time>2021-02-03T18:49:00Z</time>
    </trkpt>
    <trkpt lat="50.9616467" lon="6.8830398">
      <time>2021-02-03T18:49:08Z</time>
    </trkpt>
    <trkpt lat="50.9616043" lon="6.8828694">
      <time>2021-02-03T18:49:13Z</time>
    </trkpt>
    <trkpt lat="50.9615388" lon="6.8826437">
      <time>2021-02-03T18:49:19Z</time>
    </trkpt>
    <trkpt lat="50.9615121" lon="6.8825467">
      <time>2021-02-03T18:49:22Z</time>
    </trkpt>
    <trkpt lat="50.9614468" lon="6.8822652">
      <time>2021-02-03T18:49:30Z</time>
    </trkpt>
    <trkpt lat="50.9614153" lon="6.8821697">
      <time>2021-02-03T18:49:33Z</time>
    </trkpt>
    <trkpt lat="50.9613537" lon="6.8818968">
      <time>2021-02-03T18:49:41Z</time>
    </trkpt>
    <trkpt lat="50.9613437" lon="6.8818628">
      <time>2021-02-03T18:49:42Z</time>
    </trkpt>
    <trkpt lat="50.9612625" lon="6.8816030">
      <time>2021-02-03T18:49:50Z</time>
    </trkpt>
    <trkpt lat="50.9612472" lon="6.8815369">
      <time>2021-02-03T18:49:52Z</time>
    </trkpt>
    <trkpt lat="50.9611737" lon="6.8812552">
      <time>2021-02-03T18:50:00Z</time>
    </trkpt>
    <trkpt lat="50.9611648" lon="6.8812195">
      <time>2021-02-03T18:50:01Z</time>
    </trkpt>
    <trkpt lat="50.9610934" lon="6.8809413">
      <time>2021-02-03T18:50:09Z</time>
    </trkpt>
    <trkpt lat="50.9610700" lon="6.8808719">
      <time>2021-02-03T18:50:11Z</time>
    </trkpt>
    <trkpt lat="50.9609960" lon="6.8805922">
      <time>2021-02-03T18:50:19Z</time>
    </trkpt>
    <trkpt lat="50.9609585" lon="6.8804577">
      <time>2021-02-03T18:50:23Z</time>
    </trkpt>
    <trkpt lat="50.9608774" lon="6.8801826">
      <time>2021-02-03T18:50:31Z</time>
    </trkpt>
    <trkpt lat="50.9608672" lon="6.8801482">
      <time>2021-02-03T18:50:32Z</time>
    </trkpt>
    <trkpt lat="50.9608228" lon="6.8799748">
      <time>2021-02-03T18:50:37Z</time>
    </trkpt>
    <trkpt lat="50.9607663" lon="6.8797326">
      <time>2021-02-03T18:50:44Z</time>
    </trkpt>
    <trkpt lat="50.9607293" lon="6.8794492">
      <time>2021-02-03T18:50:52Z</time>
    </trkpt>
    <trkpt lat="50.9607282" lon="6.8794124">
      <time>2021-02-03T18:50:53Z</time>
    </trkpt>
    <trkpt lat="50.9607461" lon="6.8790855">
      <time>2021-02-03T18:51:01Z</time>
    </trkpt>
    <trkpt lat="50.9608128" lon="6.8788610">
      <time>2021-02-03T18:51:07Z</time>
    </trkpt>
    <trkpt lat="50.9609083" lon="6.8786751">
      <time>2021-02-03T18:51:14Z</time>
    </trkpt>
    <trkpt lat="50.9609904" lon="6.8785556">
      <time>2021-02-03T18:51:19Z</time>
    </trkpt>
    <trkpt lat="50.9611585" lon="6.8784026">
      <time>2021-02-03T18:51:28Z</time>
    </trkpt>
    <trkpt lat="50.9613041" lon="6.8784032">
      <time>2021-02-03T18:51:34Z</time>
    </trkpt>
    <trkpt lat="50.9613484" lon="6.8784207">
      <time>2021-02-03T18:51:36Z</time>
    </trkpt>
    <trkpt lat="50.9614979" lon="6.8785147">
      <time>2021-02-03T18:51:43Z</time>
    </trkpt>
    <trkpt lat="50.9616741" lon="6.8785585">
      <time>2021-02-03T18:51:50Z</time>
    </trkpt>
    <trkpt lat="50.9618460" lon="6.8786239">
      <time>2021-02-03T18:51:57Z</time>
    </trkpt>
    <trkpt lat="50.9619502" lon="6.8786405">
      <time>2021-02-03T18:52:02Z</time>
    </trkpt>
    <trkpt lat="50.9619846" lon="6.8785996">
      <time>2021-02-03T18:52:04Z</time>
    </trkpt>
    <trkpt lat="50.9619930" lon="6.8785668">
      <time>2021-02-03T18:52:05Z</time>
    </trkpt>
    <trkpt lat="50.9619891" lon="6.8784446">
      <time>2021-02-03T18:52:08Z</time>
    </trkpt>
    <trkpt lat="50.9620062" lon="6.8781757">
      <time>2021-02-03T18:52:16Z</time>
    </trkpt>
    <trkpt lat="50.9619971" lon="6.8780742">
      <time>2021-02-03T18:52:19Z</time>
    </trkpt>
    <trkpt lat="50.9619705" lon="6.8780332">
      <time>2021-02-03T18:52:21Z</time>
    </trkpt>
    <trkpt lat="50.9617755" lon="6.8779219">
      <time>2021-02-03T18:52:29Z</time>
    </trkpt>
    <trkpt lat="50.9617458" lon="6.8779100">
      <time>2021-02-03T18:52:30Z</time>
    </trkpt>
    <trkpt lat="50.9615512" lon="6.8778469">
      <time>2021-02-03T18:52:38Z</time>
    </trkpt>
    <trkpt lat="50.9614384" lon="6.8777836">
      <time>2021-02-03T18:52:43Z</time>
    </trkpt>
    <trkpt lat="50.9614173" lon="6.8777743">
      <time>2021-02-03T18:52:44Z</time>
    </trkpt>
    <trkpt lat="50.9612618" lon="6.8776945">
      <time>2021-02-03T18:52:51Z</time>
    </trkpt>
    <trkpt lat="50.9612012" lon="6.8776433">
      <time>2021-02-03T18:52:54Z</time>
    </trkpt>
    <trkpt lat="50.9611547" lon="6.8776326">
      <time>2021-02-03T18:52:56Z</time>
    </trkpt>
    <trkpt lat="50.9609953" lon="6.8776341">
      <time>2021-02-03T18:53:02Z</time>
    </trkpt>
    <trkpt lat="50.9609298" lon="6.8776012">
      <time>2021-02-03T18:53:05Z</time>
    </trkpt>
    <trkpt lat="50.9607647" lon="6.8775817">
      <time>2021-02-03T18:53:11Z</time>
    </trkpt>
    <trkpt lat="50.9605777" lon="6.8776658">
      <time>2021-02-03T18:53:18Z</time>
    </trkpt>
    <trkpt lat="50.9605578" lon="6.8776786">
      <time>2021-02-03T18:53:19Z</time>
    </trkpt>
    <trkpt lat="50.9603884" lon="6.8777371">
      <time>2021-02-03T18:53:26Z</time>
    </trkpt>
    <trkpt lat="50.9602059" lon="6.8778133">
      <time>2021-02-03T18:53:33Z</time>
    </trkpt>
    <trkpt lat="50.9601279" lon="6.8778331">
      <time>2021-02-03T18:53:36Z</time>
    </trkpt>
    <trkpt lat="50.9600111" lon="6.8776960">
      <time>2021-02-03T18:53:42Z</time>
    </trkpt>
    <trkpt lat="50.9598475" lon="6.8775563">
      <time>2021-02-03T18:53:50Z</time>
    </trkpt>
    <trkpt lat="50.9598187" lon="6.8775417">
      <time>2021-02-03T18:53:52Z</time>
    </trkpt>
    <trkpt lat="50.9598052" lon="6.8775725">
      <time>2021-02-03T18:53:54Z</time>
    </trkpt>
    <trkpt lat="50.9598046" lon="6.8776365">
      <time>2021-02-03T18:53:56Z</time>
    </trkpt>
    <trkpt lat="50.9597820" lon="6.8778850">
      <time>2021-02-03T18:54:03Z</time>
    </trkpt>
    <trkpt lat="50.9597754" lon="6.8779487">
      <time>2021-02-03T18:54:05Z</time>
    </trkpt>
    <trkpt lat="50.9597816" lon="6.8779795">
      <time>2021-02-03T18:54:06Z</time>
    </trkpt>
    <trkpt lat="50.9598041" lon="6.8780193">
      <time>2021-02-03T18:54:08Z</time>
    </trkpt>
    <trkpt lat="50.9598218" lon="6.8780209">
      <time>2021-02-03T18:54:09Z</time>
    </trkpt>
    <trkpt lat="50.9598401" lon="6.8780081">
      <time>2021-02-03T18:54:10Z</time>
    </trkpt>
    <trkpt lat="50.9599104" lon="6.8778973">
      <time>2021-02-03T18:54:14Z</time>
    </trkpt>
    <trkpt lat="50.9600822" lon="6.8777574">
      <time>2021-02-03T18:54:22Z</time>
    </trkpt>
    <trkpt lat="50.9601292" lon="6.8777395">
      <time>2021-02-03T18:54:24Z</time>
    </trkpt>
    <trkpt lat="50.9602857" lon="6.8776551">
      <time>2021-02-03T18:54:31Z</time>
    </trkpt>
    <trkpt lat="50.9603388" lon="6.8776328">
      <time>2021-02-03T18:54:33Z</time>
    </trkpt>
    <trkpt lat="50.9605195" lon="6.8775754">
      <time>2021-02-03T18:54:40Z</time>
    </trkpt>
    <trkpt lat="50.9605377" lon="6.8775641">
      <time>2021-02-03T18:54:41Z</time>
    </trkpt>
    <trkpt lat="50.9606547" lon="6.8774946">
      <time>2021-02-03T18:54:47Z</time>
    </trkpt>
    <trkpt lat="50.9608143" lon="6.8774789">
      <time>2021-02-03T18:54:54Z</time>
    </trkpt>
    <trkpt lat="50.9609784" lon="6.8773667">
      <time>2021-02-03T18:55:01Z</time>
    </trkpt>
    <trkpt lat="50.9610066" lon="6.8773397">
      <time>2021-02-03T18:55:02Z</time>
    </trkpt>
    <trkpt lat="50.9611141" lon="6.8772766">
      <time>2021-02-03T18:55:06Z</time>
    </trkpt>
    <trkpt lat="50.9611713" lon="6.8772416">
      <time>2021-02-03T18:55:08Z</time>
    </trkpt>
    <trkpt lat="50.9613596" lon="6.8771755">
      <time>2021-02-03T18:55:16Z</time>
    </trkpt>
    <trkpt lat="50.9615387" lon="6.8770955">
      <time>2021-02-03T18:55:23Z</time>
    </trkpt>
    <trkpt lat="50.9615747" lon="6.8770606">
      <time>2021-02-03T18:55:25Z</time>
    </trkpt>
    <trkpt lat="50.9617577" lon="6.8769250">
      <time>2021-02-03T18:55:33Z</time>
    </trkpt>
    <trkpt lat="50.9617952" lon="6.8768891">
      <time>2021-02-03T18:55:35Z</time>
    </trkpt>
    <trkpt lat="50.9619697" lon="6.8767717">
      <time>2021-02-03T18:55:42Z</time>
    </trkpt>
    <trkpt lat="50.9619851" lon="6.8767561">
      <time>2021-02-03T18:55:43Z</time>
    </trkpt>
    <trkpt lat="50.9620177" lon="6.8766038">
      <time>2021-02-03T18:55:48Z</time>
    </trkpt>
    <trkpt lat="50.9620612" lon="6.8763907">
      <time>2021-02-03T18:55:55Z</time>
    </trkpt>
    <trkpt lat="50.9621074" lon="6.8763061">
      <time>2021-02-03T18:55:59Z</time>
    </trkpt>
    <trkpt lat="50.9621205" lon="6.8763054">
      <time>2021-02-03T18:56:00Z</time>
    </trkpt>
    <trkpt lat="50.9621432" lon="6.8763270">
      <time>2021-02-03T18:56:02Z</time>
    </trkpt>
    <trkpt lat="50.9621881" lon="6.8763605">
      <time>2021-02-03T18:56:05Z</time>
    </trkpt>
    <trkpt lat="50.9623579" lon="6.8763881">
      <time>2021-02-03T18:56:13Z</time>
    </trkpt>
    <trkpt lat="50.9624998" lon="6.8764346">
      <time>2021-02-03T18:56:19Z</time>
    </trkpt>
    <trkpt lat="50.9626668" lon="6.8764832">
      <time>2021-02-03T18:56:25Z</time>
    </trkpt>
    <trkpt lat="50.9628655" lon="6.8765245">
      <time>2021-02-03T18:56:33Z</time>
    </trkpt>
    <trkpt lat="50.9629586" lon="6.8764895">
      <time>2021-02-03T18:56:38Z</time>
    </trkpt>
    <trkpt lat="50.9630823" lon="6.8763469">
      <time>2021-02-03T18:56:44Z</time>
    </trkpt>
    <trkpt lat="50.9631225" lon="6.8762827">
      <time>2021-02-03T18:56:46Z</time>
    </trkpt>
    <trkpt lat="50.9631747" lon="6.8761656">
      <time>2021-02-03T18:56:49Z</time>
    </trkpt>
    <trkpt lat="50.9632546" lon="6.8758995">
      <time>2021-02-03T18:56:57Z</time>
    </trkpt>
    <trkpt lat="50.9632846" lon="6.8758250">
      <time>2021-02-03T18:56:59Z</time>
    </trkpt>
    <trkpt lat="50.9633046" lon="6.8758029">
      <time>2021-02-03T18:57:00Z</time>
    </trkpt>
    <trkpt lat="50.9633302" lon="6.8758071">
      <time>2021-02-03T18:57:02Z</time>
    </trkpt>
    <trkpt lat="50.9634071" lon="6.8758389">
      <time>2021-02-03T18:57:07Z</time>
    </trkpt>
  </trkseg></trk>
</gpx>
