<?xml version="1.0" encoding="UTF-8"?>
<gpx version="1.1" creator="Diary FIT converter" xmlns="http://www.topografix.com/GPX/1/1">
  <trk><name>Cycling</name><trkseg>
    <trkpt lat="50.8056628" lon="7.0934420">
      <time>2023-02-22T11:21:10Z</time>
    </trkpt>
    <trkpt lat="50.8056311" lon="7.0934519">
      <time>2023-02-22T11:21:12Z</time>
    </trkpt>
    <trkpt lat="50.8054937" lon="7.0934410">
      <time>2023-02-22T11:21:14Z</time>
    </trkpt>
    <trkpt lat="50.8053724" lon="7.0934564">
      <time>2023-02-22T11:21:16Z</time>
    </trkpt>
    <trkpt lat="50.8051140" lon="7.0935318">
      <time>2023-02-22T11:21:21Z</time>
    </trkpt>
    <trkpt lat="50.8053573" lon="7.0943862">
      <time>2023-02-22T11:21:38Z</time>
    </trkpt>
    <trkpt lat="50.8051268" lon="7.0946180">
      <time>2023-02-22T11:21:47Z</time>
    </trkpt>
    <trkpt lat="50.8049595" lon="7.0948026">
      <time>2023-02-22T11:21:54Z</time>
    </trkpt>
    <trkpt lat="50.8046959" lon="7.0951580">
      <time>2023-02-22T11:22:06Z</time>
    </trkpt>
    <trkpt lat="50.8045046" lon="7.0953626">
      <time>2023-02-22T11:22:13Z</time>
    </trkpt>
    <trkpt lat="50.8044695" lon="7.0954365">
      <time>2023-02-22T11:22:15Z</time>
    </trkpt>
    <trkpt lat="50.8044270" lon="7.0954858">
      <time>2023-02-22T11:22:17Z</time>
    </trkpt>
    <trkpt lat="50.8043215" lon="7.0956192">
      <time>2023-02-22T11:22:21Z</time>
    </trkpt>
    <trkpt lat="50.8042876" lon="7.0956528">
      <time>2023-02-22T11:22:22Z</time>
    </trkpt>
    <trkpt lat="50.8041956" lon="7.0957393">
      <time>2023-02-22T11:22:25Z</time>
    </trkpt>
    <trkpt lat="50.8041051" lon="7.0958987">
      <time>2023-02-22T11:22:29Z</time>
    </trkpt>
    <trkpt lat="50.8040725" lon="7.0959269">
      <time>2023-02-22T11:22:30Z</time>
    </trkpt>
    <trkpt lat="50.8039554" lon="7.0960452">
      <time>2023-02-22T11:22:34Z</time>
    </trkpt>
    <trkpt lat="50.8038569" lon="7.0962226">
      <time>2023-02-22T11:22:39Z</time>
    </trkpt>
    <trkpt lat="50.8038370" lon="7.0962595">
      <time>2023-02-22T11:22:40Z</time>
    </trkpt>
    <trkpt lat="50.8037048" lon="7.0964683">
      <time>2023-02-22T11:22:46Z</time>
    </trkpt>
    <trkpt lat="50.8035680" lon="7.0966603">
      <time>2023-02-22T11:22:52Z</time>
    </trkpt>
    <trkpt lat="50.8034896" lon="7.0967735">
      <time>2023-02-22T11:22:56Z</time>
    </trkpt>
    <trkpt lat="50.8033708" lon="7.0969126">
      <time>2023-02-22T11:23:01Z</time>
    </trkpt>
    <trkpt lat="50.8033495" lon="7.0969422">
      <time>2023-02-22T11:23:02Z</time>
    </trkpt>
    <trkpt lat="50.8032268" lon="7.0970764">
      <time>2023-02-22T11:23:06Z</time>
    </trkpt>
    <trkpt lat="50.8031609" lon="7.0971551">
      <time>2023-02-22T11:23:09Z</time>
    </trkpt>
    <trkpt lat="50.8031421" lon="7.0971779">
      <time>2023-02-22T11:23:10Z</time>
    </trkpt>
    <trkpt lat="50.8030107" lon="7.0973872">
      <time>2023-02-22T11:23:17Z</time>
    </trkpt>
    <trkpt lat="50.8028936" lon="7.0975574">
      <time>2023-02-22T11:23:23Z</time>
    </trkpt>
    <trkpt lat="50.8028754" lon="7.0975858">
      <time>2023-02-22T11:23:24Z</time>
    </trkpt>
    <trkpt lat="50.8028125" lon="7.0976654">
      <time>2023-02-22T11:23:27Z</time>
    </trkpt>
    <trkpt lat="50.8026973" lon="7.0978239">
      <time>2023-02-22T11:23:32Z</time>
    </trkpt>
    <trkpt lat="50.8026193" lon="7.0979566">
      <time>2023-02-22T11:23:36Z</time>
    </trkpt>
    <trkpt lat="50.8024943" lon="7.0981259">
      <time>2023-02-22T11:23:41Z</time>
    </trkpt>
    <trkpt lat="50.8024451" lon="7.0981652">
      <time>2023-02-22T11:23:43Z</time>
    </trkpt>
    <trkpt lat="50.8024042" lon="7.0981476">
      <time>2023-02-22T11:23:45Z</time>
    </trkpt>
    <trkpt lat="50.8023596" lon="7.0980727">
      <time>2023-02-22T11:23:49Z</time>
    </trkpt>
    <trkpt lat="50.8023510" lon="7.0980648">
      <time>2023-02-22T11:23:50Z</time>
    </trkpt>
    <trkpt lat="50.8023191" lon="7.0980228">
      <time>2023-02-22T11:23:56Z</time>
    </trkpt>
    <trkpt lat="50.8022692" lon="7.0979568">
      <time>2023-02-22T11:24:45Z</time>
    </trkpt>
    <trkpt lat="50.8021510" lon="7.0977747">
      <time>2023-02-22T11:24:50Z</time>
    </trkpt>
    <trkpt lat="50.8019601" lon="7.0974789">
      <time>2023-02-22T11:24:57Z</time>
    </trkpt>
    <trkpt lat="50.8018667" lon="7.0973035">
      <time>2023-02-22T11:25:01Z</time>
    </trkpt>
    <trkpt lat="50.8018090" lon="7.0971918">
      <time>2023-02-22T11:25:03Z</time>
    </trkpt>
    <trkpt lat="50.8017823" lon="7.0971421">
      <time>2023-02-22T11:25:04Z</time>
    </trkpt>
    <trkpt lat="50.8016256" lon="7.0968436">
      <time>2023-02-22T11:25:11Z</time>
    </trkpt>
    <trkpt lat="50.8015205" lon="7.0967353">
      <time>2023-02-22T11:25:15Z</time>
    </trkpt>
    <trkpt lat="50.8013930" lon="7.0965225">
      <time>2023-02-22T11:25:20Z</time>
    </trkpt>
    <trkpt lat="50.8012337" lon="7.0962978">
      <time>2023-02-22T11:25:26Z</time>
    </trkpt>
    <trkpt lat="50.8011172" lon="7.0961028">
      <time>2023-02-22T11:25:30Z</time>
    </trkpt>
    <trkpt lat="50.8010121" lon="7.0959523">
      <time>2023-02-22T11:25:34Z</time>
    </trkpt>
    <trkpt lat="50.8009269" lon="7.0958357">
      <time>2023-02-22T11:25:37Z</time>
    </trkpt>
    <trkpt lat="50.8008600" lon="7.0957409">
      <time>2023-02-22T11:25:39Z</time>
    </trkpt>
    <trkpt lat="50.8007377" lon="7.0955538">
      <time>2023-02-22T11:25:44Z</time>
    </trkpt>
    <trkpt lat="50.8006332" lon="7.0953825">
      <time>2023-02-22T11:25:48Z</time>
    </trkpt>
    <trkpt lat="50.8005328" lon="7.0952372">
      <time>2023-02-22T11:25:52Z</time>
    </trkpt>
    <trkpt lat="50.8004818" lon="7.0951349">
      <time>2023-02-22T11:25:54Z</time>
    </trkpt>
    <trkpt lat="50.8004304" lon="7.0950202">
      <time>2023-02-22T11:25:56Z</time>
    </trkpt>
    <trkpt lat="50.8003813" lon="7.0949177">
      <time>2023-02-22T11:25:58Z</time>
    </trkpt>
    <trkpt lat="50.8003202" lon="7.0948318">
      <time>2023-02-22T11:26:00Z</time>
    </trkpt>
    <trkpt lat="50.8002944" lon="7.0947945">
      <time>2023-02-22T11:26:01Z</time>
    </trkpt>
    <trkpt lat="50.8002124" lon="7.0946907">
      <time>2023-02-22T11:26:04Z</time>
    </trkpt>
    <trkpt lat="50.8001592" lon="7.0945922">
      <time>2023-02-22T11:26:06Z</time>
    </trkpt>
    <trkpt lat="50.8001422" lon="7.0945632">
      <time>2023-02-22T11:26:07Z</time>
    </trkpt>
    <trkpt lat="50.7999861" lon="7.0943480">
      <time>2023-02-22T11:26:13Z</time>
    </trkpt>
    <trkpt lat="50.7998307" lon="7.0940901">
      <time>2023-02-22T11:26:19Z</time>
    </trkpt>
    <trkpt lat="50.7998866" lon="7.0939231">
      <time>2023-02-22T11:26:23Z</time>
    </trkpt>
    <trkpt lat="50.8000193" lon="7.0936808">
      <time>2023-02-22T11:26:29Z</time>
    </trkpt>
    <trkpt lat="50.8001594" lon="7.0934207">
      <time>2023-02-22T11:26:35Z</time>
    </trkpt>
    <trkpt lat="50.8002976" lon="7.0932157">
      <time>2023-02-22T11:26:40Z</time>
    </trkpt>
    <trkpt lat="50.8004452" lon="7.0929116">
      <time>2023-02-22T11:26:47Z</time>
    </trkpt>
    <trkpt lat="50.8005828" lon="7.0927232">
      <time>2023-02-22T11:26:52Z</time>
    </trkpt>
    <trkpt lat="50.8007113" lon="7.0925542">
      <time>2023-02-22T11:26:57Z</time>
    </trkpt>
    <trkpt lat="50.8008701" lon="7.0923464">
      <time>2023-02-22T11:27:03Z</time>
    </trkpt>
    <trkpt lat="50.8010299" lon="7.0921550">
      <time>2023-02-22T11:27:08Z</time>
    </trkpt>
    <trkpt lat="50.8011077" lon="7.0920587">
      <time>2023-02-22T11:27:10Z</time>
    </trkpt>
    <trkpt lat="50.8011693" lon="7.0919794">
      <time>2023-02-22T11:27:12Z</time>
    </trkpt>
    <trkpt lat="50.8012058" lon="7.0919269">
      <time>2023-02-22T11:27:13Z</time>
    </trkpt>
    <trkpt lat="50.8012656" lon="7.0918532">
      <time>2023-02-22T11:27:15Z</time>
    </trkpt>
    <trkpt lat="50.8013526" lon="7.0917839">
      <time>2023-02-22T11:27:17Z</time>
    </trkpt>
    <trkpt lat="50.8014012" lon="7.0917369">
      <time>2023-02-22T11:27:18Z</time>
    </trkpt>
    <trkpt lat="50.8014400" lon="7.0916968">
      <time>2023-02-22T11:27:19Z</time>
    </trkpt>
    <trkpt lat="50.8015332" lon="7.0915963">
      <time>2023-02-22T11:27:22Z</time>
    </trkpt>
    <trkpt lat="50.8016359" lon="7.0914872">
      <time>2023-02-22T11:27:25Z</time>
    </trkpt>
    <trkpt lat="50.8016862" lon="7.0914193">
      <time>2023-02-22T11:27:27Z</time>
    </trkpt>
    <trkpt lat="50.8017809" lon="7.0913238">
      <time>2023-02-22T11:27:30Z</time>
    </trkpt>
    <trkpt lat="50.8018132" lon="7.0912839">
      <time>2023-02-22T11:27:31Z</time>
    </trkpt>
    <trkpt lat="50.8019084" lon="7.0911711">
      <time>2023-02-22T11:27:34Z</time>
    </trkpt>
    <trkpt lat="50.8020134" lon="7.0910569">
      <time>2023-02-22T11:27:37Z</time>
    </trkpt>
    <trkpt lat="50.8020996" lon="7.0909494">
      <time>2023-02-22T11:27:40Z</time>
    </trkpt>
    <trkpt lat="50.8021264" lon="7.0909101">
      <time>2023-02-22T11:27:41Z</time>
    </trkpt>
    <trkpt lat="50.8021798" lon="7.0908323">
      <time>2023-02-22T11:27:43Z</time>
    </trkpt>
    <trkpt lat="50.8023004" lon="7.0906546">
      <time>2023-02-22T11:27:48Z</time>
    </trkpt>
    <trkpt lat="50.8022979" lon="7.0906040">
      <time>2023-02-22T11:27:49Z</time>
    </trkpt>
    <trkpt lat="50.8022688" lon="7.0905269">
      <time>2023-02-22T11:27:51Z</time>
    </trkpt>
    <trkpt lat="50.8021427" lon="7.0903351">
      <time>2023-02-22T11:27:56Z</time>
    </trkpt>
    <trkpt lat="50.8021085" lon="7.0902859">
      <time>2023-02-22T11:27:57Z</time>
    </trkpt>
    <trkpt lat="50.8019032" lon="7.0899778">
      <time>2023-02-22T11:28:04Z</time>
    </trkpt>
    <trkpt lat="50.8018442" lon="7.0898751">
      <time>2023-02-22T11:28:06Z</time>
    </trkpt>
    <trkpt lat="50.8017869" lon="7.0897739">
      <time>2023-02-22T11:28:08Z</time>
    </trkpt>
    <trkpt lat="50.8017385" lon="7.0896725">
      <time>2023-02-22T11:28:10Z</time>
    </trkpt>
    <trkpt lat="50.8016895" lon="7.0895707">
      <time>2023-02-22T11:28:12Z</time>
    </trkpt>
    <trkpt lat="50.8016378" lon="7.0894751">
      <time>2023-02-22T11:28:14Z</time>
    </trkpt>
    <trkpt lat="50.8015904" lon="7.0893998">
      <time>2023-02-22T11:28:16Z</time>
    </trkpt>
    <trkpt lat="50.8014425" lon="7.0891752">
      <time>2023-02-22T11:28:21Z</time>
    </trkpt>
    <trkpt lat="50.8013232" lon="7.0889419">
      <time>2023-02-22T11:28:26Z</time>
    </trkpt>
    <trkpt lat="50.8011608" lon="7.0887019">
      <time>2023-02-22T11:28:32Z</time>
    </trkpt>
    <trkpt lat="50.8009894" lon="7.0884070">
      <time>2023-02-22T11:28:39Z</time>
    </trkpt>
    <trkpt lat="50.8008856" lon="7.0882312">
      <time>2023-02-22T11:28:44Z</time>
    </trkpt>
    <trkpt lat="50.8007543" lon="7.0879807">
      <time>2023-02-22T11:28:50Z</time>
    </trkpt>
    <trkpt lat="50.8006409" lon="7.0877931">
      <time>2023-02-22T11:28:55Z</time>
    </trkpt>
    <trkpt lat="50.8005803" lon="7.0877270">
      <time>2023-02-22T11:28:57Z</time>
    </trkpt>
    <trkpt lat="50.8005628" lon="7.0876839">
      <time>2023-02-22T11:28:58Z</time>
    </trkpt>
    <trkpt lat="50.8004440" lon="7.0874980">
      <time>2023-02-22T11:29:04Z</time>
    </trkpt>
    <trkpt lat="50.8003560" lon="7.0873350">
      <time>2023-02-22T11:29:07Z</time>
    </trkpt>
    <trkpt lat="50.8003227" lon="7.0872836">
      <time>2023-02-22T11:29:08Z</time>
    </trkpt>
    <trkpt lat="50.8001601" lon="7.0870317">
      <time>2023-02-22T11:29:14Z</time>
    </trkpt>
    <trkpt lat="50.8000659" lon="7.0868760">
      <time>2023-02-22T11:29:18Z</time>
    </trkpt>
    <trkpt lat="50.7999469" lon="7.0867054">
      <time>2023-02-22T11:29:23Z</time>
    </trkpt>
    <trkpt lat="50.7997931" lon="7.0864297">
      <time>2023-02-22T11:29:30Z</time>
    </trkpt>
    <trkpt lat="50.7997517" lon="7.0863372">
      <time>2023-02-22T11:29:32Z</time>
    </trkpt>
    <trkpt lat="50.7997271" lon="7.0862785">
      <time>2023-02-22T11:29:33Z</time>
    </trkpt>
    <trkpt lat="50.7996432" lon="7.0861407">
      <time>2023-02-22T11:29:37Z</time>
    </trkpt>
    <trkpt lat="50.7995186" lon="7.0859666">
      <time>2023-02-22T11:29:42Z</time>
    </trkpt>
    <trkpt lat="50.7994348" lon="7.0857872">
      <time>2023-02-22T11:29:46Z</time>
    </trkpt>
    <trkpt lat="50.7993175" lon="7.0855894">
      <time>2023-02-22T11:29:51Z</time>
    </trkpt>
    <trkpt lat="50.7991998" lon="7.0854015">
      <time>2023-02-22T11:29:56Z</time>
    </trkpt>
    <trkpt lat="50.7990848" lon="7.0851968">
      <time>2023-02-22T11:30:01Z</time>
    </trkpt>
    <trkpt lat="50.7989415" lon="7.0849699">
      <time>2023-02-22T11:30:07Z</time>
    </trkpt>
    <trkpt lat="50.7988406" lon="7.0847862">
      <time>2023-02-22T11:30:12Z</time>
    </trkpt>
    <trkpt lat="50.7987279" lon="7.0846143">
      <time>2023-02-22T11:30:17Z</time>
    </trkpt>
    <trkpt lat="50.7986273" lon="7.0844152">
      <time>2023-02-22T11:30:22Z</time>
    </trkpt>
    <trkpt lat="50.7986082" lon="7.0843754">
      <time>2023-02-22T11:30:23Z</time>
    </trkpt>
    <trkpt lat="50.7985322" lon="7.0842743">
      <time>2023-02-22T11:30:26Z</time>
    </trkpt>
    <trkpt lat="50.7984137" lon="7.0840636">
      <time>2023-02-22T11:30:31Z</time>
    </trkpt>
    <trkpt lat="50.7983961" lon="7.0840313">
      <time>2023-02-22T11:30:32Z</time>
    </trkpt>
    <trkpt lat="50.7983026" lon="7.0838485">
      <time>2023-02-22T11:30:36Z</time>
    </trkpt>
    <trkpt lat="50.7982052" lon="7.0837051">
      <time>2023-02-22T11:30:41Z</time>
    </trkpt>
    <trkpt lat="50.7980964" lon="7.0835019">
      <time>2023-02-22T11:30:46Z</time>
    </trkpt>
    <trkpt lat="50.7980735" lon="7.0834754">
      <time>2023-02-22T11:30:47Z</time>
    </trkpt>
    <trkpt lat="50.7980252" lon="7.0834462">
      <time>2023-02-22T11:30:49Z</time>
    </trkpt>
    <trkpt lat="50.7979608" lon="7.0833530">
      <time>2023-02-22T11:30:52Z</time>
    </trkpt>
    <trkpt lat="50.7978858" lon="7.0832082">
      <time>2023-02-22T11:30:56Z</time>
    </trkpt>
    <trkpt lat="50.7977561" lon="7.0829961">
      <time>2023-02-22T11:31:02Z</time>
    </trkpt>
    <trkpt lat="50.7976310" lon="7.0827946">
      <time>2023-02-22T11:31:07Z</time>
    </trkpt>
    <trkpt lat="50.7975100" lon="7.0825781">
      <time>2023-02-22T11:31:12Z</time>
    </trkpt>
    <trkpt lat="50.7974075" lon="7.0823663">
      <time>2023-02-22T11:31:17Z</time>
    </trkpt>
    <trkpt lat="50.7973073" lon="7.0822133">
      <time>2023-02-22T11:31:21Z</time>
    </trkpt>
    <trkpt lat="50.7971815" lon="7.0820220">
      <time>2023-02-22T11:31:26Z</time>
    </trkpt>
    <trkpt lat="50.7971574" lon="7.0819717">
      <time>2023-02-22T11:31:27Z</time>
    </trkpt>
    <trkpt lat="50.7970407" lon="7.0817408">
      <time>2023-02-22T11:31:32Z</time>
    </trkpt>
    <trkpt lat="50.7969486" lon="7.0815916">
      <time>2023-02-22T11:31:36Z</time>
    </trkpt>
    <trkpt lat="50.7967852" lon="7.0813366">
      <time>2023-02-22T11:31:42Z</time>
    </trkpt>
    <trkpt lat="50.7967665" lon="7.0813028">
      <time>2023-02-22T11:31:43Z</time>
    </trkpt>
    <trkpt lat="50.7967156" lon="7.0811994">
      <time>2023-02-22T11:31:45Z</time>
    </trkpt>
    <trkpt lat="50.7966867" lon="7.0811352">
      <time>2023-02-22T11:31:47Z</time>
    </trkpt>
    <trkpt lat="50.7965791" lon="7.0809891">
      <time>2023-02-22T11:31:52Z</time>
    </trkpt>
    <trkpt lat="50.7964841" lon="7.0808323">
      <time>2023-02-22T11:31:56Z</time>
    </trkpt>
    <trkpt lat="50.7964404" lon="7.0807539">
      <time>2023-02-22T11:31:58Z</time>
    </trkpt>
    <trkpt lat="50.7963439" lon="7.0806136">
      <time>2023-02-22T11:32:02Z</time>
    </trkpt>
    <trkpt lat="50.7962357" lon="7.0804424">
      <time>2023-02-22T11:32:08Z</time>
    </trkpt>
    <trkpt lat="50.7960995" lon="7.0802201">
      <time>2023-02-22T11:32:14Z</time>
    </trkpt>
    <trkpt lat="50.7959988" lon="7.0799753">
      <time>2023-02-22T11:32:20Z</time>
    </trkpt>
    <trkpt lat="50.7958872" lon="7.0797440">
      <time>2023-02-22T11:32:26Z</time>
    </trkpt>
    <trkpt lat="50.7958239" lon="7.0795623">
      <time>2023-02-22T11:32:30Z</time>
    </trkpt>
    <trkpt lat="50.7958029" lon="7.0795190">
      <time>2023-02-22T11:32:31Z</time>
    </trkpt>
    <trkpt lat="50.7957439" lon="7.0793907">
      <time>2023-02-22T11:32:34Z</time>
    </trkpt>
    <trkpt lat="50.7957146" lon="7.0793086">
      <time>2023-02-22T11:32:36Z</time>
    </trkpt>
    <trkpt lat="50.7955370" lon="7.0789299">
      <time>2023-02-22T11:32:46Z</time>
    </trkpt>
    <trkpt lat="50.7955106" lon="7.0788764">
      <time>2023-02-22T11:32:47Z</time>
    </trkpt>
    <trkpt lat="50.7954904" lon="7.0788419">
      <time>2023-02-22T11:32:48Z</time>
    </trkpt>
    <trkpt lat="50.7954233" lon="7.0787091">
      <time>2023-02-22T11:32:52Z</time>
    </trkpt>
    <trkpt lat="50.7952836" lon="7.0784050">
      <time>2023-02-22T11:32:59Z</time>
    </trkpt>
    <trkpt lat="50.7951795" lon="7.0781841">
      <time>2023-02-22T11:33:04Z</time>
    </trkpt>
    <trkpt lat="50.7951568" lon="7.0781410">
      <time>2023-02-22T11:33:05Z</time>
    </trkpt>
    <trkpt lat="50.7950364" lon="7.0778985">
      <time>2023-02-22T11:33:11Z</time>
    </trkpt>
    <trkpt lat="50.7949412" lon="7.0776804">
      <time>2023-02-22T11:33:16Z</time>
    </trkpt>
    <trkpt lat="50.7949230" lon="7.0776446">
      <time>2023-02-22T11:33:17Z</time>
    </trkpt>
    <trkpt lat="50.7948061" lon="7.0773955">
      <time>2023-02-22T11:33:23Z</time>
    </trkpt>
    <trkpt lat="50.7946832" lon="7.0771340">
      <time>2023-02-22T11:33:29Z</time>
    </trkpt>
    <trkpt lat="50.7946099" lon="7.0769533">
      <time>2023-02-22T11:33:33Z</time>
    </trkpt>
    <trkpt lat="50.7945522" lon="7.0768304">
      <time>2023-02-22T11:33:36Z</time>
    </trkpt>
    <trkpt lat="50.7944438" lon="7.0765722">
      <time>2023-02-22T11:33:41Z</time>
    </trkpt>
    <trkpt lat="50.7943272" lon="7.0763101">
      <time>2023-02-22T11:33:46Z</time>
    </trkpt>
    <trkpt lat="50.7942152" lon="7.0760737">
      <time>2023-02-22T11:33:51Z</time>
    </trkpt>
    <trkpt lat="50.7940883" lon="7.0758043">
      <time>2023-02-22T11:33:57Z</time>
    </trkpt>
    <trkpt lat="50.7939315" lon="7.0754734">
      <time>2023-02-22T11:34:04Z</time>
    </trkpt>
    <trkpt lat="50.7937602" lon="7.0751438">
      <time>2023-02-22T11:34:11Z</time>
    </trkpt>
    <trkpt lat="50.7936291" lon="7.0748840">
      <time>2023-02-22T11:34:17Z</time>
    </trkpt>
    <trkpt lat="50.7935721" lon="7.0747472">
      <time>2023-02-22T11:34:20Z</time>
    </trkpt>
    <trkpt lat="50.7935503" lon="7.0746871">
      <time>2023-02-22T11:34:21Z</time>
    </trkpt>
    <trkpt lat="50.7935306" lon="7.0746393">
      <time>2023-02-22T11:34:22Z</time>
    </trkpt>
    <trkpt lat="50.7934281" lon="7.0744097">
      <time>2023-02-22T11:34:27Z</time>
    </trkpt>
    <trkpt lat="50.7933729" lon="7.0742841">
      <time>2023-02-22T11:34:29Z</time>
    </trkpt>
    <trkpt lat="50.7933233" lon="7.0741743">
      <time>2023-02-22T11:34:31Z</time>
    </trkpt>
    <trkpt lat="50.7932776" lon="7.0740759">
      <time>2023-02-22T11:34:33Z</time>
    </trkpt>
    <trkpt lat="50.7932176" lon="7.0739642">
      <time>2023-02-22T11:34:36Z</time>
    </trkpt>
    <trkpt lat="50.7931955" lon="7.0739268">
      <time>2023-02-22T11:34:37Z</time>
    </trkpt>
    <trkpt lat="50.7931720" lon="7.0738801">
      <time>2023-02-22T11:34:38Z</time>
    </trkpt>
    <trkpt lat="50.7930975" lon="7.0737368">
      <time>2023-02-22T11:34:41Z</time>
    </trkpt>
    <trkpt lat="50.7930513" lon="7.0736348">
      <time>2023-02-22T11:34:43Z</time>
    </trkpt>
    <trkpt lat="50.7929831" lon="7.0734837">
      <time>2023-02-22T11:34:46Z</time>
    </trkpt>
    <trkpt lat="50.7929304" lon="7.0733743">
      <time>2023-02-22T11:34:48Z</time>
    </trkpt>
    <trkpt lat="50.7929035" lon="7.0733242">
      <time>2023-02-22T11:34:49Z</time>
    </trkpt>
    <trkpt lat="50.7928800" lon="7.0732734">
      <time>2023-02-22T11:34:50Z</time>
    </trkpt>
    <trkpt lat="50.7928576" lon="7.0732190">
      <time>2023-02-22T11:34:51Z</time>
    </trkpt>
    <trkpt lat="50.7928013" lon="7.0730823">
      <time>2023-02-22T11:34:54Z</time>
    </trkpt>
    <trkpt lat="50.7927757" lon="7.0730396">
      <time>2023-02-22T11:34:55Z</time>
    </trkpt>
    <trkpt lat="50.7927547" lon="7.0729978">
      <time>2023-02-22T11:34:56Z</time>
    </trkpt>
    <trkpt lat="50.7926880" lon="7.0728503">
      <time>2023-02-22T11:34:59Z</time>
    </trkpt>
    <trkpt lat="50.7925898" lon="7.0726475">
      <time>2023-02-22T11:35:04Z</time>
    </trkpt>
    <trkpt lat="50.7925061" lon="7.0724591">
      <time>2023-02-22T11:35:09Z</time>
    </trkpt>
    <trkpt lat="50.7923856" lon="7.0722238">
      <time>2023-02-22T11:35:15Z</time>
    </trkpt>
    <trkpt lat="50.7922857" lon="7.0720150">
      <time>2023-02-22T11:35:19Z</time>
    </trkpt>
    <trkpt lat="50.7922621" lon="7.0719657">
      <time>2023-02-22T11:35:20Z</time>
    </trkpt>
    <trkpt lat="50.7922429" lon="7.0719282">
      <time>2023-02-22T11:35:21Z</time>
    </trkpt>
    <trkpt lat="50.7921278" lon="7.0717088">
      <time>2023-02-22T11:35:26Z</time>
    </trkpt>
    <trkpt lat="50.7920174" lon="7.0713505">
      <time>2023-02-22T11:35:33Z</time>
    </trkpt>
    <trkpt lat="50.7921090" lon="7.0711980">
      <time>2023-02-22T11:35:37Z</time>
    </trkpt>
    <trkpt lat="50.7922122" lon="7.0710946">
      <time>2023-02-22T11:35:41Z</time>
    </trkpt>
    <trkpt lat="50.7923610" lon="7.0709448">
      <time>2023-02-22T11:35:47Z</time>
    </trkpt>
    <trkpt lat="50.7925398" lon="7.0707608">
      <time>2023-02-22T11:35:54Z</time>
    </trkpt>
    <trkpt lat="50.7926540" lon="7.0706390">
      <time>2023-02-22T11:35:58Z</time>
    </trkpt>
    <trkpt lat="50.7928269" lon="7.0704683">
      <time>2023-02-22T11:36:04Z</time>
    </trkpt>
    <trkpt lat="50.7929676" lon="7.0702830">
      <time>2023-02-22T11:36:10Z</time>
    </trkpt>
    <trkpt lat="50.7930650" lon="7.0701583">
      <time>2023-02-22T11:36:14Z</time>
    </trkpt>
    <trkpt lat="50.7932712" lon="7.0699250">
      <time>2023-02-22T11:36:21Z</time>
    </trkpt>
    <trkpt lat="50.7933725" lon="7.0697710">
      <time>2023-02-22T11:36:25Z</time>
    </trkpt>
    <trkpt lat="50.7934996" lon="7.0696402">
      <time>2023-02-22T11:36:29Z</time>
    </trkpt>
    <trkpt lat="50.7935808" lon="7.0695476">
      <time>2023-02-22T11:36:32Z</time>
    </trkpt>
    <trkpt lat="50.7936550" lon="7.0694447">
      <time>2023-02-22T11:36:35Z</time>
    </trkpt>
    <trkpt lat="50.7938003" lon="7.0692630">
      <time>2023-02-22T11:36:40Z</time>
    </trkpt>
    <trkpt lat="50.7939482" lon="7.0691036">
      <time>2023-02-22T11:36:45Z</time>
    </trkpt>
    <trkpt lat="50.7940834" lon="7.0689445">
      <time>2023-02-22T11:36:50Z</time>
    </trkpt>
    <trkpt lat="50.7942412" lon="7.0687555">
      <time>2023-02-22T11:36:55Z</time>
    </trkpt>
    <trkpt lat="50.7943159" lon="7.0686759">
      <time>2023-02-22T11:36:57Z</time>
    </trkpt>
    <trkpt lat="50.7944230" lon="7.0685462">
      <time>2023-02-22T11:37:00Z</time>
    </trkpt>
    <trkpt lat="50.7944981" lon="7.0684574">
      <time>2023-02-22T11:37:02Z</time>
    </trkpt>
    <trkpt lat="50.7945739" lon="7.0683662">
      <time>2023-02-22T11:37:04Z</time>
    </trkpt>
    <trkpt lat="50.7946067" lon="7.0683169">
      <time>2023-02-22T11:37:05Z</time>
    </trkpt>
    <trkpt lat="50.7948054" lon="7.0681040">
      <time>2023-02-22T11:37:10Z</time>
    </trkpt>
    <trkpt lat="50.7948417" lon="7.0680626">
      <time>2023-02-22T11:37:11Z</time>
    </trkpt>
    <trkpt lat="50.7949490" lon="7.0679598">
      <time>2023-02-22T11:37:14Z</time>
    </trkpt>
    <trkpt lat="50.7950080" lon="7.0678912">
      <time>2023-02-22T11:37:16Z</time>
    </trkpt>
    <trkpt lat="50.7950677" lon="7.0678220">
      <time>2023-02-22T11:37:18Z</time>
    </trkpt>
    <trkpt lat="50.7951567" lon="7.0677312">
      <time>2023-02-22T11:37:21Z</time>
    </trkpt>
    <trkpt lat="50.7953259" lon="7.0675257">
      <time>2023-02-22T11:37:27Z</time>
    </trkpt>
    <trkpt lat="50.7955240" lon="7.0672742">
      <time>2023-02-22T11:37:34Z</time>
    </trkpt>
    <trkpt lat="50.7956384" lon="7.0671076">
      <time>2023-02-22T11:37:38Z</time>
    </trkpt>
    <trkpt lat="50.7956977" lon="7.0670287">
      <time>2023-02-22T11:37:40Z</time>
    </trkpt>
    <trkpt lat="50.7957652" lon="7.0669514">
      <time>2023-02-22T11:37:42Z</time>
    </trkpt>
    <trkpt lat="50.7958597" lon="7.0668292">
      <time>2023-02-22T11:37:45Z</time>
    </trkpt>
    <trkpt lat="50.7959487" lon="7.0667102">
      <time>2023-02-22T11:37:48Z</time>
    </trkpt>
    <trkpt lat="50.7960159" lon="7.0666366">
      <time>2023-02-22T11:37:50Z</time>
    </trkpt>
    <trkpt lat="50.7960518" lon="7.0666013">
      <time>2023-02-22T11:37:51Z</time>
    </trkpt>
    <trkpt lat="50.7962130" lon="7.0664185">
      <time>2023-02-22T11:37:56Z</time>
    </trkpt>
    <trkpt lat="50.7962414" lon="7.0663841">
      <time>2023-02-22T11:37:57Z</time>
    </trkpt>
    <trkpt lat="50.7964248" lon="7.0661586">
      <time>2023-02-22T11:38:03Z</time>
    </trkpt>
    <trkpt lat="50.7965550" lon="7.0660263">
      <time>2023-02-22T11:38:07Z</time>
    </trkpt>
    <trkpt lat="50.7967309" lon="7.0658092">
      <time>2023-02-22T11:38:13Z</time>
    </trkpt>
    <trkpt lat="50.7968877" lon="7.0655826">
      <time>2023-02-22T11:38:19Z</time>
    </trkpt>
    <trkpt lat="50.7968944" lon="7.0655360">
      <time>2023-02-22T11:38:20Z</time>
    </trkpt>
    <trkpt lat="50.7968884" lon="7.0654949">
      <time>2023-02-22T11:38:21Z</time>
    </trkpt>
    <trkpt lat="50.7968552" lon="7.0654036">
      <time>2023-02-22T11:38:23Z</time>
    </trkpt>
    <trkpt lat="50.7967372" lon="7.0651437">
      <time>2023-02-22T11:38:29Z</time>
    </trkpt>
    <trkpt lat="50.7966523" lon="7.0649748">
      <time>2023-02-22T11:38:33Z</time>
    </trkpt>
    <trkpt lat="50.7965844" lon="7.0648550">
      <time>2023-02-22T11:38:36Z</time>
    </trkpt>
    <trkpt lat="50.7965381" lon="7.0647769">
      <time>2023-02-22T11:38:38Z</time>
    </trkpt>
    <trkpt lat="50.7965172" lon="7.0647340">
      <time>2023-02-22T11:38:39Z</time>
    </trkpt>
    <trkpt lat="50.7964127" lon="7.0644967">
      <time>2023-02-22T11:38:44Z</time>
    </trkpt>
    <trkpt lat="50.7963478" lon="7.0643734">
      <time>2023-02-22T11:38:47Z</time>
    </trkpt>
    <trkpt lat="50.7962997" lon="7.0642988">
      <time>2023-02-22T11:38:49Z</time>
    </trkpt>
    <trkpt lat="50.7962458" lon="7.0642189">
      <time>2023-02-22T11:38:51Z</time>
    </trkpt>
    <trkpt lat="50.7962209" lon="7.0641807">
      <time>2023-02-22T11:38:52Z</time>
    </trkpt>
    <trkpt lat="50.7961043" lon="7.0640203">
      <time>2023-02-22T11:38:57Z</time>
    </trkpt>
    <trkpt lat="50.7960516" lon="7.0639560">
      <time>2023-02-22T11:38:59Z</time>
    </trkpt>
    <trkpt lat="50.7959742" lon="7.0638768">
      <time>2023-02-22T11:39:02Z</time>
    </trkpt>
    <trkpt lat="50.7958829" lon="7.0637720">
      <time>2023-02-22T11:39:06Z</time>
    </trkpt>
    <trkpt lat="50.7957412" lon="7.0635750">
      <time>2023-02-22T11:39:13Z</time>
    </trkpt>
    <trkpt lat="50.7956449" lon="7.0634266">
      <time>2023-02-22T11:39:19Z</time>
    </trkpt>
    <trkpt lat="50.7956317" lon="7.0634259">
      <time>2023-02-22T11:39:20Z</time>
    </trkpt>
    <trkpt lat="50.7956218" lon="7.0634406">
      <time>2023-02-22T11:39:23Z</time>
    </trkpt>
    <trkpt lat="50.7956071" lon="7.0633384">
      <time>2023-02-22T11:40:08Z</time>
    </trkpt>
    <trkpt lat="50.7956003" lon="7.0633172">
      <time>2023-02-22T11:40:09Z</time>
    </trkpt>
    <trkpt lat="50.7955804" lon="7.0632660">
      <time>2023-02-22T11:40:12Z</time>
    </trkpt>
    <trkpt lat="50.7955667" lon="7.0632419">
      <time>2023-02-22T11:40:14Z</time>
    </trkpt>
    <trkpt lat="50.7954911" lon="7.0630661">
      <time>2023-02-22T11:40:23Z</time>
    </trkpt>
    <trkpt lat="50.7953959" lon="7.0628214">
      <time>2023-02-22T11:40:28Z</time>
    </trkpt>
    <trkpt lat="50.7952391" lon="7.0624006">
      <time>2023-02-22T11:40:34Z</time>
    </trkpt>
    <trkpt lat="50.7950575" lon="7.0617649">
      <time>2023-02-22T11:40:42Z</time>
    </trkpt>
    <trkpt lat="50.7949731" lon="7.0614679">
      <time>2023-02-22T11:40:47Z</time>
    </trkpt>
    <trkpt lat="50.7949263" lon="7.0613823">
      <time>2023-02-22T11:40:49Z</time>
    </trkpt>
    <trkpt lat="50.7948342" lon="7.0612065">
      <time>2023-02-22T11:40:53Z</time>
    </trkpt>
    <trkpt lat="50.7947312" lon="7.0609816">
      <time>2023-02-22T11:40:58Z</time>
    </trkpt>
    <trkpt lat="50.7946029" lon="7.0606642">
      <time>2023-02-22T11:41:04Z</time>
    </trkpt>
    <trkpt lat="50.7944858" lon="7.0603427">
      <time>2023-02-22T11:41:10Z</time>
    </trkpt>
    <trkpt lat="50.7943988" lon="7.0600691">
      <time>2023-02-22T11:41:15Z</time>
    </trkpt>
    <trkpt lat="50.7943829" lon="7.0600256">
      <time>2023-02-22T11:41:16Z</time>
    </trkpt>
    <trkpt lat="50.7942686" lon="7.0596951">
      <time>2023-02-22T11:41:23Z</time>
    </trkpt>
    <trkpt lat="50.7942359" lon="7.0596036">
      <time>2023-02-22T11:41:25Z</time>
    </trkpt>
    <trkpt lat="50.7941373" lon="7.0593190">
      <time>2023-02-22T11:41:31Z</time>
    </trkpt>
    <trkpt lat="50.7940105" lon="7.0589689">
      <time>2023-02-22T11:41:38Z</time>
    </trkpt>
    <trkpt lat="50.7939550" lon="7.0588151">
      <time>2023-02-22T11:41:41Z</time>
    </trkpt>
    <trkpt lat="50.7939050" lon="7.0586756">
      <time>2023-02-22T11:41:44Z</time>
    </trkpt>
    <trkpt lat="50.7937998" lon="7.0584424">
      <time>2023-02-22T11:41:50Z</time>
    </trkpt>
    <trkpt lat="50.7937371" lon="7.0583165">
      <time>2023-02-22T11:41:56Z</time>
    </trkpt>
    <trkpt lat="50.7937520" lon="7.0583783">
      <time>2023-02-22T11:42:00Z</time>
    </trkpt>
    <trkpt lat="50.7938248" lon="7.0585600">
      <time>2023-02-22T11:42:05Z</time>
    </trkpt>
    <trkpt lat="50.7938839" lon="7.0587172">
      <time>2023-02-22T11:42:09Z</time>
    </trkpt>
    <trkpt lat="50.7938992" lon="7.0587636">
      <time>2023-02-22T11:42:10Z</time>
    </trkpt>
    <trkpt lat="50.7939754" lon="7.0589514">
      <time>2023-02-22T11:42:15Z</time>
    </trkpt>
    <trkpt lat="50.7939890" lon="7.0589858">
      <time>2023-02-22T11:42:16Z</time>
    </trkpt>
    <trkpt lat="50.7940194" lon="7.0590959">
      <time>2023-02-22T11:42:20Z</time>
    </trkpt>
    <trkpt lat="50.7940206" lon="7.0591122">
      <time>2023-02-22T11:42:21Z</time>
    </trkpt>
    <trkpt lat="50.7940215" lon="7.0591180">
      <time>2023-02-22T11:42:24Z</time>
    </trkpt>
    <trkpt lat="50.7940544" lon="7.0591843">
      <time>2023-02-22T11:42:44Z</time>
    </trkpt>
    <trkpt lat="50.7940694" lon="7.0592221">
      <time>2023-02-22T11:42:45Z</time>
    </trkpt>
    <trkpt lat="50.7941810" lon="7.0595232">
      <time>2023-02-22T11:42:52Z</time>
    </trkpt>
    <trkpt lat="50.7942429" lon="7.0597073">
      <time>2023-02-22T11:42:56Z</time>
    </trkpt>
    <trkpt lat="50.7943385" lon="7.0599189">
      <time>2023-02-22T11:43:01Z</time>
    </trkpt>
    <trkpt lat="50.7943572" lon="7.0599646">
      <time>2023-02-22T11:43:02Z</time>
    </trkpt>
    <trkpt lat="50.7944285" lon="7.0601671">
      <time>2023-02-22T11:43:06Z</time>
    </trkpt>
    <trkpt lat="50.7944874" lon="7.0603554">
      <time>2023-02-22T11:43:10Z</time>
    </trkpt>
    <trkpt lat="50.7944987" lon="7.0604019">
      <time>2023-02-22T11:43:11Z</time>
    </trkpt>
    <trkpt lat="50.7945840" lon="7.0606395">
      <time>2023-02-22T11:43:16Z</time>
    </trkpt>
    <trkpt lat="50.7946636" lon="7.0608684">
      <time>2023-02-22T11:43:21Z</time>
    </trkpt>
    <trkpt lat="50.7947381" lon="7.0610124">
      <time>2023-02-22T11:43:25Z</time>
    </trkpt>
    <trkpt lat="50.7947601" lon="7.0610340">
      <time>2023-02-22T11:43:26Z</time>
    </trkpt>
    <trkpt lat="50.7947822" lon="7.0610575">
      <time>2023-02-22T11:43:27Z</time>
    </trkpt>
    <trkpt lat="50.7948393" lon="7.0611685">
      <time>2023-02-22T11:43:30Z</time>
    </trkpt>
    <trkpt lat="50.7948538" lon="7.0612048">
      <time>2023-02-22T11:43:31Z</time>
    </trkpt>
    <trkpt lat="50.7948886" lon="7.0612886">
      <time>2023-02-22T11:43:33Z</time>
    </trkpt>
    <trkpt lat="50.7949707" lon="7.0614899">
      <time>2023-02-22T11:43:38Z</time>
    </trkpt>
    <trkpt lat="50.7950471" lon="7.0617005">
      <time>2023-02-22T11:43:43Z</time>
    </trkpt>
    <trkpt lat="50.7950629" lon="7.0618445">
      <time>2023-02-22T11:43:46Z</time>
    </trkpt>
    <trkpt lat="50.7950712" lon="7.0618939">
      <time>2023-02-22T11:43:47Z</time>
    </trkpt>
    <trkpt lat="50.7950931" lon="7.0619924">
      <time>2023-02-22T11:43:49Z</time>
    </trkpt>
    <trkpt lat="50.7951443" lon="7.0621889">
      <time>2023-02-22T11:43:53Z</time>
    </trkpt>
    <trkpt lat="50.7952356" lon="7.0623722">
      <time>2023-02-22T11:43:58Z</time>
    </trkpt>
    <trkpt lat="50.7952954" lon="7.0625802">
      <time>2023-02-22T11:44:04Z</time>
    </trkpt>
    <trkpt lat="50.7953403" lon="7.0627802">
      <time>2023-02-22T11:44:09Z</time>
    </trkpt>
    <trkpt lat="50.7953979" lon="7.0629367">
      <time>2023-02-22T11:44:14Z</time>
    </trkpt>
    <trkpt lat="50.7954107" lon="7.0629639">
      <time>2023-02-22T11:44:15Z</time>
    </trkpt>
    <trkpt lat="50.7954268" lon="7.0630322">
      <time>2023-02-22T11:44:17Z</time>
    </trkpt>
    <trkpt lat="50.7954334" lon="7.0630703">
      <time>2023-02-22T11:44:18Z</time>
    </trkpt>
    <trkpt lat="50.7955051" lon="7.0632260">
      <time>2023-02-22T11:44:24Z</time>
    </trkpt>
    <trkpt lat="50.7955141" lon="7.0632458">
      <time>2023-02-22T11:44:25Z</time>
    </trkpt>
    <trkpt lat="50.7955216" lon="7.0632603">
      <time>2023-02-22T11:44:26Z</time>
    </trkpt>
    <trkpt lat="50.7955770" lon="7.0633684">
      <time>2023-02-22T11:44:31Z</time>
    </trkpt>
    <trkpt lat="50.7957001" lon="7.0635915">
      <time>2023-02-22T11:44:37Z</time>
    </trkpt>
    <trkpt lat="50.7959119" lon="7.0638805">
      <time>2023-02-22T11:44:43Z</time>
    </trkpt>
    <trkpt lat="50.7961458" lon="7.0641643">
      <time>2023-02-22T11:44:48Z</time>
    </trkpt>
    <trkpt lat="50.7962399" lon="7.0642960">
      <time>2023-02-22T11:44:50Z</time>
    </trkpt>
    <trkpt lat="50.7964268" lon="7.0646135">
      <time>2023-02-22T11:44:55Z</time>
    </trkpt>
    <trkpt lat="50.7964594" lon="7.0646701">
      <time>2023-02-22T11:44:56Z</time>
    </trkpt>
    <trkpt lat="50.7965968" lon="7.0649542">
      <time>2023-02-22T11:45:01Z</time>
    </trkpt>
    <trkpt lat="50.7966214" lon="7.0650048">
      <time>2023-02-22T11:45:02Z</time>
    </trkpt>
    <trkpt lat="50.7967362" lon="7.0652340">
      <time>2023-02-22T11:45:07Z</time>
    </trkpt>
    <trkpt lat="50.7968223" lon="7.0653731">
      <time>2023-02-22T11:45:11Z</time>
    </trkpt>
    <trkpt lat="50.7968771" lon="7.0654999">
      <time>2023-02-22T11:45:14Z</time>
    </trkpt>
    <trkpt lat="50.7968925" lon="7.0655799">
      <time>2023-02-22T11:45:16Z</time>
    </trkpt>
    <trkpt lat="50.7969079" lon="7.0656420">
      <time>2023-02-22T11:45:18Z</time>
    </trkpt>
    <trkpt lat="50.7969329" lon="7.0656366">
      <time>2023-02-22T11:45:20Z</time>
    </trkpt>
    <trkpt lat="50.7969140" lon="7.0655445">
      <time>2023-02-22T11:45:23Z</time>
    </trkpt>
    <trkpt lat="50.7968923" lon="7.0655088">
      <time>2023-02-22T11:45:24Z</time>
    </trkpt>
    <trkpt lat="50.7967387" lon="7.0652315">
      <time>2023-02-22T11:45:30Z</time>
    </trkpt>
    <trkpt lat="50.7965601" lon="7.0648412">
      <time>2023-02-22T11:45:36Z</time>
    </trkpt>
    <trkpt lat="50.7964332" lon="7.0645650">
      <time>2023-02-22T11:45:41Z</time>
    </trkpt>
    <trkpt lat="50.7962651" lon="7.0642406">
      <time>2023-02-22T11:45:47Z</time>
    </trkpt>
    <trkpt lat="50.7962348" lon="7.0641979">
      <time>2023-02-22T11:45:48Z</time>
    </trkpt>
    <trkpt lat="50.7961257" lon="7.0640720">
      <time>2023-02-22T11:45:52Z</time>
    </trkpt>
    <trkpt lat="50.7960022" lon="7.0639018">
      <time>2023-02-22T11:45:57Z</time>
    </trkpt>
    <trkpt lat="50.7959756" lon="7.0638774">
      <time>2023-02-22T11:45:58Z</time>
    </trkpt>
    <trkpt lat="50.7958399" lon="7.0637264">
      <time>2023-02-22T11:46:04Z</time>
    </trkpt>
    <trkpt lat="50.7957270" lon="7.0635333">
      <time>2023-02-22T11:46:10Z</time>
    </trkpt>
    <trkpt lat="50.7956417" lon="7.0634207">
      <time>2023-02-22T11:46:15Z</time>
    </trkpt>
    <trkpt lat="50.7956225" lon="7.0634060">
      <time>2023-02-22T11:46:17Z</time>
    </trkpt>
    <trkpt lat="50.7956305" lon="7.0634484">
      <time>2023-02-22T11:46:19Z</time>
    </trkpt>
    <trkpt lat="50.7957290" lon="7.0636244">
      <time>2023-02-22T11:46:23Z</time>
    </trkpt>
    <trkpt lat="50.7960184" lon="7.0640089">
      <time>2023-02-22T11:46:30Z</time>
    </trkpt>
    <trkpt lat="50.7963361" lon="7.0644531">
      <time>2023-02-22T11:46:37Z</time>
    </trkpt>
    <trkpt lat="50.7964417" lon="7.0646458">
      <time>2023-02-22T11:46:40Z</time>
    </trkpt>
    <trkpt lat="50.7965313" lon="7.0648307">
      <time>2023-02-22T11:46:43Z</time>
    </trkpt>
    <trkpt lat="50.7966838" lon="7.0651285">
      <time>2023-02-22T11:46:49Z</time>
    </trkpt>
    <trkpt lat="50.7967737" lon="7.0653050">
      <time>2023-02-22T11:46:53Z</time>
    </trkpt>
    <trkpt lat="50.7968811" lon="7.0655536">
      <time>2023-02-22T11:46:59Z</time>
    </trkpt>
    <trkpt lat="50.7968839" lon="7.0655971">
      <time>2023-02-22T11:47:00Z</time>
    </trkpt>
    <trkpt lat="50.7968485" lon="7.0656721">
      <time>2023-02-22T11:47:02Z</time>
    </trkpt>
    <trkpt lat="50.7966443" lon="7.0658953">
      <time>2023-02-22T11:47:10Z</time>
    </trkpt>
    <trkpt lat="50.7964909" lon="7.0660548">
      <time>2023-02-22T11:47:16Z</time>
    </trkpt>
    <trkpt lat="50.7963614" lon="7.0662108">
      <time>2023-02-22T11:47:22Z</time>
    </trkpt>
    <trkpt lat="50.7962176" lon="7.0663790">
      <time>2023-02-22T11:47:28Z</time>
    </trkpt>
    <trkpt lat="50.7961091" lon="7.0665073">
      <time>2023-02-22T11:47:33Z</time>
    </trkpt>
    <trkpt lat="50.7959657" lon="7.0667055">
      <time>2023-02-22T11:47:40Z</time>
    </trkpt>
    <trkpt lat="50.7959209" lon="7.0667572">
      <time>2023-02-22T11:47:42Z</time>
    </trkpt>
    <trkpt lat="50.7958754" lon="7.0668122">
      <time>2023-02-22T11:47:44Z</time>
    </trkpt>
    <trkpt lat="50.7958058" lon="7.0668785">
      <time>2023-02-22T11:47:47Z</time>
    </trkpt>
    <trkpt lat="50.7957649" lon="7.0669205">
      <time>2023-02-22T11:47:49Z</time>
    </trkpt>
    <trkpt lat="50.7956364" lon="7.0670515">
      <time>2023-02-22T11:47:55Z</time>
    </trkpt>
    <trkpt lat="50.7956185" lon="7.0670802">
      <time>2023-02-22T11:47:56Z</time>
    </trkpt>
    <trkpt lat="50.7955616" lon="7.0671553">
      <time>2023-02-22T11:47:59Z</time>
    </trkpt>
    <trkpt lat="50.7954662" lon="7.0672455">
      <time>2023-02-22T11:48:03Z</time>
    </trkpt>
    <trkpt lat="50.7954416" lon="7.0672690">
      <time>2023-02-22T11:48:04Z</time>
    </trkpt>
    <trkpt lat="50.7954071" lon="7.0673229">
      <time>2023-02-22T11:48:06Z</time>
    </trkpt>
    <trkpt lat="50.7953877" lon="7.0673496">
      <time>2023-02-22T11:48:07Z</time>
    </trkpt>
    <trkpt lat="50.7953224" lon="7.0674274">
      <time>2023-02-22T11:48:10Z</time>
    </trkpt>
    <trkpt lat="50.7951303" lon="7.0676490">
      <time>2023-02-22T11:48:19Z</time>
    </trkpt>
    <trkpt lat="50.7949727" lon="7.0678557">
      <time>2023-02-22T11:48:27Z</time>
    </trkpt>
    <trkpt lat="50.7948330" lon="7.0680336">
      <time>2023-02-22T11:48:32Z</time>
    </trkpt>
    <trkpt lat="50.7948015" lon="7.0680717">
      <time>2023-02-22T11:48:33Z</time>
    </trkpt>
    <trkpt lat="50.7946749" lon="7.0682266">
      <time>2023-02-22T11:48:37Z</time>
    </trkpt>
    <trkpt lat="50.7945252" lon="7.0683944">
      <time>2023-02-22T11:48:42Z</time>
    </trkpt>
    <trkpt lat="50.7944955" lon="7.0684284">
      <time>2023-02-22T11:48:43Z</time>
    </trkpt>
    <trkpt lat="50.7943854" lon="7.0685693">
      <time>2023-02-22T11:48:47Z</time>
    </trkpt>
    <trkpt lat="50.7943315" lon="7.0686354">
      <time>2023-02-22T11:48:49Z</time>
    </trkpt>
    <trkpt lat="50.7941430" lon="7.0688456">
      <time>2023-02-22T11:48:56Z</time>
    </trkpt>
    <trkpt lat="50.7940225" lon="7.0689900">
      <time>2023-02-22T11:49:01Z</time>
    </trkpt>
    <trkpt lat="50.7939750" lon="7.0690427">
      <time>2023-02-22T11:49:03Z</time>
    </trkpt>
    <trkpt lat="50.7939285" lon="7.0690926">
      <time>2023-02-22T11:49:05Z</time>
    </trkpt>
    <trkpt lat="50.7938808" lon="7.0691525">
      <time>2023-02-22T11:49:07Z</time>
    </trkpt>
    <trkpt lat="50.7938575" lon="7.0691847">
      <time>2023-02-22T11:49:08Z</time>
    </trkpt>
    <trkpt lat="50.7937501" lon="7.0693172">
      <time>2023-02-22T11:49:12Z</time>
    </trkpt>
    <trkpt lat="50.7937002" lon="7.0693758">
      <time>2023-02-22T11:49:14Z</time>
    </trkpt>
    <trkpt lat="50.7935467" lon="7.0695626">
      <time>2023-02-22T11:49:20Z</time>
    </trkpt>
    <trkpt lat="50.7933362" lon="7.0697923">
      <time>2023-02-22T11:49:28Z</time>
    </trkpt>
    <trkpt lat="50.7931643" lon="7.0699933">
      <time>2023-02-22T11:49:34Z</time>
    </trkpt>
    <trkpt lat="50.7930178" lon="7.0701809">
      <time>2023-02-22T11:49:39Z</time>
    </trkpt>
    <trkpt lat="50.7928238" lon="7.0704157">
      <time>2023-02-22T11:49:46Z</time>
    </trkpt>
    <trkpt lat="50.7926499" lon="7.0706154">
      <time>2023-02-22T11:49:52Z</time>
    </trkpt>
    <trkpt lat="50.7926198" lon="7.0706498">
      <time>2023-02-22T11:49:53Z</time>
    </trkpt>
    <trkpt lat="50.7924228" lon="7.0708892">
      <time>2023-02-22T11:50:00Z</time>
    </trkpt>
    <trkpt lat="50.7922199" lon="7.0711377">
      <time>2023-02-22T11:50:07Z</time>
    </trkpt>
    <trkpt lat="50.7920484" lon="7.0713446">
      <time>2023-02-22T11:50:13Z</time>
    </trkpt>
    <trkpt lat="50.7920095" lon="7.0714365">
      <time>2023-02-22T11:50:15Z</time>
    </trkpt>
    <trkpt lat="50.7920231" lon="7.0715483">
      <time>2023-02-22T11:50:17Z</time>
    </trkpt>
    <trkpt lat="50.7921163" lon="7.0717696">
      <time>2023-02-22T11:50:22Z</time>
    </trkpt>
    <trkpt lat="50.7922431" lon="7.0720307">
      <time>2023-02-22T11:50:29Z</time>
    </trkpt>
    <trkpt lat="50.7923915" lon="7.0723285">
      <time>2023-02-22T11:50:37Z</time>
    </trkpt>
    <trkpt lat="50.7925733" lon="7.0726982">
      <time>2023-02-22T11:50:46Z</time>
    </trkpt>
    <trkpt lat="50.7926632" lon="7.0728977">
      <time>2023-02-22T11:50:50Z</time>
    </trkpt>
    <trkpt lat="50.7927121" lon="7.0729923">
      <time>2023-02-22T11:50:52Z</time>
    </trkpt>
    <trkpt lat="50.7928831" lon="7.0733240">
      <time>2023-02-22T11:50:59Z</time>
    </trkpt>
    <trkpt lat="50.7930214" lon="7.0736278">
      <time>2023-02-22T11:51:06Z</time>
    </trkpt>
    <trkpt lat="50.7931323" lon="7.0738412">
      <time>2023-02-22T11:51:12Z</time>
    </trkpt>
    <trkpt lat="50.7931557" lon="7.0738727">
      <time>2023-02-22T11:51:13Z</time>
    </trkpt>
    <trkpt lat="50.7932485" lon="7.0741269">
      <time>2023-02-22T11:51:19Z</time>
    </trkpt>
    <trkpt lat="50.7933084" lon="7.0742881">
      <time>2023-02-22T11:51:23Z</time>
    </trkpt>
    <trkpt lat="50.7933343" lon="7.0743149">
      <time>2023-02-22T11:51:24Z</time>
    </trkpt>
    <trkpt lat="50.7934174" lon="7.0744715">
      <time>2023-02-22T11:51:28Z</time>
    </trkpt>
    <trkpt lat="50.7935601" lon="7.0748009">
      <time>2023-02-22T11:51:35Z</time>
    </trkpt>
    <trkpt lat="50.7936709" lon="7.0750310">
      <time>2023-02-22T11:51:40Z</time>
    </trkpt>
    <trkpt lat="50.7937677" lon="7.0752231">
      <time>2023-02-22T11:51:44Z</time>
    </trkpt>
    <trkpt lat="50.7939141" lon="7.0755606">
      <time>2023-02-22T11:51:51Z</time>
    </trkpt>
    <trkpt lat="50.7939908" lon="7.0757711">
      <time>2023-02-22T11:51:55Z</time>
    </trkpt>
    <trkpt lat="50.7940282" lon="7.0758613">
      <time>2023-02-22T11:51:57Z</time>
    </trkpt>
    <trkpt lat="50.7940462" lon="7.0759022">
      <time>2023-02-22T11:51:58Z</time>
    </trkpt>
    <trkpt lat="50.7940725" lon="7.0759328">
      <time>2023-02-22T11:51:59Z</time>
    </trkpt>
    <trkpt lat="50.7940958" lon="7.0759605">
      <time>2023-02-22T11:52:00Z</time>
    </trkpt>
    <trkpt lat="50.7941683" lon="7.0760822">
      <time>2023-02-22T11:52:03Z</time>
    </trkpt>
    <trkpt lat="50.7942346" lon="7.0762302">
      <time>2023-02-22T11:52:06Z</time>
    </trkpt>
    <trkpt lat="50.7942503" lon="7.0762772">
      <time>2023-02-22T11:52:07Z</time>
    </trkpt>
    <trkpt lat="50.7943781" lon="7.0765325">
      <time>2023-02-22T11:52:13Z</time>
    </trkpt>
    <trkpt lat="50.7944721" lon="7.0767228">
      <time>2023-02-22T11:52:17Z</time>
    </trkpt>
    <trkpt lat="50.7945818" lon="7.0769474">
      <time>2023-02-22T11:52:22Z</time>
    </trkpt>
    <trkpt lat="50.7946849" lon="7.0771831">
      <time>2023-02-22T11:52:27Z</time>
    </trkpt>
    <trkpt lat="50.7947300" lon="7.0772697">
      <time>2023-02-22T11:52:29Z</time>
    </trkpt>
    <trkpt lat="50.7947501" lon="7.0773199">
      <time>2023-02-22T11:52:30Z</time>
    </trkpt>
    <trkpt lat="50.7947972" lon="7.0774207">
      <time>2023-02-22T11:52:32Z</time>
    </trkpt>
    <trkpt lat="50.7948566" lon="7.0775665">
      <time>2023-02-22T11:52:35Z</time>
    </trkpt>
    <trkpt lat="50.7949084" lon="7.0776448">
      <time>2023-02-22T11:52:37Z</time>
    </trkpt>
    <trkpt lat="50.7950311" lon="7.0778801">
      <time>2023-02-22T11:52:42Z</time>
    </trkpt>
    <trkpt lat="50.7950883" lon="7.0780269">
      <time>2023-02-22T11:52:45Z</time>
    </trkpt>
    <trkpt lat="50.7951069" lon="7.0780728">
      <time>2023-02-22T11:52:46Z</time>
    </trkpt>
    <trkpt lat="50.7951290" lon="7.0781159">
      <time>2023-02-22T11:52:47Z</time>
    </trkpt>
    <trkpt lat="50.7952072" lon="7.0782843">
      <time>2023-02-22T11:52:51Z</time>
    </trkpt>
    <trkpt lat="50.7952289" lon="7.0783208">
      <time>2023-02-22T11:52:52Z</time>
    </trkpt>
    <trkpt lat="50.7953307" lon="7.0785342">
      <time>2023-02-22T11:52:57Z</time>
    </trkpt>
    <trkpt lat="50.7954711" lon="7.0788339">
      <time>2023-02-22T11:53:04Z</time>
    </trkpt>
    <trkpt lat="50.7955342" lon="7.0790140">
      <time>2023-02-22T11:53:08Z</time>
    </trkpt>
    <trkpt lat="50.7956357" lon="7.0792199">
      <time>2023-02-22T11:53:13Z</time>
    </trkpt>
    <trkpt lat="50.7957046" lon="7.0793262">
      <time>2023-02-22T11:53:16Z</time>
    </trkpt>
    <trkpt lat="50.7957249" lon="7.0793639">
      <time>2023-02-22T11:53:17Z</time>
    </trkpt>
    <trkpt lat="50.7957428" lon="7.0794066">
      <time>2023-02-22T11:53:18Z</time>
    </trkpt>
    <trkpt lat="50.7957618" lon="7.0794477">
      <time>2023-02-22T11:53:19Z</time>
    </trkpt>
    <trkpt lat="50.7958493" lon="7.0796557">
      <time>2023-02-22T11:53:24Z</time>
    </trkpt>
    <trkpt lat="50.7959815" lon="7.0799242">
      <time>2023-02-22T11:53:31Z</time>
    </trkpt>
    <trkpt lat="50.7960516" lon="7.0800834">
      <time>2023-02-22T11:53:35Z</time>
    </trkpt>
    <trkpt lat="50.7960890" lon="7.0801742">
      <time>2023-02-22T11:53:37Z</time>
    </trkpt>
    <trkpt lat="50.7961102" lon="7.0802168">
      <time>2023-02-22T11:53:38Z</time>
    </trkpt>
    <trkpt lat="50.7962233" lon="7.0804545">
      <time>2023-02-22T11:53:43Z</time>
    </trkpt>
    <trkpt lat="50.7963666" lon="7.0806729">
      <time>2023-02-22T11:53:48Z</time>
    </trkpt>
    <trkpt lat="50.7964268" lon="7.0807699">
      <time>2023-02-22T11:53:50Z</time>
    </trkpt>
    <trkpt lat="50.7965286" lon="7.0809474">
      <time>2023-02-22T11:53:54Z</time>
    </trkpt>
    <trkpt lat="50.7966310" lon="7.0811064">
      <time>2023-02-22T11:53:58Z</time>
    </trkpt>
    <trkpt lat="50.7967794" lon="7.0813533">
      <time>2023-02-22T11:54:04Z</time>
    </trkpt>
    <trkpt lat="50.7969490" lon="7.0816377">
      <time>2023-02-22T11:54:10Z</time>
    </trkpt>
    <trkpt lat="50.7970075" lon="7.0817335">
      <time>2023-02-22T11:54:12Z</time>
    </trkpt>
    <trkpt lat="50.7971198" lon="7.0819322">
      <time>2023-02-22T11:54:16Z</time>
    </trkpt>
    <trkpt lat="50.7971769" lon="7.0820326">
      <time>2023-02-22T11:54:18Z</time>
    </trkpt>
    <trkpt lat="50.7972833" lon="7.0822217">
      <time>2023-02-22T11:54:22Z</time>
    </trkpt>
    <trkpt lat="50.7973379" lon="7.0823138">
      <time>2023-02-22T11:54:24Z</time>
    </trkpt>
    <trkpt lat="50.7974007" lon="7.0823908">
      <time>2023-02-22T11:54:26Z</time>
    </trkpt>
    <trkpt lat="50.7974609" lon="7.0824680">
      <time>2023-02-22T11:54:28Z</time>
    </trkpt>
    <trkpt lat="50.7975564" lon="7.0826389">
      <time>2023-02-22T11:54:32Z</time>
    </trkpt>
    <trkpt lat="50.7975809" lon="7.0826902">
      <time>2023-02-22T11:54:33Z</time>
    </trkpt>
    <trkpt lat="50.7976537" lon="7.0828451">
      <time>2023-02-22T11:54:36Z</time>
    </trkpt>
    <trkpt lat="50.7977207" lon="7.0829715">
      <time>2023-02-22T11:54:39Z</time>
    </trkpt>
    <trkpt lat="50.7979074" lon="7.0832845">
      <time>2023-02-22T11:54:46Z</time>
    </trkpt>
    <trkpt lat="50.7980615" lon="7.0835517">
      <time>2023-02-22T11:54:52Z</time>
    </trkpt>
    <trkpt lat="50.7981819" lon="7.0837641">
      <time>2023-02-22T11:54:57Z</time>
    </trkpt>
    <trkpt lat="50.7982520" lon="7.0838638">
      <time>2023-02-22T11:55:00Z</time>
    </trkpt>
    <trkpt lat="50.7983108" lon="7.0839212">
      <time>2023-02-22T11:55:02Z</time>
    </trkpt>
    <trkpt lat="50.7984616" lon="7.0841624">
      <time>2023-02-22T11:55:08Z</time>
    </trkpt>
    <trkpt lat="50.7986213" lon="7.0844495">
      <time>2023-02-22T11:55:15Z</time>
    </trkpt>
    <trkpt lat="50.7987071" lon="7.0845975">
      <time>2023-02-22T11:55:19Z</time>
    </trkpt>
    <trkpt lat="50.7987766" lon="7.0847140">
      <time>2023-02-22T11:55:22Z</time>
    </trkpt>
    <trkpt lat="50.7988293" lon="7.0847964">
      <time>2023-02-22T11:55:24Z</time>
    </trkpt>
    <trkpt lat="50.7989590" lon="7.0850141">
      <time>2023-02-22T11:55:29Z</time>
    </trkpt>
    <trkpt lat="50.7991148" lon="7.0852658">
      <time>2023-02-22T11:55:35Z</time>
    </trkpt>
    <trkpt lat="50.7992903" lon="7.0855646">
      <time>2023-02-22T11:55:42Z</time>
    </trkpt>
    <trkpt lat="50.7994016" lon="7.0857744">
      <time>2023-02-22T11:55:47Z</time>
    </trkpt>
    <trkpt lat="50.7995431" lon="7.0859947">
      <time>2023-02-22T11:55:53Z</time>
    </trkpt>
    <trkpt lat="50.7996944" lon="7.0862665">
      <time>2023-02-22T11:56:00Z</time>
    </trkpt>
    <trkpt lat="50.7998707" lon="7.0865728">
      <time>2023-02-22T11:56:07Z</time>
    </trkpt>
    <trkpt lat="50.8000685" lon="7.0869042">
      <time>2023-02-22T11:56:14Z</time>
    </trkpt>
    <trkpt lat="50.8001487" lon="7.0870341">
      <time>2023-02-22T11:56:17Z</time>
    </trkpt>
    <trkpt lat="50.8002013" lon="7.0871219">
      <time>2023-02-22T11:56:19Z</time>
    </trkpt>
    <trkpt lat="50.8003335" lon="7.0872953">
      <time>2023-02-22T11:56:24Z</time>
    </trkpt>
    <trkpt lat="50.8004284" lon="7.0874633">
      <time>2023-02-22T11:56:28Z</time>
    </trkpt>
    <trkpt lat="50.8005735" lon="7.0877369">
      <time>2023-02-22T11:56:35Z</time>
    </trkpt>
    <trkpt lat="50.8007485" lon="7.0880432">
      <time>2023-02-22T11:56:42Z</time>
    </trkpt>
    <trkpt lat="50.8009375" lon="7.0883640">
      <time>2023-02-22T11:56:49Z</time>
    </trkpt>
    <trkpt lat="50.8011604" lon="7.0887315">
      <time>2023-02-22T11:56:57Z</time>
    </trkpt>
    <trkpt lat="50.8013785" lon="7.0890887">
      <time>2023-02-22T11:57:05Z</time>
    </trkpt>
    <trkpt lat="50.8014317" lon="7.0891735">
      <time>2023-02-22T11:57:07Z</time>
    </trkpt>
    <trkpt lat="50.8015443" lon="7.0893532">
      <time>2023-02-22T11:57:11Z</time>
    </trkpt>
    <trkpt lat="50.8016212" lon="7.0894875">
      <time>2023-02-22T11:57:14Z</time>
    </trkpt>
    <trkpt lat="50.8017780" lon="7.0897502">
      <time>2023-02-22T11:57:20Z</time>
    </trkpt>
    <trkpt lat="50.8018256" lon="7.0898346">
      <time>2023-02-22T11:57:22Z</time>
    </trkpt>
    <trkpt lat="50.8019870" lon="7.0901230">
      <time>2023-02-22T11:57:29Z</time>
    </trkpt>
    <trkpt lat="50.8021069" lon="7.0902974">
      <time>2023-02-22T11:57:34Z</time>
    </trkpt>
    <trkpt lat="50.8022195" lon="7.0905229">
      <time>2023-02-22T11:57:40Z</time>
    </trkpt>
    <trkpt lat="50.8022385" lon="7.0906458">
      <time>2023-02-22T11:57:43Z</time>
    </trkpt>
    <trkpt lat="50.8022279" lon="7.0906758">
      <time>2023-02-22T11:57:44Z</time>
    </trkpt>
    <trkpt lat="50.8020930" lon="7.0908598">
      <time>2023-02-22T11:57:51Z</time>
    </trkpt>
    <trkpt lat="50.8019499" lon="7.0910178">
      <time>2023-02-22T11:57:57Z</time>
    </trkpt>
    <trkpt lat="50.8018126" lon="7.0911718">
      <time>2023-02-22T11:58:02Z</time>
    </trkpt>
    <trkpt lat="50.8016343" lon="7.0914016">
      <time>2023-02-22T11:58:08Z</time>
    </trkpt>
    <trkpt lat="50.8016051" lon="7.0914346">
      <time>2023-02-22T11:58:09Z</time>
    </trkpt>
    <trkpt lat="50.8015765" lon="7.0914648">
      <time>2023-02-22T11:58:10Z</time>
    </trkpt>
    <trkpt lat="50.8014417" lon="7.0916304">
      <time>2023-02-22T11:58:15Z</time>
    </trkpt>
    <trkpt lat="50.8012106" lon="7.0918737">
      <time>2023-02-22T11:58:22Z</time>
    </trkpt>
    <trkpt lat="50.8010530" lon="7.0920738">
      <time>2023-02-22T11:58:27Z</time>
    </trkpt>
    <trkpt lat="50.8010210" lon="7.0921125">
      <time>2023-02-22T11:58:28Z</time>
    </trkpt>
    <trkpt lat="50.8007683" lon="7.0923734">
      <time>2023-02-22T11:58:36Z</time>
    </trkpt>
    <trkpt lat="50.8005647" lon="7.0927012">
      <time>2023-02-22T11:58:44Z</time>
    </trkpt>
    <trkpt lat="50.8004892" lon="7.0928423">
      <time>2023-02-22T11:58:47Z</time>
    </trkpt>
    <trkpt lat="50.8003426" lon="7.0931155">
      <time>2023-02-22T11:58:53Z</time>
    </trkpt>
    <trkpt lat="50.8002272" lon="7.0933447">
      <time>2023-02-22T11:58:58Z</time>
    </trkpt>
    <trkpt lat="50.8000253" lon="7.0937297">
      <time>2023-02-22T11:59:06Z</time>
    </trkpt>
    <trkpt lat="50.7998772" lon="7.0940010">
      <time>2023-02-22T11:59:12Z</time>
    </trkpt>
    <trkpt lat="50.7998457" lon="7.0942041">
      <time>2023-02-22T11:59:16Z</time>
    </trkpt>
    <trkpt lat="50.7999097" lon="7.0943245">
      <time>2023-02-22T11:59:19Z</time>
    </trkpt>
    <trkpt lat="50.8000322" lon="7.0944993">
      <time>2023-02-22T11:59:24Z</time>
    </trkpt>
    <trkpt lat="50.8001541" lon="7.0946656">
      <time>2023-02-22T11:59:29Z</time>
    </trkpt>
    <trkpt lat="50.8002436" lon="7.0948187">
      <time>2023-02-22T11:59:33Z</time>
    </trkpt>
    <trkpt lat="50.8003637" lon="7.0950084">
      <time>2023-02-22T11:59:38Z</time>
    </trkpt>
    <trkpt lat="50.8003898" lon="7.0950405">
      <time>2023-02-22T11:59:39Z</time>
    </trkpt>
    <trkpt lat="50.8005099" lon="7.0952301">
      <time>2023-02-22T11:59:44Z</time>
    </trkpt>
    <trkpt lat="50.8006579" lon="7.0954635">
      <time>2023-02-22T11:59:50Z</time>
    </trkpt>
    <trkpt lat="50.8008028" lon="7.0956826">
      <time>2023-02-22T11:59:56Z</time>
    </trkpt>
    <trkpt lat="50.8008982" lon="7.0958425">
      <time>2023-02-22T12:00:00Z</time>
    </trkpt>
    <trkpt lat="50.8010190" lon="7.0960278">
      <time>2023-02-22T12:00:05Z</time>
    </trkpt>
    <trkpt lat="50.8011436" lon="7.0962122">
      <time>2023-02-22T12:00:10Z</time>
    </trkpt>
    <trkpt lat="50.8013018" lon="7.0964484">
      <time>2023-02-22T12:00:17Z</time>
    </trkpt>
    <trkpt lat="50.8014543" lon="7.0966703">
      <time>2023-02-22T12:00:23Z</time>
    </trkpt>
    <trkpt lat="50.8015611" lon="7.0968353">
      <time>2023-02-22T12:00:27Z</time>
    </trkpt>
    <trkpt lat="50.8017070" lon="7.0970898">
      <time>2023-02-22T12:00:33Z</time>
    </trkpt>
    <trkpt lat="50.8018608" lon="7.0973460">
      <time>2023-02-22T12:00:39Z</time>
    </trkpt>
    <trkpt lat="50.8020125" lon="7.0975788">
      <time>2023-02-22T12:00:45Z</time>
    </trkpt>
    <trkpt lat="50.8021849" lon="7.0978373">
      <time>2023-02-22T12:00:52Z</time>
    </trkpt>
    <trkpt lat="50.8023276" lon="7.0980575">
      <time>2023-02-22T12:00:58Z</time>
    </trkpt>
    <trkpt lat="50.8023519" lon="7.0980922">
      <time>2023-02-22T12:00:59Z</time>
    </trkpt>
    <trkpt lat="50.8024265" lon="7.0981746">
      <time>2023-02-22T12:01:02Z</time>
    </trkpt>
    <trkpt lat="50.8024591" lon="7.0981699">
      <time>2023-02-22T12:01:03Z</time>
    </trkpt>
    <trkpt lat="50.8025627" lon="7.0980430">
      <time>2023-02-22T12:01:07Z</time>
    </trkpt>
    <trkpt lat="50.8026585" lon="7.0978860">
      <time>2023-02-22T12:01:11Z</time>
    </trkpt>
    <trkpt lat="50.8027266" lon="7.0977806">
      <time>2023-02-22T12:01:14Z</time>
    </trkpt>
    <trkpt lat="50.8029120" lon="7.0974535">
      <time>2023-02-22T12:01:22Z</time>
    </trkpt>
    <trkpt lat="50.8030500" lon="7.0972333">
      <time>2023-02-22T12:01:27Z</time>
    </trkpt>
    <trkpt lat="50.8032207" lon="7.0969588">
      <time>2023-02-22T12:01:33Z</time>
    </trkpt>
    <trkpt lat="50.8033834" lon="7.0967048">
      <time>2023-02-22T12:01:39Z</time>
    </trkpt>
    <trkpt lat="50.8034704" lon="7.0965597">
      <time>2023-02-22T12:01:42Z</time>
    </trkpt>
    <trkpt lat="50.8035603" lon="7.0964307">
      <time>2023-02-22T12:01:45Z</time>
    </trkpt>
    <trkpt lat="50.8036252" lon="7.0963336">
      <time>2023-02-22T12:01:47Z</time>
    </trkpt>
    <trkpt lat="50.8037391" lon="7.0961441">
      <time>2023-02-22T12:01:51Z</time>
    </trkpt>
    <trkpt lat="50.8038011" lon="7.0960527">
      <time>2023-02-22T12:01:53Z</time>
    </trkpt>
    <trkpt lat="50.8038653" lon="7.0959561">
      <time>2023-02-22T12:01:55Z</time>
    </trkpt>
    <trkpt lat="50.8038978" lon="7.0959088">
      <time>2023-02-22T12:01:56Z</time>
    </trkpt>
    <trkpt lat="50.8039245" lon="7.0958618">
      <time>2023-02-22T12:01:57Z</time>
    </trkpt>
    <trkpt lat="50.8039810" lon="7.0957829">
      <time>2023-02-22T12:01:59Z</time>
    </trkpt>
    <trkpt lat="50.8040307" lon="7.0957018">
      <time>2023-02-22T12:02:01Z</time>
    </trkpt>
    <trkpt lat="50.8041482" lon="7.0954831">
      <time>2023-02-22T12:02:06Z</time>
    </trkpt>
    <trkpt lat="50.8041639" lon="7.0954437">
      <time>2023-02-22T12:02:07Z</time>
    </trkpt>
    <trkpt lat="50.8043179" lon="7.0952028">
      <time>2023-02-22T12:02:13Z</time>
    </trkpt>
    <trkpt lat="50.8044931" lon="7.0949280">
      <time>2023-02-22T12:02:20Z</time>
    </trkpt>
    <trkpt lat="50.8046159" lon="7.0947276">
      <time>2023-02-22T12:02:25Z</time>
    </trkpt>
    <trkpt lat="50.8046409" lon="7.0946827">
      <time>2023-02-22T12:02:26Z</time>
    </trkpt>
    <trkpt lat="50.8046902" lon="7.0946073">
      <time>2023-02-22T12:02:28Z</time>
    </trkpt>
    <trkpt lat="50.8047178" lon="7.0945731">
      <time>2023-02-22T12:02:29Z</time>
    </trkpt>
    <trkpt lat="50.8047692" lon="7.0944995">
      <time>2023-02-22T12:02:31Z</time>
    </trkpt>
    <trkpt lat="50.8048382" lon="7.0943931">
      <time>2023-02-22T12:02:34Z</time>
    </trkpt>
    <trkpt lat="50.8049600" lon="7.0941850">
      <time>2023-02-22T12:02:39Z</time>
    </trkpt>
    <trkpt lat="50.8050360" lon="7.0940666">
      <time>2023-02-22T12:02:42Z</time>
    </trkpt>
    <trkpt lat="50.8050902" lon="7.0939812">
      <time>2023-02-22T12:02:44Z</time>
    </trkpt>
    <trkpt lat="50.8052558" lon="7.0937228">
      <time>2023-02-22T12:02:50Z</time>
    </trkpt>
    <trkpt lat="50.8054682" lon="7.0933992">
      <time>2023-02-22T12:02:58Z</time>
    </trkpt>
    <trkpt lat="50.8056651" lon="7.0930839">
      <time>2023-02-22T12:03:06Z</time>
    </trkpt>
    <trkpt lat="50.8058225" lon="7.0928467">
      <time>2023-02-22T12:03:12Z</time>
    </trkpt>
    <trkpt lat="50.8060174" lon="7.0925076">
      <time>2023-02-22T12:03:20Z</time>
    </trkpt>
    <trkpt lat="50.8061473" lon="7.0922981">
      <time>2023-02-22T12:03:26Z</time>
    </trkpt>
    <trkpt lat="50.8061800" lon="7.0922355">
      <time>2023-02-22T12:03:28Z</time>
    </trkpt>
  </trkseg></trk>
</gpx>
