<?xml version="1.0" encoding="UTF-8"?>
<gpx version="1.1" creator="Diary FIT converter" xmlns="http://www.topografix.com/GPX/1/1">
  <trk><name>Cycling</name><trkseg>
    <trkpt lat="50.9631463" lon="6.8769014">
      <ele>48.6</ele>
      <time>2025-06-18T16:09:27Z</time>
    </trkpt>
    <trkpt lat="50.9633157" lon="6.8772258">
      <ele>48.6</ele>
      <time>2025-06-18T16:09:29Z</time>
    </trkpt>
    <trkpt lat="50.9633743" lon="6.8773470">
      <ele>48.6</ele>
      <time>2025-06-18T16:09:31Z</time>
    </trkpt>
    <trkpt lat="50.9634581" lon="6.8776017">
      <ele>48.6</ele>
      <time>2025-06-18T16:09:34Z</time>
    </trkpt>
    <trkpt lat="50.9634652" lon="6.8776607">
      <ele>48.6</ele>
      <time>2025-06-18T16:09:35Z</time>
    </trkpt>
    <trkpt lat="50.9634623" lon="6.8777061">
      <ele>48.6</ele>
      <time>2025-06-18T16:09:36Z</time>
    </trkpt>
    <trkpt lat="50.9634661" lon="6.8777540">
      <ele>48.6</ele>
      <time>2025-06-18T16:09:37Z</time>
    </trkpt>
    <trkpt lat="50.9634840" lon="6.8779032">
      <ele>48.6</ele>
      <time>2025-06-18T16:09:39Z</time>
    </trkpt>
    <trkpt lat="50.9635603" lon="6.8779655">
      <ele>48.6</ele>
      <time>2025-06-18T16:09:41Z</time>
    </trkpt>
    <trkpt lat="50.9636455" lon="6.8779580">
      <ele>48.6</ele>
      <time>2025-06-18T16:09:43Z</time>
    </trkpt>
    <trkpt lat="50.9637182" lon="6.8780438">
      <ele>48.6</ele>
      <time>2025-06-18T16:09:45Z</time>
    </trkpt>
    <trkpt lat="50.9638268" lon="6.8781355">
      <ele>48.6</ele>
      <time>2025-06-18T16:09:47Z</time>
    </trkpt>
    <trkpt lat="50.9638902" lon="6.8781755">
      <ele>48.6</ele>
      <time>2025-06-18T16:09:48Z</time>
    </trkpt>
    <trkpt lat="50.9639829" lon="6.8783053">
      <ele>48.6</ele>
      <time>2025-06-18T16:09:50Z</time>
    </trkpt>
    <trkpt lat="50.9640442" lon="6.8783605">
      <ele>48.6</ele>
      <time>2025-06-18T16:09:52Z</time>
    </trkpt>
    <trkpt lat="50.9640786" lon="6.8783702">
      <ele>48.6</ele>
      <time>2025-06-18T16:09:53Z</time>
    </trkpt>
    <trkpt lat="50.9641223" lon="6.8783379">
      <ele>48.6</ele>
      <time>2025-06-18T16:09:54Z</time>
    </trkpt>
    <trkpt lat="50.9641492" lon="6.8783406">
      <ele>48.6</ele>
      <time>2025-06-18T16:09:55Z</time>
    </trkpt>
    <trkpt lat="50.9641585" lon="6.8783651">
      <ele>48.6</ele>
      <time>2025-06-18T16:09:56Z</time>
    </trkpt>
    <trkpt lat="50.9641824" lon="6.8784716">
      <ele>48.6</ele>
      <time>2025-06-18T16:09:59Z</time>
    </trkpt>
    <trkpt lat="50.9641941" lon="6.8785394">
      <ele>48.6</ele>
      <time>2025-06-18T16:10:00Z</time>
    </trkpt>
    <trkpt lat="50.9642342" lon="6.8787875">
      <ele>48.6</ele>
      <time>2025-06-18T16:10:03Z</time>
    </trkpt>
    <trkpt lat="50.9642754" lon="6.8788852">
      <ele>48.6</ele>
      <time>2025-06-18T16:10:04Z</time>
    </trkpt>
    <trkpt lat="50.9644469" lon="6.8791048">
      <ele>48.6</ele>
      <time>2025-06-18T16:10:07Z</time>
    </trkpt>
    <trkpt lat="50.9645864" lon="6.8793081">
      <ele>48.6</ele>
      <time>2025-06-18T16:10:11Z</time>
    </trkpt>
    <trkpt lat="50.9647147" lon="6.8795827">
      <ele>48.6</ele>
      <time>2025-06-18T16:10:16Z</time>
    </trkpt>
    <trkpt lat="50.9649424" lon="6.8798161">
      <ele>48.6</ele>
      <time>2025-06-18T16:10:21Z</time>
    </trkpt>
    <trkpt lat="50.9650795" lon="6.8799416">
      <ele>48.6</ele>
      <time>2025-06-18T16:10:24Z</time>
    </trkpt>
    <trkpt lat="50.9651320" lon="6.8800542">
      <ele>48.6</ele>
      <time>2025-06-18T16:10:26Z</time>
    </trkpt>
    <trkpt lat="50.9653013" lon="6.8802452">
      <ele>48.6</ele>
      <time>2025-06-18T16:10:29Z</time>
    </trkpt>
    <trkpt lat="50.9653905" lon="6.8803316">
      <ele>48.6</ele>
      <time>2025-06-18T16:10:31Z</time>
    </trkpt>
    <trkpt lat="50.9656013" lon="6.8805977">
      <ele>48.6</ele>
      <time>2025-06-18T16:10:35Z</time>
    </trkpt>
    <trkpt lat="50.9656669" lon="6.8806845">
      <ele>48.6</ele>
      <time>2025-06-18T16:10:37Z</time>
    </trkpt>
    <trkpt lat="50.9657402" lon="6.8808171">
      <ele>48.6</ele>
      <time>2025-06-18T16:10:39Z</time>
    </trkpt>
    <trkpt lat="50.9658721" lon="6.8809242">
      <ele>48.6</ele>
      <time>2025-06-18T16:10:41Z</time>
    </trkpt>
    <trkpt lat="50.9659651" lon="6.8809710">
      <ele>48.6</ele>
      <time>2025-06-18T16:10:45Z</time>
    </trkpt>
    <trkpt lat="50.9660082" lon="6.8809569">
      <ele>48.6</ele>
      <time>2025-06-18T16:10:47Z</time>
    </trkpt>
    <trkpt lat="50.9660642" lon="6.8809511">
      <ele>48.6</ele>
      <time>2025-06-18T16:10:49Z</time>
    </trkpt>
    <trkpt lat="50.9660674" lon="6.8809682">
      <ele>48.6</ele>
      <time>2025-06-18T16:10:50Z</time>
    </trkpt>
    <trkpt lat="50.9659915" lon="6.8811034">
      <ele>48.6</ele>
      <time>2025-06-18T16:10:53Z</time>
    </trkpt>
    <trkpt lat="50.9659435" lon="6.8812653">
      <ele>48.6</ele>
      <time>2025-06-18T16:10:56Z</time>
    </trkpt>
    <trkpt lat="50.9659819" lon="6.8813711">
      <ele>48.6</ele>
      <time>2025-06-18T16:10:57Z</time>
    </trkpt>
    <trkpt lat="50.9660583" lon="6.8815745">
      <ele>48.6</ele>
      <time>2025-06-18T16:10:59Z</time>
    </trkpt>
    <trkpt lat="50.9660904" lon="6.8819984">
      <ele>48.6</ele>
      <time>2025-06-18T16:11:03Z</time>
    </trkpt>
    <trkpt lat="50.9660670" lon="6.8821616">
      <ele>48.6</ele>
      <time>2025-06-18T16:11:06Z</time>
    </trkpt>
    <trkpt lat="50.9659784" lon="6.8824480">
      <ele>48.6</ele>
      <time>2025-06-18T16:11:11Z</time>
    </trkpt>
    <trkpt lat="50.9659138" lon="6.8826262">
      <ele>48.6</ele>
      <time>2025-06-18T16:11:14Z</time>
    </trkpt>
    <trkpt lat="50.9659144" lon="6.8826532">
      <ele>48.6</ele>
      <time>2025-06-18T16:11:15Z</time>
    </trkpt>
    <trkpt lat="50.9659224" lon="6.8826942">
      <ele>48.6</ele>
      <time>2025-06-18T16:11:17Z</time>
    </trkpt>
    <trkpt lat="50.9659063" lon="6.8827311">
      <ele>48.6</ele>
      <time>2025-06-18T16:11:18Z</time>
    </trkpt>
    <trkpt lat="50.9658762" lon="6.8827885">
      <ele>48.6</ele>
      <time>2025-06-18T16:11:20Z</time>
    </trkpt>
    <trkpt lat="50.9658630" lon="6.8828160">
      <ele>48.6</ele>
      <time>2025-06-18T16:11:21Z</time>
    </trkpt>
    <trkpt lat="50.9658074" lon="6.8829544">
      <ele>48.6</ele>
      <time>2025-06-18T16:11:24Z</time>
    </trkpt>
    <trkpt lat="50.9658087" lon="6.8829738">
      <ele>48.6</ele>
      <time>2025-06-18T16:11:25Z</time>
    </trkpt>
    <trkpt lat="50.9657865" lon="6.8830818">
      <ele>48.6</ele>
      <time>2025-06-18T16:11:28Z</time>
    </trkpt>
    <trkpt lat="50.9657700" lon="6.8831378">
      <ele>48.6</ele>
      <time>2025-06-18T16:11:30Z</time>
    </trkpt>
    <trkpt lat="50.9657543" lon="6.8831711">
      <ele>48.6</ele>
      <time>2025-06-18T16:11:32Z</time>
    </trkpt>
    <trkpt lat="50.9657147" lon="6.8832797">
      <ele>48.6</ele>
      <time>2025-06-18T16:11:35Z</time>
    </trkpt>
    <trkpt lat="50.9656232" lon="6.8834754">
      <ele>48.6</ele>
      <time>2025-06-18T16:11:38Z</time>
    </trkpt>
    <trkpt lat="50.9655245" lon="6.8836867">
      <ele>48.6</ele>
      <time>2025-06-18T16:11:41Z</time>
    </trkpt>
    <trkpt lat="50.9654673" lon="6.8837930">
      <ele>48.6</ele>
      <time>2025-06-18T16:11:43Z</time>
    </trkpt>
    <trkpt lat="50.9653379" lon="6.8840630">
      <ele>48.6</ele>
      <time>2025-06-18T16:11:48Z</time>
    </trkpt>
    <trkpt lat="50.9653307" lon="6.8841094">
      <ele>48.6</ele>
      <time>2025-06-18T16:11:49Z</time>
    </trkpt>
    <trkpt lat="50.9653150" lon="6.8841719">
      <ele>48.6</ele>
      <time>2025-06-18T16:11:50Z</time>
    </trkpt>
    <trkpt lat="50.9652280" lon="6.8844342">
      <ele>48.6</ele>
      <time>2025-06-18T16:11:53Z</time>
    </trkpt>
    <trkpt lat="50.9651980" lon="6.8846006">
      <ele>48.6</ele>
      <time>2025-06-18T16:11:55Z</time>
    </trkpt>
    <trkpt lat="50.9651805" lon="6.8846601">
      <ele>48.6</ele>
      <time>2025-06-18T16:11:56Z</time>
    </trkpt>
    <trkpt lat="50.9651389" lon="6.8847311">
      <ele>48.6</ele>
      <time>2025-06-18T16:11:58Z</time>
    </trkpt>
    <trkpt lat="50.9651111" lon="6.8847961">
      <ele>48.6</ele>
      <time>2025-06-18T16:12:00Z</time>
    </trkpt>
    <trkpt lat="50.9650819" lon="6.8848627">
      <ele>48.6</ele>
      <time>2025-06-18T16:12:01Z</time>
    </trkpt>
    <trkpt lat="50.9648796" lon="6.8853767">
      <ele>48.6</ele>
      <time>2025-06-18T16:12:08Z</time>
    </trkpt>
    <trkpt lat="50.9647336" lon="6.8857165">
      <ele>48.6</ele>
      <time>2025-06-18T16:12:12Z</time>
    </trkpt>
    <trkpt lat="50.9646612" lon="6.8858749">
      <ele>48.6</ele>
      <time>2025-06-18T16:12:14Z</time>
    </trkpt>
    <trkpt lat="50.9646510" lon="6.8859635">
      <ele>48.6</ele>
      <time>2025-06-18T16:12:16Z</time>
    </trkpt>
    <trkpt lat="50.9646790" lon="6.8860437">
      <ele>48.6</ele>
      <time>2025-06-18T16:12:18Z</time>
    </trkpt>
    <trkpt lat="50.9646724" lon="6.8861163">
      <ele>48.6</ele>
      <time>2025-06-18T16:12:19Z</time>
    </trkpt>
    <trkpt lat="50.9646501" lon="6.8861924">
      <ele>48.6</ele>
      <time>2025-06-18T16:12:20Z</time>
    </trkpt>
    <trkpt lat="50.9645974" lon="6.8863167">
      <ele>48.6</ele>
      <time>2025-06-18T16:12:22Z</time>
    </trkpt>
    <trkpt lat="50.9644330" lon="6.8865869">
      <ele>48.6</ele>
      <time>2025-06-18T16:12:26Z</time>
    </trkpt>
    <trkpt lat="50.9643996" lon="6.8866359">
      <ele>48.6</ele>
      <time>2025-06-18T16:12:27Z</time>
    </trkpt>
    <trkpt lat="50.9643762" lon="6.8866687">
      <ele>48.6</ele>
      <time>2025-06-18T16:12:29Z</time>
    </trkpt>
    <trkpt lat="50.9638641" lon="6.8870663">
      <ele>48.6</ele>
      <time>2025-06-18T16:12:32Z</time>
    </trkpt>
    <trkpt lat="50.9636031" lon="6.8872930">
      <ele>48.6</ele>
      <time>2025-06-18T16:12:33Z</time>
    </trkpt>
    <trkpt lat="50.9634264" lon="6.8875814">
      <ele>48.6</ele>
      <time>2025-06-18T16:12:35Z</time>
    </trkpt>
    <trkpt lat="50.9633819" lon="6.8876627">
      <ele>48.6</ele>
      <time>2025-06-18T16:12:36Z</time>
    </trkpt>
    <trkpt lat="50.9633020" lon="6.8877984">
      <ele>48.6</ele>
      <time>2025-06-18T16:12:38Z</time>
    </trkpt>
    <trkpt lat="50.9632383" lon="6.8879193">
      <ele>48.6</ele>
      <time>2025-06-18T16:12:40Z</time>
    </trkpt>
    <trkpt lat="50.9631615" lon="6.8880671">
      <ele>48.6</ele>
      <time>2025-06-18T16:12:42Z</time>
    </trkpt>
    <trkpt lat="50.9629681" lon="6.8885024">
      <ele>48.6</ele>
      <time>2025-06-18T16:12:47Z</time>
    </trkpt>
    <trkpt lat="50.9629238" lon="6.8886735">
      <ele>48.6</ele>
      <time>2025-06-18T16:12:49Z</time>
    </trkpt>
    <trkpt lat="50.9628850" lon="6.8888296">
      <ele>48.6</ele>
      <time>2025-06-18T16:12:51Z</time>
    </trkpt>
    <trkpt lat="50.9628509" lon="6.8889304">
      <ele>48.6</ele>
      <time>2025-06-18T16:12:52Z</time>
    </trkpt>
    <trkpt lat="50.9627328" lon="6.8892251">
      <ele>48.6</ele>
      <time>2025-06-18T16:12:55Z</time>
    </trkpt>
    <trkpt lat="50.9626598" lon="6.8893912">
      <ele>48.6</ele>
      <time>2025-06-18T16:12:57Z</time>
    </trkpt>
    <trkpt lat="50.9626212" lon="6.8894722">
      <ele>48.6</ele>
      <time>2025-06-18T16:12:58Z</time>
    </trkpt>
    <trkpt lat="50.9625362" lon="6.8896139">
      <ele>48.6</ele>
      <time>2025-06-18T16:13:02Z</time>
    </trkpt>
    <trkpt lat="50.9625410" lon="6.8896105">
      <ele>48.6</ele>
      <time>2025-06-18T16:13:05Z</time>
    </trkpt>
    <trkpt lat="50.9625384" lon="6.8896160">
      <ele>48.6</ele>
      <time>2025-06-18T16:13:06Z</time>
    </trkpt>
    <trkpt lat="50.9625318" lon="6.8896276">
      <ele>48.6</ele>
      <time>2025-06-18T16:13:07Z</time>
    </trkpt>
    <trkpt lat="50.9623443" lon="6.8898132">
      <ele>48.6</ele>
      <time>2025-06-18T16:13:10Z</time>
    </trkpt>
    <trkpt lat="50.9622458" lon="6.8900861">
      <ele>48.6</ele>
      <time>2025-06-18T16:13:13Z</time>
    </trkpt>
    <trkpt lat="50.9621251" lon="6.8903760">
      <ele>48.6</ele>
      <time>2025-06-18T16:13:17Z</time>
    </trkpt>
    <trkpt lat="50.9619995" lon="6.8906952">
      <ele>48.6</ele>
      <time>2025-06-18T16:13:22Z</time>
    </trkpt>
    <trkpt lat="50.9619698" lon="6.8908022">
      <ele>48.6</ele>
      <time>2025-06-18T16:13:24Z</time>
    </trkpt>
    <trkpt lat="50.9619293" lon="6.8909510">
      <ele>48.6</ele>
      <time>2025-06-18T16:13:27Z</time>
    </trkpt>
    <trkpt lat="50.9619089" lon="6.8910503">
      <ele>48.6</ele>
      <time>2025-06-18T16:13:29Z</time>
    </trkpt>
    <trkpt lat="50.9618590" lon="6.8911853">
      <ele>48.6</ele>
      <time>2025-06-18T16:13:31Z</time>
    </trkpt>
    <trkpt lat="50.9617651" lon="6.8913764">
      <ele>48.6</ele>
      <time>2025-06-18T16:13:34Z</time>
    </trkpt>
    <trkpt lat="50.9617332" lon="6.8914362">
      <ele>48.6</ele>
      <time>2025-06-18T16:13:35Z</time>
    </trkpt>
    <trkpt lat="50.9616943" lon="6.8915488">
      <ele>48.6</ele>
      <time>2025-06-18T16:13:37Z</time>
    </trkpt>
    <trkpt lat="50.9616811" lon="6.8916041">
      <ele>48.6</ele>
      <time>2025-06-18T16:13:38Z</time>
    </trkpt>
    <trkpt lat="50.9616574" lon="6.8917096">
      <ele>48.6</ele>
      <time>2025-06-18T16:13:40Z</time>
    </trkpt>
    <trkpt lat="50.9616164" lon="6.8919650">
      <ele>48.6</ele>
      <time>2025-06-18T16:13:45Z</time>
    </trkpt>
    <trkpt lat="50.9614826" lon="6.8922488">
      <ele>48.6</ele>
      <time>2025-06-18T16:13:51Z</time>
    </trkpt>
    <trkpt lat="50.9614522" lon="6.8922842">
      <ele>48.6</ele>
      <time>2025-06-18T16:13:55Z</time>
    </trkpt>
    <trkpt lat="50.9614522" lon="6.8922842">
      <ele>48.6</ele>
      <time>2025-06-18T16:14:02Z</time>
    </trkpt>
    <trkpt lat="50.9614141" lon="6.8923540">
      <ele>48.6</ele>
      <time>2025-06-18T16:14:21Z</time>
    </trkpt>
    <trkpt lat="50.9612839" lon="6.8926250">
      <ele>48.6</ele>
      <time>2025-06-18T16:14:26Z</time>
    </trkpt>
    <trkpt lat="50.9612193" lon="6.8928177">
      <ele>48.6</ele>
      <time>2025-06-18T16:14:31Z</time>
    </trkpt>
    <trkpt lat="50.9611012" lon="6.8929867">
      <ele>48.6</ele>
      <time>2025-06-18T16:14:35Z</time>
    </trkpt>
    <trkpt lat="50.9610286" lon="6.8931513">
      <ele>48.6</ele>
      <time>2025-06-18T16:14:38Z</time>
    </trkpt>
    <trkpt lat="50.9610007" lon="6.8932146">
      <ele>48.6</ele>
      <time>2025-06-18T16:14:39Z</time>
    </trkpt>
    <trkpt lat="50.9609524" lon="6.8933282">
      <ele>48.6</ele>
      <time>2025-06-18T16:14:41Z</time>
    </trkpt>
    <trkpt lat="50.9608848" lon="6.8934308">
      <ele>48.6</ele>
      <time>2025-06-18T16:14:44Z</time>
    </trkpt>
    <trkpt lat="50.9608848" lon="6.8934308">
      <ele>48.6</ele>
      <time>2025-06-18T16:14:48Z</time>
    </trkpt>
    <trkpt lat="50.9608848" lon="6.8934308">
      <ele>48.6</ele>
      <time>2025-06-18T16:15:02Z</time>
    </trkpt>
    <trkpt lat="50.9608848" lon="6.8934308">
      <ele>48.6</ele>
      <time>2025-06-18T16:15:54Z</time>
    </trkpt>
    <trkpt lat="50.9608848" lon="6.8934308">
      <ele>48.6</ele>
      <time>2025-06-18T16:16:18Z</time>
    </trkpt>
    <trkpt lat="50.9608848" lon="6.8934308">
      <ele>48.6</ele>
      <time>2025-06-18T16:16:31Z</time>
    </trkpt>
    <trkpt lat="50.9608848" lon="6.8934308">
      <ele>48.6</ele>
      <time>2025-06-18T16:16:39Z</time>
    </trkpt>
    <trkpt lat="50.9608848" lon="6.8934308">
      <ele>48.6</ele>
      <time>2025-06-18T16:16:58Z</time>
    </trkpt>
    <trkpt lat="50.9608765" lon="6.8934770">
      <ele>48.6</ele>
      <time>2025-06-18T16:17:15Z</time>
    </trkpt>
    <trkpt lat="50.9607902" lon="6.8936673">
      <ele>48.6</ele>
      <time>2025-06-18T16:17:19Z</time>
    </trkpt>
    <trkpt lat="50.9606278" lon="6.8939890">
      <ele>48.6</ele>
      <time>2025-06-18T16:17:24Z</time>
    </trkpt>
    <trkpt lat="50.9603708" lon="6.8944494">
      <ele>48.6</ele>
      <time>2025-06-18T16:17:31Z</time>
    </trkpt>
    <trkpt lat="50.9602240" lon="6.8947111">
      <ele>48.6</ele>
      <time>2025-06-18T16:17:35Z</time>
    </trkpt>
    <trkpt lat="50.9601393" lon="6.8948411">
      <ele>48.6</ele>
      <time>2025-06-18T16:17:37Z</time>
    </trkpt>
    <trkpt lat="50.9601002" lon="6.8949108">
      <ele>48.6</ele>
      <time>2025-06-18T16:17:38Z</time>
    </trkpt>
    <trkpt lat="50.9599978" lon="6.8951084">
      <ele>48.6</ele>
      <time>2025-06-18T16:17:41Z</time>
    </trkpt>
    <trkpt lat="50.9598799" lon="6.8953243">
      <ele>48.6</ele>
      <time>2025-06-18T16:17:44Z</time>
    </trkpt>
    <trkpt lat="50.9597026" lon="6.8956524">
      <ele>48.6</ele>
      <time>2025-06-18T16:17:49Z</time>
    </trkpt>
    <trkpt lat="50.9596440" lon="6.8957857">
      <ele>48.6</ele>
      <time>2025-06-18T16:17:51Z</time>
    </trkpt>
    <trkpt lat="50.9596090" lon="6.8958589">
      <ele>48.6</ele>
      <time>2025-06-18T16:17:52Z</time>
    </trkpt>
    <trkpt lat="50.9595397" lon="6.8960439">
      <ele>48.6</ele>
      <time>2025-06-18T16:17:55Z</time>
    </trkpt>
    <trkpt lat="50.9594223" lon="6.8962896">
      <ele>48.6</ele>
      <time>2025-06-18T16:17:59Z</time>
    </trkpt>
    <trkpt lat="50.9593778" lon="6.8964193">
      <ele>48.6</ele>
      <time>2025-06-18T16:18:01Z</time>
    </trkpt>
    <trkpt lat="50.9593258" lon="6.8965464">
      <ele>48.6</ele>
      <time>2025-06-18T16:18:03Z</time>
    </trkpt>
    <trkpt lat="50.9592639" lon="6.8966578">
      <ele>48.6</ele>
      <time>2025-06-18T16:18:05Z</time>
    </trkpt>
    <trkpt lat="50.9591234" lon="6.8969913">
      <ele>48.6</ele>
      <time>2025-06-18T16:18:10Z</time>
    </trkpt>
    <trkpt lat="50.9591028" lon="6.8970471">
      <ele>48.6</ele>
      <time>2025-06-18T16:18:11Z</time>
    </trkpt>
    <trkpt lat="50.9590317" lon="6.8972256">
      <ele>48.6</ele>
      <time>2025-06-18T16:18:14Z</time>
    </trkpt>
    <trkpt lat="50.9590129" lon="6.8972822">
      <ele>48.6</ele>
      <time>2025-06-18T16:18:15Z</time>
    </trkpt>
    <trkpt lat="50.9588150" lon="6.8977136">
      <ele>48.6</ele>
      <time>2025-06-18T16:18:23Z</time>
    </trkpt>
    <trkpt lat="50.9587429" lon="6.8978785">
      <ele>48.6</ele>
      <time>2025-06-18T16:18:26Z</time>
    </trkpt>
    <trkpt lat="50.9587085" lon="6.8979830">
      <ele>48.6</ele>
      <time>2025-06-18T16:18:28Z</time>
    </trkpt>
    <trkpt lat="50.9586858" lon="6.8980378">
      <ele>48.6</ele>
      <time>2025-06-18T16:18:29Z</time>
    </trkpt>
    <trkpt lat="50.9586636" lon="6.8980945">
      <ele>48.6</ele>
      <time>2025-06-18T16:18:30Z</time>
    </trkpt>
    <trkpt lat="50.9584750" lon="6.8983768">
      <ele>48.6</ele>
      <time>2025-06-18T16:18:34Z</time>
    </trkpt>
    <trkpt lat="50.9584422" lon="6.8984459">
      <ele>48.6</ele>
      <time>2025-06-18T16:18:35Z</time>
    </trkpt>
    <trkpt lat="50.9583732" lon="6.8985717">
      <ele>48.6</ele>
      <time>2025-06-18T16:18:37Z</time>
    </trkpt>
    <trkpt lat="50.9582729" lon="6.8987198">
      <ele>48.6</ele>
      <time>2025-06-18T16:18:39Z</time>
    </trkpt>
    <trkpt lat="50.9580051" lon="6.8992391">
      <ele>48.6</ele>
      <time>2025-06-18T16:18:46Z</time>
    </trkpt>
    <trkpt lat="50.9578994" lon="6.8994256">
      <ele>48.6</ele>
      <time>2025-06-18T16:18:49Z</time>
    </trkpt>
    <trkpt lat="50.9578391" lon="6.8995374">
      <ele>48.6</ele>
      <time>2025-06-18T16:18:51Z</time>
    </trkpt>
    <trkpt lat="50.9578269" lon="6.8995981">
      <ele>48.6</ele>
      <time>2025-06-18T16:18:52Z</time>
    </trkpt>
    <trkpt lat="50.9578160" lon="6.8997498">
      <ele>48.6</ele>
      <time>2025-06-18T16:18:55Z</time>
    </trkpt>
    <trkpt lat="50.9578060" lon="6.8997703">
      <ele>48.6</ele>
      <time>2025-06-18T16:18:56Z</time>
    </trkpt>
    <trkpt lat="50.9578007" lon="6.8997777">
      <ele>48.6</ele>
      <time>2025-06-18T16:19:00Z</time>
    </trkpt>
    <trkpt lat="50.9577865" lon="6.8998083">
      <ele>48.6</ele>
      <time>2025-06-18T16:19:17Z</time>
    </trkpt>
    <trkpt lat="50.9576953" lon="6.9000238">
      <ele>48.6</ele>
      <time>2025-06-18T16:19:22Z</time>
    </trkpt>
    <trkpt lat="50.9576746" lon="6.9000856">
      <ele>48.6</ele>
      <time>2025-06-18T16:19:23Z</time>
    </trkpt>
    <trkpt lat="50.9575872" lon="6.9003455">
      <ele>48.6</ele>
      <time>2025-06-18T16:19:27Z</time>
    </trkpt>
    <trkpt lat="50.9575743" lon="6.9004069">
      <ele>48.6</ele>
      <time>2025-06-18T16:19:28Z</time>
    </trkpt>
    <trkpt lat="50.9575453" lon="6.9005532">
      <ele>48.6</ele>
      <time>2025-06-18T16:19:30Z</time>
    </trkpt>
    <trkpt lat="50.9574654" lon="6.9007773">
      <ele>48.6</ele>
      <time>2025-06-18T16:19:33Z</time>
    </trkpt>
    <trkpt lat="50.9574080" lon="6.9009194">
      <ele>48.6</ele>
      <time>2025-06-18T16:19:35Z</time>
    </trkpt>
    <trkpt lat="50.9572996" lon="6.9011241">
      <ele>48.6</ele>
      <time>2025-06-18T16:19:38Z</time>
    </trkpt>
    <trkpt lat="50.9571949" lon="6.9014425">
      <ele>48.6</ele>
      <time>2025-06-18T16:19:42Z</time>
    </trkpt>
    <trkpt lat="50.9571856" lon="6.9015255">
      <ele>48.6</ele>
      <time>2025-06-18T16:19:43Z</time>
    </trkpt>
    <trkpt lat="50.9571682" lon="6.9015902">
      <ele>48.6</ele>
      <time>2025-06-18T16:19:44Z</time>
    </trkpt>
    <trkpt lat="50.9570750" lon="6.9018274">
      <ele>48.6</ele>
      <time>2025-06-18T16:19:47Z</time>
    </trkpt>
    <trkpt lat="50.9568206" lon="6.9023357">
      <ele>48.6</ele>
      <time>2025-06-18T16:19:54Z</time>
    </trkpt>
    <trkpt lat="50.9567482" lon="6.9025443">
      <ele>48.6</ele>
      <time>2025-06-18T16:19:57Z</time>
    </trkpt>
    <trkpt lat="50.9567048" lon="6.9026351">
      <ele>48.6</ele>
      <time>2025-06-18T16:19:59Z</time>
    </trkpt>
    <trkpt lat="50.9566826" lon="6.9026695">
      <ele>48.6</ele>
      <time>2025-06-18T16:20:02Z</time>
    </trkpt>
    <trkpt lat="50.9566826" lon="6.9026695">
      <ele>48.6</ele>
      <time>2025-06-18T16:20:15Z</time>
    </trkpt>
    <trkpt lat="50.9566873" lon="6.9026882">
      <ele>48.6</ele>
      <time>2025-06-18T16:20:57Z</time>
    </trkpt>
    <trkpt lat="50.9566929" lon="6.9027068">
      <ele>48.6</ele>
      <time>2025-06-18T16:20:58Z</time>
    </trkpt>
    <trkpt lat="50.9567322" lon="6.9028115">
      <ele>48.6</ele>
      <time>2025-06-18T16:21:02Z</time>
    </trkpt>
    <trkpt lat="50.9568468" lon="6.9029599">
      <ele>48.6</ele>
      <time>2025-06-18T16:21:07Z</time>
    </trkpt>
    <trkpt lat="50.9568642" lon="6.9030057">
      <ele>48.6</ele>
      <time>2025-06-18T16:21:10Z</time>
    </trkpt>
    <trkpt lat="50.9568642" lon="6.9030057">
      <ele>48.6</ele>
      <time>2025-06-18T16:21:14Z</time>
    </trkpt>
    <trkpt lat="50.9568642" lon="6.9030057">
      <ele>48.6</ele>
      <time>2025-06-18T16:21:21Z</time>
    </trkpt>
    <trkpt lat="50.9568494" lon="6.9030483">
      <ele>48.6</ele>
      <time>2025-06-18T16:21:31Z</time>
    </trkpt>
    <trkpt lat="50.9568421" lon="6.9030894">
      <ele>48.6</ele>
      <time>2025-06-18T16:21:33Z</time>
    </trkpt>
    <trkpt lat="50.9568376" lon="6.9032856">
      <ele>48.6</ele>
      <time>2025-06-18T16:21:37Z</time>
    </trkpt>
    <trkpt lat="50.9569188" lon="6.9033495">
      <ele>48.6</ele>
      <time>2025-06-18T16:21:39Z</time>
    </trkpt>
    <trkpt lat="50.9569637" lon="6.9033807">
      <ele>48.6</ele>
      <time>2025-06-18T16:21:40Z</time>
    </trkpt>
    <trkpt lat="50.9570102" lon="6.9034196">
      <ele>48.6</ele>
      <time>2025-06-18T16:21:41Z</time>
    </trkpt>
    <trkpt lat="50.9571941" lon="6.9036280">
      <ele>48.6</ele>
      <time>2025-06-18T16:21:45Z</time>
    </trkpt>
    <trkpt lat="50.9574267" lon="6.9038895">
      <ele>48.6</ele>
      <time>2025-06-18T16:21:50Z</time>
    </trkpt>
    <trkpt lat="50.9574703" lon="6.9039364">
      <ele>48.6</ele>
      <time>2025-06-18T16:21:51Z</time>
    </trkpt>
    <trkpt lat="50.9578826" lon="6.9043499">
      <ele>48.6</ele>
      <time>2025-06-18T16:22:00Z</time>
    </trkpt>
    <trkpt lat="50.9580594" lon="6.9045514">
      <ele>48.6</ele>
      <time>2025-06-18T16:22:05Z</time>
    </trkpt>
    <trkpt lat="50.9581346" lon="6.9046254">
      <ele>48.6</ele>
      <time>2025-06-18T16:22:07Z</time>
    </trkpt>
    <trkpt lat="50.9581841" lon="6.9046717">
      <ele>48.6</ele>
      <time>2025-06-18T16:22:09Z</time>
    </trkpt>
    <trkpt lat="50.9582131" lon="6.9047133">
      <ele>48.6</ele>
      <time>2025-06-18T16:22:10Z</time>
    </trkpt>
    <trkpt lat="50.9582547" lon="6.9047788">
      <ele>48.6</ele>
      <time>2025-06-18T16:22:14Z</time>
    </trkpt>
    <trkpt lat="50.9582547" lon="6.9047788">
      <ele>48.6</ele>
      <time>2025-06-18T16:22:23Z</time>
    </trkpt>
    <trkpt lat="50.9582547" lon="6.9047788">
      <ele>48.6</ele>
      <time>2025-06-18T16:22:29Z</time>
    </trkpt>
    <trkpt lat="50.9582547" lon="6.9047788">
      <ele>48.6</ele>
      <time>2025-06-18T16:22:32Z</time>
    </trkpt>
    <trkpt lat="50.9582604" lon="6.9047838">
      <ele>48.6</ele>
      <time>2025-06-18T16:22:46Z</time>
    </trkpt>
    <trkpt lat="50.9582870" lon="6.9047929">
      <ele>48.6</ele>
      <time>2025-06-18T16:22:55Z</time>
    </trkpt>
    <trkpt lat="50.9583589" lon="6.9048660">
      <ele>48.6</ele>
      <time>2025-06-18T16:22:58Z</time>
    </trkpt>
    <trkpt lat="50.9583894" lon="6.9049092">
      <ele>48.6</ele>
      <time>2025-06-18T16:22:59Z</time>
    </trkpt>
    <trkpt lat="50.9585155" lon="6.9050532">
      <ele>48.6</ele>
      <time>2025-06-18T16:23:03Z</time>
    </trkpt>
    <trkpt lat="50.9585544" lon="6.9050956">
      <ele>48.6</ele>
      <time>2025-06-18T16:23:04Z</time>
    </trkpt>
    <trkpt lat="50.9586446" lon="6.9051811">
      <ele>48.6</ele>
      <time>2025-06-18T16:23:06Z</time>
    </trkpt>
    <trkpt lat="50.9587898" lon="6.9053137">
      <ele>48.6</ele>
      <time>2025-06-18T16:23:09Z</time>
    </trkpt>
    <trkpt lat="50.9588388" lon="6.9053654">
      <ele>48.6</ele>
      <time>2025-06-18T16:23:10Z</time>
    </trkpt>
    <trkpt lat="50.9589826" lon="6.9055188">
      <ele>48.6</ele>
      <time>2025-06-18T16:23:13Z</time>
    </trkpt>
    <trkpt lat="50.9590257" lon="6.9055665">
      <ele>48.6</ele>
      <time>2025-06-18T16:23:14Z</time>
    </trkpt>
    <trkpt lat="50.9592502" lon="6.9058597">
      <ele>48.6</ele>
      <time>2025-06-18T16:23:20Z</time>
    </trkpt>
    <trkpt lat="50.9591963" lon="6.9060515">
      <ele>48.6</ele>
      <time>2025-06-18T16:23:23Z</time>
    </trkpt>
    <trkpt lat="50.9590975" lon="6.9063338">
      <ele>48.6</ele>
      <time>2025-06-18T16:23:27Z</time>
    </trkpt>
    <trkpt lat="50.9590303" lon="6.9065574">
      <ele>48.6</ele>
      <time>2025-06-18T16:23:30Z</time>
    </trkpt>
    <trkpt lat="50.9589900" lon="6.9067019">
      <ele>48.6</ele>
      <time>2025-06-18T16:23:32Z</time>
    </trkpt>
    <trkpt lat="50.9589506" lon="6.9068238">
      <ele>48.6</ele>
      <time>2025-06-18T16:23:34Z</time>
    </trkpt>
    <trkpt lat="50.9589275" lon="6.9068771">
      <ele>48.6</ele>
      <time>2025-06-18T16:23:35Z</time>
    </trkpt>
    <trkpt lat="50.9588951" lon="6.9069372">
      <ele>48.6</ele>
      <time>2025-06-18T16:23:39Z</time>
    </trkpt>
    <trkpt lat="50.9588951" lon="6.9069372">
      <ele>48.6</ele>
      <time>2025-06-18T16:23:42Z</time>
    </trkpt>
    <trkpt lat="50.9588951" lon="6.9069372">
      <ele>48.6</ele>
      <time>2025-06-18T16:23:47Z</time>
    </trkpt>
    <trkpt lat="50.9588945" lon="6.9069812">
      <ele>48.6</ele>
      <time>2025-06-18T16:23:53Z</time>
    </trkpt>
    <trkpt lat="50.9588812" lon="6.9070326">
      <ele>48.6</ele>
      <time>2025-06-18T16:23:55Z</time>
    </trkpt>
    <trkpt lat="50.9588043" lon="6.9072641">
      <ele>48.6</ele>
      <time>2025-06-18T16:23:59Z</time>
    </trkpt>
    <trkpt lat="50.9587070" lon="6.9075790">
      <ele>48.6</ele>
      <time>2025-06-18T16:24:04Z</time>
    </trkpt>
    <trkpt lat="50.9586474" lon="6.9077706">
      <ele>48.6</ele>
      <time>2025-06-18T16:24:06Z</time>
    </trkpt>
    <trkpt lat="50.9585759" lon="6.9079586">
      <ele>48.6</ele>
      <time>2025-06-18T16:24:08Z</time>
    </trkpt>
    <trkpt lat="50.9585115" lon="6.9081549">
      <ele>48.6</ele>
      <time>2025-06-18T16:24:10Z</time>
    </trkpt>
    <trkpt lat="50.9583612" lon="6.9085522">
      <ele>48.6</ele>
      <time>2025-06-18T16:24:14Z</time>
    </trkpt>
    <trkpt lat="50.9581690" lon="6.9090658">
      <ele>48.6</ele>
      <time>2025-06-18T16:24:20Z</time>
    </trkpt>
    <trkpt lat="50.9580152" lon="6.9093827">
      <ele>48.6</ele>
      <time>2025-06-18T16:24:24Z</time>
    </trkpt>
    <trkpt lat="50.9579551" lon="6.9094622">
      <ele>48.6</ele>
      <time>2025-06-18T16:24:25Z</time>
    </trkpt>
    <trkpt lat="50.9579072" lon="6.9095542">
      <ele>48.6</ele>
      <time>2025-06-18T16:24:26Z</time>
    </trkpt>
    <trkpt lat="50.9578050" lon="6.9098267">
      <ele>48.6</ele>
      <time>2025-06-18T16:24:29Z</time>
    </trkpt>
    <trkpt lat="50.9576708" lon="6.9102425">
      <ele>48.6</ele>
      <time>2025-06-18T16:24:34Z</time>
    </trkpt>
    <trkpt lat="50.9575582" lon="6.9104918">
      <ele>48.6</ele>
      <time>2025-06-18T16:24:37Z</time>
    </trkpt>
    <trkpt lat="50.9572729" lon="6.9112477">
      <ele>48.6</ele>
      <time>2025-06-18T16:24:46Z</time>
    </trkpt>
    <trkpt lat="50.9571138" lon="6.9116806">
      <ele>48.6</ele>
      <time>2025-06-18T16:24:52Z</time>
    </trkpt>
    <trkpt lat="50.9569961" lon="6.9120520">
      <ele>48.6</ele>
      <time>2025-06-18T16:24:57Z</time>
    </trkpt>
    <trkpt lat="50.9569747" lon="6.9121278">
      <ele>48.6</ele>
      <time>2025-06-18T16:24:58Z</time>
    </trkpt>
    <trkpt lat="50.9567669" lon="6.9126890">
      <ele>48.6</ele>
      <time>2025-06-18T16:25:05Z</time>
    </trkpt>
    <trkpt lat="50.9566112" lon="6.9130904">
      <ele>48.6</ele>
      <time>2025-06-18T16:25:10Z</time>
    </trkpt>
    <trkpt lat="50.9563442" lon="6.9137323">
      <ele>48.6</ele>
      <time>2025-06-18T16:25:17Z</time>
    </trkpt>
    <trkpt lat="50.9563052" lon="6.9138258">
      <ele>48.6</ele>
      <time>2025-06-18T16:25:18Z</time>
    </trkpt>
    <trkpt lat="50.9561654" lon="6.9141981">
      <ele>48.6</ele>
      <time>2025-06-18T16:25:22Z</time>
    </trkpt>
    <trkpt lat="50.9558672" lon="6.9147682">
      <ele>48.6</ele>
      <time>2025-06-18T16:25:28Z</time>
    </trkpt>
    <trkpt lat="50.9557058" lon="6.9152562">
      <ele>48.6</ele>
      <time>2025-06-18T16:25:34Z</time>
    </trkpt>
    <trkpt lat="50.9554973" lon="6.9157992">
      <ele>48.6</ele>
      <time>2025-06-18T16:25:41Z</time>
    </trkpt>
    <trkpt lat="50.9553908" lon="6.9161151">
      <ele>48.6</ele>
      <time>2025-06-18T16:25:46Z</time>
    </trkpt>
    <trkpt lat="50.9553431" lon="6.9162681">
      <ele>48.6</ele>
      <time>2025-06-18T16:25:50Z</time>
    </trkpt>
    <trkpt lat="50.9553289" lon="6.9162844">
      <ele>48.6</ele>
      <time>2025-06-18T16:25:51Z</time>
    </trkpt>
    <trkpt lat="50.9553259" lon="6.9162870">
      <ele>48.6</ele>
      <time>2025-06-18T16:25:53Z</time>
    </trkpt>
    <trkpt lat="50.9553259" lon="6.9162870">
      <ele>48.6</ele>
      <time>2025-06-18T16:26:04Z</time>
    </trkpt>
    <trkpt lat="50.9553259" lon="6.9162870">
      <ele>48.6</ele>
      <time>2025-06-18T16:26:05Z</time>
    </trkpt>
    <trkpt lat="50.9553269" lon="6.9162956">
      <ele>48.6</ele>
      <time>2025-06-18T16:26:17Z</time>
    </trkpt>
    <trkpt lat="50.9553289" lon="6.9163092">
      <ele>48.6</ele>
      <time>2025-06-18T16:26:18Z</time>
    </trkpt>
    <trkpt lat="50.9552762" lon="6.9163727">
      <ele>48.6</ele>
      <time>2025-06-18T16:26:22Z</time>
    </trkpt>
    <trkpt lat="50.9552233" lon="6.9164494">
      <ele>48.6</ele>
      <time>2025-06-18T16:26:26Z</time>
    </trkpt>
    <trkpt lat="50.9552239" lon="6.9164545">
      <ele>48.6</ele>
      <time>2025-06-18T16:26:28Z</time>
    </trkpt>
    <trkpt lat="50.9552239" lon="6.9164545">
      <ele>48.6</ele>
      <time>2025-06-18T16:26:37Z</time>
    </trkpt>
    <trkpt lat="50.9552239" lon="6.9164545">
      <ele>48.6</ele>
      <time>2025-06-18T16:26:54Z</time>
    </trkpt>
    <trkpt lat="50.9552239" lon="6.9164545">
      <ele>48.6</ele>
      <time>2025-06-18T16:27:23Z</time>
    </trkpt>
    <trkpt lat="50.9552239" lon="6.9164545">
      <ele>48.6</ele>
      <time>2025-06-18T16:27:37Z</time>
    </trkpt>
    <trkpt lat="50.9552239" lon="6.9164545">
      <ele>48.6</ele>
      <time>2025-06-18T16:27:55Z</time>
    </trkpt>
    <trkpt lat="50.9552239" lon="6.9164545">
      <ele>48.6</ele>
      <time>2025-06-18T16:28:12Z</time>
    </trkpt>
    <trkpt lat="50.9552230" lon="6.9165124">
      <ele>48.6</ele>
      <time>2025-06-18T16:28:18Z</time>
    </trkpt>
    <trkpt lat="50.9552011" lon="6.9165740">
      <ele>48.6</ele>
      <time>2025-06-18T16:28:20Z</time>
    </trkpt>
    <trkpt lat="50.9551470" lon="6.9167490">
      <ele>48.6</ele>
      <time>2025-06-18T16:28:24Z</time>
    </trkpt>
    <trkpt lat="50.9550483" lon="6.9170731">
      <ele>48.6</ele>
      <time>2025-06-18T16:28:30Z</time>
    </trkpt>
    <trkpt lat="50.9548985" lon="6.9172834">
      <ele>48.6</ele>
      <time>2025-06-18T16:28:33Z</time>
    </trkpt>
    <trkpt lat="50.9548167" lon="6.9174737">
      <ele>48.6</ele>
      <time>2025-06-18T16:28:35Z</time>
    </trkpt>
    <trkpt lat="50.9547285" lon="6.9177154">
      <ele>48.6</ele>
      <time>2025-06-18T16:28:38Z</time>
    </trkpt>
    <trkpt lat="50.9547030" lon="6.9177911">
      <ele>48.6</ele>
      <time>2025-06-18T16:28:39Z</time>
    </trkpt>
    <trkpt lat="50.9545833" lon="6.9181789">
      <ele>48.6</ele>
      <time>2025-06-18T16:28:44Z</time>
    </trkpt>
    <trkpt lat="50.9544343" lon="6.9185509">
      <ele>48.6</ele>
      <time>2025-06-18T16:28:48Z</time>
    </trkpt>
    <trkpt lat="50.9543931" lon="6.9187233">
      <ele>48.6</ele>
      <time>2025-06-18T16:28:50Z</time>
    </trkpt>
    <trkpt lat="50.9541847" lon="6.9192335">
      <ele>48.6</ele>
      <time>2025-06-18T16:28:56Z</time>
    </trkpt>
    <trkpt lat="50.9540843" lon="6.9194941">
      <ele>48.6</ele>
      <time>2025-06-18T16:28:59Z</time>
    </trkpt>
    <trkpt lat="50.9539858" lon="6.9197575">
      <ele>48.6</ele>
      <time>2025-06-18T16:29:02Z</time>
    </trkpt>
    <trkpt lat="50.9537106" lon="6.9203813">
      <ele>48.6</ele>
      <time>2025-06-18T16:29:09Z</time>
    </trkpt>
    <trkpt lat="50.9536864" lon="6.9204403">
      <ele>48.6</ele>
      <time>2025-06-18T16:29:10Z</time>
    </trkpt>
    <trkpt lat="50.9536186" lon="6.9205959">
      <ele>48.6</ele>
      <time>2025-06-18T16:29:12Z</time>
    </trkpt>
    <trkpt lat="50.9535926" lon="6.9206705">
      <ele>48.6</ele>
      <time>2025-06-18T16:29:13Z</time>
    </trkpt>
    <trkpt lat="50.9535779" lon="6.9207278">
      <ele>48.6</ele>
      <time>2025-06-18T16:29:14Z</time>
    </trkpt>
    <trkpt lat="50.9534874" lon="6.9210286">
      <ele>48.6</ele>
      <time>2025-06-18T16:29:18Z</time>
    </trkpt>
    <trkpt lat="50.9533257" lon="6.9214167">
      <ele>48.6</ele>
      <time>2025-06-18T16:29:24Z</time>
    </trkpt>
    <trkpt lat="50.9532493" lon="6.9216785">
      <ele>48.6</ele>
      <time>2025-06-18T16:29:28Z</time>
    </trkpt>
    <trkpt lat="50.9530634" lon="6.9222393">
      <ele>48.6</ele>
      <time>2025-06-18T16:29:36Z</time>
    </trkpt>
    <trkpt lat="50.9529187" lon="6.9226637">
      <ele>48.6</ele>
      <time>2025-06-18T16:29:42Z</time>
    </trkpt>
    <trkpt lat="50.9528576" lon="6.9228380">
      <ele>48.6</ele>
      <time>2025-06-18T16:29:44Z</time>
    </trkpt>
    <trkpt lat="50.9528135" lon="6.9229228">
      <ele>48.6</ele>
      <time>2025-06-18T16:29:46Z</time>
    </trkpt>
    <trkpt lat="50.9526851" lon="6.9230097">
      <ele>48.6</ele>
      <time>2025-06-18T16:29:49Z</time>
    </trkpt>
    <trkpt lat="50.9526644" lon="6.9230517">
      <ele>48.6</ele>
      <time>2025-06-18T16:29:52Z</time>
    </trkpt>
    <trkpt lat="50.9526479" lon="6.9231449">
      <ele>48.6</ele>
      <time>2025-06-18T16:29:55Z</time>
    </trkpt>
    <trkpt lat="50.9525650" lon="6.9233605">
      <ele>48.6</ele>
      <time>2025-06-18T16:29:59Z</time>
    </trkpt>
    <trkpt lat="50.9524380" lon="6.9236838">
      <ele>48.6</ele>
      <time>2025-06-18T16:30:06Z</time>
    </trkpt>
    <trkpt lat="50.9524130" lon="6.9237997">
      <ele>48.6</ele>
      <time>2025-06-18T16:30:11Z</time>
    </trkpt>
    <trkpt lat="50.9524139" lon="6.9238145">
      <ele>48.6</ele>
      <time>2025-06-18T16:30:12Z</time>
    </trkpt>
    <trkpt lat="50.9524105" lon="6.9238423">
      <ele>48.6</ele>
      <time>2025-06-18T16:30:14Z</time>
    </trkpt>
    <trkpt lat="50.9524085" lon="6.9238452">
      <ele>48.6</ele>
      <time>2025-06-18T16:30:17Z</time>
    </trkpt>
    <trkpt lat="50.9524085" lon="6.9238452">
      <ele>48.6</ele>
      <time>2025-06-18T16:30:28Z</time>
    </trkpt>
    <trkpt lat="50.9524256" lon="6.9238834">
      <ele>48.6</ele>
      <time>2025-06-18T16:30:36Z</time>
    </trkpt>
    <trkpt lat="50.9524359" lon="6.9239132">
      <ele>48.6</ele>
      <time>2025-06-18T16:30:37Z</time>
    </trkpt>
    <trkpt lat="50.9525081" lon="6.9241212">
      <ele>48.6</ele>
      <time>2025-06-18T16:30:41Z</time>
    </trkpt>
    <trkpt lat="50.9525527" lon="6.9242346">
      <ele>48.6</ele>
      <time>2025-06-18T16:30:43Z</time>
    </trkpt>
    <trkpt lat="50.9525505" lon="6.9243057">
      <ele>48.6</ele>
      <time>2025-06-18T16:30:44Z</time>
    </trkpt>
    <trkpt lat="50.9525501" lon="6.9244536">
      <ele>48.6</ele>
      <time>2025-06-18T16:30:46Z</time>
    </trkpt>
    <trkpt lat="50.9525787" lon="6.9246001">
      <ele>48.6</ele>
      <time>2025-06-18T16:30:48Z</time>
    </trkpt>
    <trkpt lat="50.9526051" lon="6.9247499">
      <ele>48.6</ele>
      <time>2025-06-18T16:30:50Z</time>
    </trkpt>
    <trkpt lat="50.9526922" lon="6.9249009">
      <ele>48.6</ele>
      <time>2025-06-18T16:30:52Z</time>
    </trkpt>
    <trkpt lat="50.9527987" lon="6.9250802">
      <ele>48.6</ele>
      <time>2025-06-18T16:30:54Z</time>
    </trkpt>
    <trkpt lat="50.9528312" lon="6.9253436">
      <ele>48.6</ele>
      <time>2025-06-18T16:30:57Z</time>
    </trkpt>
    <trkpt lat="50.9528514" lon="6.9254305">
      <ele>48.6</ele>
      <time>2025-06-18T16:30:58Z</time>
    </trkpt>
    <trkpt lat="50.9529464" lon="6.9256792">
      <ele>48.6</ele>
      <time>2025-06-18T16:31:01Z</time>
    </trkpt>
    <trkpt lat="50.9531028" lon="6.9261153">
      <ele>48.6</ele>
      <time>2025-06-18T16:31:06Z</time>
    </trkpt>
    <trkpt lat="50.9532443" lon="6.9264610">
      <ele>48.6</ele>
      <time>2025-06-18T16:31:10Z</time>
    </trkpt>
    <trkpt lat="50.9533129" lon="6.9266089">
      <ele>48.6</ele>
      <time>2025-06-18T16:31:12Z</time>
    </trkpt>
    <trkpt lat="50.9533749" lon="6.9267654">
      <ele>48.6</ele>
      <time>2025-06-18T16:31:14Z</time>
    </trkpt>
    <trkpt lat="50.9534067" lon="6.9268440">
      <ele>48.6</ele>
      <time>2025-06-18T16:31:15Z</time>
    </trkpt>
    <trkpt lat="50.9534446" lon="6.9269215">
      <ele>48.6</ele>
      <time>2025-06-18T16:31:16Z</time>
    </trkpt>
    <trkpt lat="50.9536567" lon="6.9274777">
      <ele>48.6</ele>
      <time>2025-06-18T16:31:23Z</time>
    </trkpt>
    <trkpt lat="50.9537517" lon="6.9278045">
      <ele>48.6</ele>
      <time>2025-06-18T16:31:27Z</time>
    </trkpt>
    <trkpt lat="50.9537834" lon="6.9278858">
      <ele>48.6</ele>
      <time>2025-06-18T16:31:28Z</time>
    </trkpt>
    <trkpt lat="50.9539506" lon="6.9283705">
      <ele>48.6</ele>
      <time>2025-06-18T16:31:34Z</time>
    </trkpt>
    <trkpt lat="50.9540062" lon="6.9285299">
      <ele>48.6</ele>
      <time>2025-06-18T16:31:37Z</time>
    </trkpt>
    <trkpt lat="50.9540206" lon="6.9285491">
      <ele>48.6</ele>
      <time>2025-06-18T16:31:38Z</time>
    </trkpt>
    <trkpt lat="50.9540849" lon="6.9287492">
      <ele>48.6</ele>
      <time>2025-06-18T16:31:43Z</time>
    </trkpt>
    <trkpt lat="50.9541578" lon="6.9289951">
      <ele>48.6</ele>
      <time>2025-06-18T16:31:47Z</time>
    </trkpt>
    <trkpt lat="50.9541849" lon="6.9290573">
      <ele>48.6</ele>
      <time>2025-06-18T16:31:48Z</time>
    </trkpt>
    <trkpt lat="50.9542548" lon="6.9292518">
      <ele>48.6</ele>
      <time>2025-06-18T16:31:51Z</time>
    </trkpt>
    <trkpt lat="50.9542935" lon="6.9293856">
      <ele>48.6</ele>
      <time>2025-06-18T16:31:53Z</time>
    </trkpt>
    <trkpt lat="50.9543360" lon="6.9295220">
      <ele>48.6</ele>
      <time>2025-06-18T16:31:55Z</time>
    </trkpt>
    <trkpt lat="50.9544279" lon="6.9297958">
      <ele>48.6</ele>
      <time>2025-06-18T16:31:59Z</time>
    </trkpt>
    <trkpt lat="50.9544745" lon="6.9299121">
      <ele>48.6</ele>
      <time>2025-06-18T16:32:01Z</time>
    </trkpt>
    <trkpt lat="50.9545406" lon="6.9300741">
      <ele>48.6</ele>
      <time>2025-06-18T16:32:04Z</time>
    </trkpt>
    <trkpt lat="50.9546099" lon="6.9302264">
      <ele>48.6</ele>
      <time>2025-06-18T16:32:08Z</time>
    </trkpt>
    <trkpt lat="50.9547402" lon="6.9305377">
      <ele>48.6</ele>
      <time>2025-06-18T16:32:14Z</time>
    </trkpt>
    <trkpt lat="50.9547898" lon="6.9306788">
      <ele>48.6</ele>
      <time>2025-06-18T16:32:16Z</time>
    </trkpt>
    <trkpt lat="50.9548763" lon="6.9309050">
      <ele>48.6</ele>
      <time>2025-06-18T16:32:19Z</time>
    </trkpt>
    <trkpt lat="50.9549649" lon="6.9311357">
      <ele>48.6</ele>
      <time>2025-06-18T16:32:22Z</time>
    </trkpt>
    <trkpt lat="50.9550475" lon="6.9313538">
      <ele>48.6</ele>
      <time>2025-06-18T16:32:25Z</time>
    </trkpt>
    <trkpt lat="50.9550750" lon="6.9314273">
      <ele>48.6</ele>
      <time>2025-06-18T16:32:26Z</time>
    </trkpt>
    <trkpt lat="50.9551907" lon="6.9317234">
      <ele>48.6</ele>
      <time>2025-06-18T16:32:30Z</time>
    </trkpt>
    <trkpt lat="50.9554205" lon="6.9322966">
      <ele>48.6</ele>
      <time>2025-06-18T16:32:38Z</time>
    </trkpt>
    <trkpt lat="50.9554401" lon="6.9323635">
      <ele>48.6</ele>
      <time>2025-06-18T16:32:39Z</time>
    </trkpt>
    <trkpt lat="50.9555086" lon="6.9325673">
      <ele>48.6</ele>
      <time>2025-06-18T16:32:42Z</time>
    </trkpt>
    <trkpt lat="50.9557365" lon="6.9331133">
      <ele>48.6</ele>
      <time>2025-06-18T16:32:50Z</time>
    </trkpt>
    <trkpt lat="50.9557697" lon="6.9331785">
      <ele>48.6</ele>
      <time>2025-06-18T16:32:51Z</time>
    </trkpt>
    <trkpt lat="50.9558439" lon="6.9333777">
      <ele>48.6</ele>
      <time>2025-06-18T16:32:54Z</time>
    </trkpt>
    <trkpt lat="50.9560036" lon="6.9337822">
      <ele>48.6</ele>
      <time>2025-06-18T16:33:00Z</time>
    </trkpt>
    <trkpt lat="50.9560314" lon="6.9338404">
      <ele>48.6</ele>
      <time>2025-06-18T16:33:01Z</time>
    </trkpt>
    <trkpt lat="50.9560545" lon="6.9339026">
      <ele>48.6</ele>
      <time>2025-06-18T16:33:02Z</time>
    </trkpt>
    <trkpt lat="50.9561547" lon="6.9341701">
      <ele>48.6</ele>
      <time>2025-06-18T16:33:06Z</time>
    </trkpt>
    <trkpt lat="50.9562314" lon="6.9343782">
      <ele>48.6</ele>
      <time>2025-06-18T16:33:09Z</time>
    </trkpt>
    <trkpt lat="50.9563303" lon="6.9345924">
      <ele>48.6</ele>
      <time>2025-06-18T16:33:12Z</time>
    </trkpt>
    <trkpt lat="50.9564914" lon="6.9350372">
      <ele>48.6</ele>
      <time>2025-06-18T16:33:18Z</time>
    </trkpt>
    <trkpt lat="50.9565168" lon="6.9351192">
      <ele>48.6</ele>
      <time>2025-06-18T16:33:19Z</time>
    </trkpt>
    <trkpt lat="50.9567767" lon="6.9357535">
      <ele>48.6</ele>
      <time>2025-06-18T16:33:27Z</time>
    </trkpt>
    <trkpt lat="50.9569889" lon="6.9363239">
      <ele>48.6</ele>
      <time>2025-06-18T16:33:34Z</time>
    </trkpt>
    <trkpt lat="50.9572340" lon="6.9369157">
      <ele>48.6</ele>
      <time>2025-06-18T16:33:41Z</time>
    </trkpt>
    <trkpt lat="50.9574257" lon="6.9374169">
      <ele>48.6</ele>
      <time>2025-06-18T16:33:47Z</time>
    </trkpt>
    <trkpt lat="50.9576335" lon="6.9379915">
      <ele>48.6</ele>
      <time>2025-06-18T16:33:54Z</time>
    </trkpt>
    <trkpt lat="50.9578041" lon="6.9385406">
      <ele>48.6</ele>
      <time>2025-06-18T16:34:01Z</time>
    </trkpt>
    <trkpt lat="50.9578538" lon="6.9386931">
      <ele>48.6</ele>
      <time>2025-06-18T16:34:03Z</time>
    </trkpt>
    <trkpt lat="50.9579838" lon="6.9390233">
      <ele>48.6</ele>
      <time>2025-06-18T16:34:08Z</time>
    </trkpt>
    <trkpt lat="50.9580056" lon="6.9390876">
      <ele>48.6</ele>
      <time>2025-06-18T16:34:11Z</time>
    </trkpt>
    <trkpt lat="50.9580309" lon="6.9391762">
      <ele>48.6</ele>
      <time>2025-06-18T16:34:37Z</time>
    </trkpt>
    <trkpt lat="50.9581377" lon="6.9394542">
      <ele>48.6</ele>
      <time>2025-06-18T16:34:44Z</time>
    </trkpt>
    <trkpt lat="50.9581501" lon="6.9394862">
      <ele>48.6</ele>
      <time>2025-06-18T16:34:48Z</time>
    </trkpt>
    <trkpt lat="50.9581528" lon="6.9394876">
      <ele>48.6</ele>
      <time>2025-06-18T16:34:58Z</time>
    </trkpt>
    <trkpt lat="50.9581779" lon="6.9394726">
      <ele>48.6</ele>
      <time>2025-06-18T16:35:00Z</time>
    </trkpt>
    <trkpt lat="50.9582234" lon="6.9394371">
      <ele>48.6</ele>
      <time>2025-06-18T16:35:02Z</time>
    </trkpt>
    <trkpt lat="50.9583238" lon="6.9393893">
      <ele>48.6</ele>
      <time>2025-06-18T16:35:05Z</time>
    </trkpt>
    <trkpt lat="50.9584075" lon="6.9393765">
      <ele>48.6</ele>
      <time>2025-06-18T16:35:07Z</time>
    </trkpt>
    <trkpt lat="50.9584547" lon="6.9393827">
      <ele>48.6</ele>
      <time>2025-06-18T16:35:08Z</time>
    </trkpt>
    <trkpt lat="50.9586047" lon="6.9394118">
      <ele>48.6</ele>
      <time>2025-06-18T16:35:11Z</time>
    </trkpt>
    <trkpt lat="50.9590373" lon="6.9395226">
      <ele>48.6</ele>
      <time>2025-06-18T16:35:19Z</time>
    </trkpt>
    <trkpt lat="50.9591429" lon="6.9395530">
      <ele>48.6</ele>
      <time>2025-06-18T16:35:21Z</time>
    </trkpt>
    <trkpt lat="50.9592786" lon="6.9395813">
      <ele>48.6</ele>
      <time>2025-06-18T16:35:24Z</time>
    </trkpt>
    <trkpt lat="50.9593029" lon="6.9395844">
      <ele>48.6</ele>
      <time>2025-06-18T16:35:25Z</time>
    </trkpt>
    <trkpt lat="50.9593435" lon="6.9396444">
      <ele>48.6</ele>
      <time>2025-06-18T16:35:28Z</time>
    </trkpt>
    <trkpt lat="50.9593529" lon="6.9396616">
      <ele>48.6</ele>
      <time>2025-06-18T16:35:29Z</time>
    </trkpt>
    <trkpt lat="50.9593575" lon="6.9397276">
      <ele>48.6</ele>
      <time>2025-06-18T16:35:32Z</time>
    </trkpt>
    <trkpt lat="50.9593490" lon="6.9397396">
      <ele>48.6</ele>
      <time>2025-06-18T16:35:33Z</time>
    </trkpt>
    <trkpt lat="50.9593479" lon="6.9397498">
      <ele>48.6</ele>
      <time>2025-06-18T16:35:35Z</time>
    </trkpt>
    <trkpt lat="50.9593477" lon="6.9397547">
      <ele>48.6</ele>
      <time>2025-06-18T16:35:38Z</time>
    </trkpt>
    <trkpt lat="50.9593503" lon="6.9397233">
      <ele>48.6</ele>
      <time>2025-06-18T16:35:43Z</time>
    </trkpt>
    <trkpt lat="50.9593389" lon="6.9396599">
      <ele>48.6</ele>
      <time>2025-06-18T16:35:48Z</time>
    </trkpt>
    <trkpt lat="50.9593333" lon="6.9396511">
      <ele>48.6</ele>
      <time>2025-06-18T16:35:50Z</time>
    </trkpt>
    <trkpt lat="50.9593130" lon="6.9396546">
      <ele>48.6</ele>
      <time>2025-06-18T16:35:55Z</time>
    </trkpt>
  </trkseg></trk>
</gpx>
