<?xml version="1.0" encoding="UTF-8"?>
<gpx version="1.1" creator="Diary FIT converter" xmlns="http://www.topografix.com/GPX/1/1">
  <trk><name>Running</name><trkseg>
    <trkpt lat="50.9524838" lon="6.9920860">
      <time>2020-02-21T18:38:28Z</time>
    </trkpt>
    <trkpt lat="50.9523323" lon="6.9921208">
      <time>2020-02-21T18:38:32Z</time>
    </trkpt>
    <trkpt lat="50.9522437" lon="6.9920908">
      <time>2020-02-21T18:38:35Z</time>
    </trkpt>
    <trkpt lat="50.9521682" lon="6.9920944">
      <time>2020-02-21T18:38:38Z</time>
    </trkpt>
    <trkpt lat="50.9521033" lon="6.9920572">
      <time>2020-02-21T18:38:41Z</time>
    </trkpt>
    <trkpt lat="50.9520272" lon="6.9919734">
      <time>2020-02-21T18:38:46Z</time>
    </trkpt>
    <trkpt lat="50.9520008" lon="6.9919222">
      <time>2020-02-21T18:38:48Z</time>
    </trkpt>
    <trkpt lat="50.9518706" lon="6.9917853">
      <time>2020-02-21T18:38:55Z</time>
    </trkpt>
    <trkpt lat="50.9517661" lon="6.9917339">
      <time>2020-02-21T18:39:00Z</time>
    </trkpt>
    <trkpt lat="50.9517292" lon="6.9916907">
      <time>2020-02-21T18:39:02Z</time>
    </trkpt>
    <trkpt lat="50.9517164" lon="6.9916717">
      <time>2020-02-21T18:39:03Z</time>
    </trkpt>
    <trkpt lat="50.9516994" lon="6.9915862">
      <time>2020-02-21T18:39:06Z</time>
    </trkpt>
    <trkpt lat="50.9517007" lon="6.9914945">
      <time>2020-02-21T18:39:09Z</time>
    </trkpt>
    <trkpt lat="50.9517467" lon="6.9914373">
      <time>2020-02-21T18:39:11Z</time>
    </trkpt>
    <trkpt lat="50.9518047" lon="6.9913127">
      <time>2020-02-21T18:39:16Z</time>
    </trkpt>
    <trkpt lat="50.9518633" lon="6.9912039">
      <time>2020-02-21T18:39:20Z</time>
    </trkpt>
    <trkpt lat="50.9519050" lon="6.9910538">
      <time>2020-02-21T18:39:24Z</time>
    </trkpt>
    <trkpt lat="50.9519337" lon="6.9909747">
      <time>2020-02-21T18:39:26Z</time>
    </trkpt>
    <trkpt lat="50.9520177" lon="6.9907444">
      <time>2020-02-21T18:39:31Z</time>
    </trkpt>
    <trkpt lat="50.9520261" lon="6.9906615">
      <time>2020-02-21T18:39:33Z</time>
    </trkpt>
    <trkpt lat="50.9520243" lon="6.9904698">
      <time>2020-02-21T18:39:38Z</time>
    </trkpt>
    <trkpt lat="50.9519565" lon="6.9904427">
      <time>2020-02-21T18:39:41Z</time>
    </trkpt>
    <trkpt lat="50.9518955" lon="6.9904007">
      <time>2020-02-21T18:39:44Z</time>
    </trkpt>
    <trkpt lat="50.9518640" lon="6.9903624">
      <time>2020-02-21T18:39:46Z</time>
    </trkpt>
    <trkpt lat="50.9518463" lon="6.9903403">
      <time>2020-02-21T18:39:47Z</time>
    </trkpt>
    <trkpt lat="50.9518103" lon="6.9903111">
      <time>2020-02-21T18:39:49Z</time>
    </trkpt>
    <trkpt lat="50.9516589" lon="6.9902272">
      <time>2020-02-21T18:39:55Z</time>
    </trkpt>
    <trkpt lat="50.9515723" lon="6.9901099">
      <time>2020-02-21T18:39:59Z</time>
    </trkpt>
    <trkpt lat="50.9515738" lon="6.9900925">
      <time>2020-02-21T18:40:00Z</time>
    </trkpt>
    <trkpt lat="50.9515704" lon="6.9899927">
      <time>2020-02-21T18:40:04Z</time>
    </trkpt>
    <trkpt lat="50.9515853" lon="6.9899652">
      <time>2020-02-21T18:40:05Z</time>
    </trkpt>
    <trkpt lat="50.9516671" lon="6.9897418">
      <time>2020-02-21T18:40:12Z</time>
    </trkpt>
    <trkpt lat="50.9516998" lon="6.9894436">
      <time>2020-02-21T18:40:19Z</time>
    </trkpt>
    <trkpt lat="50.9517033" lon="6.9894036">
      <time>2020-02-21T18:40:20Z</time>
    </trkpt>
    <trkpt lat="50.9517162" lon="6.9893710">
      <time>2020-02-21T18:40:21Z</time>
    </trkpt>
    <trkpt lat="50.9517522" lon="6.9893546">
      <time>2020-02-21T18:40:23Z</time>
    </trkpt>
    <trkpt lat="50.9517674" lon="6.9893651">
      <time>2020-02-21T18:40:24Z</time>
    </trkpt>
    <trkpt lat="50.9518049" lon="6.9894167">
      <time>2020-02-21T18:40:27Z</time>
    </trkpt>
    <trkpt lat="50.9518608" lon="6.9894858">
      <time>2020-02-21T18:40:29Z</time>
    </trkpt>
    <trkpt lat="50.9519423" lon="6.9895282">
      <time>2020-02-21T18:40:34Z</time>
    </trkpt>
    <trkpt lat="50.9519581" lon="6.9895200">
      <time>2020-02-21T18:40:35Z</time>
    </trkpt>
    <trkpt lat="50.9519718" lon="6.9895262">
      <time>2020-02-21T18:40:36Z</time>
    </trkpt>
    <trkpt lat="50.9520049" lon="6.9895586">
      <time>2020-02-21T18:40:38Z</time>
    </trkpt>
    <trkpt lat="50.9520324" lon="6.9895825">
      <time>2020-02-21T18:40:40Z</time>
    </trkpt>
    <trkpt lat="50.9520563" lon="6.9895786">
      <time>2020-02-21T18:40:43Z</time>
    </trkpt>
    <trkpt lat="50.9520683" lon="6.9895683">
      <time>2020-02-21T18:40:46Z</time>
    </trkpt>
    <trkpt lat="50.9521056" lon="6.9894951">
      <time>2020-02-21T18:40:49Z</time>
    </trkpt>
    <trkpt lat="50.9521520" lon="6.9894671">
      <time>2020-02-21T18:40:51Z</time>
    </trkpt>
    <trkpt lat="50.9522038" lon="6.9894734">
      <time>2020-02-21T18:40:53Z</time>
    </trkpt>
    <trkpt lat="50.9522717" lon="6.9894807">
      <time>2020-02-21T18:40:56Z</time>
    </trkpt>
    <trkpt lat="50.9523149" lon="6.9894551">
      <time>2020-02-21T18:40:58Z</time>
    </trkpt>
    <trkpt lat="50.9523800" lon="6.9892642">
      <time>2020-02-21T18:41:04Z</time>
    </trkpt>
    <trkpt lat="50.9524370" lon="6.9891412">
      <time>2020-02-21T18:41:09Z</time>
    </trkpt>
    <trkpt lat="50.9524522" lon="6.9890835">
      <time>2020-02-21T18:41:11Z</time>
    </trkpt>
    <trkpt lat="50.9525304" lon="6.9888817">
      <time>2020-02-21T18:41:19Z</time>
    </trkpt>
    <trkpt lat="50.9526279" lon="6.9886229">
      <time>2020-02-21T18:41:28Z</time>
    </trkpt>
    <trkpt lat="50.9526399" lon="6.9885963">
      <time>2020-02-21T18:41:29Z</time>
    </trkpt>
    <trkpt lat="50.9526725" lon="6.9883942">
      <time>2020-02-21T18:41:36Z</time>
    </trkpt>
    <trkpt lat="50.9526163" lon="6.9881885">
      <time>2020-02-21T18:41:43Z</time>
    </trkpt>
    <trkpt lat="50.9525038" lon="6.9880458">
      <time>2020-02-21T18:41:50Z</time>
    </trkpt>
    <trkpt lat="50.9524691" lon="6.9878848">
      <time>2020-02-21T18:41:55Z</time>
    </trkpt>
    <trkpt lat="50.9524775" lon="6.9878536">
      <time>2020-02-21T18:41:56Z</time>
    </trkpt>
    <trkpt lat="50.9525178" lon="6.9877243">
      <time>2020-02-21T18:42:00Z</time>
    </trkpt>
    <trkpt lat="50.9525441" lon="6.9876514">
      <time>2020-02-21T18:42:02Z</time>
    </trkpt>
    <trkpt lat="50.9525861" lon="6.9875183">
      <time>2020-02-21T18:42:06Z</time>
    </trkpt>
    <trkpt lat="50.9526659" lon="6.9873071">
      <time>2020-02-21T18:42:12Z</time>
    </trkpt>
    <trkpt lat="50.9527660" lon="6.9870459">
      <time>2020-02-21T18:42:20Z</time>
    </trkpt>
    <trkpt lat="50.9527763" lon="6.9870096">
      <time>2020-02-21T18:42:21Z</time>
    </trkpt>
    <trkpt lat="50.9528729" lon="6.9867517">
      <time>2020-02-21T18:42:29Z</time>
    </trkpt>
    <trkpt lat="50.9529595" lon="6.9865360">
      <time>2020-02-21T18:42:36Z</time>
    </trkpt>
    <trkpt lat="50.9529664" lon="6.9863921">
      <time>2020-02-21T18:42:40Z</time>
    </trkpt>
    <trkpt lat="50.9529818" lon="6.9863860">
      <time>2020-02-21T18:42:41Z</time>
    </trkpt>
    <trkpt lat="50.9530394" lon="6.9864509">
      <time>2020-02-21T18:42:44Z</time>
    </trkpt>
    <trkpt lat="50.9531990" lon="6.9866160">
      <time>2020-02-21T18:42:51Z</time>
    </trkpt>
    <trkpt lat="50.9532543" lon="6.9866717">
      <time>2020-02-21T18:42:53Z</time>
    </trkpt>
    <trkpt lat="50.9533593" lon="6.9868161">
      <time>2020-02-21T18:42:59Z</time>
    </trkpt>
    <trkpt lat="50.9533758" lon="6.9868385">
      <time>2020-02-21T18:43:00Z</time>
    </trkpt>
    <trkpt lat="50.9534544" lon="6.9869275">
      <time>2020-02-21T18:43:04Z</time>
    </trkpt>
    <trkpt lat="50.9535077" lon="6.9869988">
      <time>2020-02-21T18:43:07Z</time>
    </trkpt>
    <trkpt lat="50.9535162" lon="6.9870277">
      <time>2020-02-21T18:43:08Z</time>
    </trkpt>
    <trkpt lat="50.9535376" lon="6.9870678">
      <time>2020-02-21T18:43:10Z</time>
    </trkpt>
    <trkpt lat="50.9536418" lon="6.9871463">
      <time>2020-02-21T18:43:15Z</time>
    </trkpt>
    <trkpt lat="50.9537406" lon="6.9872421">
      <time>2020-02-21T18:43:20Z</time>
    </trkpt>
    <trkpt lat="50.9538768" lon="6.9873969">
      <time>2020-02-21T18:43:27Z</time>
    </trkpt>
    <trkpt lat="50.9539972" lon="6.9875713">
      <time>2020-02-21T18:43:35Z</time>
    </trkpt>
    <trkpt lat="50.9541081" lon="6.9877063">
      <time>2020-02-21T18:43:41Z</time>
    </trkpt>
    <trkpt lat="50.9542329" lon="6.9876917">
      <time>2020-02-21T18:43:46Z</time>
    </trkpt>
    <trkpt lat="50.9543742" lon="6.9877799">
      <time>2020-02-21T18:43:52Z</time>
    </trkpt>
    <trkpt lat="50.9544916" lon="6.9879565">
      <time>2020-02-21T18:43:58Z</time>
    </trkpt>
    <trkpt lat="50.9545844" lon="6.9881531">
      <time>2020-02-21T18:44:04Z</time>
    </trkpt>
    <trkpt lat="50.9545991" lon="6.9881878">
      <time>2020-02-21T18:44:05Z</time>
    </trkpt>
    <trkpt lat="50.9546383" lon="6.9883242">
      <time>2020-02-21T18:44:09Z</time>
    </trkpt>
    <trkpt lat="50.9546570" lon="6.9883907">
      <time>2020-02-21T18:44:11Z</time>
    </trkpt>
    <trkpt lat="50.9547101" lon="6.9885626">
      <time>2020-02-21T18:44:16Z</time>
    </trkpt>
    <trkpt lat="50.9547165" lon="6.9885924">
      <time>2020-02-21T18:44:17Z</time>
    </trkpt>
    <trkpt lat="50.9547352" lon="6.9886574">
      <time>2020-02-21T18:44:19Z</time>
    </trkpt>
    <trkpt lat="50.9547920" lon="6.9888631">
      <time>2020-02-21T18:44:25Z</time>
    </trkpt>
    <trkpt lat="50.9548020" lon="6.9888938">
      <time>2020-02-21T18:44:26Z</time>
    </trkpt>
    <trkpt lat="50.9549026" lon="6.9890241">
      <time>2020-02-21T18:44:32Z</time>
    </trkpt>
    <trkpt lat="50.9549772" lon="6.9890897">
      <time>2020-02-21T18:44:36Z</time>
    </trkpt>
    <trkpt lat="50.9550112" lon="6.9891259">
      <time>2020-02-21T18:44:38Z</time>
    </trkpt>
    <trkpt lat="50.9550275" lon="6.9891447">
      <time>2020-02-21T18:44:39Z</time>
    </trkpt>
    <trkpt lat="50.9551588" lon="6.9892676">
      <time>2020-02-21T18:44:46Z</time>
    </trkpt>
    <trkpt lat="50.9553080" lon="6.9894373">
      <time>2020-02-21T18:44:54Z</time>
    </trkpt>
    <trkpt lat="50.9553259" lon="6.9894537">
      <time>2020-02-21T18:44:55Z</time>
    </trkpt>
    <trkpt lat="50.9554355" lon="6.9895658">
      <time>2020-02-21T18:45:01Z</time>
    </trkpt>
    <trkpt lat="50.9554821" lon="6.9896292">
      <time>2020-02-21T18:45:04Z</time>
    </trkpt>
    <trkpt lat="50.9555189" lon="6.9897037">
      <time>2020-02-21T18:45:07Z</time>
    </trkpt>
    <trkpt lat="50.9555291" lon="6.9897228">
      <time>2020-02-21T18:45:08Z</time>
    </trkpt>
    <trkpt lat="50.9555998" lon="6.9897887">
      <time>2020-02-21T18:45:12Z</time>
    </trkpt>
    <trkpt lat="50.9556767" lon="6.9898514">
      <time>2020-02-21T18:45:16Z</time>
    </trkpt>
    <trkpt lat="50.9558315" lon="6.9899665">
      <time>2020-02-21T18:45:24Z</time>
    </trkpt>
    <trkpt lat="50.9559973" lon="6.9900791">
      <time>2020-02-21T18:45:32Z</time>
    </trkpt>
    <trkpt lat="50.9561578" lon="6.9901969">
      <time>2020-02-21T18:45:40Z</time>
    </trkpt>
    <trkpt lat="50.9561802" lon="6.9902144">
      <time>2020-02-21T18:45:41Z</time>
    </trkpt>
    <trkpt lat="50.9563500" lon="6.9903013">
      <time>2020-02-21T18:45:49Z</time>
    </trkpt>
    <trkpt lat="50.9565323" lon="6.9904089">
      <time>2020-02-21T18:45:57Z</time>
    </trkpt>
    <trkpt lat="50.9565928" lon="6.9904546">
      <time>2020-02-21T18:46:00Z</time>
    </trkpt>
    <trkpt lat="50.9567362" lon="6.9905968">
      <time>2020-02-21T18:46:08Z</time>
    </trkpt>
    <trkpt lat="50.9568583" lon="6.9907653">
      <time>2020-02-21T18:46:15Z</time>
    </trkpt>
    <trkpt lat="50.9569965" lon="6.9909280">
      <time>2020-02-21T18:46:22Z</time>
    </trkpt>
    <trkpt lat="50.9571433" lon="6.9911272">
      <time>2020-02-21T18:46:30Z</time>
    </trkpt>
    <trkpt lat="50.9571814" lon="6.9911735">
      <time>2020-02-21T18:46:32Z</time>
    </trkpt>
    <trkpt lat="50.9573255" lon="6.9913716">
      <time>2020-02-21T18:46:40Z</time>
    </trkpt>
    <trkpt lat="50.9574607" lon="6.9915420">
      <time>2020-02-21T18:46:48Z</time>
    </trkpt>
    <trkpt lat="50.9575673" lon="6.9916817">
      <time>2020-02-21T18:46:54Z</time>
    </trkpt>
    <trkpt lat="50.9575843" lon="6.9917074">
      <time>2020-02-21T18:46:55Z</time>
    </trkpt>
    <trkpt lat="50.9577274" lon="6.9918836">
      <time>2020-02-21T18:47:03Z</time>
    </trkpt>
    <trkpt lat="50.9578700" lon="6.9920590">
      <time>2020-02-21T18:47:11Z</time>
    </trkpt>
    <trkpt lat="50.9579203" lon="6.9921321">
      <time>2020-02-21T18:47:14Z</time>
    </trkpt>
    <trkpt lat="50.9580250" lon="6.9922581">
      <time>2020-02-21T18:47:20Z</time>
    </trkpt>
    <trkpt lat="50.9580894" lon="6.9923410">
      <time>2020-02-21T18:47:24Z</time>
    </trkpt>
    <trkpt lat="50.9581516" lon="6.9924213">
      <time>2020-02-21T18:47:28Z</time>
    </trkpt>
    <trkpt lat="50.9582881" lon="6.9925938">
      <time>2020-02-21T18:47:36Z</time>
    </trkpt>
    <trkpt lat="50.9584283" lon="6.9927546">
      <time>2020-02-21T18:47:44Z</time>
    </trkpt>
    <trkpt lat="50.9584773" lon="6.9928016">
      <time>2020-02-21T18:47:47Z</time>
    </trkpt>
    <trkpt lat="50.9585062" lon="6.9928373">
      <time>2020-02-21T18:47:49Z</time>
    </trkpt>
    <trkpt lat="50.9585223" lon="6.9928616">
      <time>2020-02-21T18:47:50Z</time>
    </trkpt>
    <trkpt lat="50.9585755" lon="6.9929257">
      <time>2020-02-21T18:47:53Z</time>
    </trkpt>
    <trkpt lat="50.9586785" lon="6.9930604">
      <time>2020-02-21T18:47:59Z</time>
    </trkpt>
    <trkpt lat="50.9587768" lon="6.9931791">
      <time>2020-02-21T18:48:05Z</time>
    </trkpt>
    <trkpt lat="50.9589050" lon="6.9933457">
      <time>2020-02-21T18:48:13Z</time>
    </trkpt>
    <trkpt lat="50.9589639" lon="6.9934282">
      <time>2020-02-21T18:48:17Z</time>
    </trkpt>
    <trkpt lat="50.9590111" lon="6.9934829">
      <time>2020-02-21T18:48:20Z</time>
    </trkpt>
    <trkpt lat="50.9590573" lon="6.9935428">
      <time>2020-02-21T18:48:23Z</time>
    </trkpt>
    <trkpt lat="50.9592039" lon="6.9937171">
      <time>2020-02-21T18:48:32Z</time>
    </trkpt>
    <trkpt lat="50.9592345" lon="6.9937546">
      <time>2020-02-21T18:48:34Z</time>
    </trkpt>
    <trkpt lat="50.9593680" lon="6.9939159">
      <time>2020-02-21T18:48:43Z</time>
    </trkpt>
    <trkpt lat="50.9594838" lon="6.9939591">
      <time>2020-02-21T18:48:49Z</time>
    </trkpt>
    <trkpt lat="50.9595355" lon="6.9940184">
      <time>2020-02-21T18:48:52Z</time>
    </trkpt>
    <trkpt lat="50.9596492" lon="6.9941690">
      <time>2020-02-21T18:48:59Z</time>
    </trkpt>
    <trkpt lat="50.9597952" lon="6.9943692">
      <time>2020-02-21T18:49:09Z</time>
    </trkpt>
    <trkpt lat="50.9599482" lon="6.9945669">
      <time>2020-02-21T18:49:19Z</time>
    </trkpt>
    <trkpt lat="50.9600617" lon="6.9947046">
      <time>2020-02-21T18:49:26Z</time>
    </trkpt>
    <trkpt lat="50.9601582" lon="6.9948244">
      <time>2020-02-21T18:49:32Z</time>
    </trkpt>
    <trkpt lat="50.9603020" lon="6.9949998">
      <time>2020-02-21T18:49:41Z</time>
    </trkpt>
    <trkpt lat="50.9604505" lon="6.9951691">
      <time>2020-02-21T18:49:50Z</time>
    </trkpt>
    <trkpt lat="50.9606141" lon="6.9953366">
      <time>2020-02-21T18:49:59Z</time>
    </trkpt>
    <trkpt lat="50.9607845" lon="6.9954903">
      <time>2020-02-21T18:50:08Z</time>
    </trkpt>
    <trkpt lat="50.9609134" lon="6.9956050">
      <time>2020-02-21T18:50:15Z</time>
    </trkpt>
    <trkpt lat="50.9609322" lon="6.9956210">
      <time>2020-02-21T18:50:16Z</time>
    </trkpt>
    <trkpt lat="50.9610918" lon="6.9957715">
      <time>2020-02-21T18:50:25Z</time>
    </trkpt>
    <trkpt lat="50.9611081" lon="6.9957888">
      <time>2020-02-21T18:50:26Z</time>
    </trkpt>
    <trkpt lat="50.9612742" lon="6.9959297">
      <time>2020-02-21T18:50:35Z</time>
    </trkpt>
    <trkpt lat="50.9613922" lon="6.9960472">
      <time>2020-02-21T18:50:42Z</time>
    </trkpt>
    <trkpt lat="50.9614275" lon="6.9960827">
      <time>2020-02-21T18:50:44Z</time>
    </trkpt>
    <trkpt lat="50.9615973" lon="6.9962145">
      <time>2020-02-21T18:50:53Z</time>
    </trkpt>
    <trkpt lat="50.9616166" lon="6.9962286">
      <time>2020-02-21T18:50:54Z</time>
    </trkpt>
    <trkpt lat="50.9617973" lon="6.9963611">
      <time>2020-02-21T18:51:04Z</time>
    </trkpt>
    <trkpt lat="50.9619430" lon="6.9964656">
      <time>2020-02-21T18:51:12Z</time>
    </trkpt>
    <trkpt lat="50.9621232" lon="6.9965738">
      <time>2020-02-21T18:51:21Z</time>
    </trkpt>
    <trkpt lat="50.9622492" lon="6.9966721">
      <time>2020-02-21T18:51:28Z</time>
    </trkpt>
    <trkpt lat="50.9623620" lon="6.9967517">
      <time>2020-02-21T18:51:34Z</time>
    </trkpt>
    <trkpt lat="50.9623957" lon="6.9967835">
      <time>2020-02-21T18:51:36Z</time>
    </trkpt>
    <trkpt lat="50.9625151" lon="6.9969200">
      <time>2020-02-21T18:51:43Z</time>
    </trkpt>
    <trkpt lat="50.9626317" lon="6.9969462">
      <time>2020-02-21T18:51:49Z</time>
    </trkpt>
    <trkpt lat="50.9628044" lon="6.9969245">
      <time>2020-02-21T18:51:58Z</time>
    </trkpt>
    <trkpt lat="50.9628234" lon="6.9969256">
      <time>2020-02-21T18:51:59Z</time>
    </trkpt>
    <trkpt lat="50.9630034" lon="6.9970336">
      <time>2020-02-21T18:52:07Z</time>
    </trkpt>
    <trkpt lat="50.9631657" lon="6.9971374">
      <time>2020-02-21T18:52:15Z</time>
    </trkpt>
    <trkpt lat="50.9632503" lon="6.9971912">
      <time>2020-02-21T18:52:19Z</time>
    </trkpt>
    <trkpt lat="50.9632910" lon="6.9972268">
      <time>2020-02-21T18:52:22Z</time>
    </trkpt>
    <trkpt lat="50.9632987" lon="6.9972403">
      <time>2020-02-21T18:52:23Z</time>
    </trkpt>
    <trkpt lat="50.9633569" lon="6.9972659">
      <time>2020-02-21T18:52:26Z</time>
    </trkpt>
    <trkpt lat="50.9634459" lon="6.9972629">
      <time>2020-02-21T18:52:32Z</time>
    </trkpt>
    <trkpt lat="50.9634685" lon="6.9972657">
      <time>2020-02-21T18:52:34Z</time>
    </trkpt>
    <trkpt lat="50.9635050" lon="6.9972903">
      <time>2020-02-21T18:52:37Z</time>
    </trkpt>
    <trkpt lat="50.9635493" lon="6.9973426">
      <time>2020-02-21T18:52:41Z</time>
    </trkpt>
    <trkpt lat="50.9635756" lon="6.9973837">
      <time>2020-02-21T18:52:43Z</time>
    </trkpt>
    <trkpt lat="50.9636431" lon="6.9974967">
      <time>2020-02-21T18:52:47Z</time>
    </trkpt>
    <trkpt lat="50.9638233" lon="6.9976096">
      <time>2020-02-21T18:52:55Z</time>
    </trkpt>
    <trkpt lat="50.9638819" lon="6.9976583">
      <time>2020-02-21T18:52:58Z</time>
    </trkpt>
    <trkpt lat="50.9639599" lon="6.9977112">
      <time>2020-02-21T18:53:02Z</time>
    </trkpt>
    <trkpt lat="50.9640364" lon="6.9977693">
      <time>2020-02-21T18:53:06Z</time>
    </trkpt>
    <trkpt lat="50.9641562" lon="6.9978566">
      <time>2020-02-21T18:53:13Z</time>
    </trkpt>
    <trkpt lat="50.9642320" lon="6.9979140">
      <time>2020-02-21T18:53:17Z</time>
    </trkpt>
    <trkpt lat="50.9643160" lon="6.9979847">
      <time>2020-02-21T18:53:22Z</time>
    </trkpt>
    <trkpt lat="50.9644057" lon="6.9980588">
      <time>2020-02-21T18:53:27Z</time>
    </trkpt>
    <trkpt lat="50.9645050" lon="6.9981208">
      <time>2020-02-21T18:53:32Z</time>
    </trkpt>
    <trkpt lat="50.9646541" lon="6.9982322">
      <time>2020-02-21T18:53:39Z</time>
    </trkpt>
    <trkpt lat="50.9648002" lon="6.9983165">
      <time>2020-02-21T18:53:46Z</time>
    </trkpt>
    <trkpt lat="50.9649880" lon="6.9984173">
      <time>2020-02-21T18:53:55Z</time>
    </trkpt>
    <trkpt lat="50.9650075" lon="6.9984289">
      <time>2020-02-21T18:53:56Z</time>
    </trkpt>
    <trkpt lat="50.9651764" lon="6.9985550">
      <time>2020-02-21T18:54:05Z</time>
    </trkpt>
    <trkpt lat="50.9652432" lon="6.9985947">
      <time>2020-02-21T18:54:08Z</time>
    </trkpt>
    <trkpt lat="50.9653349" lon="6.9986672">
      <time>2020-02-21T18:54:13Z</time>
    </trkpt>
    <trkpt lat="50.9653763" lon="6.9986910">
      <time>2020-02-21T18:54:15Z</time>
    </trkpt>
    <trkpt lat="50.9654354" lon="6.9987248">
      <time>2020-02-21T18:54:18Z</time>
    </trkpt>
    <trkpt lat="50.9655313" lon="6.9987962">
      <time>2020-02-21T18:54:23Z</time>
    </trkpt>
    <trkpt lat="50.9657056" lon="6.9989074">
      <time>2020-02-21T18:54:32Z</time>
    </trkpt>
    <trkpt lat="50.9658094" lon="6.9989639">
      <time>2020-02-21T18:54:37Z</time>
    </trkpt>
    <trkpt lat="50.9658908" lon="6.9990119">
      <time>2020-02-21T18:54:41Z</time>
    </trkpt>
    <trkpt lat="50.9660542" lon="6.9991000">
      <time>2020-02-21T18:54:49Z</time>
    </trkpt>
    <trkpt lat="50.9661404" lon="6.9991730">
      <time>2020-02-21T18:54:54Z</time>
    </trkpt>
    <trkpt lat="50.9662467" lon="6.9992072">
      <time>2020-02-21T18:54:59Z</time>
    </trkpt>
    <trkpt lat="50.9664306" lon="6.9993048">
      <time>2020-02-21T18:55:08Z</time>
    </trkpt>
    <trkpt lat="50.9664729" lon="6.9993310">
      <time>2020-02-21T18:55:10Z</time>
    </trkpt>
    <trkpt lat="50.9666389" lon="6.9994004">
      <time>2020-02-21T18:55:18Z</time>
    </trkpt>
    <trkpt lat="50.9667922" lon="6.9994962">
      <time>2020-02-21T18:55:26Z</time>
    </trkpt>
    <trkpt lat="50.9668284" lon="6.9995221">
      <time>2020-02-21T18:55:28Z</time>
    </trkpt>
    <trkpt lat="50.9670146" lon="6.9996394">
      <time>2020-02-21T18:55:37Z</time>
    </trkpt>
    <trkpt lat="50.9671881" lon="6.9997314">
      <time>2020-02-21T18:55:45Z</time>
    </trkpt>
    <trkpt lat="50.9673634" lon="6.9998169">
      <time>2020-02-21T18:55:54Z</time>
    </trkpt>
    <trkpt lat="50.9675044" lon="6.9998768">
      <time>2020-02-21T18:56:02Z</time>
    </trkpt>
    <trkpt lat="50.9676305" lon="6.9999760">
      <time>2020-02-21T18:56:10Z</time>
    </trkpt>
    <trkpt lat="50.9677100" lon="7.0000828">
      <time>2020-02-21T18:56:17Z</time>
    </trkpt>
    <trkpt lat="50.9677246" lon="7.0000895">
      <time>2020-02-21T18:56:18Z</time>
    </trkpt>
    <trkpt lat="50.9677484" lon="7.0000829">
      <time>2020-02-21T18:56:20Z</time>
    </trkpt>
    <trkpt lat="50.9677430" lon="7.0000539">
      <time>2020-02-21T18:56:22Z</time>
    </trkpt>
    <trkpt lat="50.9676306" lon="6.9999718">
      <time>2020-02-21T18:56:28Z</time>
    </trkpt>
    <trkpt lat="50.9674746" lon="6.9999432">
      <time>2020-02-21T18:56:36Z</time>
    </trkpt>
    <trkpt lat="50.9673450" lon="6.9998615">
      <time>2020-02-21T18:56:44Z</time>
    </trkpt>
    <trkpt lat="50.9671738" lon="6.9997890">
      <time>2020-02-21T18:56:52Z</time>
    </trkpt>
    <trkpt lat="50.9670379" lon="6.9997340">
      <time>2020-02-21T18:56:58Z</time>
    </trkpt>
    <trkpt lat="50.9669361" lon="6.9996989">
      <time>2020-02-21T18:57:03Z</time>
    </trkpt>
    <trkpt lat="50.9668993" lon="6.9996737">
      <time>2020-02-21T18:57:05Z</time>
    </trkpt>
    <trkpt lat="50.9667641" lon="6.9995933">
      <time>2020-02-21T18:57:12Z</time>
    </trkpt>
    <trkpt lat="50.9667252" lon="6.9995786">
      <time>2020-02-21T18:57:14Z</time>
    </trkpt>
    <trkpt lat="50.9665697" lon="6.9994748">
      <time>2020-02-21T18:57:23Z</time>
    </trkpt>
    <trkpt lat="50.9664531" lon="6.9994086">
      <time>2020-02-21T18:57:29Z</time>
    </trkpt>
    <trkpt lat="50.9662996" lon="6.9993309">
      <time>2020-02-21T18:57:37Z</time>
    </trkpt>
    <trkpt lat="50.9661394" lon="6.9992243">
      <time>2020-02-21T18:57:46Z</time>
    </trkpt>
    <trkpt lat="50.9660205" lon="6.9991728">
      <time>2020-02-21T18:57:52Z</time>
    </trkpt>
    <trkpt lat="50.9658984" lon="6.9990997">
      <time>2020-02-21T18:57:59Z</time>
    </trkpt>
    <trkpt lat="50.9658802" lon="6.9990889">
      <time>2020-02-21T18:58:00Z</time>
    </trkpt>
    <trkpt lat="50.9657561" lon="6.9990156">
      <time>2020-02-21T18:58:07Z</time>
    </trkpt>
    <trkpt lat="50.9656605" lon="6.9989487">
      <time>2020-02-21T18:58:12Z</time>
    </trkpt>
    <trkpt lat="50.9655884" lon="6.9989206">
      <time>2020-02-21T18:58:16Z</time>
    </trkpt>
    <trkpt lat="50.9654698" lon="6.9988670">
      <time>2020-02-21T18:58:23Z</time>
    </trkpt>
    <trkpt lat="50.9653342" lon="6.9987722">
      <time>2020-02-21T18:58:30Z</time>
    </trkpt>
    <trkpt lat="50.9652224" lon="6.9986917">
      <time>2020-02-21T18:58:36Z</time>
    </trkpt>
    <trkpt lat="50.9651773" lon="6.9986558">
      <time>2020-02-21T18:58:38Z</time>
    </trkpt>
    <trkpt lat="50.9650003" lon="6.9985665">
      <time>2020-02-21T18:58:47Z</time>
    </trkpt>
    <trkpt lat="50.9648854" lon="6.9984906">
      <time>2020-02-21T18:58:53Z</time>
    </trkpt>
    <trkpt lat="50.9647571" lon="6.9983854">
      <time>2020-02-21T18:59:00Z</time>
    </trkpt>
    <trkpt lat="50.9646696" lon="6.9983173">
      <time>2020-02-21T18:59:05Z</time>
    </trkpt>
    <trkpt lat="50.9644895" lon="6.9981883">
      <time>2020-02-21T18:59:14Z</time>
    </trkpt>
    <trkpt lat="50.9644750" lon="6.9981695">
      <time>2020-02-21T18:59:15Z</time>
    </trkpt>
    <trkpt lat="50.9643720" lon="6.9980897">
      <time>2020-02-21T18:59:21Z</time>
    </trkpt>
    <trkpt lat="50.9642580" lon="6.9980059">
      <time>2020-02-21T18:59:27Z</time>
    </trkpt>
    <trkpt lat="50.9641710" lon="6.9979400">
      <time>2020-02-21T18:59:32Z</time>
    </trkpt>
    <trkpt lat="50.9640577" lon="6.9978609">
      <time>2020-02-21T18:59:38Z</time>
    </trkpt>
    <trkpt lat="50.9640378" lon="6.9978491">
      <time>2020-02-21T18:59:39Z</time>
    </trkpt>
    <trkpt lat="50.9640166" lon="6.9978364">
      <time>2020-02-21T18:59:40Z</time>
    </trkpt>
    <trkpt lat="50.9638834" lon="6.9976468">
      <time>2020-02-21T18:59:48Z</time>
    </trkpt>
    <trkpt lat="50.9638301" lon="6.9976011">
      <time>2020-02-21T18:59:51Z</time>
    </trkpt>
    <trkpt lat="50.9637920" lon="6.9975853">
      <time>2020-02-21T18:59:53Z</time>
    </trkpt>
    <trkpt lat="50.9637425" lon="6.9975610">
      <time>2020-02-21T18:59:56Z</time>
    </trkpt>
    <trkpt lat="50.9637156" lon="6.9975082">
      <time>2020-02-21T18:59:58Z</time>
    </trkpt>
    <trkpt lat="50.9633383" lon="6.9969696">
      <time>2020-02-21T19:00:22Z</time>
    </trkpt>
    <trkpt lat="50.9632076" lon="6.9968881">
      <time>2020-02-21T19:00:28Z</time>
    </trkpt>
    <trkpt lat="50.9631556" lon="6.9968495">
      <time>2020-02-21T19:00:31Z</time>
    </trkpt>
    <trkpt lat="50.9630774" lon="6.9967971">
      <time>2020-02-21T19:00:36Z</time>
    </trkpt>
    <trkpt lat="50.9630185" lon="6.9967494">
      <time>2020-02-21T19:00:39Z</time>
    </trkpt>
    <trkpt lat="50.9629381" lon="6.9967017">
      <time>2020-02-21T19:00:43Z</time>
    </trkpt>
    <trkpt lat="50.9628164" lon="6.9966324">
      <time>2020-02-21T19:00:50Z</time>
    </trkpt>
    <trkpt lat="50.9626319" lon="6.9966451">
      <time>2020-02-21T19:00:59Z</time>
    </trkpt>
    <trkpt lat="50.9625264" lon="6.9966135">
      <time>2020-02-21T19:01:05Z</time>
    </trkpt>
    <trkpt lat="50.9624714" lon="6.9964840">
      <time>2020-02-21T19:01:11Z</time>
    </trkpt>
    <trkpt lat="50.9623542" lon="6.9963601">
      <time>2020-02-21T19:01:19Z</time>
    </trkpt>
    <trkpt lat="50.9622806" lon="6.9963118">
      <time>2020-02-21T19:01:22Z</time>
    </trkpt>
    <trkpt lat="50.9622085" lon="6.9962459">
      <time>2020-02-21T19:01:26Z</time>
    </trkpt>
    <trkpt lat="50.9621051" lon="6.9961836">
      <time>2020-02-21T19:01:31Z</time>
    </trkpt>
    <trkpt lat="50.9619968" lon="6.9961175">
      <time>2020-02-21T19:01:36Z</time>
    </trkpt>
    <trkpt lat="50.9618743" lon="6.9960344">
      <time>2020-02-21T19:01:42Z</time>
    </trkpt>
    <trkpt lat="50.9618138" lon="6.9959893">
      <time>2020-02-21T19:01:45Z</time>
    </trkpt>
    <trkpt lat="50.9616741" lon="6.9959388">
      <time>2020-02-21T19:01:51Z</time>
    </trkpt>
    <trkpt lat="50.9615165" lon="6.9958811">
      <time>2020-02-21T19:01:58Z</time>
    </trkpt>
    <trkpt lat="50.9614658" lon="6.9958095">
      <time>2020-02-21T19:02:03Z</time>
    </trkpt>
    <trkpt lat="50.9614580" lon="6.9957970">
      <time>2020-02-21T19:02:04Z</time>
    </trkpt>
    <trkpt lat="50.9614026" lon="6.9957710">
      <time>2020-02-21T19:02:08Z</time>
    </trkpt>
    <trkpt lat="50.9613836" lon="6.9957376">
      <time>2020-02-21T19:02:10Z</time>
    </trkpt>
    <trkpt lat="50.9613059" lon="6.9956420">
      <time>2020-02-21T19:02:17Z</time>
    </trkpt>
    <trkpt lat="50.9612323" lon="6.9955737">
      <time>2020-02-21T19:02:22Z</time>
    </trkpt>
    <trkpt lat="50.9611887" lon="6.9955254">
      <time>2020-02-21T19:02:25Z</time>
    </trkpt>
    <trkpt lat="50.9611157" lon="6.9954423">
      <time>2020-02-21T19:02:32Z</time>
    </trkpt>
    <trkpt lat="50.9610718" lon="6.9954030">
      <time>2020-02-21T19:02:36Z</time>
    </trkpt>
    <trkpt lat="50.9610281" lon="6.9953537">
      <time>2020-02-21T19:02:40Z</time>
    </trkpt>
    <trkpt lat="50.9608985" lon="6.9952567">
      <time>2020-02-21T19:02:49Z</time>
    </trkpt>
    <trkpt lat="50.9608023" lon="6.9951424">
      <time>2020-02-21T19:02:56Z</time>
    </trkpt>
    <trkpt lat="50.9607548" lon="6.9950802">
      <time>2020-02-21T19:03:00Z</time>
    </trkpt>
    <trkpt lat="50.9606985" lon="6.9950335">
      <time>2020-02-21T19:03:04Z</time>
    </trkpt>
    <trkpt lat="50.9605904" lon="6.9949099">
      <time>2020-02-21T19:03:12Z</time>
    </trkpt>
    <trkpt lat="50.9605024" lon="6.9948110">
      <time>2020-02-21T19:03:19Z</time>
    </trkpt>
    <trkpt lat="50.9604104" lon="6.9947036">
      <time>2020-02-21T19:03:26Z</time>
    </trkpt>
    <trkpt lat="50.9603822" lon="6.9946707">
      <time>2020-02-21T19:03:28Z</time>
    </trkpt>
    <trkpt lat="50.9602679" lon="6.9945228">
      <time>2020-02-21T19:03:37Z</time>
    </trkpt>
    <trkpt lat="50.9601344" lon="6.9944090">
      <time>2020-02-21T19:03:46Z</time>
    </trkpt>
    <trkpt lat="50.9600569" lon="6.9943023">
      <time>2020-02-21T19:03:53Z</time>
    </trkpt>
    <trkpt lat="50.9599191" lon="6.9941372">
      <time>2020-02-21T19:04:02Z</time>
    </trkpt>
    <trkpt lat="50.9597767" lon="6.9939728">
      <time>2020-02-21T19:04:12Z</time>
    </trkpt>
    <trkpt lat="50.9597555" lon="6.9939374">
      <time>2020-02-21T19:04:14Z</time>
    </trkpt>
    <trkpt lat="50.9596559" lon="6.9938142">
      <time>2020-02-21T19:04:21Z</time>
    </trkpt>
    <trkpt lat="50.9596365" lon="6.9937991">
      <time>2020-02-21T19:04:22Z</time>
    </trkpt>
    <trkpt lat="50.9595330" lon="6.9936795">
      <time>2020-02-21T19:04:29Z</time>
    </trkpt>
    <trkpt lat="50.9594933" lon="6.9936667">
      <time>2020-02-21T19:04:31Z</time>
    </trkpt>
    <trkpt lat="50.9593710" lon="6.9935514">
      <time>2020-02-21T19:04:39Z</time>
    </trkpt>
    <trkpt lat="50.9593584" lon="6.9935374">
      <time>2020-02-21T19:04:40Z</time>
    </trkpt>
    <trkpt lat="50.9592525" lon="6.9934126">
      <time>2020-02-21T19:04:47Z</time>
    </trkpt>
    <trkpt lat="50.9591377" lon="6.9932789">
      <time>2020-02-21T19:04:55Z</time>
    </trkpt>
    <trkpt lat="50.9591089" lon="6.9932467">
      <time>2020-02-21T19:04:57Z</time>
    </trkpt>
    <trkpt lat="50.9590188" lon="6.9931486">
      <time>2020-02-21T19:05:03Z</time>
    </trkpt>
    <trkpt lat="50.9589806" lon="6.9930825">
      <time>2020-02-21T19:05:06Z</time>
    </trkpt>
    <trkpt lat="50.9588545" lon="6.9929084">
      <time>2020-02-21T19:05:16Z</time>
    </trkpt>
    <trkpt lat="50.9587463" lon="6.9927800">
      <time>2020-02-21T19:05:24Z</time>
    </trkpt>
    <trkpt lat="50.9586258" lon="6.9926610">
      <time>2020-02-21T19:05:33Z</time>
    </trkpt>
    <trkpt lat="50.9585509" lon="6.9925360">
      <time>2020-02-21T19:05:40Z</time>
    </trkpt>
    <trkpt lat="50.9585350" lon="6.9925225">
      <time>2020-02-21T19:05:41Z</time>
    </trkpt>
    <trkpt lat="50.9584723" lon="6.9924735">
      <time>2020-02-21T19:05:45Z</time>
    </trkpt>
    <trkpt lat="50.9584109" lon="6.9924088">
      <time>2020-02-21T19:05:49Z</time>
    </trkpt>
    <trkpt lat="50.9582793" lon="6.9922057">
      <time>2020-02-21T19:06:00Z</time>
    </trkpt>
    <trkpt lat="50.9582682" lon="6.9921850">
      <time>2020-02-21T19:06:01Z</time>
    </trkpt>
    <trkpt lat="50.9581309" lon="6.9920272">
      <time>2020-02-21T19:06:11Z</time>
    </trkpt>
    <trkpt lat="50.9580042" lon="6.9918657">
      <time>2020-02-21T19:06:21Z</time>
    </trkpt>
    <trkpt lat="50.9579443" lon="6.9917888">
      <time>2020-02-21T19:06:26Z</time>
    </trkpt>
    <trkpt lat="50.9578463" lon="6.9916668">
      <time>2020-02-21T19:06:33Z</time>
    </trkpt>
    <trkpt lat="50.9577885" lon="6.9916028">
      <time>2020-02-21T19:06:37Z</time>
    </trkpt>
    <trkpt lat="50.9577138" lon="6.9914785">
      <time>2020-02-21T19:06:44Z</time>
    </trkpt>
    <trkpt lat="50.9576891" lon="6.9914495">
      <time>2020-02-21T19:06:46Z</time>
    </trkpt>
    <trkpt lat="50.9575644" lon="6.9913007">
      <time>2020-02-21T19:06:55Z</time>
    </trkpt>
    <trkpt lat="50.9574383" lon="6.9911414">
      <time>2020-02-21T19:07:04Z</time>
    </trkpt>
    <trkpt lat="50.9573018" lon="6.9909816">
      <time>2020-02-21T19:07:13Z</time>
    </trkpt>
    <trkpt lat="50.9571820" lon="6.9908449">
      <time>2020-02-21T19:07:21Z</time>
    </trkpt>
    <trkpt lat="50.9570493" lon="6.9906795">
      <time>2020-02-21T19:07:31Z</time>
    </trkpt>
    <trkpt lat="50.9569458" lon="6.9905447">
      <time>2020-02-21T19:07:39Z</time>
    </trkpt>
    <trkpt lat="50.9568856" lon="6.9904818">
      <time>2020-02-21T19:07:43Z</time>
    </trkpt>
    <trkpt lat="50.9567514" lon="6.9903369">
      <time>2020-02-21T19:07:52Z</time>
    </trkpt>
    <trkpt lat="50.9566330" lon="6.9902537">
      <time>2020-02-21T19:08:00Z</time>
    </trkpt>
    <trkpt lat="50.9564866" lon="6.9901685">
      <time>2020-02-21T19:08:09Z</time>
    </trkpt>
    <trkpt lat="50.9564705" lon="6.9901625">
      <time>2020-02-21T19:08:10Z</time>
    </trkpt>
    <trkpt lat="50.9564506" lon="6.9901422">
      <time>2020-02-21T19:08:12Z</time>
    </trkpt>
    <trkpt lat="50.9564108" lon="6.9901040">
      <time>2020-02-21T19:08:15Z</time>
    </trkpt>
    <trkpt lat="50.9562917" lon="6.9900322">
      <time>2020-02-21T19:08:23Z</time>
    </trkpt>
    <trkpt lat="50.9562372" lon="6.9899828">
      <time>2020-02-21T19:08:29Z</time>
    </trkpt>
    <trkpt lat="50.9561372" lon="6.9899050">
      <time>2020-02-21T19:08:35Z</time>
    </trkpt>
    <trkpt lat="50.9560244" lon="6.9898254">
      <time>2020-02-21T19:08:42Z</time>
    </trkpt>
    <trkpt lat="50.9559341" lon="6.9897551">
      <time>2020-02-21T19:08:47Z</time>
    </trkpt>
    <trkpt lat="50.9558841" lon="6.9897261">
      <time>2020-02-21T19:08:50Z</time>
    </trkpt>
    <trkpt lat="50.9557981" lon="6.9896457">
      <time>2020-02-21T19:08:55Z</time>
    </trkpt>
    <trkpt lat="50.9557628" lon="6.9896162">
      <time>2020-02-21T19:08:57Z</time>
    </trkpt>
    <trkpt lat="50.9555949" lon="6.9894725">
      <time>2020-02-21T19:09:06Z</time>
    </trkpt>
    <trkpt lat="50.9555369" lon="6.9894254">
      <time>2020-02-21T19:09:09Z</time>
    </trkpt>
    <trkpt lat="50.9554000" lon="6.9893020">
      <time>2020-02-21T19:09:17Z</time>
    </trkpt>
    <trkpt lat="50.9553848" lon="6.9892817">
      <time>2020-02-21T19:09:18Z</time>
    </trkpt>
    <trkpt lat="50.9552736" lon="6.9891408">
      <time>2020-02-21T19:09:25Z</time>
    </trkpt>
    <trkpt lat="50.9552574" lon="6.9891186">
      <time>2020-02-21T19:09:26Z</time>
    </trkpt>
    <trkpt lat="50.9551329" lon="6.9889754">
      <time>2020-02-21T19:09:34Z</time>
    </trkpt>
    <trkpt lat="50.9550365" lon="6.9888590">
      <time>2020-02-21T19:09:40Z</time>
    </trkpt>
    <trkpt lat="50.9548681" lon="6.9887153">
      <time>2020-02-21T19:09:50Z</time>
    </trkpt>
    <trkpt lat="50.9548404" lon="6.9886876">
      <time>2020-02-21T19:09:52Z</time>
    </trkpt>
    <trkpt lat="50.9547338" lon="6.9885621">
      <time>2020-02-21T19:10:00Z</time>
    </trkpt>
    <trkpt lat="50.9546881" lon="6.9882949">
      <time>2020-02-21T19:10:10Z</time>
    </trkpt>
    <trkpt lat="50.9546240" lon="6.9881357">
      <time>2020-02-21T19:10:16Z</time>
    </trkpt>
    <trkpt lat="50.9544861" lon="6.9879275">
      <time>2020-02-21T19:10:24Z</time>
    </trkpt>
    <trkpt lat="50.9544738" lon="6.9879079">
      <time>2020-02-21T19:10:25Z</time>
    </trkpt>
    <trkpt lat="50.9544386" lon="6.9878594">
      <time>2020-02-21T19:10:27Z</time>
    </trkpt>
    <trkpt lat="50.9543601" lon="6.9877975">
      <time>2020-02-21T19:10:31Z</time>
    </trkpt>
    <trkpt lat="50.9543396" lon="6.9877764">
      <time>2020-02-21T19:10:32Z</time>
    </trkpt>
    <trkpt lat="50.9542476" lon="6.9876724">
      <time>2020-02-21T19:10:39Z</time>
    </trkpt>
    <trkpt lat="50.9541707" lon="6.9875483">
      <time>2020-02-21T19:10:45Z</time>
    </trkpt>
    <trkpt lat="50.9541469" lon="6.9875079">
      <time>2020-02-21T19:10:47Z</time>
    </trkpt>
    <trkpt lat="50.9541148" lon="6.9874507">
      <time>2020-02-21T19:10:50Z</time>
    </trkpt>
    <trkpt lat="50.9540559" lon="6.9873840">
      <time>2020-02-21T19:10:53Z</time>
    </trkpt>
    <trkpt lat="50.9539485" lon="6.9872450">
      <time>2020-02-21T19:10:59Z</time>
    </trkpt>
    <trkpt lat="50.9538454" lon="6.9871418">
      <time>2020-02-21T19:11:04Z</time>
    </trkpt>
    <trkpt lat="50.9538167" lon="6.9870967">
      <time>2020-02-21T19:11:06Z</time>
    </trkpt>
    <trkpt lat="50.9537130" lon="6.9869778">
      <time>2020-02-21T19:11:12Z</time>
    </trkpt>
    <trkpt lat="50.9536091" lon="6.9868275">
      <time>2020-02-21T19:11:19Z</time>
    </trkpt>
    <trkpt lat="50.9534579" lon="6.9866921">
      <time>2020-02-21T19:11:26Z</time>
    </trkpt>
    <trkpt lat="50.9533515" lon="6.9865506">
      <time>2020-02-21T19:11:33Z</time>
    </trkpt>
    <trkpt lat="50.9532038" lon="6.9863555">
      <time>2020-02-21T19:11:42Z</time>
    </trkpt>
    <trkpt lat="50.9530862" lon="6.9862513">
      <time>2020-02-21T19:11:49Z</time>
    </trkpt>
    <trkpt lat="50.9530583" lon="6.9862792">
      <time>2020-02-21T19:11:51Z</time>
    </trkpt>
    <trkpt lat="50.9529834" lon="6.9864529">
      <time>2020-02-21T19:11:57Z</time>
    </trkpt>
    <trkpt lat="50.9528886" lon="6.9867428">
      <time>2020-02-21T19:12:05Z</time>
    </trkpt>
    <trkpt lat="50.9528733" lon="6.9867783">
      <time>2020-02-21T19:12:06Z</time>
    </trkpt>
    <trkpt lat="50.9528033" lon="6.9870136">
      <time>2020-02-21T19:12:14Z</time>
    </trkpt>
    <trkpt lat="50.9527485" lon="6.9872890">
      <time>2020-02-21T19:12:22Z</time>
    </trkpt>
    <trkpt lat="50.9526847" lon="6.9875100">
      <time>2020-02-21T19:12:29Z</time>
    </trkpt>
    <trkpt lat="50.9526183" lon="6.9877812">
      <time>2020-02-21T19:12:37Z</time>
    </trkpt>
    <trkpt lat="50.9526162" lon="6.9878168">
      <time>2020-02-21T19:12:38Z</time>
    </trkpt>
    <trkpt lat="50.9526199" lon="6.9878380">
      <time>2020-02-21T19:12:39Z</time>
    </trkpt>
    <trkpt lat="50.9526545" lon="6.9879414">
      <time>2020-02-21T19:12:43Z</time>
    </trkpt>
    <trkpt lat="50.9526727" lon="6.9881495">
      <time>2020-02-21T19:12:50Z</time>
    </trkpt>
    <trkpt lat="50.9526251" lon="6.9883487">
      <time>2020-02-21T19:12:56Z</time>
    </trkpt>
    <trkpt lat="50.9525633" lon="6.9884723">
      <time>2020-02-21T19:13:02Z</time>
    </trkpt>
    <trkpt lat="50.9525224" lon="6.9886382">
      <time>2020-02-21T19:13:09Z</time>
    </trkpt>
    <trkpt lat="50.9524996" lon="6.9888608">
      <time>2020-02-21T19:13:16Z</time>
    </trkpt>
    <trkpt lat="50.9524235" lon="6.9890611">
      <time>2020-02-21T19:13:22Z</time>
    </trkpt>
    <trkpt lat="50.9523246" lon="6.9893117">
      <time>2020-02-21T19:13:30Z</time>
    </trkpt>
    <trkpt lat="50.9523107" lon="6.9893407">
      <time>2020-02-21T19:13:31Z</time>
    </trkpt>
    <trkpt lat="50.9522191" lon="6.9895015">
      <time>2020-02-21T19:13:38Z</time>
    </trkpt>
    <trkpt lat="50.9522044" lon="6.9894992">
      <time>2020-02-21T19:13:39Z</time>
    </trkpt>
    <trkpt lat="50.9520344" lon="6.9894732">
      <time>2020-02-21T19:13:46Z</time>
    </trkpt>
    <trkpt lat="50.9519933" lon="6.9894503">
      <time>2020-02-21T19:13:48Z</time>
    </trkpt>
    <trkpt lat="50.9518494" lon="6.9893821">
      <time>2020-02-21T19:13:55Z</time>
    </trkpt>
    <trkpt lat="50.9518400" lon="6.9893985">
      <time>2020-02-21T19:13:57Z</time>
    </trkpt>
    <trkpt lat="50.9518356" lon="6.9894484">
      <time>2020-02-21T19:13:59Z</time>
    </trkpt>
    <trkpt lat="50.9517854" lon="6.9896205">
      <time>2020-02-21T19:14:04Z</time>
    </trkpt>
    <trkpt lat="50.9517273" lon="6.9897364">
      <time>2020-02-21T19:14:07Z</time>
    </trkpt>
    <trkpt lat="50.9517121" lon="6.9898029">
      <time>2020-02-21T19:14:09Z</time>
    </trkpt>
    <trkpt lat="50.9517076" lon="6.9899750">
      <time>2020-02-21T19:14:15Z</time>
    </trkpt>
    <trkpt lat="50.9517234" lon="6.9901400">
      <time>2020-02-21T19:14:21Z</time>
    </trkpt>
    <trkpt lat="50.9517387" lon="6.9901895">
      <time>2020-02-21T19:14:23Z</time>
    </trkpt>
    <trkpt lat="50.9517800" lon="6.9902245">
      <time>2020-02-21T19:14:26Z</time>
    </trkpt>
    <trkpt lat="50.9518442" lon="6.9903131">
      <time>2020-02-21T19:14:30Z</time>
    </trkpt>
    <trkpt lat="50.9518808" lon="6.9903464">
      <time>2020-02-21T19:14:35Z</time>
    </trkpt>
    <trkpt lat="50.9519448" lon="6.9904910">
      <time>2020-02-21T19:14:40Z</time>
    </trkpt>
    <trkpt lat="50.9519528" lon="6.9905900">
      <time>2020-02-21T19:14:43Z</time>
    </trkpt>
    <trkpt lat="50.9519660" lon="6.9906790">
      <time>2020-02-21T19:14:46Z</time>
    </trkpt>
    <trkpt lat="50.9519670" lon="6.9908217">
      <time>2020-02-21T19:14:51Z</time>
    </trkpt>
    <trkpt lat="50.9519676" lon="6.9908557">
      <time>2020-02-21T19:14:52Z</time>
    </trkpt>
    <trkpt lat="50.9519661" lon="6.9908936">
      <time>2020-02-21T19:14:53Z</time>
    </trkpt>
    <trkpt lat="50.9519208" lon="6.9910991">
      <time>2020-02-21T19:14:59Z</time>
    </trkpt>
    <trkpt lat="50.9519133" lon="6.9912877">
      <time>2020-02-21T19:15:05Z</time>
    </trkpt>
    <trkpt lat="50.9519037" lon="6.9913557">
      <time>2020-02-21T19:15:07Z</time>
    </trkpt>
    <trkpt lat="50.9518557" lon="6.9914772">
      <time>2020-02-21T19:15:11Z</time>
    </trkpt>
    <trkpt lat="50.9518628" lon="6.9915647">
      <time>2020-02-21T19:15:15Z</time>
    </trkpt>
    <trkpt lat="50.9518796" lon="6.9915755">
      <time>2020-02-21T19:15:17Z</time>
    </trkpt>
    <trkpt lat="50.9518801" lon="6.9915908">
      <time>2020-02-21T19:15:20Z</time>
    </trkpt>
    <trkpt lat="50.9519633" lon="6.9916416">
      <time>2020-02-21T19:15:26Z</time>
    </trkpt>
    <trkpt lat="50.9520145" lon="6.9916861">
      <time>2020-02-21T19:15:29Z</time>
    </trkpt>
    <trkpt lat="50.9520977" lon="6.9917446">
      <time>2020-02-21T19:15:33Z</time>
    </trkpt>
    <trkpt lat="50.9522214" lon="6.9918173">
      <time>2020-02-21T19:15:39Z</time>
    </trkpt>
    <trkpt lat="50.9522470" lon="6.9918320">
      <time>2020-02-21T19:15:40Z</time>
    </trkpt>
    <trkpt lat="50.9523471" lon="6.9918887">
      <time>2020-02-21T19:15:45Z</time>
    </trkpt>
    <trkpt lat="50.9523665" lon="6.9919036">
      <time>2020-02-21T19:15:46Z</time>
    </trkpt>
    <trkpt lat="50.9525118" lon="6.9920190">
      <time>2020-02-21T19:15:53Z</time>
    </trkpt>
    <trkpt lat="50.9525700" lon="6.9921519">
      <time>2020-02-21T19:15:58Z</time>
    </trkpt>
    <trkpt lat="50.9525501" lon="6.9923959">
      <time>2020-02-21T19:16:05Z</time>
    </trkpt>
    <trkpt lat="50.9524891" lon="6.9926777">
      <time>2020-02-21T19:16:13Z</time>
    </trkpt>
    <trkpt lat="50.9524634" lon="6.9927649">
      <time>2020-02-21T19:16:17Z</time>
    </trkpt>
    <trkpt lat="50.9524763" lon="6.9927816">
      <time>2020-02-21T19:16:19Z</time>
    </trkpt>
    <trkpt lat="50.9524823" lon="6.9927928">
      <time>2020-02-21T19:16:20Z</time>
    </trkpt>
    <trkpt lat="50.9524873" lon="6.9928058">
      <time>2020-02-21T19:16:21Z</time>
    </trkpt>
  </trkseg></trk>
</gpx>
