<?xml version="1.0" encoding="UTF-8"?>
<gpx version="1.1" creator="Diary FIT converter" xmlns="http://www.topografix.com/GPX/1/1">
  <trk><name>Hiking</name><trkseg>
    <trkpt lat="50.9688311" lon="6.8838847">
      <time>2020-12-31T09:23:34Z</time>
    </trkpt>
    <trkpt lat="50.9687643" lon="6.8838671">
      <time>2020-12-31T09:23:35Z</time>
    </trkpt>
    <trkpt lat="50.9687342" lon="6.8838293">
      <time>2020-12-31T09:23:39Z</time>
    </trkpt>
    <trkpt lat="50.9686927" lon="6.8837960">
      <time>2020-12-31T09:23:44Z</time>
    </trkpt>
    <trkpt lat="50.9685935" lon="6.8836774">
      <time>2020-12-31T09:23:53Z</time>
    </trkpt>
    <trkpt lat="50.9685557" lon="6.8836515">
      <time>2020-12-31T09:23:56Z</time>
    </trkpt>
    <trkpt lat="50.9685283" lon="6.8836247">
      <time>2020-12-31T09:23:59Z</time>
    </trkpt>
    <trkpt lat="50.9684170" lon="6.8834893">
      <time>2020-12-31T09:24:10Z</time>
    </trkpt>
    <trkpt lat="50.9683207" lon="6.8833957">
      <time>2020-12-31T09:24:20Z</time>
    </trkpt>
    <trkpt lat="50.9682281" lon="6.8833177">
      <time>2020-12-31T09:24:29Z</time>
    </trkpt>
    <trkpt lat="50.9682127" lon="6.8833018">
      <time>2020-12-31T09:24:31Z</time>
    </trkpt>
    <trkpt lat="50.9681490" lon="6.8832165">
      <time>2020-12-31T09:24:38Z</time>
    </trkpt>
    <trkpt lat="50.9681296" lon="6.8831994">
      <time>2020-12-31T09:24:40Z</time>
    </trkpt>
    <trkpt lat="50.9680999" lon="6.8831471">
      <time>2020-12-31T09:24:44Z</time>
    </trkpt>
    <trkpt lat="50.9680748" lon="6.8831212">
      <time>2020-12-31T09:24:47Z</time>
    </trkpt>
    <trkpt lat="50.9680407" lon="6.8830832">
      <time>2020-12-31T09:24:51Z</time>
    </trkpt>
    <trkpt lat="50.9680007" lon="6.8830278">
      <time>2020-12-31T09:24:57Z</time>
    </trkpt>
    <trkpt lat="50.9679094" lon="6.8828961">
      <time>2020-12-31T09:25:09Z</time>
    </trkpt>
    <trkpt lat="50.9678467" lon="6.8828535">
      <time>2020-12-31T09:25:16Z</time>
    </trkpt>
    <trkpt lat="50.9677777" lon="6.8827700">
      <time>2020-12-31T09:25:24Z</time>
    </trkpt>
    <trkpt lat="50.9676872" lon="6.8826962">
      <time>2020-12-31T09:25:31Z</time>
    </trkpt>
    <trkpt lat="50.9676133" lon="6.8826114">
      <time>2020-12-31T09:25:39Z</time>
    </trkpt>
    <trkpt lat="50.9675544" lon="6.8825600">
      <time>2020-12-31T09:25:46Z</time>
    </trkpt>
    <trkpt lat="50.9674546" lon="6.8824628">
      <time>2020-12-31T09:25:54Z</time>
    </trkpt>
    <trkpt lat="50.9673460" lon="6.8823897">
      <time>2020-12-31T09:26:03Z</time>
    </trkpt>
    <trkpt lat="50.9672603" lon="6.8822964">
      <time>2020-12-31T09:26:12Z</time>
    </trkpt>
    <trkpt lat="50.9672021" lon="6.8822555">
      <time>2020-12-31T09:26:17Z</time>
    </trkpt>
    <trkpt lat="50.9671694" lon="6.8821841">
      <time>2020-12-31T09:26:22Z</time>
    </trkpt>
    <trkpt lat="50.9671416" lon="6.8821446">
      <time>2020-12-31T09:26:25Z</time>
    </trkpt>
    <trkpt lat="50.9670764" lon="6.8820525">
      <time>2020-12-31T09:26:30Z</time>
    </trkpt>
    <trkpt lat="50.9670588" lon="6.8820156">
      <time>2020-12-31T09:26:32Z</time>
    </trkpt>
    <trkpt lat="50.9670322" lon="6.8819300">
      <time>2020-12-31T09:26:37Z</time>
    </trkpt>
    <trkpt lat="50.9670156" lon="6.8818899">
      <time>2020-12-31T09:26:39Z</time>
    </trkpt>
    <trkpt lat="50.9669718" lon="6.8818308">
      <time>2020-12-31T09:26:44Z</time>
    </trkpt>
    <trkpt lat="50.9669440" lon="6.8817766">
      <time>2020-12-31T09:26:48Z</time>
    </trkpt>
    <trkpt lat="50.9669283" lon="6.8817368">
      <time>2020-12-31T09:26:51Z</time>
    </trkpt>
    <trkpt lat="50.9669184" lon="6.8817021">
      <time>2020-12-31T09:26:53Z</time>
    </trkpt>
    <trkpt lat="50.9668595" lon="6.8814901">
      <time>2020-12-31T09:26:58Z</time>
    </trkpt>
    <trkpt lat="50.9668262" lon="6.8814415">
      <time>2020-12-31T09:27:00Z</time>
    </trkpt>
    <trkpt lat="50.9667263" lon="6.8813174">
      <time>2020-12-31T09:27:07Z</time>
    </trkpt>
    <trkpt lat="50.9666973" lon="6.8813059">
      <time>2020-12-31T09:27:09Z</time>
    </trkpt>
    <trkpt lat="50.9666815" lon="6.8812942">
      <time>2020-12-31T09:27:11Z</time>
    </trkpt>
    <trkpt lat="50.9666815" lon="6.8812942">
      <time>2020-12-31T09:27:12Z</time>
    </trkpt>
    <trkpt lat="50.9665952" lon="6.8812834">
      <time>2020-12-31T09:27:17Z</time>
    </trkpt>
    <trkpt lat="50.9665866" lon="6.8813034">
      <time>2020-12-31T09:27:18Z</time>
    </trkpt>
    <trkpt lat="50.9665655" lon="6.8813267">
      <time>2020-12-31T09:27:20Z</time>
    </trkpt>
    <trkpt lat="50.9665270" lon="6.8814212">
      <time>2020-12-31T09:27:25Z</time>
    </trkpt>
    <trkpt lat="50.9664568" lon="6.8815961">
      <time>2020-12-31T09:27:33Z</time>
    </trkpt>
    <trkpt lat="50.9664321" lon="6.8816798">
      <time>2020-12-31T09:27:37Z</time>
    </trkpt>
    <trkpt lat="50.9664349" lon="6.8816939">
      <time>2020-12-31T09:27:39Z</time>
    </trkpt>
    <trkpt lat="50.9664336" lon="6.8817018">
      <time>2020-12-31T09:27:40Z</time>
    </trkpt>
    <trkpt lat="50.9664015" lon="6.8817982">
      <time>2020-12-31T09:27:45Z</time>
    </trkpt>
    <trkpt lat="50.9663896" lon="6.8818245">
      <time>2020-12-31T09:27:46Z</time>
    </trkpt>
    <trkpt lat="50.9663562" lon="6.8819350">
      <time>2020-12-31T09:27:51Z</time>
    </trkpt>
    <trkpt lat="50.9663274" lon="6.8821178">
      <time>2020-12-31T09:27:59Z</time>
    </trkpt>
    <trkpt lat="50.9662375" lon="6.8823315">
      <time>2020-12-31T09:28:10Z</time>
    </trkpt>
    <trkpt lat="50.9662057" lon="6.8824019">
      <time>2020-12-31T09:28:15Z</time>
    </trkpt>
    <trkpt lat="50.9661964" lon="6.8824216">
      <time>2020-12-31T09:28:17Z</time>
    </trkpt>
    <trkpt lat="50.9661712" lon="6.8824717">
      <time>2020-12-31T09:28:20Z</time>
    </trkpt>
    <trkpt lat="50.9661569" lon="6.8825098">
      <time>2020-12-31T09:28:22Z</time>
    </trkpt>
    <trkpt lat="50.9661487" lon="6.8825236">
      <time>2020-12-31T09:28:23Z</time>
    </trkpt>
    <trkpt lat="50.9661388" lon="6.8825388">
      <time>2020-12-31T09:28:24Z</time>
    </trkpt>
    <trkpt lat="50.9661134" lon="6.8825800">
      <time>2020-12-31T09:28:27Z</time>
    </trkpt>
    <trkpt lat="50.9661002" lon="6.8826067">
      <time>2020-12-31T09:28:29Z</time>
    </trkpt>
    <trkpt lat="50.9660815" lon="6.8826324">
      <time>2020-12-31T09:28:31Z</time>
    </trkpt>
    <trkpt lat="50.9660643" lon="6.8826910">
      <time>2020-12-31T09:28:35Z</time>
    </trkpt>
    <trkpt lat="50.9660617" lon="6.8827088">
      <time>2020-12-31T09:28:36Z</time>
    </trkpt>
    <trkpt lat="50.9660220" lon="6.8828518">
      <time>2020-12-31T09:28:43Z</time>
    </trkpt>
    <trkpt lat="50.9659754" lon="6.8829518">
      <time>2020-12-31T09:28:46Z</time>
    </trkpt>
    <trkpt lat="50.9659508" lon="6.8830201">
      <time>2020-12-31T09:28:49Z</time>
    </trkpt>
    <trkpt lat="50.9659395" lon="6.8830388">
      <time>2020-12-31T09:28:50Z</time>
    </trkpt>
    <trkpt lat="50.9658938" lon="6.8831369">
      <time>2020-12-31T09:28:57Z</time>
    </trkpt>
    <trkpt lat="50.9658070" lon="6.8833325">
      <time>2020-12-31T09:29:07Z</time>
    </trkpt>
    <trkpt lat="50.9657929" lon="6.8833626">
      <time>2020-12-31T09:29:09Z</time>
    </trkpt>
    <trkpt lat="50.9657797" lon="6.8833962">
      <time>2020-12-31T09:29:12Z</time>
    </trkpt>
    <trkpt lat="50.9657719" lon="6.8834052">
      <time>2020-12-31T09:29:13Z</time>
    </trkpt>
    <trkpt lat="50.9657658" lon="6.8834163">
      <time>2020-12-31T09:29:14Z</time>
    </trkpt>
    <trkpt lat="50.9657210" lon="6.8834985">
      <time>2020-12-31T09:29:20Z</time>
    </trkpt>
    <trkpt lat="50.9657109" lon="6.8835174">
      <time>2020-12-31T09:29:21Z</time>
    </trkpt>
    <trkpt lat="50.9657019" lon="6.8835352">
      <time>2020-12-31T09:29:22Z</time>
    </trkpt>
    <trkpt lat="50.9656656" lon="6.8836800">
      <time>2020-12-31T09:29:28Z</time>
    </trkpt>
    <trkpt lat="50.9656566" lon="6.8837235">
      <time>2020-12-31T09:29:30Z</time>
    </trkpt>
    <trkpt lat="50.9656482" lon="6.8837691">
      <time>2020-12-31T09:29:33Z</time>
    </trkpt>
    <trkpt lat="50.9656018" lon="6.8837883">
      <time>2020-12-31T09:29:36Z</time>
    </trkpt>
    <trkpt lat="50.9655709" lon="6.8837983">
      <time>2020-12-31T09:29:38Z</time>
    </trkpt>
    <trkpt lat="50.9655602" lon="6.8838157">
      <time>2020-12-31T09:29:39Z</time>
    </trkpt>
    <trkpt lat="50.9655452" lon="6.8838614">
      <time>2020-12-31T09:29:42Z</time>
    </trkpt>
    <trkpt lat="50.9655193" lon="6.8839219">
      <time>2020-12-31T09:29:45Z</time>
    </trkpt>
    <trkpt lat="50.9654889" lon="6.8840596">
      <time>2020-12-31T09:29:53Z</time>
    </trkpt>
    <trkpt lat="50.9654847" lon="6.8840704">
      <time>2020-12-31T09:29:54Z</time>
    </trkpt>
    <trkpt lat="50.9654768" lon="6.8840872">
      <time>2020-12-31T09:29:56Z</time>
    </trkpt>
    <trkpt lat="50.9654703" lon="6.8840927">
      <time>2020-12-31T09:29:57Z</time>
    </trkpt>
    <trkpt lat="50.9654478" lon="6.8841297">
      <time>2020-12-31T09:30:01Z</time>
    </trkpt>
    <trkpt lat="50.9654387" lon="6.8841354">
      <time>2020-12-31T09:30:02Z</time>
    </trkpt>
    <trkpt lat="50.9653976" lon="6.8841856">
      <time>2020-12-31T09:30:07Z</time>
    </trkpt>
    <trkpt lat="50.9653744" lon="6.8842193">
      <time>2020-12-31T09:30:09Z</time>
    </trkpt>
    <trkpt lat="50.9653582" lon="6.8842435">
      <time>2020-12-31T09:30:11Z</time>
    </trkpt>
    <trkpt lat="50.9653574" lon="6.8842591">
      <time>2020-12-31T09:30:12Z</time>
    </trkpt>
    <trkpt lat="50.9653573" lon="6.8842537">
      <time>2020-12-31T09:30:13Z</time>
    </trkpt>
    <trkpt lat="50.9653589" lon="6.8841774">
      <time>2020-12-31T09:30:22Z</time>
    </trkpt>
    <trkpt lat="50.9653589" lon="6.8841774">
      <time>2020-12-31T09:30:30Z</time>
    </trkpt>
    <trkpt lat="50.9653589" lon="6.8841774">
      <time>2020-12-31T09:30:35Z</time>
    </trkpt>
    <trkpt lat="50.9653464" lon="6.8841573">
      <time>2020-12-31T09:30:44Z</time>
    </trkpt>
    <trkpt lat="50.9653440" lon="6.8841487">
      <time>2020-12-31T09:30:51Z</time>
    </trkpt>
    <trkpt lat="50.9653505" lon="6.8841207">
      <time>2020-12-31T09:31:06Z</time>
    </trkpt>
    <trkpt lat="50.9653387" lon="6.8842156">
      <time>2020-12-31T09:31:41Z</time>
    </trkpt>
    <trkpt lat="50.9653262" lon="6.8841935">
      <time>2020-12-31T09:32:21Z</time>
    </trkpt>
    <trkpt lat="50.9653238" lon="6.8841934">
      <time>2020-12-31T09:32:26Z</time>
    </trkpt>
    <trkpt lat="50.9653221" lon="6.8841934">
      <time>2020-12-31T09:32:29Z</time>
    </trkpt>
    <trkpt lat="50.9652775" lon="6.8842374">
      <time>2020-12-31T09:33:10Z</time>
    </trkpt>
    <trkpt lat="50.9652199" lon="6.8843255">
      <time>2020-12-31T09:33:18Z</time>
    </trkpt>
    <trkpt lat="50.9650972" lon="6.8845854">
      <time>2020-12-31T09:33:20Z</time>
    </trkpt>
    <trkpt lat="50.9650429" lon="6.8846979">
      <time>2020-12-31T09:33:21Z</time>
    </trkpt>
    <trkpt lat="50.9649895" lon="6.8848129">
      <time>2020-12-31T09:33:22Z</time>
    </trkpt>
    <trkpt lat="50.9649367" lon="6.8849334">
      <time>2020-12-31T09:33:24Z</time>
    </trkpt>
    <trkpt lat="50.9648132" lon="6.8852246">
      <time>2020-12-31T09:33:25Z</time>
    </trkpt>
    <trkpt lat="50.9647387" lon="6.8853896">
      <time>2020-12-31T09:33:26Z</time>
    </trkpt>
    <trkpt lat="50.9646571" lon="6.8855417">
      <time>2020-12-31T09:33:27Z</time>
    </trkpt>
    <trkpt lat="50.9644855" lon="6.8858777">
      <time>2020-12-31T09:33:29Z</time>
    </trkpt>
    <trkpt lat="50.9643995" lon="6.8860541">
      <time>2020-12-31T09:33:30Z</time>
    </trkpt>
    <trkpt lat="50.9642347" lon="6.8864156">
      <time>2020-12-31T09:33:32Z</time>
    </trkpt>
    <trkpt lat="50.9640555" lon="6.8867999">
      <time>2020-12-31T09:33:34Z</time>
    </trkpt>
    <trkpt lat="50.9639661" lon="6.8869982">
      <time>2020-12-31T09:33:35Z</time>
    </trkpt>
    <trkpt lat="50.9637902" lon="6.8873666">
      <time>2020-12-31T09:33:37Z</time>
    </trkpt>
    <trkpt lat="50.9290423" lon="6.9562818">
      <time>2020-12-31T09:50:13Z</time>
    </trkpt>
    <trkpt lat="50.9290191" lon="6.9564465">
      <time>2020-12-31T09:50:21Z</time>
    </trkpt>
    <trkpt lat="50.9290167" lon="6.9565877">
      <time>2020-12-31T09:50:29Z</time>
    </trkpt>
    <trkpt lat="50.9291186" lon="6.9566780">
      <time>2020-12-31T09:50:37Z</time>
    </trkpt>
    <trkpt lat="50.9291514" lon="6.9567760">
      <time>2020-12-31T09:50:45Z</time>
    </trkpt>
    <trkpt lat="50.9291555" lon="6.9568386">
      <time>2020-12-31T09:50:49Z</time>
    </trkpt>
    <trkpt lat="50.9291602" lon="6.9568619">
      <time>2020-12-31T09:50:52Z</time>
    </trkpt>
    <trkpt lat="50.9291722" lon="6.9570072">
      <time>2020-12-31T09:50:57Z</time>
    </trkpt>
    <trkpt lat="50.9292372" lon="6.9570890">
      <time>2020-12-31T09:50:59Z</time>
    </trkpt>
    <trkpt lat="50.9293820" lon="6.9575355">
      <time>2020-12-31T09:51:04Z</time>
    </trkpt>
    <trkpt lat="50.9294903" lon="6.9577453">
      <time>2020-12-31T09:51:06Z</time>
    </trkpt>
    <trkpt lat="50.9295354" lon="6.9578311">
      <time>2020-12-31T09:51:07Z</time>
    </trkpt>
    <trkpt lat="50.9295912" lon="6.9579259">
      <time>2020-12-31T09:51:08Z</time>
    </trkpt>
    <trkpt lat="50.9296074" lon="6.9580525">
      <time>2020-12-31T09:51:09Z</time>
    </trkpt>
    <trkpt lat="50.9296161" lon="6.9581947">
      <time>2020-12-31T09:51:10Z</time>
    </trkpt>
    <trkpt lat="50.9296435" lon="6.9583182">
      <time>2020-12-31T09:51:11Z</time>
    </trkpt>
    <trkpt lat="50.9296707" lon="6.9584476">
      <time>2020-12-31T09:51:12Z</time>
    </trkpt>
    <trkpt lat="50.9297194" lon="6.9588699">
      <time>2020-12-31T09:51:15Z</time>
    </trkpt>
    <trkpt lat="50.9297803" lon="6.9591866">
      <time>2020-12-31T09:51:17Z</time>
    </trkpt>
    <trkpt lat="50.9298471" lon="6.9595320">
      <time>2020-12-31T09:51:19Z</time>
    </trkpt>
  </trkseg></trk>
</gpx>
