<?xml version="1.0" encoding="UTF-8"?>
<gpx version="1.1" creator="Diary FIT converter" xmlns="http://www.topografix.com/GPX/1/1">
  <trk><name>Cycling</name><trkseg>
    <trkpt lat="50.9663640" lon="6.8825006">
      <time>2023-09-08T07:00:22Z</time>
    </trkpt>
    <trkpt lat="50.9660469" lon="6.8831391">
      <time>2023-09-08T07:00:33Z</time>
    </trkpt>
    <trkpt lat="50.9660736" lon="6.8831733">
      <time>2023-09-08T07:00:34Z</time>
    </trkpt>
    <trkpt lat="50.9660611" lon="6.8833170">
      <time>2023-09-08T07:00:37Z</time>
    </trkpt>
    <trkpt lat="50.9660325" lon="6.8833795">
      <time>2023-09-08T07:00:38Z</time>
    </trkpt>
    <trkpt lat="50.9657941" lon="6.8838114">
      <time>2023-09-08T07:00:45Z</time>
    </trkpt>
    <trkpt lat="50.9656390" lon="6.8841080">
      <time>2023-09-08T07:00:50Z</time>
    </trkpt>
    <trkpt lat="50.9656231" lon="6.8841921">
      <time>2023-09-08T07:00:52Z</time>
    </trkpt>
    <trkpt lat="50.9654563" lon="6.8844621">
      <time>2023-09-08T07:00:56Z</time>
    </trkpt>
    <trkpt lat="50.9653091" lon="6.8847214">
      <time>2023-09-08T07:00:59Z</time>
    </trkpt>
    <trkpt lat="50.9650816" lon="6.8853150">
      <time>2023-09-08T07:01:09Z</time>
    </trkpt>
    <trkpt lat="50.9648438" lon="6.8857446">
      <time>2023-09-08T07:01:15Z</time>
    </trkpt>
    <trkpt lat="50.9647929" lon="6.8858454">
      <time>2023-09-08T07:01:17Z</time>
    </trkpt>
    <trkpt lat="50.9641511" lon="6.8862456">
      <time>2023-09-08T07:01:22Z</time>
    </trkpt>
    <trkpt lat="50.9640709" lon="6.8863920">
      <time>2023-09-08T07:01:24Z</time>
    </trkpt>
    <trkpt lat="50.9637768" lon="6.8869389">
      <time>2023-09-08T07:01:32Z</time>
    </trkpt>
    <trkpt lat="50.9635555" lon="6.8873177">
      <time>2023-09-08T07:01:38Z</time>
    </trkpt>
    <trkpt lat="50.9634774" lon="6.8874417">
      <time>2023-09-08T07:01:40Z</time>
    </trkpt>
    <trkpt lat="50.9633480" lon="6.8877175">
      <time>2023-09-08T07:01:44Z</time>
    </trkpt>
    <trkpt lat="50.9631032" lon="6.8882335">
      <time>2023-09-08T07:01:52Z</time>
    </trkpt>
    <trkpt lat="50.9629707" lon="6.8884911">
      <time>2023-09-08T07:01:56Z</time>
    </trkpt>
    <trkpt lat="50.9628936" lon="6.8887221">
      <time>2023-09-08T07:01:59Z</time>
    </trkpt>
    <trkpt lat="50.9627640" lon="6.8891166">
      <time>2023-09-08T07:02:04Z</time>
    </trkpt>
    <trkpt lat="50.9626167" lon="6.8895104">
      <time>2023-09-08T07:02:09Z</time>
    </trkpt>
    <trkpt lat="50.9625584" lon="6.8896658">
      <time>2023-09-08T07:02:11Z</time>
    </trkpt>
    <trkpt lat="50.9624884" lon="6.8898019">
      <time>2023-09-08T07:02:13Z</time>
    </trkpt>
    <trkpt lat="50.9624077" lon="6.8899465">
      <time>2023-09-08T07:02:15Z</time>
    </trkpt>
    <trkpt lat="50.9623669" lon="6.8900156">
      <time>2023-09-08T07:02:16Z</time>
    </trkpt>
    <trkpt lat="50.9621730" lon="6.8903007">
      <time>2023-09-08T07:02:21Z</time>
    </trkpt>
    <trkpt lat="50.9621401" lon="6.8903560">
      <time>2023-09-08T07:02:22Z</time>
    </trkpt>
    <trkpt lat="50.9619970" lon="6.8906906">
      <time>2023-09-08T07:02:27Z</time>
    </trkpt>
    <trkpt lat="50.9617600" lon="6.8911690">
      <time>2023-09-08T07:02:35Z</time>
    </trkpt>
    <trkpt lat="50.9615387" lon="6.8916213">
      <time>2023-09-08T07:02:43Z</time>
    </trkpt>
    <trkpt lat="50.9614063" lon="6.8918392">
      <time>2023-09-08T07:02:47Z</time>
    </trkpt>
    <trkpt lat="50.9613199" lon="6.8920155">
      <time>2023-09-08T07:02:50Z</time>
    </trkpt>
    <trkpt lat="50.9612599" lon="6.8921339">
      <time>2023-09-08T07:02:52Z</time>
    </trkpt>
    <trkpt lat="50.9611616" lon="6.8923261">
      <time>2023-09-08T07:02:56Z</time>
    </trkpt>
    <trkpt lat="50.9611154" lon="6.8923721">
      <time>2023-09-08T07:03:00Z</time>
    </trkpt>
    <trkpt lat="50.9611126" lon="6.8923764">
      <time>2023-09-08T07:03:03Z</time>
    </trkpt>
    <trkpt lat="50.9610945" lon="6.8924194">
      <time>2023-09-08T07:03:23Z</time>
    </trkpt>
    <trkpt lat="50.9610825" lon="6.8924484">
      <time>2023-09-08T07:03:24Z</time>
    </trkpt>
    <trkpt lat="50.9610515" lon="6.8925266">
      <time>2023-09-08T07:03:26Z</time>
    </trkpt>
    <trkpt lat="50.9610371" lon="6.8925738">
      <time>2023-09-08T07:03:27Z</time>
    </trkpt>
    <trkpt lat="50.9609915" lon="6.8927419">
      <time>2023-09-08T07:03:30Z</time>
    </trkpt>
    <trkpt lat="50.9609675" lon="6.8927957">
      <time>2023-09-08T07:03:31Z</time>
    </trkpt>
    <trkpt lat="50.9608665" lon="6.8930113">
      <time>2023-09-08T07:03:35Z</time>
    </trkpt>
    <trkpt lat="50.9608453" lon="6.8930751">
      <time>2023-09-08T07:03:36Z</time>
    </trkpt>
    <trkpt lat="50.9606719" lon="6.8935391">
      <time>2023-09-08T07:03:43Z</time>
    </trkpt>
    <trkpt lat="50.9604958" lon="6.8939062">
      <time>2023-09-08T07:03:49Z</time>
    </trkpt>
    <trkpt lat="50.9604646" lon="6.8939829">
      <time>2023-09-08T07:03:50Z</time>
    </trkpt>
    <trkpt lat="50.9604418" lon="6.8940308">
      <time>2023-09-08T07:03:51Z</time>
    </trkpt>
    <trkpt lat="50.9602208" lon="6.8944384">
      <time>2023-09-08T07:03:58Z</time>
    </trkpt>
    <trkpt lat="50.9601897" lon="6.8945039">
      <time>2023-09-08T07:03:59Z</time>
    </trkpt>
    <trkpt lat="50.9599938" lon="6.8948895">
      <time>2023-09-08T07:04:05Z</time>
    </trkpt>
    <trkpt lat="50.9599312" lon="6.8950289">
      <time>2023-09-08T07:04:07Z</time>
    </trkpt>
    <trkpt lat="50.9598280" lon="6.8952343">
      <time>2023-09-08T07:04:10Z</time>
    </trkpt>
    <trkpt lat="50.9596340" lon="6.8956308">
      <time>2023-09-08T07:04:16Z</time>
    </trkpt>
    <trkpt lat="50.9596002" lon="6.8956958">
      <time>2023-09-08T07:04:17Z</time>
    </trkpt>
    <trkpt lat="50.9593559" lon="6.8962062">
      <time>2023-09-08T07:04:25Z</time>
    </trkpt>
    <trkpt lat="50.9592933" lon="6.8963343">
      <time>2023-09-08T07:04:27Z</time>
    </trkpt>
    <trkpt lat="50.9591796" lon="6.8965947">
      <time>2023-09-08T07:04:31Z</time>
    </trkpt>
    <trkpt lat="50.9591146" lon="6.8967135">
      <time>2023-09-08T07:04:33Z</time>
    </trkpt>
    <trkpt lat="50.9590821" lon="6.8968665">
      <time>2023-09-08T07:04:35Z</time>
    </trkpt>
    <trkpt lat="50.9590617" lon="6.8969449">
      <time>2023-09-08T07:04:36Z</time>
    </trkpt>
    <trkpt lat="50.9589657" lon="6.8971603">
      <time>2023-09-08T07:04:39Z</time>
    </trkpt>
    <trkpt lat="50.9587600" lon="6.8975874">
      <time>2023-09-08T07:04:45Z</time>
    </trkpt>
    <trkpt lat="50.9587255" lon="6.8976572">
      <time>2023-09-08T07:04:46Z</time>
    </trkpt>
    <trkpt lat="50.9584230" lon="6.8982766">
      <time>2023-09-08T07:04:55Z</time>
    </trkpt>
    <trkpt lat="50.9583470" lon="6.8984340">
      <time>2023-09-08T07:04:57Z</time>
    </trkpt>
    <trkpt lat="50.9580519" lon="6.8990566">
      <time>2023-09-08T07:05:06Z</time>
    </trkpt>
    <trkpt lat="50.9579272" lon="6.8993199">
      <time>2023-09-08T07:05:10Z</time>
    </trkpt>
    <trkpt lat="50.9578598" lon="6.8994292">
      <time>2023-09-08T07:05:12Z</time>
    </trkpt>
    <trkpt lat="50.9578339" lon="6.8994740">
      <time>2023-09-08T07:05:13Z</time>
    </trkpt>
    <trkpt lat="50.9578041" lon="6.8995402">
      <time>2023-09-08T07:05:15Z</time>
    </trkpt>
    <trkpt lat="50.9578059" lon="6.8996924">
      <time>2023-09-08T07:05:20Z</time>
    </trkpt>
    <trkpt lat="50.9578014" lon="6.8997066">
      <time>2023-09-08T07:05:21Z</time>
    </trkpt>
    <trkpt lat="50.9577963" lon="6.8997141">
      <time>2023-09-08T07:05:22Z</time>
    </trkpt>
    <trkpt lat="50.9577557" lon="6.8998156">
      <time>2023-09-08T07:05:26Z</time>
    </trkpt>
    <trkpt lat="50.9576511" lon="6.9000650">
      <time>2023-09-08T07:05:32Z</time>
    </trkpt>
    <trkpt lat="50.9575783" lon="6.9002718">
      <time>2023-09-08T07:05:36Z</time>
    </trkpt>
    <trkpt lat="50.9575365" lon="6.9004440">
      <time>2023-09-08T07:05:39Z</time>
    </trkpt>
    <trkpt lat="50.9574967" lon="6.9006177">
      <time>2023-09-08T07:05:42Z</time>
    </trkpt>
    <trkpt lat="50.9573839" lon="6.9008857">
      <time>2023-09-08T07:05:47Z</time>
    </trkpt>
    <trkpt lat="50.9572715" lon="6.9011148">
      <time>2023-09-08T07:05:51Z</time>
    </trkpt>
    <trkpt lat="50.9572192" lon="6.9012687">
      <time>2023-09-08T07:05:53Z</time>
    </trkpt>
    <trkpt lat="50.9571964" lon="6.9013528">
      <time>2023-09-08T07:05:54Z</time>
    </trkpt>
    <trkpt lat="50.9571368" lon="6.9016245">
      <time>2023-09-08T07:05:57Z</time>
    </trkpt>
    <trkpt lat="50.9570840" lon="6.9017804">
      <time>2023-09-08T07:05:59Z</time>
    </trkpt>
    <trkpt lat="50.9569343" lon="6.9020614">
      <time>2023-09-08T07:06:03Z</time>
    </trkpt>
    <trkpt lat="50.9567955" lon="6.9023317">
      <time>2023-09-08T07:06:07Z</time>
    </trkpt>
    <trkpt lat="50.9567762" lon="6.9024045">
      <time>2023-09-08T07:06:08Z</time>
    </trkpt>
    <trkpt lat="50.9567344" lon="6.9025410">
      <time>2023-09-08T07:06:10Z</time>
    </trkpt>
    <trkpt lat="50.9567023" lon="6.9026643">
      <time>2023-09-08T07:06:12Z</time>
    </trkpt>
    <trkpt lat="50.9566955" lon="6.9027205">
      <time>2023-09-08T07:06:13Z</time>
    </trkpt>
    <trkpt lat="50.9566468" lon="6.9029681">
      <time>2023-09-08T07:06:18Z</time>
    </trkpt>
    <trkpt lat="50.9566137" lon="6.9031008">
      <time>2023-09-08T07:06:20Z</time>
    </trkpt>
    <trkpt lat="50.9565922" lon="6.9032606">
      <time>2023-09-08T07:06:22Z</time>
    </trkpt>
    <trkpt lat="50.9565622" lon="6.9034270">
      <time>2023-09-08T07:06:24Z</time>
    </trkpt>
    <trkpt lat="50.9565359" lon="6.9035060">
      <time>2023-09-08T07:06:25Z</time>
    </trkpt>
    <trkpt lat="50.9564727" lon="6.9036699">
      <time>2023-09-08T07:06:27Z</time>
    </trkpt>
    <trkpt lat="50.9564379" lon="6.9037475">
      <time>2023-09-08T07:06:28Z</time>
    </trkpt>
    <trkpt lat="50.9563418" lon="6.9039697">
      <time>2023-09-08T07:06:31Z</time>
    </trkpt>
    <trkpt lat="50.9562230" lon="6.9042742">
      <time>2023-09-08T07:06:35Z</time>
    </trkpt>
    <trkpt lat="50.9561443" lon="6.9045063">
      <time>2023-09-08T07:06:38Z</time>
    </trkpt>
    <trkpt lat="50.9559811" lon="6.9050634">
      <time>2023-09-08T07:06:45Z</time>
    </trkpt>
    <trkpt lat="50.9557996" lon="6.9056207">
      <time>2023-09-08T07:06:52Z</time>
    </trkpt>
    <trkpt lat="50.9557237" lon="6.9058582">
      <time>2023-09-08T07:06:55Z</time>
    </trkpt>
    <trkpt lat="50.9556429" lon="6.9061009">
      <time>2023-09-08T07:06:58Z</time>
    </trkpt>
    <trkpt lat="50.9554880" lon="6.9065692">
      <time>2023-09-08T07:07:04Z</time>
    </trkpt>
    <trkpt lat="50.9552838" lon="6.9071757">
      <time>2023-09-08T07:07:12Z</time>
    </trkpt>
    <trkpt lat="50.9552579" lon="6.9072516">
      <time>2023-09-08T07:07:13Z</time>
    </trkpt>
    <trkpt lat="50.9551548" lon="6.9075532">
      <time>2023-09-08T07:07:17Z</time>
    </trkpt>
    <trkpt lat="50.9550840" lon="6.9077816">
      <time>2023-09-08T07:07:20Z</time>
    </trkpt>
    <trkpt lat="50.9550252" lon="6.9080121">
      <time>2023-09-08T07:07:23Z</time>
    </trkpt>
    <trkpt lat="50.9549969" lon="6.9081770">
      <time>2023-09-08T07:07:25Z</time>
    </trkpt>
    <trkpt lat="50.9548656" lon="6.9085348">
      <time>2023-09-08T07:07:30Z</time>
    </trkpt>
    <trkpt lat="50.9548367" lon="6.9086039">
      <time>2023-09-08T07:07:31Z</time>
    </trkpt>
    <trkpt lat="50.9547829" lon="6.9087408">
      <time>2023-09-08T07:07:33Z</time>
    </trkpt>
    <trkpt lat="50.9547110" lon="6.9089600">
      <time>2023-09-08T07:07:36Z</time>
    </trkpt>
    <trkpt lat="50.9544732" lon="6.9096015">
      <time>2023-09-08T07:07:45Z</time>
    </trkpt>
    <trkpt lat="50.9543721" lon="6.9099095">
      <time>2023-09-08T07:07:49Z</time>
    </trkpt>
    <trkpt lat="50.9543194" lon="6.9100743">
      <time>2023-09-08T07:07:51Z</time>
    </trkpt>
    <trkpt lat="50.9542246" lon="6.9103509">
      <time>2023-09-08T07:07:55Z</time>
    </trkpt>
    <trkpt lat="50.9541459" lon="6.9104864">
      <time>2023-09-08T07:07:57Z</time>
    </trkpt>
    <trkpt lat="50.9540832" lon="6.9105938">
      <time>2023-09-08T07:07:59Z</time>
    </trkpt>
    <trkpt lat="50.9539856" lon="6.9107723">
      <time>2023-09-08T07:08:02Z</time>
    </trkpt>
    <trkpt lat="50.9538974" lon="6.9109261">
      <time>2023-09-08T07:08:05Z</time>
    </trkpt>
    <trkpt lat="50.9537508" lon="6.9111561">
      <time>2023-09-08T07:08:09Z</time>
    </trkpt>
    <trkpt lat="50.9535678" lon="6.9114167">
      <time>2023-09-08T07:08:14Z</time>
    </trkpt>
    <trkpt lat="50.9534388" lon="6.9116000">
      <time>2023-09-08T07:08:17Z</time>
    </trkpt>
    <trkpt lat="50.9531586" lon="6.9120198">
      <time>2023-09-08T07:08:24Z</time>
    </trkpt>
    <trkpt lat="50.9529520" lon="6.9123204">
      <time>2023-09-08T07:08:29Z</time>
    </trkpt>
    <trkpt lat="50.9528875" lon="6.9124206">
      <time>2023-09-08T07:08:31Z</time>
    </trkpt>
    <trkpt lat="50.9528121" lon="6.9125427">
      <time>2023-09-08T07:08:33Z</time>
    </trkpt>
    <trkpt lat="50.9527213" lon="6.9126695">
      <time>2023-09-08T07:08:36Z</time>
    </trkpt>
    <trkpt lat="50.9526543" lon="6.9127832">
      <time>2023-09-08T07:08:38Z</time>
    </trkpt>
    <trkpt lat="50.9525732" lon="6.9129018">
      <time>2023-09-08T07:08:40Z</time>
    </trkpt>
    <trkpt lat="50.9524945" lon="6.9130298">
      <time>2023-09-08T07:08:42Z</time>
    </trkpt>
    <trkpt lat="50.9523736" lon="6.9132321">
      <time>2023-09-08T07:08:45Z</time>
    </trkpt>
    <trkpt lat="50.9522934" lon="6.9133558">
      <time>2023-09-08T07:08:47Z</time>
    </trkpt>
    <trkpt lat="50.9522487" lon="6.9134203">
      <time>2023-09-08T07:08:48Z</time>
    </trkpt>
    <trkpt lat="50.9521158" lon="6.9136038">
      <time>2023-09-08T07:08:51Z</time>
    </trkpt>
    <trkpt lat="50.9520340" lon="6.9137284">
      <time>2023-09-08T07:08:53Z</time>
    </trkpt>
    <trkpt lat="50.9519159" lon="6.9138967">
      <time>2023-09-08T07:08:56Z</time>
    </trkpt>
    <trkpt lat="50.9517447" lon="6.9141636">
      <time>2023-09-08T07:09:01Z</time>
    </trkpt>
    <trkpt lat="50.9517066" lon="6.9142079">
      <time>2023-09-08T07:09:02Z</time>
    </trkpt>
    <trkpt lat="50.9516714" lon="6.9142632">
      <time>2023-09-08T07:09:03Z</time>
    </trkpt>
    <trkpt lat="50.9515144" lon="6.9145302">
      <time>2023-09-08T07:09:07Z</time>
    </trkpt>
    <trkpt lat="50.9514173" lon="6.9147063">
      <time>2023-09-08T07:09:09Z</time>
    </trkpt>
    <trkpt lat="50.9512998" lon="6.9149295">
      <time>2023-09-08T07:09:12Z</time>
    </trkpt>
    <trkpt lat="50.9512063" lon="6.9150559">
      <time>2023-09-08T07:09:14Z</time>
    </trkpt>
    <trkpt lat="50.9511558" lon="6.9151009">
      <time>2023-09-08T07:09:15Z</time>
    </trkpt>
    <trkpt lat="50.9511175" lon="6.9151503">
      <time>2023-09-08T07:09:16Z</time>
    </trkpt>
    <trkpt lat="50.9510813" lon="6.9152824">
      <time>2023-09-08T07:09:18Z</time>
    </trkpt>
    <trkpt lat="50.9510513" lon="6.9153140">
      <time>2023-09-08T07:09:19Z</time>
    </trkpt>
    <trkpt lat="50.9509666" lon="6.9154549">
      <time>2023-09-08T07:09:22Z</time>
    </trkpt>
    <trkpt lat="50.9509313" lon="6.9154877">
      <time>2023-09-08T07:09:23Z</time>
    </trkpt>
    <trkpt lat="50.9507872" lon="6.9156885">
      <time>2023-09-08T07:09:27Z</time>
    </trkpt>
    <trkpt lat="50.9507388" lon="6.9157736">
      <time>2023-09-08T07:09:29Z</time>
    </trkpt>
    <trkpt lat="50.9507089" lon="6.9158328">
      <time>2023-09-08T07:09:30Z</time>
    </trkpt>
    <trkpt lat="50.9506890" lon="6.9158722">
      <time>2023-09-08T07:09:31Z</time>
    </trkpt>
    <trkpt lat="50.9506633" lon="6.9159178">
      <time>2023-09-08T07:09:32Z</time>
    </trkpt>
    <trkpt lat="50.9505928" lon="6.9160105">
      <time>2023-09-08T07:09:35Z</time>
    </trkpt>
    <trkpt lat="50.9505462" lon="6.9160729">
      <time>2023-09-08T07:09:37Z</time>
    </trkpt>
    <trkpt lat="50.9504851" lon="6.9161403">
      <time>2023-09-08T07:09:40Z</time>
    </trkpt>
    <trkpt lat="50.9504593" lon="6.9161650">
      <time>2023-09-08T07:09:41Z</time>
    </trkpt>
    <trkpt lat="50.9503188" lon="6.9163700">
      <time>2023-09-08T07:09:47Z</time>
    </trkpt>
    <trkpt lat="50.9502932" lon="6.9164075">
      <time>2023-09-08T07:09:48Z</time>
    </trkpt>
    <trkpt lat="50.9502072" lon="6.9164516">
      <time>2023-09-08T07:09:51Z</time>
    </trkpt>
    <trkpt lat="50.9500944" lon="6.9163474">
      <time>2023-09-08T07:09:54Z</time>
    </trkpt>
    <trkpt lat="50.9498794" lon="6.9161452">
      <time>2023-09-08T07:09:59Z</time>
    </trkpt>
    <trkpt lat="50.9497308" lon="6.9159319">
      <time>2023-09-08T07:10:03Z</time>
    </trkpt>
    <trkpt lat="50.9496407" lon="6.9158451">
      <time>2023-09-08T07:10:05Z</time>
    </trkpt>
    <trkpt lat="50.9495987" lon="6.9157943">
      <time>2023-09-08T07:10:06Z</time>
    </trkpt>
    <trkpt lat="50.9493323" lon="6.9154787">
      <time>2023-09-08T07:10:12Z</time>
    </trkpt>
    <trkpt lat="50.9490694" lon="6.9151916">
      <time>2023-09-08T07:10:18Z</time>
    </trkpt>
    <trkpt lat="50.9489059" lon="6.9150269">
      <time>2023-09-08T07:10:22Z</time>
    </trkpt>
    <trkpt lat="50.9488688" lon="6.9149890">
      <time>2023-09-08T07:10:23Z</time>
    </trkpt>
    <trkpt lat="50.9488175" lon="6.9149424">
      <time>2023-09-08T07:10:24Z</time>
    </trkpt>
    <trkpt lat="50.9486776" lon="6.9148050">
      <time>2023-09-08T07:10:29Z</time>
    </trkpt>
    <trkpt lat="50.9486639" lon="6.9147888">
      <time>2023-09-08T07:10:33Z</time>
    </trkpt>
    <trkpt lat="50.9486639" lon="6.9147888">
      <time>2023-09-08T07:10:34Z</time>
    </trkpt>
    <trkpt lat="50.9486132" lon="6.9147316">
      <time>2023-09-08T07:11:02Z</time>
    </trkpt>
    <trkpt lat="50.9485717" lon="6.9147042">
      <time>2023-09-08T07:11:04Z</time>
    </trkpt>
    <trkpt lat="50.9484653" lon="6.9146374">
      <time>2023-09-08T07:11:07Z</time>
    </trkpt>
    <trkpt lat="50.9484162" lon="6.9146087">
      <time>2023-09-08T07:11:08Z</time>
    </trkpt>
    <trkpt lat="50.9482152" lon="6.9144499">
      <time>2023-09-08T07:11:14Z</time>
    </trkpt>
    <trkpt lat="50.9480361" lon="6.9143052">
      <time>2023-09-08T07:11:18Z</time>
    </trkpt>
    <trkpt lat="50.9479971" lon="6.9142721">
      <time>2023-09-08T07:11:19Z</time>
    </trkpt>
    <trkpt lat="50.9476216" lon="6.9139566">
      <time>2023-09-08T07:11:27Z</time>
    </trkpt>
    <trkpt lat="50.9475273" lon="6.9138671">
      <time>2023-09-08T07:11:29Z</time>
    </trkpt>
    <trkpt lat="50.9473048" lon="6.9136825">
      <time>2023-09-08T07:11:33Z</time>
    </trkpt>
    <trkpt lat="50.9472687" lon="6.9136562">
      <time>2023-09-08T07:11:34Z</time>
    </trkpt>
    <trkpt lat="50.9468259" lon="6.9132877">
      <time>2023-09-08T07:11:43Z</time>
    </trkpt>
    <trkpt lat="50.9464479" lon="6.9130639">
      <time>2023-09-08T07:11:50Z</time>
    </trkpt>
    <trkpt lat="50.9463930" lon="6.9130362">
      <time>2023-09-08T07:11:51Z</time>
    </trkpt>
    <trkpt lat="50.9461721" lon="6.9129371">
      <time>2023-09-08T07:11:55Z</time>
    </trkpt>
    <trkpt lat="50.9461147" lon="6.9129168">
      <time>2023-09-08T07:11:56Z</time>
    </trkpt>
    <trkpt lat="50.9457205" lon="6.9127727">
      <time>2023-09-08T07:12:03Z</time>
    </trkpt>
    <trkpt lat="50.9453921" lon="6.9126761">
      <time>2023-09-08T07:12:09Z</time>
    </trkpt>
    <trkpt lat="50.9453490" lon="6.9126657">
      <time>2023-09-08T07:12:10Z</time>
    </trkpt>
    <trkpt lat="50.9452626" lon="6.9126733">
      <time>2023-09-08T07:12:13Z</time>
    </trkpt>
    <trkpt lat="50.9452067" lon="6.9126491">
      <time>2023-09-08T07:12:17Z</time>
    </trkpt>
    <trkpt lat="50.9451958" lon="6.9126446">
      <time>2023-09-08T07:12:18Z</time>
    </trkpt>
    <trkpt lat="50.9451687" lon="6.9126369">
      <time>2023-09-08T07:12:20Z</time>
    </trkpt>
    <trkpt lat="50.9451512" lon="6.9126253">
      <time>2023-09-08T07:12:23Z</time>
    </trkpt>
    <trkpt lat="50.9451511" lon="6.9126370">
      <time>2023-09-08T07:12:24Z</time>
    </trkpt>
    <trkpt lat="50.9451503" lon="6.9126407">
      <time>2023-09-08T07:12:26Z</time>
    </trkpt>
    <trkpt lat="50.9450834" lon="6.9126431">
      <time>2023-09-08T07:13:01Z</time>
    </trkpt>
    <trkpt lat="50.9450525" lon="6.9126485">
      <time>2023-09-08T07:13:02Z</time>
    </trkpt>
    <trkpt lat="50.9449640" lon="6.9126370">
      <time>2023-09-08T07:13:04Z</time>
    </trkpt>
    <trkpt lat="50.9448587" lon="6.9126420">
      <time>2023-09-08T07:13:06Z</time>
    </trkpt>
    <trkpt lat="50.9446798" lon="6.9126348">
      <time>2023-09-08T07:13:09Z</time>
    </trkpt>
    <trkpt lat="50.9445601" lon="6.9126460">
      <time>2023-09-08T07:13:11Z</time>
    </trkpt>
    <trkpt lat="50.9444924" lon="6.9126521">
      <time>2023-09-08T07:13:12Z</time>
    </trkpt>
    <trkpt lat="50.9443043" lon="6.9126617">
      <time>2023-09-08T07:13:15Z</time>
    </trkpt>
    <trkpt lat="50.9441238" lon="6.9126614">
      <time>2023-09-08T07:13:18Z</time>
    </trkpt>
    <trkpt lat="50.9440022" lon="6.9126752">
      <time>2023-09-08T07:13:20Z</time>
    </trkpt>
    <trkpt lat="50.9438134" lon="6.9126710">
      <time>2023-09-08T07:13:23Z</time>
    </trkpt>
    <trkpt lat="50.9437509" lon="6.9126746">
      <time>2023-09-08T07:13:24Z</time>
    </trkpt>
    <trkpt lat="50.9436286" lon="6.9127010">
      <time>2023-09-08T07:13:26Z</time>
    </trkpt>
    <trkpt lat="50.9434474" lon="6.9127528">
      <time>2023-09-08T07:13:29Z</time>
    </trkpt>
    <trkpt lat="50.9433798" lon="6.9127500">
      <time>2023-09-08T07:13:30Z</time>
    </trkpt>
    <trkpt lat="50.9432495" lon="6.9127675">
      <time>2023-09-08T07:13:32Z</time>
    </trkpt>
    <trkpt lat="50.9431115" lon="6.9126597">
      <time>2023-09-08T07:13:35Z</time>
    </trkpt>
    <trkpt lat="50.9426078" lon="6.9126828">
      <time>2023-09-08T07:13:43Z</time>
    </trkpt>
    <trkpt lat="50.9423458" lon="6.9126849">
      <time>2023-09-08T07:13:47Z</time>
    </trkpt>
    <trkpt lat="50.9422146" lon="6.9126675">
      <time>2023-09-08T07:13:49Z</time>
    </trkpt>
    <trkpt lat="50.9419574" lon="6.9125801">
      <time>2023-09-08T07:13:53Z</time>
    </trkpt>
    <trkpt lat="50.9418587" lon="6.9125044">
      <time>2023-09-08T07:13:55Z</time>
    </trkpt>
    <trkpt lat="50.9416412" lon="6.9123385">
      <time>2023-09-08T07:13:59Z</time>
    </trkpt>
    <trkpt lat="50.9415436" lon="6.9122427">
      <time>2023-09-08T07:14:01Z</time>
    </trkpt>
    <trkpt lat="50.9414895" lon="6.9121934">
      <time>2023-09-08T07:14:02Z</time>
    </trkpt>
    <trkpt lat="50.9412738" lon="6.9119822">
      <time>2023-09-08T07:14:06Z</time>
    </trkpt>
    <trkpt lat="50.9409834" lon="6.9117388">
      <time>2023-09-08T07:14:11Z</time>
    </trkpt>
    <trkpt lat="50.9408648" lon="6.9116337">
      <time>2023-09-08T07:14:13Z</time>
    </trkpt>
    <trkpt lat="50.9407566" lon="6.9115383">
      <time>2023-09-08T07:14:15Z</time>
    </trkpt>
    <trkpt lat="50.9406358" lon="6.9114361">
      <time>2023-09-08T07:14:17Z</time>
    </trkpt>
    <trkpt lat="50.9405375" lon="6.9113408">
      <time>2023-09-08T07:14:19Z</time>
    </trkpt>
    <trkpt lat="50.9403869" lon="6.9111998">
      <time>2023-09-08T07:14:22Z</time>
    </trkpt>
    <trkpt lat="50.9400522" lon="6.9109100">
      <time>2023-09-08T07:14:29Z</time>
    </trkpt>
    <trkpt lat="50.9399467" lon="6.9108158">
      <time>2023-09-08T07:14:33Z</time>
    </trkpt>
    <trkpt lat="50.9399324" lon="6.9108039">
      <time>2023-09-08T07:14:38Z</time>
    </trkpt>
    <trkpt lat="50.9399324" lon="6.9108039">
      <time>2023-09-08T07:14:39Z</time>
    </trkpt>
    <trkpt lat="50.9398719" lon="6.9107691">
      <time>2023-09-08T07:14:49Z</time>
    </trkpt>
    <trkpt lat="50.9397948" lon="6.9107103">
      <time>2023-09-08T07:14:51Z</time>
    </trkpt>
    <trkpt lat="50.9396461" lon="6.9105617">
      <time>2023-09-08T07:14:55Z</time>
    </trkpt>
    <trkpt lat="50.9396095" lon="6.9105126">
      <time>2023-09-08T07:14:56Z</time>
    </trkpt>
    <trkpt lat="50.9395674" lon="6.9104594">
      <time>2023-09-08T07:14:57Z</time>
    </trkpt>
    <trkpt lat="50.9393983" lon="6.9102570">
      <time>2023-09-08T07:15:01Z</time>
    </trkpt>
    <trkpt lat="50.9391853" lon="6.9099888">
      <time>2023-09-08T07:15:06Z</time>
    </trkpt>
    <trkpt lat="50.9390432" lon="6.9098425">
      <time>2023-09-08T07:15:09Z</time>
    </trkpt>
    <trkpt lat="50.9387589" lon="6.9095474">
      <time>2023-09-08T07:15:15Z</time>
    </trkpt>
    <trkpt lat="50.9385877" lon="6.9093513">
      <time>2023-09-08T07:15:19Z</time>
    </trkpt>
    <trkpt lat="50.9384801" lon="6.9092764">
      <time>2023-09-08T07:15:21Z</time>
    </trkpt>
    <trkpt lat="50.9383056" lon="6.9091164">
      <time>2023-09-08T07:15:24Z</time>
    </trkpt>
    <trkpt lat="50.9382555" lon="6.9089792">
      <time>2023-09-08T07:15:26Z</time>
    </trkpt>
    <trkpt lat="50.9381018" lon="6.9087266">
      <time>2023-09-08T07:15:30Z</time>
    </trkpt>
    <trkpt lat="50.9380508" lon="6.9086785">
      <time>2023-09-08T07:15:31Z</time>
    </trkpt>
    <trkpt lat="50.9379078" lon="6.9085509">
      <time>2023-09-08T07:15:34Z</time>
    </trkpt>
    <trkpt lat="50.9377513" lon="6.9084866">
      <time>2023-09-08T07:15:37Z</time>
    </trkpt>
    <trkpt lat="50.9375107" lon="6.9084169">
      <time>2023-09-08T07:15:42Z</time>
    </trkpt>
    <trkpt lat="50.9374185" lon="6.9083910">
      <time>2023-09-08T07:15:44Z</time>
    </trkpt>
    <trkpt lat="50.9373349" lon="6.9083416">
      <time>2023-09-08T07:15:46Z</time>
    </trkpt>
    <trkpt lat="50.9372609" lon="6.9082850">
      <time>2023-09-08T07:15:48Z</time>
    </trkpt>
    <trkpt lat="50.9372202" lon="6.9082763">
      <time>2023-09-08T07:15:49Z</time>
    </trkpt>
    <trkpt lat="50.9371247" lon="6.9083017">
      <time>2023-09-08T07:15:51Z</time>
    </trkpt>
    <trkpt lat="50.9370738" lon="6.9083111">
      <time>2023-09-08T07:15:52Z</time>
    </trkpt>
    <trkpt lat="50.9369707" lon="6.9083073">
      <time>2023-09-08T07:15:54Z</time>
    </trkpt>
    <trkpt lat="50.9369121" lon="6.9083025">
      <time>2023-09-08T07:15:55Z</time>
    </trkpt>
    <trkpt lat="50.9368535" lon="6.9082912">
      <time>2023-09-08T07:15:56Z</time>
    </trkpt>
    <trkpt lat="50.9366565" lon="6.9082120">
      <time>2023-09-08T07:15:59Z</time>
    </trkpt>
    <trkpt lat="50.9362773" lon="6.9081180">
      <time>2023-09-08T07:16:04Z</time>
    </trkpt>
    <trkpt lat="50.9359764" lon="6.9080302">
      <time>2023-09-08T07:16:08Z</time>
    </trkpt>
    <trkpt lat="50.9357658" lon="6.9080023">
      <time>2023-09-08T07:16:11Z</time>
    </trkpt>
    <trkpt lat="50.9355855" lon="6.9079647">
      <time>2023-09-08T07:16:14Z</time>
    </trkpt>
    <trkpt lat="50.9354503" lon="6.9079344">
      <time>2023-09-08T07:16:16Z</time>
    </trkpt>
    <trkpt lat="50.9349840" lon="6.9078437">
      <time>2023-09-08T07:16:23Z</time>
    </trkpt>
    <trkpt lat="50.9345383" lon="6.9077745">
      <time>2023-09-08T07:16:30Z</time>
    </trkpt>
    <trkpt lat="50.9342740" lon="6.9077382">
      <time>2023-09-08T07:16:35Z</time>
    </trkpt>
    <trkpt lat="50.9342203" lon="6.9077320">
      <time>2023-09-08T07:16:36Z</time>
    </trkpt>
    <trkpt lat="50.9340441" lon="6.9077110">
      <time>2023-09-08T07:16:39Z</time>
    </trkpt>
    <trkpt lat="50.9338363" lon="6.9076744">
      <time>2023-09-08T07:16:43Z</time>
    </trkpt>
    <trkpt lat="50.9333960" lon="6.9076282">
      <time>2023-09-08T07:16:51Z</time>
    </trkpt>
    <trkpt lat="50.9331379" lon="6.9076407">
      <time>2023-09-08T07:16:56Z</time>
    </trkpt>
    <trkpt lat="50.9330411" lon="6.9076563">
      <time>2023-09-08T07:16:58Z</time>
    </trkpt>
    <trkpt lat="50.9328219" lon="6.9076287">
      <time>2023-09-08T07:17:02Z</time>
    </trkpt>
    <trkpt lat="50.9327132" lon="6.9076132">
      <time>2023-09-08T07:17:04Z</time>
    </trkpt>
    <trkpt lat="50.9326596" lon="6.9076122">
      <time>2023-09-08T07:17:05Z</time>
    </trkpt>
    <trkpt lat="50.9322808" lon="6.9076200">
      <time>2023-09-08T07:17:12Z</time>
    </trkpt>
    <trkpt lat="50.9316941" lon="6.9076377">
      <time>2023-09-08T07:17:23Z</time>
    </trkpt>
    <trkpt lat="50.9312473" lon="6.9076928">
      <time>2023-09-08T07:17:32Z</time>
    </trkpt>
    <trkpt lat="50.9308819" lon="6.9077277">
      <time>2023-09-08T07:17:39Z</time>
    </trkpt>
    <trkpt lat="50.9308246" lon="6.9077386">
      <time>2023-09-08T07:17:40Z</time>
    </trkpt>
    <trkpt lat="50.9307176" lon="6.9077594">
      <time>2023-09-08T07:17:42Z</time>
    </trkpt>
    <trkpt lat="50.9305164" lon="6.9078013">
      <time>2023-09-08T07:17:46Z</time>
    </trkpt>
    <trkpt lat="50.9301121" lon="6.9078870">
      <time>2023-09-08T07:17:54Z</time>
    </trkpt>
    <trkpt lat="50.9300652" lon="6.9078977">
      <time>2023-09-08T07:17:55Z</time>
    </trkpt>
    <trkpt lat="50.9299219" lon="6.9079388">
      <time>2023-09-08T07:17:58Z</time>
    </trkpt>
    <trkpt lat="50.9298736" lon="6.9079508">
      <time>2023-09-08T07:17:59Z</time>
    </trkpt>
    <trkpt lat="50.9297913" lon="6.9079919">
      <time>2023-09-08T07:18:01Z</time>
    </trkpt>
    <trkpt lat="50.9296947" lon="6.9080016">
      <time>2023-09-08T07:18:03Z</time>
    </trkpt>
    <trkpt lat="50.9295356" lon="6.9080074">
      <time>2023-09-08T07:18:06Z</time>
    </trkpt>
    <trkpt lat="50.9293790" lon="6.9080495">
      <time>2023-09-08T07:18:09Z</time>
    </trkpt>
    <trkpt lat="50.9291671" lon="6.9081072">
      <time>2023-09-08T07:18:13Z</time>
    </trkpt>
    <trkpt lat="50.9291168" lon="6.9081148">
      <time>2023-09-08T07:18:14Z</time>
    </trkpt>
    <trkpt lat="50.9289635" lon="6.9081557">
      <time>2023-09-08T07:18:17Z</time>
    </trkpt>
    <trkpt lat="50.9285412" lon="6.9083198">
      <time>2023-09-08T07:18:25Z</time>
    </trkpt>
    <trkpt lat="50.9282536" lon="6.9084414">
      <time>2023-09-08T07:18:31Z</time>
    </trkpt>
    <trkpt lat="50.9282048" lon="6.9084601">
      <time>2023-09-08T07:18:32Z</time>
    </trkpt>
    <trkpt lat="50.9281610" lon="6.9084747">
      <time>2023-09-08T07:18:33Z</time>
    </trkpt>
    <trkpt lat="50.9279564" lon="6.9085570">
      <time>2023-09-08T07:18:38Z</time>
    </trkpt>
    <trkpt lat="50.9278683" lon="6.9086171">
      <time>2023-09-08T07:18:40Z</time>
    </trkpt>
    <trkpt lat="50.9277797" lon="6.9087090">
      <time>2023-09-08T07:18:42Z</time>
    </trkpt>
    <trkpt lat="50.9276855" lon="6.9088172">
      <time>2023-09-08T07:18:44Z</time>
    </trkpt>
    <trkpt lat="50.9275853" lon="6.9089168">
      <time>2023-09-08T07:18:46Z</time>
    </trkpt>
    <trkpt lat="50.9272679" lon="6.9091563">
      <time>2023-09-08T07:18:52Z</time>
    </trkpt>
    <trkpt lat="50.9271126" lon="6.9092986">
      <time>2023-09-08T07:18:55Z</time>
    </trkpt>
    <trkpt lat="50.9269768" lon="6.9094327">
      <time>2023-09-08T07:18:58Z</time>
    </trkpt>
    <trkpt lat="50.9268386" lon="6.9095330">
      <time>2023-09-08T07:19:01Z</time>
    </trkpt>
    <trkpt lat="50.9267411" lon="6.9096192">
      <time>2023-09-08T07:19:03Z</time>
    </trkpt>
    <trkpt lat="50.9266937" lon="6.9096552">
      <time>2023-09-08T07:19:04Z</time>
    </trkpt>
    <trkpt lat="50.9264046" lon="6.9099046">
      <time>2023-09-08T07:19:10Z</time>
    </trkpt>
    <trkpt lat="50.9261401" lon="6.9101185">
      <time>2023-09-08T07:19:16Z</time>
    </trkpt>
    <trkpt lat="50.9258226" lon="6.9104055">
      <time>2023-09-08T07:19:24Z</time>
    </trkpt>
    <trkpt lat="50.9256904" lon="6.9105201">
      <time>2023-09-08T07:19:27Z</time>
    </trkpt>
    <trkpt lat="50.9255950" lon="6.9105852">
      <time>2023-09-08T07:19:29Z</time>
    </trkpt>
    <trkpt lat="50.9253137" lon="6.9108243">
      <time>2023-09-08T07:19:35Z</time>
    </trkpt>
    <trkpt lat="50.9251098" lon="6.9110065">
      <time>2023-09-08T07:19:40Z</time>
    </trkpt>
    <trkpt lat="50.9250683" lon="6.9110364">
      <time>2023-09-08T07:19:41Z</time>
    </trkpt>
    <trkpt lat="50.9250249" lon="6.9110731">
      <time>2023-09-08T07:19:42Z</time>
    </trkpt>
    <trkpt lat="50.9249514" lon="6.9111598">
      <time>2023-09-08T07:19:44Z</time>
    </trkpt>
    <trkpt lat="50.9248771" lon="6.9112326">
      <time>2023-09-08T07:19:46Z</time>
    </trkpt>
    <trkpt lat="50.9248267" lon="6.9112589">
      <time>2023-09-08T07:19:47Z</time>
    </trkpt>
    <trkpt lat="50.9246664" lon="6.9113325">
      <time>2023-09-08T07:19:50Z</time>
    </trkpt>
    <trkpt lat="50.9244163" lon="6.9114628">
      <time>2023-09-08T07:19:55Z</time>
    </trkpt>
    <trkpt lat="50.9241443" lon="6.9115759">
      <time>2023-09-08T07:20:00Z</time>
    </trkpt>
    <trkpt lat="50.9240461" lon="6.9116319">
      <time>2023-09-08T07:20:02Z</time>
    </trkpt>
    <trkpt lat="50.9238532" lon="6.9117250">
      <time>2023-09-08T07:20:06Z</time>
    </trkpt>
    <trkpt lat="50.9238050" lon="6.9117435">
      <time>2023-09-08T07:20:07Z</time>
    </trkpt>
    <trkpt lat="50.9237290" lon="6.9117863">
      <time>2023-09-08T07:20:09Z</time>
    </trkpt>
    <trkpt lat="50.9237079" lon="6.9118111">
      <time>2023-09-08T07:20:10Z</time>
    </trkpt>
    <trkpt lat="50.9236582" lon="6.9118416">
      <time>2023-09-08T07:20:12Z</time>
    </trkpt>
    <trkpt lat="50.9236460" lon="6.9118666">
      <time>2023-09-08T07:20:13Z</time>
    </trkpt>
    <trkpt lat="50.9236457" lon="6.9118858">
      <time>2023-09-08T07:20:14Z</time>
    </trkpt>
    <trkpt lat="50.9236670" lon="6.9118959">
      <time>2023-09-08T07:20:16Z</time>
    </trkpt>
    <trkpt lat="50.9237872" lon="6.9120615">
      <time>2023-09-08T07:20:21Z</time>
    </trkpt>
    <trkpt lat="50.9238988" lon="6.9123155">
      <time>2023-09-08T07:20:27Z</time>
    </trkpt>
    <trkpt lat="50.9239201" lon="6.9123744">
      <time>2023-09-08T07:20:31Z</time>
    </trkpt>
    <trkpt lat="50.9239201" lon="6.9123744">
      <time>2023-09-08T07:20:33Z</time>
    </trkpt>
    <trkpt lat="50.9239059" lon="6.9124182">
      <time>2023-09-08T07:20:52Z</time>
    </trkpt>
    <trkpt lat="50.9239032" lon="6.9124278">
      <time>2023-09-08T07:20:53Z</time>
    </trkpt>
    <trkpt lat="50.9238889" lon="6.9124239">
      <time>2023-09-08T07:20:54Z</time>
    </trkpt>
    <trkpt lat="50.9238602" lon="6.9124196">
      <time>2023-09-08T07:20:56Z</time>
    </trkpt>
    <trkpt lat="50.9237981" lon="6.9123973">
      <time>2023-09-08T07:20:59Z</time>
    </trkpt>
    <trkpt lat="50.9237644" lon="6.9123947">
      <time>2023-09-08T07:21:00Z</time>
    </trkpt>
    <trkpt lat="50.9237092" lon="6.9124338">
      <time>2023-09-08T07:21:02Z</time>
    </trkpt>
    <trkpt lat="50.9235797" lon="6.9125804">
      <time>2023-09-08T07:21:07Z</time>
    </trkpt>
    <trkpt lat="50.9235579" lon="6.9125794">
      <time>2023-09-08T07:21:08Z</time>
    </trkpt>
    <trkpt lat="50.9235163" lon="6.9126547">
      <time>2023-09-08T07:21:10Z</time>
    </trkpt>
    <trkpt lat="50.9234753" lon="6.9126731">
      <time>2023-09-08T07:21:11Z</time>
    </trkpt>
    <trkpt lat="50.9233947" lon="6.9126949">
      <time>2023-09-08T07:21:13Z</time>
    </trkpt>
    <trkpt lat="50.9233031" lon="6.9127434">
      <time>2023-09-08T07:21:16Z</time>
    </trkpt>
    <trkpt lat="50.9232083" lon="6.9126980">
      <time>2023-09-08T07:21:18Z</time>
    </trkpt>
    <trkpt lat="50.9231799" lon="6.9127098">
      <time>2023-09-08T07:21:19Z</time>
    </trkpt>
    <trkpt lat="50.9231022" lon="6.9127103">
      <time>2023-09-08T07:21:21Z</time>
    </trkpt>
    <trkpt lat="50.9229964" lon="6.9126727">
      <time>2023-09-08T07:21:23Z</time>
    </trkpt>
    <trkpt lat="50.9228949" lon="6.9126137">
      <time>2023-09-08T07:21:25Z</time>
    </trkpt>
    <trkpt lat="50.9228538" lon="6.9126269">
      <time>2023-09-08T07:21:26Z</time>
    </trkpt>
    <trkpt lat="50.9226906" lon="6.9128156">
      <time>2023-09-08T07:21:31Z</time>
    </trkpt>
    <trkpt lat="50.9225401" lon="6.9129624">
      <time>2023-09-08T07:21:35Z</time>
    </trkpt>
    <trkpt lat="50.9224594" lon="6.9130268">
      <time>2023-09-08T07:21:37Z</time>
    </trkpt>
    <trkpt lat="50.9224282" lon="6.9132201">
      <time>2023-09-08T07:21:39Z</time>
    </trkpt>
    <trkpt lat="50.9224307" lon="6.9133450">
      <time>2023-09-08T07:21:40Z</time>
    </trkpt>
    <trkpt lat="50.9224325" lon="6.9134509">
      <time>2023-09-08T07:21:41Z</time>
    </trkpt>
    <trkpt lat="50.9224482" lon="6.9136426">
      <time>2023-09-08T07:21:43Z</time>
    </trkpt>
    <trkpt lat="50.9224602" lon="6.9137290">
      <time>2023-09-08T07:21:44Z</time>
    </trkpt>
    <trkpt lat="50.9224882" lon="6.9138975">
      <time>2023-09-08T07:21:46Z</time>
    </trkpt>
    <trkpt lat="50.9225150" lon="6.9140739">
      <time>2023-09-08T07:21:48Z</time>
    </trkpt>
    <trkpt lat="50.9225682" lon="6.9143325">
      <time>2023-09-08T07:21:51Z</time>
    </trkpt>
    <trkpt lat="50.9226825" lon="6.9148999">
      <time>2023-09-08T07:21:58Z</time>
    </trkpt>
    <trkpt lat="50.9227353" lon="6.9150644">
      <time>2023-09-08T07:22:00Z</time>
    </trkpt>
    <trkpt lat="50.9227866" lon="6.9153512">
      <time>2023-09-08T07:22:04Z</time>
    </trkpt>
    <trkpt lat="50.9229055" lon="6.9159588">
      <time>2023-09-08T07:22:13Z</time>
    </trkpt>
    <trkpt lat="50.9229167" lon="6.9161215">
      <time>2023-09-08T07:22:17Z</time>
    </trkpt>
    <trkpt lat="50.9229709" lon="6.9162976">
      <time>2023-09-08T07:22:22Z</time>
    </trkpt>
    <trkpt lat="50.9230207" lon="6.9164743">
      <time>2023-09-08T07:22:26Z</time>
    </trkpt>
    <trkpt lat="50.9230292" lon="6.9165565">
      <time>2023-09-08T07:22:28Z</time>
    </trkpt>
    <trkpt lat="50.9230528" lon="6.9166832">
      <time>2023-09-08T07:22:33Z</time>
    </trkpt>
    <trkpt lat="50.9230557" lon="6.9166857">
      <time>2023-09-08T07:22:35Z</time>
    </trkpt>
    <trkpt lat="50.9230557" lon="6.9166857">
      <time>2023-09-08T07:22:36Z</time>
    </trkpt>
    <trkpt lat="50.9230542" lon="6.9167314">
      <time>2023-09-08T07:22:45Z</time>
    </trkpt>
    <trkpt lat="50.9230542" lon="6.9167314">
      <time>2023-09-08T07:22:46Z</time>
    </trkpt>
    <trkpt lat="50.9230542" lon="6.9167314">
      <time>2023-09-08T07:22:49Z</time>
    </trkpt>
    <trkpt lat="50.9229986" lon="6.9168255">
      <time>2023-09-08T07:23:03Z</time>
    </trkpt>
    <trkpt lat="50.9229986" lon="6.9168255">
      <time>2023-09-08T07:23:04Z</time>
    </trkpt>
    <trkpt lat="50.9229969" lon="6.9168464">
      <time>2023-09-08T07:23:07Z</time>
    </trkpt>
    <trkpt lat="50.9233249" lon="6.9165638">
      <time>2023-09-08T07:41:26Z</time>
    </trkpt>
    <trkpt lat="50.9229622" lon="6.9162487">
      <time>2023-09-08T07:41:28Z</time>
    </trkpt>
    <trkpt lat="50.9228619" lon="6.9163225">
      <time>2023-09-08T07:41:29Z</time>
    </trkpt>
    <trkpt lat="50.9228081" lon="6.9162047">
      <time>2023-09-08T07:41:34Z</time>
    </trkpt>
    <trkpt lat="50.9227713" lon="6.9158366">
      <time>2023-09-08T07:41:40Z</time>
    </trkpt>
    <trkpt lat="50.9227732" lon="6.9156993">
      <time>2023-09-08T07:41:42Z</time>
    </trkpt>
    <trkpt lat="50.9227427" lon="6.9153928">
      <time>2023-09-08T07:41:47Z</time>
    </trkpt>
    <trkpt lat="50.9226709" lon="6.9148937">
      <time>2023-09-08T07:41:55Z</time>
    </trkpt>
    <trkpt lat="50.9226555" lon="6.9148190">
      <time>2023-09-08T07:41:56Z</time>
    </trkpt>
    <trkpt lat="50.9226432" lon="6.9144327">
      <time>2023-09-08T07:42:02Z</time>
    </trkpt>
    <trkpt lat="50.9225925" lon="6.9141356">
      <time>2023-09-08T07:42:07Z</time>
    </trkpt>
    <trkpt lat="50.9225111" lon="6.9138041">
      <time>2023-09-08T07:42:13Z</time>
    </trkpt>
    <trkpt lat="50.9225253" lon="6.9136435">
      <time>2023-09-08T07:42:16Z</time>
    </trkpt>
    <trkpt lat="50.9225561" lon="6.9136077">
      <time>2023-09-08T07:42:17Z</time>
    </trkpt>
    <trkpt lat="50.9226871" lon="6.9134872">
      <time>2023-09-08T07:42:21Z</time>
    </trkpt>
    <trkpt lat="50.9228462" lon="6.9133953">
      <time>2023-09-08T07:42:25Z</time>
    </trkpt>
    <trkpt lat="50.9229215" lon="6.9133360">
      <time>2023-09-08T07:42:27Z</time>
    </trkpt>
    <trkpt lat="50.9230341" lon="6.9132342">
      <time>2023-09-08T07:42:30Z</time>
    </trkpt>
    <trkpt lat="50.9231485" lon="6.9130884">
      <time>2023-09-08T07:42:33Z</time>
    </trkpt>
    <trkpt lat="50.9232057" lon="6.9129821">
      <time>2023-09-08T07:42:35Z</time>
    </trkpt>
    <trkpt lat="50.9232325" lon="6.9129295">
      <time>2023-09-08T07:42:36Z</time>
    </trkpt>
    <trkpt lat="50.9233030" lon="6.9128285">
      <time>2023-09-08T07:42:38Z</time>
    </trkpt>
    <trkpt lat="50.9234130" lon="6.9127161">
      <time>2023-09-08T07:42:41Z</time>
    </trkpt>
    <trkpt lat="50.9234843" lon="6.9126565">
      <time>2023-09-08T07:42:43Z</time>
    </trkpt>
    <trkpt lat="50.9235532" lon="6.9125612">
      <time>2023-09-08T07:42:45Z</time>
    </trkpt>
    <trkpt lat="50.9235950" lon="6.9124862">
      <time>2023-09-08T07:42:46Z</time>
    </trkpt>
    <trkpt lat="50.9239074" lon="6.9122493">
      <time>2023-09-08T07:42:54Z</time>
    </trkpt>
    <trkpt lat="50.9239665" lon="6.9122129">
      <time>2023-09-08T07:42:56Z</time>
    </trkpt>
    <trkpt lat="50.9240567" lon="6.9121332">
      <time>2023-09-08T07:42:58Z</time>
    </trkpt>
    <trkpt lat="50.9240977" lon="6.9121008">
      <time>2023-09-08T07:42:59Z</time>
    </trkpt>
    <trkpt lat="50.9241796" lon="6.9120396">
      <time>2023-09-08T07:43:01Z</time>
    </trkpt>
    <trkpt lat="50.9242599" lon="6.9119822">
      <time>2023-09-08T07:43:03Z</time>
    </trkpt>
    <trkpt lat="50.9242989" lon="6.9119565">
      <time>2023-09-08T07:43:04Z</time>
    </trkpt>
    <trkpt lat="50.9243758" lon="6.9118944">
      <time>2023-09-08T07:43:06Z</time>
    </trkpt>
    <trkpt lat="50.9244753" lon="6.9118142">
      <time>2023-09-08T07:43:09Z</time>
    </trkpt>
    <trkpt lat="50.9245545" lon="6.9117505">
      <time>2023-09-08T07:43:12Z</time>
    </trkpt>
    <trkpt lat="50.9245786" lon="6.9116994">
      <time>2023-09-08T07:43:16Z</time>
    </trkpt>
    <trkpt lat="50.9245759" lon="6.9116708">
      <time>2023-09-08T07:43:20Z</time>
    </trkpt>
    <trkpt lat="50.9246058" lon="6.9116421">
      <time>2023-09-08T07:44:04Z</time>
    </trkpt>
    <trkpt lat="50.9246366" lon="6.9116165">
      <time>2023-09-08T07:44:05Z</time>
    </trkpt>
    <trkpt lat="50.9247901" lon="6.9115211">
      <time>2023-09-08T07:44:09Z</time>
    </trkpt>
    <trkpt lat="50.9248250" lon="6.9114984">
      <time>2023-09-08T07:44:10Z</time>
    </trkpt>
    <trkpt lat="50.9248700" lon="6.9114723">
      <time>2023-09-08T07:44:11Z</time>
    </trkpt>
    <trkpt lat="50.9249167" lon="6.9114251">
      <time>2023-09-08T07:44:12Z</time>
    </trkpt>
    <trkpt lat="50.9249732" lon="6.9113521">
      <time>2023-09-08T07:44:14Z</time>
    </trkpt>
    <trkpt lat="50.9250171" lon="6.9113108">
      <time>2023-09-08T07:44:15Z</time>
    </trkpt>
    <trkpt lat="50.9251177" lon="6.9112130">
      <time>2023-09-08T07:44:18Z</time>
    </trkpt>
    <trkpt lat="50.9251886" lon="6.9111327">
      <time>2023-09-08T07:44:20Z</time>
    </trkpt>
    <trkpt lat="50.9252347" lon="6.9110786">
      <time>2023-09-08T07:44:21Z</time>
    </trkpt>
    <trkpt lat="50.9253029" lon="6.9110043">
      <time>2023-09-08T07:44:23Z</time>
    </trkpt>
    <trkpt lat="50.9253526" lon="6.9109677">
      <time>2023-09-08T07:44:24Z</time>
    </trkpt>
    <trkpt lat="50.9254221" lon="6.9109105">
      <time>2023-09-08T07:44:26Z</time>
    </trkpt>
    <trkpt lat="50.9255459" lon="6.9107606">
      <time>2023-09-08T07:44:30Z</time>
    </trkpt>
    <trkpt lat="50.9256116" lon="6.9106882">
      <time>2023-09-08T07:44:34Z</time>
    </trkpt>
    <trkpt lat="50.9256188" lon="6.9106834">
      <time>2023-09-08T07:44:36Z</time>
    </trkpt>
    <trkpt lat="50.9256723" lon="6.9106135">
      <time>2023-09-08T07:44:58Z</time>
    </trkpt>
    <trkpt lat="50.9257650" lon="6.9105555">
      <time>2023-09-08T07:45:01Z</time>
    </trkpt>
    <trkpt lat="50.9258322" lon="6.9105042">
      <time>2023-09-08T07:45:03Z</time>
    </trkpt>
    <trkpt lat="50.9259261" lon="6.9104357">
      <time>2023-09-08T07:45:06Z</time>
    </trkpt>
    <trkpt lat="50.9259578" lon="6.9104103">
      <time>2023-09-08T07:45:07Z</time>
    </trkpt>
    <trkpt lat="50.9260361" lon="6.9103390">
      <time>2023-09-08T07:45:09Z</time>
    </trkpt>
    <trkpt lat="50.9262757" lon="6.9101303">
      <time>2023-09-08T07:45:15Z</time>
    </trkpt>
    <trkpt lat="50.9263200" lon="6.9101006">
      <time>2023-09-08T07:45:16Z</time>
    </trkpt>
    <trkpt lat="50.9264586" lon="6.9099837">
      <time>2023-09-08T07:45:19Z</time>
    </trkpt>
    <trkpt lat="50.9265238" lon="6.9098866">
      <time>2023-09-08T07:45:21Z</time>
    </trkpt>
    <trkpt lat="50.9266091" lon="6.9097881">
      <time>2023-09-08T07:45:23Z</time>
    </trkpt>
    <trkpt lat="50.9266920" lon="6.9096956">
      <time>2023-09-08T07:45:25Z</time>
    </trkpt>
    <trkpt lat="50.9268275" lon="6.9095591">
      <time>2023-09-08T07:45:28Z</time>
    </trkpt>
    <trkpt lat="50.9271732" lon="6.9094019">
      <time>2023-09-08T07:45:35Z</time>
    </trkpt>
    <trkpt lat="50.9272046" lon="6.9093727">
      <time>2023-09-08T07:45:36Z</time>
    </trkpt>
    <trkpt lat="50.9272814" lon="6.9092508">
      <time>2023-09-08T07:45:38Z</time>
    </trkpt>
    <trkpt lat="50.9274021" lon="6.9091357">
      <time>2023-09-08T07:45:41Z</time>
    </trkpt>
    <trkpt lat="50.9274438" lon="6.9091116">
      <time>2023-09-08T07:45:42Z</time>
    </trkpt>
    <trkpt lat="50.9275103" lon="6.9090615">
      <time>2023-09-08T07:45:44Z</time>
    </trkpt>
    <trkpt lat="50.9275828" lon="6.9090038">
      <time>2023-09-08T07:45:47Z</time>
    </trkpt>
    <trkpt lat="50.9275957" lon="6.9089832">
      <time>2023-09-08T07:45:48Z</time>
    </trkpt>
    <trkpt lat="50.9276086" lon="6.9089740">
      <time>2023-09-08T07:45:49Z</time>
    </trkpt>
    <trkpt lat="50.9276262" lon="6.9089456">
      <time>2023-09-08T07:45:52Z</time>
    </trkpt>
    <trkpt lat="50.9276502" lon="6.9089242">
      <time>2023-09-08T07:45:54Z</time>
    </trkpt>
    <trkpt lat="50.9277592" lon="6.9088441">
      <time>2023-09-08T07:45:58Z</time>
    </trkpt>
    <trkpt lat="50.9278454" lon="6.9088313">
      <time>2023-09-08T07:46:00Z</time>
    </trkpt>
    <trkpt lat="50.9279984" lon="6.9088563">
      <time>2023-09-08T07:46:03Z</time>
    </trkpt>
    <trkpt lat="50.9282121" lon="6.9088205">
      <time>2023-09-08T07:46:07Z</time>
    </trkpt>
    <trkpt lat="50.9282641" lon="6.9088031">
      <time>2023-09-08T07:46:08Z</time>
    </trkpt>
    <trkpt lat="50.9283661" lon="6.9087605">
      <time>2023-09-08T07:46:10Z</time>
    </trkpt>
    <trkpt lat="50.9285221" lon="6.9086980">
      <time>2023-09-08T07:46:13Z</time>
    </trkpt>
    <trkpt lat="50.9286802" lon="6.9086295">
      <time>2023-09-08T07:46:16Z</time>
    </trkpt>
    <trkpt lat="50.9287857" lon="6.9085800">
      <time>2023-09-08T07:46:18Z</time>
    </trkpt>
    <trkpt lat="50.9288390" lon="6.9085565">
      <time>2023-09-08T07:46:19Z</time>
    </trkpt>
    <trkpt lat="50.9288924" lon="6.9085389">
      <time>2023-09-08T07:46:20Z</time>
    </trkpt>
    <trkpt lat="50.9290525" lon="6.9084777">
      <time>2023-09-08T07:46:23Z</time>
    </trkpt>
    <trkpt lat="50.9292166" lon="6.9084112">
      <time>2023-09-08T07:46:26Z</time>
    </trkpt>
    <trkpt lat="50.9295390" lon="6.9083098">
      <time>2023-09-08T07:46:32Z</time>
    </trkpt>
    <trkpt lat="50.9295966" lon="6.9083009">
      <time>2023-09-08T07:46:33Z</time>
    </trkpt>
    <trkpt lat="50.9297745" lon="6.9082635">
      <time>2023-09-08T07:46:36Z</time>
    </trkpt>
    <trkpt lat="50.9298295" lon="6.9082472">
      <time>2023-09-08T07:46:37Z</time>
    </trkpt>
    <trkpt lat="50.9299257" lon="6.9082002">
      <time>2023-09-08T07:46:39Z</time>
    </trkpt>
    <trkpt lat="50.9299715" lon="6.9081732">
      <time>2023-09-08T07:46:40Z</time>
    </trkpt>
    <trkpt lat="50.9300220" lon="6.9081646">
      <time>2023-09-08T07:46:41Z</time>
    </trkpt>
    <trkpt lat="50.9300828" lon="6.9081905">
      <time>2023-09-08T07:46:42Z</time>
    </trkpt>
    <trkpt lat="50.9302034" lon="6.9082143">
      <time>2023-09-08T07:46:44Z</time>
    </trkpt>
    <trkpt lat="50.9302613" lon="6.9082068">
      <time>2023-09-08T07:46:45Z</time>
    </trkpt>
    <trkpt lat="50.9304716" lon="6.9081306">
      <time>2023-09-08T07:46:49Z</time>
    </trkpt>
    <trkpt lat="50.9307541" lon="6.9080909">
      <time>2023-09-08T07:46:54Z</time>
    </trkpt>
    <trkpt lat="50.9308188" lon="6.9080918">
      <time>2023-09-08T07:46:55Z</time>
    </trkpt>
    <trkpt lat="50.9310083" lon="6.9080710">
      <time>2023-09-08T07:46:58Z</time>
    </trkpt>
    <trkpt lat="50.9310625" lon="6.9080445">
      <time>2023-09-08T07:46:59Z</time>
    </trkpt>
    <trkpt lat="50.9311165" lon="6.9080089">
      <time>2023-09-08T07:47:00Z</time>
    </trkpt>
    <trkpt lat="50.9313151" lon="6.9079993">
      <time>2023-09-08T07:47:03Z</time>
    </trkpt>
    <trkpt lat="50.9315751" lon="6.9079827">
      <time>2023-09-08T07:47:07Z</time>
    </trkpt>
    <trkpt lat="50.9318198" lon="6.9079452">
      <time>2023-09-08T07:47:11Z</time>
    </trkpt>
    <trkpt lat="50.9320701" lon="6.9079391">
      <time>2023-09-08T07:47:15Z</time>
    </trkpt>
    <trkpt lat="50.9323741" lon="6.9079455">
      <time>2023-09-08T07:47:20Z</time>
    </trkpt>
    <trkpt lat="50.9324305" lon="6.9079395">
      <time>2023-09-08T07:47:21Z</time>
    </trkpt>
    <trkpt lat="50.9327089" lon="6.9079579">
      <time>2023-09-08T07:47:26Z</time>
    </trkpt>
    <trkpt lat="50.9329848" lon="6.9079861">
      <time>2023-09-08T07:47:31Z</time>
    </trkpt>
    <trkpt lat="50.9330908" lon="6.9080058">
      <time>2023-09-08T07:47:33Z</time>
    </trkpt>
    <trkpt lat="50.9335420" lon="6.9080204">
      <time>2023-09-08T07:47:41Z</time>
    </trkpt>
    <trkpt lat="50.9336032" lon="6.9080188">
      <time>2023-09-08T07:47:42Z</time>
    </trkpt>
    <trkpt lat="50.9338401" lon="6.9080441">
      <time>2023-09-08T07:47:46Z</time>
    </trkpt>
    <trkpt lat="50.9341945" lon="6.9080283">
      <time>2023-09-08T07:47:52Z</time>
    </trkpt>
    <trkpt lat="50.9342502" lon="6.9080314">
      <time>2023-09-08T07:47:53Z</time>
    </trkpt>
    <trkpt lat="50.9345863" lon="6.9080946">
      <time>2023-09-08T07:47:59Z</time>
    </trkpt>
    <trkpt lat="50.9346590" lon="6.9081094">
      <time>2023-09-08T07:48:00Z</time>
    </trkpt>
    <trkpt lat="50.9347783" lon="6.9081303">
      <time>2023-09-08T07:48:02Z</time>
    </trkpt>
    <trkpt lat="50.9351809" lon="6.9082196">
      <time>2023-09-08T07:48:09Z</time>
    </trkpt>
    <trkpt lat="50.9356847" lon="6.9083280">
      <time>2023-09-08T07:48:18Z</time>
    </trkpt>
    <trkpt lat="50.9357387" lon="6.9083254">
      <time>2023-09-08T07:48:19Z</time>
    </trkpt>
    <trkpt lat="50.9361034" lon="6.9084021">
      <time>2023-09-08T07:48:26Z</time>
    </trkpt>
    <trkpt lat="50.9364497" lon="6.9084953">
      <time>2023-09-08T07:48:33Z</time>
    </trkpt>
    <trkpt lat="50.9366164" lon="6.9085457">
      <time>2023-09-08T07:48:38Z</time>
    </trkpt>
    <trkpt lat="50.9366734" lon="6.9085678">
      <time>2023-09-08T07:48:42Z</time>
    </trkpt>
    <trkpt lat="50.9366818" lon="6.9085673">
      <time>2023-09-08T07:48:43Z</time>
    </trkpt>
    <trkpt lat="50.9367171" lon="6.9085580">
      <time>2023-09-08T07:48:49Z</time>
    </trkpt>
    <trkpt lat="50.9367201" lon="6.9085595">
      <time>2023-09-08T07:48:51Z</time>
    </trkpt>
    <trkpt lat="50.9367616" lon="6.9085544">
      <time>2023-09-08T07:49:02Z</time>
    </trkpt>
    <trkpt lat="50.9367748" lon="6.9085672">
      <time>2023-09-08T07:49:03Z</time>
    </trkpt>
    <trkpt lat="50.9368323" lon="6.9085933">
      <time>2023-09-08T07:49:06Z</time>
    </trkpt>
    <trkpt lat="50.9368978" lon="6.9086425">
      <time>2023-09-08T07:49:08Z</time>
    </trkpt>
    <trkpt lat="50.9371367" lon="6.9087259">
      <time>2023-09-08T07:49:13Z</time>
    </trkpt>
    <trkpt lat="50.9374041" lon="6.9088347">
      <time>2023-09-08T07:49:18Z</time>
    </trkpt>
    <trkpt lat="50.9377476" lon="6.9089886">
      <time>2023-09-08T07:49:24Z</time>
    </trkpt>
    <trkpt lat="50.9378534" lon="6.9090553">
      <time>2023-09-08T07:49:26Z</time>
    </trkpt>
    <trkpt lat="50.9381484" lon="6.9093309">
      <time>2023-09-08T07:49:32Z</time>
    </trkpt>
    <trkpt lat="50.9383847" lon="6.9096329">
      <time>2023-09-08T07:49:37Z</time>
    </trkpt>
    <trkpt lat="50.9385561" lon="6.9098428">
      <time>2023-09-08T07:49:41Z</time>
    </trkpt>
    <trkpt lat="50.9387456" lon="6.9100039">
      <time>2023-09-08T07:49:45Z</time>
    </trkpt>
    <trkpt lat="50.9388451" lon="6.9100722">
      <time>2023-09-08T07:49:47Z</time>
    </trkpt>
    <trkpt lat="50.9392016" lon="6.9104498">
      <time>2023-09-08T07:49:54Z</time>
    </trkpt>
    <trkpt lat="50.9392536" lon="6.9104806">
      <time>2023-09-08T07:49:55Z</time>
    </trkpt>
    <trkpt lat="50.9392960" lon="6.9105569">
      <time>2023-09-08T07:49:56Z</time>
    </trkpt>
    <trkpt lat="50.9394299" lon="6.9107689">
      <time>2023-09-08T07:49:59Z</time>
    </trkpt>
    <trkpt lat="50.9394634" lon="6.9108244">
      <time>2023-09-08T07:50:00Z</time>
    </trkpt>
    <trkpt lat="50.9398298" lon="6.9111287">
      <time>2023-09-08T07:50:07Z</time>
    </trkpt>
    <trkpt lat="50.9400091" lon="6.9112828">
      <time>2023-09-08T07:50:11Z</time>
    </trkpt>
    <trkpt lat="50.9401094" lon="6.9113860">
      <time>2023-09-08T07:50:13Z</time>
    </trkpt>
    <trkpt lat="50.9403199" lon="6.9115837">
      <time>2023-09-08T07:50:18Z</time>
    </trkpt>
    <trkpt lat="50.9406189" lon="6.9118658">
      <time>2023-09-08T07:50:25Z</time>
    </trkpt>
    <trkpt lat="50.9409417" lon="6.9121588">
      <time>2023-09-08T07:50:31Z</time>
    </trkpt>
    <trkpt lat="50.9411004" lon="6.9122877">
      <time>2023-09-08T07:50:34Z</time>
    </trkpt>
    <trkpt lat="50.9412616" lon="6.9123841">
      <time>2023-09-08T07:50:37Z</time>
    </trkpt>
    <trkpt lat="50.9416718" lon="6.9127289">
      <time>2023-09-08T07:50:44Z</time>
    </trkpt>
    <trkpt lat="50.9418179" lon="6.9128329">
      <time>2023-09-08T07:50:47Z</time>
    </trkpt>
    <trkpt lat="50.9420106" lon="6.9129092">
      <time>2023-09-08T07:50:51Z</time>
    </trkpt>
    <trkpt lat="50.9424627" lon="6.9130359">
      <time>2023-09-08T07:51:00Z</time>
    </trkpt>
    <trkpt lat="50.9428870" lon="6.9130564">
      <time>2023-09-08T07:51:08Z</time>
    </trkpt>
    <trkpt lat="50.9433190" lon="6.9130142">
      <time>2023-09-08T07:51:16Z</time>
    </trkpt>
    <trkpt lat="50.9435548" lon="6.9129937">
      <time>2023-09-08T07:51:21Z</time>
    </trkpt>
    <trkpt lat="50.9437495" lon="6.9129451">
      <time>2023-09-08T07:51:24Z</time>
    </trkpt>
    <trkpt lat="50.9441217" lon="6.9128741">
      <time>2023-09-08T07:51:31Z</time>
    </trkpt>
    <trkpt lat="50.9444715" lon="6.9126985">
      <time>2023-09-08T07:51:38Z</time>
    </trkpt>
    <trkpt lat="50.9445960" lon="6.9126678">
      <time>2023-09-08T07:51:42Z</time>
    </trkpt>
    <trkpt lat="50.9446249" lon="6.9126618">
      <time>2023-09-08T07:51:44Z</time>
    </trkpt>
    <trkpt lat="50.9446640" lon="6.9126799">
      <time>2023-09-08T07:51:46Z</time>
    </trkpt>
    <trkpt lat="50.9448240" lon="6.9127643">
      <time>2023-09-08T07:51:51Z</time>
    </trkpt>
    <trkpt lat="50.9450046" lon="6.9128142">
      <time>2023-09-08T07:51:56Z</time>
    </trkpt>
    <trkpt lat="50.9450885" lon="6.9128295">
      <time>2023-09-08T07:51:57Z</time>
    </trkpt>
    <trkpt lat="50.9451403" lon="6.9128360">
      <time>2023-09-08T07:51:58Z</time>
    </trkpt>
    <trkpt lat="50.9453900" lon="6.9128917">
      <time>2023-09-08T07:52:03Z</time>
    </trkpt>
    <trkpt lat="50.9456471" lon="6.9129041">
      <time>2023-09-08T07:52:09Z</time>
    </trkpt>
    <trkpt lat="50.9457160" lon="6.9129139">
      <time>2023-09-08T07:52:10Z</time>
    </trkpt>
    <trkpt lat="50.9458102" lon="6.9129420">
      <time>2023-09-08T07:52:12Z</time>
    </trkpt>
    <trkpt lat="50.9459050" lon="6.9129670">
      <time>2023-09-08T07:52:14Z</time>
    </trkpt>
    <trkpt lat="50.9460013" lon="6.9129989">
      <time>2023-09-08T07:52:16Z</time>
    </trkpt>
    <trkpt lat="50.9460520" lon="6.9130177">
      <time>2023-09-08T07:52:17Z</time>
    </trkpt>
    <trkpt lat="50.9463442" lon="6.9131965">
      <time>2023-09-08T07:52:23Z</time>
    </trkpt>
    <trkpt lat="50.9467337" lon="6.9134885">
      <time>2023-09-08T07:52:31Z</time>
    </trkpt>
    <trkpt lat="50.9469398" lon="6.9136819">
      <time>2023-09-08T07:52:35Z</time>
    </trkpt>
    <trkpt lat="50.9470357" lon="6.9137485">
      <time>2023-09-08T07:52:37Z</time>
    </trkpt>
    <trkpt lat="50.9470915" lon="6.9137971">
      <time>2023-09-08T07:52:38Z</time>
    </trkpt>
    <trkpt lat="50.9472262" lon="6.9138941">
      <time>2023-09-08T07:52:41Z</time>
    </trkpt>
    <trkpt lat="50.9473688" lon="6.9140046">
      <time>2023-09-08T07:52:44Z</time>
    </trkpt>
    <trkpt lat="50.9475764" lon="6.9142073">
      <time>2023-09-08T07:52:48Z</time>
    </trkpt>
    <trkpt lat="50.9479757" lon="6.9145779">
      <time>2023-09-08T07:52:56Z</time>
    </trkpt>
    <trkpt lat="50.9482505" lon="6.9148878">
      <time>2023-09-08T07:53:02Z</time>
    </trkpt>
    <trkpt lat="50.9482898" lon="6.9149155">
      <time>2023-09-08T07:53:03Z</time>
    </trkpt>
    <trkpt lat="50.9484392" lon="6.9150130">
      <time>2023-09-08T07:53:06Z</time>
    </trkpt>
    <trkpt lat="50.9486223" lon="6.9151900">
      <time>2023-09-08T07:53:10Z</time>
    </trkpt>
    <trkpt lat="50.9486794" lon="6.9152181">
      <time>2023-09-08T07:53:11Z</time>
    </trkpt>
    <trkpt lat="50.9488228" lon="6.9154070">
      <time>2023-09-08T07:53:14Z</time>
    </trkpt>
    <trkpt lat="50.9488633" lon="6.9154746">
      <time>2023-09-08T07:53:15Z</time>
    </trkpt>
    <trkpt lat="50.9489830" lon="6.9156618">
      <time>2023-09-08T07:53:18Z</time>
    </trkpt>
    <trkpt lat="50.9490186" lon="6.9157026">
      <time>2023-09-08T07:53:19Z</time>
    </trkpt>
    <trkpt lat="50.9490597" lon="6.9157415">
      <time>2023-09-08T07:53:20Z</time>
    </trkpt>
    <trkpt lat="50.9491559" lon="6.9158204">
      <time>2023-09-08T07:53:22Z</time>
    </trkpt>
    <trkpt lat="50.9492051" lon="6.9158610">
      <time>2023-09-08T07:53:23Z</time>
    </trkpt>
    <trkpt lat="50.9493012" lon="6.9159484">
      <time>2023-09-08T07:53:25Z</time>
    </trkpt>
    <trkpt lat="50.9494472" lon="6.9160666">
      <time>2023-09-08T07:53:28Z</time>
    </trkpt>
    <trkpt lat="50.9495060" lon="6.9160978">
      <time>2023-09-08T07:53:29Z</time>
    </trkpt>
    <trkpt lat="50.9496321" lon="6.9161849">
      <time>2023-09-08T07:53:32Z</time>
    </trkpt>
    <trkpt lat="50.9497888" lon="6.9162881">
      <time>2023-09-08T07:53:36Z</time>
    </trkpt>
    <trkpt lat="50.9498733" lon="6.9163996">
      <time>2023-09-08T07:53:38Z</time>
    </trkpt>
    <trkpt lat="50.9499746" lon="6.9165979">
      <time>2023-09-08T07:53:42Z</time>
    </trkpt>
    <trkpt lat="50.9499900" lon="6.9166293">
      <time>2023-09-08T07:53:43Z</time>
    </trkpt>
    <trkpt lat="50.9499939" lon="6.9166680">
      <time>2023-09-08T07:53:45Z</time>
    </trkpt>
    <trkpt lat="50.9500019" lon="6.9166778">
      <time>2023-09-08T07:53:48Z</time>
    </trkpt>
    <trkpt lat="50.9500334" lon="6.9166990">
      <time>2023-09-08T07:53:51Z</time>
    </trkpt>
    <trkpt lat="50.9500688" lon="6.9167091">
      <time>2023-09-08T07:53:53Z</time>
    </trkpt>
    <trkpt lat="50.9501180" lon="6.9167443">
      <time>2023-09-08T07:53:58Z</time>
    </trkpt>
    <trkpt lat="50.9501098" lon="6.9167352">
      <time>2023-09-08T07:53:59Z</time>
    </trkpt>
    <trkpt lat="50.9501543" lon="6.9167088">
      <time>2023-09-08T07:54:29Z</time>
    </trkpt>
    <trkpt lat="50.9501938" lon="6.9166686">
      <time>2023-09-08T07:54:31Z</time>
    </trkpt>
    <trkpt lat="50.9503607" lon="6.9165389">
      <time>2023-09-08T07:54:37Z</time>
    </trkpt>
    <trkpt lat="50.9505480" lon="6.9162365">
      <time>2023-09-08T07:54:43Z</time>
    </trkpt>
    <trkpt lat="50.9507246" lon="6.9159718">
      <time>2023-09-08T07:54:48Z</time>
    </trkpt>
    <trkpt lat="50.9507585" lon="6.9159154">
      <time>2023-09-08T07:54:49Z</time>
    </trkpt>
    <trkpt lat="50.9510492" lon="6.9155177">
      <time>2023-09-08T07:54:57Z</time>
    </trkpt>
    <trkpt lat="50.9510831" lon="6.9154663">
      <time>2023-09-08T07:54:58Z</time>
    </trkpt>
    <trkpt lat="50.9511572" lon="6.9153776">
      <time>2023-09-08T07:55:01Z</time>
    </trkpt>
    <trkpt lat="50.9512408" lon="6.9151893">
      <time>2023-09-08T07:55:05Z</time>
    </trkpt>
    <trkpt lat="50.9515797" lon="6.9143963">
      <time>2023-09-08T07:55:13Z</time>
    </trkpt>
    <trkpt lat="50.9516650" lon="6.9142675">
      <time>2023-09-08T07:55:16Z</time>
    </trkpt>
    <trkpt lat="50.9519150" lon="6.9139622">
      <time>2023-09-08T07:55:22Z</time>
    </trkpt>
    <trkpt lat="50.9520184" lon="6.9137954">
      <time>2023-09-08T07:55:25Z</time>
    </trkpt>
    <trkpt lat="50.9521611" lon="6.9136018">
      <time>2023-09-08T07:55:29Z</time>
    </trkpt>
    <trkpt lat="50.9522215" lon="6.9134999">
      <time>2023-09-08T07:55:31Z</time>
    </trkpt>
    <trkpt lat="50.9523141" lon="6.9133728">
      <time>2023-09-08T07:55:34Z</time>
    </trkpt>
    <trkpt lat="50.9524021" lon="6.9132120">
      <time>2023-09-08T07:55:37Z</time>
    </trkpt>
    <trkpt lat="50.9525517" lon="6.9130309">
      <time>2023-09-08T07:55:41Z</time>
    </trkpt>
    <trkpt lat="50.9525845" lon="6.9129857">
      <time>2023-09-08T07:55:42Z</time>
    </trkpt>
    <trkpt lat="50.9526483" lon="6.9128665">
      <time>2023-09-08T07:55:44Z</time>
    </trkpt>
    <trkpt lat="50.9527316" lon="6.9127472">
      <time>2023-09-08T07:55:46Z</time>
    </trkpt>
    <trkpt lat="50.9528327" lon="6.9125604">
      <time>2023-09-08T07:55:49Z</time>
    </trkpt>
    <trkpt lat="50.9529084" lon="6.9124446">
      <time>2023-09-08T07:55:51Z</time>
    </trkpt>
    <trkpt lat="50.9529457" lon="6.9123853">
      <time>2023-09-08T07:55:52Z</time>
    </trkpt>
    <trkpt lat="50.9530145" lon="6.9122810">
      <time>2023-09-08T07:55:54Z</time>
    </trkpt>
    <trkpt lat="50.9532653" lon="6.9119137">
      <time>2023-09-08T07:56:01Z</time>
    </trkpt>
    <trkpt lat="50.9536351" lon="6.9113828">
      <time>2023-09-08T07:56:11Z</time>
    </trkpt>
    <trkpt lat="50.9536719" lon="6.9113276">
      <time>2023-09-08T07:56:12Z</time>
    </trkpt>
    <trkpt lat="50.9537457" lon="6.9112222">
      <time>2023-09-08T07:56:14Z</time>
    </trkpt>
    <trkpt lat="50.9538129" lon="6.9111007">
      <time>2023-09-08T07:56:16Z</time>
    </trkpt>
    <trkpt lat="50.9539593" lon="6.9108668">
      <time>2023-09-08T07:56:20Z</time>
    </trkpt>
    <trkpt lat="50.9540747" lon="6.9106967">
      <time>2023-09-08T07:56:23Z</time>
    </trkpt>
    <trkpt lat="50.9541830" lon="6.9105422">
      <time>2023-09-08T07:56:26Z</time>
    </trkpt>
    <trkpt lat="50.9542686" lon="6.9103743">
      <time>2023-09-08T07:56:29Z</time>
    </trkpt>
    <trkpt lat="50.9542930" lon="6.9103210">
      <time>2023-09-08T07:56:30Z</time>
    </trkpt>
    <trkpt lat="50.9543620" lon="6.9101547">
      <time>2023-09-08T07:56:34Z</time>
    </trkpt>
    <trkpt lat="50.9543976" lon="6.9100875">
      <time>2023-09-08T07:56:37Z</time>
    </trkpt>
    <trkpt lat="50.9544054" lon="6.9100586">
      <time>2023-09-08T07:56:38Z</time>
    </trkpt>
    <trkpt lat="50.9544135" lon="6.9100021">
      <time>2023-09-08T07:56:43Z</time>
    </trkpt>
    <trkpt lat="50.9544135" lon="6.9100021">
      <time>2023-09-08T07:56:44Z</time>
    </trkpt>
    <trkpt lat="50.9544514" lon="6.9099208">
      <time>2023-09-08T07:56:49Z</time>
    </trkpt>
    <trkpt lat="50.9544818" lon="6.9098644">
      <time>2023-09-08T07:56:51Z</time>
    </trkpt>
    <trkpt lat="50.9545772" lon="6.9096095">
      <time>2023-09-08T07:56:56Z</time>
    </trkpt>
    <trkpt lat="50.9546509" lon="6.9094391">
      <time>2023-09-08T07:56:59Z</time>
    </trkpt>
    <trkpt lat="50.9547279" lon="6.9091573">
      <time>2023-09-08T07:57:03Z</time>
    </trkpt>
    <trkpt lat="50.9548053" lon="6.9089476">
      <time>2023-09-08T07:57:06Z</time>
    </trkpt>
    <trkpt lat="50.9548480" lon="6.9087808">
      <time>2023-09-08T07:57:08Z</time>
    </trkpt>
    <trkpt lat="50.9549713" lon="6.9083871">
      <time>2023-09-08T07:57:13Z</time>
    </trkpt>
    <trkpt lat="50.9550150" lon="6.9082319">
      <time>2023-09-08T07:57:15Z</time>
    </trkpt>
    <trkpt lat="50.9551162" lon="6.9079404">
      <time>2023-09-08T07:57:19Z</time>
    </trkpt>
    <trkpt lat="50.9552433" lon="6.9075359">
      <time>2023-09-08T07:57:24Z</time>
    </trkpt>
    <trkpt lat="50.9554320" lon="6.9069748">
      <time>2023-09-08T07:57:31Z</time>
    </trkpt>
    <trkpt lat="50.9554847" lon="6.9068264">
      <time>2023-09-08T07:57:33Z</time>
    </trkpt>
    <trkpt lat="50.9555356" lon="6.9066716">
      <time>2023-09-08T07:57:35Z</time>
    </trkpt>
    <trkpt lat="50.9555833" lon="6.9065452">
      <time>2023-09-08T07:57:37Z</time>
    </trkpt>
    <trkpt lat="50.9556907" lon="6.9062134">
      <time>2023-09-08T07:57:41Z</time>
    </trkpt>
    <trkpt lat="50.9557709" lon="6.9059703">
      <time>2023-09-08T07:57:44Z</time>
    </trkpt>
    <trkpt lat="50.9558598" lon="6.9057302">
      <time>2023-09-08T07:57:47Z</time>
    </trkpt>
    <trkpt lat="50.9559573" lon="6.9055238">
      <time>2023-09-08T07:57:50Z</time>
    </trkpt>
    <trkpt lat="50.9561313" lon="6.9049989">
      <time>2023-09-08T07:57:57Z</time>
    </trkpt>
    <trkpt lat="50.9562477" lon="6.9046417">
      <time>2023-09-08T07:58:02Z</time>
    </trkpt>
    <trkpt lat="50.9563083" lon="6.9045217">
      <time>2023-09-08T07:58:04Z</time>
    </trkpt>
    <trkpt lat="50.9563583" lon="6.9043891">
      <time>2023-09-08T07:58:06Z</time>
    </trkpt>
    <trkpt lat="50.9564449" lon="6.9040849">
      <time>2023-09-08T07:58:10Z</time>
    </trkpt>
    <trkpt lat="50.9564948" lon="6.9039473">
      <time>2023-09-08T07:58:12Z</time>
    </trkpt>
    <trkpt lat="50.9566178" lon="6.9035794">
      <time>2023-09-08T07:58:17Z</time>
    </trkpt>
    <trkpt lat="50.9566635" lon="6.9033748">
      <time>2023-09-08T07:58:21Z</time>
    </trkpt>
    <trkpt lat="50.9567028" lon="6.9032438">
      <time>2023-09-08T07:58:26Z</time>
    </trkpt>
    <trkpt lat="50.9567091" lon="6.9031973">
      <time>2023-09-08T07:58:31Z</time>
    </trkpt>
    <trkpt lat="50.9567157" lon="6.9031295">
      <time>2023-09-08T07:59:17Z</time>
    </trkpt>
    <trkpt lat="50.9567294" lon="6.9030824">
      <time>2023-09-08T07:59:18Z</time>
    </trkpt>
    <trkpt lat="50.9567458" lon="6.9030378">
      <time>2023-09-08T07:59:19Z</time>
    </trkpt>
    <trkpt lat="50.9568478" lon="6.9027820">
      <time>2023-09-08T07:59:24Z</time>
    </trkpt>
    <trkpt lat="50.9569453" lon="6.9024790">
      <time>2023-09-08T07:59:28Z</time>
    </trkpt>
    <trkpt lat="50.9569713" lon="6.9023976">
      <time>2023-09-08T07:59:29Z</time>
    </trkpt>
    <trkpt lat="50.9570923" lon="6.9019744">
      <time>2023-09-08T07:59:34Z</time>
    </trkpt>
    <trkpt lat="50.9571195" lon="6.9018836">
      <time>2023-09-08T07:59:35Z</time>
    </trkpt>
    <trkpt lat="50.9571432" lon="6.9017987">
      <time>2023-09-08T07:59:36Z</time>
    </trkpt>
    <trkpt lat="50.9571910" lon="6.9016504">
      <time>2023-09-08T07:59:38Z</time>
    </trkpt>
    <trkpt lat="50.9572549" lon="6.9014677">
      <time>2023-09-08T07:59:40Z</time>
    </trkpt>
    <trkpt lat="50.9572907" lon="6.9013955">
      <time>2023-09-08T07:59:41Z</time>
    </trkpt>
    <trkpt lat="50.9573310" lon="6.9013278">
      <time>2023-09-08T07:59:42Z</time>
    </trkpt>
    <trkpt lat="50.9573676" lon="6.9012622">
      <time>2023-09-08T07:59:43Z</time>
    </trkpt>
    <trkpt lat="50.9573945" lon="6.9011913">
      <time>2023-09-08T07:59:44Z</time>
    </trkpt>
    <trkpt lat="50.9574171" lon="6.9011153">
      <time>2023-09-08T07:59:45Z</time>
    </trkpt>
    <trkpt lat="50.9574415" lon="6.9010480">
      <time>2023-09-08T07:59:46Z</time>
    </trkpt>
    <trkpt lat="50.9575080" lon="6.9008475">
      <time>2023-09-08T07:59:50Z</time>
    </trkpt>
    <trkpt lat="50.9575383" lon="6.9007310">
      <time>2023-09-08T07:59:55Z</time>
    </trkpt>
    <trkpt lat="50.9576088" lon="6.9005520">
      <time>2023-09-08T08:00:00Z</time>
    </trkpt>
    <trkpt lat="50.9577111" lon="6.9002952">
      <time>2023-09-08T08:00:05Z</time>
    </trkpt>
    <trkpt lat="50.9579170" lon="6.8998126">
      <time>2023-09-08T08:00:13Z</time>
    </trkpt>
    <trkpt lat="50.9580955" lon="6.8994492">
      <time>2023-09-08T08:00:19Z</time>
    </trkpt>
    <trkpt lat="50.9581573" lon="6.8993255">
      <time>2023-09-08T08:00:21Z</time>
    </trkpt>
    <trkpt lat="50.9582542" lon="6.8991397">
      <time>2023-09-08T08:00:24Z</time>
    </trkpt>
    <trkpt lat="50.9583568" lon="6.8989328">
      <time>2023-09-08T08:00:27Z</time>
    </trkpt>
    <trkpt lat="50.9583855" lon="6.8988642">
      <time>2023-09-08T08:00:28Z</time>
    </trkpt>
    <trkpt lat="50.9586935" lon="6.8982176">
      <time>2023-09-08T08:00:38Z</time>
    </trkpt>
    <trkpt lat="50.9589219" lon="6.8977609">
      <time>2023-09-08T08:00:45Z</time>
    </trkpt>
    <trkpt lat="50.9590169" lon="6.8975522">
      <time>2023-09-08T08:00:48Z</time>
    </trkpt>
    <trkpt lat="50.9591084" lon="6.8973330">
      <time>2023-09-08T08:00:51Z</time>
    </trkpt>
    <trkpt lat="50.9592692" lon="6.8969890">
      <time>2023-09-08T08:00:56Z</time>
    </trkpt>
    <trkpt lat="50.9595421" lon="6.8964194">
      <time>2023-09-08T08:01:04Z</time>
    </trkpt>
    <trkpt lat="50.9598057" lon="6.8958541">
      <time>2023-09-08T08:01:12Z</time>
    </trkpt>
    <trkpt lat="50.9599098" lon="6.8956335">
      <time>2023-09-08T08:01:15Z</time>
    </trkpt>
    <trkpt lat="50.9600505" lon="6.8953451">
      <time>2023-09-08T08:01:19Z</time>
    </trkpt>
    <trkpt lat="50.9602285" lon="6.8950001">
      <time>2023-09-08T08:01:24Z</time>
    </trkpt>
    <trkpt lat="50.9602963" lon="6.8948616">
      <time>2023-09-08T08:01:26Z</time>
    </trkpt>
    <trkpt lat="50.9604626" lon="6.8945434">
      <time>2023-09-08T08:01:31Z</time>
    </trkpt>
    <trkpt lat="50.9606857" lon="6.8941180">
      <time>2023-09-08T08:01:38Z</time>
    </trkpt>
    <trkpt lat="50.9607117" lon="6.8940481">
      <time>2023-09-08T08:01:39Z</time>
    </trkpt>
    <trkpt lat="50.9607805" lon="6.8938402">
      <time>2023-09-08T08:01:42Z</time>
    </trkpt>
    <trkpt lat="50.9608178" lon="6.8937539">
      <time>2023-09-08T08:01:43Z</time>
    </trkpt>
    <trkpt lat="50.9608537" lon="6.8936882">
      <time>2023-09-08T08:01:44Z</time>
    </trkpt>
    <trkpt lat="50.9609344" lon="6.8935843">
      <time>2023-09-08T08:01:46Z</time>
    </trkpt>
    <trkpt lat="50.9609740" lon="6.8935360">
      <time>2023-09-08T08:01:47Z</time>
    </trkpt>
    <trkpt lat="50.9610127" lon="6.8934865">
      <time>2023-09-08T08:01:48Z</time>
    </trkpt>
    <trkpt lat="50.9611051" lon="6.8933201">
      <time>2023-09-08T08:01:51Z</time>
    </trkpt>
    <trkpt lat="50.9611369" lon="6.8932560">
      <time>2023-09-08T08:01:52Z</time>
    </trkpt>
    <trkpt lat="50.9611754" lon="6.8931793">
      <time>2023-09-08T08:01:53Z</time>
    </trkpt>
    <trkpt lat="50.9612552" lon="6.8930288">
      <time>2023-09-08T08:01:56Z</time>
    </trkpt>
    <trkpt lat="50.9612832" lon="6.8928961">
      <time>2023-09-08T08:02:00Z</time>
    </trkpt>
    <trkpt lat="50.9611473" lon="6.8927440">
      <time>2023-09-08T08:02:05Z</time>
    </trkpt>
    <trkpt lat="50.9611037" lon="6.8925389">
      <time>2023-09-08T08:02:08Z</time>
    </trkpt>
    <trkpt lat="50.9610808" lon="6.8924790">
      <time>2023-09-08T08:02:09Z</time>
    </trkpt>
    <trkpt lat="50.9610391" lon="6.8924189">
      <time>2023-09-08T08:02:10Z</time>
    </trkpt>
    <trkpt lat="50.9609169" lon="6.8922296">
      <time>2023-09-08T08:02:13Z</time>
    </trkpt>
    <trkpt lat="50.9605915" lon="6.8916224">
      <time>2023-09-08T08:02:22Z</time>
    </trkpt>
    <trkpt lat="50.9603050" lon="6.8910386">
      <time>2023-09-08T08:02:31Z</time>
    </trkpt>
    <trkpt lat="50.9602781" lon="6.8909695">
      <time>2023-09-08T08:02:32Z</time>
    </trkpt>
    <trkpt lat="50.9602289" lon="6.8908144">
      <time>2023-09-08T08:02:34Z</time>
    </trkpt>
    <trkpt lat="50.9601946" lon="6.8906494">
      <time>2023-09-08T08:02:36Z</time>
    </trkpt>
    <trkpt lat="50.9601667" lon="6.8904951">
      <time>2023-09-08T08:02:38Z</time>
    </trkpt>
    <trkpt lat="50.9601377" lon="6.8902151">
      <time>2023-09-08T08:02:41Z</time>
    </trkpt>
    <trkpt lat="50.9601467" lon="6.8901074">
      <time>2023-09-08T08:02:42Z</time>
    </trkpt>
    <trkpt lat="50.9602166" lon="6.8893704">
      <time>2023-09-08T08:02:49Z</time>
    </trkpt>
    <trkpt lat="50.9603703" lon="6.8881145">
      <time>2023-09-08T08:03:02Z</time>
    </trkpt>
    <trkpt lat="50.9603875" lon="6.8878849">
      <time>2023-09-08T08:03:05Z</time>
    </trkpt>
    <trkpt lat="50.9603535" lon="6.8876465">
      <time>2023-09-08T08:03:08Z</time>
    </trkpt>
    <trkpt lat="50.9603140" lon="6.8874914">
      <time>2023-09-08T08:03:10Z</time>
    </trkpt>
    <trkpt lat="50.9602464" lon="6.8870187">
      <time>2023-09-08T08:03:16Z</time>
    </trkpt>
    <trkpt lat="50.9600991" lon="6.8864970">
      <time>2023-09-08T08:03:23Z</time>
    </trkpt>
    <trkpt lat="50.9599504" lon="6.8861254">
      <time>2023-09-08T08:03:29Z</time>
    </trkpt>
    <trkpt lat="50.9598951" lon="6.8859543">
      <time>2023-09-08T08:03:33Z</time>
    </trkpt>
    <trkpt lat="50.9599317" lon="6.8858978">
      <time>2023-09-08T08:03:35Z</time>
    </trkpt>
    <trkpt lat="50.9599673" lon="6.8858893">
      <time>2023-09-08T08:03:36Z</time>
    </trkpt>
    <trkpt lat="50.9601685" lon="6.8858231">
      <time>2023-09-08T08:03:42Z</time>
    </trkpt>
    <trkpt lat="50.9603595" lon="6.8857651">
      <time>2023-09-08T08:03:48Z</time>
    </trkpt>
    <trkpt lat="50.9603928" lon="6.8857501">
      <time>2023-09-08T08:03:49Z</time>
    </trkpt>
    <trkpt lat="50.9607170" lon="6.8856773">
      <time>2023-09-08T08:03:56Z</time>
    </trkpt>
    <trkpt lat="50.9610545" lon="6.8856169">
      <time>2023-09-08T08:04:03Z</time>
    </trkpt>
    <trkpt lat="50.9611627" lon="6.8855905">
      <time>2023-09-08T08:04:05Z</time>
    </trkpt>
    <trkpt lat="50.9612989" lon="6.8855111">
      <time>2023-09-08T08:04:08Z</time>
    </trkpt>
    <trkpt lat="50.9613409" lon="6.8854771">
      <time>2023-09-08T08:04:09Z</time>
    </trkpt>
    <trkpt lat="50.9614642" lon="6.8853556">
      <time>2023-09-08T08:04:12Z</time>
    </trkpt>
    <trkpt lat="50.9616233" lon="6.8851840">
      <time>2023-09-08T08:04:16Z</time>
    </trkpt>
    <trkpt lat="50.9617066" lon="6.8851232">
      <time>2023-09-08T08:04:18Z</time>
    </trkpt>
    <trkpt lat="50.9618787" lon="6.8850483">
      <time>2023-09-08T08:04:22Z</time>
    </trkpt>
    <trkpt lat="50.9619721" lon="6.8849327">
      <time>2023-09-08T08:04:25Z</time>
    </trkpt>
    <trkpt lat="50.9619842" lon="6.8848675">
      <time>2023-09-08T08:04:26Z</time>
    </trkpt>
    <trkpt lat="50.9620004" lon="6.8846539">
      <time>2023-09-08T08:04:29Z</time>
    </trkpt>
    <trkpt lat="50.9620341" lon="6.8843846">
      <time>2023-09-08T08:04:33Z</time>
    </trkpt>
    <trkpt lat="50.9620563" lon="6.8842395">
      <time>2023-09-08T08:04:35Z</time>
    </trkpt>
    <trkpt lat="50.9621124" lon="6.8838754">
      <time>2023-09-08T08:04:39Z</time>
    </trkpt>
    <trkpt lat="50.9621261" lon="6.8837961">
      <time>2023-09-08T08:04:40Z</time>
    </trkpt>
    <trkpt lat="50.9621563" lon="6.8835426">
      <time>2023-09-08T08:04:43Z</time>
    </trkpt>
    <trkpt lat="50.9621686" lon="6.8834525">
      <time>2023-09-08T08:04:44Z</time>
    </trkpt>
    <trkpt lat="50.9622183" lon="6.8831511">
      <time>2023-09-08T08:04:48Z</time>
    </trkpt>
    <trkpt lat="50.9622038" lon="6.8830745">
      <time>2023-09-08T08:04:49Z</time>
    </trkpt>
    <trkpt lat="50.9622048" lon="6.8828154">
      <time>2023-09-08T08:04:52Z</time>
    </trkpt>
    <trkpt lat="50.9622154" lon="6.8827488">
      <time>2023-09-08T08:04:53Z</time>
    </trkpt>
    <trkpt lat="50.9622717" lon="6.8824219">
      <time>2023-09-08T08:04:57Z</time>
    </trkpt>
    <trkpt lat="50.9623311" lon="6.8821985">
      <time>2023-09-08T08:05:00Z</time>
    </trkpt>
    <trkpt lat="50.9623745" lon="6.8819861">
      <time>2023-09-08T08:05:03Z</time>
    </trkpt>
    <trkpt lat="50.9624680" lon="6.8814023">
      <time>2023-09-08T08:05:10Z</time>
    </trkpt>
    <trkpt lat="50.9624964" lon="6.8812549">
      <time>2023-09-08T08:05:12Z</time>
    </trkpt>
    <trkpt lat="50.9625895" lon="6.8806513">
      <time>2023-09-08T08:05:20Z</time>
    </trkpt>
    <trkpt lat="50.9626939" lon="6.8799734">
      <time>2023-09-08T08:05:30Z</time>
    </trkpt>
    <trkpt lat="50.9627423" lon="6.8796971">
      <time>2023-09-08T08:05:34Z</time>
    </trkpt>
    <trkpt lat="50.9627691" lon="6.8795660">
      <time>2023-09-08T08:05:36Z</time>
    </trkpt>
    <trkpt lat="50.9627883" lon="6.8794267">
      <time>2023-09-08T08:05:38Z</time>
    </trkpt>
    <trkpt lat="50.9627957" lon="6.8793538">
      <time>2023-09-08T08:05:39Z</time>
    </trkpt>
    <trkpt lat="50.9628032" lon="6.8792831">
      <time>2023-09-08T08:05:40Z</time>
    </trkpt>
    <trkpt lat="50.9628290" lon="6.8791510">
      <time>2023-09-08T08:05:42Z</time>
    </trkpt>
    <trkpt lat="50.9628491" lon="6.8790938">
      <time>2023-09-08T08:05:43Z</time>
    </trkpt>
    <trkpt lat="50.9628685" lon="6.8790336">
      <time>2023-09-08T08:05:44Z</time>
    </trkpt>
    <trkpt lat="50.9629353" lon="6.8788709">
      <time>2023-09-08T08:05:47Z</time>
    </trkpt>
    <trkpt lat="50.9629601" lon="6.8788387">
      <time>2023-09-08T08:05:48Z</time>
    </trkpt>
    <trkpt lat="50.9632095" lon="6.8784762">
      <time>2023-09-08T08:05:55Z</time>
    </trkpt>
    <trkpt lat="50.9632876" lon="6.8783759">
      <time>2023-09-08T08:05:57Z</time>
    </trkpt>
    <trkpt lat="50.9633753" lon="6.8783072">
      <time>2023-09-08T08:05:59Z</time>
    </trkpt>
    <trkpt lat="50.9634239" lon="6.8782850">
      <time>2023-09-08T08:06:00Z</time>
    </trkpt>
    <trkpt lat="50.9634662" lon="6.8782554">
      <time>2023-09-08T08:06:01Z</time>
    </trkpt>
    <trkpt lat="50.9635339" lon="6.8781886">
      <time>2023-09-08T08:06:03Z</time>
    </trkpt>
    <trkpt lat="50.9635631" lon="6.8781577">
      <time>2023-09-08T08:06:04Z</time>
    </trkpt>
    <trkpt lat="50.9637181" lon="6.8780402">
      <time>2023-09-08T08:06:09Z</time>
    </trkpt>
    <trkpt lat="50.9637250" lon="6.8780327">
      <time>2023-09-08T08:06:10Z</time>
    </trkpt>
    <trkpt lat="50.9637636" lon="6.8779640">
      <time>2023-09-08T08:06:13Z</time>
    </trkpt>
    <trkpt lat="50.9638090" lon="6.8778673">
      <time>2023-09-08T08:06:16Z</time>
    </trkpt>
    <trkpt lat="50.9638470" lon="6.8777730">
      <time>2023-09-08T08:06:18Z</time>
    </trkpt>
    <trkpt lat="50.9639329" lon="6.8775683">
      <time>2023-09-08T08:06:22Z</time>
    </trkpt>
    <trkpt lat="50.9639513" lon="6.8775211">
      <time>2023-09-08T08:06:23Z</time>
    </trkpt>
    <trkpt lat="50.9640284" lon="6.8772158">
      <time>2023-09-08T08:06:28Z</time>
    </trkpt>
    <trkpt lat="50.9640466" lon="6.8771586">
      <time>2023-09-08T08:06:29Z</time>
    </trkpt>
    <trkpt lat="50.9640781" lon="6.8770436">
      <time>2023-09-08T08:06:31Z</time>
    </trkpt>
    <trkpt lat="50.9641323" lon="6.8768018">
      <time>2023-09-08T08:06:35Z</time>
    </trkpt>
    <trkpt lat="50.9641704" lon="6.8765210">
      <time>2023-09-08T08:06:41Z</time>
    </trkpt>
    <trkpt lat="50.9640984" lon="6.8763092">
      <time>2023-09-08T08:06:46Z</time>
    </trkpt>
    <trkpt lat="50.9640757" lon="6.8762897">
      <time>2023-09-08T08:06:47Z</time>
    </trkpt>
    <trkpt lat="50.9640485" lon="6.8762844">
      <time>2023-09-08T08:06:48Z</time>
    </trkpt>
    <trkpt lat="50.9639872" lon="6.8762951">
      <time>2023-09-08T08:06:50Z</time>
    </trkpt>
    <trkpt lat="50.9638094" lon="6.8762116">
      <time>2023-09-08T08:06:56Z</time>
    </trkpt>
    <trkpt lat="50.9637883" lon="6.8761845">
      <time>2023-09-08T08:06:57Z</time>
    </trkpt>
    <trkpt lat="50.9637418" lon="6.8761326">
      <time>2023-09-08T08:06:59Z</time>
    </trkpt>
    <trkpt lat="50.9637146" lon="6.8761271">
      <time>2023-09-08T08:07:00Z</time>
    </trkpt>
    <trkpt lat="50.9634936" lon="6.8761227">
      <time>2023-09-08T08:07:07Z</time>
    </trkpt>
    <trkpt lat="50.9633619" lon="6.8760922">
      <time>2023-09-08T08:07:13Z</time>
    </trkpt>
    <trkpt lat="50.9633619" lon="6.8760922">
      <time>2023-09-08T08:07:14Z</time>
    </trkpt>
  </trkseg></trk>
</gpx>
