<?xml version="1.0" encoding="UTF-8"?>
<gpx version="1.1" creator="Diary FIT converter" xmlns="http://www.topografix.com/GPX/1/1">
  <trk><name>Cycling</name><trkseg>
    <trkpt lat="50.8973409" lon="7.0078608">
      <time>2022-05-28T17:10:10Z</time>
    </trkpt>
    <trkpt lat="50.8973286" lon="7.0076951">
      <time>2022-05-28T17:10:11Z</time>
    </trkpt>
    <trkpt lat="50.8973766" lon="7.0074451">
      <time>2022-05-28T17:10:13Z</time>
    </trkpt>
    <trkpt lat="50.8974475" lon="7.0068705">
      <time>2022-05-28T17:10:18Z</time>
    </trkpt>
    <trkpt lat="50.8975512" lon="7.0060639">
      <time>2022-05-28T17:10:25Z</time>
    </trkpt>
    <trkpt lat="50.8975773" lon="7.0058472">
      <time>2022-05-28T17:10:27Z</time>
    </trkpt>
    <trkpt lat="50.8976358" lon="7.0053825">
      <time>2022-05-28T17:10:31Z</time>
    </trkpt>
    <trkpt lat="50.8977019" lon="7.0045347">
      <time>2022-05-28T17:10:38Z</time>
    </trkpt>
    <trkpt lat="50.8977108" lon="7.0044398">
      <time>2022-05-28T17:10:39Z</time>
    </trkpt>
    <trkpt lat="50.8976918" lon="7.0042900">
      <time>2022-05-28T17:10:41Z</time>
    </trkpt>
    <trkpt lat="50.8976510" lon="7.0042351">
      <time>2022-05-28T17:10:43Z</time>
    </trkpt>
    <trkpt lat="50.8974619" lon="7.0041970">
      <time>2022-05-28T17:10:47Z</time>
    </trkpt>
    <trkpt lat="50.8974067" lon="7.0041795">
      <time>2022-05-28T17:10:48Z</time>
    </trkpt>
    <trkpt lat="50.8973017" lon="7.0041138">
      <time>2022-05-28T17:10:50Z</time>
    </trkpt>
    <trkpt lat="50.8972623" lon="7.0040561">
      <time>2022-05-28T17:10:51Z</time>
    </trkpt>
    <trkpt lat="50.8972393" lon="7.0039730">
      <time>2022-05-28T17:10:52Z</time>
    </trkpt>
    <trkpt lat="50.8972203" lon="7.0037952">
      <time>2022-05-28T17:10:54Z</time>
    </trkpt>
    <trkpt lat="50.8972521" lon="7.0036049">
      <time>2022-05-28T17:10:56Z</time>
    </trkpt>
    <trkpt lat="50.8972716" lon="7.0034983">
      <time>2022-05-28T17:10:57Z</time>
    </trkpt>
    <trkpt lat="50.8973627" lon="7.0029561">
      <time>2022-05-28T17:11:02Z</time>
    </trkpt>
    <trkpt lat="50.8974279" lon="7.0027526">
      <time>2022-05-28T17:11:04Z</time>
    </trkpt>
    <trkpt lat="50.8974813" lon="7.0025504">
      <time>2022-05-28T17:11:06Z</time>
    </trkpt>
    <trkpt lat="50.8975393" lon="7.0022294">
      <time>2022-05-28T17:11:09Z</time>
    </trkpt>
    <trkpt lat="50.8975739" lon="7.0020138">
      <time>2022-05-28T17:11:11Z</time>
    </trkpt>
    <trkpt lat="50.8976359" lon="7.0017360">
      <time>2022-05-28T17:11:14Z</time>
    </trkpt>
    <trkpt lat="50.8976755" lon="7.0016683">
      <time>2022-05-28T17:11:15Z</time>
    </trkpt>
    <trkpt lat="50.8977636" lon="7.0015683">
      <time>2022-05-28T17:11:17Z</time>
    </trkpt>
    <trkpt lat="50.8978238" lon="7.0014575">
      <time>2022-05-28T17:11:19Z</time>
    </trkpt>
    <trkpt lat="50.8978737" lon="7.0011926">
      <time>2022-05-28T17:11:24Z</time>
    </trkpt>
    <trkpt lat="50.8979294" lon="7.0008262">
      <time>2022-05-28T17:11:30Z</time>
    </trkpt>
    <trkpt lat="50.8979593" lon="7.0005648">
      <time>2022-05-28T17:11:34Z</time>
    </trkpt>
    <trkpt lat="50.8979752" lon="7.0005015">
      <time>2022-05-28T17:11:35Z</time>
    </trkpt>
    <trkpt lat="50.8980026" lon="7.0004520">
      <time>2022-05-28T17:11:36Z</time>
    </trkpt>
    <trkpt lat="50.8980863" lon="7.0004131">
      <time>2022-05-28T17:11:38Z</time>
    </trkpt>
    <trkpt lat="50.8981725" lon="7.0004645">
      <time>2022-05-28T17:11:40Z</time>
    </trkpt>
    <trkpt lat="50.8983524" lon="7.0005859">
      <time>2022-05-28T17:11:44Z</time>
    </trkpt>
    <trkpt lat="50.8983982" lon="7.0005947">
      <time>2022-05-28T17:11:45Z</time>
    </trkpt>
    <trkpt lat="50.8984448" lon="7.0005762">
      <time>2022-05-28T17:11:46Z</time>
    </trkpt>
    <trkpt lat="50.8985058" lon="7.0004671">
      <time>2022-05-28T17:11:48Z</time>
    </trkpt>
    <trkpt lat="50.8985314" lon="7.0002997">
      <time>2022-05-28T17:11:50Z</time>
    </trkpt>
    <trkpt lat="50.8985550" lon="7.0001344">
      <time>2022-05-28T17:11:52Z</time>
    </trkpt>
    <trkpt lat="50.8987100" lon="6.9995997">
      <time>2022-05-28T17:11:59Z</time>
    </trkpt>
    <trkpt lat="50.8987943" lon="6.9993288">
      <time>2022-05-28T17:12:03Z</time>
    </trkpt>
    <trkpt lat="50.8988472" lon="6.9991881">
      <time>2022-05-28T17:12:05Z</time>
    </trkpt>
    <trkpt lat="50.8990955" lon="6.9985682">
      <time>2022-05-28T17:12:13Z</time>
    </trkpt>
    <trkpt lat="50.8992136" lon="6.9982651">
      <time>2022-05-28T17:12:17Z</time>
    </trkpt>
    <trkpt lat="50.8992813" lon="6.9981313">
      <time>2022-05-28T17:12:19Z</time>
    </trkpt>
    <trkpt lat="50.8994044" lon="6.9978117">
      <time>2022-05-28T17:12:23Z</time>
    </trkpt>
    <trkpt lat="50.8994662" lon="6.9976451">
      <time>2022-05-28T17:12:25Z</time>
    </trkpt>
    <trkpt lat="50.8995290" lon="6.9974808">
      <time>2022-05-28T17:12:27Z</time>
    </trkpt>
    <trkpt lat="50.8996316" lon="6.9972322">
      <time>2022-05-28T17:12:30Z</time>
    </trkpt>
    <trkpt lat="50.8998062" lon="6.9967415">
      <time>2022-05-28T17:12:36Z</time>
    </trkpt>
    <trkpt lat="50.8998408" lon="6.9966663">
      <time>2022-05-28T17:12:37Z</time>
    </trkpt>
    <trkpt lat="50.8998704" lon="6.9965855">
      <time>2022-05-28T17:12:38Z</time>
    </trkpt>
    <trkpt lat="50.8999458" lon="6.9963338">
      <time>2022-05-28T17:12:41Z</time>
    </trkpt>
    <trkpt lat="50.9001200" lon="6.9958751">
      <time>2022-05-28T17:12:47Z</time>
    </trkpt>
    <trkpt lat="50.9001827" lon="6.9957227">
      <time>2022-05-28T17:12:49Z</time>
    </trkpt>
    <trkpt lat="50.9003592" lon="6.9953615">
      <time>2022-05-28T17:12:54Z</time>
    </trkpt>
    <trkpt lat="50.9004316" lon="6.9952160">
      <time>2022-05-28T17:12:56Z</time>
    </trkpt>
    <trkpt lat="50.9007470" lon="6.9944842">
      <time>2022-05-28T17:13:06Z</time>
    </trkpt>
    <trkpt lat="50.9008170" lon="6.9943457">
      <time>2022-05-28T17:13:08Z</time>
    </trkpt>
    <trkpt lat="50.9008906" lon="6.9941949">
      <time>2022-05-28T17:13:10Z</time>
    </trkpt>
    <trkpt lat="50.9009473" lon="6.9940493">
      <time>2022-05-28T17:13:12Z</time>
    </trkpt>
    <trkpt lat="50.9009890" lon="6.9938810">
      <time>2022-05-28T17:13:14Z</time>
    </trkpt>
    <trkpt lat="50.9010236" lon="6.9938133">
      <time>2022-05-28T17:13:15Z</time>
    </trkpt>
    <trkpt lat="50.9011071" lon="6.9936972">
      <time>2022-05-28T17:13:17Z</time>
    </trkpt>
    <trkpt lat="50.9011892" lon="6.9935716">
      <time>2022-05-28T17:13:19Z</time>
    </trkpt>
    <trkpt lat="50.9012267" lon="6.9935042">
      <time>2022-05-28T17:13:20Z</time>
    </trkpt>
    <trkpt lat="50.9014166" lon="6.9931458">
      <time>2022-05-28T17:13:25Z</time>
    </trkpt>
    <trkpt lat="50.9014757" lon="6.9930181">
      <time>2022-05-28T17:13:27Z</time>
    </trkpt>
    <trkpt lat="50.9015225" lon="6.9928880">
      <time>2022-05-28T17:13:29Z</time>
    </trkpt>
    <trkpt lat="50.9015969" lon="6.9926744">
      <time>2022-05-28T17:13:32Z</time>
    </trkpt>
    <trkpt lat="50.9016378" lon="6.9925967">
      <time>2022-05-28T17:13:33Z</time>
    </trkpt>
    <trkpt lat="50.9018626" lon="6.9922343">
      <time>2022-05-28T17:13:37Z</time>
    </trkpt>
    <trkpt lat="50.9019548" lon="6.9923145">
      <time>2022-05-28T17:13:39Z</time>
    </trkpt>
    <trkpt lat="50.9019949" lon="6.9923527">
      <time>2022-05-28T17:13:40Z</time>
    </trkpt>
    <trkpt lat="50.9020330" lon="6.9923990">
      <time>2022-05-28T17:13:41Z</time>
    </trkpt>
    <trkpt lat="50.9021368" lon="6.9925330">
      <time>2022-05-28T17:13:44Z</time>
    </trkpt>
    <trkpt lat="50.9021754" lon="6.9925671">
      <time>2022-05-28T17:13:45Z</time>
    </trkpt>
    <trkpt lat="50.9024579" lon="6.9928341">
      <time>2022-05-28T17:13:51Z</time>
    </trkpt>
    <trkpt lat="50.9025076" lon="6.9928811">
      <time>2022-05-28T17:13:52Z</time>
    </trkpt>
    <trkpt lat="50.9026058" lon="6.9929718">
      <time>2022-05-28T17:13:54Z</time>
    </trkpt>
    <trkpt lat="50.9026953" lon="6.9930734">
      <time>2022-05-28T17:13:56Z</time>
    </trkpt>
    <trkpt lat="50.9027865" lon="6.9931468">
      <time>2022-05-28T17:13:58Z</time>
    </trkpt>
    <trkpt lat="50.9028572" lon="6.9932806">
      <time>2022-05-28T17:14:00Z</time>
    </trkpt>
    <trkpt lat="50.9028796" lon="6.9933562">
      <time>2022-05-28T17:14:01Z</time>
    </trkpt>
    <trkpt lat="50.9029171" lon="6.9934734">
      <time>2022-05-28T17:14:03Z</time>
    </trkpt>
    <trkpt lat="50.9030297" lon="6.9936256">
      <time>2022-05-28T17:14:07Z</time>
    </trkpt>
    <trkpt lat="50.9030923" lon="6.9936998">
      <time>2022-05-28T17:14:10Z</time>
    </trkpt>
    <trkpt lat="50.9030983" lon="6.9937104">
      <time>2022-05-28T17:14:11Z</time>
    </trkpt>
    <trkpt lat="50.9031092" lon="6.9937495">
      <time>2022-05-28T17:14:13Z</time>
    </trkpt>
    <trkpt lat="50.9031092" lon="6.9937520">
      <time>2022-05-28T17:14:14Z</time>
    </trkpt>
    <trkpt lat="50.9031092" lon="6.9937520">
      <time>2022-05-28T17:14:16Z</time>
    </trkpt>
    <trkpt lat="50.9033880" lon="6.9941121">
      <time>2022-05-28T17:14:43Z</time>
    </trkpt>
    <trkpt lat="50.9034206" lon="6.9941532">
      <time>2022-05-28T17:14:45Z</time>
    </trkpt>
    <trkpt lat="50.9034275" lon="6.9942101">
      <time>2022-05-28T17:14:49Z</time>
    </trkpt>
    <trkpt lat="50.9034063" lon="6.9942416">
      <time>2022-05-28T17:14:51Z</time>
    </trkpt>
    <trkpt lat="50.9033374" lon="6.9942193">
      <time>2022-05-28T17:14:57Z</time>
    </trkpt>
    <trkpt lat="50.9032672" lon="6.9941193">
      <time>2022-05-28T17:15:06Z</time>
    </trkpt>
    <trkpt lat="50.9032469" lon="6.9940916">
      <time>2022-05-28T17:15:09Z</time>
    </trkpt>
    <trkpt lat="50.9031876" lon="6.9940242">
      <time>2022-05-28T17:15:14Z</time>
    </trkpt>
    <trkpt lat="50.9031016" lon="6.9939607">
      <time>2022-05-28T17:15:22Z</time>
    </trkpt>
    <trkpt lat="50.9030847" lon="6.9939473">
      <time>2022-05-28T17:15:23Z</time>
    </trkpt>
    <trkpt lat="50.9029932" lon="6.9938348">
      <time>2022-05-28T17:15:32Z</time>
    </trkpt>
    <trkpt lat="50.9029426" lon="6.9937767">
      <time>2022-05-28T17:15:38Z</time>
    </trkpt>
    <trkpt lat="50.9027992" lon="6.9936711">
      <time>2022-05-28T17:15:44Z</time>
    </trkpt>
    <trkpt lat="50.9026835" lon="6.9935577">
      <time>2022-05-28T17:15:54Z</time>
    </trkpt>
    <trkpt lat="50.9026194" lon="6.9934735">
      <time>2022-05-28T17:16:03Z</time>
    </trkpt>
    <trkpt lat="50.9025200" lon="6.9933481">
      <time>2022-05-28T17:16:14Z</time>
    </trkpt>
    <trkpt lat="50.9024352" lon="6.9932330">
      <time>2022-05-28T17:16:23Z</time>
    </trkpt>
    <trkpt lat="50.9023964" lon="6.9931887">
      <time>2022-05-28T17:16:28Z</time>
    </trkpt>
    <trkpt lat="50.9023951" lon="6.9931851">
      <time>2022-05-28T17:16:30Z</time>
    </trkpt>
    <trkpt lat="50.9023292" lon="6.9931395">
      <time>2022-05-28T17:16:36Z</time>
    </trkpt>
    <trkpt lat="50.9022863" lon="6.9930951">
      <time>2022-05-28T17:16:38Z</time>
    </trkpt>
    <trkpt lat="50.9021284" lon="6.9929381">
      <time>2022-05-28T17:16:44Z</time>
    </trkpt>
    <trkpt lat="50.9019358" lon="6.9927492">
      <time>2022-05-28T17:16:50Z</time>
    </trkpt>
    <trkpt lat="50.9016376" lon="6.9924025">
      <time>2022-05-28T17:17:00Z</time>
    </trkpt>
    <trkpt lat="50.9015772" lon="6.9923259">
      <time>2022-05-28T17:17:02Z</time>
    </trkpt>
    <trkpt lat="50.9014190" lon="6.9921483">
      <time>2022-05-28T17:17:07Z</time>
    </trkpt>
    <trkpt lat="50.9012511" lon="6.9919680">
      <time>2022-05-28T17:17:12Z</time>
    </trkpt>
    <trkpt lat="50.9011782" lon="6.9918981">
      <time>2022-05-28T17:17:14Z</time>
    </trkpt>
    <trkpt lat="50.9011431" lon="6.9918574">
      <time>2022-05-28T17:17:15Z</time>
    </trkpt>
    <trkpt lat="50.9010750" lon="6.9917705">
      <time>2022-05-28T17:17:17Z</time>
    </trkpt>
    <trkpt lat="50.9010389" lon="6.9917297">
      <time>2022-05-28T17:17:18Z</time>
    </trkpt>
    <trkpt lat="50.9008945" lon="6.9915399">
      <time>2022-05-28T17:17:22Z</time>
    </trkpt>
    <trkpt lat="50.9007819" lon="6.9914117">
      <time>2022-05-28T17:17:25Z</time>
    </trkpt>
    <trkpt lat="50.9005922" lon="6.9911760">
      <time>2022-05-28T17:17:30Z</time>
    </trkpt>
    <trkpt lat="50.9004715" lon="6.9910332">
      <time>2022-05-28T17:17:33Z</time>
    </trkpt>
    <trkpt lat="50.9000937" lon="6.9906010">
      <time>2022-05-28T17:17:42Z</time>
    </trkpt>
    <trkpt lat="50.8996719" lon="6.9901258">
      <time>2022-05-28T17:17:52Z</time>
    </trkpt>
    <trkpt lat="50.8992568" lon="6.9896359">
      <time>2022-05-28T17:18:02Z</time>
    </trkpt>
    <trkpt lat="50.8990887" lon="6.9894238">
      <time>2022-05-28T17:18:06Z</time>
    </trkpt>
    <trkpt lat="50.8988747" lon="6.9891835">
      <time>2022-05-28T17:18:11Z</time>
    </trkpt>
    <trkpt lat="50.8987771" lon="6.9890777">
      <time>2022-05-28T17:18:13Z</time>
    </trkpt>
    <trkpt lat="50.8983661" lon="6.9886114">
      <time>2022-05-28T17:18:22Z</time>
    </trkpt>
    <trkpt lat="50.8980806" lon="6.9882785">
      <time>2022-05-28T17:18:29Z</time>
    </trkpt>
    <trkpt lat="50.8979988" lon="6.9881807">
      <time>2022-05-28T17:18:31Z</time>
    </trkpt>
    <trkpt lat="50.8977003" lon="6.9878364">
      <time>2022-05-28T17:18:38Z</time>
    </trkpt>
    <trkpt lat="50.8974446" lon="6.9874533">
      <time>2022-05-28T17:18:45Z</time>
    </trkpt>
    <trkpt lat="50.8973732" lon="6.9873533">
      <time>2022-05-28T17:18:47Z</time>
    </trkpt>
    <trkpt lat="50.8972197" lon="6.9871780">
      <time>2022-05-28T17:18:51Z</time>
    </trkpt>
    <trkpt lat="50.8971337" lon="6.9870919">
      <time>2022-05-28T17:18:53Z</time>
    </trkpt>
    <trkpt lat="50.8970577" lon="6.9870210">
      <time>2022-05-28T17:18:55Z</time>
    </trkpt>
    <trkpt lat="50.8970024" lon="6.9869784">
      <time>2022-05-28T17:18:57Z</time>
    </trkpt>
    <trkpt lat="50.8969623" lon="6.9869179">
      <time>2022-05-28T17:18:59Z</time>
    </trkpt>
    <trkpt lat="50.8969760" lon="6.9868138">
      <time>2022-05-28T17:19:01Z</time>
    </trkpt>
    <trkpt lat="50.8970475" lon="6.9867738">
      <time>2022-05-28T17:19:03Z</time>
    </trkpt>
    <trkpt lat="50.8970978" lon="6.9868034">
      <time>2022-05-28T17:19:04Z</time>
    </trkpt>
    <trkpt lat="50.8971455" lon="6.9868487">
      <time>2022-05-28T17:19:05Z</time>
    </trkpt>
    <trkpt lat="50.8972917" lon="6.9870099">
      <time>2022-05-28T17:19:08Z</time>
    </trkpt>
    <trkpt lat="50.8973483" lon="6.9870801">
      <time>2022-05-28T17:19:09Z</time>
    </trkpt>
    <trkpt lat="50.8974606" lon="6.9872016">
      <time>2022-05-28T17:19:11Z</time>
    </trkpt>
    <trkpt lat="50.8975491" lon="6.9873179">
      <time>2022-05-28T17:19:13Z</time>
    </trkpt>
    <trkpt lat="50.8976021" lon="6.9874357">
      <time>2022-05-28T17:19:15Z</time>
    </trkpt>
    <trkpt lat="50.8976295" lon="6.9874794">
      <time>2022-05-28T17:19:16Z</time>
    </trkpt>
    <trkpt lat="50.8976694" lon="6.9875154">
      <time>2022-05-28T17:19:17Z</time>
    </trkpt>
    <trkpt lat="50.8977743" lon="6.9875862">
      <time>2022-05-28T17:19:19Z</time>
    </trkpt>
    <trkpt lat="50.8978802" lon="6.9877379">
      <time>2022-05-28T17:19:21Z</time>
    </trkpt>
    <trkpt lat="50.8979802" lon="6.9878908">
      <time>2022-05-28T17:19:23Z</time>
    </trkpt>
    <trkpt lat="50.8980112" lon="6.9879524">
      <time>2022-05-28T17:19:24Z</time>
    </trkpt>
    <trkpt lat="50.8980571" lon="6.9880286">
      <time>2022-05-28T17:19:26Z</time>
    </trkpt>
    <trkpt lat="50.8980659" lon="6.9880501">
      <time>2022-05-28T17:19:29Z</time>
    </trkpt>
    <trkpt lat="50.8980915" lon="6.9880310">
      <time>2022-05-28T17:19:33Z</time>
    </trkpt>
    <trkpt lat="50.8981299" lon="6.9880304">
      <time>2022-05-28T17:19:35Z</time>
    </trkpt>
    <trkpt lat="50.8981720" lon="6.9879888">
      <time>2022-05-28T17:19:37Z</time>
    </trkpt>
    <trkpt lat="50.8982267" lon="6.9879907">
      <time>2022-05-28T17:19:39Z</time>
    </trkpt>
    <trkpt lat="50.8982576" lon="6.9879940">
      <time>2022-05-28T17:19:42Z</time>
    </trkpt>
    <trkpt lat="50.8983163" lon="6.9878950">
      <time>2022-05-28T17:19:46Z</time>
    </trkpt>
    <trkpt lat="50.8983709" lon="6.9878460">
      <time>2022-05-28T17:19:48Z</time>
    </trkpt>
    <trkpt lat="50.8985453" lon="6.9875998">
      <time>2022-05-28T17:19:54Z</time>
    </trkpt>
    <trkpt lat="50.8988227" lon="6.9871138">
      <time>2022-05-28T17:20:03Z</time>
    </trkpt>
    <trkpt lat="50.8990487" lon="6.9867936">
      <time>2022-05-28T17:20:10Z</time>
    </trkpt>
    <trkpt lat="50.8992648" lon="6.9864703">
      <time>2022-05-28T17:20:17Z</time>
    </trkpt>
    <trkpt lat="50.8993026" lon="6.9864314">
      <time>2022-05-28T17:20:18Z</time>
    </trkpt>
    <trkpt lat="50.8994590" lon="6.9861829">
      <time>2022-05-28T17:20:23Z</time>
    </trkpt>
    <trkpt lat="50.8995342" lon="6.9860830">
      <time>2022-05-28T17:20:25Z</time>
    </trkpt>
    <trkpt lat="50.8995723" lon="6.9860300">
      <time>2022-05-28T17:20:26Z</time>
    </trkpt>
    <trkpt lat="50.8996647" lon="6.9858595">
      <time>2022-05-28T17:20:29Z</time>
    </trkpt>
    <trkpt lat="50.8997324" lon="6.9857544">
      <time>2022-05-28T17:20:31Z</time>
    </trkpt>
    <trkpt lat="50.8998035" lon="6.9856562">
      <time>2022-05-28T17:20:33Z</time>
    </trkpt>
    <trkpt lat="50.8998975" lon="6.9854997">
      <time>2022-05-28T17:20:36Z</time>
    </trkpt>
    <trkpt lat="50.9000394" lon="6.9853071">
      <time>2022-05-28T17:20:40Z</time>
    </trkpt>
    <trkpt lat="50.9001042" lon="6.9852123">
      <time>2022-05-28T17:20:42Z</time>
    </trkpt>
    <trkpt lat="50.9001327" lon="6.9851620">
      <time>2022-05-28T17:20:43Z</time>
    </trkpt>
    <trkpt lat="50.9002222" lon="6.9850502">
      <time>2022-05-28T17:20:46Z</time>
    </trkpt>
    <trkpt lat="50.9002952" lon="6.9850142">
      <time>2022-05-28T17:20:48Z</time>
    </trkpt>
    <trkpt lat="50.9004198" lon="6.9849089">
      <time>2022-05-28T17:20:53Z</time>
    </trkpt>
    <trkpt lat="50.9004530" lon="6.9848480">
      <time>2022-05-28T17:20:57Z</time>
    </trkpt>
    <trkpt lat="50.9004536" lon="6.9848372">
      <time>2022-05-28T17:20:58Z</time>
    </trkpt>
    <trkpt lat="50.9004459" lon="6.9848310">
      <time>2022-05-28T17:20:59Z</time>
    </trkpt>
    <trkpt lat="50.9004418" lon="6.9848272">
      <time>2022-05-28T17:21:02Z</time>
    </trkpt>
    <trkpt lat="50.9004123" lon="6.9847828">
      <time>2022-05-28T17:21:11Z</time>
    </trkpt>
    <trkpt lat="50.9003817" lon="6.9847248">
      <time>2022-05-28T17:21:14Z</time>
    </trkpt>
    <trkpt lat="50.9003498" lon="6.9846604">
      <time>2022-05-28T17:21:17Z</time>
    </trkpt>
    <trkpt lat="50.9003441" lon="6.9846437">
      <time>2022-05-28T17:21:19Z</time>
    </trkpt>
    <trkpt lat="50.9003441" lon="6.9846437">
      <time>2022-05-28T17:21:21Z</time>
    </trkpt>
    <trkpt lat="50.9003394" lon="6.9845829">
      <time>2022-05-28T17:21:35Z</time>
    </trkpt>
    <trkpt lat="50.9003337" lon="6.9845593">
      <time>2022-05-28T17:21:36Z</time>
    </trkpt>
    <trkpt lat="50.9002924" lon="6.9845434">
      <time>2022-05-28T17:21:39Z</time>
    </trkpt>
    <trkpt lat="50.9002757" lon="6.9845467">
      <time>2022-05-28T17:21:40Z</time>
    </trkpt>
    <trkpt lat="50.9002594" lon="6.9845430">
      <time>2022-05-28T17:21:41Z</time>
    </trkpt>
    <trkpt lat="50.9002428" lon="6.9845259">
      <time>2022-05-28T17:21:43Z</time>
    </trkpt>
    <trkpt lat="50.9002373" lon="6.9845208">
      <time>2022-05-28T17:21:45Z</time>
    </trkpt>
    <trkpt lat="50.9002241" lon="6.9845022">
      <time>2022-05-28T17:21:50Z</time>
    </trkpt>
    <trkpt lat="50.9002241" lon="6.9845022">
      <time>2022-05-28T17:21:51Z</time>
    </trkpt>
    <trkpt lat="50.9002539" lon="6.9844717">
      <time>2022-05-28T17:24:09Z</time>
    </trkpt>
    <trkpt lat="50.9002682" lon="6.9844644">
      <time>2022-05-28T17:24:10Z</time>
    </trkpt>
    <trkpt lat="50.9002945" lon="6.9844753">
      <time>2022-05-28T17:24:12Z</time>
    </trkpt>
    <trkpt lat="50.9003226" lon="6.9845457">
      <time>2022-05-28T17:24:14Z</time>
    </trkpt>
    <trkpt lat="50.9004028" lon="6.9847200">
      <time>2022-05-28T17:24:19Z</time>
    </trkpt>
    <trkpt lat="50.9004890" lon="6.9849065">
      <time>2022-05-28T17:24:24Z</time>
    </trkpt>
    <trkpt lat="50.9005153" lon="6.9849312">
      <time>2022-05-28T17:24:25Z</time>
    </trkpt>
    <trkpt lat="50.9005809" lon="6.9849078">
      <time>2022-05-28T17:24:27Z</time>
    </trkpt>
    <trkpt lat="50.9007639" lon="6.9847059">
      <time>2022-05-28T17:24:34Z</time>
    </trkpt>
    <trkpt lat="50.9009569" lon="6.9844879">
      <time>2022-05-28T17:24:40Z</time>
    </trkpt>
    <trkpt lat="50.9011861" lon="6.9841912">
      <time>2022-05-28T17:24:46Z</time>
    </trkpt>
    <trkpt lat="50.9013292" lon="6.9839876">
      <time>2022-05-28T17:24:50Z</time>
    </trkpt>
    <trkpt lat="50.9014421" lon="6.9838208">
      <time>2022-05-28T17:24:53Z</time>
    </trkpt>
    <trkpt lat="50.9014812" lon="6.9837706">
      <time>2022-05-28T17:24:54Z</time>
    </trkpt>
    <trkpt lat="50.9015989" lon="6.9836110">
      <time>2022-05-28T17:24:57Z</time>
    </trkpt>
    <trkpt lat="50.9016363" lon="6.9835615">
      <time>2022-05-28T17:24:58Z</time>
    </trkpt>
    <trkpt lat="50.9017128" lon="6.9834569">
      <time>2022-05-28T17:25:00Z</time>
    </trkpt>
    <trkpt lat="50.9018546" lon="6.9832805">
      <time>2022-05-28T17:25:04Z</time>
    </trkpt>
    <trkpt lat="50.9018798" lon="6.9832418">
      <time>2022-05-28T17:25:05Z</time>
    </trkpt>
    <trkpt lat="50.9020983" lon="6.9830157">
      <time>2022-05-28T17:25:11Z</time>
    </trkpt>
    <trkpt lat="50.9021936" lon="6.9828829">
      <time>2022-05-28T17:25:14Z</time>
    </trkpt>
    <trkpt lat="50.9022853" lon="6.9827511">
      <time>2022-05-28T17:25:17Z</time>
    </trkpt>
    <trkpt lat="50.9024533" lon="6.9825227">
      <time>2022-05-28T17:25:22Z</time>
    </trkpt>
    <trkpt lat="50.9027625" lon="6.9821298">
      <time>2022-05-28T17:25:31Z</time>
    </trkpt>
    <trkpt lat="50.9029394" lon="6.9818995">
      <time>2022-05-28T17:25:36Z</time>
    </trkpt>
    <trkpt lat="50.9030068" lon="6.9818197">
      <time>2022-05-28T17:25:38Z</time>
    </trkpt>
    <trkpt lat="50.9030863" lon="6.9817526">
      <time>2022-05-28T17:25:40Z</time>
    </trkpt>
    <trkpt lat="50.9031679" lon="6.9816919">
      <time>2022-05-28T17:25:42Z</time>
    </trkpt>
    <trkpt lat="50.9032747" lon="6.9815781">
      <time>2022-05-28T17:25:45Z</time>
    </trkpt>
    <trkpt lat="50.9035776" lon="6.9812556">
      <time>2022-05-28T17:25:53Z</time>
    </trkpt>
    <trkpt lat="50.9037321" lon="6.9810828">
      <time>2022-05-28T17:25:58Z</time>
    </trkpt>
    <trkpt lat="50.9039356" lon="6.9808520">
      <time>2022-05-28T17:26:04Z</time>
    </trkpt>
    <trkpt lat="50.9041739" lon="6.9805564">
      <time>2022-05-28T17:26:12Z</time>
    </trkpt>
    <trkpt lat="50.9045029" lon="6.9801900">
      <time>2022-05-28T17:26:22Z</time>
    </trkpt>
    <trkpt lat="50.9046124" lon="6.9800965">
      <time>2022-05-28T17:26:25Z</time>
    </trkpt>
    <trkpt lat="50.9047381" lon="6.9799682">
      <time>2022-05-28T17:26:28Z</time>
    </trkpt>
    <trkpt lat="50.9047806" lon="6.9799230">
      <time>2022-05-28T17:26:29Z</time>
    </trkpt>
    <trkpt lat="50.9049461" lon="6.9797435">
      <time>2022-05-28T17:26:33Z</time>
    </trkpt>
    <trkpt lat="50.9050307" lon="6.9796477">
      <time>2022-05-28T17:26:35Z</time>
    </trkpt>
    <trkpt lat="50.9050815" lon="6.9795829">
      <time>2022-05-28T17:26:36Z</time>
    </trkpt>
    <trkpt lat="50.9053576" lon="6.9793151">
      <time>2022-05-28T17:26:42Z</time>
    </trkpt>
    <trkpt lat="50.9054386" lon="6.9792230">
      <time>2022-05-28T17:26:44Z</time>
    </trkpt>
    <trkpt lat="50.9057355" lon="6.9789231">
      <time>2022-05-28T17:26:51Z</time>
    </trkpt>
    <trkpt lat="50.9060795" lon="6.9785775">
      <time>2022-05-28T17:26:59Z</time>
    </trkpt>
    <trkpt lat="50.9063803" lon="6.9783473">
      <time>2022-05-28T17:27:06Z</time>
    </trkpt>
    <trkpt lat="50.9066001" lon="6.9781366">
      <time>2022-05-28T17:27:11Z</time>
    </trkpt>
    <trkpt lat="50.9066891" lon="6.9780486">
      <time>2022-05-28T17:27:13Z</time>
    </trkpt>
    <trkpt lat="50.9070329" lon="6.9777131">
      <time>2022-05-28T17:27:21Z</time>
    </trkpt>
    <trkpt lat="50.9070754" lon="6.9776743">
      <time>2022-05-28T17:27:22Z</time>
    </trkpt>
    <trkpt lat="50.9073390" lon="6.9774330">
      <time>2022-05-28T17:27:28Z</time>
    </trkpt>
    <trkpt lat="50.9076850" lon="6.9771105">
      <time>2022-05-28T17:27:36Z</time>
    </trkpt>
    <trkpt lat="50.9077260" lon="6.9770722">
      <time>2022-05-28T17:27:37Z</time>
    </trkpt>
    <trkpt lat="50.9079093" lon="6.9768961">
      <time>2022-05-28T17:27:41Z</time>
    </trkpt>
    <trkpt lat="50.9082374" lon="6.9766018">
      <time>2022-05-28T17:27:47Z</time>
    </trkpt>
    <trkpt lat="50.9087183" lon="6.9762019">
      <time>2022-05-28T17:27:55Z</time>
    </trkpt>
    <trkpt lat="50.9088363" lon="6.9760955">
      <time>2022-05-28T17:27:57Z</time>
    </trkpt>
    <trkpt lat="50.9090211" lon="6.9759641">
      <time>2022-05-28T17:28:00Z</time>
    </trkpt>
    <trkpt lat="50.9091925" lon="6.9758282">
      <time>2022-05-28T17:28:03Z</time>
    </trkpt>
    <trkpt lat="50.9093049" lon="6.9757364">
      <time>2022-05-28T17:28:05Z</time>
    </trkpt>
    <trkpt lat="50.9093621" lon="6.9756888">
      <time>2022-05-28T17:28:06Z</time>
    </trkpt>
    <trkpt lat="50.9094183" lon="6.9756401">
      <time>2022-05-28T17:28:07Z</time>
    </trkpt>
    <trkpt lat="50.9094719" lon="6.9755885">
      <time>2022-05-28T17:28:08Z</time>
    </trkpt>
    <trkpt lat="50.9095257" lon="6.9755362">
      <time>2022-05-28T17:28:09Z</time>
    </trkpt>
    <trkpt lat="50.9096352" lon="6.9754245">
      <time>2022-05-28T17:28:11Z</time>
    </trkpt>
    <trkpt lat="50.9097553" lon="6.9753159">
      <time>2022-05-28T17:28:13Z</time>
    </trkpt>
    <trkpt lat="50.9101875" lon="6.9749487">
      <time>2022-05-28T17:28:20Z</time>
    </trkpt>
    <trkpt lat="50.9106962" lon="6.9745705">
      <time>2022-05-28T17:28:28Z</time>
    </trkpt>
    <trkpt lat="50.9112128" lon="6.9741214">
      <time>2022-05-28T17:28:37Z</time>
    </trkpt>
    <trkpt lat="50.9114322" lon="6.9739427">
      <time>2022-05-28T17:28:41Z</time>
    </trkpt>
    <trkpt lat="50.9115902" lon="6.9738068">
      <time>2022-05-28T17:28:44Z</time>
    </trkpt>
    <trkpt lat="50.9119214" lon="6.9735257">
      <time>2022-05-28T17:28:50Z</time>
    </trkpt>
    <trkpt lat="50.9121420" lon="6.9733325">
      <time>2022-05-28T17:28:54Z</time>
    </trkpt>
    <trkpt lat="50.9122568" lon="6.9732459">
      <time>2022-05-28T17:28:56Z</time>
    </trkpt>
    <trkpt lat="50.9126362" lon="6.9729187">
      <time>2022-05-28T17:29:03Z</time>
    </trkpt>
    <trkpt lat="50.9128161" lon="6.9727147">
      <time>2022-05-28T17:29:07Z</time>
    </trkpt>
    <trkpt lat="50.9128659" lon="6.9726770">
      <time>2022-05-28T17:29:08Z</time>
    </trkpt>
    <trkpt lat="50.9131107" lon="6.9725396">
      <time>2022-05-28T17:29:13Z</time>
    </trkpt>
    <trkpt lat="50.9132131" lon="6.9725366">
      <time>2022-05-28T17:29:15Z</time>
    </trkpt>
    <trkpt lat="50.9133090" lon="6.9724939">
      <time>2022-05-28T17:29:17Z</time>
    </trkpt>
    <trkpt lat="50.9135086" lon="6.9723983">
      <time>2022-05-28T17:29:21Z</time>
    </trkpt>
    <trkpt lat="50.9136562" lon="6.9723584">
      <time>2022-05-28T17:29:24Z</time>
    </trkpt>
    <trkpt lat="50.9138006" lon="6.9723098">
      <time>2022-05-28T17:29:27Z</time>
    </trkpt>
    <trkpt lat="50.9139079" lon="6.9722655">
      <time>2022-05-28T17:29:29Z</time>
    </trkpt>
    <trkpt lat="50.9139535" lon="6.9722474">
      <time>2022-05-28T17:29:30Z</time>
    </trkpt>
    <trkpt lat="50.9139847" lon="6.9722134">
      <time>2022-05-28T17:29:31Z</time>
    </trkpt>
    <trkpt lat="50.9140005" lon="6.9721535">
      <time>2022-05-28T17:29:33Z</time>
    </trkpt>
    <trkpt lat="50.9139907" lon="6.9720263">
      <time>2022-05-28T17:29:36Z</time>
    </trkpt>
    <trkpt lat="50.9140297" lon="6.9719497">
      <time>2022-05-28T17:29:38Z</time>
    </trkpt>
    <trkpt lat="50.9142519" lon="6.9717484">
      <time>2022-05-28T17:29:45Z</time>
    </trkpt>
    <trkpt lat="50.9143011" lon="6.9717132">
      <time>2022-05-28T17:29:46Z</time>
    </trkpt>
    <trkpt lat="50.9145154" lon="6.9715813">
      <time>2022-05-28T17:29:51Z</time>
    </trkpt>
    <trkpt lat="50.9149046" lon="6.9713090">
      <time>2022-05-28T17:29:59Z</time>
    </trkpt>
    <trkpt lat="50.9151013" lon="6.9711730">
      <time>2022-05-28T17:30:03Z</time>
    </trkpt>
    <trkpt lat="50.9152971" lon="6.9710285">
      <time>2022-05-28T17:30:07Z</time>
    </trkpt>
    <trkpt lat="50.9154375" lon="6.9709271">
      <time>2022-05-28T17:30:10Z</time>
    </trkpt>
    <trkpt lat="50.9154832" lon="6.9708956">
      <time>2022-05-28T17:30:11Z</time>
    </trkpt>
    <trkpt lat="50.9155754" lon="6.9708384">
      <time>2022-05-28T17:30:13Z</time>
    </trkpt>
    <trkpt lat="50.9156319" lon="6.9708093">
      <time>2022-05-28T17:30:14Z</time>
    </trkpt>
    <trkpt lat="50.9158111" lon="6.9707057">
      <time>2022-05-28T17:30:18Z</time>
    </trkpt>
    <trkpt lat="50.9159489" lon="6.9706282">
      <time>2022-05-28T17:30:21Z</time>
    </trkpt>
    <trkpt lat="50.9160970" lon="6.9706103">
      <time>2022-05-28T17:30:24Z</time>
    </trkpt>
    <trkpt lat="50.9161706" lon="6.9705616">
      <time>2022-05-28T17:30:26Z</time>
    </trkpt>
    <trkpt lat="50.9162503" lon="6.9704799">
      <time>2022-05-28T17:30:28Z</time>
    </trkpt>
    <trkpt lat="50.9162945" lon="6.9704507">
      <time>2022-05-28T17:30:29Z</time>
    </trkpt>
    <trkpt lat="50.9163833" lon="6.9703951">
      <time>2022-05-28T17:30:31Z</time>
    </trkpt>
    <trkpt lat="50.9164257" lon="6.9703635">
      <time>2022-05-28T17:30:32Z</time>
    </trkpt>
    <trkpt lat="50.9165659" lon="6.9702535">
      <time>2022-05-28T17:30:35Z</time>
    </trkpt>
    <trkpt lat="50.9166790" lon="6.9702110">
      <time>2022-05-28T17:30:37Z</time>
    </trkpt>
    <trkpt lat="50.9167778" lon="6.9702030">
      <time>2022-05-28T17:30:39Z</time>
    </trkpt>
    <trkpt lat="50.9169284" lon="6.9701446">
      <time>2022-05-28T17:30:42Z</time>
    </trkpt>
    <trkpt lat="50.9169794" lon="6.9701140">
      <time>2022-05-28T17:30:43Z</time>
    </trkpt>
    <trkpt lat="50.9172735" lon="6.9699186">
      <time>2022-05-28T17:30:49Z</time>
    </trkpt>
    <trkpt lat="50.9173320" lon="6.9698790">
      <time>2022-05-28T17:30:50Z</time>
    </trkpt>
    <trkpt lat="50.9176775" lon="6.9696890">
      <time>2022-05-28T17:30:57Z</time>
    </trkpt>
    <trkpt lat="50.9177721" lon="6.9696572">
      <time>2022-05-28T17:30:59Z</time>
    </trkpt>
    <trkpt lat="50.9180349" lon="6.9695401">
      <time>2022-05-28T17:31:04Z</time>
    </trkpt>
    <trkpt lat="50.9181445" lon="6.9694672">
      <time>2022-05-28T17:31:06Z</time>
    </trkpt>
    <trkpt lat="50.9184365" lon="6.9693014">
      <time>2022-05-28T17:31:12Z</time>
    </trkpt>
    <trkpt lat="50.9184845" lon="6.9692757">
      <time>2022-05-28T17:31:13Z</time>
    </trkpt>
    <trkpt lat="50.9189503" lon="6.9690207">
      <time>2022-05-28T17:31:22Z</time>
    </trkpt>
    <trkpt lat="50.9192059" lon="6.9688865">
      <time>2022-05-28T17:31:27Z</time>
    </trkpt>
    <trkpt lat="50.9193089" lon="6.9688343">
      <time>2022-05-28T17:31:29Z</time>
    </trkpt>
    <trkpt lat="50.9195100" lon="6.9687036">
      <time>2022-05-28T17:31:33Z</time>
    </trkpt>
    <trkpt lat="50.9196068" lon="6.9686448">
      <time>2022-05-28T17:31:35Z</time>
    </trkpt>
    <trkpt lat="50.9197925" lon="6.9685185">
      <time>2022-05-28T17:31:39Z</time>
    </trkpt>
    <trkpt lat="50.9199579" lon="6.9684429">
      <time>2022-05-28T17:31:42Z</time>
    </trkpt>
    <trkpt lat="50.9200514" lon="6.9684012">
      <time>2022-05-28T17:31:44Z</time>
    </trkpt>
    <trkpt lat="50.9202613" lon="6.9682971">
      <time>2022-05-28T17:31:48Z</time>
    </trkpt>
    <trkpt lat="50.9206852" lon="6.9681461">
      <time>2022-05-28T17:31:56Z</time>
    </trkpt>
    <trkpt lat="50.9210677" lon="6.9679509">
      <time>2022-05-28T17:32:04Z</time>
    </trkpt>
    <trkpt lat="50.9214013" lon="6.9677666">
      <time>2022-05-28T17:32:11Z</time>
    </trkpt>
    <trkpt lat="50.9214844" lon="6.9677115">
      <time>2022-05-28T17:32:13Z</time>
    </trkpt>
    <trkpt lat="50.9217231" lon="6.9675556">
      <time>2022-05-28T17:32:18Z</time>
    </trkpt>
    <trkpt lat="50.9217814" lon="6.9675148">
      <time>2022-05-28T17:32:19Z</time>
    </trkpt>
    <trkpt lat="50.9219647" lon="6.9674200">
      <time>2022-05-28T17:32:23Z</time>
    </trkpt>
    <trkpt lat="50.9223304" lon="6.9672834">
      <time>2022-05-28T17:32:30Z</time>
    </trkpt>
    <trkpt lat="50.9223717" lon="6.9672675">
      <time>2022-05-28T17:32:31Z</time>
    </trkpt>
    <trkpt lat="50.9225394" lon="6.9671968">
      <time>2022-05-28T17:32:34Z</time>
    </trkpt>
    <trkpt lat="50.9225948" lon="6.9671829">
      <time>2022-05-28T17:32:35Z</time>
    </trkpt>
    <trkpt lat="50.9228890" lon="6.9670397">
      <time>2022-05-28T17:32:41Z</time>
    </trkpt>
    <trkpt lat="50.9232134" lon="6.9668430">
      <time>2022-05-28T17:32:47Z</time>
    </trkpt>
    <trkpt lat="50.9232617" lon="6.9668077">
      <time>2022-05-28T17:32:48Z</time>
    </trkpt>
    <trkpt lat="50.9233010" lon="6.9667841">
      <time>2022-05-28T17:32:49Z</time>
    </trkpt>
    <trkpt lat="50.9235270" lon="6.9666710">
      <time>2022-05-28T17:32:53Z</time>
    </trkpt>
    <trkpt lat="50.9236273" lon="6.9666231">
      <time>2022-05-28T17:32:55Z</time>
    </trkpt>
    <trkpt lat="50.9239715" lon="6.9664923">
      <time>2022-05-28T17:33:01Z</time>
    </trkpt>
    <trkpt lat="50.9243225" lon="6.9662555">
      <time>2022-05-28T17:33:08Z</time>
    </trkpt>
    <trkpt lat="50.9247458" lon="6.9659636">
      <time>2022-05-28T17:33:16Z</time>
    </trkpt>
    <trkpt lat="50.9249271" lon="6.9657915">
      <time>2022-05-28T17:33:20Z</time>
    </trkpt>
    <trkpt lat="50.9250688" lon="6.9656501">
      <time>2022-05-28T17:33:23Z</time>
    </trkpt>
    <trkpt lat="50.9254361" lon="6.9653199">
      <time>2022-05-28T17:33:31Z</time>
    </trkpt>
    <trkpt lat="50.9256139" lon="6.9652055">
      <time>2022-05-28T17:33:35Z</time>
    </trkpt>
    <trkpt lat="50.9256668" lon="6.9651626">
      <time>2022-05-28T17:33:36Z</time>
    </trkpt>
    <trkpt lat="50.9257000" lon="6.9651293">
      <time>2022-05-28T17:33:37Z</time>
    </trkpt>
    <trkpt lat="50.9260355" lon="6.9648574">
      <time>2022-05-28T17:33:45Z</time>
    </trkpt>
    <trkpt lat="50.9263199" lon="6.9645612">
      <time>2022-05-28T17:33:52Z</time>
    </trkpt>
    <trkpt lat="50.9266898" lon="6.9642286">
      <time>2022-05-28T17:34:00Z</time>
    </trkpt>
    <trkpt lat="50.9270783" lon="6.9638691">
      <time>2022-05-28T17:34:09Z</time>
    </trkpt>
    <trkpt lat="50.9274164" lon="6.9635745">
      <time>2022-05-28T17:34:16Z</time>
    </trkpt>
    <trkpt lat="50.9275780" lon="6.9634308">
      <time>2022-05-28T17:34:19Z</time>
    </trkpt>
    <trkpt lat="50.9277333" lon="6.9633204">
      <time>2022-05-28T17:34:22Z</time>
    </trkpt>
    <trkpt lat="50.9280371" lon="6.9631451">
      <time>2022-05-28T17:34:28Z</time>
    </trkpt>
    <trkpt lat="50.9281910" lon="6.9631143">
      <time>2022-05-28T17:34:31Z</time>
    </trkpt>
    <trkpt lat="50.9282925" lon="6.9630825">
      <time>2022-05-28T17:34:33Z</time>
    </trkpt>
    <trkpt lat="50.9283935" lon="6.9630582">
      <time>2022-05-28T17:34:35Z</time>
    </trkpt>
    <trkpt lat="50.9284433" lon="6.9630437">
      <time>2022-05-28T17:34:36Z</time>
    </trkpt>
    <trkpt lat="50.9287468" lon="6.9629987">
      <time>2022-05-28T17:34:42Z</time>
    </trkpt>
    <trkpt lat="50.9287989" lon="6.9629965">
      <time>2022-05-28T17:34:43Z</time>
    </trkpt>
    <trkpt lat="50.9291837" lon="6.9629760">
      <time>2022-05-28T17:34:51Z</time>
    </trkpt>
    <trkpt lat="50.9294201" lon="6.9629159">
      <time>2022-05-28T17:34:56Z</time>
    </trkpt>
    <trkpt lat="50.9295623" lon="6.9628597">
      <time>2022-05-28T17:34:59Z</time>
    </trkpt>
    <trkpt lat="50.9296175" lon="6.9628305">
      <time>2022-05-28T17:35:00Z</time>
    </trkpt>
    <trkpt lat="50.9296740" lon="6.9628439">
      <time>2022-05-28T17:35:01Z</time>
    </trkpt>
    <trkpt lat="50.9298916" lon="6.9628940">
      <time>2022-05-28T17:35:05Z</time>
    </trkpt>
    <trkpt lat="50.9300863" lon="6.9628730">
      <time>2022-05-28T17:35:09Z</time>
    </trkpt>
    <trkpt lat="50.9301526" lon="6.9628595">
      <time>2022-05-28T17:35:10Z</time>
    </trkpt>
    <trkpt lat="50.9303963" lon="6.9628578">
      <time>2022-05-28T17:35:15Z</time>
    </trkpt>
    <trkpt lat="50.9306827" lon="6.9628582">
      <time>2022-05-28T17:35:20Z</time>
    </trkpt>
    <trkpt lat="50.9309879" lon="6.9628455">
      <time>2022-05-28T17:35:25Z</time>
    </trkpt>
    <trkpt lat="50.9311721" lon="6.9628243">
      <time>2022-05-28T17:35:28Z</time>
    </trkpt>
    <trkpt lat="50.9312355" lon="6.9628253">
      <time>2022-05-28T17:35:29Z</time>
    </trkpt>
    <trkpt lat="50.9314673" lon="6.9628144">
      <time>2022-05-28T17:35:33Z</time>
    </trkpt>
    <trkpt lat="50.9319634" lon="6.9629315">
      <time>2022-05-28T17:35:41Z</time>
    </trkpt>
    <trkpt lat="50.9320680" lon="6.9629606">
      <time>2022-05-28T17:35:43Z</time>
    </trkpt>
    <trkpt lat="50.9321871" lon="6.9630205">
      <time>2022-05-28T17:35:45Z</time>
    </trkpt>
    <trkpt lat="50.9322346" lon="6.9630418">
      <time>2022-05-28T17:35:46Z</time>
    </trkpt>
    <trkpt lat="50.9322897" lon="6.9630603">
      <time>2022-05-28T17:35:47Z</time>
    </trkpt>
    <trkpt lat="50.9323422" lon="6.9630786">
      <time>2022-05-28T17:35:48Z</time>
    </trkpt>
    <trkpt lat="50.9324031" lon="6.9631116">
      <time>2022-05-28T17:35:49Z</time>
    </trkpt>
    <trkpt lat="50.9324606" lon="6.9631384">
      <time>2022-05-28T17:35:50Z</time>
    </trkpt>
    <trkpt lat="50.9325202" lon="6.9631567">
      <time>2022-05-28T17:35:51Z</time>
    </trkpt>
    <trkpt lat="50.9325842" lon="6.9631713">
      <time>2022-05-28T17:35:53Z</time>
    </trkpt>
    <trkpt lat="50.9327005" lon="6.9631841">
      <time>2022-05-28T17:35:58Z</time>
    </trkpt>
    <trkpt lat="50.9328389" lon="6.9631589">
      <time>2022-05-28T17:36:02Z</time>
    </trkpt>
    <trkpt lat="50.9329862" lon="6.9632004">
      <time>2022-05-28T17:36:05Z</time>
    </trkpt>
    <trkpt lat="50.9333302" lon="6.9632590">
      <time>2022-05-28T17:36:10Z</time>
    </trkpt>
    <trkpt lat="50.9337937" lon="6.9632732">
      <time>2022-05-28T17:36:16Z</time>
    </trkpt>
    <trkpt lat="50.9341829" lon="6.9632561">
      <time>2022-05-28T17:36:21Z</time>
    </trkpt>
    <trkpt lat="50.9343879" lon="6.9632428">
      <time>2022-05-28T17:36:24Z</time>
    </trkpt>
    <trkpt lat="50.9346691" lon="6.9632157">
      <time>2022-05-28T17:36:28Z</time>
    </trkpt>
    <trkpt lat="50.9349133" lon="6.9632860">
      <time>2022-05-28T17:36:32Z</time>
    </trkpt>
    <trkpt lat="50.9349691" lon="6.9633069">
      <time>2022-05-28T17:36:33Z</time>
    </trkpt>
    <trkpt lat="50.9350235" lon="6.9633276">
      <time>2022-05-28T17:36:34Z</time>
    </trkpt>
    <trkpt lat="50.9351879" lon="6.9633252">
      <time>2022-05-28T17:36:37Z</time>
    </trkpt>
    <trkpt lat="50.9353702" lon="6.9633435">
      <time>2022-05-28T17:36:40Z</time>
    </trkpt>
    <trkpt lat="50.9354371" lon="6.9633496">
      <time>2022-05-28T17:36:41Z</time>
    </trkpt>
    <trkpt lat="50.9356982" lon="6.9633869">
      <time>2022-05-28T17:36:45Z</time>
    </trkpt>
    <trkpt lat="50.9357498" lon="6.9633801">
      <time>2022-05-28T17:36:46Z</time>
    </trkpt>
    <trkpt lat="50.9358073" lon="6.9633605">
      <time>2022-05-28T17:36:47Z</time>
    </trkpt>
    <trkpt lat="50.9359430" lon="6.9633080">
      <time>2022-05-28T17:36:50Z</time>
    </trkpt>
    <trkpt lat="50.9359869" lon="6.9632819">
      <time>2022-05-28T17:36:51Z</time>
    </trkpt>
    <trkpt lat="50.9360318" lon="6.9632641">
      <time>2022-05-28T17:36:52Z</time>
    </trkpt>
    <trkpt lat="50.9361278" lon="6.9632667">
      <time>2022-05-28T17:36:55Z</time>
    </trkpt>
    <trkpt lat="50.9361553" lon="6.9633044">
      <time>2022-05-28T17:36:56Z</time>
    </trkpt>
    <trkpt lat="50.9362211" lon="6.9633623">
      <time>2022-05-28T17:36:58Z</time>
    </trkpt>
    <trkpt lat="50.9363938" lon="6.9633861">
      <time>2022-05-28T17:37:01Z</time>
    </trkpt>
    <trkpt lat="50.9364557" lon="6.9633593">
      <time>2022-05-28T17:37:02Z</time>
    </trkpt>
    <trkpt lat="50.9365634" lon="6.9633226">
      <time>2022-05-28T17:37:04Z</time>
    </trkpt>
    <trkpt lat="50.9366631" lon="6.9632617">
      <time>2022-05-28T17:37:06Z</time>
    </trkpt>
    <trkpt lat="50.9367075" lon="6.9632612">
      <time>2022-05-28T17:37:07Z</time>
    </trkpt>
    <trkpt lat="50.9367928" lon="6.9632953">
      <time>2022-05-28T17:37:09Z</time>
    </trkpt>
    <trkpt lat="50.9369635" lon="6.9632993">
      <time>2022-05-28T17:37:14Z</time>
    </trkpt>
    <trkpt lat="50.9371120" lon="6.9632776">
      <time>2022-05-28T17:37:18Z</time>
    </trkpt>
    <trkpt lat="50.9373250" lon="6.9631558">
      <time>2022-05-28T17:37:23Z</time>
    </trkpt>
    <trkpt lat="50.9374608" lon="6.9632136">
      <time>2022-05-28T17:37:26Z</time>
    </trkpt>
    <trkpt lat="50.9375274" lon="6.9632122">
      <time>2022-05-28T17:37:30Z</time>
    </trkpt>
    <trkpt lat="50.9376083" lon="6.9631693">
      <time>2022-05-28T17:37:37Z</time>
    </trkpt>
    <trkpt lat="50.9376429" lon="6.9631844">
      <time>2022-05-28T17:37:42Z</time>
    </trkpt>
    <trkpt lat="50.9377007" lon="6.9631051">
      <time>2022-05-28T17:37:53Z</time>
    </trkpt>
    <trkpt lat="50.9377876" lon="6.9630590">
      <time>2022-05-28T17:37:56Z</time>
    </trkpt>
    <trkpt lat="50.9378405" lon="6.9630506">
      <time>2022-05-28T17:37:57Z</time>
    </trkpt>
    <trkpt lat="50.9380084" lon="6.9631379">
      <time>2022-05-28T17:38:00Z</time>
    </trkpt>
    <trkpt lat="50.9380451" lon="6.9631297">
      <time>2022-05-28T17:38:01Z</time>
    </trkpt>
    <trkpt lat="50.9381319" lon="6.9630695">
      <time>2022-05-28T17:38:03Z</time>
    </trkpt>
    <trkpt lat="50.9381782" lon="6.9630454">
      <time>2022-05-28T17:38:04Z</time>
    </trkpt>
    <trkpt lat="50.9382797" lon="6.9630210">
      <time>2022-05-28T17:38:07Z</time>
    </trkpt>
    <trkpt lat="50.9383453" lon="6.9630011">
      <time>2022-05-28T17:38:10Z</time>
    </trkpt>
    <trkpt lat="50.9383735" lon="6.9629896">
      <time>2022-05-28T17:38:12Z</time>
    </trkpt>
    <trkpt lat="50.9383922" lon="6.9629799">
      <time>2022-05-28T17:38:13Z</time>
    </trkpt>
    <trkpt lat="50.9384209" lon="6.9629522">
      <time>2022-05-28T17:38:15Z</time>
    </trkpt>
    <trkpt lat="50.9384692" lon="6.9628486">
      <time>2022-05-28T17:38:18Z</time>
    </trkpt>
    <trkpt lat="50.9384551" lon="6.9625834">
      <time>2022-05-28T17:38:23Z</time>
    </trkpt>
    <trkpt lat="50.9385049" lon="6.9623213">
      <time>2022-05-28T17:38:28Z</time>
    </trkpt>
    <trkpt lat="50.9386078" lon="6.9621467">
      <time>2022-05-28T17:38:32Z</time>
    </trkpt>
    <trkpt lat="50.9387588" lon="6.9620611">
      <time>2022-05-28T17:38:37Z</time>
    </trkpt>
    <trkpt lat="50.9389086" lon="6.9620023">
      <time>2022-05-28T17:38:43Z</time>
    </trkpt>
    <trkpt lat="50.9390640" lon="6.9619125">
      <time>2022-05-28T17:38:48Z</time>
    </trkpt>
    <trkpt lat="50.9391353" lon="6.9618532">
      <time>2022-05-28T17:38:52Z</time>
    </trkpt>
    <trkpt lat="50.9391552" lon="6.9618504">
      <time>2022-05-28T17:38:53Z</time>
    </trkpt>
    <trkpt lat="50.9392209" lon="6.9618064">
      <time>2022-05-28T17:38:57Z</time>
    </trkpt>
    <trkpt lat="50.9392220" lon="6.9617765">
      <time>2022-05-28T17:38:58Z</time>
    </trkpt>
    <trkpt lat="50.9392259" lon="6.9617306">
      <time>2022-05-28T17:39:00Z</time>
    </trkpt>
    <trkpt lat="50.9392125" lon="6.9616477">
      <time>2022-05-28T17:39:02Z</time>
    </trkpt>
    <trkpt lat="50.9391834" lon="6.9615775">
      <time>2022-05-28T17:39:04Z</time>
    </trkpt>
    <trkpt lat="50.9391783" lon="6.9615003">
      <time>2022-05-28T17:39:06Z</time>
    </trkpt>
    <trkpt lat="50.9391598" lon="6.9614101">
      <time>2022-05-28T17:39:08Z</time>
    </trkpt>
    <trkpt lat="50.9391660" lon="6.9613013">
      <time>2022-05-28T17:39:13Z</time>
    </trkpt>
    <trkpt lat="50.9391812" lon="6.9611750">
      <time>2022-05-28T17:39:18Z</time>
    </trkpt>
    <trkpt lat="50.9391669" lon="6.9610573">
      <time>2022-05-28T17:39:22Z</time>
    </trkpt>
    <trkpt lat="50.9391687" lon="6.9610037">
      <time>2022-05-28T17:39:24Z</time>
    </trkpt>
    <trkpt lat="50.9391619" lon="6.9609865">
      <time>2022-05-28T17:39:25Z</time>
    </trkpt>
    <trkpt lat="50.9391013" lon="6.9609128">
      <time>2022-05-28T17:39:27Z</time>
    </trkpt>
    <trkpt lat="50.9390735" lon="6.9608650">
      <time>2022-05-28T17:39:28Z</time>
    </trkpt>
    <trkpt lat="50.9390366" lon="6.9606096">
      <time>2022-05-28T17:39:33Z</time>
    </trkpt>
    <trkpt lat="50.9390540" lon="6.9605532">
      <time>2022-05-28T17:39:34Z</time>
    </trkpt>
    <trkpt lat="50.9390729" lon="6.9604664">
      <time>2022-05-28T17:39:36Z</time>
    </trkpt>
    <trkpt lat="50.9391013" lon="6.9603792">
      <time>2022-05-28T17:39:38Z</time>
    </trkpt>
    <trkpt lat="50.9391169" lon="6.9602632">
      <time>2022-05-28T17:39:42Z</time>
    </trkpt>
    <trkpt lat="50.9391170" lon="6.9602624">
      <time>2022-05-28T17:39:43Z</time>
    </trkpt>
    <trkpt lat="50.9391166" lon="6.9602533">
      <time>2022-05-28T17:39:44Z</time>
    </trkpt>
    <trkpt lat="50.9391204" lon="6.9601114">
      <time>2022-05-28T17:39:47Z</time>
    </trkpt>
    <trkpt lat="50.9391262" lon="6.9600757">
      <time>2022-05-28T17:39:48Z</time>
    </trkpt>
    <trkpt lat="50.9391620" lon="6.9599752">
      <time>2022-05-28T17:39:52Z</time>
    </trkpt>
    <trkpt lat="50.9392845" lon="6.9599703">
      <time>2022-05-28T17:39:58Z</time>
    </trkpt>
    <trkpt lat="50.9394759" lon="6.9600073">
      <time>2022-05-28T17:40:04Z</time>
    </trkpt>
    <trkpt lat="50.9396975" lon="6.9599750">
      <time>2022-05-28T17:40:10Z</time>
    </trkpt>
    <trkpt lat="50.9397510" lon="6.9599514">
      <time>2022-05-28T17:40:12Z</time>
    </trkpt>
    <trkpt lat="50.9398152" lon="6.9598856">
      <time>2022-05-28T17:40:15Z</time>
    </trkpt>
    <trkpt lat="50.9399005" lon="6.9597965">
      <time>2022-05-28T17:40:20Z</time>
    </trkpt>
    <trkpt lat="50.9401317" lon="6.9597664">
      <time>2022-05-28T17:40:28Z</time>
    </trkpt>
    <trkpt lat="50.9402584" lon="6.9597536">
      <time>2022-05-28T17:40:32Z</time>
    </trkpt>
    <trkpt lat="50.9402909" lon="6.9597462">
      <time>2022-05-28T17:40:33Z</time>
    </trkpt>
    <trkpt lat="50.9403961" lon="6.9597226">
      <time>2022-05-28T17:40:37Z</time>
    </trkpt>
    <trkpt lat="50.9404838" lon="6.9597493">
      <time>2022-05-28T17:40:40Z</time>
    </trkpt>
    <trkpt lat="50.9405631" lon="6.9597383">
      <time>2022-05-28T17:40:44Z</time>
    </trkpt>
    <trkpt lat="50.9413655" lon="6.9595944">
      <time>2022-05-28T17:40:58Z</time>
    </trkpt>
    <trkpt lat="50.9414032" lon="6.9596679">
      <time>2022-05-28T17:40:59Z</time>
    </trkpt>
    <trkpt lat="50.9414287" lon="6.9597056">
      <time>2022-05-28T17:41:00Z</time>
    </trkpt>
    <trkpt lat="50.9415499" lon="6.9596743">
      <time>2022-05-28T17:41:05Z</time>
    </trkpt>
    <trkpt lat="50.9415624" lon="6.9596651">
      <time>2022-05-28T17:41:09Z</time>
    </trkpt>
    <trkpt lat="50.9415975" lon="6.9596416">
      <time>2022-05-28T17:41:46Z</time>
    </trkpt>
    <trkpt lat="50.9416406" lon="6.9596140">
      <time>2022-05-28T17:41:48Z</time>
    </trkpt>
    <trkpt lat="50.9417702" lon="6.9594557">
      <time>2022-05-28T17:41:53Z</time>
    </trkpt>
    <trkpt lat="50.9418271" lon="6.9592252">
      <time>2022-05-28T17:41:57Z</time>
    </trkpt>
    <trkpt lat="50.9418610" lon="6.9589485">
      <time>2022-05-28T17:42:01Z</time>
    </trkpt>
    <trkpt lat="50.9418820" lon="6.9588143">
      <time>2022-05-28T17:42:03Z</time>
    </trkpt>
    <trkpt lat="50.9418014" lon="6.9577536">
      <time>2022-05-28T17:42:35Z</time>
    </trkpt>
    <trkpt lat="50.9417293" lon="6.9574013">
      <time>2022-05-28T17:42:37Z</time>
    </trkpt>
    <trkpt lat="50.9415941" lon="6.9571429">
      <time>2022-05-28T17:42:42Z</time>
    </trkpt>
    <trkpt lat="50.9415941" lon="6.9571429">
      <time>2022-05-28T17:42:44Z</time>
    </trkpt>
    <trkpt lat="50.9416207" lon="6.9569576">
      <time>2022-05-28T17:43:43Z</time>
    </trkpt>
    <trkpt lat="50.9416120" lon="6.9565653">
      <time>2022-05-28T17:43:48Z</time>
    </trkpt>
    <trkpt lat="50.9416537" lon="6.9562540">
      <time>2022-05-28T17:43:51Z</time>
    </trkpt>
    <trkpt lat="50.9416590" lon="6.9560712">
      <time>2022-05-28T17:43:53Z</time>
    </trkpt>
    <trkpt lat="50.9416847" lon="6.9556271">
      <time>2022-05-28T17:43:58Z</time>
    </trkpt>
    <trkpt lat="50.9417056" lon="6.9554430">
      <time>2022-05-28T17:44:00Z</time>
    </trkpt>
    <trkpt lat="50.9417292" lon="6.9551155">
      <time>2022-05-28T17:44:04Z</time>
    </trkpt>
    <trkpt lat="50.9416969" lon="6.9549990">
      <time>2022-05-28T17:44:05Z</time>
    </trkpt>
    <trkpt lat="50.9416328" lon="6.9546843">
      <time>2022-05-28T17:44:08Z</time>
    </trkpt>
    <trkpt lat="50.9415362" lon="6.9539082">
      <time>2022-05-28T17:44:16Z</time>
    </trkpt>
    <trkpt lat="50.9415061" lon="6.9532098">
      <time>2022-05-28T17:44:23Z</time>
    </trkpt>
    <trkpt lat="50.9414662" lon="6.9524129">
      <time>2022-05-28T17:44:31Z</time>
    </trkpt>
    <trkpt lat="50.9414702" lon="6.9522154">
      <time>2022-05-28T17:44:33Z</time>
    </trkpt>
    <trkpt lat="50.9414863" lon="6.9520386">
      <time>2022-05-28T17:44:35Z</time>
    </trkpt>
    <trkpt lat="50.9414969" lon="6.9519553">
      <time>2022-05-28T17:44:36Z</time>
    </trkpt>
    <trkpt lat="50.9414984" lon="6.9518691">
      <time>2022-05-28T17:44:37Z</time>
    </trkpt>
    <trkpt lat="50.9414848" lon="6.9517057">
      <time>2022-05-28T17:44:39Z</time>
    </trkpt>
    <trkpt lat="50.9414696" lon="6.9515912">
      <time>2022-05-28T17:44:41Z</time>
    </trkpt>
    <trkpt lat="50.9414223" lon="6.9512425">
      <time>2022-05-28T17:44:46Z</time>
    </trkpt>
    <trkpt lat="50.9414225" lon="6.9509512">
      <time>2022-05-28T17:44:50Z</time>
    </trkpt>
    <trkpt lat="50.9414362" lon="6.9508107">
      <time>2022-05-28T17:44:52Z</time>
    </trkpt>
    <trkpt lat="50.9414848" lon="6.9506975">
      <time>2022-05-28T17:44:54Z</time>
    </trkpt>
    <trkpt lat="50.9414955" lon="6.9506383">
      <time>2022-05-28T17:44:55Z</time>
    </trkpt>
    <trkpt lat="50.9415015" lon="6.9505688">
      <time>2022-05-28T17:44:56Z</time>
    </trkpt>
    <trkpt lat="50.9415737" lon="6.9501901">
      <time>2022-05-28T17:45:01Z</time>
    </trkpt>
    <trkpt lat="50.9415800" lon="6.9501265">
      <time>2022-05-28T17:45:02Z</time>
    </trkpt>
    <trkpt lat="50.9414759" lon="6.9500032">
      <time>2022-05-28T17:45:03Z</time>
    </trkpt>
    <trkpt lat="50.9412910" lon="6.9496523">
      <time>2022-05-28T17:45:06Z</time>
    </trkpt>
    <trkpt lat="50.9412828" lon="6.9495586">
      <time>2022-05-28T17:45:07Z</time>
    </trkpt>
    <trkpt lat="50.9412814" lon="6.9494719">
      <time>2022-05-28T17:45:08Z</time>
    </trkpt>
    <trkpt lat="50.9412751" lon="6.9493057">
      <time>2022-05-28T17:45:10Z</time>
    </trkpt>
    <trkpt lat="50.9412345" lon="6.9490485">
      <time>2022-05-28T17:45:13Z</time>
    </trkpt>
    <trkpt lat="50.9412148" lon="6.9489045">
      <time>2022-05-28T17:45:15Z</time>
    </trkpt>
    <trkpt lat="50.9411801" lon="6.9485215">
      <time>2022-05-28T17:45:20Z</time>
    </trkpt>
    <trkpt lat="50.9411265" lon="6.9482224">
      <time>2022-05-28T17:45:25Z</time>
    </trkpt>
    <trkpt lat="50.9410872" lon="6.9479998">
      <time>2022-05-28T17:45:30Z</time>
    </trkpt>
    <trkpt lat="50.9410888" lon="6.9479720">
      <time>2022-05-28T17:45:33Z</time>
    </trkpt>
    <trkpt lat="50.9410816" lon="6.9478651">
      <time>2022-05-28T17:46:11Z</time>
    </trkpt>
    <trkpt lat="50.9410603" lon="6.9477636">
      <time>2022-05-28T17:46:13Z</time>
    </trkpt>
    <trkpt lat="50.9410195" lon="6.9475118">
      <time>2022-05-28T17:46:16Z</time>
    </trkpt>
    <trkpt lat="50.9410131" lon="6.9474025">
      <time>2022-05-28T17:46:17Z</time>
    </trkpt>
    <trkpt lat="50.9410502" lon="6.9470447">
      <time>2022-05-28T17:46:20Z</time>
    </trkpt>
    <trkpt lat="50.9410511" lon="6.9465589">
      <time>2022-05-28T17:46:24Z</time>
    </trkpt>
    <trkpt lat="50.9410003" lon="6.9463096">
      <time>2022-05-28T17:46:26Z</time>
    </trkpt>
    <trkpt lat="50.9409217" lon="6.9460651">
      <time>2022-05-28T17:46:28Z</time>
    </trkpt>
    <trkpt lat="50.9407746" lon="6.9457334">
      <time>2022-05-28T17:46:31Z</time>
    </trkpt>
    <trkpt lat="50.9406657" lon="6.9455389">
      <time>2022-05-28T17:46:33Z</time>
    </trkpt>
    <trkpt lat="50.9403937" lon="6.9451023">
      <time>2022-05-28T17:46:38Z</time>
    </trkpt>
    <trkpt lat="50.9403456" lon="6.9450299">
      <time>2022-05-28T17:46:39Z</time>
    </trkpt>
    <trkpt lat="50.9402679" lon="6.9448536">
      <time>2022-05-28T17:46:41Z</time>
    </trkpt>
    <trkpt lat="50.9402152" lon="6.9446195">
      <time>2022-05-28T17:46:43Z</time>
    </trkpt>
    <trkpt lat="50.9400709" lon="6.9440144">
      <time>2022-05-28T17:46:48Z</time>
    </trkpt>
    <trkpt lat="50.9400577" lon="6.9438995">
      <time>2022-05-28T17:46:49Z</time>
    </trkpt>
    <trkpt lat="50.9400524" lon="6.9437921">
      <time>2022-05-28T17:46:50Z</time>
    </trkpt>
    <trkpt lat="50.9400275" lon="6.9433460">
      <time>2022-05-28T17:46:54Z</time>
    </trkpt>
    <trkpt lat="50.9400353" lon="6.9431127">
      <time>2022-05-28T17:46:56Z</time>
    </trkpt>
    <trkpt lat="50.9400311" lon="6.9428506">
      <time>2022-05-28T17:46:58Z</time>
    </trkpt>
    <trkpt lat="50.9400322" lon="6.9421577">
      <time>2022-05-28T17:47:04Z</time>
    </trkpt>
    <trkpt lat="50.9400477" lon="6.9420388">
      <time>2022-05-28T17:47:05Z</time>
    </trkpt>
    <trkpt lat="50.9401844" lon="6.9414802">
      <time>2022-05-28T17:47:10Z</time>
    </trkpt>
    <trkpt lat="50.9402173" lon="6.9413451">
      <time>2022-05-28T17:47:11Z</time>
    </trkpt>
    <trkpt lat="50.9403871" lon="6.9407554">
      <time>2022-05-28T17:47:16Z</time>
    </trkpt>
    <trkpt lat="50.9404612" lon="6.9404192">
      <time>2022-05-28T17:47:19Z</time>
    </trkpt>
    <trkpt lat="50.9404854" lon="6.9401872">
      <time>2022-05-28T17:47:21Z</time>
    </trkpt>
    <trkpt lat="50.9404951" lon="6.9400722">
      <time>2022-05-28T17:47:22Z</time>
    </trkpt>
    <trkpt lat="50.9405199" lon="6.9398578">
      <time>2022-05-28T17:47:24Z</time>
    </trkpt>
    <trkpt lat="50.9405994" lon="6.9390057">
      <time>2022-05-28T17:47:32Z</time>
    </trkpt>
    <trkpt lat="50.9406761" lon="6.9386563">
      <time>2022-05-28T17:47:36Z</time>
    </trkpt>
    <trkpt lat="50.9407129" lon="6.9384995">
      <time>2022-05-28T17:47:38Z</time>
    </trkpt>
    <trkpt lat="50.9407668" lon="6.9383061">
      <time>2022-05-28T17:47:41Z</time>
    </trkpt>
    <trkpt lat="50.9407837" lon="6.9381956">
      <time>2022-05-28T17:47:43Z</time>
    </trkpt>
    <trkpt lat="50.9408289" lon="6.9380936">
      <time>2022-05-28T17:47:46Z</time>
    </trkpt>
    <trkpt lat="50.9408739" lon="6.9380087">
      <time>2022-05-28T17:47:49Z</time>
    </trkpt>
    <trkpt lat="50.9409091" lon="6.9379667">
      <time>2022-05-28T17:47:52Z</time>
    </trkpt>
    <trkpt lat="50.9409159" lon="6.9379684">
      <time>2022-05-28T17:47:53Z</time>
    </trkpt>
    <trkpt lat="50.9409159" lon="6.9379684">
      <time>2022-05-28T17:47:55Z</time>
    </trkpt>
    <trkpt lat="50.9409489" lon="6.9379156">
      <time>2022-05-28T17:48:06Z</time>
    </trkpt>
    <trkpt lat="50.9409621" lon="6.9378956">
      <time>2022-05-28T17:48:07Z</time>
    </trkpt>
    <trkpt lat="50.9410449" lon="6.9377663">
      <time>2022-05-28T17:48:11Z</time>
    </trkpt>
    <trkpt lat="50.9410717" lon="6.9377185">
      <time>2022-05-28T17:48:12Z</time>
    </trkpt>
    <trkpt lat="50.9411386" lon="6.9375676">
      <time>2022-05-28T17:48:15Z</time>
    </trkpt>
    <trkpt lat="50.9412036" lon="6.9374476">
      <time>2022-05-28T17:48:17Z</time>
    </trkpt>
    <trkpt lat="50.9413603" lon="6.9371569">
      <time>2022-05-28T17:48:22Z</time>
    </trkpt>
    <trkpt lat="50.9415065" lon="6.9368656">
      <time>2022-05-28T17:48:27Z</time>
    </trkpt>
    <trkpt lat="50.9415595" lon="6.9367396">
      <time>2022-05-28T17:48:29Z</time>
    </trkpt>
    <trkpt lat="50.9417238" lon="6.9364328">
      <time>2022-05-28T17:48:34Z</time>
    </trkpt>
    <trkpt lat="50.9418129" lon="6.9362581">
      <time>2022-05-28T17:48:37Z</time>
    </trkpt>
    <trkpt lat="50.9418462" lon="6.9362077">
      <time>2022-05-28T17:48:38Z</time>
    </trkpt>
    <trkpt lat="50.9418809" lon="6.9361600">
      <time>2022-05-28T17:48:39Z</time>
    </trkpt>
    <trkpt lat="50.9419685" lon="6.9359897">
      <time>2022-05-28T17:48:42Z</time>
    </trkpt>
    <trkpt lat="50.9420729" lon="6.9357787">
      <time>2022-05-28T17:48:45Z</time>
    </trkpt>
    <trkpt lat="50.9421760" lon="6.9355897">
      <time>2022-05-28T17:48:48Z</time>
    </trkpt>
    <trkpt lat="50.9422391" lon="6.9354583">
      <time>2022-05-28T17:48:50Z</time>
    </trkpt>
    <trkpt lat="50.9423743" lon="6.9352036">
      <time>2022-05-28T17:48:54Z</time>
    </trkpt>
    <trkpt lat="50.9425969" lon="6.9347743">
      <time>2022-05-28T17:49:01Z</time>
    </trkpt>
    <trkpt lat="50.9429126" lon="6.9341519">
      <time>2022-05-28T17:49:10Z</time>
    </trkpt>
    <trkpt lat="50.9429484" lon="6.9340694">
      <time>2022-05-28T17:49:12Z</time>
    </trkpt>
    <trkpt lat="50.9429501" lon="6.9340574">
      <time>2022-05-28T17:49:13Z</time>
    </trkpt>
    <trkpt lat="50.9434858" lon="6.9334374">
      <time>2022-05-28T17:49:24Z</time>
    </trkpt>
    <trkpt lat="50.9434856" lon="6.9332821">
      <time>2022-05-28T17:49:26Z</time>
    </trkpt>
    <trkpt lat="50.9435459" lon="6.9331384">
      <time>2022-05-28T17:49:28Z</time>
    </trkpt>
    <trkpt lat="50.9436387" lon="6.9329016">
      <time>2022-05-28T17:49:31Z</time>
    </trkpt>
    <trkpt lat="50.9437006" lon="6.9327672">
      <time>2022-05-28T17:49:33Z</time>
    </trkpt>
    <trkpt lat="50.9438571" lon="6.9323768">
      <time>2022-05-28T17:49:39Z</time>
    </trkpt>
    <trkpt lat="50.9438875" lon="6.9322208">
      <time>2022-05-28T17:49:41Z</time>
    </trkpt>
    <trkpt lat="50.9439720" lon="6.9320336">
      <time>2022-05-28T17:49:44Z</time>
    </trkpt>
    <trkpt lat="50.9440298" lon="6.9319161">
      <time>2022-05-28T17:49:46Z</time>
    </trkpt>
    <trkpt lat="50.9441879" lon="6.9315830">
      <time>2022-05-28T17:49:51Z</time>
    </trkpt>
    <trkpt lat="50.9442151" lon="6.9315116">
      <time>2022-05-28T17:49:52Z</time>
    </trkpt>
    <trkpt lat="50.9442890" lon="6.9312672">
      <time>2022-05-28T17:49:55Z</time>
    </trkpt>
    <trkpt lat="50.9443647" lon="6.9310863">
      <time>2022-05-28T17:49:58Z</time>
    </trkpt>
    <trkpt lat="50.9444241" lon="6.9309443">
      <time>2022-05-28T17:50:00Z</time>
    </trkpt>
    <trkpt lat="50.9445005" lon="6.9307267">
      <time>2022-05-28T17:50:03Z</time>
    </trkpt>
    <trkpt lat="50.9446064" lon="6.9304160">
      <time>2022-05-28T17:50:07Z</time>
    </trkpt>
    <trkpt lat="50.9447395" lon="6.9299591">
      <time>2022-05-28T17:50:13Z</time>
    </trkpt>
    <trkpt lat="50.9448213" lon="6.9296074">
      <time>2022-05-28T17:50:18Z</time>
    </trkpt>
    <trkpt lat="50.9448455" lon="6.9295200">
      <time>2022-05-28T17:50:19Z</time>
    </trkpt>
    <trkpt lat="50.9449065" lon="6.9292314">
      <time>2022-05-28T17:50:23Z</time>
    </trkpt>
    <trkpt lat="50.9449434" lon="6.9291200">
      <time>2022-05-28T17:50:25Z</time>
    </trkpt>
    <trkpt lat="50.9450349" lon="6.9289517">
      <time>2022-05-28T17:50:29Z</time>
    </trkpt>
    <trkpt lat="50.9450766" lon="6.9287415">
      <time>2022-05-28T17:50:34Z</time>
    </trkpt>
    <trkpt lat="50.9450880" lon="6.9286880">
      <time>2022-05-28T17:50:36Z</time>
    </trkpt>
    <trkpt lat="50.9451057" lon="6.9286591">
      <time>2022-05-28T17:50:38Z</time>
    </trkpt>
    <trkpt lat="50.9450646" lon="6.9285961">
      <time>2022-05-28T17:50:39Z</time>
    </trkpt>
    <trkpt lat="50.9450565" lon="6.9285335">
      <time>2022-05-28T17:50:41Z</time>
    </trkpt>
    <trkpt lat="50.9450581" lon="6.9285033">
      <time>2022-05-28T17:50:42Z</time>
    </trkpt>
    <trkpt lat="50.9450639" lon="6.9284852">
      <time>2022-05-28T17:50:43Z</time>
    </trkpt>
    <trkpt lat="50.9450649" lon="6.9284777">
      <time>2022-05-28T17:50:45Z</time>
    </trkpt>
    <trkpt lat="50.9450803" lon="6.9283352">
      <time>2022-05-28T17:50:50Z</time>
    </trkpt>
    <trkpt lat="50.9451776" lon="6.9280743">
      <time>2022-05-28T17:50:55Z</time>
    </trkpt>
    <trkpt lat="50.9452107" lon="6.9279932">
      <time>2022-05-28T17:50:56Z</time>
    </trkpt>
    <trkpt lat="50.9453018" lon="6.9277840">
      <time>2022-05-28T17:50:59Z</time>
    </trkpt>
    <trkpt lat="50.9453284" lon="6.9277032">
      <time>2022-05-28T17:51:00Z</time>
    </trkpt>
    <trkpt lat="50.9454249" lon="6.9273818">
      <time>2022-05-28T17:51:04Z</time>
    </trkpt>
    <trkpt lat="50.9454751" lon="6.9272459">
      <time>2022-05-28T17:51:06Z</time>
    </trkpt>
    <trkpt lat="50.9456811" lon="6.9266765">
      <time>2022-05-28T17:51:14Z</time>
    </trkpt>
    <trkpt lat="50.9457312" lon="6.9265349">
      <time>2022-05-28T17:51:16Z</time>
    </trkpt>
    <trkpt lat="50.9458343" lon="6.9262574">
      <time>2022-05-28T17:51:20Z</time>
    </trkpt>
    <trkpt lat="50.9458779" lon="6.9261160">
      <time>2022-05-28T17:51:22Z</time>
    </trkpt>
    <trkpt lat="50.9459405" lon="6.9259070">
      <time>2022-05-28T17:51:25Z</time>
    </trkpt>
    <trkpt lat="50.9459576" lon="6.9258328">
      <time>2022-05-28T17:51:26Z</time>
    </trkpt>
    <trkpt lat="50.9459970" lon="6.9256856">
      <time>2022-05-28T17:51:28Z</time>
    </trkpt>
    <trkpt lat="50.9460799" lon="6.9254944">
      <time>2022-05-28T17:51:31Z</time>
    </trkpt>
    <trkpt lat="50.9461452" lon="6.9253714">
      <time>2022-05-28T17:51:33Z</time>
    </trkpt>
    <trkpt lat="50.9462582" lon="6.9251015">
      <time>2022-05-28T17:51:37Z</time>
    </trkpt>
    <trkpt lat="50.9464913" lon="6.9245039">
      <time>2022-05-28T17:51:45Z</time>
    </trkpt>
    <trkpt lat="50.9466884" lon="6.9239887">
      <time>2022-05-28T17:51:52Z</time>
    </trkpt>
    <trkpt lat="50.9467658" lon="6.9237679">
      <time>2022-05-28T17:51:55Z</time>
    </trkpt>
    <trkpt lat="50.9468956" lon="6.9235072">
      <time>2022-05-28T17:51:59Z</time>
    </trkpt>
    <trkpt lat="50.9470651" lon="6.9230518">
      <time>2022-05-28T17:52:06Z</time>
    </trkpt>
    <trkpt lat="50.9470998" lon="6.9229504">
      <time>2022-05-28T17:52:08Z</time>
    </trkpt>
    <trkpt lat="50.9471996" lon="6.9227054">
      <time>2022-05-28T17:52:12Z</time>
    </trkpt>
    <trkpt lat="50.9473891" lon="6.9222582">
      <time>2022-05-28T17:52:19Z</time>
    </trkpt>
    <trkpt lat="50.9476842" lon="6.9216257">
      <time>2022-05-28T17:52:29Z</time>
    </trkpt>
    <trkpt lat="50.9477692" lon="6.9214328">
      <time>2022-05-28T17:52:32Z</time>
    </trkpt>
    <trkpt lat="50.9478581" lon="6.9212347">
      <time>2022-05-28T17:52:35Z</time>
    </trkpt>
    <trkpt lat="50.9478794" lon="6.9211830">
      <time>2022-05-28T17:52:36Z</time>
    </trkpt>
    <trkpt lat="50.9480852" lon="6.9207247">
      <time>2022-05-28T17:52:43Z</time>
    </trkpt>
    <trkpt lat="50.9482234" lon="6.9203319">
      <time>2022-05-28T17:52:49Z</time>
    </trkpt>
    <trkpt lat="50.9482404" lon="6.9202579">
      <time>2022-05-28T17:52:50Z</time>
    </trkpt>
    <trkpt lat="50.9482918" lon="6.9200393">
      <time>2022-05-28T17:52:53Z</time>
    </trkpt>
    <trkpt lat="50.9483355" lon="6.9198971">
      <time>2022-05-28T17:52:55Z</time>
    </trkpt>
    <trkpt lat="50.9483614" lon="6.9198365">
      <time>2022-05-28T17:52:56Z</time>
    </trkpt>
    <trkpt lat="50.9484440" lon="6.9196480">
      <time>2022-05-28T17:52:59Z</time>
    </trkpt>
    <trkpt lat="50.9485535" lon="6.9193881">
      <time>2022-05-28T17:53:03Z</time>
    </trkpt>
    <trkpt lat="50.9487410" lon="6.9189539">
      <time>2022-05-28T17:53:10Z</time>
    </trkpt>
    <trkpt lat="50.9489565" lon="6.9184383">
      <time>2022-05-28T17:53:18Z</time>
    </trkpt>
    <trkpt lat="50.9491362" lon="6.9180283">
      <time>2022-05-28T17:53:24Z</time>
    </trkpt>
    <trkpt lat="50.9491761" lon="6.9179663">
      <time>2022-05-28T17:53:25Z</time>
    </trkpt>
    <trkpt lat="50.9492679" lon="6.9178396">
      <time>2022-05-28T17:53:27Z</time>
    </trkpt>
    <trkpt lat="50.9494025" lon="6.9176051">
      <time>2022-05-28T17:53:31Z</time>
    </trkpt>
    <trkpt lat="50.9496011" lon="6.9172944">
      <time>2022-05-28T17:53:37Z</time>
    </trkpt>
    <trkpt lat="50.9498544" lon="6.9169161">
      <time>2022-05-28T17:53:45Z</time>
    </trkpt>
    <trkpt lat="50.9499921" lon="6.9167442">
      <time>2022-05-28T17:53:50Z</time>
    </trkpt>
    <trkpt lat="50.9501072" lon="6.9166485">
      <time>2022-05-28T17:53:53Z</time>
    </trkpt>
    <trkpt lat="50.9502062" lon="6.9165939">
      <time>2022-05-28T17:53:55Z</time>
    </trkpt>
    <trkpt lat="50.9504211" lon="6.9163929">
      <time>2022-05-28T17:53:59Z</time>
    </trkpt>
    <trkpt lat="50.9504696" lon="6.9163141">
      <time>2022-05-28T17:54:00Z</time>
    </trkpt>
    <trkpt lat="50.9506542" lon="6.9159696">
      <time>2022-05-28T17:54:04Z</time>
    </trkpt>
    <trkpt lat="50.9507081" lon="6.9158643">
      <time>2022-05-28T17:54:05Z</time>
    </trkpt>
    <trkpt lat="50.9510324" lon="6.9153500">
      <time>2022-05-28T17:54:12Z</time>
    </trkpt>
    <trkpt lat="50.9512061" lon="6.9150886">
      <time>2022-05-28T17:54:16Z</time>
    </trkpt>
    <trkpt lat="50.9512106" lon="6.9150314">
      <time>2022-05-28T17:54:17Z</time>
    </trkpt>
    <trkpt lat="50.9513236" lon="6.9146068">
      <time>2022-05-28T17:54:23Z</time>
    </trkpt>
    <trkpt lat="50.9514370" lon="6.9144602">
      <time>2022-05-28T17:54:24Z</time>
    </trkpt>
    <trkpt lat="50.9517626" lon="6.9140411">
      <time>2022-05-28T17:54:29Z</time>
    </trkpt>
    <trkpt lat="50.9518125" lon="6.9139574">
      <time>2022-05-28T17:54:30Z</time>
    </trkpt>
    <trkpt lat="50.9521563" lon="6.9134410">
      <time>2022-05-28T17:54:37Z</time>
    </trkpt>
    <trkpt lat="50.9522779" lon="6.9132611">
      <time>2022-05-28T17:54:41Z</time>
    </trkpt>
    <trkpt lat="50.9524318" lon="6.9130429">
      <time>2022-05-28T17:54:45Z</time>
    </trkpt>
    <trkpt lat="50.9525222" lon="6.9129097">
      <time>2022-05-28T17:54:47Z</time>
    </trkpt>
    <trkpt lat="50.9526770" lon="6.9126602">
      <time>2022-05-28T17:54:51Z</time>
    </trkpt>
    <trkpt lat="50.9527571" lon="6.9125138">
      <time>2022-05-28T17:54:53Z</time>
    </trkpt>
    <trkpt lat="50.9528227" lon="6.9123985">
      <time>2022-05-28T17:54:55Z</time>
    </trkpt>
    <trkpt lat="50.9529403" lon="6.9122279">
      <time>2022-05-28T17:54:58Z</time>
    </trkpt>
    <trkpt lat="50.9530577" lon="6.9120694">
      <time>2022-05-28T17:55:01Z</time>
    </trkpt>
    <trkpt lat="50.9531320" lon="6.9119500">
      <time>2022-05-28T17:55:03Z</time>
    </trkpt>
    <trkpt lat="50.9532948" lon="6.9117102">
      <time>2022-05-28T17:55:07Z</time>
    </trkpt>
    <trkpt lat="50.9535956" lon="6.9112475">
      <time>2022-05-28T17:55:15Z</time>
    </trkpt>
    <trkpt lat="50.9539761" lon="6.9107010">
      <time>2022-05-28T17:55:24Z</time>
    </trkpt>
    <trkpt lat="50.9540560" lon="6.9105816">
      <time>2022-05-28T17:55:26Z</time>
    </trkpt>
    <trkpt lat="50.9542049" lon="6.9103126">
      <time>2022-05-28T17:55:30Z</time>
    </trkpt>
    <trkpt lat="50.9542459" lon="6.9101815">
      <time>2022-05-28T17:55:32Z</time>
    </trkpt>
    <trkpt lat="50.9542585" lon="6.9101190">
      <time>2022-05-28T17:55:34Z</time>
    </trkpt>
    <trkpt lat="50.9543007" lon="6.9100243">
      <time>2022-05-28T17:55:39Z</time>
    </trkpt>
    <trkpt lat="50.9543394" lon="6.9099673">
      <time>2022-05-28T17:55:42Z</time>
    </trkpt>
    <trkpt lat="50.9543541" lon="6.9099318">
      <time>2022-05-28T17:55:44Z</time>
    </trkpt>
    <trkpt lat="50.9543641" lon="6.9099213">
      <time>2022-05-28T17:55:45Z</time>
    </trkpt>
    <trkpt lat="50.9543727" lon="6.9099095">
      <time>2022-05-28T17:55:48Z</time>
    </trkpt>
    <trkpt lat="50.9543817" lon="6.9099054">
      <time>2022-05-28T17:55:52Z</time>
    </trkpt>
    <trkpt lat="50.9544094" lon="6.9098512">
      <time>2022-05-28T17:55:56Z</time>
    </trkpt>
    <trkpt lat="50.9544946" lon="6.9096548">
      <time>2022-05-28T17:56:00Z</time>
    </trkpt>
    <trkpt lat="50.9546406" lon="6.9093026">
      <time>2022-05-28T17:56:06Z</time>
    </trkpt>
    <trkpt lat="50.9547800" lon="6.9088995">
      <time>2022-05-28T17:56:12Z</time>
    </trkpt>
    <trkpt lat="50.9548098" lon="6.9088145">
      <time>2022-05-28T17:56:13Z</time>
    </trkpt>
    <trkpt lat="50.9548341" lon="6.9087421">
      <time>2022-05-28T17:56:14Z</time>
    </trkpt>
    <trkpt lat="50.9549801" lon="6.9082934">
      <time>2022-05-28T17:56:20Z</time>
    </trkpt>
    <trkpt lat="50.9550621" lon="6.9080655">
      <time>2022-05-28T17:56:23Z</time>
    </trkpt>
    <trkpt lat="50.9552111" lon="6.9076066">
      <time>2022-05-28T17:56:29Z</time>
    </trkpt>
    <trkpt lat="50.9552819" lon="6.9073846">
      <time>2022-05-28T17:56:32Z</time>
    </trkpt>
    <trkpt lat="50.9553060" lon="6.9073112">
      <time>2022-05-28T17:56:33Z</time>
    </trkpt>
    <trkpt lat="50.9554248" lon="6.9069501">
      <time>2022-05-28T17:56:38Z</time>
    </trkpt>
    <trkpt lat="50.9555887" lon="6.9064617">
      <time>2022-05-28T17:56:45Z</time>
    </trkpt>
    <trkpt lat="50.9556999" lon="6.9061210">
      <time>2022-05-28T17:56:50Z</time>
    </trkpt>
    <trkpt lat="50.9557691" lon="6.9059079">
      <time>2022-05-28T17:56:53Z</time>
    </trkpt>
    <trkpt lat="50.9557916" lon="6.9058349">
      <time>2022-05-28T17:56:54Z</time>
    </trkpt>
    <trkpt lat="50.9558884" lon="6.9056488">
      <time>2022-05-28T17:56:57Z</time>
    </trkpt>
    <trkpt lat="50.9559225" lon="6.9055691">
      <time>2022-05-28T17:56:58Z</time>
    </trkpt>
    <trkpt lat="50.9559481" lon="6.9055010">
      <time>2022-05-28T17:56:59Z</time>
    </trkpt>
    <trkpt lat="50.9560608" lon="6.9051200">
      <time>2022-05-28T17:57:04Z</time>
    </trkpt>
    <trkpt lat="50.9561447" lon="6.9048755">
      <time>2022-05-28T17:57:07Z</time>
    </trkpt>
    <trkpt lat="50.9562151" lon="6.9046612">
      <time>2022-05-28T17:57:10Z</time>
    </trkpt>
    <trkpt lat="50.9562413" lon="6.9045843">
      <time>2022-05-28T17:57:11Z</time>
    </trkpt>
    <trkpt lat="50.9563438" lon="6.9042830">
      <time>2022-05-28T17:57:15Z</time>
    </trkpt>
    <trkpt lat="50.9563699" lon="6.9042070">
      <time>2022-05-28T17:57:16Z</time>
    </trkpt>
    <trkpt lat="50.9564245" lon="6.9040591">
      <time>2022-05-28T17:57:18Z</time>
    </trkpt>
    <trkpt lat="50.9565204" lon="6.9038612">
      <time>2022-05-28T17:57:21Z</time>
    </trkpt>
    <trkpt lat="50.9565737" lon="6.9037307">
      <time>2022-05-28T17:57:23Z</time>
    </trkpt>
    <trkpt lat="50.9566686" lon="6.9034592">
      <time>2022-05-28T17:57:27Z</time>
    </trkpt>
    <trkpt lat="50.9567248" lon="6.9032930">
      <time>2022-05-28T17:57:31Z</time>
    </trkpt>
    <trkpt lat="50.9567367" lon="6.9032540">
      <time>2022-05-28T17:57:33Z</time>
    </trkpt>
    <trkpt lat="50.9567391" lon="6.9032361">
      <time>2022-05-28T17:57:35Z</time>
    </trkpt>
    <trkpt lat="50.9567391" lon="6.9032361">
      <time>2022-05-28T17:57:37Z</time>
    </trkpt>
    <trkpt lat="50.9567581" lon="6.9032108">
      <time>2022-05-28T17:58:27Z</time>
    </trkpt>
    <trkpt lat="50.9567733" lon="6.9031842">
      <time>2022-05-28T17:58:28Z</time>
    </trkpt>
    <trkpt lat="50.9568730" lon="6.9028769">
      <time>2022-05-28T17:58:34Z</time>
    </trkpt>
    <trkpt lat="50.9569690" lon="6.9024880">
      <time>2022-05-28T17:58:39Z</time>
    </trkpt>
    <trkpt lat="50.9571122" lon="6.9019132">
      <time>2022-05-28T17:58:46Z</time>
    </trkpt>
    <trkpt lat="50.9572080" lon="6.9015877">
      <time>2022-05-28T17:58:50Z</time>
    </trkpt>
    <trkpt lat="50.9572793" lon="6.9014469">
      <time>2022-05-28T17:58:52Z</time>
    </trkpt>
    <trkpt lat="50.9574637" lon="6.9009899">
      <time>2022-05-28T17:58:58Z</time>
    </trkpt>
    <trkpt lat="50.9575471" lon="6.9007295">
      <time>2022-05-28T17:59:01Z</time>
    </trkpt>
    <trkpt lat="50.9576701" lon="6.9004085">
      <time>2022-05-28T17:59:05Z</time>
    </trkpt>
    <trkpt lat="50.9579379" lon="6.8997668">
      <time>2022-05-28T17:59:14Z</time>
    </trkpt>
    <trkpt lat="50.9579967" lon="6.8996359">
      <time>2022-05-28T17:59:16Z</time>
    </trkpt>
    <trkpt lat="50.9580874" lon="6.8994370">
      <time>2022-05-28T17:59:19Z</time>
    </trkpt>
    <trkpt lat="50.9581174" lon="6.8993695">
      <time>2022-05-28T17:59:20Z</time>
    </trkpt>
    <trkpt lat="50.9582072" lon="6.8991726">
      <time>2022-05-28T17:59:23Z</time>
    </trkpt>
    <trkpt lat="50.9583671" lon="6.8988529">
      <time>2022-05-28T17:59:28Z</time>
    </trkpt>
    <trkpt lat="50.9583966" lon="6.8987879">
      <time>2022-05-28T17:59:29Z</time>
    </trkpt>
    <trkpt lat="50.9585989" lon="6.8983762">
      <time>2022-05-28T17:59:36Z</time>
    </trkpt>
    <trkpt lat="50.9586859" lon="6.8981989">
      <time>2022-05-28T17:59:39Z</time>
    </trkpt>
    <trkpt lat="50.9588064" lon="6.8979564">
      <time>2022-05-28T17:59:43Z</time>
    </trkpt>
    <trkpt lat="50.9589906" lon="6.8975748">
      <time>2022-05-28T17:59:49Z</time>
    </trkpt>
    <trkpt lat="50.9590206" lon="6.8975099">
      <time>2022-05-28T17:59:50Z</time>
    </trkpt>
    <trkpt lat="50.9592035" lon="6.8971204">
      <time>2022-05-28T17:59:56Z</time>
    </trkpt>
    <trkpt lat="50.9593261" lon="6.8968691">
      <time>2022-05-28T18:00:00Z</time>
    </trkpt>
    <trkpt lat="50.9595558" lon="6.8963674">
      <time>2022-05-28T18:00:08Z</time>
    </trkpt>
    <trkpt lat="50.9596639" lon="6.8961234">
      <time>2022-05-28T18:00:12Z</time>
    </trkpt>
    <trkpt lat="50.9597597" lon="6.8959474">
      <time>2022-05-28T18:00:15Z</time>
    </trkpt>
    <trkpt lat="50.9599206" lon="6.8956150">
      <time>2022-05-28T18:00:20Z</time>
    </trkpt>
    <trkpt lat="50.9599482" lon="6.8955455">
      <time>2022-05-28T18:00:21Z</time>
    </trkpt>
    <trkpt lat="50.9599747" lon="6.8954745">
      <time>2022-05-28T18:00:22Z</time>
    </trkpt>
    <trkpt lat="50.9600015" lon="6.8954041">
      <time>2022-05-28T18:00:23Z</time>
    </trkpt>
    <trkpt lat="50.9601502" lon="6.8950789">
      <time>2022-05-28T18:00:28Z</time>
    </trkpt>
    <trkpt lat="50.9602124" lon="6.8949538">
      <time>2022-05-28T18:00:30Z</time>
    </trkpt>
    <trkpt lat="50.9602789" lon="6.8948295">
      <time>2022-05-28T18:00:32Z</time>
    </trkpt>
    <trkpt lat="50.9604910" lon="6.8944086">
      <time>2022-05-28T18:00:39Z</time>
    </trkpt>
    <trkpt lat="50.9605942" lon="6.8942304">
      <time>2022-05-28T18:00:42Z</time>
    </trkpt>
    <trkpt lat="50.9606825" lon="6.8940437">
      <time>2022-05-28T18:00:45Z</time>
    </trkpt>
    <trkpt lat="50.9607065" lon="6.8939801">
      <time>2022-05-28T18:00:46Z</time>
    </trkpt>
    <trkpt lat="50.9608005" lon="6.8937171">
      <time>2022-05-28T18:00:50Z</time>
    </trkpt>
    <trkpt lat="50.9608319" lon="6.8936573">
      <time>2022-05-28T18:00:51Z</time>
    </trkpt>
    <trkpt lat="50.9608709" lon="6.8936041">
      <time>2022-05-28T18:00:52Z</time>
    </trkpt>
    <trkpt lat="50.9609534" lon="6.8935150">
      <time>2022-05-28T18:00:54Z</time>
    </trkpt>
    <trkpt lat="50.9609881" lon="6.8934696">
      <time>2022-05-28T18:00:55Z</time>
    </trkpt>
    <trkpt lat="50.9611118" lon="6.8932570">
      <time>2022-05-28T18:00:59Z</time>
    </trkpt>
    <trkpt lat="50.9611682" lon="6.8931496">
      <time>2022-05-28T18:01:01Z</time>
    </trkpt>
    <trkpt lat="50.9612686" lon="6.8929628">
      <time>2022-05-28T18:01:05Z</time>
    </trkpt>
    <trkpt lat="50.9613022" lon="6.8929307">
      <time>2022-05-28T18:01:09Z</time>
    </trkpt>
    <trkpt lat="50.9613390" lon="6.8928517">
      <time>2022-05-28T18:01:49Z</time>
    </trkpt>
    <trkpt lat="50.9613630" lon="6.8928101">
      <time>2022-05-28T18:01:50Z</time>
    </trkpt>
    <trkpt lat="50.9613856" lon="6.8927579">
      <time>2022-05-28T18:01:51Z</time>
    </trkpt>
    <trkpt lat="50.9614305" lon="6.8926329">
      <time>2022-05-28T18:01:53Z</time>
    </trkpt>
    <trkpt lat="50.9615072" lon="6.8924341">
      <time>2022-05-28T18:01:56Z</time>
    </trkpt>
    <trkpt lat="50.9615949" lon="6.8922436">
      <time>2022-05-28T18:01:59Z</time>
    </trkpt>
    <trkpt lat="50.9616870" lon="6.8920491">
      <time>2022-05-28T18:02:02Z</time>
    </trkpt>
    <trkpt lat="50.9617262" lon="6.8919886">
      <time>2022-05-28T18:02:03Z</time>
    </trkpt>
    <trkpt lat="50.9618508" lon="6.8917030">
      <time>2022-05-28T18:02:07Z</time>
    </trkpt>
    <trkpt lat="50.9619534" lon="6.8914808">
      <time>2022-05-28T18:02:10Z</time>
    </trkpt>
    <trkpt lat="50.9619979" lon="6.8913941">
      <time>2022-05-28T18:02:11Z</time>
    </trkpt>
    <trkpt lat="50.9620756" lon="6.8912506">
      <time>2022-05-28T18:02:13Z</time>
    </trkpt>
    <trkpt lat="50.9621392" lon="6.8911216">
      <time>2022-05-28T18:02:15Z</time>
    </trkpt>
    <trkpt lat="50.9622469" lon="6.8909009">
      <time>2022-05-28T18:02:18Z</time>
    </trkpt>
    <trkpt lat="50.9622750" lon="6.8908519">
      <time>2022-05-28T18:02:19Z</time>
    </trkpt>
    <trkpt lat="50.9624825" lon="6.8903768">
      <time>2022-05-28T18:02:26Z</time>
    </trkpt>
    <trkpt lat="50.9626285" lon="6.8899814">
      <time>2022-05-28T18:02:31Z</time>
    </trkpt>
    <trkpt lat="50.9627111" lon="6.8897585">
      <time>2022-05-28T18:02:34Z</time>
    </trkpt>
    <trkpt lat="50.9627547" lon="6.8896620">
      <time>2022-05-28T18:02:35Z</time>
    </trkpt>
    <trkpt lat="50.9628143" lon="6.8895073">
      <time>2022-05-28T18:02:37Z</time>
    </trkpt>
    <trkpt lat="50.9628308" lon="6.8894000">
      <time>2022-05-28T18:02:38Z</time>
    </trkpt>
    <trkpt lat="50.9628732" lon="6.8893406">
      <time>2022-05-28T18:02:39Z</time>
    </trkpt>
    <trkpt lat="50.9629893" lon="6.8892150">
      <time>2022-05-28T18:02:42Z</time>
    </trkpt>
    <trkpt lat="50.9630326" lon="6.8891699">
      <time>2022-05-28T18:02:43Z</time>
    </trkpt>
    <trkpt lat="50.9631557" lon="6.8890230">
      <time>2022-05-28T18:02:46Z</time>
    </trkpt>
    <trkpt lat="50.9631856" lon="6.8889628">
      <time>2022-05-28T18:02:47Z</time>
    </trkpt>
    <trkpt lat="50.9633470" lon="6.8886499">
      <time>2022-05-28T18:02:52Z</time>
    </trkpt>
    <trkpt lat="50.9634071" lon="6.8885396">
      <time>2022-05-28T18:02:54Z</time>
    </trkpt>
    <trkpt lat="50.9634299" lon="6.8884947">
      <time>2022-05-28T18:02:55Z</time>
    </trkpt>
    <trkpt lat="50.9634868" lon="6.8883692">
      <time>2022-05-28T18:02:58Z</time>
    </trkpt>
    <trkpt lat="50.9635543" lon="6.8880713">
      <time>2022-05-28T18:03:04Z</time>
    </trkpt>
    <trkpt lat="50.9634834" lon="6.8879791">
      <time>2022-05-28T18:03:07Z</time>
    </trkpt>
    <trkpt lat="50.9634582" lon="6.8879578">
      <time>2022-05-28T18:03:08Z</time>
    </trkpt>
    <trkpt lat="50.9633799" lon="6.8878793">
      <time>2022-05-28T18:03:11Z</time>
    </trkpt>
    <trkpt lat="50.9633921" lon="6.8878354">
      <time>2022-05-28T18:03:13Z</time>
    </trkpt>
    <trkpt lat="50.9634355" lon="6.8877747">
      <time>2022-05-28T18:03:15Z</time>
    </trkpt>
    <trkpt lat="50.9634470" lon="6.8877409">
      <time>2022-05-28T18:03:16Z</time>
    </trkpt>
    <trkpt lat="50.9634910" lon="6.8875953">
      <time>2022-05-28T18:03:20Z</time>
    </trkpt>
    <trkpt lat="50.9636924" lon="6.8872287">
      <time>2022-05-28T18:03:28Z</time>
    </trkpt>
    <trkpt lat="50.9639021" lon="6.8868222">
      <time>2022-05-28T18:03:35Z</time>
    </trkpt>
    <trkpt lat="50.9640280" lon="6.8865665">
      <time>2022-05-28T18:03:39Z</time>
    </trkpt>
    <trkpt lat="50.9640759" lon="6.8864587">
      <time>2022-05-28T18:03:41Z</time>
    </trkpt>
    <trkpt lat="50.9641744" lon="6.8862448">
      <time>2022-05-28T18:03:45Z</time>
    </trkpt>
    <trkpt lat="50.9642056" lon="6.8861283">
      <time>2022-05-28T18:03:47Z</time>
    </trkpt>
    <trkpt lat="50.9641849" lon="6.8859962">
      <time>2022-05-28T18:03:49Z</time>
    </trkpt>
    <trkpt lat="50.9641643" lon="6.8859566">
      <time>2022-05-28T18:03:50Z</time>
    </trkpt>
    <trkpt lat="50.9641360" lon="6.8859184">
      <time>2022-05-28T18:03:51Z</time>
    </trkpt>
    <trkpt lat="50.9639985" lon="6.8857979">
      <time>2022-05-28T18:03:55Z</time>
    </trkpt>
    <trkpt lat="50.9639226" lon="6.8856651">
      <time>2022-05-28T18:03:59Z</time>
    </trkpt>
    <trkpt lat="50.9639252" lon="6.8855114">
      <time>2022-05-28T18:04:03Z</time>
    </trkpt>
    <trkpt lat="50.9639433" lon="6.8854804">
      <time>2022-05-28T18:04:04Z</time>
    </trkpt>
    <trkpt lat="50.9639668" lon="6.8854603">
      <time>2022-05-28T18:04:05Z</time>
    </trkpt>
    <trkpt lat="50.9640440" lon="6.8854648">
      <time>2022-05-28T18:04:08Z</time>
    </trkpt>
    <trkpt lat="50.9641459" lon="6.8854606">
      <time>2022-05-28T18:04:13Z</time>
    </trkpt>
    <trkpt lat="50.9641544" lon="6.8854356">
      <time>2022-05-28T18:04:17Z</time>
    </trkpt>
    <trkpt lat="50.9642035" lon="6.8854258">
      <time>2022-05-28T18:05:16Z</time>
    </trkpt>
    <trkpt lat="50.9642253" lon="6.8854189">
      <time>2022-05-28T18:05:18Z</time>
    </trkpt>
    <trkpt lat="50.9642323" lon="6.8854074">
      <time>2022-05-28T18:05:20Z</time>
    </trkpt>
    <trkpt lat="50.9642362" lon="6.8853821">
      <time>2022-05-28T18:05:30Z</time>
    </trkpt>
    <trkpt lat="50.9640897" lon="6.8854381">
      <time>2022-05-28T18:14:23Z</time>
    </trkpt>
    <trkpt lat="50.9640685" lon="6.8854468">
      <time>2022-05-28T18:14:24Z</time>
    </trkpt>
    <trkpt lat="50.9640409" lon="6.8854548">
      <time>2022-05-28T18:14:25Z</time>
    </trkpt>
    <trkpt lat="50.9639092" lon="6.8855698">
      <time>2022-05-28T18:14:30Z</time>
    </trkpt>
    <trkpt lat="50.9638290" lon="6.8857376">
      <time>2022-05-28T18:14:34Z</time>
    </trkpt>
    <trkpt lat="50.9636098" lon="6.8859006">
      <time>2022-05-28T18:14:40Z</time>
    </trkpt>
    <trkpt lat="50.9635369" lon="6.8859343">
      <time>2022-05-28T18:14:42Z</time>
    </trkpt>
    <trkpt lat="50.9634672" lon="6.8858903">
      <time>2022-05-28T18:14:44Z</time>
    </trkpt>
    <trkpt lat="50.9631088" lon="6.8855799">
      <time>2022-05-28T18:14:53Z</time>
    </trkpt>
    <trkpt lat="50.9630203" lon="6.8855159">
      <time>2022-05-28T18:14:55Z</time>
    </trkpt>
    <trkpt lat="50.9629366" lon="6.8854686">
      <time>2022-05-28T18:14:57Z</time>
    </trkpt>
    <trkpt lat="50.9628091" lon="6.8854236">
      <time>2022-05-28T18:15:00Z</time>
    </trkpt>
    <trkpt lat="50.9624795" lon="6.8853446">
      <time>2022-05-28T18:15:07Z</time>
    </trkpt>
    <trkpt lat="50.9621259" lon="6.8851636">
      <time>2022-05-28T18:15:15Z</time>
    </trkpt>
    <trkpt lat="50.9620487" lon="6.8851208">
      <time>2022-05-28T18:15:17Z</time>
    </trkpt>
    <trkpt lat="50.9619921" lon="6.8850339">
      <time>2022-05-28T18:15:19Z</time>
    </trkpt>
    <trkpt lat="50.9619272" lon="6.8848470">
      <time>2022-05-28T18:15:22Z</time>
    </trkpt>
    <trkpt lat="50.9619203" lon="6.8846881">
      <time>2022-05-28T18:15:24Z</time>
    </trkpt>
    <trkpt lat="50.9619238" lon="6.8845958">
      <time>2022-05-28T18:15:25Z</time>
    </trkpt>
    <trkpt lat="50.9619402" lon="6.8843837">
      <time>2022-05-28T18:15:28Z</time>
    </trkpt>
    <trkpt lat="50.9619743" lon="6.8840531">
      <time>2022-05-28T18:15:32Z</time>
    </trkpt>
    <trkpt lat="50.9619624" lon="6.8839706">
      <time>2022-05-28T18:15:33Z</time>
    </trkpt>
    <trkpt lat="50.9619675" lon="6.8836315">
      <time>2022-05-28T18:15:37Z</time>
    </trkpt>
    <trkpt lat="50.9619966" lon="6.8835449">
      <time>2022-05-28T18:15:38Z</time>
    </trkpt>
    <trkpt lat="50.9620752" lon="6.8833021">
      <time>2022-05-28T18:15:41Z</time>
    </trkpt>
    <trkpt lat="50.9621251" lon="6.8830418">
      <time>2022-05-28T18:15:44Z</time>
    </trkpt>
    <trkpt lat="50.9621486" lon="6.8828874">
      <time>2022-05-28T18:15:46Z</time>
    </trkpt>
    <trkpt lat="50.9621833" lon="6.8827997">
      <time>2022-05-28T18:15:47Z</time>
    </trkpt>
    <trkpt lat="50.9622633" lon="6.8825570">
      <time>2022-05-28T18:15:50Z</time>
    </trkpt>
    <trkpt lat="50.9623013" lon="6.8822688">
      <time>2022-05-28T18:15:53Z</time>
    </trkpt>
    <trkpt lat="50.9624226" lon="6.8815360">
      <time>2022-05-28T18:16:02Z</time>
    </trkpt>
    <trkpt lat="50.9625161" lon="6.8810175">
      <time>2022-05-28T18:16:09Z</time>
    </trkpt>
    <trkpt lat="50.9625288" lon="6.8809398">
      <time>2022-05-28T18:16:10Z</time>
    </trkpt>
    <trkpt lat="50.9625532" lon="6.8807792">
      <time>2022-05-28T18:16:12Z</time>
    </trkpt>
    <trkpt lat="50.9626168" lon="6.8804137">
      <time>2022-05-28T18:16:17Z</time>
    </trkpt>
    <trkpt lat="50.9626296" lon="6.8803408">
      <time>2022-05-28T18:16:18Z</time>
    </trkpt>
    <trkpt lat="50.9626521" lon="6.8802053">
      <time>2022-05-28T18:16:20Z</time>
    </trkpt>
    <trkpt lat="50.9626988" lon="6.8799009">
      <time>2022-05-28T18:16:24Z</time>
    </trkpt>
    <trkpt lat="50.9627404" lon="6.8796002">
      <time>2022-05-28T18:16:28Z</time>
    </trkpt>
    <trkpt lat="50.9627883" lon="6.8792252">
      <time>2022-05-28T18:16:33Z</time>
    </trkpt>
    <trkpt lat="50.9628186" lon="6.8790788">
      <time>2022-05-28T18:16:35Z</time>
    </trkpt>
    <trkpt lat="50.9628361" lon="6.8790195">
      <time>2022-05-28T18:16:36Z</time>
    </trkpt>
    <trkpt lat="50.9628690" lon="6.8789087">
      <time>2022-05-28T18:16:38Z</time>
    </trkpt>
    <trkpt lat="50.9629185" lon="6.8788095">
      <time>2022-05-28T18:16:40Z</time>
    </trkpt>
    <trkpt lat="50.9629417" lon="6.8787717">
      <time>2022-05-28T18:16:41Z</time>
    </trkpt>
    <trkpt lat="50.9630612" lon="6.8786153">
      <time>2022-05-28T18:16:45Z</time>
    </trkpt>
    <trkpt lat="50.9632028" lon="6.8784370">
      <time>2022-05-28T18:16:49Z</time>
    </trkpt>
    <trkpt lat="50.9632379" lon="6.8783907">
      <time>2022-05-28T18:16:50Z</time>
    </trkpt>
    <trkpt lat="50.9633152" lon="6.8783197">
      <time>2022-05-28T18:16:52Z</time>
    </trkpt>
    <trkpt lat="50.9634902" lon="6.8782244">
      <time>2022-05-28T18:16:56Z</time>
    </trkpt>
    <trkpt lat="50.9636576" lon="6.8780984">
      <time>2022-05-28T18:17:01Z</time>
    </trkpt>
    <trkpt lat="50.9636855" lon="6.8780529">
      <time>2022-05-28T18:17:05Z</time>
    </trkpt>
    <trkpt lat="50.9637043" lon="6.8780008">
      <time>2022-05-28T18:17:11Z</time>
    </trkpt>
    <trkpt lat="50.9636704" lon="6.8779002">
      <time>2022-05-28T18:17:14Z</time>
    </trkpt>
    <trkpt lat="50.9636410" lon="6.8778657">
      <time>2022-05-28T18:17:15Z</time>
    </trkpt>
    <trkpt lat="50.9635058" lon="6.8776731">
      <time>2022-05-28T18:17:20Z</time>
    </trkpt>
    <trkpt lat="50.9633226" lon="6.8773350">
      <time>2022-05-28T18:17:26Z</time>
    </trkpt>
    <trkpt lat="50.9631540" lon="6.8770397">
      <time>2022-05-28T18:17:31Z</time>
    </trkpt>
    <trkpt lat="50.9631158" lon="6.8769837">
      <time>2022-05-28T18:17:32Z</time>
    </trkpt>
    <trkpt lat="50.9630862" lon="6.8769093">
      <time>2022-05-28T18:17:33Z</time>
    </trkpt>
    <trkpt lat="50.9630698" lon="6.8768343">
      <time>2022-05-28T18:17:34Z</time>
    </trkpt>
    <trkpt lat="50.9630730" lon="6.8766865">
      <time>2022-05-28T18:17:36Z</time>
    </trkpt>
    <trkpt lat="50.9630772" lon="6.8766241">
      <time>2022-05-28T18:17:37Z</time>
    </trkpt>
    <trkpt lat="50.9630841" lon="6.8765410">
      <time>2022-05-28T18:17:38Z</time>
    </trkpt>
    <trkpt lat="50.9631237" lon="6.8764191">
      <time>2022-05-28T18:17:40Z</time>
    </trkpt>
    <trkpt lat="50.9631432" lon="6.8763570">
      <time>2022-05-28T18:17:41Z</time>
    </trkpt>
    <trkpt lat="50.9631820" lon="6.8762251">
      <time>2022-05-28T18:17:43Z</time>
    </trkpt>
    <trkpt lat="50.9632445" lon="6.8760604">
      <time>2022-05-28T18:17:46Z</time>
    </trkpt>
    <trkpt lat="50.9632862" lon="6.8759665">
      <time>2022-05-28T18:17:48Z</time>
    </trkpt>
    <trkpt lat="50.9633353" lon="6.8759205">
      <time>2022-05-28T18:17:50Z</time>
    </trkpt>
    <trkpt lat="50.9634227" lon="6.8759270">
      <time>2022-05-28T18:17:55Z</time>
    </trkpt>
    <trkpt lat="50.9634240" lon="6.8759343">
      <time>2022-05-28T18:17:59Z</time>
    </trkpt>
    <trkpt lat="50.9634240" lon="6.8759343">
      <time>2022-05-28T18:18:00Z</time>
    </trkpt>
  </trkseg></trk>
</gpx>
