<?xml version="1.0" encoding="UTF-8"?>
<gpx version="1.1" creator="Diary FIT converter" xmlns="http://www.topografix.com/GPX/1/1">
  <trk><name>Cycling</name><trkseg>
    <trkpt lat="50.9706533" lon="6.8689909">
      <time>2021-03-18T16:55:18Z</time>
    </trkpt>
    <trkpt lat="50.9706123" lon="6.8687667">
      <time>2021-03-18T16:55:20Z</time>
    </trkpt>
    <trkpt lat="50.9707326" lon="6.8684049">
      <time>2021-03-18T16:55:24Z</time>
    </trkpt>
    <trkpt lat="50.9707783" lon="6.8682197">
      <time>2021-03-18T16:55:26Z</time>
    </trkpt>
    <trkpt lat="50.9708196" lon="6.8680472">
      <time>2021-03-18T16:55:28Z</time>
    </trkpt>
    <trkpt lat="50.9708672" lon="6.8678835">
      <time>2021-03-18T16:55:30Z</time>
    </trkpt>
    <trkpt lat="50.9709189" lon="6.8677311">
      <time>2021-03-18T16:55:34Z</time>
    </trkpt>
    <trkpt lat="50.9709508" lon="6.8676264">
      <time>2021-03-18T16:55:35Z</time>
    </trkpt>
    <trkpt lat="50.9709558" lon="6.8674641">
      <time>2021-03-18T16:55:37Z</time>
    </trkpt>
    <trkpt lat="50.9709160" lon="6.8672147">
      <time>2021-03-18T16:55:40Z</time>
    </trkpt>
    <trkpt lat="50.9708849" lon="6.8670524">
      <time>2021-03-18T16:55:42Z</time>
    </trkpt>
    <trkpt lat="50.9708222" lon="6.8666639">
      <time>2021-03-18T16:55:47Z</time>
    </trkpt>
    <trkpt lat="50.9708056" lon="6.8665413">
      <time>2021-03-18T16:55:49Z</time>
    </trkpt>
    <trkpt lat="50.9707855" lon="6.8663550">
      <time>2021-03-18T16:55:53Z</time>
    </trkpt>
    <trkpt lat="50.9707803" lon="6.8663160">
      <time>2021-03-18T16:55:54Z</time>
    </trkpt>
    <trkpt lat="50.9707616" lon="6.8661760">
      <time>2021-03-18T16:55:58Z</time>
    </trkpt>
    <trkpt lat="50.9707651" lon="6.8661046">
      <time>2021-03-18T16:56:00Z</time>
    </trkpt>
    <trkpt lat="50.9707880" lon="6.8660226">
      <time>2021-03-18T16:56:04Z</time>
    </trkpt>
    <trkpt lat="50.9707920" lon="6.8660095">
      <time>2021-03-18T16:56:05Z</time>
    </trkpt>
    <trkpt lat="50.9707924" lon="6.8659709">
      <time>2021-03-18T16:56:09Z</time>
    </trkpt>
    <trkpt lat="50.9707397" lon="6.8658352">
      <time>2021-03-18T16:56:28Z</time>
    </trkpt>
    <trkpt lat="50.9707206" lon="6.8657818">
      <time>2021-03-18T16:56:29Z</time>
    </trkpt>
    <trkpt lat="50.9707120" lon="6.8657182">
      <time>2021-03-18T16:56:30Z</time>
    </trkpt>
    <trkpt lat="50.9707252" lon="6.8655751">
      <time>2021-03-18T16:56:32Z</time>
    </trkpt>
    <trkpt lat="50.9707111" lon="6.8654244">
      <time>2021-03-18T16:56:34Z</time>
    </trkpt>
    <trkpt lat="50.9706839" lon="6.8652946">
      <time>2021-03-18T16:56:36Z</time>
    </trkpt>
    <trkpt lat="50.9706763" lon="6.8652217">
      <time>2021-03-18T16:56:37Z</time>
    </trkpt>
    <trkpt lat="50.9706753" lon="6.8649908">
      <time>2021-03-18T16:56:40Z</time>
    </trkpt>
    <trkpt lat="50.9706774" lon="6.8649174">
      <time>2021-03-18T16:56:41Z</time>
    </trkpt>
    <trkpt lat="50.9706899" lon="6.8647886">
      <time>2021-03-18T16:56:43Z</time>
    </trkpt>
    <trkpt lat="50.9706988" lon="6.8647269">
      <time>2021-03-18T16:56:44Z</time>
    </trkpt>
    <trkpt lat="50.9707028" lon="6.8646602">
      <time>2021-03-18T16:56:45Z</time>
    </trkpt>
    <trkpt lat="50.9706992" lon="6.8645862">
      <time>2021-03-18T16:56:46Z</time>
    </trkpt>
    <trkpt lat="50.9706947" lon="6.8645148">
      <time>2021-03-18T16:56:47Z</time>
    </trkpt>
    <trkpt lat="50.9706425" lon="6.8642668">
      <time>2021-03-18T16:56:50Z</time>
    </trkpt>
    <trkpt lat="50.9704934" lon="6.8637286">
      <time>2021-03-18T16:56:56Z</time>
    </trkpt>
    <trkpt lat="50.9702513" lon="6.8631529">
      <time>2021-03-18T16:57:03Z</time>
    </trkpt>
    <trkpt lat="50.9700898" lon="6.8628414">
      <time>2021-03-18T16:57:07Z</time>
    </trkpt>
    <trkpt lat="50.9699724" lon="6.8626116">
      <time>2021-03-18T16:57:10Z</time>
    </trkpt>
    <trkpt lat="50.9698908" lon="6.8624590">
      <time>2021-03-18T16:57:12Z</time>
    </trkpt>
    <trkpt lat="50.9696416" lon="6.8618157">
      <time>2021-03-18T16:57:20Z</time>
    </trkpt>
    <trkpt lat="50.9695409" lon="6.8611457">
      <time>2021-03-18T16:57:27Z</time>
    </trkpt>
    <trkpt lat="50.9695516" lon="6.8606028">
      <time>2021-03-18T16:57:33Z</time>
    </trkpt>
    <trkpt lat="50.9695603" lon="6.8604132">
      <time>2021-03-18T16:57:35Z</time>
    </trkpt>
    <trkpt lat="50.9695868" lon="6.8601254">
      <time>2021-03-18T16:57:38Z</time>
    </trkpt>
    <trkpt lat="50.9696254" lon="6.8598389">
      <time>2021-03-18T16:57:41Z</time>
    </trkpt>
    <trkpt lat="50.9696867" lon="6.8595419">
      <time>2021-03-18T16:57:44Z</time>
    </trkpt>
    <trkpt lat="50.9697032" lon="6.8594429">
      <time>2021-03-18T16:57:45Z</time>
    </trkpt>
    <trkpt lat="50.9697613" lon="6.8590571">
      <time>2021-03-18T16:57:49Z</time>
    </trkpt>
    <trkpt lat="50.9697980" lon="6.8588723">
      <time>2021-03-18T16:57:51Z</time>
    </trkpt>
    <trkpt lat="50.9699003" lon="6.8584217">
      <time>2021-03-18T16:57:56Z</time>
    </trkpt>
    <trkpt lat="50.9700367" lon="6.8577377">
      <time>2021-03-18T16:58:04Z</time>
    </trkpt>
    <trkpt lat="50.9700438" lon="6.8576522">
      <time>2021-03-18T16:58:05Z</time>
    </trkpt>
    <trkpt lat="50.9700674" lon="6.8573173">
      <time>2021-03-18T16:58:09Z</time>
    </trkpt>
    <trkpt lat="50.9700709" lon="6.8572330">
      <time>2021-03-18T16:58:10Z</time>
    </trkpt>
    <trkpt lat="50.9700731" lon="6.8568023">
      <time>2021-03-18T16:58:15Z</time>
    </trkpt>
    <trkpt lat="50.9700614" lon="6.8564659">
      <time>2021-03-18T16:58:19Z</time>
    </trkpt>
    <trkpt lat="50.9700435" lon="6.8562034">
      <time>2021-03-18T16:58:22Z</time>
    </trkpt>
    <trkpt lat="50.9700044" lon="6.8556631">
      <time>2021-03-18T16:58:28Z</time>
    </trkpt>
    <trkpt lat="50.9699491" lon="6.8549686">
      <time>2021-03-18T16:58:36Z</time>
    </trkpt>
    <trkpt lat="50.9698925" lon="6.8542694">
      <time>2021-03-18T16:58:44Z</time>
    </trkpt>
    <trkpt lat="50.9698628" lon="6.8539835">
      <time>2021-03-18T16:58:47Z</time>
    </trkpt>
    <trkpt lat="50.9698184" lon="6.8532866">
      <time>2021-03-18T16:58:55Z</time>
    </trkpt>
    <trkpt lat="50.9697314" lon="6.8524097">
      <time>2021-03-18T16:59:05Z</time>
    </trkpt>
    <trkpt lat="50.9696386" lon="6.8516652">
      <time>2021-03-18T16:59:14Z</time>
    </trkpt>
    <trkpt lat="50.9696315" lon="6.8515652">
      <time>2021-03-18T16:59:15Z</time>
    </trkpt>
    <trkpt lat="50.9696177" lon="6.8513353">
      <time>2021-03-18T16:59:18Z</time>
    </trkpt>
    <trkpt lat="50.9696199" lon="6.8512376">
      <time>2021-03-18T16:59:19Z</time>
    </trkpt>
    <trkpt lat="50.9696384" lon="6.8511671">
      <time>2021-03-18T16:59:20Z</time>
    </trkpt>
    <trkpt lat="50.9696566" lon="6.8511021">
      <time>2021-03-18T16:59:21Z</time>
    </trkpt>
    <trkpt lat="50.9696650" lon="6.8508894">
      <time>2021-03-18T16:59:24Z</time>
    </trkpt>
    <trkpt lat="50.9696126" lon="6.8507802">
      <time>2021-03-18T16:59:26Z</time>
    </trkpt>
    <trkpt lat="50.9695717" lon="6.8507328">
      <time>2021-03-18T16:59:27Z</time>
    </trkpt>
    <trkpt lat="50.9695293" lon="6.8506689">
      <time>2021-03-18T16:59:28Z</time>
    </trkpt>
    <trkpt lat="50.9694533" lon="6.8504907">
      <time>2021-03-18T16:59:30Z</time>
    </trkpt>
    <trkpt lat="50.9693376" lon="6.8495633">
      <time>2021-03-18T16:59:41Z</time>
    </trkpt>
    <trkpt lat="50.9692687" lon="6.8491858">
      <time>2021-03-18T16:59:45Z</time>
    </trkpt>
    <trkpt lat="50.9692389" lon="6.8488962">
      <time>2021-03-18T16:59:48Z</time>
    </trkpt>
    <trkpt lat="50.9691646" lon="6.8483330">
      <time>2021-03-18T16:59:54Z</time>
    </trkpt>
    <trkpt lat="50.9691478" lon="6.8482382">
      <time>2021-03-18T16:59:55Z</time>
    </trkpt>
    <trkpt lat="50.9690523" lon="6.8475769">
      <time>2021-03-18T17:00:02Z</time>
    </trkpt>
    <trkpt lat="50.9689929" lon="6.8470983">
      <time>2021-03-18T17:00:07Z</time>
    </trkpt>
    <trkpt lat="50.9689521" lon="6.8468239">
      <time>2021-03-18T17:00:10Z</time>
    </trkpt>
    <trkpt lat="50.9689146" lon="6.8465265">
      <time>2021-03-18T17:00:13Z</time>
    </trkpt>
    <trkpt lat="50.9688035" lon="6.8456590">
      <time>2021-03-18T17:00:22Z</time>
    </trkpt>
    <trkpt lat="50.9687921" lon="6.8455405">
      <time>2021-03-18T17:00:23Z</time>
    </trkpt>
    <trkpt lat="50.9686896" lon="6.8447123">
      <time>2021-03-18T17:00:32Z</time>
    </trkpt>
    <trkpt lat="50.9685755" lon="6.8438447">
      <time>2021-03-18T17:00:41Z</time>
    </trkpt>
    <trkpt lat="50.9685632" lon="6.8437705">
      <time>2021-03-18T17:00:42Z</time>
    </trkpt>
    <trkpt lat="50.9685217" lon="6.8434946">
      <time>2021-03-18T17:00:45Z</time>
    </trkpt>
    <trkpt lat="50.9684393" lon="6.8430356">
      <time>2021-03-18T17:00:50Z</time>
    </trkpt>
    <trkpt lat="50.9683570" lon="6.8425209">
      <time>2021-03-18T17:00:56Z</time>
    </trkpt>
    <trkpt lat="50.9682891" lon="6.8420758">
      <time>2021-03-18T17:01:01Z</time>
    </trkpt>
    <trkpt lat="50.9682535" lon="6.8418377">
      <time>2021-03-18T17:01:04Z</time>
    </trkpt>
    <trkpt lat="50.9682416" lon="6.8417563">
      <time>2021-03-18T17:01:05Z</time>
    </trkpt>
    <trkpt lat="50.9682144" lon="6.8415437">
      <time>2021-03-18T17:01:08Z</time>
    </trkpt>
    <trkpt lat="50.9681845" lon="6.8414222">
      <time>2021-03-18T17:01:10Z</time>
    </trkpt>
    <trkpt lat="50.9681648" lon="6.8413529">
      <time>2021-03-18T17:01:11Z</time>
    </trkpt>
    <trkpt lat="50.9680817" lon="6.8410271">
      <time>2021-03-18T17:01:16Z</time>
    </trkpt>
    <trkpt lat="50.9680564" lon="6.8409432">
      <time>2021-03-18T17:01:19Z</time>
    </trkpt>
    <trkpt lat="50.9680560" lon="6.8409220">
      <time>2021-03-18T17:01:20Z</time>
    </trkpt>
    <trkpt lat="50.9680689" lon="6.8407774">
      <time>2021-03-18T17:01:24Z</time>
    </trkpt>
    <trkpt lat="50.9679824" lon="6.8405463">
      <time>2021-03-18T17:01:29Z</time>
    </trkpt>
    <trkpt lat="50.9678991" lon="6.8404624">
      <time>2021-03-18T17:01:32Z</time>
    </trkpt>
    <trkpt lat="50.9678766" lon="6.8404042">
      <time>2021-03-18T17:01:33Z</time>
    </trkpt>
    <trkpt lat="50.9678809" lon="6.8401828">
      <time>2021-03-18T17:01:37Z</time>
    </trkpt>
    <trkpt lat="50.9678783" lon="6.8401131">
      <time>2021-03-18T17:01:38Z</time>
    </trkpt>
    <trkpt lat="50.9678742" lon="6.8400332">
      <time>2021-03-18T17:01:39Z</time>
    </trkpt>
    <trkpt lat="50.9678347" lon="6.8397823">
      <time>2021-03-18T17:01:43Z</time>
    </trkpt>
    <trkpt lat="50.9677811" lon="6.8394575">
      <time>2021-03-18T17:01:48Z</time>
    </trkpt>
    <trkpt lat="50.9677846" lon="6.8393400">
      <time>2021-03-18T17:01:50Z</time>
    </trkpt>
    <trkpt lat="50.9677500" lon="6.8390309">
      <time>2021-03-18T17:01:55Z</time>
    </trkpt>
    <trkpt lat="50.9676773" lon="6.8387151">
      <time>2021-03-18T17:02:01Z</time>
    </trkpt>
    <trkpt lat="50.9676773" lon="6.8386672">
      <time>2021-03-18T17:02:03Z</time>
    </trkpt>
    <trkpt lat="50.9676854" lon="6.8386549">
      <time>2021-03-18T17:02:04Z</time>
    </trkpt>
    <trkpt lat="50.9676950" lon="6.8386493">
      <time>2021-03-18T17:02:05Z</time>
    </trkpt>
    <trkpt lat="50.9676955" lon="6.8386464">
      <time>2021-03-18T17:02:08Z</time>
    </trkpt>
    <trkpt lat="50.9676955" lon="6.8386464">
      <time>2021-03-18T17:02:09Z</time>
    </trkpt>
    <trkpt lat="50.9675976" lon="6.8384215">
      <time>2021-03-18T17:02:28Z</time>
    </trkpt>
    <trkpt lat="50.9675893" lon="6.8384065">
      <time>2021-03-18T17:02:29Z</time>
    </trkpt>
    <trkpt lat="50.9675846" lon="6.8383864">
      <time>2021-03-18T17:02:30Z</time>
    </trkpt>
    <trkpt lat="50.9675342" lon="6.8382230">
      <time>2021-03-18T17:02:39Z</time>
    </trkpt>
    <trkpt lat="50.9675032" lon="6.8380844">
      <time>2021-03-18T17:02:47Z</time>
    </trkpt>
    <trkpt lat="50.9674613" lon="6.8379303">
      <time>2021-03-18T17:02:56Z</time>
    </trkpt>
    <trkpt lat="50.9674643" lon="6.8378746">
      <time>2021-03-18T17:03:00Z</time>
    </trkpt>
    <trkpt lat="50.9674615" lon="6.8378561">
      <time>2021-03-18T17:03:02Z</time>
    </trkpt>
    <trkpt lat="50.9674582" lon="6.8378543">
      <time>2021-03-18T17:03:05Z</time>
    </trkpt>
    <trkpt lat="50.9673815" lon="6.8376904">
      <time>2021-03-18T17:04:22Z</time>
    </trkpt>
    <trkpt lat="50.9673703" lon="6.8376858">
      <time>2021-03-18T17:04:23Z</time>
    </trkpt>
    <trkpt lat="50.9673572" lon="6.8376805">
      <time>2021-03-18T17:04:24Z</time>
    </trkpt>
    <trkpt lat="50.9673163" lon="6.8376763">
      <time>2021-03-18T17:04:27Z</time>
    </trkpt>
    <trkpt lat="50.9672858" lon="6.8377211">
      <time>2021-03-18T17:04:29Z</time>
    </trkpt>
    <trkpt lat="50.9672492" lon="6.8377559">
      <time>2021-03-18T17:04:32Z</time>
    </trkpt>
    <trkpt lat="50.9672158" lon="6.8377596">
      <time>2021-03-18T17:04:34Z</time>
    </trkpt>
    <trkpt lat="50.9671982" lon="6.8377789">
      <time>2021-03-18T17:04:37Z</time>
    </trkpt>
    <trkpt lat="50.9671294" lon="6.8378136">
      <time>2021-03-18T17:04:41Z</time>
    </trkpt>
    <trkpt lat="50.9671040" lon="6.8378339">
      <time>2021-03-18T17:04:43Z</time>
    </trkpt>
    <trkpt lat="50.9670480" lon="6.8379071">
      <time>2021-03-18T17:04:48Z</time>
    </trkpt>
    <trkpt lat="50.9669914" lon="6.8379717">
      <time>2021-03-18T17:04:54Z</time>
    </trkpt>
    <trkpt lat="50.9669821" lon="6.8379783">
      <time>2021-03-18T17:04:55Z</time>
    </trkpt>
    <trkpt lat="50.9669526" lon="6.8380005">
      <time>2021-03-18T17:04:58Z</time>
    </trkpt>
    <trkpt lat="50.9669286" lon="6.8380274">
      <time>2021-03-18T17:05:00Z</time>
    </trkpt>
    <trkpt lat="50.9669041" lon="6.8380378">
      <time>2021-03-18T17:05:02Z</time>
    </trkpt>
    <trkpt lat="50.9668694" lon="6.8380553">
      <time>2021-03-18T17:05:05Z</time>
    </trkpt>
    <trkpt lat="50.9668611" lon="6.8380637">
      <time>2021-03-18T17:05:06Z</time>
    </trkpt>
    <trkpt lat="50.9668450" lon="6.8380854">
      <time>2021-03-18T17:05:08Z</time>
    </trkpt>
    <trkpt lat="50.9668029" lon="6.8381292">
      <time>2021-03-18T17:05:11Z</time>
    </trkpt>
    <trkpt lat="50.9667940" lon="6.8381316">
      <time>2021-03-18T17:05:12Z</time>
    </trkpt>
    <trkpt lat="50.9667653" lon="6.8381332">
      <time>2021-03-18T17:05:15Z</time>
    </trkpt>
    <trkpt lat="50.9667134" lon="6.8381646">
      <time>2021-03-18T17:05:20Z</time>
    </trkpt>
    <trkpt lat="50.9666992" lon="6.8381719">
      <time>2021-03-18T17:05:21Z</time>
    </trkpt>
    <trkpt lat="50.9666742" lon="6.8381885">
      <time>2021-03-18T17:05:23Z</time>
    </trkpt>
    <trkpt lat="50.9666374" lon="6.8382291">
      <time>2021-03-18T17:05:29Z</time>
    </trkpt>
    <trkpt lat="50.9665626" lon="6.8383351">
      <time>2021-03-18T17:05:40Z</time>
    </trkpt>
    <trkpt lat="50.9665424" lon="6.8383648">
      <time>2021-03-18T17:05:43Z</time>
    </trkpt>
    <trkpt lat="50.9665279" lon="6.8383766">
      <time>2021-03-18T17:05:44Z</time>
    </trkpt>
    <trkpt lat="50.9664574" lon="6.8383933">
      <time>2021-03-18T17:05:49Z</time>
    </trkpt>
    <trkpt lat="50.9663973" lon="6.8384472">
      <time>2021-03-18T17:05:54Z</time>
    </trkpt>
    <trkpt lat="50.9663702" lon="6.8384784">
      <time>2021-03-18T17:05:56Z</time>
    </trkpt>
    <trkpt lat="50.9663624" lon="6.8384921">
      <time>2021-03-18T17:05:57Z</time>
    </trkpt>
    <trkpt lat="50.9663264" lon="6.8385303">
      <time>2021-03-18T17:06:02Z</time>
    </trkpt>
    <trkpt lat="50.9662762" lon="6.8385772">
      <time>2021-03-18T17:06:07Z</time>
    </trkpt>
    <trkpt lat="50.9662825" lon="6.8386153">
      <time>2021-03-18T17:06:09Z</time>
    </trkpt>
    <trkpt lat="50.9662761" lon="6.8386801">
      <time>2021-03-18T17:06:14Z</time>
    </trkpt>
    <trkpt lat="50.9662753" lon="6.8387085">
      <time>2021-03-18T17:06:16Z</time>
    </trkpt>
    <trkpt lat="50.9662622" lon="6.8387558">
      <time>2021-03-18T17:06:21Z</time>
    </trkpt>
    <trkpt lat="50.9662601" lon="6.8387605">
      <time>2021-03-18T17:06:23Z</time>
    </trkpt>
    <trkpt lat="50.9662601" lon="6.8387605">
      <time>2021-03-18T17:06:24Z</time>
    </trkpt>
    <trkpt lat="50.9662942" lon="6.8391665">
      <time>2021-03-18T17:06:49Z</time>
    </trkpt>
    <trkpt lat="50.9662966" lon="6.8392205">
      <time>2021-03-18T17:06:52Z</time>
    </trkpt>
    <trkpt lat="50.9662840" lon="6.8393369">
      <time>2021-03-18T17:06:58Z</time>
    </trkpt>
    <trkpt lat="50.9662631" lon="6.8393729">
      <time>2021-03-18T17:07:05Z</time>
    </trkpt>
    <trkpt lat="50.9662583" lon="6.8394410">
      <time>2021-03-18T17:19:16Z</time>
    </trkpt>
    <trkpt lat="50.9662362" lon="6.8394878">
      <time>2021-03-18T17:19:19Z</time>
    </trkpt>
    <trkpt lat="50.9661729" lon="6.8395578">
      <time>2021-03-18T17:19:25Z</time>
    </trkpt>
    <trkpt lat="50.9661427" lon="6.8395845">
      <time>2021-03-18T17:19:28Z</time>
    </trkpt>
    <trkpt lat="50.9661003" lon="6.8396390">
      <time>2021-03-18T17:19:33Z</time>
    </trkpt>
    <trkpt lat="50.9660679" lon="6.8396791">
      <time>2021-03-18T17:19:37Z</time>
    </trkpt>
    <trkpt lat="50.9660025" lon="6.8397381">
      <time>2021-03-18T17:19:44Z</time>
    </trkpt>
    <trkpt lat="50.9659931" lon="6.8397452">
      <time>2021-03-18T17:19:45Z</time>
    </trkpt>
    <trkpt lat="50.9659575" lon="6.8397762">
      <time>2021-03-18T17:19:49Z</time>
    </trkpt>
    <trkpt lat="50.9659273" lon="6.8398118">
      <time>2021-03-18T17:19:53Z</time>
    </trkpt>
    <trkpt lat="50.9658707" lon="6.8398800">
      <time>2021-03-18T17:19:59Z</time>
    </trkpt>
    <trkpt lat="50.9658358" lon="6.8399163">
      <time>2021-03-18T17:20:02Z</time>
    </trkpt>
    <trkpt lat="50.9657679" lon="6.8400054">
      <time>2021-03-18T17:20:10Z</time>
    </trkpt>
    <trkpt lat="50.9657555" lon="6.8400322">
      <time>2021-03-18T17:20:12Z</time>
    </trkpt>
    <trkpt lat="50.9657572" lon="6.8401378">
      <time>2021-03-18T17:20:19Z</time>
    </trkpt>
    <trkpt lat="50.9657976" lon="6.8402522">
      <time>2021-03-18T17:20:27Z</time>
    </trkpt>
    <trkpt lat="50.9658028" lon="6.8402597">
      <time>2021-03-18T17:20:28Z</time>
    </trkpt>
    <trkpt lat="50.9658215" lon="6.8403007">
      <time>2021-03-18T17:20:31Z</time>
    </trkpt>
    <trkpt lat="50.9658483" lon="6.8403683">
      <time>2021-03-18T17:20:36Z</time>
    </trkpt>
    <trkpt lat="50.9658539" lon="6.8404025">
      <time>2021-03-18T17:20:39Z</time>
    </trkpt>
    <trkpt lat="50.9658684" lon="6.8404418">
      <time>2021-03-18T17:20:42Z</time>
    </trkpt>
    <trkpt lat="50.9659095" lon="6.8405373">
      <time>2021-03-18T17:20:50Z</time>
    </trkpt>
    <trkpt lat="50.9659552" lon="6.8406350">
      <time>2021-03-18T17:20:57Z</time>
    </trkpt>
    <trkpt lat="50.9659708" lon="6.8406630">
      <time>2021-03-18T17:20:59Z</time>
    </trkpt>
    <trkpt lat="50.9659972" lon="6.8407163">
      <time>2021-03-18T17:21:03Z</time>
    </trkpt>
    <trkpt lat="50.9660298" lon="6.8407918">
      <time>2021-03-18T17:21:08Z</time>
    </trkpt>
    <trkpt lat="50.9660459" lon="6.8408294">
      <time>2021-03-18T17:21:11Z</time>
    </trkpt>
    <trkpt lat="50.9660877" lon="6.8409186">
      <time>2021-03-18T17:21:18Z</time>
    </trkpt>
    <trkpt lat="50.9661076" lon="6.8409426">
      <time>2021-03-18T17:21:20Z</time>
    </trkpt>
    <trkpt lat="50.9661711" lon="6.8410567">
      <time>2021-03-18T17:21:28Z</time>
    </trkpt>
    <trkpt lat="50.9661995" lon="6.8411400">
      <time>2021-03-18T17:21:33Z</time>
    </trkpt>
    <trkpt lat="50.9661995" lon="6.8411707">
      <time>2021-03-18T17:21:35Z</time>
    </trkpt>
    <trkpt lat="50.9662589" lon="6.8412043">
      <time>2021-03-18T17:21:40Z</time>
    </trkpt>
    <trkpt lat="50.9662762" lon="6.8412039">
      <time>2021-03-18T17:21:42Z</time>
    </trkpt>
    <trkpt lat="50.9662865" lon="6.8411952">
      <time>2021-03-18T17:21:45Z</time>
    </trkpt>
    <trkpt lat="50.9664714" lon="6.8409936">
      <time>2021-03-18T17:22:13Z</time>
    </trkpt>
    <trkpt lat="50.9665150" lon="6.8409583">
      <time>2021-03-18T17:22:16Z</time>
    </trkpt>
    <trkpt lat="50.9665474" lon="6.8409455">
      <time>2021-03-18T17:22:19Z</time>
    </trkpt>
    <trkpt lat="50.9665768" lon="6.8409265">
      <time>2021-03-18T17:22:22Z</time>
    </trkpt>
    <trkpt lat="50.9666425" lon="6.8408645">
      <time>2021-03-18T17:22:29Z</time>
    </trkpt>
    <trkpt lat="50.9666964" lon="6.8407848">
      <time>2021-03-18T17:22:36Z</time>
    </trkpt>
    <trkpt lat="50.9667033" lon="6.8407704">
      <time>2021-03-18T17:22:37Z</time>
    </trkpt>
    <trkpt lat="50.9667264" lon="6.8407372">
      <time>2021-03-18T17:22:40Z</time>
    </trkpt>
    <trkpt lat="50.9667438" lon="6.8407195">
      <time>2021-03-18T17:22:43Z</time>
    </trkpt>
    <trkpt lat="50.9667590" lon="6.8407119">
      <time>2021-03-18T17:22:47Z</time>
    </trkpt>
    <trkpt lat="50.9667864" lon="6.8407349">
      <time>2021-03-18T17:23:25Z</time>
    </trkpt>
    <trkpt lat="50.9667955" lon="6.8407708">
      <time>2021-03-18T17:23:26Z</time>
    </trkpt>
    <trkpt lat="50.9668762" lon="6.8409545">
      <time>2021-03-18T17:23:30Z</time>
    </trkpt>
    <trkpt lat="50.9670393" lon="6.8413303">
      <time>2021-03-18T17:23:37Z</time>
    </trkpt>
    <trkpt lat="50.9671319" lon="6.8415189">
      <time>2021-03-18T17:23:41Z</time>
    </trkpt>
    <trkpt lat="50.9671663" lon="6.8416269">
      <time>2021-03-18T17:23:43Z</time>
    </trkpt>
    <trkpt lat="50.9671837" lon="6.8416849">
      <time>2021-03-18T17:23:44Z</time>
    </trkpt>
    <trkpt lat="50.9672914" lon="6.8419838">
      <time>2021-03-18T17:23:50Z</time>
    </trkpt>
    <trkpt lat="50.9674178" lon="6.8422590">
      <time>2021-03-18T17:23:56Z</time>
    </trkpt>
    <trkpt lat="50.9674325" lon="6.8423028">
      <time>2021-03-18T17:23:57Z</time>
    </trkpt>
    <trkpt lat="50.9674471" lon="6.8424039">
      <time>2021-03-18T17:24:00Z</time>
    </trkpt>
    <trkpt lat="50.9674597" lon="6.8424149">
      <time>2021-03-18T17:24:01Z</time>
    </trkpt>
    <trkpt lat="50.9674755" lon="6.8423890">
      <time>2021-03-18T17:24:03Z</time>
    </trkpt>
    <trkpt lat="50.9674514" lon="6.8423322">
      <time>2021-03-18T17:24:05Z</time>
    </trkpt>
    <trkpt lat="50.9673474" lon="6.8421394">
      <time>2021-03-18T17:24:10Z</time>
    </trkpt>
    <trkpt lat="50.9672184" lon="6.8418161">
      <time>2021-03-18T17:24:17Z</time>
    </trkpt>
    <trkpt lat="50.9671973" lon="6.8417982">
      <time>2021-03-18T17:24:18Z</time>
    </trkpt>
    <trkpt lat="50.9670996" lon="6.8418100">
      <time>2021-03-18T17:24:21Z</time>
    </trkpt>
    <trkpt lat="50.9670563" lon="6.8418397">
      <time>2021-03-18T17:24:22Z</time>
    </trkpt>
    <trkpt lat="50.9669259" lon="6.8419806">
      <time>2021-03-18T17:24:25Z</time>
    </trkpt>
    <trkpt lat="50.9666156" lon="6.8422726">
      <time>2021-03-18T17:24:32Z</time>
    </trkpt>
    <trkpt lat="50.9663777" lon="6.8424942">
      <time>2021-03-18T17:24:38Z</time>
    </trkpt>
    <trkpt lat="50.9662601" lon="6.8426340">
      <time>2021-03-18T17:24:41Z</time>
    </trkpt>
    <trkpt lat="50.9662236" lon="6.8426814">
      <time>2021-03-18T17:24:42Z</time>
    </trkpt>
    <trkpt lat="50.9659865" lon="6.8429085">
      <time>2021-03-18T17:24:48Z</time>
    </trkpt>
    <trkpt lat="50.9657790" lon="6.8431109">
      <time>2021-03-18T17:24:53Z</time>
    </trkpt>
    <trkpt lat="50.9656896" lon="6.8432352">
      <time>2021-03-18T17:24:56Z</time>
    </trkpt>
    <trkpt lat="50.9656149" lon="6.8433445">
      <time>2021-03-18T17:24:59Z</time>
    </trkpt>
    <trkpt lat="50.9655213" lon="6.8434232">
      <time>2021-03-18T17:25:02Z</time>
    </trkpt>
    <trkpt lat="50.9654860" lon="6.8434435">
      <time>2021-03-18T17:25:03Z</time>
    </trkpt>
    <trkpt lat="50.9652178" lon="6.8436897">
      <time>2021-03-18T17:25:11Z</time>
    </trkpt>
    <trkpt lat="50.9649738" lon="6.8439452">
      <time>2021-03-18T17:25:19Z</time>
    </trkpt>
    <trkpt lat="50.9649402" lon="6.8439680">
      <time>2021-03-18T17:25:21Z</time>
    </trkpt>
    <trkpt lat="50.9649411" lon="6.8439814">
      <time>2021-03-18T17:25:22Z</time>
    </trkpt>
    <trkpt lat="50.9650028" lon="6.8439536">
      <time>2021-03-18T17:25:26Z</time>
    </trkpt>
    <trkpt lat="50.9651634" lon="6.8438005">
      <time>2021-03-18T17:25:32Z</time>
    </trkpt>
    <trkpt lat="50.9653587" lon="6.8435654">
      <time>2021-03-18T17:25:39Z</time>
    </trkpt>
    <trkpt lat="50.9654294" lon="6.8434992">
      <time>2021-03-18T17:25:41Z</time>
    </trkpt>
    <trkpt lat="50.9654964" lon="6.8434447">
      <time>2021-03-18T17:25:43Z</time>
    </trkpt>
    <trkpt lat="50.9656049" lon="6.8433629">
      <time>2021-03-18T17:25:47Z</time>
    </trkpt>
    <trkpt lat="50.9656797" lon="6.8434300">
      <time>2021-03-18T17:25:51Z</time>
    </trkpt>
    <trkpt lat="50.9657388" lon="6.8435930">
      <time>2021-03-18T17:25:57Z</time>
    </trkpt>
    <trkpt lat="50.9657892" lon="6.8437281">
      <time>2021-03-18T17:26:01Z</time>
    </trkpt>
    <trkpt lat="50.9658109" lon="6.8437706">
      <time>2021-03-18T17:26:02Z</time>
    </trkpt>
    <trkpt lat="50.9659642" lon="6.8441124">
      <time>2021-03-18T17:26:09Z</time>
    </trkpt>
    <trkpt lat="50.9660629" lon="6.8443533">
      <time>2021-03-18T17:26:15Z</time>
    </trkpt>
    <trkpt lat="50.9660604" lon="6.8443956">
      <time>2021-03-18T17:26:16Z</time>
    </trkpt>
    <trkpt lat="50.9660078" lon="6.8444983">
      <time>2021-03-18T17:26:19Z</time>
    </trkpt>
    <trkpt lat="50.9659184" lon="6.8445657">
      <time>2021-03-18T17:26:22Z</time>
    </trkpt>
    <trkpt lat="50.9657844" lon="6.8446712">
      <time>2021-03-18T17:26:26Z</time>
    </trkpt>
    <trkpt lat="50.9655100" lon="6.8449147">
      <time>2021-03-18T17:26:34Z</time>
    </trkpt>
    <trkpt lat="50.9651907" lon="6.8451528">
      <time>2021-03-18T17:26:42Z</time>
    </trkpt>
    <trkpt lat="50.9649619" lon="6.8453418">
      <time>2021-03-18T17:26:48Z</time>
    </trkpt>
    <trkpt lat="50.9648438" lon="6.8454279">
      <time>2021-03-18T17:26:51Z</time>
    </trkpt>
    <trkpt lat="50.9648036" lon="6.8454584">
      <time>2021-03-18T17:26:52Z</time>
    </trkpt>
    <trkpt lat="50.9646112" lon="6.8456098">
      <time>2021-03-18T17:26:57Z</time>
    </trkpt>
    <trkpt lat="50.9644151" lon="6.8457778">
      <time>2021-03-18T17:27:02Z</time>
    </trkpt>
    <trkpt lat="50.9640185" lon="6.8461212">
      <time>2021-03-18T17:27:13Z</time>
    </trkpt>
    <trkpt lat="50.9637220" lon="6.8463601">
      <time>2021-03-18T17:27:21Z</time>
    </trkpt>
    <trkpt lat="50.9635760" lon="6.8464708">
      <time>2021-03-18T17:27:25Z</time>
    </trkpt>
    <trkpt lat="50.9634321" lon="6.8465895">
      <time>2021-03-18T17:27:29Z</time>
    </trkpt>
    <trkpt lat="50.9632592" lon="6.8466589">
      <time>2021-03-18T17:27:34Z</time>
    </trkpt>
    <trkpt lat="50.9632306" lon="6.8466266">
      <time>2021-03-18T17:27:35Z</time>
    </trkpt>
    <trkpt lat="50.9631822" lon="6.8465278">
      <time>2021-03-18T17:27:37Z</time>
    </trkpt>
    <trkpt lat="50.9629818" lon="6.8459907">
      <time>2021-03-18T17:27:46Z</time>
    </trkpt>
    <trkpt lat="50.9627777" lon="6.8454577">
      <time>2021-03-18T17:27:55Z</time>
    </trkpt>
    <trkpt lat="50.9627563" lon="6.8454026">
      <time>2021-03-18T17:27:56Z</time>
    </trkpt>
    <trkpt lat="50.9626450" lon="6.8451329">
      <time>2021-03-18T17:28:01Z</time>
    </trkpt>
    <trkpt lat="50.9625531" lon="6.8449166">
      <time>2021-03-18T17:28:05Z</time>
    </trkpt>
    <trkpt lat="50.9624532" lon="6.8448519">
      <time>2021-03-18T17:28:08Z</time>
    </trkpt>
    <trkpt lat="50.9623044" lon="6.8449803">
      <time>2021-03-18T17:28:12Z</time>
    </trkpt>
    <trkpt lat="50.9621952" lon="6.8451000">
      <time>2021-03-18T17:28:15Z</time>
    </trkpt>
    <trkpt lat="50.9619746" lon="6.8453258">
      <time>2021-03-18T17:28:21Z</time>
    </trkpt>
    <trkpt lat="50.9618688" lon="6.8454327">
      <time>2021-03-18T17:28:24Z</time>
    </trkpt>
    <trkpt lat="50.9616155" lon="6.8457227">
      <time>2021-03-18T17:28:31Z</time>
    </trkpt>
    <trkpt lat="50.9615308" lon="6.8458737">
      <time>2021-03-18T17:28:34Z</time>
    </trkpt>
    <trkpt lat="50.9614191" lon="6.8460794">
      <time>2021-03-18T17:28:38Z</time>
    </trkpt>
    <trkpt lat="50.9613484" lon="6.8461477">
      <time>2021-03-18T17:28:40Z</time>
    </trkpt>
    <trkpt lat="50.9610318" lon="6.8462865">
      <time>2021-03-18T17:28:48Z</time>
    </trkpt>
    <trkpt lat="50.9606932" lon="6.8464441">
      <time>2021-03-18T17:28:57Z</time>
    </trkpt>
    <trkpt lat="50.9605628" lon="6.8465947">
      <time>2021-03-18T17:29:02Z</time>
    </trkpt>
    <trkpt lat="50.9605545" lon="6.8469806">
      <time>2021-03-18T17:29:08Z</time>
    </trkpt>
    <trkpt lat="50.9605459" lon="6.8472552">
      <time>2021-03-18T17:29:12Z</time>
    </trkpt>
    <trkpt lat="50.9605146" lon="6.8475431">
      <time>2021-03-18T17:29:16Z</time>
    </trkpt>
    <trkpt lat="50.9604711" lon="6.8482366">
      <time>2021-03-18T17:29:25Z</time>
    </trkpt>
    <trkpt lat="50.9604257" lon="6.8490100">
      <time>2021-03-18T17:29:35Z</time>
    </trkpt>
    <trkpt lat="50.9603717" lon="6.8496761">
      <time>2021-03-18T17:29:44Z</time>
    </trkpt>
    <trkpt lat="50.9603043" lon="6.8504586">
      <time>2021-03-18T17:29:54Z</time>
    </trkpt>
    <trkpt lat="50.9602256" lon="6.8510338">
      <time>2021-03-18T17:30:01Z</time>
    </trkpt>
    <trkpt lat="50.9602454" lon="6.8511553">
      <time>2021-03-18T17:30:03Z</time>
    </trkpt>
    <trkpt lat="50.9602414" lon="6.8512306">
      <time>2021-03-18T17:30:04Z</time>
    </trkpt>
    <trkpt lat="50.9602243" lon="6.8515075">
      <time>2021-03-18T17:30:08Z</time>
    </trkpt>
    <trkpt lat="50.9602027" lon="6.8519456">
      <time>2021-03-18T17:30:15Z</time>
    </trkpt>
    <trkpt lat="50.9602026" lon="6.8520131">
      <time>2021-03-18T17:30:16Z</time>
    </trkpt>
    <trkpt lat="50.9601873" lon="6.8522694">
      <time>2021-03-18T17:30:20Z</time>
    </trkpt>
    <trkpt lat="50.9601608" lon="6.8525933">
      <time>2021-03-18T17:30:25Z</time>
    </trkpt>
    <trkpt lat="50.9601506" lon="6.8528633">
      <time>2021-03-18T17:30:29Z</time>
    </trkpt>
    <trkpt lat="50.9601324" lon="6.8532015">
      <time>2021-03-18T17:30:34Z</time>
    </trkpt>
    <trkpt lat="50.9601306" lon="6.8532682">
      <time>2021-03-18T17:30:35Z</time>
    </trkpt>
    <trkpt lat="50.9601238" lon="6.8533988">
      <time>2021-03-18T17:30:37Z</time>
    </trkpt>
    <trkpt lat="50.9600965" lon="6.8536603">
      <time>2021-03-18T17:30:41Z</time>
    </trkpt>
    <trkpt lat="50.9600712" lon="6.8538557">
      <time>2021-03-18T17:30:44Z</time>
    </trkpt>
    <trkpt lat="50.9600324" lon="6.8544569">
      <time>2021-03-18T17:30:53Z</time>
    </trkpt>
    <trkpt lat="50.9600153" lon="6.8547179">
      <time>2021-03-18T17:30:57Z</time>
    </trkpt>
    <trkpt lat="50.9599864" lon="6.8551770">
      <time>2021-03-18T17:31:04Z</time>
    </trkpt>
    <trkpt lat="50.9599633" lon="6.8556045">
      <time>2021-03-18T17:31:10Z</time>
    </trkpt>
    <trkpt lat="50.9599476" lon="6.8559585">
      <time>2021-03-18T17:31:15Z</time>
    </trkpt>
    <trkpt lat="50.9598849" lon="6.8568161">
      <time>2021-03-18T17:31:27Z</time>
    </trkpt>
    <trkpt lat="50.9598756" lon="6.8568833">
      <time>2021-03-18T17:31:28Z</time>
    </trkpt>
    <trkpt lat="50.9598169" lon="6.8577172">
      <time>2021-03-18T17:31:39Z</time>
    </trkpt>
    <trkpt lat="50.9598015" lon="6.8580039">
      <time>2021-03-18T17:31:43Z</time>
    </trkpt>
    <trkpt lat="50.9597776" lon="6.8582975">
      <time>2021-03-18T17:31:47Z</time>
    </trkpt>
    <trkpt lat="50.9597318" lon="6.8590429">
      <time>2021-03-18T17:31:57Z</time>
    </trkpt>
    <trkpt lat="50.9596918" lon="6.8594946">
      <time>2021-03-18T17:32:03Z</time>
    </trkpt>
    <trkpt lat="50.9596713" lon="6.8597723">
      <time>2021-03-18T17:32:07Z</time>
    </trkpt>
    <trkpt lat="50.9596695" lon="6.8598424">
      <time>2021-03-18T17:32:08Z</time>
    </trkpt>
    <trkpt lat="50.9596289" lon="6.8604626">
      <time>2021-03-18T17:32:17Z</time>
    </trkpt>
    <trkpt lat="50.9596104" lon="6.8608384">
      <time>2021-03-18T17:32:22Z</time>
    </trkpt>
    <trkpt lat="50.9595880" lon="6.8612028">
      <time>2021-03-18T17:32:27Z</time>
    </trkpt>
    <trkpt lat="50.9595612" lon="6.8616312">
      <time>2021-03-18T17:32:33Z</time>
    </trkpt>
    <trkpt lat="50.9595622" lon="6.8618357">
      <time>2021-03-18T17:32:36Z</time>
    </trkpt>
    <trkpt lat="50.9595624" lon="6.8619059">
      <time>2021-03-18T17:32:37Z</time>
    </trkpt>
    <trkpt lat="50.9595485" lon="6.8620940">
      <time>2021-03-18T17:32:40Z</time>
    </trkpt>
    <trkpt lat="50.9595364" lon="6.8621381">
      <time>2021-03-18T17:32:41Z</time>
    </trkpt>
    <trkpt lat="50.9594536" lon="6.8623050">
      <time>2021-03-18T17:32:46Z</time>
    </trkpt>
    <trkpt lat="50.9594185" lon="6.8624909">
      <time>2021-03-18T17:32:50Z</time>
    </trkpt>
    <trkpt lat="50.9594201" lon="6.8628754">
      <time>2021-03-18T17:32:56Z</time>
    </trkpt>
    <trkpt lat="50.9594387" lon="6.8633486">
      <time>2021-03-18T17:33:03Z</time>
    </trkpt>
    <trkpt lat="50.9594462" lon="6.8634819">
      <time>2021-03-18T17:33:05Z</time>
    </trkpt>
    <trkpt lat="50.9595151" lon="6.8640788">
      <time>2021-03-18T17:33:14Z</time>
    </trkpt>
    <trkpt lat="50.9595539" lon="6.8646945">
      <time>2021-03-18T17:33:23Z</time>
    </trkpt>
    <trkpt lat="50.9595592" lon="6.8650297">
      <time>2021-03-18T17:33:28Z</time>
    </trkpt>
    <trkpt lat="50.9595456" lon="6.8651551">
      <time>2021-03-18T17:33:30Z</time>
    </trkpt>
    <trkpt lat="50.9595342" lon="6.8652137">
      <time>2021-03-18T17:33:31Z</time>
    </trkpt>
    <trkpt lat="50.9594482" lon="6.8655724">
      <time>2021-03-18T17:33:37Z</time>
    </trkpt>
    <trkpt lat="50.9594156" lon="6.8657031">
      <time>2021-03-18T17:33:39Z</time>
    </trkpt>
    <trkpt lat="50.9592374" lon="6.8662973">
      <time>2021-03-18T17:33:48Z</time>
    </trkpt>
    <trkpt lat="50.9591528" lon="6.8666126">
      <time>2021-03-18T17:33:54Z</time>
    </trkpt>
    <trkpt lat="50.9589587" lon="6.8673353">
      <time>2021-03-18T17:34:06Z</time>
    </trkpt>
    <trkpt lat="50.9588686" lon="6.8677274">
      <time>2021-03-18T17:34:13Z</time>
    </trkpt>
    <trkpt lat="50.9588643" lon="6.8677932">
      <time>2021-03-18T17:34:14Z</time>
    </trkpt>
    <trkpt lat="50.9587663" lon="6.8682056">
      <time>2021-03-18T17:34:21Z</time>
    </trkpt>
    <trkpt lat="50.9586721" lon="6.8682927">
      <time>2021-03-18T17:34:24Z</time>
    </trkpt>
    <trkpt lat="50.9585245" lon="6.8683434">
      <time>2021-03-18T17:34:30Z</time>
    </trkpt>
    <trkpt lat="50.9584685" lon="6.8684102">
      <time>2021-03-18T17:34:36Z</time>
    </trkpt>
    <trkpt lat="50.9584868" lon="6.8686193">
      <time>2021-03-18T17:34:41Z</time>
    </trkpt>
    <trkpt lat="50.9585214" lon="6.8686961">
      <time>2021-03-18T17:34:43Z</time>
    </trkpt>
    <trkpt lat="50.9585814" lon="6.8687202">
      <time>2021-03-18T17:34:45Z</time>
    </trkpt>
    <trkpt lat="50.9586828" lon="6.8688158">
      <time>2021-03-18T17:34:49Z</time>
    </trkpt>
    <trkpt lat="50.9586853" lon="6.8688591">
      <time>2021-03-18T17:34:50Z</time>
    </trkpt>
    <trkpt lat="50.9586218" lon="6.8691225">
      <time>2021-03-18T17:34:55Z</time>
    </trkpt>
    <trkpt lat="50.9585464" lon="6.8694157">
      <time>2021-03-18T17:35:01Z</time>
    </trkpt>
    <trkpt lat="50.9584682" lon="6.8698125">
      <time>2021-03-18T17:35:08Z</time>
    </trkpt>
    <trkpt lat="50.9583741" lon="6.8702796">
      <time>2021-03-18T17:35:15Z</time>
    </trkpt>
    <trkpt lat="50.9583268" lon="6.8705226">
      <time>2021-03-18T17:35:20Z</time>
    </trkpt>
    <trkpt lat="50.9584165" lon="6.8707058">
      <time>2021-03-18T17:35:24Z</time>
    </trkpt>
    <trkpt lat="50.9585713" lon="6.8707946">
      <time>2021-03-18T17:35:28Z</time>
    </trkpt>
    <trkpt lat="50.9588077" lon="6.8708504">
      <time>2021-03-18T17:35:34Z</time>
    </trkpt>
    <trkpt lat="50.9589265" lon="6.8708427">
      <time>2021-03-18T17:35:37Z</time>
    </trkpt>
    <trkpt lat="50.9591529" lon="6.8709144">
      <time>2021-03-18T17:35:43Z</time>
    </trkpt>
    <trkpt lat="50.9592757" lon="6.8710456">
      <time>2021-03-18T17:35:46Z</time>
    </trkpt>
    <trkpt lat="50.9593231" lon="6.8711828">
      <time>2021-03-18T17:35:48Z</time>
    </trkpt>
    <trkpt lat="50.9594386" lon="6.8715908">
      <time>2021-03-18T17:35:54Z</time>
    </trkpt>
    <trkpt lat="50.9595400" lon="6.8719404">
      <time>2021-03-18T17:36:00Z</time>
    </trkpt>
    <trkpt lat="50.9595670" lon="6.8720565">
      <time>2021-03-18T17:36:02Z</time>
    </trkpt>
    <trkpt lat="50.9596602" lon="6.8725664">
      <time>2021-03-18T17:36:11Z</time>
    </trkpt>
    <trkpt lat="50.9597244" lon="6.8728766">
      <time>2021-03-18T17:36:18Z</time>
    </trkpt>
    <trkpt lat="50.9597666" lon="6.8730032">
      <time>2021-03-18T17:36:23Z</time>
    </trkpt>
    <trkpt lat="50.9597866" lon="6.8730878">
      <time>2021-03-18T17:36:26Z</time>
    </trkpt>
    <trkpt lat="50.9597817" lon="6.8731483">
      <time>2021-03-18T17:36:28Z</time>
    </trkpt>
    <trkpt lat="50.9598093" lon="6.8733452">
      <time>2021-03-18T17:36:33Z</time>
    </trkpt>
    <trkpt lat="50.9598197" lon="6.8734389">
      <time>2021-03-18T17:36:35Z</time>
    </trkpt>
    <trkpt lat="50.9598417" lon="6.8737037">
      <time>2021-03-18T17:36:41Z</time>
    </trkpt>
    <trkpt lat="50.9598341" lon="6.8738057">
      <time>2021-03-18T17:36:43Z</time>
    </trkpt>
    <trkpt lat="50.9598255" lon="6.8738933">
      <time>2021-03-18T17:36:45Z</time>
    </trkpt>
    <trkpt lat="50.9598194" lon="6.8739881">
      <time>2021-03-18T17:36:47Z</time>
    </trkpt>
    <trkpt lat="50.9598154" lon="6.8740764">
      <time>2021-03-18T17:36:49Z</time>
    </trkpt>
    <trkpt lat="50.9597786" lon="6.8744443">
      <time>2021-03-18T17:36:58Z</time>
    </trkpt>
    <trkpt lat="50.9597740" lon="6.8745710">
      <time>2021-03-18T17:37:01Z</time>
    </trkpt>
    <trkpt lat="50.9597551" lon="6.8748809">
      <time>2021-03-18T17:37:07Z</time>
    </trkpt>
    <trkpt lat="50.9597307" lon="6.8753893">
      <time>2021-03-18T17:37:16Z</time>
    </trkpt>
    <trkpt lat="50.9597459" lon="6.8757444">
      <time>2021-03-18T17:37:22Z</time>
    </trkpt>
    <trkpt lat="50.9597901" lon="6.8761525">
      <time>2021-03-18T17:37:29Z</time>
    </trkpt>
    <trkpt lat="50.9598513" lon="6.8766181">
      <time>2021-03-18T17:37:37Z</time>
    </trkpt>
    <trkpt lat="50.9598410" lon="6.8770055">
      <time>2021-03-18T17:37:44Z</time>
    </trkpt>
    <trkpt lat="50.9598041" lon="6.8771731">
      <time>2021-03-18T17:37:47Z</time>
    </trkpt>
    <trkpt lat="50.9598016" lon="6.8772885">
      <time>2021-03-18T17:37:49Z</time>
    </trkpt>
    <trkpt lat="50.9598857" lon="6.8774822">
      <time>2021-03-18T17:37:53Z</time>
    </trkpt>
    <trkpt lat="50.9601652" lon="6.8777302">
      <time>2021-03-18T17:38:01Z</time>
    </trkpt>
    <trkpt lat="50.9603145" lon="6.8777561">
      <time>2021-03-18T17:38:05Z</time>
    </trkpt>
    <trkpt lat="50.9604241" lon="6.8777201">
      <time>2021-03-18T17:38:08Z</time>
    </trkpt>
    <trkpt lat="50.9606432" lon="6.8776248">
      <time>2021-03-18T17:38:14Z</time>
    </trkpt>
    <trkpt lat="50.9607458" lon="6.8775883">
      <time>2021-03-18T17:38:17Z</time>
    </trkpt>
    <trkpt lat="50.9608116" lon="6.8775676">
      <time>2021-03-18T17:38:19Z</time>
    </trkpt>
    <trkpt lat="50.9608347" lon="6.8775687">
      <time>2021-03-18T17:38:20Z</time>
    </trkpt>
    <trkpt lat="50.9608951" lon="6.8775645">
      <time>2021-03-18T17:38:22Z</time>
    </trkpt>
    <trkpt lat="50.9609592" lon="6.8775272">
      <time>2021-03-18T17:38:25Z</time>
    </trkpt>
    <trkpt lat="50.9611290" lon="6.8774588">
      <time>2021-03-18T17:38:31Z</time>
    </trkpt>
    <trkpt lat="50.9613365" lon="6.8773293">
      <time>2021-03-18T17:38:37Z</time>
    </trkpt>
    <trkpt lat="50.9615717" lon="6.8771885">
      <time>2021-03-18T17:38:44Z</time>
    </trkpt>
    <trkpt lat="50.9618370" lon="6.8769990">
      <time>2021-03-18T17:38:52Z</time>
    </trkpt>
    <trkpt lat="50.9619554" lon="6.8768575">
      <time>2021-03-18T17:38:57Z</time>
    </trkpt>
    <trkpt lat="50.9619809" lon="6.8766492">
      <time>2021-03-18T17:39:01Z</time>
    </trkpt>
    <trkpt lat="50.9620017" lon="6.8764275">
      <time>2021-03-18T17:39:06Z</time>
    </trkpt>
    <trkpt lat="50.9620145" lon="6.8764109">
      <time>2021-03-18T17:39:07Z</time>
    </trkpt>
    <trkpt lat="50.9620234" lon="6.8763959">
      <time>2021-03-18T17:39:08Z</time>
    </trkpt>
    <trkpt lat="50.9620572" lon="6.8763516">
      <time>2021-03-18T17:39:11Z</time>
    </trkpt>
    <trkpt lat="50.9620860" lon="6.8763387">
      <time>2021-03-18T17:39:13Z</time>
    </trkpt>
    <trkpt lat="50.9621379" lon="6.8763512">
      <time>2021-03-18T17:39:16Z</time>
    </trkpt>
    <trkpt lat="50.9623190" lon="6.8763818">
      <time>2021-03-18T17:39:21Z</time>
    </trkpt>
    <trkpt lat="50.9626392" lon="6.8764549">
      <time>2021-03-18T17:39:29Z</time>
    </trkpt>
    <trkpt lat="50.9628634" lon="6.8765409">
      <time>2021-03-18T17:39:36Z</time>
    </trkpt>
    <trkpt lat="50.9630369" lon="6.8765179">
      <time>2021-03-18T17:39:43Z</time>
    </trkpt>
    <trkpt lat="50.9631043" lon="6.8764034">
      <time>2021-03-18T17:39:49Z</time>
    </trkpt>
    <trkpt lat="50.9631539" lon="6.8762674">
      <time>2021-03-18T17:39:55Z</time>
    </trkpt>
    <trkpt lat="50.9631831" lon="6.8761203">
      <time>2021-03-18T17:40:03Z</time>
    </trkpt>
    <trkpt lat="50.9631831" lon="6.8761203">
      <time>2021-03-18T17:40:04Z</time>
    </trkpt>
    <trkpt lat="50.9632277" lon="6.8760949">
      <time>2021-03-18T17:40:09Z</time>
    </trkpt>
    <trkpt lat="50.9632651" lon="6.8760631">
      <time>2021-03-18T17:40:11Z</time>
    </trkpt>
    <trkpt lat="50.9633576" lon="6.8759478">
      <time>2021-03-18T17:40:16Z</time>
    </trkpt>
    <trkpt lat="50.9634433" lon="6.8759369">
      <time>2021-03-18T17:40:21Z</time>
    </trkpt>
    <trkpt lat="50.9634483" lon="6.8759306">
      <time>2021-03-18T17:40:22Z</time>
    </trkpt>
    <trkpt lat="50.9634483" lon="6.8759306">
      <time>2021-03-18T17:40:25Z</time>
    </trkpt>
  </trkseg></trk>
</gpx>
