<?xml version="1.0" encoding="UTF-8"?>
<gpx version="1.1" creator="Diary FIT converter" xmlns="http://www.topografix.com/GPX/1/1">
  <trk><name>Cycling</name><trkseg>
    <trkpt lat="50.9523938" lon="6.9926257">
      <ele>58.6</ele>
      <time>2019-09-01T16:03:48Z</time>
    </trkpt>
    <trkpt lat="50.9524036" lon="6.9926464">
      <ele>58.6</ele>
      <time>2019-09-01T16:03:49Z</time>
    </trkpt>
    <trkpt lat="50.9524869" lon="6.9926922">
      <ele>61.0</ele>
      <time>2019-09-01T16:03:54Z</time>
    </trkpt>
    <trkpt lat="50.9525298" lon="6.9925858">
      <ele>59.6</ele>
      <time>2019-09-01T16:03:56Z</time>
    </trkpt>
    <trkpt lat="50.9525738" lon="6.9922011">
      <ele>58.4</ele>
      <time>2019-09-01T16:04:02Z</time>
    </trkpt>
    <trkpt lat="50.9520880" lon="6.9918471">
      <ele>53.2</ele>
      <time>2019-09-01T16:04:14Z</time>
    </trkpt>
    <trkpt lat="50.9519865" lon="6.9917883">
      <ele>53.0</ele>
      <time>2019-09-01T16:04:16Z</time>
    </trkpt>
    <trkpt lat="50.9519254" lon="6.9916759">
      <ele>52.0</ele>
      <time>2019-09-01T16:04:18Z</time>
    </trkpt>
    <trkpt lat="50.9519377" lon="6.9915157">
      <ele>51.4</ele>
      <time>2019-09-01T16:04:20Z</time>
    </trkpt>
    <trkpt lat="50.9520604" lon="6.9906409">
      <ele>52.6</ele>
      <time>2019-09-01T16:04:30Z</time>
    </trkpt>
    <trkpt lat="50.9520212" lon="6.9905010">
      <ele>53.6</ele>
      <time>2019-09-01T16:04:32Z</time>
    </trkpt>
    <trkpt lat="50.9518599" lon="6.9902880">
      <ele>54.2</ele>
      <time>2019-09-01T16:04:36Z</time>
    </trkpt>
    <trkpt lat="50.9517232" lon="6.9901427">
      <ele>55.2</ele>
      <time>2019-09-01T16:04:39Z</time>
    </trkpt>
    <trkpt lat="50.9516877" lon="6.9900157">
      <ele>55.6</ele>
      <time>2019-09-01T16:04:41Z</time>
    </trkpt>
    <trkpt lat="50.9517249" lon="6.9898326">
      <ele>56.4</ele>
      <time>2019-09-01T16:04:44Z</time>
    </trkpt>
    <trkpt lat="50.9518414" lon="6.9893738">
      <ele>57.4</ele>
      <time>2019-09-01T16:04:58Z</time>
    </trkpt>
    <trkpt lat="50.9518437" lon="6.9892510">
      <ele>60.2</ele>
      <time>2019-09-01T16:05:05Z</time>
    </trkpt>
    <trkpt lat="50.9518258" lon="6.9891985">
      <ele>61.8</ele>
      <time>2019-09-01T16:05:07Z</time>
    </trkpt>
    <trkpt lat="50.9513202" lon="6.9887416">
      <ele>66.0</ele>
      <time>2019-09-01T16:05:18Z</time>
    </trkpt>
    <trkpt lat="50.9508445" lon="6.9882317">
      <ele>66.8</ele>
      <time>2019-09-01T16:05:26Z</time>
    </trkpt>
    <trkpt lat="50.9503115" lon="6.9878603">
      <ele>64.6</ele>
      <time>2019-09-01T16:05:34Z</time>
    </trkpt>
    <trkpt lat="50.9497678" lon="6.9875063">
      <ele>63.2</ele>
      <time>2019-09-01T16:05:42Z</time>
    </trkpt>
    <trkpt lat="50.9492740" lon="6.9871144">
      <ele>62.4</ele>
      <time>2019-09-01T16:05:50Z</time>
    </trkpt>
    <trkpt lat="50.9487628" lon="6.9866842">
      <ele>61.4</ele>
      <time>2019-09-01T16:05:58Z</time>
    </trkpt>
    <trkpt lat="50.9483528" lon="6.9863207">
      <ele>61.6</ele>
      <time>2019-09-01T16:06:04Z</time>
    </trkpt>
    <trkpt lat="50.9482776" lon="6.9862487">
      <ele>61.4</ele>
      <time>2019-09-01T16:06:05Z</time>
    </trkpt>
    <trkpt lat="50.9477650" lon="6.9857937">
      <ele>60.2</ele>
      <time>2019-09-01T16:06:12Z</time>
    </trkpt>
    <trkpt lat="50.9477057" lon="6.9857165">
      <ele>59.8</ele>
      <time>2019-09-01T16:06:13Z</time>
    </trkpt>
    <trkpt lat="50.9473760" lon="6.9854049">
      <ele>59.6</ele>
      <time>2019-09-01T16:06:23Z</time>
    </trkpt>
    <trkpt lat="50.9468919" lon="6.9849405">
      <ele>58.0</ele>
      <time>2019-09-01T16:06:32Z</time>
    </trkpt>
    <trkpt lat="50.9463545" lon="6.9844515">
      <ele>58.2</ele>
      <time>2019-09-01T16:06:40Z</time>
    </trkpt>
    <trkpt lat="50.9458452" lon="6.9840417">
      <ele>58.2</ele>
      <time>2019-09-01T16:06:47Z</time>
    </trkpt>
    <trkpt lat="50.9453603" lon="6.9836413">
      <ele>57.4</ele>
      <time>2019-09-01T16:06:54Z</time>
    </trkpt>
    <trkpt lat="50.9448448" lon="6.9831240">
      <ele>56.6</ele>
      <time>2019-09-01T16:07:01Z</time>
    </trkpt>
    <trkpt lat="50.9443930" lon="6.9825196">
      <ele>53.2</ele>
      <time>2019-09-01T16:07:08Z</time>
    </trkpt>
    <trkpt lat="50.9442606" lon="6.9823890">
      <ele>53.2</ele>
      <time>2019-09-01T16:07:10Z</time>
    </trkpt>
    <trkpt lat="50.9437531" lon="6.9819547">
      <ele>53.0</ele>
      <time>2019-09-01T16:07:17Z</time>
    </trkpt>
    <trkpt lat="50.9432674" lon="6.9815573">
      <ele>51.6</ele>
      <time>2019-09-01T16:07:24Z</time>
    </trkpt>
    <trkpt lat="50.9429343" lon="6.9812939">
      <ele>52.4</ele>
      <time>2019-09-01T16:07:29Z</time>
    </trkpt>
    <trkpt lat="50.9427754" lon="6.9811236">
      <ele>52.6</ele>
      <time>2019-09-01T16:07:32Z</time>
    </trkpt>
    <trkpt lat="50.9422447" lon="6.9807977">
      <ele>52.6</ele>
      <time>2019-09-01T16:07:40Z</time>
    </trkpt>
    <trkpt lat="50.9417284" lon="6.9804112">
      <ele>49.6</ele>
      <time>2019-09-01T16:07:48Z</time>
    </trkpt>
    <trkpt lat="50.9415750" lon="6.9803173">
      <ele>45.4</ele>
      <time>2019-09-01T16:07:56Z</time>
    </trkpt>
    <trkpt lat="50.9415561" lon="6.9802911">
      <ele>42.6</ele>
      <time>2019-09-01T16:08:10Z</time>
    </trkpt>
    <trkpt lat="50.9410575" lon="6.9799571">
      <ele>41.8</ele>
      <time>2019-09-01T16:08:21Z</time>
    </trkpt>
    <trkpt lat="50.9409596" lon="6.9798788">
      <ele>41.8</ele>
      <time>2019-09-01T16:08:28Z</time>
    </trkpt>
    <trkpt lat="50.9409161" lon="6.9796715">
      <ele>43.8</ele>
      <time>2019-09-01T16:08:36Z</time>
    </trkpt>
    <trkpt lat="50.9408102" lon="6.9797432">
      <ele>46.0</ele>
      <time>2019-09-01T16:08:43Z</time>
    </trkpt>
    <trkpt lat="50.9406839" lon="6.9797228">
      <ele>48.0</ele>
      <time>2019-09-01T16:08:51Z</time>
    </trkpt>
    <trkpt lat="50.9406359" lon="6.9796979">
      <ele>50.4</ele>
      <time>2019-09-01T16:08:54Z</time>
    </trkpt>
    <trkpt lat="50.9404821" lon="6.9794992">
      <ele>59.4</ele>
      <time>2019-09-01T16:09:01Z</time>
    </trkpt>
    <trkpt lat="50.9402972" lon="6.9793437">
      <ele>60.0</ele>
      <time>2019-09-01T16:09:03Z</time>
    </trkpt>
    <trkpt lat="50.9399757" lon="6.9790107">
      <ele>64.4</ele>
      <time>2019-09-01T16:09:07Z</time>
    </trkpt>
    <trkpt lat="50.9397741" lon="6.9785909">
      <ele>65.8</ele>
      <time>2019-09-01T16:09:11Z</time>
    </trkpt>
    <trkpt lat="50.9397431" lon="6.9784694">
      <ele>65.0</ele>
      <time>2019-09-01T16:09:12Z</time>
    </trkpt>
    <trkpt lat="50.9397292" lon="6.9783427">
      <ele>63.8</ele>
      <time>2019-09-01T16:09:13Z</time>
    </trkpt>
    <trkpt lat="50.9397314" lon="6.9782141">
      <ele>62.2</ele>
      <time>2019-09-01T16:09:14Z</time>
    </trkpt>
    <trkpt lat="50.9397487" lon="6.9780848">
      <ele>61.0</ele>
      <time>2019-09-01T16:09:15Z</time>
    </trkpt>
    <trkpt lat="50.9397598" lon="6.9779567">
      <ele>60.6</ele>
      <time>2019-09-01T16:09:16Z</time>
    </trkpt>
    <trkpt lat="50.9397763" lon="6.9777037">
      <ele>60.4</ele>
      <time>2019-09-01T16:09:18Z</time>
    </trkpt>
    <trkpt lat="50.9397835" lon="6.9775739">
      <ele>60.8</ele>
      <time>2019-09-01T16:09:19Z</time>
    </trkpt>
    <trkpt lat="50.9397921" lon="6.9774461">
      <ele>62.0</ele>
      <time>2019-09-01T16:09:20Z</time>
    </trkpt>
    <trkpt lat="50.9398067" lon="6.9773186">
      <ele>62.4</ele>
      <time>2019-09-01T16:09:21Z</time>
    </trkpt>
    <trkpt lat="50.9398133" lon="6.9771905">
      <ele>62.0</ele>
      <time>2019-09-01T16:09:22Z</time>
    </trkpt>
    <trkpt lat="50.9398482" lon="6.9762704">
      <ele>60.8</ele>
      <time>2019-09-01T16:09:29Z</time>
    </trkpt>
    <trkpt lat="50.9398670" lon="6.9754298">
      <ele>55.6</ele>
      <time>2019-09-01T16:09:36Z</time>
    </trkpt>
    <trkpt lat="50.9398841" lon="6.9751610">
      <ele>52.6</ele>
      <time>2019-09-01T16:09:39Z</time>
    </trkpt>
    <trkpt lat="50.9398901" lon="6.9749873">
      <ele>51.6</ele>
      <time>2019-09-01T16:09:41Z</time>
    </trkpt>
    <trkpt lat="50.9399136" lon="6.9746873">
      <ele>48.8</ele>
      <time>2019-09-01T16:09:45Z</time>
    </trkpt>
    <trkpt lat="50.9399415" lon="6.9740593">
      <ele>46.0</ele>
      <time>2019-09-01T16:09:53Z</time>
    </trkpt>
    <trkpt lat="50.9399602" lon="6.9735585">
      <ele>44.6</ele>
      <time>2019-09-01T16:09:58Z</time>
    </trkpt>
    <trkpt lat="50.9399679" lon="6.9733788">
      <ele>46.4</ele>
      <time>2019-09-01T16:10:00Z</time>
    </trkpt>
    <trkpt lat="50.9399809" lon="6.9732086">
      <ele>46.2</ele>
      <time>2019-09-01T16:10:02Z</time>
    </trkpt>
    <trkpt lat="50.9400484" lon="6.9730827">
      <ele>45.6</ele>
      <time>2019-09-01T16:10:04Z</time>
    </trkpt>
    <trkpt lat="50.9401933" lon="6.9729488">
      <ele>45.6</ele>
      <time>2019-09-01T16:10:08Z</time>
    </trkpt>
    <trkpt lat="50.9402880" lon="6.9727946">
      <ele>45.2</ele>
      <time>2019-09-01T16:10:11Z</time>
    </trkpt>
    <trkpt lat="50.9403421" lon="6.9726724">
      <ele>45.4</ele>
      <time>2019-09-01T16:10:13Z</time>
    </trkpt>
    <trkpt lat="50.9405264" lon="6.9723033">
      <ele>46.2</ele>
      <time>2019-09-01T16:10:19Z</time>
    </trkpt>
    <trkpt lat="50.9406581" lon="6.9719545">
      <ele>49.4</ele>
      <time>2019-09-01T16:10:24Z</time>
    </trkpt>
    <trkpt lat="50.9407078" lon="6.9717507">
      <ele>52.0</ele>
      <time>2019-09-01T16:10:27Z</time>
    </trkpt>
    <trkpt lat="50.9407960" lon="6.9711259">
      <ele>56.0</ele>
      <time>2019-09-01T16:10:35Z</time>
    </trkpt>
    <trkpt lat="50.9410114" lon="6.9702547">
      <ele>62.8</ele>
      <time>2019-09-01T16:10:45Z</time>
    </trkpt>
    <trkpt lat="50.9411006" lon="6.9697412">
      <ele>59.4</ele>
      <time>2019-09-01T16:10:51Z</time>
    </trkpt>
    <trkpt lat="50.9411637" lon="6.9694978">
      <ele>58.4</ele>
      <time>2019-09-01T16:10:54Z</time>
    </trkpt>
    <trkpt lat="50.9411810" lon="6.9693427">
      <ele>57.4</ele>
      <time>2019-09-01T16:10:56Z</time>
    </trkpt>
    <trkpt lat="50.9411847" lon="6.9691144">
      <ele>56.6</ele>
      <time>2019-09-01T16:10:59Z</time>
    </trkpt>
    <trkpt lat="50.9411818" lon="6.9689712">
      <ele>55.8</ele>
      <time>2019-09-01T16:11:01Z</time>
    </trkpt>
    <trkpt lat="50.9411882" lon="6.9681074">
      <ele>53.0</ele>
      <time>2019-09-01T16:11:21Z</time>
    </trkpt>
    <trkpt lat="50.9411812" lon="6.9673221">
      <ele>55.2</ele>
      <time>2019-09-01T16:11:39Z</time>
    </trkpt>
    <trkpt lat="50.9411853" lon="6.9667295">
      <ele>53.0</ele>
      <time>2019-09-01T16:11:51Z</time>
    </trkpt>
    <trkpt lat="50.9411925" lon="6.9665862">
      <ele>52.6</ele>
      <time>2019-09-01T16:11:53Z</time>
    </trkpt>
    <trkpt lat="50.9412062" lon="6.9657980">
      <ele>50.0</ele>
      <time>2019-09-01T16:12:04Z</time>
    </trkpt>
    <trkpt lat="50.9412335" lon="6.9649408">
      <ele>48.8</ele>
      <time>2019-09-01T16:12:26Z</time>
    </trkpt>
    <trkpt lat="50.9412416" lon="6.9648132">
      <ele>48.4</ele>
      <time>2019-09-01T16:12:33Z</time>
    </trkpt>
    <trkpt lat="50.9412455" lon="6.9647813">
      <ele>48.4</ele>
      <time>2019-09-01T16:12:35Z</time>
    </trkpt>
    <trkpt lat="50.9412387" lon="6.9647076">
      <ele>49.0</ele>
      <time>2019-09-01T16:12:41Z</time>
    </trkpt>
    <trkpt lat="50.9412199" lon="6.9645951">
      <ele>49.0</ele>
      <time>2019-09-01T16:12:46Z</time>
    </trkpt>
    <trkpt lat="50.9412327" lon="6.9644959">
      <ele>49.2</ele>
      <time>2019-09-01T16:12:51Z</time>
    </trkpt>
    <trkpt lat="50.9412479" lon="6.9638297">
      <ele>49.4</ele>
      <time>2019-09-01T16:13:04Z</time>
    </trkpt>
    <trkpt lat="50.9412436" lon="6.9636166">
      <ele>49.0</ele>
      <time>2019-09-01T16:13:10Z</time>
    </trkpt>
    <trkpt lat="50.9412338" lon="6.9632345">
      <ele>50.0</ele>
      <time>2019-09-01T16:13:31Z</time>
    </trkpt>
    <trkpt lat="50.9412258" lon="6.9629390">
      <ele>50.2</ele>
      <time>2019-09-01T16:13:40Z</time>
    </trkpt>
    <trkpt lat="50.9411818" lon="6.9623379">
      <ele>51.4</ele>
      <time>2019-09-01T16:13:53Z</time>
    </trkpt>
    <trkpt lat="50.9412354" lon="6.9615994">
      <ele>50.8</ele>
      <time>2019-09-01T16:14:05Z</time>
    </trkpt>
    <trkpt lat="50.9412348" lon="6.9614224">
      <ele>50.8</ele>
      <time>2019-09-01T16:14:09Z</time>
    </trkpt>
    <trkpt lat="50.9411666" lon="6.9609353">
      <ele>51.4</ele>
      <time>2019-09-01T16:14:20Z</time>
    </trkpt>
    <trkpt lat="50.9411379" lon="6.9600827">
      <ele>52.0</ele>
      <time>2019-09-01T16:14:40Z</time>
    </trkpt>
    <trkpt lat="50.9411374" lon="6.9596119">
      <ele>47.4</ele>
      <time>2019-09-01T16:14:49Z</time>
    </trkpt>
    <trkpt lat="50.9410282" lon="6.9593900">
      <ele>46.4</ele>
      <time>2019-09-01T16:14:53Z</time>
    </trkpt>
    <trkpt lat="50.9408164" lon="6.9593282">
      <ele>47.0</ele>
      <time>2019-09-01T16:15:04Z</time>
    </trkpt>
    <trkpt lat="50.9407346" lon="6.9587309">
      <ele>38.8</ele>
      <time>2019-09-01T16:15:08Z</time>
    </trkpt>
    <trkpt lat="50.9407859" lon="6.9584137">
      <ele>39.8</ele>
      <time>2019-09-01T16:15:10Z</time>
    </trkpt>
    <trkpt lat="50.9408252" lon="6.9580911">
      <ele>42.6</ele>
      <time>2019-09-01T16:15:13Z</time>
    </trkpt>
    <trkpt lat="50.9408398" lon="6.9580091">
      <ele>43.0</ele>
      <time>2019-09-01T16:15:14Z</time>
    </trkpt>
    <trkpt lat="50.9408552" lon="6.9579305">
      <ele>43.2</ele>
      <time>2019-09-01T16:15:15Z</time>
    </trkpt>
    <trkpt lat="50.9408712" lon="6.9578513">
      <ele>43.2</ele>
      <time>2019-09-01T16:15:16Z</time>
    </trkpt>
    <trkpt lat="50.9408776" lon="6.9577786">
      <ele>43.6</ele>
      <time>2019-09-01T16:15:17Z</time>
    </trkpt>
    <trkpt lat="50.9408802" lon="6.9576366">
      <ele>44.2</ele>
      <time>2019-09-01T16:15:19Z</time>
    </trkpt>
    <trkpt lat="50.9408833" lon="6.9574821">
      <ele>44.4</ele>
      <time>2019-09-01T16:15:22Z</time>
    </trkpt>
    <trkpt lat="50.9408860" lon="6.9573359">
      <ele>46.0</ele>
      <time>2019-09-01T16:15:25Z</time>
    </trkpt>
    <trkpt lat="50.9408842" lon="6.9571805">
      <ele>47.2</ele>
      <time>2019-09-01T16:15:28Z</time>
    </trkpt>
    <trkpt lat="50.9408884" lon="6.9571191">
      <ele>47.2</ele>
      <time>2019-09-01T16:15:29Z</time>
    </trkpt>
    <trkpt lat="50.9408901" lon="6.9570597">
      <ele>47.4</ele>
      <time>2019-09-01T16:15:30Z</time>
    </trkpt>
    <trkpt lat="50.9409529" lon="6.9563767">
      <ele>54.0</ele>
      <time>2019-09-01T16:15:49Z</time>
    </trkpt>
    <trkpt lat="50.9409610" lon="6.9562782">
      <ele>55.6</ele>
      <time>2019-09-01T16:15:52Z</time>
    </trkpt>
    <trkpt lat="50.9414096" lon="6.9562548">
      <ele>76.0</ele>
      <time>2019-09-01T16:16:21Z</time>
    </trkpt>
    <trkpt lat="50.9414337" lon="6.9562303">
      <ele>87.2</ele>
      <time>2019-09-01T16:16:25Z</time>
    </trkpt>
    <trkpt lat="50.9416038" lon="6.9558736">
      <ele>85.8</ele>
      <time>2019-09-01T16:16:31Z</time>
    </trkpt>
    <trkpt lat="50.9416398" lon="6.9556938">
      <ele>81.8</ele>
      <time>2019-09-01T16:16:33Z</time>
    </trkpt>
    <trkpt lat="50.9416357" lon="6.9555945">
      <ele>78.6</ele>
      <time>2019-09-01T16:16:34Z</time>
    </trkpt>
    <trkpt lat="50.9416299" lon="6.9554936">
      <ele>76.6</ele>
      <time>2019-09-01T16:16:35Z</time>
    </trkpt>
    <trkpt lat="50.9416258" lon="6.9553951">
      <ele>74.2</ele>
      <time>2019-09-01T16:16:36Z</time>
    </trkpt>
    <trkpt lat="50.9416237" lon="6.9552978">
      <ele>72.2</ele>
      <time>2019-09-01T16:16:37Z</time>
    </trkpt>
    <trkpt lat="50.9416088" lon="6.9550057">
      <ele>67.0</ele>
      <time>2019-09-01T16:16:40Z</time>
    </trkpt>
    <trkpt lat="50.9415976" lon="6.9548215">
      <ele>64.0</ele>
      <time>2019-09-01T16:16:42Z</time>
    </trkpt>
    <trkpt lat="50.9415940" lon="6.9547340">
      <ele>62.0</ele>
      <time>2019-09-01T16:16:43Z</time>
    </trkpt>
    <trkpt lat="50.9415782" lon="6.9544766">
      <ele>59.8</ele>
      <time>2019-09-01T16:16:46Z</time>
    </trkpt>
    <trkpt lat="50.9415712" lon="6.9539950">
      <ele>55.0</ele>
      <time>2019-09-01T16:16:52Z</time>
    </trkpt>
    <trkpt lat="50.9415649" lon="6.9539197">
      <ele>54.2</ele>
      <time>2019-09-01T16:16:53Z</time>
    </trkpt>
    <trkpt lat="50.9415588" lon="6.9538436">
      <ele>53.6</ele>
      <time>2019-09-01T16:16:54Z</time>
    </trkpt>
    <trkpt lat="50.9415562" lon="6.9537609">
      <ele>53.2</ele>
      <time>2019-09-01T16:16:55Z</time>
    </trkpt>
    <trkpt lat="50.9415307" lon="6.9531111">
      <ele>51.2</ele>
      <time>2019-09-01T16:17:03Z</time>
    </trkpt>
    <trkpt lat="50.9415236" lon="6.9521918">
      <ele>51.8</ele>
      <time>2019-09-01T16:17:12Z</time>
    </trkpt>
    <trkpt lat="50.9415398" lon="6.9512972">
      <ele>49.4</ele>
      <time>2019-09-01T16:17:19Z</time>
    </trkpt>
    <trkpt lat="50.9414986" lon="6.9503411">
      <ele>48.2</ele>
      <time>2019-09-01T16:17:27Z</time>
    </trkpt>
    <trkpt lat="50.9414016" lon="6.9494331">
      <ele>49.6</ele>
      <time>2019-09-01T16:17:35Z</time>
    </trkpt>
    <trkpt lat="50.9413644" lon="6.9490023">
      <ele>49.4</ele>
      <time>2019-09-01T16:17:39Z</time>
    </trkpt>
    <trkpt lat="50.9412640" lon="6.9481500">
      <ele>48.8</ele>
      <time>2019-09-01T16:17:49Z</time>
    </trkpt>
    <trkpt lat="50.9411865" lon="6.9479662">
      <ele>50.0</ele>
      <time>2019-09-01T16:17:56Z</time>
    </trkpt>
    <trkpt lat="50.9411953" lon="6.9478491">
      <ele>50.0</ele>
      <time>2019-09-01T16:18:47Z</time>
    </trkpt>
    <trkpt lat="50.9411723" lon="6.9477854">
      <ele>50.0</ele>
      <time>2019-09-01T16:18:48Z</time>
    </trkpt>
    <trkpt lat="50.9410931" lon="6.9475388">
      <ele>50.6</ele>
      <time>2019-09-01T16:18:51Z</time>
    </trkpt>
    <trkpt lat="50.9410646" lon="6.9473219">
      <ele>50.0</ele>
      <time>2019-09-01T16:18:53Z</time>
    </trkpt>
    <trkpt lat="50.9410314" lon="6.9463896">
      <ele>49.4</ele>
      <time>2019-09-01T16:19:00Z</time>
    </trkpt>
    <trkpt lat="50.9409302" lon="6.9459783">
      <ele>49.0</ele>
      <time>2019-09-01T16:19:03Z</time>
    </trkpt>
    <trkpt lat="50.9408268" lon="6.9457370">
      <ele>49.0</ele>
      <time>2019-09-01T16:19:05Z</time>
    </trkpt>
    <trkpt lat="50.9407670" lon="6.9456279">
      <ele>49.2</ele>
      <time>2019-09-01T16:19:06Z</time>
    </trkpt>
    <trkpt lat="50.9406659" lon="6.9454080">
      <ele>49.0</ele>
      <time>2019-09-01T16:19:08Z</time>
    </trkpt>
    <trkpt lat="50.9406131" lon="6.9453010">
      <ele>49.0</ele>
      <time>2019-09-01T16:19:09Z</time>
    </trkpt>
    <trkpt lat="50.9405671" lon="6.9451906">
      <ele>48.6</ele>
      <time>2019-09-01T16:19:10Z</time>
    </trkpt>
    <trkpt lat="50.9405072" lon="6.9450794">
      <ele>48.4</ele>
      <time>2019-09-01T16:19:11Z</time>
    </trkpt>
    <trkpt lat="50.9404620" lon="6.9449601">
      <ele>48.2</ele>
      <time>2019-09-01T16:19:12Z</time>
    </trkpt>
    <trkpt lat="50.9404256" lon="6.9448242">
      <ele>47.8</ele>
      <time>2019-09-01T16:19:13Z</time>
    </trkpt>
    <trkpt lat="50.9403615" lon="6.9445522">
      <ele>47.4</ele>
      <time>2019-09-01T16:19:15Z</time>
    </trkpt>
    <trkpt lat="50.9401767" lon="6.9439423">
      <ele>47.2</ele>
      <time>2019-09-01T16:19:20Z</time>
    </trkpt>
    <trkpt lat="50.9400876" lon="6.9434491">
      <ele>46.8</ele>
      <time>2019-09-01T16:19:24Z</time>
    </trkpt>
    <trkpt lat="50.9400553" lon="6.9431914">
      <ele>46.4</ele>
      <time>2019-09-01T16:19:26Z</time>
    </trkpt>
    <trkpt lat="50.9400255" lon="6.9426716">
      <ele>46.4</ele>
      <time>2019-09-01T16:19:30Z</time>
    </trkpt>
    <trkpt lat="50.9400470" lon="6.9424092">
      <ele>46.4</ele>
      <time>2019-09-01T16:19:32Z</time>
    </trkpt>
    <trkpt lat="50.9400804" lon="6.9421494">
      <ele>46.2</ele>
      <time>2019-09-01T16:19:34Z</time>
    </trkpt>
    <trkpt lat="50.9401013" lon="6.9420207">
      <ele>46.2</ele>
      <time>2019-09-01T16:19:35Z</time>
    </trkpt>
    <trkpt lat="50.9401853" lon="6.9415171">
      <ele>46.2</ele>
      <time>2019-09-01T16:19:39Z</time>
    </trkpt>
    <trkpt lat="50.9402257" lon="6.9413849">
      <ele>46.2</ele>
      <time>2019-09-01T16:19:40Z</time>
    </trkpt>
    <trkpt lat="50.9402567" lon="6.9412535">
      <ele>46.2</ele>
      <time>2019-09-01T16:19:41Z</time>
    </trkpt>
    <trkpt lat="50.9402857" lon="6.9411245">
      <ele>46.0</ele>
      <time>2019-09-01T16:19:42Z</time>
    </trkpt>
    <trkpt lat="50.9403352" lon="6.9408523">
      <ele>46.0</ele>
      <time>2019-09-01T16:19:44Z</time>
    </trkpt>
    <trkpt lat="50.9404973" lon="6.9400114">
      <ele>45.6</ele>
      <time>2019-09-01T16:19:50Z</time>
    </trkpt>
    <trkpt lat="50.9406051" lon="6.9390780">
      <ele>46.4</ele>
      <time>2019-09-01T16:19:57Z</time>
    </trkpt>
    <trkpt lat="50.9406299" lon="6.9389559">
      <ele>46.6</ele>
      <time>2019-09-01T16:19:58Z</time>
    </trkpt>
    <trkpt lat="50.9408029" lon="6.9384063">
      <ele>47.4</ele>
      <time>2019-09-01T16:20:03Z</time>
    </trkpt>
    <trkpt lat="50.9409499" lon="6.9380236">
      <ele>47.8</ele>
      <time>2019-09-01T16:20:07Z</time>
    </trkpt>
    <trkpt lat="50.9409740" lon="6.9379405">
      <ele>48.0</ele>
      <time>2019-09-01T16:20:08Z</time>
    </trkpt>
    <trkpt lat="50.9410273" lon="6.9377761">
      <ele>48.6</ele>
      <time>2019-09-01T16:20:10Z</time>
    </trkpt>
    <trkpt lat="50.9411078" lon="6.9375951">
      <ele>49.0</ele>
      <time>2019-09-01T16:20:12Z</time>
    </trkpt>
    <trkpt lat="50.9411973" lon="6.9374261">
      <ele>49.4</ele>
      <time>2019-09-01T16:20:14Z</time>
    </trkpt>
    <trkpt lat="50.9414661" lon="6.9370224">
      <ele>50.2</ele>
      <time>2019-09-01T16:20:19Z</time>
    </trkpt>
    <trkpt lat="50.9416394" lon="6.9367637">
      <ele>50.8</ele>
      <time>2019-09-01T16:20:22Z</time>
    </trkpt>
    <trkpt lat="50.9420507" lon="6.9360949">
      <ele>51.6</ele>
      <time>2019-09-01T16:20:30Z</time>
    </trkpt>
    <trkpt lat="50.9421953" lon="6.9357633">
      <ele>52.2</ele>
      <time>2019-09-01T16:20:38Z</time>
    </trkpt>
    <trkpt lat="50.9422807" lon="6.9355925">
      <ele>53.0</ele>
      <time>2019-09-01T16:21:10Z</time>
    </trkpt>
    <trkpt lat="50.9423108" lon="6.9355370">
      <ele>53.2</ele>
      <time>2019-09-01T16:21:11Z</time>
    </trkpt>
    <trkpt lat="50.9427030" lon="6.9348687">
      <ele>54.2</ele>
      <time>2019-09-01T16:21:21Z</time>
    </trkpt>
    <trkpt lat="50.9430677" lon="6.9341863">
      <ele>55.0</ele>
      <time>2019-09-01T16:21:30Z</time>
    </trkpt>
    <trkpt lat="50.9433277" lon="6.9334120">
      <ele>54.8</ele>
      <time>2019-09-01T16:21:45Z</time>
    </trkpt>
    <trkpt lat="50.9433623" lon="6.9333325">
      <ele>55.0</ele>
      <time>2019-09-01T16:22:08Z</time>
    </trkpt>
    <trkpt lat="50.9434326" lon="6.9331443">
      <ele>55.0</ele>
      <time>2019-09-01T16:22:12Z</time>
    </trkpt>
    <trkpt lat="50.9436629" lon="6.9326723">
      <ele>54.2</ele>
      <time>2019-09-01T16:22:20Z</time>
    </trkpt>
    <trkpt lat="50.9438235" lon="6.9323450">
      <ele>53.4</ele>
      <time>2019-09-01T16:22:26Z</time>
    </trkpt>
    <trkpt lat="50.9439162" lon="6.9320846">
      <ele>52.4</ele>
      <time>2019-09-01T16:22:31Z</time>
    </trkpt>
    <trkpt lat="50.9439373" lon="6.9320259">
      <ele>52.2</ele>
      <time>2019-09-01T16:22:32Z</time>
    </trkpt>
    <trkpt lat="50.9440048" lon="6.9319249">
      <ele>51.6</ele>
      <time>2019-09-01T16:22:34Z</time>
    </trkpt>
    <trkpt lat="50.9440443" lon="6.9318685">
      <ele>51.2</ele>
      <time>2019-09-01T16:22:35Z</time>
    </trkpt>
    <trkpt lat="50.9440806" lon="6.9318081">
      <ele>51.0</ele>
      <time>2019-09-01T16:22:36Z</time>
    </trkpt>
    <trkpt lat="50.9442106" lon="6.9314545">
      <ele>49.8</ele>
      <time>2019-09-01T16:22:40Z</time>
    </trkpt>
    <trkpt lat="50.9444809" lon="6.9306841">
      <ele>47.6</ele>
      <time>2019-09-01T16:22:48Z</time>
    </trkpt>
    <trkpt lat="50.9447300" lon="6.9299952">
      <ele>45.6</ele>
      <time>2019-09-01T16:22:56Z</time>
    </trkpt>
    <trkpt lat="50.9449496" lon="6.9291640">
      <ele>44.2</ele>
      <time>2019-09-01T16:23:04Z</time>
    </trkpt>
    <trkpt lat="50.9450489" lon="6.9288469">
      <ele>43.4</ele>
      <time>2019-09-01T16:23:08Z</time>
    </trkpt>
    <trkpt lat="50.9450548" lon="6.9287683">
      <ele>43.4</ele>
      <time>2019-09-01T16:23:10Z</time>
    </trkpt>
    <trkpt lat="50.9450567" lon="6.9287593">
      <ele>43.4</ele>
      <time>2019-09-01T16:23:11Z</time>
    </trkpt>
    <trkpt lat="50.9450567" lon="6.9287526">
      <ele>43.2</ele>
      <time>2019-09-01T16:23:12Z</time>
    </trkpt>
    <trkpt lat="50.9450733" lon="6.9286367">
      <ele>43.0</ele>
      <time>2019-09-01T16:23:57Z</time>
    </trkpt>
    <trkpt lat="50.9450830" lon="6.9285854">
      <ele>43.0</ele>
      <time>2019-09-01T16:23:58Z</time>
    </trkpt>
    <trkpt lat="50.9452049" lon="6.9283168">
      <ele>43.4</ele>
      <time>2019-09-01T16:24:02Z</time>
    </trkpt>
    <trkpt lat="50.9453050" lon="6.9281523">
      <ele>43.8</ele>
      <time>2019-09-01T16:24:04Z</time>
    </trkpt>
    <trkpt lat="50.9454553" lon="6.9277218">
      <ele>44.8</ele>
      <time>2019-09-01T16:24:08Z</time>
    </trkpt>
    <trkpt lat="50.9455838" lon="6.9272487">
      <ele>45.4</ele>
      <time>2019-09-01T16:24:12Z</time>
    </trkpt>
    <trkpt lat="50.9457257" lon="6.9268034">
      <ele>45.6</ele>
      <time>2019-09-01T16:24:16Z</time>
    </trkpt>
    <trkpt lat="50.9457597" lon="6.9266905">
      <ele>45.6</ele>
      <time>2019-09-01T16:24:17Z</time>
    </trkpt>
    <trkpt lat="50.9459814" lon="6.9260145">
      <ele>47.0</ele>
      <time>2019-09-01T16:24:24Z</time>
    </trkpt>
    <trkpt lat="50.9460651" lon="6.9257743">
      <ele>48.2</ele>
      <time>2019-09-01T16:24:30Z</time>
    </trkpt>
    <trkpt lat="50.9460778" lon="6.9257514">
      <ele>48.4</ele>
      <time>2019-09-01T16:24:31Z</time>
    </trkpt>
    <trkpt lat="50.9460949" lon="6.9257223">
      <ele>48.6</ele>
      <time>2019-09-01T16:24:32Z</time>
    </trkpt>
    <trkpt lat="50.9461134" lon="6.9256881">
      <ele>48.8</ele>
      <time>2019-09-01T16:24:33Z</time>
    </trkpt>
    <trkpt lat="50.9464736" lon="6.9249567">
      <ele>52.2</ele>
      <time>2019-09-01T16:24:45Z</time>
    </trkpt>
    <trkpt lat="50.9467570" lon="6.9242078">
      <ele>53.8</ele>
      <time>2019-09-01T16:24:53Z</time>
    </trkpt>
    <trkpt lat="50.9470440" lon="6.9234490">
      <ele>56.0</ele>
      <time>2019-09-01T16:25:01Z</time>
    </trkpt>
    <trkpt lat="50.9473593" lon="6.9226635">
      <ele>57.4</ele>
      <time>2019-09-01T16:25:09Z</time>
    </trkpt>
    <trkpt lat="50.9476541" lon="6.9219841">
      <ele>59.2</ele>
      <time>2019-09-01T16:25:16Z</time>
    </trkpt>
    <trkpt lat="50.9476937" lon="6.9218879">
      <ele>59.4</ele>
      <time>2019-09-01T16:25:17Z</time>
    </trkpt>
    <trkpt lat="50.9477293" lon="6.9217873">
      <ele>59.4</ele>
      <time>2019-09-01T16:25:18Z</time>
    </trkpt>
    <trkpt lat="50.9478323" lon="6.9214086">
      <ele>59.4</ele>
      <time>2019-09-01T16:25:22Z</time>
    </trkpt>
    <trkpt lat="50.9478932" lon="6.9212333">
      <ele>59.8</ele>
      <time>2019-09-01T16:25:24Z</time>
    </trkpt>
    <trkpt lat="50.9480334" lon="6.9209777">
      <ele>59.8</ele>
      <time>2019-09-01T16:25:27Z</time>
    </trkpt>
    <trkpt lat="50.9481291" lon="6.9208135">
      <ele>59.6</ele>
      <time>2019-09-01T16:25:29Z</time>
    </trkpt>
    <trkpt lat="50.9482877" lon="6.9204477">
      <ele>60.2</ele>
      <time>2019-09-01T16:25:33Z</time>
    </trkpt>
    <trkpt lat="50.9484743" lon="6.9199966">
      <ele>60.6</ele>
      <time>2019-09-01T16:25:38Z</time>
    </trkpt>
    <trkpt lat="50.9485606" lon="6.9198123">
      <ele>61.0</ele>
      <time>2019-09-01T16:25:40Z</time>
    </trkpt>
    <trkpt lat="50.9486084" lon="6.9197175">
      <ele>61.2</ele>
      <time>2019-09-01T16:25:41Z</time>
    </trkpt>
    <trkpt lat="50.9486576" lon="6.9196185">
      <ele>61.4</ele>
      <time>2019-09-01T16:25:42Z</time>
    </trkpt>
    <trkpt lat="50.9487055" lon="6.9195183">
      <ele>61.6</ele>
      <time>2019-09-01T16:25:43Z</time>
    </trkpt>
    <trkpt lat="50.9487484" lon="6.9194180">
      <ele>61.8</ele>
      <time>2019-09-01T16:25:44Z</time>
    </trkpt>
    <trkpt lat="50.9487940" lon="6.9193216">
      <ele>62.0</ele>
      <time>2019-09-01T16:25:45Z</time>
    </trkpt>
    <trkpt lat="50.9488707" lon="6.9191305">
      <ele>62.4</ele>
      <time>2019-09-01T16:25:47Z</time>
    </trkpt>
    <trkpt lat="50.9491284" lon="6.9185285">
      <ele>64.2</ele>
      <time>2019-09-01T16:25:53Z</time>
    </trkpt>
    <trkpt lat="50.9493611" lon="6.9181200">
      <ele>65.2</ele>
      <time>2019-09-01T16:25:58Z</time>
    </trkpt>
    <trkpt lat="50.9496480" lon="6.9176749">
      <ele>65.8</ele>
      <time>2019-09-01T16:26:04Z</time>
    </trkpt>
    <trkpt lat="50.9497431" lon="6.9175327">
      <ele>66.4</ele>
      <time>2019-09-01T16:26:06Z</time>
    </trkpt>
    <trkpt lat="50.9497905" lon="6.9174663">
      <ele>66.6</ele>
      <time>2019-09-01T16:26:07Z</time>
    </trkpt>
    <trkpt lat="50.9499295" lon="6.9172596">
      <ele>67.6</ele>
      <time>2019-09-01T16:26:10Z</time>
    </trkpt>
    <trkpt lat="50.9499697" lon="6.9172005">
      <ele>68.2</ele>
      <time>2019-09-01T16:26:11Z</time>
    </trkpt>
    <trkpt lat="50.9500551" lon="6.9169792">
      <ele>67.4</ele>
      <time>2019-09-01T16:26:18Z</time>
    </trkpt>
    <trkpt lat="50.9500552" lon="6.9169095">
      <ele>65.2</ele>
      <time>2019-09-01T16:26:22Z</time>
    </trkpt>
    <trkpt lat="50.9500554" lon="6.9168968">
      <ele>64.8</ele>
      <time>2019-09-01T16:26:23Z</time>
    </trkpt>
    <trkpt lat="50.9501201" lon="6.9167928">
      <ele>64.0</ele>
      <time>2019-09-01T16:27:06Z</time>
    </trkpt>
    <trkpt lat="50.9502163" lon="6.9166603">
      <ele>64.0</ele>
      <time>2019-09-01T16:27:09Z</time>
    </trkpt>
    <trkpt lat="50.9502963" lon="6.9165471">
      <ele>64.0</ele>
      <time>2019-09-01T16:27:11Z</time>
    </trkpt>
    <trkpt lat="50.9504920" lon="6.9163379">
      <ele>63.8</ele>
      <time>2019-09-01T16:27:15Z</time>
    </trkpt>
    <trkpt lat="50.9507384" lon="6.9160217">
      <ele>63.6</ele>
      <time>2019-09-01T16:27:20Z</time>
    </trkpt>
    <trkpt lat="50.9509877" lon="6.9155512">
      <ele>62.4</ele>
      <time>2019-09-01T16:27:26Z</time>
    </trkpt>
    <trkpt lat="50.9510297" lon="6.9154870">
      <ele>62.2</ele>
      <time>2019-09-01T16:27:27Z</time>
    </trkpt>
    <trkpt lat="50.9510984" lon="6.9153387">
      <ele>61.8</ele>
      <time>2019-09-01T16:27:29Z</time>
    </trkpt>
    <trkpt lat="50.9512082" lon="6.9151313">
      <ele>61.2</ele>
      <time>2019-09-01T16:27:32Z</time>
    </trkpt>
    <trkpt lat="50.9515427" lon="6.9147201">
      <ele>59.8</ele>
      <time>2019-09-01T16:27:37Z</time>
    </trkpt>
    <trkpt lat="50.9516012" lon="6.9146184">
      <ele>59.4</ele>
      <time>2019-09-01T16:27:38Z</time>
    </trkpt>
    <trkpt lat="50.9516591" lon="6.9145185">
      <ele>59.2</ele>
      <time>2019-09-01T16:27:39Z</time>
    </trkpt>
    <trkpt lat="50.9521023" lon="6.9139424">
      <ele>56.4</ele>
      <time>2019-09-01T16:27:46Z</time>
    </trkpt>
    <trkpt lat="50.9523280" lon="6.9136295">
      <ele>55.6</ele>
      <time>2019-09-01T16:27:50Z</time>
    </trkpt>
    <trkpt lat="50.9523741" lon="6.9135347">
      <ele>55.0</ele>
      <time>2019-09-01T16:27:51Z</time>
    </trkpt>
    <trkpt lat="50.9524148" lon="6.9134414">
      <ele>54.4</ele>
      <time>2019-09-01T16:27:52Z</time>
    </trkpt>
    <trkpt lat="50.9526836" lon="6.9130857">
      <ele>53.0</ele>
      <time>2019-09-01T16:27:57Z</time>
    </trkpt>
    <trkpt lat="50.9530819" lon="6.9124345">
      <ele>50.8</ele>
      <time>2019-09-01T16:28:06Z</time>
    </trkpt>
    <trkpt lat="50.9534748" lon="6.9118104">
      <ele>47.0</ele>
      <time>2019-09-01T16:28:16Z</time>
    </trkpt>
    <trkpt lat="50.9535574" lon="6.9116961">
      <ele>46.4</ele>
      <time>2019-09-01T16:28:18Z</time>
    </trkpt>
    <trkpt lat="50.9535975" lon="6.9116424">
      <ele>46.0</ele>
      <time>2019-09-01T16:28:19Z</time>
    </trkpt>
    <trkpt lat="50.9536394" lon="6.9115837">
      <ele>45.8</ele>
      <time>2019-09-01T16:28:20Z</time>
    </trkpt>
    <trkpt lat="50.9536833" lon="6.9115266">
      <ele>45.4</ele>
      <time>2019-09-01T16:28:21Z</time>
    </trkpt>
    <trkpt lat="50.9541319" lon="6.9109632">
      <ele>42.8</ele>
      <time>2019-09-01T16:28:31Z</time>
    </trkpt>
    <trkpt lat="50.9542253" lon="6.9108254">
      <ele>42.2</ele>
      <time>2019-09-01T16:28:33Z</time>
    </trkpt>
    <trkpt lat="50.9542759" lon="6.9107561">
      <ele>42.2</ele>
      <time>2019-09-01T16:28:34Z</time>
    </trkpt>
    <trkpt lat="50.9543248" lon="6.9106791">
      <ele>42.4</ele>
      <time>2019-09-01T16:28:35Z</time>
    </trkpt>
    <trkpt lat="50.9543651" lon="6.9105909">
      <ele>42.4</ele>
      <time>2019-09-01T16:28:36Z</time>
    </trkpt>
    <trkpt lat="50.9543962" lon="6.9104728">
      <ele>42.6</ele>
      <time>2019-09-01T16:28:37Z</time>
    </trkpt>
    <trkpt lat="50.9545132" lon="6.9100729">
      <ele>42.6</ele>
      <time>2019-09-01T16:28:41Z</time>
    </trkpt>
    <trkpt lat="50.9546461" lon="6.9097548">
      <ele>42.2</ele>
      <time>2019-09-01T16:28:45Z</time>
    </trkpt>
    <trkpt lat="50.9547973" lon="6.9092304">
      <ele>42.4</ele>
      <time>2019-09-01T16:28:51Z</time>
    </trkpt>
    <trkpt lat="50.9549824" lon="6.9086475">
      <ele>43.0</ele>
      <time>2019-09-01T16:28:58Z</time>
    </trkpt>
    <trkpt lat="50.9552749" lon="6.9078492">
      <ele>45.4</ele>
      <time>2019-09-01T16:29:08Z</time>
    </trkpt>
    <trkpt lat="50.9554651" lon="6.9071832">
      <ele>47.2</ele>
      <time>2019-09-01T16:29:15Z</time>
    </trkpt>
    <trkpt lat="50.9557151" lon="6.9064707">
      <ele>46.4</ele>
      <time>2019-09-01T16:29:23Z</time>
    </trkpt>
    <trkpt lat="50.9557362" lon="6.9063860">
      <ele>46.6</ele>
      <time>2019-09-01T16:29:24Z</time>
    </trkpt>
    <trkpt lat="50.9559905" lon="6.9056888">
      <ele>47.6</ele>
      <time>2019-09-01T16:29:33Z</time>
    </trkpt>
    <trkpt lat="50.9562310" lon="6.9048760">
      <ele>49.4</ele>
      <time>2019-09-01T16:29:43Z</time>
    </trkpt>
    <trkpt lat="50.9565109" lon="6.9040804">
      <ele>52.4</ele>
      <time>2019-09-01T16:29:54Z</time>
    </trkpt>
    <trkpt lat="50.9567794" lon="6.9034349">
      <ele>52.6</ele>
      <time>2019-09-01T16:30:07Z</time>
    </trkpt>
    <trkpt lat="50.9567903" lon="6.9033578">
      <ele>50.8</ele>
      <time>2019-09-01T16:30:10Z</time>
    </trkpt>
    <trkpt lat="50.9567912" lon="6.9033395">
      <ele>50.4</ele>
      <time>2019-09-01T16:30:11Z</time>
    </trkpt>
    <trkpt lat="50.9568030" lon="6.9032731">
      <ele>49.0</ele>
      <time>2019-09-01T16:30:25Z</time>
    </trkpt>
    <trkpt lat="50.9569208" lon="6.9028873">
      <ele>47.2</ele>
      <time>2019-09-01T16:30:32Z</time>
    </trkpt>
    <trkpt lat="50.9569561" lon="6.9027239">
      <ele>46.8</ele>
      <time>2019-09-01T16:30:34Z</time>
    </trkpt>
    <trkpt lat="50.9571668" lon="6.9018381">
      <ele>44.2</ele>
      <time>2019-09-01T16:30:44Z</time>
    </trkpt>
    <trkpt lat="50.9572077" lon="6.9016661">
      <ele>43.6</ele>
      <time>2019-09-01T16:30:46Z</time>
    </trkpt>
    <trkpt lat="50.9572757" lon="6.9015168">
      <ele>43.2</ele>
      <time>2019-09-01T16:30:48Z</time>
    </trkpt>
    <trkpt lat="50.9573770" lon="6.9013012">
      <ele>42.6</ele>
      <time>2019-09-01T16:30:51Z</time>
    </trkpt>
    <trkpt lat="50.9576656" lon="6.9004685">
      <ele>41.0</ele>
      <time>2019-09-01T16:31:02Z</time>
    </trkpt>
    <trkpt lat="50.9578968" lon="6.8999920">
      <ele>39.4</ele>
      <time>2019-09-01T16:31:08Z</time>
    </trkpt>
    <trkpt lat="50.9581470" lon="6.8994732">
      <ele>38.0</ele>
      <time>2019-09-01T16:31:15Z</time>
    </trkpt>
    <trkpt lat="50.9582240" lon="6.8993141">
      <ele>37.6</ele>
      <time>2019-09-01T16:31:17Z</time>
    </trkpt>
    <trkpt lat="50.9582636" lon="6.8992321">
      <ele>37.4</ele>
      <time>2019-09-01T16:31:18Z</time>
    </trkpt>
    <trkpt lat="50.9582998" lon="6.8991454">
      <ele>37.2</ele>
      <time>2019-09-01T16:31:19Z</time>
    </trkpt>
    <trkpt lat="50.9585640" lon="6.8986445">
      <ele>36.0</ele>
      <time>2019-09-01T16:31:26Z</time>
    </trkpt>
    <trkpt lat="50.9589214" lon="6.8978886">
      <ele>34.2</ele>
      <time>2019-09-01T16:31:36Z</time>
    </trkpt>
    <trkpt lat="50.9589584" lon="6.8978042">
      <ele>34.0</ele>
      <time>2019-09-01T16:31:37Z</time>
    </trkpt>
    <trkpt lat="50.9589949" lon="6.8977221">
      <ele>33.8</ele>
      <time>2019-09-01T16:31:38Z</time>
    </trkpt>
    <trkpt lat="50.9590312" lon="6.8976386">
      <ele>33.8</ele>
      <time>2019-09-01T16:31:39Z</time>
    </trkpt>
    <trkpt lat="50.9592702" lon="6.8971495">
      <ele>33.6</ele>
      <time>2019-09-01T16:31:45Z</time>
    </trkpt>
    <trkpt lat="50.9596068" lon="6.8964518">
      <ele>32.4</ele>
      <time>2019-09-01T16:31:54Z</time>
    </trkpt>
    <trkpt lat="50.9597590" lon="6.8961356">
      <ele>32.0</ele>
      <time>2019-09-01T16:31:58Z</time>
    </trkpt>
    <trkpt lat="50.9601045" lon="6.8954084">
      <ele>30.8</ele>
      <time>2019-09-01T16:32:07Z</time>
    </trkpt>
    <trkpt lat="50.9603631" lon="6.8948986">
      <ele>30.0</ele>
      <time>2019-09-01T16:32:14Z</time>
    </trkpt>
    <trkpt lat="50.9604377" lon="6.8947696">
      <ele>30.0</ele>
      <time>2019-09-01T16:32:16Z</time>
    </trkpt>
    <trkpt lat="50.9606386" lon="6.8943589">
      <ele>30.0</ele>
      <time>2019-09-01T16:32:22Z</time>
    </trkpt>
    <trkpt lat="50.9607650" lon="6.8941140">
      <ele>30.2</ele>
      <time>2019-09-01T16:32:26Z</time>
    </trkpt>
    <trkpt lat="50.9608467" lon="6.8938940">
      <ele>30.4</ele>
      <time>2019-09-01T16:32:29Z</time>
    </trkpt>
    <trkpt lat="50.9609247" lon="6.8937683">
      <ele>30.6</ele>
      <time>2019-09-01T16:32:31Z</time>
    </trkpt>
    <trkpt lat="50.9610519" lon="6.8936186">
      <ele>30.8</ele>
      <time>2019-09-01T16:32:34Z</time>
    </trkpt>
    <trkpt lat="50.9611500" lon="6.8934226">
      <ele>30.8</ele>
      <time>2019-09-01T16:32:37Z</time>
    </trkpt>
    <trkpt lat="50.9612932" lon="6.8931741">
      <ele>30.4</ele>
      <time>2019-09-01T16:32:41Z</time>
    </trkpt>
    <trkpt lat="50.9616038" lon="6.8924297">
      <ele>30.8</ele>
      <time>2019-09-01T16:32:50Z</time>
    </trkpt>
    <trkpt lat="50.9618209" lon="6.8919434">
      <ele>30.6</ele>
      <time>2019-09-01T16:32:56Z</time>
    </trkpt>
    <trkpt lat="50.9619673" lon="6.8916207">
      <ele>30.8</ele>
      <time>2019-09-01T16:33:00Z</time>
    </trkpt>
    <trkpt lat="50.9621395" lon="6.8912713">
      <ele>30.4</ele>
      <time>2019-09-01T16:33:05Z</time>
    </trkpt>
    <trkpt lat="50.9623512" lon="6.8908387">
      <ele>30.2</ele>
      <time>2019-09-01T16:33:11Z</time>
    </trkpt>
    <trkpt lat="50.9626667" lon="6.8900749">
      <ele>30.8</ele>
      <time>2019-09-01T16:33:20Z</time>
    </trkpt>
    <trkpt lat="50.9627411" lon="6.8898840">
      <ele>31.0</ele>
      <time>2019-09-01T16:33:22Z</time>
    </trkpt>
    <trkpt lat="50.9629879" lon="6.8894024">
      <ele>30.4</ele>
      <time>2019-09-01T16:33:27Z</time>
    </trkpt>
    <trkpt lat="50.9631997" lon="6.8891202">
      <ele>30.8</ele>
      <time>2019-09-01T16:33:31Z</time>
    </trkpt>
    <trkpt lat="50.9632455" lon="6.8890459">
      <ele>31.0</ele>
      <time>2019-09-01T16:33:32Z</time>
    </trkpt>
    <trkpt lat="50.9633202" lon="6.8888718">
      <ele>31.4</ele>
      <time>2019-09-01T16:33:34Z</time>
    </trkpt>
    <trkpt lat="50.9635777" lon="6.8881961">
      <ele>32.8</ele>
      <time>2019-09-01T16:33:43Z</time>
    </trkpt>
    <trkpt lat="50.9635886" lon="6.8880553">
      <ele>33.8</ele>
      <time>2019-09-01T16:33:48Z</time>
    </trkpt>
    <trkpt lat="50.9635481" lon="6.8880530">
      <ele>34.0</ele>
      <time>2019-09-01T16:33:50Z</time>
    </trkpt>
    <trkpt lat="50.9634840" lon="6.8878503">
      <ele>35.0</ele>
      <time>2019-09-01T16:33:56Z</time>
    </trkpt>
    <trkpt lat="50.9635289" lon="6.8877141">
      <ele>35.4</ele>
      <time>2019-09-01T16:33:59Z</time>
    </trkpt>
    <trkpt lat="50.9638363" lon="6.8870093">
      <ele>36.8</ele>
      <time>2019-09-01T16:34:11Z</time>
    </trkpt>
    <trkpt lat="50.9639301" lon="6.8868148">
      <ele>36.8</ele>
      <time>2019-09-01T16:34:14Z</time>
    </trkpt>
    <trkpt lat="50.9639661" lon="6.8867497">
      <ele>36.8</ele>
      <time>2019-09-01T16:34:15Z</time>
    </trkpt>
    <trkpt lat="50.9643082" lon="6.8860846">
      <ele>37.8</ele>
      <time>2019-09-01T16:34:25Z</time>
    </trkpt>
    <trkpt lat="50.9646456" lon="6.8853262">
      <ele>37.8</ele>
      <time>2019-09-01T16:34:35Z</time>
    </trkpt>
    <trkpt lat="50.9649791" lon="6.8846075">
      <ele>37.8</ele>
      <time>2019-09-01T16:34:45Z</time>
    </trkpt>
    <trkpt lat="50.9653168" lon="6.8839168">
      <ele>36.8</ele>
      <time>2019-09-01T16:34:54Z</time>
    </trkpt>
    <trkpt lat="50.9656089" lon="6.8833270">
      <ele>36.0</ele>
      <time>2019-09-01T16:35:02Z</time>
    </trkpt>
    <trkpt lat="50.9659503" lon="6.8825653">
      <ele>34.8</ele>
      <time>2019-09-01T16:35:12Z</time>
    </trkpt>
    <trkpt lat="50.9661777" lon="6.8821034">
      <ele>33.6</ele>
      <time>2019-09-01T16:35:18Z</time>
    </trkpt>
    <trkpt lat="50.9663090" lon="6.8815733">
      <ele>34.2</ele>
      <time>2019-09-01T16:35:24Z</time>
    </trkpt>
    <trkpt lat="50.9663319" lon="6.8813815">
      <ele>35.0</ele>
      <time>2019-09-01T16:35:26Z</time>
    </trkpt>
    <trkpt lat="50.9663063" lon="6.8812095">
      <ele>35.4</ele>
      <time>2019-09-01T16:35:28Z</time>
    </trkpt>
    <trkpt lat="50.9662245" lon="6.8810842">
      <ele>35.4</ele>
      <time>2019-09-01T16:35:30Z</time>
    </trkpt>
    <trkpt lat="50.9658071" lon="6.8806399">
      <ele>35.4</ele>
      <time>2019-09-01T16:35:38Z</time>
    </trkpt>
    <trkpt lat="50.9657135" lon="6.8804853">
      <ele>35.6</ele>
      <time>2019-09-01T16:35:40Z</time>
    </trkpt>
    <trkpt lat="50.9656277" lon="6.8803182">
      <ele>35.6</ele>
      <time>2019-09-01T16:35:42Z</time>
    </trkpt>
    <trkpt lat="50.9655790" lon="6.8802426">
      <ele>35.6</ele>
      <time>2019-09-01T16:35:43Z</time>
    </trkpt>
    <trkpt lat="50.9651189" lon="6.8797049">
      <ele>35.4</ele>
      <time>2019-09-01T16:35:51Z</time>
    </trkpt>
    <trkpt lat="50.9649904" lon="6.8795708">
      <ele>35.6</ele>
      <time>2019-09-01T16:35:53Z</time>
    </trkpt>
    <trkpt lat="50.9645439" lon="6.8790846">
      <ele>37.4</ele>
      <time>2019-09-01T16:36:00Z</time>
    </trkpt>
    <trkpt lat="50.9641409" lon="6.8785009">
      <ele>38.0</ele>
      <time>2019-09-01T16:36:08Z</time>
    </trkpt>
    <trkpt lat="50.9639963" lon="6.8782845">
      <ele>38.0</ele>
      <time>2019-09-01T16:36:11Z</time>
    </trkpt>
    <trkpt lat="50.9638046" lon="6.8779709">
      <ele>38.2</ele>
      <time>2019-09-01T16:36:16Z</time>
    </trkpt>
    <trkpt lat="50.9637069" lon="6.8777877">
      <ele>37.8</ele>
      <time>2019-09-01T16:36:19Z</time>
    </trkpt>
    <trkpt lat="50.9634811" lon="6.8773253">
      <ele>38.2</ele>
      <time>2019-09-01T16:36:29Z</time>
    </trkpt>
    <trkpt lat="50.9634865" lon="6.8772605">
      <ele>38.8</ele>
      <time>2019-09-01T16:36:33Z</time>
    </trkpt>
  </trkseg></trk>
</gpx>
