<?xml version="1.0" encoding="UTF-8"?>
<gpx version="1.1" creator="Diary FIT converter" xmlns="http://www.topografix.com/GPX/1/1">
  <trk><name>Cycling</name><trkseg>
    <trkpt lat="50.9588033" lon="6.8977704">
      <time>2024-08-27T18:19:22Z</time>
    </trkpt>
    <trkpt lat="50.9582725" lon="6.8982952">
      <time>2024-08-27T18:19:30Z</time>
    </trkpt>
    <trkpt lat="50.9583136" lon="6.8985810">
      <time>2024-08-27T18:19:33Z</time>
    </trkpt>
    <trkpt lat="50.9582972" lon="6.8986249">
      <time>2024-08-27T18:19:34Z</time>
    </trkpt>
    <trkpt lat="50.9582741" lon="6.8986622">
      <time>2024-08-27T18:19:35Z</time>
    </trkpt>
    <trkpt lat="50.9581568" lon="6.8988086">
      <time>2024-08-27T18:19:38Z</time>
    </trkpt>
    <trkpt lat="50.9581228" lon="6.8990046">
      <time>2024-08-27T18:19:40Z</time>
    </trkpt>
    <trkpt lat="50.9581002" lon="6.8990924">
      <time>2024-08-27T18:19:41Z</time>
    </trkpt>
    <trkpt lat="50.9580212" lon="6.8993251">
      <time>2024-08-27T18:19:44Z</time>
    </trkpt>
    <trkpt lat="50.9580070" lon="6.8994157">
      <time>2024-08-27T18:19:45Z</time>
    </trkpt>
    <trkpt lat="50.9578828" lon="6.8995931">
      <time>2024-08-27T18:19:48Z</time>
    </trkpt>
    <trkpt lat="50.9578383" lon="6.8998328">
      <time>2024-08-27T18:19:51Z</time>
    </trkpt>
    <trkpt lat="50.9577973" lon="6.8999372">
      <time>2024-08-27T18:19:52Z</time>
    </trkpt>
    <trkpt lat="50.9577616" lon="6.9000176">
      <time>2024-08-27T18:19:53Z</time>
    </trkpt>
    <trkpt lat="50.9576689" lon="6.9002704">
      <time>2024-08-27T18:19:56Z</time>
    </trkpt>
    <trkpt lat="50.9575318" lon="6.9008260">
      <time>2024-08-27T18:20:01Z</time>
    </trkpt>
    <trkpt lat="50.9574149" lon="6.9011401">
      <time>2024-08-27T18:20:04Z</time>
    </trkpt>
    <trkpt lat="50.9573280" lon="6.9013199">
      <time>2024-08-27T18:20:06Z</time>
    </trkpt>
    <trkpt lat="50.9571840" lon="6.9017763">
      <time>2024-08-27T18:20:10Z</time>
    </trkpt>
    <trkpt lat="50.9571002" lon="6.9019659">
      <time>2024-08-27T18:20:12Z</time>
    </trkpt>
    <trkpt lat="50.9570471" lon="6.9020627">
      <time>2024-08-27T18:20:13Z</time>
    </trkpt>
    <trkpt lat="50.9569570" lon="6.9022650">
      <time>2024-08-27T18:20:15Z</time>
    </trkpt>
    <trkpt lat="50.9569578" lon="6.9023874">
      <time>2024-08-27T18:20:16Z</time>
    </trkpt>
    <trkpt lat="50.9568374" lon="6.9026825">
      <time>2024-08-27T18:20:19Z</time>
    </trkpt>
    <trkpt lat="50.9567611" lon="6.9030190">
      <time>2024-08-27T18:20:22Z</time>
    </trkpt>
    <trkpt lat="50.9566888" lon="6.9032563">
      <time>2024-08-27T18:20:24Z</time>
    </trkpt>
    <trkpt lat="50.9565742" lon="6.9036824">
      <time>2024-08-27T18:20:28Z</time>
    </trkpt>
    <trkpt lat="50.9565400" lon="6.9038174">
      <time>2024-08-27T18:20:31Z</time>
    </trkpt>
    <trkpt lat="50.9565175" lon="6.9038435">
      <time>2024-08-27T18:20:35Z</time>
    </trkpt>
    <trkpt lat="50.9565041" lon="6.9038536">
      <time>2024-08-27T18:20:36Z</time>
    </trkpt>
    <trkpt lat="50.9564380" lon="6.9039475">
      <time>2024-08-27T18:20:40Z</time>
    </trkpt>
    <trkpt lat="50.9563284" lon="6.9041700">
      <time>2024-08-27T18:20:44Z</time>
    </trkpt>
    <trkpt lat="50.9561723" lon="6.9046005">
      <time>2024-08-27T18:20:50Z</time>
    </trkpt>
    <trkpt lat="50.9561101" lon="6.9048303">
      <time>2024-08-27T18:20:53Z</time>
    </trkpt>
    <trkpt lat="50.9560149" lon="6.9051376">
      <time>2024-08-27T18:20:57Z</time>
    </trkpt>
    <trkpt lat="50.9559171" lon="6.9054246">
      <time>2024-08-27T18:21:01Z</time>
    </trkpt>
    <trkpt lat="50.9558574" lon="6.9055733">
      <time>2024-08-27T18:21:03Z</time>
    </trkpt>
    <trkpt lat="50.9558149" lon="6.9056973">
      <time>2024-08-27T18:21:05Z</time>
    </trkpt>
    <trkpt lat="50.9557662" lon="6.9059063">
      <time>2024-08-27T18:21:08Z</time>
    </trkpt>
    <trkpt lat="50.9556974" lon="6.9060954">
      <time>2024-08-27T18:21:11Z</time>
    </trkpt>
    <trkpt lat="50.9556305" lon="6.9062891">
      <time>2024-08-27T18:21:14Z</time>
    </trkpt>
    <trkpt lat="50.9555845" lon="6.9064153">
      <time>2024-08-27T18:21:16Z</time>
    </trkpt>
    <trkpt lat="50.9554879" lon="6.9066867">
      <time>2024-08-27T18:21:20Z</time>
    </trkpt>
    <trkpt lat="50.9552916" lon="6.9072631">
      <time>2024-08-27T18:21:29Z</time>
    </trkpt>
    <trkpt lat="50.9552720" lon="6.9073273">
      <time>2024-08-27T18:21:30Z</time>
    </trkpt>
    <trkpt lat="50.9551401" lon="6.9077080">
      <time>2024-08-27T18:21:36Z</time>
    </trkpt>
    <trkpt lat="50.9551032" lon="6.9078324">
      <time>2024-08-27T18:21:38Z</time>
    </trkpt>
    <trkpt lat="50.9550162" lon="6.9081819">
      <time>2024-08-27T18:21:43Z</time>
    </trkpt>
    <trkpt lat="50.9549418" lon="6.9083667">
      <time>2024-08-27T18:21:46Z</time>
    </trkpt>
    <trkpt lat="50.9548821" lon="6.9085501">
      <time>2024-08-27T18:21:49Z</time>
    </trkpt>
    <trkpt lat="50.9548195" lon="6.9087258">
      <time>2024-08-27T18:21:52Z</time>
    </trkpt>
    <trkpt lat="50.9547308" lon="6.9089828">
      <time>2024-08-27T18:21:56Z</time>
    </trkpt>
    <trkpt lat="50.9547024" lon="6.9090432">
      <time>2024-08-27T18:21:57Z</time>
    </trkpt>
    <trkpt lat="50.9546458" lon="6.9091717">
      <time>2024-08-27T18:21:59Z</time>
    </trkpt>
    <trkpt lat="50.9545755" lon="6.9093685">
      <time>2024-08-27T18:22:02Z</time>
    </trkpt>
    <trkpt lat="50.9545226" lon="6.9095156">
      <time>2024-08-27T18:22:04Z</time>
    </trkpt>
    <trkpt lat="50.9544422" lon="6.9097634">
      <time>2024-08-27T18:22:07Z</time>
    </trkpt>
    <trkpt lat="50.9543725" lon="6.9100389">
      <time>2024-08-27T18:22:10Z</time>
    </trkpt>
    <trkpt lat="50.9543211" lon="6.9102151">
      <time>2024-08-27T18:22:12Z</time>
    </trkpt>
    <trkpt lat="50.9542601" lon="6.9103882">
      <time>2024-08-27T18:22:14Z</time>
    </trkpt>
    <trkpt lat="50.9541834" lon="6.9105410">
      <time>2024-08-27T18:22:16Z</time>
    </trkpt>
    <trkpt lat="50.9540065" lon="6.9107976">
      <time>2024-08-27T18:22:20Z</time>
    </trkpt>
    <trkpt lat="50.9539252" lon="6.9109273">
      <time>2024-08-27T18:22:22Z</time>
    </trkpt>
    <trkpt lat="50.9537046" lon="6.9112705">
      <time>2024-08-27T18:22:27Z</time>
    </trkpt>
    <trkpt lat="50.9536174" lon="6.9114122">
      <time>2024-08-27T18:22:29Z</time>
    </trkpt>
    <trkpt lat="50.9534502" lon="6.9116787">
      <time>2024-08-27T18:22:33Z</time>
    </trkpt>
    <trkpt lat="50.9532986" lon="6.9118887">
      <time>2024-08-27T18:22:36Z</time>
    </trkpt>
    <trkpt lat="50.9530525" lon="6.9122792">
      <time>2024-08-27T18:22:41Z</time>
    </trkpt>
    <trkpt lat="50.9529513" lon="6.9124196">
      <time>2024-08-27T18:22:43Z</time>
    </trkpt>
    <trkpt lat="50.9525516" lon="6.9130176">
      <time>2024-08-27T18:22:51Z</time>
    </trkpt>
    <trkpt lat="50.9523961" lon="6.9132465">
      <time>2024-08-27T18:22:54Z</time>
    </trkpt>
    <trkpt lat="50.9521619" lon="6.9136080">
      <time>2024-08-27T18:22:59Z</time>
    </trkpt>
    <trkpt lat="50.9521142" lon="6.9136860">
      <time>2024-08-27T18:23:00Z</time>
    </trkpt>
    <trkpt lat="50.9517403" lon="6.9142476">
      <time>2024-08-27T18:23:08Z</time>
    </trkpt>
    <trkpt lat="50.9514461" lon="6.9147170">
      <time>2024-08-27T18:23:14Z</time>
    </trkpt>
    <trkpt lat="50.9512803" lon="6.9150756">
      <time>2024-08-27T18:23:18Z</time>
    </trkpt>
    <trkpt lat="50.9511829" lon="6.9152340">
      <time>2024-08-27T18:23:20Z</time>
    </trkpt>
    <trkpt lat="50.9511052" lon="6.9154209">
      <time>2024-08-27T18:23:22Z</time>
    </trkpt>
    <trkpt lat="50.9510352" lon="6.9154611">
      <time>2024-08-27T18:23:23Z</time>
    </trkpt>
    <trkpt lat="50.9507643" lon="6.9159574">
      <time>2024-08-27T18:23:29Z</time>
    </trkpt>
    <trkpt lat="50.9506599" lon="6.9161118">
      <time>2024-08-27T18:23:31Z</time>
    </trkpt>
    <trkpt lat="50.9505312" lon="6.9162591">
      <time>2024-08-27T18:23:34Z</time>
    </trkpt>
    <trkpt lat="50.9504427" lon="6.9163267">
      <time>2024-08-27T18:23:37Z</time>
    </trkpt>
    <trkpt lat="50.9503986" lon="6.9163974">
      <time>2024-08-27T18:23:39Z</time>
    </trkpt>
    <trkpt lat="50.9503563" lon="6.9164453">
      <time>2024-08-27T18:23:41Z</time>
    </trkpt>
    <trkpt lat="50.9503386" lon="6.9164482">
      <time>2024-08-27T18:23:43Z</time>
    </trkpt>
    <trkpt lat="50.9503343" lon="6.9164481">
      <time>2024-08-27T18:23:44Z</time>
    </trkpt>
    <trkpt lat="50.9503343" lon="6.9164481">
      <time>2024-08-27T18:23:47Z</time>
    </trkpt>
    <trkpt lat="50.9502947" lon="6.9165038">
      <time>2024-08-27T18:24:00Z</time>
    </trkpt>
    <trkpt lat="50.9502761" lon="6.9165451">
      <time>2024-08-27T18:24:01Z</time>
    </trkpt>
    <trkpt lat="50.9501358" lon="6.9167644">
      <time>2024-08-27T18:24:05Z</time>
    </trkpt>
    <trkpt lat="50.9500348" lon="6.9168946">
      <time>2024-08-27T18:24:07Z</time>
    </trkpt>
    <trkpt lat="50.9499802" lon="6.9169733">
      <time>2024-08-27T18:24:08Z</time>
    </trkpt>
    <trkpt lat="50.9498706" lon="6.9171564">
      <time>2024-08-27T18:24:10Z</time>
    </trkpt>
    <trkpt lat="50.9497594" lon="6.9173447">
      <time>2024-08-27T18:24:12Z</time>
    </trkpt>
    <trkpt lat="50.9495834" lon="6.9176112">
      <time>2024-08-27T18:24:15Z</time>
    </trkpt>
    <trkpt lat="50.9494763" lon="6.9177765">
      <time>2024-08-27T18:24:17Z</time>
    </trkpt>
    <trkpt lat="50.9493789" lon="6.9179356">
      <time>2024-08-27T18:24:19Z</time>
    </trkpt>
    <trkpt lat="50.9493349" lon="6.9180086">
      <time>2024-08-27T18:24:20Z</time>
    </trkpt>
    <trkpt lat="50.9491569" lon="6.9183073">
      <time>2024-08-27T18:24:24Z</time>
    </trkpt>
    <trkpt lat="50.9490378" lon="6.9185496">
      <time>2024-08-27T18:24:27Z</time>
    </trkpt>
    <trkpt lat="50.9490057" lon="6.9186331">
      <time>2024-08-27T18:24:28Z</time>
    </trkpt>
    <trkpt lat="50.9488223" lon="6.9190093">
      <time>2024-08-27T18:24:32Z</time>
    </trkpt>
    <trkpt lat="50.9486213" lon="6.9195591">
      <time>2024-08-27T18:24:37Z</time>
    </trkpt>
    <trkpt lat="50.9485677" lon="6.9196638">
      <time>2024-08-27T18:24:38Z</time>
    </trkpt>
    <trkpt lat="50.9484184" lon="6.9199624">
      <time>2024-08-27T18:24:41Z</time>
    </trkpt>
    <trkpt lat="50.9482983" lon="6.9202724">
      <time>2024-08-27T18:24:44Z</time>
    </trkpt>
    <trkpt lat="50.9481823" lon="6.9206675">
      <time>2024-08-27T18:24:49Z</time>
    </trkpt>
    <trkpt lat="50.9481230" lon="6.9208253">
      <time>2024-08-27T18:24:53Z</time>
    </trkpt>
    <trkpt lat="50.9480862" lon="6.9208739">
      <time>2024-08-27T18:24:54Z</time>
    </trkpt>
    <trkpt lat="50.9480005" lon="6.9209817">
      <time>2024-08-27T18:24:56Z</time>
    </trkpt>
    <trkpt lat="50.9479611" lon="6.9210521">
      <time>2024-08-27T18:24:57Z</time>
    </trkpt>
    <trkpt lat="50.9478506" lon="6.9212826">
      <time>2024-08-27T18:25:00Z</time>
    </trkpt>
    <trkpt lat="50.9477557" lon="6.9215344">
      <time>2024-08-27T18:25:03Z</time>
    </trkpt>
    <trkpt lat="50.9475220" lon="6.9221327">
      <time>2024-08-27T18:25:10Z</time>
    </trkpt>
    <trkpt lat="50.9473819" lon="6.9224604">
      <time>2024-08-27T18:25:14Z</time>
    </trkpt>
    <trkpt lat="50.9473080" lon="6.9226287">
      <time>2024-08-27T18:25:16Z</time>
    </trkpt>
    <trkpt lat="50.9470015" lon="6.9233449">
      <time>2024-08-27T18:25:25Z</time>
    </trkpt>
    <trkpt lat="50.9469688" lon="6.9234274">
      <time>2024-08-27T18:25:26Z</time>
    </trkpt>
    <trkpt lat="50.9467389" lon="6.9240083">
      <time>2024-08-27T18:25:33Z</time>
    </trkpt>
    <trkpt lat="50.9466051" lon="6.9243239">
      <time>2024-08-27T18:25:37Z</time>
    </trkpt>
    <trkpt lat="50.9465080" lon="6.9245646">
      <time>2024-08-27T18:25:40Z</time>
    </trkpt>
    <trkpt lat="50.9462538" lon="6.9251831">
      <time>2024-08-27T18:25:47Z</time>
    </trkpt>
    <trkpt lat="50.9462099" lon="6.9252735">
      <time>2024-08-27T18:25:48Z</time>
    </trkpt>
    <trkpt lat="50.9460722" lon="6.9255270">
      <time>2024-08-27T18:25:51Z</time>
    </trkpt>
    <trkpt lat="50.9460316" lon="6.9256189">
      <time>2024-08-27T18:25:52Z</time>
    </trkpt>
    <trkpt lat="50.9459670" lon="6.9258284">
      <time>2024-08-27T18:25:54Z</time>
    </trkpt>
    <trkpt lat="50.9459428" lon="6.9259425">
      <time>2024-08-27T18:25:55Z</time>
    </trkpt>
    <trkpt lat="50.9458404" lon="6.9262625">
      <time>2024-08-27T18:25:58Z</time>
    </trkpt>
    <trkpt lat="50.9457442" lon="6.9264380">
      <time>2024-08-27T18:26:00Z</time>
    </trkpt>
    <trkpt lat="50.9455209" lon="6.9268868">
      <time>2024-08-27T18:26:05Z</time>
    </trkpt>
    <trkpt lat="50.9454795" lon="6.9269834">
      <time>2024-08-27T18:26:06Z</time>
    </trkpt>
    <trkpt lat="50.9453540" lon="6.9273755">
      <time>2024-08-27T18:26:10Z</time>
    </trkpt>
    <trkpt lat="50.9452687" lon="6.9276539">
      <time>2024-08-27T18:26:13Z</time>
    </trkpt>
    <trkpt lat="50.9451854" lon="6.9278816">
      <time>2024-08-27T18:26:16Z</time>
    </trkpt>
    <trkpt lat="50.9451675" lon="6.9279401">
      <time>2024-08-27T18:26:17Z</time>
    </trkpt>
    <trkpt lat="50.9451348" lon="6.9280851">
      <time>2024-08-27T18:26:20Z</time>
    </trkpt>
    <trkpt lat="50.9451131" lon="6.9281725">
      <time>2024-08-27T18:26:23Z</time>
    </trkpt>
    <trkpt lat="50.9451088" lon="6.9281808">
      <time>2024-08-27T18:26:24Z</time>
    </trkpt>
    <trkpt lat="50.9451088" lon="6.9281808">
      <time>2024-08-27T18:26:26Z</time>
    </trkpt>
    <trkpt lat="50.9450716" lon="6.9282321">
      <time>2024-08-27T18:27:28Z</time>
    </trkpt>
    <trkpt lat="50.9450473" lon="6.9282793">
      <time>2024-08-27T18:27:29Z</time>
    </trkpt>
    <trkpt lat="50.9450227" lon="6.9283308">
      <time>2024-08-27T18:27:30Z</time>
    </trkpt>
    <trkpt lat="50.9449024" lon="6.9284996">
      <time>2024-08-27T18:27:33Z</time>
    </trkpt>
    <trkpt lat="50.9448650" lon="6.9285615">
      <time>2024-08-27T18:27:34Z</time>
    </trkpt>
    <trkpt lat="50.9448044" lon="6.9287001">
      <time>2024-08-27T18:27:36Z</time>
    </trkpt>
    <trkpt lat="50.9447766" lon="6.9287811">
      <time>2024-08-27T18:27:37Z</time>
    </trkpt>
    <trkpt lat="50.9447284" lon="6.9289418">
      <time>2024-08-27T18:27:39Z</time>
    </trkpt>
    <trkpt lat="50.9446994" lon="6.9290218">
      <time>2024-08-27T18:27:40Z</time>
    </trkpt>
    <trkpt lat="50.9446419" lon="6.9291998">
      <time>2024-08-27T18:27:42Z</time>
    </trkpt>
    <trkpt lat="50.9445891" lon="6.9293781">
      <time>2024-08-27T18:27:44Z</time>
    </trkpt>
    <trkpt lat="50.9445034" lon="6.9296210">
      <time>2024-08-27T18:27:47Z</time>
    </trkpt>
    <trkpt lat="50.9444171" lon="6.9298650">
      <time>2024-08-27T18:27:50Z</time>
    </trkpt>
    <trkpt lat="50.9443269" lon="6.9300865">
      <time>2024-08-27T18:27:53Z</time>
    </trkpt>
    <trkpt lat="50.9442175" lon="6.9304336">
      <time>2024-08-27T18:27:57Z</time>
    </trkpt>
    <trkpt lat="50.9440117" lon="6.9311184">
      <time>2024-08-27T18:28:05Z</time>
    </trkpt>
    <trkpt lat="50.9439142" lon="6.9314214">
      <time>2024-08-27T18:28:09Z</time>
    </trkpt>
    <trkpt lat="50.9438341" lon="6.9316607">
      <time>2024-08-27T18:28:12Z</time>
    </trkpt>
    <trkpt lat="50.9438220" lon="6.9317578">
      <time>2024-08-27T18:28:13Z</time>
    </trkpt>
    <trkpt lat="50.9437851" lon="6.9319470">
      <time>2024-08-27T18:28:15Z</time>
    </trkpt>
    <trkpt lat="50.9437918" lon="6.9320406">
      <time>2024-08-27T18:28:16Z</time>
    </trkpt>
    <trkpt lat="50.9437885" lon="6.9322074">
      <time>2024-08-27T18:28:18Z</time>
    </trkpt>
    <trkpt lat="50.9437350" lon="6.9323886">
      <time>2024-08-27T18:28:20Z</time>
    </trkpt>
    <trkpt lat="50.9435466" lon="6.9327809">
      <time>2024-08-27T18:28:25Z</time>
    </trkpt>
    <trkpt lat="50.9433460" lon="6.9331677">
      <time>2024-08-27T18:28:30Z</time>
    </trkpt>
    <trkpt lat="50.9432638" lon="6.9333241">
      <time>2024-08-27T18:28:32Z</time>
    </trkpt>
    <trkpt lat="50.9431193" lon="6.9336872">
      <time>2024-08-27T18:28:37Z</time>
    </trkpt>
    <trkpt lat="50.9427985" lon="6.9343877">
      <time>2024-08-27T18:28:48Z</time>
    </trkpt>
    <trkpt lat="50.9427668" lon="6.9345409">
      <time>2024-08-27T18:28:50Z</time>
    </trkpt>
    <trkpt lat="50.9426882" lon="6.9347087">
      <time>2024-08-27T18:28:52Z</time>
    </trkpt>
    <trkpt lat="50.9426431" lon="6.9347867">
      <time>2024-08-27T18:28:53Z</time>
    </trkpt>
    <trkpt lat="50.9425418" lon="6.9349452">
      <time>2024-08-27T18:28:57Z</time>
    </trkpt>
    <trkpt lat="50.9425213" lon="6.9349542">
      <time>2024-08-27T18:28:59Z</time>
    </trkpt>
    <trkpt lat="50.9425057" lon="6.9349851">
      <time>2024-08-27T18:29:00Z</time>
    </trkpt>
    <trkpt lat="50.9424653" lon="6.9350721">
      <time>2024-08-27T18:29:02Z</time>
    </trkpt>
    <trkpt lat="50.9422612" lon="6.9354359">
      <time>2024-08-27T18:29:09Z</time>
    </trkpt>
    <trkpt lat="50.9420492" lon="6.9358279">
      <time>2024-08-27T18:29:14Z</time>
    </trkpt>
    <trkpt lat="50.9419089" lon="6.9360706">
      <time>2024-08-27T18:29:17Z</time>
    </trkpt>
    <trkpt lat="50.9418155" lon="6.9362514">
      <time>2024-08-27T18:29:19Z</time>
    </trkpt>
    <trkpt lat="50.9417246" lon="6.9364252">
      <time>2024-08-27T18:29:21Z</time>
    </trkpt>
    <trkpt lat="50.9415316" lon="6.9367870">
      <time>2024-08-27T18:29:25Z</time>
    </trkpt>
    <trkpt lat="50.9413780" lon="6.9370656">
      <time>2024-08-27T18:29:28Z</time>
    </trkpt>
    <trkpt lat="50.9409884" lon="6.9377505">
      <time>2024-08-27T18:29:36Z</time>
    </trkpt>
    <trkpt lat="50.9409434" lon="6.9378287">
      <time>2024-08-27T18:29:37Z</time>
    </trkpt>
    <trkpt lat="50.9408272" lon="6.9380906">
      <time>2024-08-27T18:29:40Z</time>
    </trkpt>
    <trkpt lat="50.9407708" lon="6.9382948">
      <time>2024-08-27T18:29:42Z</time>
    </trkpt>
    <trkpt lat="50.9406540" lon="6.9388355">
      <time>2024-08-27T18:29:47Z</time>
    </trkpt>
    <trkpt lat="50.9405705" lon="6.9392755">
      <time>2024-08-27T18:29:51Z</time>
    </trkpt>
    <trkpt lat="50.9405197" lon="6.9395920">
      <time>2024-08-27T18:29:54Z</time>
    </trkpt>
    <trkpt lat="50.9404426" lon="6.9397665">
      <time>2024-08-27T18:29:56Z</time>
    </trkpt>
    <trkpt lat="50.9403142" lon="6.9398391">
      <time>2024-08-27T18:29:58Z</time>
    </trkpt>
    <trkpt lat="50.9400903" lon="6.9397916">
      <time>2024-08-27T18:30:01Z</time>
    </trkpt>
    <trkpt lat="50.9397424" lon="6.9397200">
      <time>2024-08-27T18:30:06Z</time>
    </trkpt>
    <trkpt lat="50.9396640" lon="6.9397151">
      <time>2024-08-27T18:30:07Z</time>
    </trkpt>
    <trkpt lat="50.9392793" lon="6.9396342">
      <time>2024-08-27T18:30:13Z</time>
    </trkpt>
    <trkpt lat="50.9391707" lon="6.9395850">
      <time>2024-08-27T18:30:15Z</time>
    </trkpt>
    <trkpt lat="50.9390868" lon="6.9395750">
      <time>2024-08-27T18:30:17Z</time>
    </trkpt>
    <trkpt lat="50.9389929" lon="6.9395396">
      <time>2024-08-27T18:30:21Z</time>
    </trkpt>
    <trkpt lat="50.9389477" lon="6.9395259">
      <time>2024-08-27T18:30:27Z</time>
    </trkpt>
    <trkpt lat="50.9389363" lon="6.9395188">
      <time>2024-08-27T18:30:28Z</time>
    </trkpt>
    <trkpt lat="50.9388565" lon="6.9394417">
      <time>2024-08-27T18:30:31Z</time>
    </trkpt>
    <trkpt lat="50.9386578" lon="6.9394062">
      <time>2024-08-27T18:30:37Z</time>
    </trkpt>
    <trkpt lat="50.9384781" lon="6.9394002">
      <time>2024-08-27T18:30:43Z</time>
    </trkpt>
    <trkpt lat="50.9383240" lon="6.9393880">
      <time>2024-08-27T18:30:49Z</time>
    </trkpt>
    <trkpt lat="50.9382870" lon="6.9393462">
      <time>2024-08-27T18:30:50Z</time>
    </trkpt>
    <trkpt lat="50.9381446" lon="6.9393170">
      <time>2024-08-27T18:30:53Z</time>
    </trkpt>
    <trkpt lat="50.9378053" lon="6.9392304">
      <time>2024-08-27T18:30:58Z</time>
    </trkpt>
    <trkpt lat="50.9376514" lon="6.9391920">
      <time>2024-08-27T18:31:00Z</time>
    </trkpt>
    <trkpt lat="50.9373922" lon="6.9391164">
      <time>2024-08-27T18:31:03Z</time>
    </trkpt>
    <trkpt lat="50.9372204" lon="6.9390599">
      <time>2024-08-27T18:31:05Z</time>
    </trkpt>
    <trkpt lat="50.9371399" lon="6.9390407">
      <time>2024-08-27T18:31:06Z</time>
    </trkpt>
    <trkpt lat="50.9370627" lon="6.9390136">
      <time>2024-08-27T18:31:07Z</time>
    </trkpt>
    <trkpt lat="50.9369889" lon="6.9390005">
      <time>2024-08-27T18:31:08Z</time>
    </trkpt>
    <trkpt lat="50.9368293" lon="6.9389774">
      <time>2024-08-27T18:31:10Z</time>
    </trkpt>
    <trkpt lat="50.9365764" lon="6.9389394">
      <time>2024-08-27T18:31:13Z</time>
    </trkpt>
    <trkpt lat="50.9360899" lon="6.9389502">
      <time>2024-08-27T18:31:19Z</time>
    </trkpt>
    <trkpt lat="50.9358621" lon="6.9389792">
      <time>2024-08-27T18:31:22Z</time>
    </trkpt>
    <trkpt lat="50.9356916" lon="6.9390208">
      <time>2024-08-27T18:31:24Z</time>
    </trkpt>
    <trkpt lat="50.9354108" lon="6.9391082">
      <time>2024-08-27T18:31:28Z</time>
    </trkpt>
    <trkpt lat="50.9353613" lon="6.9391507">
      <time>2024-08-27T18:31:29Z</time>
    </trkpt>
    <trkpt lat="50.9353652" lon="6.9393094">
      <time>2024-08-27T18:31:31Z</time>
    </trkpt>
    <trkpt lat="50.9353777" lon="6.9394111">
      <time>2024-08-27T18:31:32Z</time>
    </trkpt>
    <trkpt lat="50.9353838" lon="6.9395151">
      <time>2024-08-27T18:31:33Z</time>
    </trkpt>
    <trkpt lat="50.9354236" lon="6.9398471">
      <time>2024-08-27T18:31:36Z</time>
    </trkpt>
    <trkpt lat="50.9354732" lon="6.9400591">
      <time>2024-08-27T18:31:38Z</time>
    </trkpt>
    <trkpt lat="50.9355104" lon="6.9401747">
      <time>2024-08-27T18:31:39Z</time>
    </trkpt>
    <trkpt lat="50.9355437" lon="6.9402863">
      <time>2024-08-27T18:31:40Z</time>
    </trkpt>
    <trkpt lat="50.9356310" lon="6.9404561">
      <time>2024-08-27T18:31:42Z</time>
    </trkpt>
    <trkpt lat="50.9357539" lon="6.9407301">
      <time>2024-08-27T18:31:45Z</time>
    </trkpt>
    <trkpt lat="50.9357839" lon="6.9408200">
      <time>2024-08-27T18:31:46Z</time>
    </trkpt>
    <trkpt lat="50.9358104" lon="6.9409319">
      <time>2024-08-27T18:31:47Z</time>
    </trkpt>
    <trkpt lat="50.9358432" lon="6.9411248">
      <time>2024-08-27T18:31:49Z</time>
    </trkpt>
    <trkpt lat="50.9358762" lon="6.9413328">
      <time>2024-08-27T18:31:51Z</time>
    </trkpt>
    <trkpt lat="50.9358367" lon="6.9415588">
      <time>2024-08-27T18:31:53Z</time>
    </trkpt>
    <trkpt lat="50.9357969" lon="6.9417591">
      <time>2024-08-27T18:31:55Z</time>
    </trkpt>
    <trkpt lat="50.9357814" lon="6.9420271">
      <time>2024-08-27T18:31:58Z</time>
    </trkpt>
    <trkpt lat="50.9357801" lon="6.9421163">
      <time>2024-08-27T18:31:59Z</time>
    </trkpt>
    <trkpt lat="50.9357897" lon="6.9423042">
      <time>2024-08-27T18:32:01Z</time>
    </trkpt>
    <trkpt lat="50.9357802" lon="6.9425834">
      <time>2024-08-27T18:32:04Z</time>
    </trkpt>
    <trkpt lat="50.9357777" lon="6.9426739">
      <time>2024-08-27T18:32:05Z</time>
    </trkpt>
    <trkpt lat="50.9357717" lon="6.9428532">
      <time>2024-08-27T18:32:07Z</time>
    </trkpt>
    <trkpt lat="50.9357695" lon="6.9430217">
      <time>2024-08-27T18:32:09Z</time>
    </trkpt>
    <trkpt lat="50.9357802" lon="6.9433406">
      <time>2024-08-27T18:32:13Z</time>
    </trkpt>
    <trkpt lat="50.9357876" lon="6.9434864">
      <time>2024-08-27T18:32:15Z</time>
    </trkpt>
    <trkpt lat="50.9357902" lon="6.9438159">
      <time>2024-08-27T18:32:20Z</time>
    </trkpt>
    <trkpt lat="50.9357838" lon="6.9439625">
      <time>2024-08-27T18:32:22Z</time>
    </trkpt>
    <trkpt lat="50.9357871" lon="6.9440386">
      <time>2024-08-27T18:32:23Z</time>
    </trkpt>
    <trkpt lat="50.9357919" lon="6.9443576">
      <time>2024-08-27T18:32:27Z</time>
    </trkpt>
    <trkpt lat="50.9358003" lon="6.9446829">
      <time>2024-08-27T18:32:31Z</time>
    </trkpt>
    <trkpt lat="50.9358066" lon="6.9448464">
      <time>2024-08-27T18:32:33Z</time>
    </trkpt>
    <trkpt lat="50.9358023" lon="6.9451003">
      <time>2024-08-27T18:32:36Z</time>
    </trkpt>
    <trkpt lat="50.9357927" lon="6.9453503">
      <time>2024-08-27T18:32:39Z</time>
    </trkpt>
    <trkpt lat="50.9357949" lon="6.9456649">
      <time>2024-08-27T18:32:43Z</time>
    </trkpt>
    <trkpt lat="50.9358054" lon="6.9458201">
      <time>2024-08-27T18:32:45Z</time>
    </trkpt>
    <trkpt lat="50.9357641" lon="6.9460542">
      <time>2024-08-27T18:32:48Z</time>
    </trkpt>
    <trkpt lat="50.9357537" lon="6.9461318">
      <time>2024-08-27T18:32:49Z</time>
    </trkpt>
    <trkpt lat="50.9357083" lon="6.9466730">
      <time>2024-08-27T18:32:56Z</time>
    </trkpt>
    <trkpt lat="50.9357070" lon="6.9467473">
      <time>2024-08-27T18:32:57Z</time>
    </trkpt>
    <trkpt lat="50.9357194" lon="6.9469591">
      <time>2024-08-27T18:33:00Z</time>
    </trkpt>
    <trkpt lat="50.9357227" lon="6.9470308">
      <time>2024-08-27T18:33:01Z</time>
    </trkpt>
    <trkpt lat="50.9356710" lon="6.9476960">
      <time>2024-08-27T18:33:10Z</time>
    </trkpt>
    <trkpt lat="50.9356385" lon="6.9479289">
      <time>2024-08-27T18:33:13Z</time>
    </trkpt>
    <trkpt lat="50.9356137" lon="6.9480800">
      <time>2024-08-27T18:33:15Z</time>
    </trkpt>
    <trkpt lat="50.9355998" lon="6.9481569">
      <time>2024-08-27T18:33:16Z</time>
    </trkpt>
    <trkpt lat="50.9355462" lon="6.9485455">
      <time>2024-08-27T18:33:21Z</time>
    </trkpt>
    <trkpt lat="50.9355436" lon="6.9486247">
      <time>2024-08-27T18:33:22Z</time>
    </trkpt>
    <trkpt lat="50.9355368" lon="6.9488666">
      <time>2024-08-27T18:33:25Z</time>
    </trkpt>
    <trkpt lat="50.9354541" lon="6.9491235">
      <time>2024-08-27T18:33:28Z</time>
    </trkpt>
    <trkpt lat="50.9353796" lon="6.9494388">
      <time>2024-08-27T18:33:31Z</time>
    </trkpt>
    <trkpt lat="50.9353588" lon="6.9495497">
      <time>2024-08-27T18:33:32Z</time>
    </trkpt>
    <trkpt lat="50.9353395" lon="6.9496658">
      <time>2024-08-27T18:33:33Z</time>
    </trkpt>
    <trkpt lat="50.9353073" lon="6.9499116">
      <time>2024-08-27T18:33:35Z</time>
    </trkpt>
    <trkpt lat="50.9352758" lon="6.9501630">
      <time>2024-08-27T18:33:37Z</time>
    </trkpt>
    <trkpt lat="50.9352648" lon="6.9502891">
      <time>2024-08-27T18:33:38Z</time>
    </trkpt>
    <trkpt lat="50.9352563" lon="6.9504139">
      <time>2024-08-27T18:33:39Z</time>
    </trkpt>
    <trkpt lat="50.9352317" lon="6.9507878">
      <time>2024-08-27T18:33:42Z</time>
    </trkpt>
    <trkpt lat="50.9352237" lon="6.9512834">
      <time>2024-08-27T18:33:46Z</time>
    </trkpt>
    <trkpt lat="50.9352223" lon="6.9514073">
      <time>2024-08-27T18:33:47Z</time>
    </trkpt>
    <trkpt lat="50.9352245" lon="6.9520027">
      <time>2024-08-27T18:33:52Z</time>
    </trkpt>
    <trkpt lat="50.9352348" lon="6.9522337">
      <time>2024-08-27T18:33:54Z</time>
    </trkpt>
    <trkpt lat="50.9352318" lon="6.9523398">
      <time>2024-08-27T18:33:55Z</time>
    </trkpt>
    <trkpt lat="50.9352098" lon="6.9525376">
      <time>2024-08-27T18:33:57Z</time>
    </trkpt>
    <trkpt lat="50.9351898" lon="6.9526303">
      <time>2024-08-27T18:33:58Z</time>
    </trkpt>
    <trkpt lat="50.9351661" lon="6.9527123">
      <time>2024-08-27T18:33:59Z</time>
    </trkpt>
    <trkpt lat="50.9351296" lon="6.9528400">
      <time>2024-08-27T18:34:01Z</time>
    </trkpt>
    <trkpt lat="50.9351241" lon="6.9528855">
      <time>2024-08-27T18:34:02Z</time>
    </trkpt>
    <trkpt lat="50.9351163" lon="6.9529871">
      <time>2024-08-27T18:34:06Z</time>
    </trkpt>
    <trkpt lat="50.9351021" lon="6.9530396">
      <time>2024-08-27T18:34:08Z</time>
    </trkpt>
    <trkpt lat="50.9350727" lon="6.9532038">
      <time>2024-08-27T18:34:11Z</time>
    </trkpt>
    <trkpt lat="50.9350188" lon="6.9536446">
      <time>2024-08-27T18:34:16Z</time>
    </trkpt>
    <trkpt lat="50.9350112" lon="6.9537423">
      <time>2024-08-27T18:34:17Z</time>
    </trkpt>
    <trkpt lat="50.9349608" lon="6.9541226">
      <time>2024-08-27T18:34:21Z</time>
    </trkpt>
    <trkpt lat="50.9349097" lon="6.9547956">
      <time>2024-08-27T18:34:28Z</time>
    </trkpt>
    <trkpt lat="50.9349097" lon="6.9549944">
      <time>2024-08-27T18:34:30Z</time>
    </trkpt>
    <trkpt lat="50.9349250" lon="6.9553845">
      <time>2024-08-27T18:34:34Z</time>
    </trkpt>
    <trkpt lat="50.9349414" lon="6.9555594">
      <time>2024-08-27T18:34:36Z</time>
    </trkpt>
    <trkpt lat="50.9349656" lon="6.9557445">
      <time>2024-08-27T18:34:38Z</time>
    </trkpt>
    <trkpt lat="50.9350019" lon="6.9559280">
      <time>2024-08-27T18:34:40Z</time>
    </trkpt>
    <trkpt lat="50.9351647" lon="6.9567104">
      <time>2024-08-27T18:34:48Z</time>
    </trkpt>
    <trkpt lat="50.9352019" lon="6.9569159">
      <time>2024-08-27T18:34:50Z</time>
    </trkpt>
    <trkpt lat="50.9351594" lon="6.9574657">
      <time>2024-08-27T18:34:55Z</time>
    </trkpt>
    <trkpt lat="50.9352147" lon="6.9583590">
      <time>2024-08-27T18:35:03Z</time>
    </trkpt>
    <trkpt lat="50.9352222" lon="6.9584792">
      <time>2024-08-27T18:35:04Z</time>
    </trkpt>
    <trkpt lat="50.9352558" lon="6.9590880">
      <time>2024-08-27T18:35:09Z</time>
    </trkpt>
    <trkpt lat="50.9352701" lon="6.9594676">
      <time>2024-08-27T18:35:12Z</time>
    </trkpt>
    <trkpt lat="50.9352846" lon="6.9596975">
      <time>2024-08-27T18:35:14Z</time>
    </trkpt>
    <trkpt lat="50.9353143" lon="6.9600005">
      <time>2024-08-27T18:35:17Z</time>
    </trkpt>
    <trkpt lat="50.9353369" lon="6.9602566">
      <time>2024-08-27T18:35:21Z</time>
    </trkpt>
    <trkpt lat="50.9353551" lon="6.9603741">
      <time>2024-08-27T18:35:26Z</time>
    </trkpt>
    <trkpt lat="50.9353628" lon="6.9603820">
      <time>2024-08-27T18:35:27Z</time>
    </trkpt>
    <trkpt lat="50.9354129" lon="6.9605019">
      <time>2024-08-27T18:35:31Z</time>
    </trkpt>
    <trkpt lat="50.9354551" lon="6.9606397">
      <time>2024-08-27T18:35:34Z</time>
    </trkpt>
    <trkpt lat="50.9354713" lon="6.9607653">
      <time>2024-08-27T18:35:36Z</time>
    </trkpt>
    <trkpt lat="50.9354825" lon="6.9608315">
      <time>2024-08-27T18:35:37Z</time>
    </trkpt>
    <trkpt lat="50.9355369" lon="6.9609381">
      <time>2024-08-27T18:35:39Z</time>
    </trkpt>
    <trkpt lat="50.9356119" lon="6.9610265">
      <time>2024-08-27T18:35:41Z</time>
    </trkpt>
    <trkpt lat="50.9356789" lon="6.9611339">
      <time>2024-08-27T18:35:43Z</time>
    </trkpt>
    <trkpt lat="50.9357399" lon="6.9612622">
      <time>2024-08-27T18:35:45Z</time>
    </trkpt>
    <trkpt lat="50.9358320" lon="6.9614603">
      <time>2024-08-27T18:35:48Z</time>
    </trkpt>
    <trkpt lat="50.9358904" lon="6.9615936">
      <time>2024-08-27T18:35:50Z</time>
    </trkpt>
    <trkpt lat="50.9359419" lon="6.9617313">
      <time>2024-08-27T18:35:52Z</time>
    </trkpt>
    <trkpt lat="50.9359664" lon="6.9617993">
      <time>2024-08-27T18:35:53Z</time>
    </trkpt>
    <trkpt lat="50.9360155" lon="6.9619445">
      <time>2024-08-27T18:35:55Z</time>
    </trkpt>
    <trkpt lat="50.9360689" lon="6.9621704">
      <time>2024-08-27T18:35:58Z</time>
    </trkpt>
    <trkpt lat="50.9361017" lon="6.9623222">
      <time>2024-08-27T18:36:00Z</time>
    </trkpt>
    <trkpt lat="50.9361431" lon="6.9626391">
      <time>2024-08-27T18:36:04Z</time>
    </trkpt>
    <trkpt lat="50.9361505" lon="6.9631615">
      <time>2024-08-27T18:36:10Z</time>
    </trkpt>
    <trkpt lat="50.9361564" lon="6.9633511">
      <time>2024-08-27T18:36:12Z</time>
    </trkpt>
    <trkpt lat="50.9361685" lon="6.9635392">
      <time>2024-08-27T18:36:14Z</time>
    </trkpt>
    <trkpt lat="50.9361788" lon="6.9638029">
      <time>2024-08-27T18:36:17Z</time>
    </trkpt>
    <trkpt lat="50.9361885" lon="6.9639827">
      <time>2024-08-27T18:36:19Z</time>
    </trkpt>
    <trkpt lat="50.9362074" lon="6.9642675">
      <time>2024-08-27T18:36:22Z</time>
    </trkpt>
    <trkpt lat="50.9362424" lon="6.9648409">
      <time>2024-08-27T18:36:28Z</time>
    </trkpt>
    <trkpt lat="50.9362691" lon="6.9653308">
      <time>2024-08-27T18:36:33Z</time>
    </trkpt>
    <trkpt lat="50.9362744" lon="6.9655298">
      <time>2024-08-27T18:36:35Z</time>
    </trkpt>
    <trkpt lat="50.9362883" lon="6.9657209">
      <time>2024-08-27T18:36:37Z</time>
    </trkpt>
    <trkpt lat="50.9363354" lon="6.9665695">
      <time>2024-08-27T18:36:46Z</time>
    </trkpt>
    <trkpt lat="50.9363467" lon="6.9667658">
      <time>2024-08-27T18:36:48Z</time>
    </trkpt>
    <trkpt lat="50.9363582" lon="6.9669713">
      <time>2024-08-27T18:36:50Z</time>
    </trkpt>
    <trkpt lat="50.9363929" lon="6.9675160">
      <time>2024-08-27T18:36:55Z</time>
    </trkpt>
    <trkpt lat="50.9364101" lon="6.9677515">
      <time>2024-08-27T18:36:57Z</time>
    </trkpt>
    <trkpt lat="50.9364448" lon="6.9686410">
      <time>2024-08-27T18:37:04Z</time>
    </trkpt>
    <trkpt lat="50.9364694" lon="6.9696065">
      <time>2024-08-27T18:37:11Z</time>
    </trkpt>
    <trkpt lat="50.9364667" lon="6.9697410">
      <time>2024-08-27T18:37:12Z</time>
    </trkpt>
    <trkpt lat="50.9364265" lon="6.9704530">
      <time>2024-08-27T18:37:18Z</time>
    </trkpt>
    <trkpt lat="50.9364146" lon="6.9705499">
      <time>2024-08-27T18:37:19Z</time>
    </trkpt>
    <trkpt lat="50.9363610" lon="6.9706917">
      <time>2024-08-27T18:37:21Z</time>
    </trkpt>
    <trkpt lat="50.9362605" lon="6.9707187">
      <time>2024-08-27T18:37:23Z</time>
    </trkpt>
    <trkpt lat="50.9362010" lon="6.9707085">
      <time>2024-08-27T18:37:24Z</time>
    </trkpt>
    <trkpt lat="50.9359988" lon="6.9706859">
      <time>2024-08-27T18:37:27Z</time>
    </trkpt>
    <trkpt lat="50.9359352" lon="6.9706710">
      <time>2024-08-27T18:37:28Z</time>
    </trkpt>
    <trkpt lat="50.9356120" lon="6.9706232">
      <time>2024-08-27T18:37:33Z</time>
    </trkpt>
    <trkpt lat="50.9355495" lon="6.9706370">
      <time>2024-08-27T18:37:34Z</time>
    </trkpt>
    <trkpt lat="50.9354908" lon="6.9706412">
      <time>2024-08-27T18:37:35Z</time>
    </trkpt>
    <trkpt lat="50.9353658" lon="6.9705840">
      <time>2024-08-27T18:37:37Z</time>
    </trkpt>
    <trkpt lat="50.9352044" lon="6.9704711">
      <time>2024-08-27T18:37:40Z</time>
    </trkpt>
    <trkpt lat="50.9350779" lon="6.9704449">
      <time>2024-08-27T18:37:42Z</time>
    </trkpt>
    <trkpt lat="50.9350042" lon="6.9704537">
      <time>2024-08-27T18:37:43Z</time>
    </trkpt>
    <trkpt lat="50.9347951" lon="6.9704167">
      <time>2024-08-27T18:37:46Z</time>
    </trkpt>
    <trkpt lat="50.9344865" lon="6.9704283">
      <time>2024-08-27T18:37:50Z</time>
    </trkpt>
    <trkpt lat="50.9341943" lon="6.9704733">
      <time>2024-08-27T18:37:54Z</time>
    </trkpt>
    <trkpt lat="50.9336417" lon="6.9705509">
      <time>2024-08-27T18:38:02Z</time>
    </trkpt>
    <trkpt lat="50.9334617" lon="6.9706567">
      <time>2024-08-27T18:38:05Z</time>
    </trkpt>
    <trkpt lat="50.9330999" lon="6.9707224">
      <time>2024-08-27T18:38:11Z</time>
    </trkpt>
    <trkpt lat="50.9329799" lon="6.9707422">
      <time>2024-08-27T18:38:13Z</time>
    </trkpt>
    <trkpt lat="50.9327982" lon="6.9707739">
      <time>2024-08-27T18:38:16Z</time>
    </trkpt>
    <trkpt lat="50.9325392" lon="6.9708440">
      <time>2024-08-27T18:38:21Z</time>
    </trkpt>
    <trkpt lat="50.9323649" lon="6.9708230">
      <time>2024-08-27T18:38:24Z</time>
    </trkpt>
    <trkpt lat="50.9322994" lon="6.9708191">
      <time>2024-08-27T18:38:25Z</time>
    </trkpt>
    <trkpt lat="50.9322304" lon="6.9708124">
      <time>2024-08-27T18:38:26Z</time>
    </trkpt>
    <trkpt lat="50.9320974" lon="6.9708123">
      <time>2024-08-27T18:38:28Z</time>
    </trkpt>
    <trkpt lat="50.9320289" lon="6.9708354">
      <time>2024-08-27T18:38:29Z</time>
    </trkpt>
    <trkpt lat="50.9317697" lon="6.9709718">
      <time>2024-08-27T18:38:33Z</time>
    </trkpt>
    <trkpt lat="50.9316387" lon="6.9710033">
      <time>2024-08-27T18:38:35Z</time>
    </trkpt>
    <trkpt lat="50.9315735" lon="6.9710253">
      <time>2024-08-27T18:38:36Z</time>
    </trkpt>
    <trkpt lat="50.9314442" lon="6.9710897">
      <time>2024-08-27T18:38:38Z</time>
    </trkpt>
    <trkpt lat="50.9313835" lon="6.9711349">
      <time>2024-08-27T18:38:39Z</time>
    </trkpt>
    <trkpt lat="50.9312315" lon="6.9712870">
      <time>2024-08-27T18:38:42Z</time>
    </trkpt>
    <trkpt lat="50.9310921" lon="6.9713616">
      <time>2024-08-27T18:38:44Z</time>
    </trkpt>
    <trkpt lat="50.9309868" lon="6.9714406">
      <time>2024-08-27T18:38:46Z</time>
    </trkpt>
    <trkpt lat="50.9309349" lon="6.9714723">
      <time>2024-08-27T18:38:47Z</time>
    </trkpt>
    <trkpt lat="50.9308857" lon="6.9714934">
      <time>2024-08-27T18:38:48Z</time>
    </trkpt>
    <trkpt lat="50.9307194" lon="6.9715293">
      <time>2024-08-27T18:38:51Z</time>
    </trkpt>
    <trkpt lat="50.9306627" lon="6.9715619">
      <time>2024-08-27T18:38:52Z</time>
    </trkpt>
    <trkpt lat="50.9305033" lon="6.9716883">
      <time>2024-08-27T18:38:56Z</time>
    </trkpt>
    <trkpt lat="50.9304799" lon="6.9717082">
      <time>2024-08-27T18:38:57Z</time>
    </trkpt>
    <trkpt lat="50.9303079" lon="6.9718407">
      <time>2024-08-27T18:39:02Z</time>
    </trkpt>
    <trkpt lat="50.9302710" lon="6.9718746">
      <time>2024-08-27T18:39:03Z</time>
    </trkpt>
    <trkpt lat="50.9301996" lon="6.9719333">
      <time>2024-08-27T18:39:06Z</time>
    </trkpt>
    <trkpt lat="50.9300883" lon="6.9720165">
      <time>2024-08-27T18:39:13Z</time>
    </trkpt>
    <trkpt lat="50.9299336" lon="6.9721347">
      <time>2024-08-27T18:39:17Z</time>
    </trkpt>
    <trkpt lat="50.9296206" lon="6.9723607">
      <time>2024-08-27T18:39:23Z</time>
    </trkpt>
    <trkpt lat="50.9294338" lon="6.9725071">
      <time>2024-08-27T18:39:28Z</time>
    </trkpt>
    <trkpt lat="50.9291431" lon="6.9727752">
      <time>2024-08-27T18:39:35Z</time>
    </trkpt>
    <trkpt lat="50.9290515" lon="6.9728421">
      <time>2024-08-27T18:39:37Z</time>
    </trkpt>
    <trkpt lat="50.9289686" lon="6.9729177">
      <time>2024-08-27T18:39:39Z</time>
    </trkpt>
    <trkpt lat="50.9287837" lon="6.9730793">
      <time>2024-08-27T18:39:44Z</time>
    </trkpt>
    <trkpt lat="50.9287183" lon="6.9731448">
      <time>2024-08-27T18:39:46Z</time>
    </trkpt>
    <trkpt lat="50.9286859" lon="6.9731765">
      <time>2024-08-27T18:39:47Z</time>
    </trkpt>
    <trkpt lat="50.9285705" lon="6.9732871">
      <time>2024-08-27T18:39:51Z</time>
    </trkpt>
    <trkpt lat="50.9284880" lon="6.9733642">
      <time>2024-08-27T18:39:55Z</time>
    </trkpt>
    <trkpt lat="50.9283277" lon="6.9735117">
      <time>2024-08-27T18:40:01Z</time>
    </trkpt>
    <trkpt lat="50.9282058" lon="6.9736324">
      <time>2024-08-27T18:40:06Z</time>
    </trkpt>
    <trkpt lat="50.9280912" lon="6.9737466">
      <time>2024-08-27T18:40:12Z</time>
    </trkpt>
    <trkpt lat="50.9280553" lon="6.9737662">
      <time>2024-08-27T18:40:14Z</time>
    </trkpt>
    <trkpt lat="50.9280323" lon="6.9737408">
      <time>2024-08-27T18:40:15Z</time>
    </trkpt>
    <trkpt lat="50.9279728" lon="6.9736211">
      <time>2024-08-27T18:40:18Z</time>
    </trkpt>
    <trkpt lat="50.9279523" lon="6.9735745">
      <time>2024-08-27T18:40:19Z</time>
    </trkpt>
    <trkpt lat="50.9278233" lon="6.9732325">
      <time>2024-08-27T18:40:25Z</time>
    </trkpt>
    <trkpt lat="50.9277165" lon="6.9729438">
      <time>2024-08-27T18:40:30Z</time>
    </trkpt>
    <trkpt lat="50.9276304" lon="6.9727141">
      <time>2024-08-27T18:40:34Z</time>
    </trkpt>
    <trkpt lat="50.9275855" lon="6.9726012">
      <time>2024-08-27T18:40:36Z</time>
    </trkpt>
    <trkpt lat="50.9275582" lon="6.9725565">
      <time>2024-08-27T18:40:37Z</time>
    </trkpt>
    <trkpt lat="50.9275279" lon="6.9725200">
      <time>2024-08-27T18:40:38Z</time>
    </trkpt>
    <trkpt lat="50.9274254" lon="6.9724793">
      <time>2024-08-27T18:40:41Z</time>
    </trkpt>
    <trkpt lat="50.9273009" lon="6.9725234">
      <time>2024-08-27T18:40:45Z</time>
    </trkpt>
    <trkpt lat="50.9272224" lon="6.9725097">
      <time>2024-08-27T18:40:49Z</time>
    </trkpt>
    <trkpt lat="50.9271547" lon="6.9725198">
      <time>2024-08-27T18:40:53Z</time>
    </trkpt>
    <trkpt lat="50.9271267" lon="6.9725179">
      <time>2024-08-27T18:40:54Z</time>
    </trkpt>
    <trkpt lat="50.9270224" lon="6.9725438">
      <time>2024-08-27T18:40:57Z</time>
    </trkpt>
    <trkpt lat="50.9269520" lon="6.9725760">
      <time>2024-08-27T18:40:59Z</time>
    </trkpt>
    <trkpt lat="50.9268447" lon="6.9726294">
      <time>2024-08-27T18:41:02Z</time>
    </trkpt>
    <trkpt lat="50.9267705" lon="6.9726850">
      <time>2024-08-27T18:41:04Z</time>
    </trkpt>
    <trkpt lat="50.9265883" lon="6.9727799">
      <time>2024-08-27T18:41:09Z</time>
    </trkpt>
    <trkpt lat="50.9263795" lon="6.9728941">
      <time>2024-08-27T18:41:15Z</time>
    </trkpt>
    <trkpt lat="50.9261140" lon="6.9730153">
      <time>2024-08-27T18:41:22Z</time>
    </trkpt>
    <trkpt lat="50.9259708" lon="6.9730952">
      <time>2024-08-27T18:41:26Z</time>
    </trkpt>
    <trkpt lat="50.9259133" lon="6.9731187">
      <time>2024-08-27T18:41:28Z</time>
    </trkpt>
    <trkpt lat="50.9256895" lon="6.9732172">
      <time>2024-08-27T18:41:34Z</time>
    </trkpt>
    <trkpt lat="50.9254597" lon="6.9733480">
      <time>2024-08-27T18:41:40Z</time>
    </trkpt>
    <trkpt lat="50.9254237" lon="6.9733595">
      <time>2024-08-27T18:41:41Z</time>
    </trkpt>
    <trkpt lat="50.9251359" lon="6.9735222">
      <time>2024-08-27T18:41:49Z</time>
    </trkpt>
    <trkpt lat="50.9249180" lon="6.9736632">
      <time>2024-08-27T18:41:54Z</time>
    </trkpt>
    <trkpt lat="50.9248161" lon="6.9737349">
      <time>2024-08-27T18:41:56Z</time>
    </trkpt>
    <trkpt lat="50.9247222" lon="6.9737973">
      <time>2024-08-27T18:41:58Z</time>
    </trkpt>
    <trkpt lat="50.9245626" lon="6.9739002">
      <time>2024-08-27T18:42:01Z</time>
    </trkpt>
    <trkpt lat="50.9245062" lon="6.9739293">
      <time>2024-08-27T18:42:02Z</time>
    </trkpt>
    <trkpt lat="50.9241277" lon="6.9741362">
      <time>2024-08-27T18:42:09Z</time>
    </trkpt>
    <trkpt lat="50.9239587" lon="6.9742438">
      <time>2024-08-27T18:42:12Z</time>
    </trkpt>
    <trkpt lat="50.9236946" lon="6.9744017">
      <time>2024-08-27T18:42:17Z</time>
    </trkpt>
    <trkpt lat="50.9235414" lon="6.9745050">
      <time>2024-08-27T18:42:20Z</time>
    </trkpt>
    <trkpt lat="50.9233831" lon="6.9745939">
      <time>2024-08-27T18:42:23Z</time>
    </trkpt>
    <trkpt lat="50.9233423" lon="6.9746178">
      <time>2024-08-27T18:42:24Z</time>
    </trkpt>
    <trkpt lat="50.9229799" lon="6.9748494">
      <time>2024-08-27T18:42:31Z</time>
    </trkpt>
    <trkpt lat="50.9228373" lon="6.9749423">
      <time>2024-08-27T18:42:34Z</time>
    </trkpt>
    <trkpt lat="50.9226330" lon="6.9750708">
      <time>2024-08-27T18:42:38Z</time>
    </trkpt>
    <trkpt lat="50.9222816" lon="6.9753310">
      <time>2024-08-27T18:42:45Z</time>
    </trkpt>
    <trkpt lat="50.9218697" lon="6.9756188">
      <time>2024-08-27T18:42:53Z</time>
    </trkpt>
    <trkpt lat="50.9217430" lon="6.9756851">
      <time>2024-08-27T18:42:55Z</time>
    </trkpt>
    <trkpt lat="50.9215697" lon="6.9758169">
      <time>2024-08-27T18:42:58Z</time>
    </trkpt>
    <trkpt lat="50.9211067" lon="6.9761503">
      <time>2024-08-27T18:43:06Z</time>
    </trkpt>
    <trkpt lat="50.9207259" lon="6.9764445">
      <time>2024-08-27T18:43:13Z</time>
    </trkpt>
    <trkpt lat="50.9203251" lon="6.9767145">
      <time>2024-08-27T18:43:20Z</time>
    </trkpt>
    <trkpt lat="50.9200963" lon="6.9768707">
      <time>2024-08-27T18:43:24Z</time>
    </trkpt>
    <trkpt lat="50.9198741" lon="6.9770423">
      <time>2024-08-27T18:43:28Z</time>
    </trkpt>
    <trkpt lat="50.9195740" lon="6.9772824">
      <time>2024-08-27T18:43:34Z</time>
    </trkpt>
    <trkpt lat="50.9195247" lon="6.9773259">
      <time>2024-08-27T18:43:35Z</time>
    </trkpt>
    <trkpt lat="50.9192192" lon="6.9775473">
      <time>2024-08-27T18:43:41Z</time>
    </trkpt>
    <trkpt lat="50.9188216" lon="6.9778670">
      <time>2024-08-27T18:43:49Z</time>
    </trkpt>
    <trkpt lat="50.9187739" lon="6.9779043">
      <time>2024-08-27T18:43:50Z</time>
    </trkpt>
    <trkpt lat="50.9183505" lon="6.9782211">
      <time>2024-08-27T18:43:59Z</time>
    </trkpt>
    <trkpt lat="50.9182614" lon="6.9782711">
      <time>2024-08-27T18:44:02Z</time>
    </trkpt>
    <trkpt lat="50.9182439" lon="6.9782906">
      <time>2024-08-27T18:44:03Z</time>
    </trkpt>
    <trkpt lat="50.9181101" lon="6.9784030">
      <time>2024-08-27T18:44:08Z</time>
    </trkpt>
    <trkpt lat="50.9179085" lon="6.9786226">
      <time>2024-08-27T18:44:14Z</time>
    </trkpt>
    <trkpt lat="50.9177609" lon="6.9787032">
      <time>2024-08-27T18:44:18Z</time>
    </trkpt>
    <trkpt lat="50.9176653" lon="6.9787680">
      <time>2024-08-27T18:44:20Z</time>
    </trkpt>
    <trkpt lat="50.9175302" lon="6.9788715">
      <time>2024-08-27T18:44:23Z</time>
    </trkpt>
    <trkpt lat="50.9172491" lon="6.9791232">
      <time>2024-08-27T18:44:30Z</time>
    </trkpt>
    <trkpt lat="50.9169565" lon="6.9793568">
      <time>2024-08-27T18:44:37Z</time>
    </trkpt>
    <trkpt lat="50.9166163" lon="6.9796901">
      <time>2024-08-27T18:44:45Z</time>
    </trkpt>
    <trkpt lat="50.9163146" lon="6.9799618">
      <time>2024-08-27T18:44:52Z</time>
    </trkpt>
    <trkpt lat="50.9161969" lon="6.9800802">
      <time>2024-08-27T18:44:55Z</time>
    </trkpt>
    <trkpt lat="50.9160108" lon="6.9802234">
      <time>2024-08-27T18:44:59Z</time>
    </trkpt>
    <trkpt lat="50.9157544" lon="6.9804589">
      <time>2024-08-27T18:45:05Z</time>
    </trkpt>
    <trkpt lat="50.9156694" lon="6.9805401">
      <time>2024-08-27T18:45:07Z</time>
    </trkpt>
    <trkpt lat="50.9153056" lon="6.9808652">
      <time>2024-08-27T18:45:16Z</time>
    </trkpt>
    <trkpt lat="50.9149852" lon="6.9811670">
      <time>2024-08-27T18:45:24Z</time>
    </trkpt>
    <trkpt lat="50.9147402" lon="6.9814159">
      <time>2024-08-27T18:45:30Z</time>
    </trkpt>
    <trkpt lat="50.9144975" lon="6.9816552">
      <time>2024-08-27T18:45:36Z</time>
    </trkpt>
    <trkpt lat="50.9144621" lon="6.9816959">
      <time>2024-08-27T18:45:37Z</time>
    </trkpt>
    <trkpt lat="50.9142958" lon="6.9818671">
      <time>2024-08-27T18:45:41Z</time>
    </trkpt>
    <trkpt lat="50.9142484" lon="6.9819120">
      <time>2024-08-27T18:45:42Z</time>
    </trkpt>
    <trkpt lat="50.9140729" lon="6.9820517">
      <time>2024-08-27T18:45:46Z</time>
    </trkpt>
    <trkpt lat="50.9140035" lon="6.9821331">
      <time>2024-08-27T18:45:48Z</time>
    </trkpt>
    <trkpt lat="50.9139273" lon="6.9822458">
      <time>2024-08-27T18:45:50Z</time>
    </trkpt>
    <trkpt lat="50.9137645" lon="6.9824122">
      <time>2024-08-27T18:45:54Z</time>
    </trkpt>
    <trkpt lat="50.9136033" lon="6.9825906">
      <time>2024-08-27T18:45:58Z</time>
    </trkpt>
    <trkpt lat="50.9135103" lon="6.9826884">
      <time>2024-08-27T18:46:00Z</time>
    </trkpt>
    <trkpt lat="50.9131902" lon="6.9830045">
      <time>2024-08-27T18:46:07Z</time>
    </trkpt>
    <trkpt lat="50.9130096" lon="6.9832006">
      <time>2024-08-27T18:46:11Z</time>
    </trkpt>
    <trkpt lat="50.9128934" lon="6.9833305">
      <time>2024-08-27T18:46:14Z</time>
    </trkpt>
    <trkpt lat="50.9128030" lon="6.9833869">
      <time>2024-08-27T18:46:17Z</time>
    </trkpt>
    <trkpt lat="50.9125757" lon="6.9836115">
      <time>2024-08-27T18:46:23Z</time>
    </trkpt>
    <trkpt lat="50.9125349" lon="6.9836529">
      <time>2024-08-27T18:46:24Z</time>
    </trkpt>
    <trkpt lat="50.9123155" lon="6.9839014">
      <time>2024-08-27T18:46:29Z</time>
    </trkpt>
    <trkpt lat="50.9121190" lon="6.9841127">
      <time>2024-08-27T18:46:33Z</time>
    </trkpt>
    <trkpt lat="50.9120210" lon="6.9842236">
      <time>2024-08-27T18:46:35Z</time>
    </trkpt>
    <trkpt lat="50.9118417" lon="6.9844378">
      <time>2024-08-27T18:46:39Z</time>
    </trkpt>
    <trkpt lat="50.9117177" lon="6.9845906">
      <time>2024-08-27T18:46:42Z</time>
    </trkpt>
    <trkpt lat="50.9116722" lon="6.9846344">
      <time>2024-08-27T18:46:43Z</time>
    </trkpt>
    <trkpt lat="50.9115784" lon="6.9847137">
      <time>2024-08-27T18:46:45Z</time>
    </trkpt>
    <trkpt lat="50.9115024" lon="6.9847892">
      <time>2024-08-27T18:46:47Z</time>
    </trkpt>
    <trkpt lat="50.9114654" lon="6.9848304">
      <time>2024-08-27T18:46:48Z</time>
    </trkpt>
    <trkpt lat="50.9112344" lon="6.9851189">
      <time>2024-08-27T18:46:54Z</time>
    </trkpt>
    <trkpt lat="50.9111911" lon="6.9851552">
      <time>2024-08-27T18:46:55Z</time>
    </trkpt>
    <trkpt lat="50.9109574" lon="6.9854238">
      <time>2024-08-27T18:47:02Z</time>
    </trkpt>
    <trkpt lat="50.9108869" lon="6.9855167">
      <time>2024-08-27T18:47:04Z</time>
    </trkpt>
    <trkpt lat="50.9107356" lon="6.9856762">
      <time>2024-08-27T18:47:08Z</time>
    </trkpt>
    <trkpt lat="50.9106976" lon="6.9857256">
      <time>2024-08-27T18:47:09Z</time>
    </trkpt>
    <trkpt lat="50.9105108" lon="6.9859657">
      <time>2024-08-27T18:47:14Z</time>
    </trkpt>
    <trkpt lat="50.9104004" lon="6.9860953">
      <time>2024-08-27T18:47:17Z</time>
    </trkpt>
    <trkpt lat="50.9103626" lon="6.9861311">
      <time>2024-08-27T18:47:18Z</time>
    </trkpt>
    <trkpt lat="50.9102761" lon="6.9861851">
      <time>2024-08-27T18:47:20Z</time>
    </trkpt>
    <trkpt lat="50.9102311" lon="6.9861937">
      <time>2024-08-27T18:47:21Z</time>
    </trkpt>
    <trkpt lat="50.9101281" lon="6.9862206">
      <time>2024-08-27T18:47:23Z</time>
    </trkpt>
    <trkpt lat="50.9100368" lon="6.9863143">
      <time>2024-08-27T18:47:25Z</time>
    </trkpt>
    <trkpt lat="50.9097762" lon="6.9866102">
      <time>2024-08-27T18:47:30Z</time>
    </trkpt>
    <trkpt lat="50.9096737" lon="6.9867437">
      <time>2024-08-27T18:47:32Z</time>
    </trkpt>
    <trkpt lat="50.9096168" lon="6.9868082">
      <time>2024-08-27T18:47:33Z</time>
    </trkpt>
    <trkpt lat="50.9094973" lon="6.9868651">
      <time>2024-08-27T18:47:35Z</time>
    </trkpt>
    <trkpt lat="50.9094311" lon="6.9868488">
      <time>2024-08-27T18:47:36Z</time>
    </trkpt>
    <trkpt lat="50.9093716" lon="6.9868035">
      <time>2024-08-27T18:47:37Z</time>
    </trkpt>
    <trkpt lat="50.9092568" lon="6.9867169">
      <time>2024-08-27T18:47:39Z</time>
    </trkpt>
    <trkpt lat="50.9091852" lon="6.9866963">
      <time>2024-08-27T18:47:40Z</time>
    </trkpt>
    <trkpt lat="50.9091040" lon="6.9867192">
      <time>2024-08-27T18:47:41Z</time>
    </trkpt>
    <trkpt lat="50.9089450" lon="6.9868418">
      <time>2024-08-27T18:47:43Z</time>
    </trkpt>
    <trkpt lat="50.9086582" lon="6.9870761">
      <time>2024-08-27T18:47:47Z</time>
    </trkpt>
    <trkpt lat="50.9084263" lon="6.9872065">
      <time>2024-08-27T18:47:50Z</time>
    </trkpt>
    <trkpt lat="50.9082214" lon="6.9873396">
      <time>2024-08-27T18:47:53Z</time>
    </trkpt>
    <trkpt lat="50.9080452" lon="6.9874553">
      <time>2024-08-27T18:47:56Z</time>
    </trkpt>
    <trkpt lat="50.9080047" lon="6.9874801">
      <time>2024-08-27T18:47:57Z</time>
    </trkpt>
    <trkpt lat="50.9079811" lon="6.9875018">
      <time>2024-08-27T18:47:58Z</time>
    </trkpt>
    <trkpt lat="50.9079735" lon="6.9875205">
      <time>2024-08-27T18:47:59Z</time>
    </trkpt>
    <trkpt lat="50.9080097" lon="6.9875049">
      <time>2024-08-27T18:48:02Z</time>
    </trkpt>
    <trkpt lat="50.9081062" lon="6.9874452">
      <time>2024-08-27T18:48:07Z</time>
    </trkpt>
    <trkpt lat="50.9081952" lon="6.9873906">
      <time>2024-08-27T18:48:10Z</time>
    </trkpt>
    <trkpt lat="50.9084007" lon="6.9872558">
      <time>2024-08-27T18:48:15Z</time>
    </trkpt>
    <trkpt lat="50.9084452" lon="6.9872308">
      <time>2024-08-27T18:48:16Z</time>
    </trkpt>
    <trkpt lat="50.9087035" lon="6.9870604">
      <time>2024-08-27T18:48:22Z</time>
    </trkpt>
    <trkpt lat="50.9087968" lon="6.9869939">
      <time>2024-08-27T18:48:24Z</time>
    </trkpt>
    <trkpt lat="50.9091030" lon="6.9867283">
      <time>2024-08-27T18:48:32Z</time>
    </trkpt>
    <trkpt lat="50.9092291" lon="6.9866369">
      <time>2024-08-27T18:48:37Z</time>
    </trkpt>
    <trkpt lat="50.9092936" lon="6.9866161">
      <time>2024-08-27T18:48:40Z</time>
    </trkpt>
    <trkpt lat="50.9093300" lon="6.9865714">
      <time>2024-08-27T18:48:42Z</time>
    </trkpt>
    <trkpt lat="50.9093370" lon="6.9865305">
      <time>2024-08-27T18:48:43Z</time>
    </trkpt>
    <trkpt lat="50.9093308" lon="6.9864875">
      <time>2024-08-27T18:48:44Z</time>
    </trkpt>
    <trkpt lat="50.9092958" lon="6.9864041">
      <time>2024-08-27T18:48:46Z</time>
    </trkpt>
    <trkpt lat="50.9092789" lon="6.9863543">
      <time>2024-08-27T18:48:47Z</time>
    </trkpt>
    <trkpt lat="50.9091453" lon="6.9860024">
      <time>2024-08-27T18:48:54Z</time>
    </trkpt>
    <trkpt lat="50.9090988" lon="6.9858626">
      <time>2024-08-27T18:48:57Z</time>
    </trkpt>
    <trkpt lat="50.9090536" lon="6.9857331">
      <time>2024-08-27T18:49:00Z</time>
    </trkpt>
    <trkpt lat="50.9090391" lon="6.9856939">
      <time>2024-08-27T18:49:01Z</time>
    </trkpt>
    <trkpt lat="50.9089258" lon="6.9853882">
      <time>2024-08-27T18:49:09Z</time>
    </trkpt>
    <trkpt lat="50.9088651" lon="6.9852085">
      <time>2024-08-27T18:49:14Z</time>
    </trkpt>
    <trkpt lat="50.9088377" lon="6.9851413">
      <time>2024-08-27T18:49:16Z</time>
    </trkpt>
    <trkpt lat="50.9087503" lon="6.9849068">
      <time>2024-08-27T18:49:23Z</time>
    </trkpt>
    <trkpt lat="50.9086735" lon="6.9846490">
      <time>2024-08-27T18:49:31Z</time>
    </trkpt>
    <trkpt lat="50.9086184" lon="6.9845325">
      <time>2024-08-27T18:49:36Z</time>
    </trkpt>
    <trkpt lat="50.9085960" lon="6.9844961">
      <time>2024-08-27T18:49:38Z</time>
    </trkpt>
    <trkpt lat="50.9085553" lon="6.9844637">
      <time>2024-08-27T18:49:40Z</time>
    </trkpt>
    <trkpt lat="50.9085284" lon="6.9844645">
      <time>2024-08-27T18:49:41Z</time>
    </trkpt>
    <trkpt lat="50.9084418" lon="6.9845258">
      <time>2024-08-27T18:49:44Z</time>
    </trkpt>
    <trkpt lat="50.9083321" lon="6.9846194">
      <time>2024-08-27T18:49:48Z</time>
    </trkpt>
    <trkpt lat="50.9082356" lon="6.9847090">
      <time>2024-08-27T18:49:52Z</time>
    </trkpt>
    <trkpt lat="50.9081296" lon="6.9848131">
      <time>2024-08-27T18:49:56Z</time>
    </trkpt>
    <trkpt lat="50.9079689" lon="6.9849482">
      <time>2024-08-27T18:50:02Z</time>
    </trkpt>
    <trkpt lat="50.9077350" lon="6.9851422">
      <time>2024-08-27T18:50:11Z</time>
    </trkpt>
    <trkpt lat="50.9077082" lon="6.9851510">
      <time>2024-08-27T18:50:13Z</time>
    </trkpt>
    <trkpt lat="50.9077082" lon="6.9851510">
      <time>2024-08-27T18:50:15Z</time>
    </trkpt>
  </trkseg></trk>
</gpx>
