<?xml version="1.0" encoding="UTF-8"?>
<gpx version="1.1" creator="Diary FIT converter" xmlns="http://www.topografix.com/GPX/1/1">
  <trk><name>Cycling</name><trkseg>
    <trkpt lat="50.9242845" lon="6.9527717">
      <time>2025-04-25T20:12:51Z</time>
    </trkpt>
    <trkpt lat="50.9244244" lon="6.9524205">
      <time>2025-04-25T20:12:55Z</time>
    </trkpt>
    <trkpt lat="50.9244649" lon="6.9523296">
      <time>2025-04-25T20:12:56Z</time>
    </trkpt>
    <trkpt lat="50.9247114" lon="6.9517379">
      <time>2025-04-25T20:13:02Z</time>
    </trkpt>
    <trkpt lat="50.9247519" lon="6.9516285">
      <time>2025-04-25T20:13:03Z</time>
    </trkpt>
    <trkpt lat="50.9248447" lon="6.9514028">
      <time>2025-04-25T20:13:05Z</time>
    </trkpt>
    <trkpt lat="50.9248921" lon="6.9512771">
      <time>2025-04-25T20:13:06Z</time>
    </trkpt>
    <trkpt lat="50.9249482" lon="6.9511612">
      <time>2025-04-25T20:13:07Z</time>
    </trkpt>
    <trkpt lat="50.9251233" lon="6.9508463">
      <time>2025-04-25T20:13:10Z</time>
    </trkpt>
    <trkpt lat="50.9252388" lon="6.9506154">
      <time>2025-04-25T20:13:12Z</time>
    </trkpt>
    <trkpt lat="50.9255038" lon="6.9500162">
      <time>2025-04-25T20:13:17Z</time>
    </trkpt>
    <trkpt lat="50.9257851" lon="6.9492784">
      <time>2025-04-25T20:13:23Z</time>
    </trkpt>
    <trkpt lat="50.9260192" lon="6.9486978">
      <time>2025-04-25T20:13:28Z</time>
    </trkpt>
    <trkpt lat="50.9260697" lon="6.9485939">
      <time>2025-04-25T20:13:29Z</time>
    </trkpt>
    <trkpt lat="50.9261978" lon="6.9482618">
      <time>2025-04-25T20:13:32Z</time>
    </trkpt>
    <trkpt lat="50.9262869" lon="6.9480673">
      <time>2025-04-25T20:13:34Z</time>
    </trkpt>
    <trkpt lat="50.9263729" lon="6.9478894">
      <time>2025-04-25T20:13:36Z</time>
    </trkpt>
    <trkpt lat="50.9264724" lon="6.9475865">
      <time>2025-04-25T20:13:39Z</time>
    </trkpt>
    <trkpt lat="50.9265499" lon="6.9472490">
      <time>2025-04-25T20:13:42Z</time>
    </trkpt>
    <trkpt lat="50.9265796" lon="6.9470124">
      <time>2025-04-25T20:13:44Z</time>
    </trkpt>
    <trkpt lat="50.9265914" lon="6.9468895">
      <time>2025-04-25T20:13:45Z</time>
    </trkpt>
    <trkpt lat="50.9266436" lon="6.9466567">
      <time>2025-04-25T20:13:47Z</time>
    </trkpt>
    <trkpt lat="50.9267188" lon="6.9464377">
      <time>2025-04-25T20:13:49Z</time>
    </trkpt>
    <trkpt lat="50.9268004" lon="6.9462369">
      <time>2025-04-25T20:13:51Z</time>
    </trkpt>
    <trkpt lat="50.9269294" lon="6.9459565">
      <time>2025-04-25T20:13:54Z</time>
    </trkpt>
    <trkpt lat="50.9272310" lon="6.9453559">
      <time>2025-04-25T20:14:01Z</time>
    </trkpt>
    <trkpt lat="50.9273480" lon="6.9450972">
      <time>2025-04-25T20:14:04Z</time>
    </trkpt>
    <trkpt lat="50.9274567" lon="6.9448217">
      <time>2025-04-25T20:14:07Z</time>
    </trkpt>
    <trkpt lat="50.9276840" lon="6.9444200">
      <time>2025-04-25T20:14:12Z</time>
    </trkpt>
    <trkpt lat="50.9277776" lon="6.9442718">
      <time>2025-04-25T20:14:14Z</time>
    </trkpt>
    <trkpt lat="50.9281362" lon="6.9437216">
      <time>2025-04-25T20:14:23Z</time>
    </trkpt>
    <trkpt lat="50.9283212" lon="6.9434415">
      <time>2025-04-25T20:14:27Z</time>
    </trkpt>
    <trkpt lat="50.9283987" lon="6.9433388">
      <time>2025-04-25T20:14:29Z</time>
    </trkpt>
    <trkpt lat="50.9284888" lon="6.9432172">
      <time>2025-04-25T20:14:33Z</time>
    </trkpt>
    <trkpt lat="50.9285724" lon="6.9431036">
      <time>2025-04-25T20:14:36Z</time>
    </trkpt>
    <trkpt lat="50.9286013" lon="6.9430552">
      <time>2025-04-25T20:14:37Z</time>
    </trkpt>
    <trkpt lat="50.9287031" lon="6.9428935">
      <time>2025-04-25T20:14:40Z</time>
    </trkpt>
    <trkpt lat="50.9287863" lon="6.9427899">
      <time>2025-04-25T20:14:42Z</time>
    </trkpt>
    <trkpt lat="50.9289977" lon="6.9425302">
      <time>2025-04-25T20:14:47Z</time>
    </trkpt>
    <trkpt lat="50.9290317" lon="6.9424488">
      <time>2025-04-25T20:14:48Z</time>
    </trkpt>
    <trkpt lat="50.9291968" lon="6.9421415">
      <time>2025-04-25T20:14:52Z</time>
    </trkpt>
    <trkpt lat="50.9292824" lon="6.9420025">
      <time>2025-04-25T20:14:54Z</time>
    </trkpt>
    <trkpt lat="50.9295217" lon="6.9416475">
      <time>2025-04-25T20:14:59Z</time>
    </trkpt>
    <trkpt lat="50.9295774" lon="6.9415879">
      <time>2025-04-25T20:15:00Z</time>
    </trkpt>
    <trkpt lat="50.9296233" lon="6.9415390">
      <time>2025-04-25T20:15:01Z</time>
    </trkpt>
    <trkpt lat="50.9297622" lon="6.9414600">
      <time>2025-04-25T20:15:03Z</time>
    </trkpt>
    <trkpt lat="50.9298278" lon="6.9414371">
      <time>2025-04-25T20:15:04Z</time>
    </trkpt>
    <trkpt lat="50.9300845" lon="6.9413486">
      <time>2025-04-25T20:15:08Z</time>
    </trkpt>
    <trkpt lat="50.9302789" lon="6.9412799">
      <time>2025-04-25T20:15:11Z</time>
    </trkpt>
    <trkpt lat="50.9303967" lon="6.9412221">
      <time>2025-04-25T20:15:13Z</time>
    </trkpt>
    <trkpt lat="50.9305795" lon="6.9411455">
      <time>2025-04-25T20:15:16Z</time>
    </trkpt>
    <trkpt lat="50.9306916" lon="6.9410994">
      <time>2025-04-25T20:15:18Z</time>
    </trkpt>
    <trkpt lat="50.9308370" lon="6.9409950">
      <time>2025-04-25T20:15:21Z</time>
    </trkpt>
    <trkpt lat="50.9309481" lon="6.9409233">
      <time>2025-04-25T20:15:25Z</time>
    </trkpt>
    <trkpt lat="50.9309908" lon="6.9408813">
      <time>2025-04-25T20:15:28Z</time>
    </trkpt>
    <trkpt lat="50.9309935" lon="6.9408760">
      <time>2025-04-25T20:15:30Z</time>
    </trkpt>
    <trkpt lat="50.9309935" lon="6.9408760">
      <time>2025-04-25T20:15:35Z</time>
    </trkpt>
    <trkpt lat="50.9309935" lon="6.9408760">
      <time>2025-04-25T20:15:38Z</time>
    </trkpt>
    <trkpt lat="50.9309935" lon="6.9408760">
      <time>2025-04-25T20:15:40Z</time>
    </trkpt>
    <trkpt lat="50.9309935" lon="6.9408760">
      <time>2025-04-25T20:15:43Z</time>
    </trkpt>
    <trkpt lat="50.9309935" lon="6.9408760">
      <time>2025-04-25T20:15:46Z</time>
    </trkpt>
    <trkpt lat="50.9309935" lon="6.9408760">
      <time>2025-04-25T20:15:49Z</time>
    </trkpt>
    <trkpt lat="50.9309935" lon="6.9408760">
      <time>2025-04-25T20:15:52Z</time>
    </trkpt>
    <trkpt lat="50.9309935" lon="6.9408760">
      <time>2025-04-25T20:15:55Z</time>
    </trkpt>
    <trkpt lat="50.9310147" lon="6.9408730">
      <time>2025-04-25T20:15:57Z</time>
    </trkpt>
    <trkpt lat="50.9310392" lon="6.9408689">
      <time>2025-04-25T20:15:58Z</time>
    </trkpt>
    <trkpt lat="50.9312046" lon="6.9408399">
      <time>2025-04-25T20:16:02Z</time>
    </trkpt>
    <trkpt lat="50.9313102" lon="6.9408056">
      <time>2025-04-25T20:16:04Z</time>
    </trkpt>
    <trkpt lat="50.9314091" lon="6.9407804">
      <time>2025-04-25T20:16:06Z</time>
    </trkpt>
    <trkpt lat="50.9315339" lon="6.9407397">
      <time>2025-04-25T20:16:08Z</time>
    </trkpt>
    <trkpt lat="50.9317156" lon="6.9406900">
      <time>2025-04-25T20:16:11Z</time>
    </trkpt>
    <trkpt lat="50.9320323" lon="6.9405169">
      <time>2025-04-25T20:16:16Z</time>
    </trkpt>
    <trkpt lat="50.9323345" lon="6.9403530">
      <time>2025-04-25T20:16:21Z</time>
    </trkpt>
    <trkpt lat="50.9323960" lon="6.9403108">
      <time>2025-04-25T20:16:22Z</time>
    </trkpt>
    <trkpt lat="50.9324619" lon="6.9402844">
      <time>2025-04-25T20:16:23Z</time>
    </trkpt>
    <trkpt lat="50.9325957" lon="6.9401977">
      <time>2025-04-25T20:16:25Z</time>
    </trkpt>
    <trkpt lat="50.9326609" lon="6.9401668">
      <time>2025-04-25T20:16:26Z</time>
    </trkpt>
    <trkpt lat="50.9329560" lon="6.9400339">
      <time>2025-04-25T20:16:32Z</time>
    </trkpt>
    <trkpt lat="50.9329910" lon="6.9399760">
      <time>2025-04-25T20:16:36Z</time>
    </trkpt>
    <trkpt lat="50.9329941" lon="6.9399718">
      <time>2025-04-25T20:16:38Z</time>
    </trkpt>
    <trkpt lat="50.9330150" lon="6.9399686">
      <time>2025-04-25T20:16:41Z</time>
    </trkpt>
    <trkpt lat="50.9331063" lon="6.9399588">
      <time>2025-04-25T20:16:44Z</time>
    </trkpt>
    <trkpt lat="50.9332472" lon="6.9399080">
      <time>2025-04-25T20:16:47Z</time>
    </trkpt>
    <trkpt lat="50.9333007" lon="6.9398930">
      <time>2025-04-25T20:16:48Z</time>
    </trkpt>
    <trkpt lat="50.9334762" lon="6.9398271">
      <time>2025-04-25T20:16:51Z</time>
    </trkpt>
    <trkpt lat="50.9335835" lon="6.9397425">
      <time>2025-04-25T20:16:53Z</time>
    </trkpt>
    <trkpt lat="50.9336973" lon="6.9396623">
      <time>2025-04-25T20:16:55Z</time>
    </trkpt>
    <trkpt lat="50.9338334" lon="6.9396118">
      <time>2025-04-25T20:16:57Z</time>
    </trkpt>
    <trkpt lat="50.9340290" lon="6.9395152">
      <time>2025-04-25T20:17:00Z</time>
    </trkpt>
    <trkpt lat="50.9341877" lon="6.9394219">
      <time>2025-04-25T20:17:02Z</time>
    </trkpt>
    <trkpt lat="50.9345613" lon="6.9392827">
      <time>2025-04-25T20:17:07Z</time>
    </trkpt>
    <trkpt lat="50.9346319" lon="6.9392747">
      <time>2025-04-25T20:17:08Z</time>
    </trkpt>
    <trkpt lat="50.9347839" lon="6.9392782">
      <time>2025-04-25T20:17:10Z</time>
    </trkpt>
    <trkpt lat="50.9350602" lon="6.9392307">
      <time>2025-04-25T20:17:14Z</time>
    </trkpt>
    <trkpt lat="50.9351209" lon="6.9392187">
      <time>2025-04-25T20:17:15Z</time>
    </trkpt>
    <trkpt lat="50.9352926" lon="6.9391449">
      <time>2025-04-25T20:17:18Z</time>
    </trkpt>
    <trkpt lat="50.9356306" lon="6.9390766">
      <time>2025-04-25T20:17:23Z</time>
    </trkpt>
    <trkpt lat="50.9360854" lon="6.9390262">
      <time>2025-04-25T20:17:30Z</time>
    </trkpt>
    <trkpt lat="50.9362222" lon="6.9390118">
      <time>2025-04-25T20:17:32Z</time>
    </trkpt>
    <trkpt lat="50.9362869" lon="6.9390144">
      <time>2025-04-25T20:17:33Z</time>
    </trkpt>
    <trkpt lat="50.9365893" lon="6.9390603">
      <time>2025-04-25T20:17:38Z</time>
    </trkpt>
    <trkpt lat="50.9369550" lon="6.9391316">
      <time>2025-04-25T20:17:44Z</time>
    </trkpt>
    <trkpt lat="50.9372784" lon="6.9392262">
      <time>2025-04-25T20:17:49Z</time>
    </trkpt>
    <trkpt lat="50.9375005" lon="6.9392667">
      <time>2025-04-25T20:17:52Z</time>
    </trkpt>
    <trkpt lat="50.9375623" lon="6.9392885">
      <time>2025-04-25T20:17:53Z</time>
    </trkpt>
    <trkpt lat="50.9376680" lon="6.9393307">
      <time>2025-04-25T20:17:55Z</time>
    </trkpt>
    <trkpt lat="50.9378036" lon="6.9393620">
      <time>2025-04-25T20:17:57Z</time>
    </trkpt>
    <trkpt lat="50.9378619" lon="6.9393760">
      <time>2025-04-25T20:17:58Z</time>
    </trkpt>
    <trkpt lat="50.9379726" lon="6.9393860">
      <time>2025-04-25T20:18:00Z</time>
    </trkpt>
    <trkpt lat="50.9380756" lon="6.9393900">
      <time>2025-04-25T20:18:02Z</time>
    </trkpt>
    <trkpt lat="50.9381418" lon="6.9393832">
      <time>2025-04-25T20:18:03Z</time>
    </trkpt>
    <trkpt lat="50.9383027" lon="6.9394104">
      <time>2025-04-25T20:18:06Z</time>
    </trkpt>
    <trkpt lat="50.9384232" lon="6.9394474">
      <time>2025-04-25T20:18:08Z</time>
    </trkpt>
    <trkpt lat="50.9385169" lon="6.9395175">
      <time>2025-04-25T20:18:10Z</time>
    </trkpt>
    <trkpt lat="50.9385726" lon="6.9395625">
      <time>2025-04-25T20:18:11Z</time>
    </trkpt>
    <trkpt lat="50.9386289" lon="6.9395877">
      <time>2025-04-25T20:18:12Z</time>
    </trkpt>
    <trkpt lat="50.9387554" lon="6.9396248">
      <time>2025-04-25T20:18:14Z</time>
    </trkpt>
    <trkpt lat="50.9388292" lon="6.9396327">
      <time>2025-04-25T20:18:16Z</time>
    </trkpt>
    <trkpt lat="50.9388387" lon="6.9396371">
      <time>2025-04-25T20:18:17Z</time>
    </trkpt>
    <trkpt lat="50.9388576" lon="6.9396556">
      <time>2025-04-25T20:18:19Z</time>
    </trkpt>
    <trkpt lat="50.9389545" lon="6.9396916">
      <time>2025-04-25T20:18:23Z</time>
    </trkpt>
    <trkpt lat="50.9390975" lon="6.9397155">
      <time>2025-04-25T20:18:26Z</time>
    </trkpt>
    <trkpt lat="50.9391884" lon="6.9397439">
      <time>2025-04-25T20:18:28Z</time>
    </trkpt>
    <trkpt lat="50.9395835" lon="6.9398578">
      <time>2025-04-25T20:18:35Z</time>
    </trkpt>
    <trkpt lat="50.9396908" lon="6.9398685">
      <time>2025-04-25T20:18:37Z</time>
    </trkpt>
    <trkpt lat="50.9399035" lon="6.9399652">
      <time>2025-04-25T20:18:41Z</time>
    </trkpt>
    <trkpt lat="50.9401838" lon="6.9400514">
      <time>2025-04-25T20:18:47Z</time>
    </trkpt>
    <trkpt lat="50.9402280" lon="6.9400687">
      <time>2025-04-25T20:18:48Z</time>
    </trkpt>
    <trkpt lat="50.9403161" lon="6.9401071">
      <time>2025-04-25T20:18:52Z</time>
    </trkpt>
    <trkpt lat="50.9403590" lon="6.9400533">
      <time>2025-04-25T20:18:56Z</time>
    </trkpt>
    <trkpt lat="50.9404359" lon="6.9399427">
      <time>2025-04-25T20:19:01Z</time>
    </trkpt>
    <trkpt lat="50.9404429" lon="6.9399350">
      <time>2025-04-25T20:19:06Z</time>
    </trkpt>
    <trkpt lat="50.9404738" lon="6.9399173">
      <time>2025-04-25T20:19:08Z</time>
    </trkpt>
    <trkpt lat="50.9405305" lon="6.9398889">
      <time>2025-04-25T20:19:10Z</time>
    </trkpt>
    <trkpt lat="50.9405867" lon="6.9396226">
      <time>2025-04-25T20:19:13Z</time>
    </trkpt>
    <trkpt lat="50.9406610" lon="6.9392408">
      <time>2025-04-25T20:19:17Z</time>
    </trkpt>
    <trkpt lat="50.9406996" lon="6.9390660">
      <time>2025-04-25T20:19:19Z</time>
    </trkpt>
    <trkpt lat="50.9407556" lon="6.9388534">
      <time>2025-04-25T20:19:21Z</time>
    </trkpt>
    <trkpt lat="50.9408284" lon="6.9385503">
      <time>2025-04-25T20:19:24Z</time>
    </trkpt>
    <trkpt lat="50.9408411" lon="6.9384535">
      <time>2025-04-25T20:19:25Z</time>
    </trkpt>
    <trkpt lat="50.9408712" lon="6.9382563">
      <time>2025-04-25T20:19:27Z</time>
    </trkpt>
    <trkpt lat="50.9409314" lon="6.9380701">
      <time>2025-04-25T20:19:29Z</time>
    </trkpt>
    <trkpt lat="50.9409796" lon="6.9380047">
      <time>2025-04-25T20:19:30Z</time>
    </trkpt>
    <trkpt lat="50.9411332" lon="6.9377344">
      <time>2025-04-25T20:19:34Z</time>
    </trkpt>
    <trkpt lat="50.9411746" lon="6.9376738">
      <time>2025-04-25T20:19:35Z</time>
    </trkpt>
    <trkpt lat="50.9413822" lon="6.9373204">
      <time>2025-04-25T20:19:41Z</time>
    </trkpt>
    <trkpt lat="50.9414768" lon="6.9371661">
      <time>2025-04-25T20:19:44Z</time>
    </trkpt>
    <trkpt lat="50.9415536" lon="6.9370121">
      <time>2025-04-25T20:19:47Z</time>
    </trkpt>
    <trkpt lat="50.9415830" lon="6.9369602">
      <time>2025-04-25T20:19:48Z</time>
    </trkpt>
    <trkpt lat="50.9416884" lon="6.9367884">
      <time>2025-04-25T20:19:51Z</time>
    </trkpt>
    <trkpt lat="50.9417220" lon="6.9367186">
      <time>2025-04-25T20:19:52Z</time>
    </trkpt>
    <trkpt lat="50.9418954" lon="6.9363745">
      <time>2025-04-25T20:19:57Z</time>
    </trkpt>
    <trkpt lat="50.9419466" lon="6.9362747">
      <time>2025-04-25T20:19:59Z</time>
    </trkpt>
    <trkpt lat="50.9421078" lon="6.9359775">
      <time>2025-04-25T20:20:04Z</time>
    </trkpt>
    <trkpt lat="50.9422076" lon="6.9357485">
      <time>2025-04-25T20:20:09Z</time>
    </trkpt>
    <trkpt lat="50.9422123" lon="6.9357397">
      <time>2025-04-25T20:20:13Z</time>
    </trkpt>
    <trkpt lat="50.9422255" lon="6.9357351">
      <time>2025-04-25T20:20:16Z</time>
    </trkpt>
    <trkpt lat="50.9422420" lon="6.9357340">
      <time>2025-04-25T20:20:19Z</time>
    </trkpt>
    <trkpt lat="50.9422638" lon="6.9356978">
      <time>2025-04-25T20:20:29Z</time>
    </trkpt>
    <trkpt lat="50.9423320" lon="6.9355039">
      <time>2025-04-25T20:20:33Z</time>
    </trkpt>
    <trkpt lat="50.9423871" lon="6.9354132">
      <time>2025-04-25T20:20:35Z</time>
    </trkpt>
    <trkpt lat="50.9424169" lon="6.9353562">
      <time>2025-04-25T20:20:36Z</time>
    </trkpt>
    <trkpt lat="50.9425183" lon="6.9351692">
      <time>2025-04-25T20:20:39Z</time>
    </trkpt>
    <trkpt lat="50.9426067" lon="6.9349923">
      <time>2025-04-25T20:20:42Z</time>
    </trkpt>
    <trkpt lat="50.9427152" lon="6.9347831">
      <time>2025-04-25T20:20:45Z</time>
    </trkpt>
    <trkpt lat="50.9427826" lon="6.9346486">
      <time>2025-04-25T20:20:47Z</time>
    </trkpt>
    <trkpt lat="50.9428502" lon="6.9345165">
      <time>2025-04-25T20:20:49Z</time>
    </trkpt>
    <trkpt lat="50.9428887" lon="6.9344594">
      <time>2025-04-25T20:20:50Z</time>
    </trkpt>
    <trkpt lat="50.9430187" lon="6.9341989">
      <time>2025-04-25T20:20:54Z</time>
    </trkpt>
    <trkpt lat="50.9430486" lon="6.9341638">
      <time>2025-04-25T20:20:55Z</time>
    </trkpt>
    <trkpt lat="50.9433814" lon="6.9334444">
      <time>2025-04-25T20:21:07Z</time>
    </trkpt>
    <trkpt lat="50.9434200" lon="6.9335457">
      <time>2025-04-25T20:21:08Z</time>
    </trkpt>
    <trkpt lat="50.9435199" lon="6.9332877">
      <time>2025-04-25T20:21:13Z</time>
    </trkpt>
    <trkpt lat="50.9436583" lon="6.9329603">
      <time>2025-04-25T20:21:18Z</time>
    </trkpt>
    <trkpt lat="50.9437480" lon="6.9327342">
      <time>2025-04-25T20:21:21Z</time>
    </trkpt>
    <trkpt lat="50.9438364" lon="6.9325138">
      <time>2025-04-25T20:21:24Z</time>
    </trkpt>
    <trkpt lat="50.9438871" lon="6.9323707">
      <time>2025-04-25T20:21:26Z</time>
    </trkpt>
    <trkpt lat="50.9439888" lon="6.9320768">
      <time>2025-04-25T20:21:30Z</time>
    </trkpt>
    <trkpt lat="50.9440810" lon="6.9318641">
      <time>2025-04-25T20:21:33Z</time>
    </trkpt>
    <trkpt lat="50.9441596" lon="6.9317539">
      <time>2025-04-25T20:21:35Z</time>
    </trkpt>
    <trkpt lat="50.9442991" lon="6.9314815">
      <time>2025-04-25T20:21:39Z</time>
    </trkpt>
    <trkpt lat="50.9443276" lon="6.9313917">
      <time>2025-04-25T20:21:40Z</time>
    </trkpt>
    <trkpt lat="50.9444624" lon="6.9309822">
      <time>2025-04-25T20:21:45Z</time>
    </trkpt>
    <trkpt lat="50.9445203" lon="6.9308097">
      <time>2025-04-25T20:21:47Z</time>
    </trkpt>
    <trkpt lat="50.9446450" lon="6.9304397">
      <time>2025-04-25T20:21:51Z</time>
    </trkpt>
    <trkpt lat="50.9446739" lon="6.9303448">
      <time>2025-04-25T20:21:52Z</time>
    </trkpt>
    <trkpt lat="50.9447257" lon="6.9301512">
      <time>2025-04-25T20:21:54Z</time>
    </trkpt>
    <trkpt lat="50.9447947" lon="6.9299780">
      <time>2025-04-25T20:21:56Z</time>
    </trkpt>
    <trkpt lat="50.9448849" lon="6.9296918">
      <time>2025-04-25T20:21:59Z</time>
    </trkpt>
    <trkpt lat="50.9449379" lon="6.9294796">
      <time>2025-04-25T20:22:01Z</time>
    </trkpt>
    <trkpt lat="50.9451399" lon="6.9287889">
      <time>2025-04-25T20:22:08Z</time>
    </trkpt>
    <trkpt lat="50.9451398" lon="6.9286087">
      <time>2025-04-25T20:22:10Z</time>
    </trkpt>
    <trkpt lat="50.9451566" lon="6.9284576">
      <time>2025-04-25T20:22:12Z</time>
    </trkpt>
    <trkpt lat="50.9452065" lon="6.9281644">
      <time>2025-04-25T20:22:15Z</time>
    </trkpt>
    <trkpt lat="50.9452706" lon="6.9279980">
      <time>2025-04-25T20:22:17Z</time>
    </trkpt>
    <trkpt lat="50.9453028" lon="6.9279120">
      <time>2025-04-25T20:22:18Z</time>
    </trkpt>
    <trkpt lat="50.9454207" lon="6.9275753">
      <time>2025-04-25T20:22:22Z</time>
    </trkpt>
    <trkpt lat="50.9454656" lon="6.9274015">
      <time>2025-04-25T20:22:24Z</time>
    </trkpt>
    <trkpt lat="50.9455508" lon="6.9271489">
      <time>2025-04-25T20:22:27Z</time>
    </trkpt>
    <trkpt lat="50.9457623" lon="6.9265695">
      <time>2025-04-25T20:22:34Z</time>
    </trkpt>
    <trkpt lat="50.9457956" lon="6.9264851">
      <time>2025-04-25T20:22:35Z</time>
    </trkpt>
    <trkpt lat="50.9459612" lon="6.9261045">
      <time>2025-04-25T20:22:40Z</time>
    </trkpt>
    <trkpt lat="50.9460898" lon="6.9256947">
      <time>2025-04-25T20:22:45Z</time>
    </trkpt>
    <trkpt lat="50.9461187" lon="6.9256213">
      <time>2025-04-25T20:22:46Z</time>
    </trkpt>
    <trkpt lat="50.9461876" lon="6.9255004">
      <time>2025-04-25T20:22:48Z</time>
    </trkpt>
    <trkpt lat="50.9462575" lon="6.9253846">
      <time>2025-04-25T20:22:50Z</time>
    </trkpt>
    <trkpt lat="50.9463458" lon="6.9251417">
      <time>2025-04-25T20:22:53Z</time>
    </trkpt>
    <trkpt lat="50.9464165" lon="6.9249790">
      <time>2025-04-25T20:22:55Z</time>
    </trkpt>
    <trkpt lat="50.9464583" lon="6.9249043">
      <time>2025-04-25T20:22:56Z</time>
    </trkpt>
    <trkpt lat="50.9465745" lon="6.9246760">
      <time>2025-04-25T20:22:59Z</time>
    </trkpt>
    <trkpt lat="50.9466751" lon="6.9244227">
      <time>2025-04-25T20:23:02Z</time>
    </trkpt>
    <trkpt lat="50.9467514" lon="6.9242335">
      <time>2025-04-25T20:23:05Z</time>
    </trkpt>
    <trkpt lat="50.9467781" lon="6.9241832">
      <time>2025-04-25T20:23:06Z</time>
    </trkpt>
    <trkpt lat="50.9467948" lon="6.9241174">
      <time>2025-04-25T20:23:07Z</time>
    </trkpt>
    <trkpt lat="50.9468521" lon="6.9239773">
      <time>2025-04-25T20:23:09Z</time>
    </trkpt>
    <trkpt lat="50.9468862" lon="6.9239049">
      <time>2025-04-25T20:23:10Z</time>
    </trkpt>
    <trkpt lat="50.9470862" lon="6.9234409">
      <time>2025-04-25T20:23:16Z</time>
    </trkpt>
    <trkpt lat="50.9471540" lon="6.9232820">
      <time>2025-04-25T20:23:18Z</time>
    </trkpt>
    <trkpt lat="50.9474427" lon="6.9225683">
      <time>2025-04-25T20:23:27Z</time>
    </trkpt>
    <trkpt lat="50.9477482" lon="6.9217906">
      <time>2025-04-25T20:23:37Z</time>
    </trkpt>
    <trkpt lat="50.9479630" lon="6.9212917">
      <time>2025-04-25T20:23:44Z</time>
    </trkpt>
    <trkpt lat="50.9481587" lon="6.9208784">
      <time>2025-04-25T20:23:50Z</time>
    </trkpt>
    <trkpt lat="50.9482349" lon="6.9207579">
      <time>2025-04-25T20:23:52Z</time>
    </trkpt>
    <trkpt lat="50.9482699" lon="6.9206849">
      <time>2025-04-25T20:23:53Z</time>
    </trkpt>
    <trkpt lat="50.9483310" lon="6.9205303">
      <time>2025-04-25T20:23:55Z</time>
    </trkpt>
    <trkpt lat="50.9483516" lon="6.9204443">
      <time>2025-04-25T20:23:56Z</time>
    </trkpt>
    <trkpt lat="50.9485465" lon="6.9198456">
      <time>2025-04-25T20:24:03Z</time>
    </trkpt>
    <trkpt lat="50.9486999" lon="6.9195444">
      <time>2025-04-25T20:24:07Z</time>
    </trkpt>
    <trkpt lat="50.9487296" lon="6.9194608">
      <time>2025-04-25T20:24:08Z</time>
    </trkpt>
    <trkpt lat="50.9490369" lon="6.9187739">
      <time>2025-04-25T20:24:17Z</time>
    </trkpt>
    <trkpt lat="50.9491928" lon="6.9184432">
      <time>2025-04-25T20:24:21Z</time>
    </trkpt>
    <trkpt lat="50.9493134" lon="6.9182204">
      <time>2025-04-25T20:24:24Z</time>
    </trkpt>
    <trkpt lat="50.9496825" lon="6.9175929">
      <time>2025-04-25T20:24:33Z</time>
    </trkpt>
    <trkpt lat="50.9499384" lon="6.9171430">
      <time>2025-04-25T20:24:40Z</time>
    </trkpt>
    <trkpt lat="50.9500256" lon="6.9169774">
      <time>2025-04-25T20:24:44Z</time>
    </trkpt>
    <trkpt lat="50.9500438" lon="6.9169510">
      <time>2025-04-25T20:24:47Z</time>
    </trkpt>
    <trkpt lat="50.9500404" lon="6.9169534">
      <time>2025-04-25T20:25:02Z</time>
    </trkpt>
    <trkpt lat="50.9500404" lon="6.9169534">
      <time>2025-04-25T20:25:10Z</time>
    </trkpt>
    <trkpt lat="50.9500404" lon="6.9169534">
      <time>2025-04-25T20:25:11Z</time>
    </trkpt>
    <trkpt lat="50.9500404" lon="6.9169534">
      <time>2025-04-25T20:25:13Z</time>
    </trkpt>
    <trkpt lat="50.9500422" lon="6.9169482">
      <time>2025-04-25T20:25:20Z</time>
    </trkpt>
    <trkpt lat="50.9500422" lon="6.9169482">
      <time>2025-04-25T20:25:23Z</time>
    </trkpt>
    <trkpt lat="50.9501092" lon="6.9168640">
      <time>2025-04-25T20:25:28Z</time>
    </trkpt>
    <trkpt lat="50.9503262" lon="6.9166297">
      <time>2025-04-25T20:25:33Z</time>
    </trkpt>
    <trkpt lat="50.9506213" lon="6.9162307">
      <time>2025-04-25T20:25:39Z</time>
    </trkpt>
    <trkpt lat="50.9507610" lon="6.9160008">
      <time>2025-04-25T20:25:42Z</time>
    </trkpt>
    <trkpt lat="50.9508326" lon="6.9158422">
      <time>2025-04-25T20:25:44Z</time>
    </trkpt>
    <trkpt lat="50.9508621" lon="6.9157729">
      <time>2025-04-25T20:25:45Z</time>
    </trkpt>
    <trkpt lat="50.9508936" lon="6.9157119">
      <time>2025-04-25T20:25:46Z</time>
    </trkpt>
    <trkpt lat="50.9509611" lon="6.9156126">
      <time>2025-04-25T20:25:48Z</time>
    </trkpt>
    <trkpt lat="50.9509994" lon="6.9155694">
      <time>2025-04-25T20:25:49Z</time>
    </trkpt>
    <trkpt lat="50.9510726" lon="6.9154923">
      <time>2025-04-25T20:25:51Z</time>
    </trkpt>
    <trkpt lat="50.9511226" lon="6.9154139">
      <time>2025-04-25T20:25:53Z</time>
    </trkpt>
    <trkpt lat="50.9511373" lon="6.9153832">
      <time>2025-04-25T20:25:54Z</time>
    </trkpt>
    <trkpt lat="50.9511750" lon="6.9153067">
      <time>2025-04-25T20:25:58Z</time>
    </trkpt>
    <trkpt lat="50.9511818" lon="6.9152857">
      <time>2025-04-25T20:25:59Z</time>
    </trkpt>
    <trkpt lat="50.9511884" lon="6.9152163">
      <time>2025-04-25T20:26:01Z</time>
    </trkpt>
    <trkpt lat="50.9511844" lon="6.9151307">
      <time>2025-04-25T20:26:03Z</time>
    </trkpt>
    <trkpt lat="50.9511709" lon="6.9150901">
      <time>2025-04-25T20:26:04Z</time>
    </trkpt>
    <trkpt lat="50.9511086" lon="6.9149666">
      <time>2025-04-25T20:26:07Z</time>
    </trkpt>
    <trkpt lat="50.9510833" lon="6.9147972">
      <time>2025-04-25T20:26:12Z</time>
    </trkpt>
    <trkpt lat="50.9510352" lon="6.9146477">
      <time>2025-04-25T20:26:19Z</time>
    </trkpt>
    <trkpt lat="50.9510176" lon="6.9145083">
      <time>2025-04-25T20:26:27Z</time>
    </trkpt>
    <trkpt lat="50.9509943" lon="6.9143104">
      <time>2025-04-25T20:26:31Z</time>
    </trkpt>
    <trkpt lat="50.9509873" lon="6.9142494">
      <time>2025-04-25T20:26:32Z</time>
    </trkpt>
    <trkpt lat="50.9509375" lon="6.9139821">
      <time>2025-04-25T20:26:36Z</time>
    </trkpt>
    <trkpt lat="50.9508867" lon="6.9138697">
      <time>2025-04-25T20:26:38Z</time>
    </trkpt>
    <trkpt lat="50.9508045" lon="6.9136884">
      <time>2025-04-25T20:26:41Z</time>
    </trkpt>
    <trkpt lat="50.9507363" lon="6.9135738">
      <time>2025-04-25T20:26:43Z</time>
    </trkpt>
    <trkpt lat="50.9507040" lon="6.9135335">
      <time>2025-04-25T20:26:44Z</time>
    </trkpt>
    <trkpt lat="50.9506498" lon="6.9134804">
      <time>2025-04-25T20:26:45Z</time>
    </trkpt>
    <trkpt lat="50.9504616" lon="6.9133168">
      <time>2025-04-25T20:26:49Z</time>
    </trkpt>
    <trkpt lat="50.9504195" lon="6.9132626">
      <time>2025-04-25T20:26:50Z</time>
    </trkpt>
    <trkpt lat="50.9502300" lon="6.9131146">
      <time>2025-04-25T20:26:54Z</time>
    </trkpt>
    <trkpt lat="50.9501928" lon="6.9130650">
      <time>2025-04-25T20:26:55Z</time>
    </trkpt>
    <trkpt lat="50.9500163" lon="6.9128503">
      <time>2025-04-25T20:26:59Z</time>
    </trkpt>
    <trkpt lat="50.9498501" lon="6.9126657">
      <time>2025-04-25T20:27:03Z</time>
    </trkpt>
    <trkpt lat="50.9497313" lon="6.9125461">
      <time>2025-04-25T20:27:06Z</time>
    </trkpt>
    <trkpt lat="50.9497049" lon="6.9123742">
      <time>2025-04-25T20:27:09Z</time>
    </trkpt>
    <trkpt lat="50.9498070" lon="6.9121613">
      <time>2025-04-25T20:27:13Z</time>
    </trkpt>
    <trkpt lat="50.9498969" lon="6.9119783">
      <time>2025-04-25T20:27:16Z</time>
    </trkpt>
    <trkpt lat="50.9499930" lon="6.9118000">
      <time>2025-04-25T20:27:19Z</time>
    </trkpt>
    <trkpt lat="50.9500292" lon="6.9117338">
      <time>2025-04-25T20:27:20Z</time>
    </trkpt>
    <trkpt lat="50.9502371" lon="6.9112594">
      <time>2025-04-25T20:27:27Z</time>
    </trkpt>
    <trkpt lat="50.9504274" lon="6.9106454">
      <time>2025-04-25T20:27:35Z</time>
    </trkpt>
    <trkpt lat="50.9505110" lon="6.9103260">
      <time>2025-04-25T20:27:39Z</time>
    </trkpt>
    <trkpt lat="50.9505301" lon="6.9101863">
      <time>2025-04-25T20:27:41Z</time>
    </trkpt>
    <trkpt lat="50.9504635" lon="6.9095246">
      <time>2025-04-25T20:27:49Z</time>
    </trkpt>
    <trkpt lat="50.9504015" lon="6.9090518">
      <time>2025-04-25T20:27:54Z</time>
    </trkpt>
    <trkpt lat="50.9503754" lon="6.9088488">
      <time>2025-04-25T20:27:56Z</time>
    </trkpt>
    <trkpt lat="50.9503467" lon="6.9085268">
      <time>2025-04-25T20:27:59Z</time>
    </trkpt>
    <trkpt lat="50.9503193" lon="6.9081944">
      <time>2025-04-25T20:28:02Z</time>
    </trkpt>
    <trkpt lat="50.9503001" lon="6.9080153">
      <time>2025-04-25T20:28:04Z</time>
    </trkpt>
    <trkpt lat="50.9502901" lon="6.9079199">
      <time>2025-04-25T20:28:05Z</time>
    </trkpt>
    <trkpt lat="50.9502871" lon="6.9078390">
      <time>2025-04-25T20:28:06Z</time>
    </trkpt>
    <trkpt lat="50.9502935" lon="6.9077723">
      <time>2025-04-25T20:28:07Z</time>
    </trkpt>
    <trkpt lat="50.9504348" lon="6.9075826">
      <time>2025-04-25T20:28:13Z</time>
    </trkpt>
    <trkpt lat="50.9505595" lon="6.9075256">
      <time>2025-04-25T20:28:15Z</time>
    </trkpt>
    <trkpt lat="50.9506819" lon="6.9074973">
      <time>2025-04-25T20:28:17Z</time>
    </trkpt>
    <trkpt lat="50.9510352" lon="6.9072781">
      <time>2025-04-25T20:28:24Z</time>
    </trkpt>
    <trkpt lat="50.9510856" lon="6.9072439">
      <time>2025-04-25T20:28:25Z</time>
    </trkpt>
    <trkpt lat="50.9511888" lon="6.9071604">
      <time>2025-04-25T20:28:27Z</time>
    </trkpt>
    <trkpt lat="50.9512877" lon="6.9071000">
      <time>2025-04-25T20:28:29Z</time>
    </trkpt>
    <trkpt lat="50.9513400" lon="6.9070599">
      <time>2025-04-25T20:28:30Z</time>
    </trkpt>
    <trkpt lat="50.9514628" lon="6.9069557">
      <time>2025-04-25T20:28:32Z</time>
    </trkpt>
    <trkpt lat="50.9515927" lon="6.9068414">
      <time>2025-04-25T20:28:34Z</time>
    </trkpt>
    <trkpt lat="50.9517460" lon="6.9067297">
      <time>2025-04-25T20:28:36Z</time>
    </trkpt>
    <trkpt lat="50.9519002" lon="6.9066368">
      <time>2025-04-25T20:28:38Z</time>
    </trkpt>
    <trkpt lat="50.9521790" lon="6.9063592">
      <time>2025-04-25T20:28:42Z</time>
    </trkpt>
    <trkpt lat="50.9522481" lon="6.9063050">
      <time>2025-04-25T20:28:43Z</time>
    </trkpt>
    <trkpt lat="50.9523184" lon="6.9062433">
      <time>2025-04-25T20:28:44Z</time>
    </trkpt>
    <trkpt lat="50.9524692" lon="6.9061323">
      <time>2025-04-25T20:28:46Z</time>
    </trkpt>
    <trkpt lat="50.9526199" lon="6.9060035">
      <time>2025-04-25T20:28:48Z</time>
    </trkpt>
    <trkpt lat="50.9526876" lon="6.9059421">
      <time>2025-04-25T20:28:49Z</time>
    </trkpt>
    <trkpt lat="50.9529001" lon="6.9057893">
      <time>2025-04-25T20:28:52Z</time>
    </trkpt>
    <trkpt lat="50.9532953" lon="6.9054601">
      <time>2025-04-25T20:28:58Z</time>
    </trkpt>
    <trkpt lat="50.9536526" lon="6.9051592">
      <time>2025-04-25T20:29:04Z</time>
    </trkpt>
    <trkpt lat="50.9539803" lon="6.9048800">
      <time>2025-04-25T20:29:10Z</time>
    </trkpt>
    <trkpt lat="50.9543429" lon="6.9045895">
      <time>2025-04-25T20:29:16Z</time>
    </trkpt>
    <trkpt lat="50.9545795" lon="6.9044095">
      <time>2025-04-25T20:29:20Z</time>
    </trkpt>
    <trkpt lat="50.9546927" lon="6.9043304">
      <time>2025-04-25T20:29:22Z</time>
    </trkpt>
    <trkpt lat="50.9547561" lon="6.9043029">
      <time>2025-04-25T20:29:23Z</time>
    </trkpt>
    <trkpt lat="50.9548157" lon="6.9042577">
      <time>2025-04-25T20:29:24Z</time>
    </trkpt>
    <trkpt lat="50.9549875" lon="6.9041030">
      <time>2025-04-25T20:29:27Z</time>
    </trkpt>
    <trkpt lat="50.9552904" lon="6.9039001">
      <time>2025-04-25T20:29:32Z</time>
    </trkpt>
    <trkpt lat="50.9555745" lon="6.9036691">
      <time>2025-04-25T20:29:37Z</time>
    </trkpt>
    <trkpt lat="50.9557786" lon="6.9035043">
      <time>2025-04-25T20:29:41Z</time>
    </trkpt>
    <trkpt lat="50.9558422" lon="6.9034644">
      <time>2025-04-25T20:29:42Z</time>
    </trkpt>
    <trkpt lat="50.9560552" lon="6.9032656">
      <time>2025-04-25T20:29:47Z</time>
    </trkpt>
    <trkpt lat="50.9562458" lon="6.9031247">
      <time>2025-04-25T20:29:52Z</time>
    </trkpt>
    <trkpt lat="50.9563223" lon="6.9030857">
      <time>2025-04-25T20:29:54Z</time>
    </trkpt>
    <trkpt lat="50.9564068" lon="6.9030518">
      <time>2025-04-25T20:29:56Z</time>
    </trkpt>
    <trkpt lat="50.9565282" lon="6.9030124">
      <time>2025-04-25T20:29:59Z</time>
    </trkpt>
    <trkpt lat="50.9565987" lon="6.9029844">
      <time>2025-04-25T20:30:01Z</time>
    </trkpt>
    <trkpt lat="50.9566380" lon="6.9029276">
      <time>2025-04-25T20:30:03Z</time>
    </trkpt>
    <trkpt lat="50.9566866" lon="6.9028823">
      <time>2025-04-25T20:30:05Z</time>
    </trkpt>
    <trkpt lat="50.9567680" lon="6.9028588">
      <time>2025-04-25T20:30:07Z</time>
    </trkpt>
    <trkpt lat="50.9567981" lon="6.9028767">
      <time>2025-04-25T20:30:08Z</time>
    </trkpt>
    <trkpt lat="50.9568517" lon="6.9028972">
      <time>2025-04-25T20:30:10Z</time>
    </trkpt>
    <trkpt lat="50.9568825" lon="6.9028708">
      <time>2025-04-25T20:30:11Z</time>
    </trkpt>
    <trkpt lat="50.9569212" lon="6.9028384">
      <time>2025-04-25T20:30:12Z</time>
    </trkpt>
    <trkpt lat="50.9569674" lon="6.9027113">
      <time>2025-04-25T20:30:14Z</time>
    </trkpt>
    <trkpt lat="50.9570250" lon="6.9024890">
      <time>2025-04-25T20:30:17Z</time>
    </trkpt>
    <trkpt lat="50.9570997" lon="6.9021912">
      <time>2025-04-25T20:30:21Z</time>
    </trkpt>
    <trkpt lat="50.9571955" lon="6.9018179">
      <time>2025-04-25T20:30:26Z</time>
    </trkpt>
    <trkpt lat="50.9572420" lon="6.9016685">
      <time>2025-04-25T20:30:28Z</time>
    </trkpt>
    <trkpt lat="50.9572721" lon="6.9015910">
      <time>2025-04-25T20:30:29Z</time>
    </trkpt>
    <trkpt lat="50.9573701" lon="6.9013957">
      <time>2025-04-25T20:30:32Z</time>
    </trkpt>
    <trkpt lat="50.9573990" lon="6.9013375">
      <time>2025-04-25T20:30:33Z</time>
    </trkpt>
    <trkpt lat="50.9575074" lon="6.9010144">
      <time>2025-04-25T20:30:38Z</time>
    </trkpt>
    <trkpt lat="50.9575432" lon="6.9008944">
      <time>2025-04-25T20:30:40Z</time>
    </trkpt>
    <trkpt lat="50.9576521" lon="6.9005822">
      <time>2025-04-25T20:30:45Z</time>
    </trkpt>
    <trkpt lat="50.9577352" lon="6.9003957">
      <time>2025-04-25T20:30:48Z</time>
    </trkpt>
    <trkpt lat="50.9577903" lon="6.9002703">
      <time>2025-04-25T20:30:50Z</time>
    </trkpt>
    <trkpt lat="50.9579145" lon="6.9000274">
      <time>2025-04-25T20:30:54Z</time>
    </trkpt>
    <trkpt lat="50.9580776" lon="6.8996809">
      <time>2025-04-25T20:31:00Z</time>
    </trkpt>
    <trkpt lat="50.9581078" lon="6.8996244">
      <time>2025-04-25T20:31:01Z</time>
    </trkpt>
    <trkpt lat="50.9582999" lon="6.8991904">
      <time>2025-04-25T20:31:08Z</time>
    </trkpt>
    <trkpt lat="50.9584659" lon="6.8987896">
      <time>2025-04-25T20:31:14Z</time>
    </trkpt>
    <trkpt lat="50.9586920" lon="6.8983108">
      <time>2025-04-25T20:31:21Z</time>
    </trkpt>
    <trkpt lat="50.9587606" lon="6.8981792">
      <time>2025-04-25T20:31:23Z</time>
    </trkpt>
    <trkpt lat="50.9588880" lon="6.8979120">
      <time>2025-04-25T20:31:27Z</time>
    </trkpt>
    <trkpt lat="50.9592342" lon="6.8971703">
      <time>2025-04-25T20:31:38Z</time>
    </trkpt>
    <trkpt lat="50.9595140" lon="6.8965769">
      <time>2025-04-25T20:31:47Z</time>
    </trkpt>
    <trkpt lat="50.9597295" lon="6.8961126">
      <time>2025-04-25T20:31:54Z</time>
    </trkpt>
    <trkpt lat="50.9599524" lon="6.8956382">
      <time>2025-04-25T20:32:01Z</time>
    </trkpt>
    <trkpt lat="50.9601785" lon="6.8951427">
      <time>2025-04-25T20:32:08Z</time>
    </trkpt>
    <trkpt lat="50.9604206" lon="6.8946770">
      <time>2025-04-25T20:32:15Z</time>
    </trkpt>
    <trkpt lat="50.9604533" lon="6.8946185">
      <time>2025-04-25T20:32:16Z</time>
    </trkpt>
    <trkpt lat="50.9606964" lon="6.8941423">
      <time>2025-04-25T20:32:23Z</time>
    </trkpt>
    <trkpt lat="50.9607227" lon="6.8940693">
      <time>2025-04-25T20:32:24Z</time>
    </trkpt>
    <trkpt lat="50.9608153" lon="6.8937875">
      <time>2025-04-25T20:32:28Z</time>
    </trkpt>
    <trkpt lat="50.9608389" lon="6.8937419">
      <time>2025-04-25T20:32:29Z</time>
    </trkpt>
    <trkpt lat="50.9609096" lon="6.8936305">
      <time>2025-04-25T20:32:31Z</time>
    </trkpt>
    <trkpt lat="50.9609846" lon="6.8935725">
      <time>2025-04-25T20:32:33Z</time>
    </trkpt>
    <trkpt lat="50.9610805" lon="6.8934579">
      <time>2025-04-25T20:32:36Z</time>
    </trkpt>
    <trkpt lat="50.9611075" lon="6.8934133">
      <time>2025-04-25T20:32:37Z</time>
    </trkpt>
    <trkpt lat="50.9613097" lon="6.8930597">
      <time>2025-04-25T20:32:44Z</time>
    </trkpt>
    <trkpt lat="50.9614475" lon="6.8927453">
      <time>2025-04-25T20:32:49Z</time>
    </trkpt>
    <trkpt lat="50.9614721" lon="6.8926827">
      <time>2025-04-25T20:32:50Z</time>
    </trkpt>
    <trkpt lat="50.9614967" lon="6.8926171">
      <time>2025-04-25T20:32:51Z</time>
    </trkpt>
    <trkpt lat="50.9616035" lon="6.8923535">
      <time>2025-04-25T20:32:55Z</time>
    </trkpt>
    <trkpt lat="50.9616918" lon="6.8921541">
      <time>2025-04-25T20:32:58Z</time>
    </trkpt>
    <trkpt lat="50.9617591" lon="6.8920281">
      <time>2025-04-25T20:33:00Z</time>
    </trkpt>
    <trkpt lat="50.9618553" lon="6.8918269">
      <time>2025-04-25T20:33:03Z</time>
    </trkpt>
    <trkpt lat="50.9621903" lon="6.8911517">
      <time>2025-04-25T20:33:13Z</time>
    </trkpt>
    <trkpt lat="50.9624296" lon="6.8905830">
      <time>2025-04-25T20:33:21Z</time>
    </trkpt>
    <trkpt lat="50.9625538" lon="6.8902831">
      <time>2025-04-25T20:33:25Z</time>
    </trkpt>
    <trkpt lat="50.9626423" lon="6.8900552">
      <time>2025-04-25T20:33:28Z</time>
    </trkpt>
    <trkpt lat="50.9627658" lon="6.8897560">
      <time>2025-04-25T20:33:32Z</time>
    </trkpt>
    <trkpt lat="50.9628339" lon="6.8895984">
      <time>2025-04-25T20:33:34Z</time>
    </trkpt>
    <trkpt lat="50.9628708" lon="6.8895217">
      <time>2025-04-25T20:33:35Z</time>
    </trkpt>
    <trkpt lat="50.9629026" lon="6.8894420">
      <time>2025-04-25T20:33:36Z</time>
    </trkpt>
    <trkpt lat="50.9629694" lon="6.8892953">
      <time>2025-04-25T20:33:38Z</time>
    </trkpt>
    <trkpt lat="50.9630104" lon="6.8892434">
      <time>2025-04-25T20:33:39Z</time>
    </trkpt>
    <trkpt lat="50.9630550" lon="6.8891968">
      <time>2025-04-25T20:33:40Z</time>
    </trkpt>
    <trkpt lat="50.9631768" lon="6.8890513">
      <time>2025-04-25T20:33:43Z</time>
    </trkpt>
    <trkpt lat="50.9632067" lon="6.8889872">
      <time>2025-04-25T20:33:44Z</time>
    </trkpt>
    <trkpt lat="50.9633023" lon="6.8887981">
      <time>2025-04-25T20:33:47Z</time>
    </trkpt>
    <trkpt lat="50.9633965" lon="6.8886070">
      <time>2025-04-25T20:33:50Z</time>
    </trkpt>
    <trkpt lat="50.9635694" lon="6.8882275">
      <time>2025-04-25T20:33:56Z</time>
    </trkpt>
    <trkpt lat="50.9635842" lon="6.8881593">
      <time>2025-04-25T20:33:57Z</time>
    </trkpt>
    <trkpt lat="50.9636410" lon="6.8879433">
      <time>2025-04-25T20:34:01Z</time>
    </trkpt>
    <trkpt lat="50.9636647" lon="6.8877371">
      <time>2025-04-25T20:34:04Z</time>
    </trkpt>
    <trkpt lat="50.9636827" lon="6.8876644">
      <time>2025-04-25T20:34:05Z</time>
    </trkpt>
    <trkpt lat="50.9638639" lon="6.8871777">
      <time>2025-04-25T20:34:12Z</time>
    </trkpt>
    <trkpt lat="50.9639590" lon="6.8869736">
      <time>2025-04-25T20:34:15Z</time>
    </trkpt>
    <trkpt lat="50.9640886" lon="6.8866953">
      <time>2025-04-25T20:34:19Z</time>
    </trkpt>
    <trkpt lat="50.9643150" lon="6.8861882">
      <time>2025-04-25T20:34:26Z</time>
    </trkpt>
    <trkpt lat="50.9644927" lon="6.8858356">
      <time>2025-04-25T20:34:31Z</time>
    </trkpt>
    <trkpt lat="50.9645312" lon="6.8857499">
      <time>2025-04-25T20:34:32Z</time>
    </trkpt>
    <trkpt lat="50.9648070" lon="6.8851456">
      <time>2025-04-25T20:34:40Z</time>
    </trkpt>
    <trkpt lat="50.9650416" lon="6.8846168">
      <time>2025-04-25T20:34:47Z</time>
    </trkpt>
    <trkpt lat="50.9652162" lon="6.8842232">
      <time>2025-04-25T20:34:52Z</time>
    </trkpt>
    <trkpt lat="50.9653890" lon="6.8838073">
      <time>2025-04-25T20:34:57Z</time>
    </trkpt>
    <trkpt lat="50.9655013" lon="6.8835776">
      <time>2025-04-25T20:35:00Z</time>
    </trkpt>
    <trkpt lat="50.9656017" lon="6.8833250">
      <time>2025-04-25T20:35:03Z</time>
    </trkpt>
    <trkpt lat="50.9658509" lon="6.8827876">
      <time>2025-04-25T20:35:10Z</time>
    </trkpt>
    <trkpt lat="50.9660518" lon="6.8823464">
      <time>2025-04-25T20:35:16Z</time>
    </trkpt>
    <trkpt lat="50.9660781" lon="6.8822668">
      <time>2025-04-25T20:35:17Z</time>
    </trkpt>
    <trkpt lat="50.9662555" lon="6.8817321">
      <time>2025-04-25T20:35:24Z</time>
    </trkpt>
    <trkpt lat="50.9663518" lon="6.8814226">
      <time>2025-04-25T20:35:29Z</time>
    </trkpt>
    <trkpt lat="50.9663582" lon="6.8813558">
      <time>2025-04-25T20:35:30Z</time>
    </trkpt>
    <trkpt lat="50.9663575" lon="6.8812924">
      <time>2025-04-25T20:35:31Z</time>
    </trkpt>
    <trkpt lat="50.9663353" lon="6.8811487">
      <time>2025-04-25T20:35:33Z</time>
    </trkpt>
    <trkpt lat="50.9663163" lon="6.8810683">
      <time>2025-04-25T20:35:34Z</time>
    </trkpt>
    <trkpt lat="50.9662511" lon="6.8809030">
      <time>2025-04-25T20:35:36Z</time>
    </trkpt>
    <trkpt lat="50.9662072" lon="6.8808356">
      <time>2025-04-25T20:35:37Z</time>
    </trkpt>
    <trkpt lat="50.9661575" lon="6.8807773">
      <time>2025-04-25T20:35:38Z</time>
    </trkpt>
    <trkpt lat="50.9659912" lon="6.8806357">
      <time>2025-04-25T20:35:41Z</time>
    </trkpt>
    <trkpt lat="50.9655393" lon="6.8802191">
      <time>2025-04-25T20:35:49Z</time>
    </trkpt>
    <trkpt lat="50.9651581" lon="6.8798205">
      <time>2025-04-25T20:35:56Z</time>
    </trkpt>
    <trkpt lat="50.9647223" lon="6.8793231">
      <time>2025-04-25T20:36:04Z</time>
    </trkpt>
    <trkpt lat="50.9643515" lon="6.8788285">
      <time>2025-04-25T20:36:12Z</time>
    </trkpt>
    <trkpt lat="50.9641144" lon="6.8784950">
      <time>2025-04-25T20:36:17Z</time>
    </trkpt>
    <trkpt lat="50.9639828" lon="6.8783123">
      <time>2025-04-25T20:36:20Z</time>
    </trkpt>
    <trkpt lat="50.9636829" lon="6.8778618">
      <time>2025-04-25T20:36:28Z</time>
    </trkpt>
    <trkpt lat="50.9635953" lon="6.8777309">
      <time>2025-04-25T20:36:31Z</time>
    </trkpt>
    <trkpt lat="50.9635371" lon="6.8776271">
      <time>2025-04-25T20:36:33Z</time>
    </trkpt>
    <trkpt lat="50.9633425" lon="6.8772698">
      <time>2025-04-25T20:36:40Z</time>
    </trkpt>
    <trkpt lat="50.9631750" lon="6.8770274">
      <time>2025-04-25T20:36:45Z</time>
    </trkpt>
    <trkpt lat="50.9631266" lon="6.8769168">
      <time>2025-04-25T20:36:47Z</time>
    </trkpt>
    <trkpt lat="50.9631100" lon="6.8768503">
      <time>2025-04-25T20:36:48Z</time>
    </trkpt>
    <trkpt lat="50.9630963" lon="6.8767806">
      <time>2025-04-25T20:36:49Z</time>
    </trkpt>
    <trkpt lat="50.9630885" lon="6.8766462">
      <time>2025-04-25T20:36:51Z</time>
    </trkpt>
    <trkpt lat="50.9630909" lon="6.8765782">
      <time>2025-04-25T20:36:52Z</time>
    </trkpt>
    <trkpt lat="50.9631030" lon="6.8765094">
      <time>2025-04-25T20:36:53Z</time>
    </trkpt>
    <trkpt lat="50.9631579" lon="6.8763249">
      <time>2025-04-25T20:36:56Z</time>
    </trkpt>
    <trkpt lat="50.9632122" lon="6.8761523">
      <time>2025-04-25T20:36:59Z</time>
    </trkpt>
    <trkpt lat="50.9632734" lon="6.8759944">
      <time>2025-04-25T20:37:02Z</time>
    </trkpt>
    <trkpt lat="50.9633177" lon="6.8759156">
      <time>2025-04-25T20:37:04Z</time>
    </trkpt>
    <trkpt lat="50.9633442" lon="6.8759008">
      <time>2025-04-25T20:37:05Z</time>
    </trkpt>
    <trkpt lat="50.9634157" lon="6.8759104">
      <time>2025-04-25T20:37:08Z</time>
    </trkpt>
    <trkpt lat="50.9634288" lon="6.8759086">
      <time>2025-04-25T20:37:09Z</time>
    </trkpt>
    <trkpt lat="50.9634347" lon="6.8759298">
      <time>2025-04-25T20:37:13Z</time>
    </trkpt>
    <trkpt lat="50.9634307" lon="6.8759393">
      <time>2025-04-25T20:37:20Z</time>
    </trkpt>
    <trkpt lat="50.9634259" lon="6.8759512">
      <time>2025-04-25T20:37:29Z</time>
    </trkpt>
    <trkpt lat="50.9634261" lon="6.8759504">
      <time>2025-04-25T20:37:36Z</time>
    </trkpt>
  </trkseg></trk>
</gpx>
