<?xml version="1.0" encoding="UTF-8"?>
<gpx version="1.1" creator="Diary FIT converter" xmlns="http://www.topografix.com/GPX/1/1">
  <trk><name>Running</name><trkseg>
    <trkpt lat="50.9628695" lon="6.8766753">
      <time>2020-11-05T18:08:49Z</time>
    </trkpt>
    <trkpt lat="50.9628417" lon="6.8766657">
      <time>2020-11-05T18:08:50Z</time>
    </trkpt>
    <trkpt lat="50.9627411" lon="6.8765657">
      <time>2020-11-05T18:08:56Z</time>
    </trkpt>
    <trkpt lat="50.9625513" lon="6.8764997">
      <time>2020-11-05T18:09:04Z</time>
    </trkpt>
    <trkpt lat="50.9625199" lon="6.8764960">
      <time>2020-11-05T18:09:05Z</time>
    </trkpt>
    <trkpt lat="50.9623844" lon="6.8765106">
      <time>2020-11-05T18:09:10Z</time>
    </trkpt>
    <trkpt lat="50.9623520" lon="6.8765122">
      <time>2020-11-05T18:09:11Z</time>
    </trkpt>
    <trkpt lat="50.9621797" lon="6.8764704">
      <time>2020-11-05T18:09:17Z</time>
    </trkpt>
    <trkpt lat="50.9620951" lon="6.8764052">
      <time>2020-11-05T18:09:22Z</time>
    </trkpt>
    <trkpt lat="50.9620807" lon="6.8764101">
      <time>2020-11-05T18:09:23Z</time>
    </trkpt>
    <trkpt lat="50.9620477" lon="6.8764969">
      <time>2020-11-05T18:09:26Z</time>
    </trkpt>
    <trkpt lat="50.9620346" lon="6.8766644">
      <time>2020-11-05T18:09:30Z</time>
    </trkpt>
    <trkpt lat="50.9620328" lon="6.8767513">
      <time>2020-11-05T18:09:32Z</time>
    </trkpt>
    <trkpt lat="50.9619398" lon="6.8769119">
      <time>2020-11-05T18:09:37Z</time>
    </trkpt>
    <trkpt lat="50.9617744" lon="6.8770304">
      <time>2020-11-05T18:09:42Z</time>
    </trkpt>
    <trkpt lat="50.9616908" lon="6.8771109">
      <time>2020-11-05T18:09:45Z</time>
    </trkpt>
    <trkpt lat="50.9615254" lon="6.8771936">
      <time>2020-11-05T18:09:51Z</time>
    </trkpt>
    <trkpt lat="50.9613446" lon="6.8773240">
      <time>2020-11-05T18:09:58Z</time>
    </trkpt>
    <trkpt lat="50.9612950" lon="6.8773419">
      <time>2020-11-05T18:10:00Z</time>
    </trkpt>
    <trkpt lat="50.9611191" lon="6.8774316">
      <time>2020-11-05T18:10:07Z</time>
    </trkpt>
    <trkpt lat="50.9609271" lon="6.8774707">
      <time>2020-11-05T18:10:14Z</time>
    </trkpt>
    <trkpt lat="50.9607381" lon="6.8775297">
      <time>2020-11-05T18:10:21Z</time>
    </trkpt>
    <trkpt lat="50.9607075" lon="6.8775477">
      <time>2020-11-05T18:10:22Z</time>
    </trkpt>
    <trkpt lat="50.9605610" lon="6.8776214">
      <time>2020-11-05T18:10:27Z</time>
    </trkpt>
    <trkpt lat="50.9605103" lon="6.8776398">
      <time>2020-11-05T18:10:29Z</time>
    </trkpt>
    <trkpt lat="50.9604079" lon="6.8776831">
      <time>2020-11-05T18:10:33Z</time>
    </trkpt>
    <trkpt lat="50.9602312" lon="6.8777873">
      <time>2020-11-05T18:10:40Z</time>
    </trkpt>
    <trkpt lat="50.9600918" lon="6.8776893">
      <time>2020-11-05T18:10:45Z</time>
    </trkpt>
    <trkpt lat="50.9599109" lon="6.8775407">
      <time>2020-11-05T18:10:51Z</time>
    </trkpt>
    <trkpt lat="50.9598901" lon="6.8775172">
      <time>2020-11-05T18:10:52Z</time>
    </trkpt>
    <trkpt lat="50.9597767" lon="6.8773098">
      <time>2020-11-05T18:10:58Z</time>
    </trkpt>
    <trkpt lat="50.9597732" lon="6.8771523">
      <time>2020-11-05T18:11:02Z</time>
    </trkpt>
    <trkpt lat="50.9598228" lon="6.8769227">
      <time>2020-11-05T18:11:08Z</time>
    </trkpt>
    <trkpt lat="50.9598080" lon="6.8767187">
      <time>2020-11-05T18:11:13Z</time>
    </trkpt>
    <trkpt lat="50.9597793" lon="6.8764760">
      <time>2020-11-05T18:11:19Z</time>
    </trkpt>
    <trkpt lat="50.9597461" lon="6.8762053">
      <time>2020-11-05T18:11:26Z</time>
    </trkpt>
    <trkpt lat="50.9597228" lon="6.8759236">
      <time>2020-11-05T18:11:33Z</time>
    </trkpt>
    <trkpt lat="50.9597179" lon="6.8758851">
      <time>2020-11-05T18:11:34Z</time>
    </trkpt>
    <trkpt lat="50.9596958" lon="6.8755721">
      <time>2020-11-05T18:11:41Z</time>
    </trkpt>
    <trkpt lat="50.9596926" lon="6.8755302">
      <time>2020-11-05T18:11:42Z</time>
    </trkpt>
    <trkpt lat="50.9597057" lon="6.8752166">
      <time>2020-11-05T18:11:49Z</time>
    </trkpt>
    <trkpt lat="50.9597201" lon="6.8749288">
      <time>2020-11-05T18:11:55Z</time>
    </trkpt>
    <trkpt lat="50.9597235" lon="6.8748347">
      <time>2020-11-05T18:11:57Z</time>
    </trkpt>
    <trkpt lat="50.9597389" lon="6.8747014">
      <time>2020-11-05T18:12:00Z</time>
    </trkpt>
    <trkpt lat="50.9597529" lon="6.8745995">
      <time>2020-11-05T18:12:02Z</time>
    </trkpt>
    <trkpt lat="50.9597755" lon="6.8743064">
      <time>2020-11-05T18:12:09Z</time>
    </trkpt>
    <trkpt lat="50.9597814" lon="6.8742545">
      <time>2020-11-05T18:12:10Z</time>
    </trkpt>
    <trkpt lat="50.9597996" lon="6.8739477">
      <time>2020-11-05T18:12:17Z</time>
    </trkpt>
    <trkpt lat="50.9598034" lon="6.8739030">
      <time>2020-11-05T18:12:18Z</time>
    </trkpt>
    <trkpt lat="50.9598061" lon="6.8738275">
      <time>2020-11-05T18:12:20Z</time>
    </trkpt>
    <trkpt lat="50.9597982" lon="6.8736691">
      <time>2020-11-05T18:12:24Z</time>
    </trkpt>
    <trkpt lat="50.9597677" lon="6.8734250">
      <time>2020-11-05T18:12:30Z</time>
    </trkpt>
    <trkpt lat="50.9597311" lon="6.8731205">
      <time>2020-11-05T18:12:37Z</time>
    </trkpt>
    <trkpt lat="50.9597193" lon="6.8730741">
      <time>2020-11-05T18:12:38Z</time>
    </trkpt>
    <trkpt lat="50.9596530" lon="6.8728038">
      <time>2020-11-05T18:12:45Z</time>
    </trkpt>
    <trkpt lat="50.9596070" lon="6.8724988">
      <time>2020-11-05T18:12:52Z</time>
    </trkpt>
    <trkpt lat="50.9595590" lon="6.8721787">
      <time>2020-11-05T18:12:59Z</time>
    </trkpt>
    <trkpt lat="50.9595269" lon="6.8719104">
      <time>2020-11-05T18:13:05Z</time>
    </trkpt>
    <trkpt lat="50.9594586" lon="6.8716431">
      <time>2020-11-05T18:13:11Z</time>
    </trkpt>
    <trkpt lat="50.9594182" lon="6.8715194">
      <time>2020-11-05T18:13:14Z</time>
    </trkpt>
    <trkpt lat="50.9593239" lon="6.8712258">
      <time>2020-11-05T18:13:21Z</time>
    </trkpt>
    <trkpt lat="50.9593133" lon="6.8711928">
      <time>2020-11-05T18:13:22Z</time>
    </trkpt>
    <trkpt lat="50.9592505" lon="6.8709988">
      <time>2020-11-05T18:13:27Z</time>
    </trkpt>
    <trkpt lat="50.9592436" lon="6.8709557">
      <time>2020-11-05T18:13:28Z</time>
    </trkpt>
    <trkpt lat="50.9592441" lon="6.8707714">
      <time>2020-11-05T18:13:33Z</time>
    </trkpt>
    <trkpt lat="50.9592559" lon="6.8707416">
      <time>2020-11-05T18:13:34Z</time>
    </trkpt>
    <trkpt lat="50.9592752" lon="6.8707119">
      <time>2020-11-05T18:13:35Z</time>
    </trkpt>
    <trkpt lat="50.9593438" lon="6.8706357">
      <time>2020-11-05T18:13:38Z</time>
    </trkpt>
    <trkpt lat="50.9595097" lon="6.8704814">
      <time>2020-11-05T18:13:46Z</time>
    </trkpt>
    <trkpt lat="50.9596634" lon="6.8704139">
      <time>2020-11-05T18:13:53Z</time>
    </trkpt>
    <trkpt lat="50.9597376" lon="6.8704016">
      <time>2020-11-05T18:13:56Z</time>
    </trkpt>
    <trkpt lat="50.9599118" lon="6.8703785">
      <time>2020-11-05T18:14:03Z</time>
    </trkpt>
    <trkpt lat="50.9600707" lon="6.8703522">
      <time>2020-11-05T18:14:10Z</time>
    </trkpt>
    <trkpt lat="50.9602094" lon="6.8703297">
      <time>2020-11-05T18:14:16Z</time>
    </trkpt>
    <trkpt lat="50.9602843" lon="6.8703093">
      <time>2020-11-05T18:14:19Z</time>
    </trkpt>
    <trkpt lat="50.9604602" lon="6.8702444">
      <time>2020-11-05T18:14:26Z</time>
    </trkpt>
    <trkpt lat="50.9605153" lon="6.8702284">
      <time>2020-11-05T18:14:28Z</time>
    </trkpt>
    <trkpt lat="50.9606992" lon="6.8701627">
      <time>2020-11-05T18:14:35Z</time>
    </trkpt>
    <trkpt lat="50.9607733" lon="6.8701165">
      <time>2020-11-05T18:14:38Z</time>
    </trkpt>
    <trkpt lat="50.9609163" lon="6.8700549">
      <time>2020-11-05T18:14:44Z</time>
    </trkpt>
    <trkpt lat="50.9610113" lon="6.8699934">
      <time>2020-11-05T18:14:48Z</time>
    </trkpt>
    <trkpt lat="50.9610829" lon="6.8699636">
      <time>2020-11-05T18:14:51Z</time>
    </trkpt>
    <trkpt lat="50.9612549" lon="6.8698972">
      <time>2020-11-05T18:14:57Z</time>
    </trkpt>
    <trkpt lat="50.9614510" lon="6.8698372">
      <time>2020-11-05T18:15:04Z</time>
    </trkpt>
    <trkpt lat="50.9614846" lon="6.8698383">
      <time>2020-11-05T18:15:05Z</time>
    </trkpt>
    <trkpt lat="50.9616652" lon="6.8698062">
      <time>2020-11-05T18:15:11Z</time>
    </trkpt>
    <trkpt lat="50.9617318" lon="6.8697959">
      <time>2020-11-05T18:15:13Z</time>
    </trkpt>
    <trkpt lat="50.9619071" lon="6.8697505">
      <time>2020-11-05T18:15:20Z</time>
    </trkpt>
    <trkpt lat="50.9620719" lon="6.8697094">
      <time>2020-11-05T18:15:25Z</time>
    </trkpt>
    <trkpt lat="50.9622625" lon="6.8696712">
      <time>2020-11-05T18:15:32Z</time>
    </trkpt>
    <trkpt lat="50.9622892" lon="6.8696724">
      <time>2020-11-05T18:15:33Z</time>
    </trkpt>
    <trkpt lat="50.9624936" lon="6.8696464">
      <time>2020-11-05T18:15:40Z</time>
    </trkpt>
    <trkpt lat="50.9626548" lon="6.8696425">
      <time>2020-11-05T18:15:46Z</time>
    </trkpt>
    <trkpt lat="50.9627079" lon="6.8696414">
      <time>2020-11-05T18:15:48Z</time>
    </trkpt>
    <trkpt lat="50.9628584" lon="6.8696265">
      <time>2020-11-05T18:15:54Z</time>
    </trkpt>
    <trkpt lat="50.9630513" lon="6.8695577">
      <time>2020-11-05T18:16:01Z</time>
    </trkpt>
    <trkpt lat="50.9632489" lon="6.8695555">
      <time>2020-11-05T18:16:08Z</time>
    </trkpt>
    <trkpt lat="50.9632973" lon="6.8695619">
      <time>2020-11-05T18:16:10Z</time>
    </trkpt>
    <trkpt lat="50.9634079" lon="6.8695711">
      <time>2020-11-05T18:16:15Z</time>
    </trkpt>
    <trkpt lat="50.9635967" lon="6.8695813">
      <time>2020-11-05T18:16:22Z</time>
    </trkpt>
    <trkpt lat="50.9637741" lon="6.8696396">
      <time>2020-11-05T18:16:29Z</time>
    </trkpt>
    <trkpt lat="50.9638809" lon="6.8696546">
      <time>2020-11-05T18:16:33Z</time>
    </trkpt>
    <trkpt lat="50.9639708" lon="6.8696783">
      <time>2020-11-05T18:16:37Z</time>
    </trkpt>
    <trkpt lat="50.9640373" lon="6.8695759">
      <time>2020-11-05T18:16:41Z</time>
    </trkpt>
    <trkpt lat="50.9640513" lon="6.8695428">
      <time>2020-11-05T18:16:42Z</time>
    </trkpt>
    <trkpt lat="50.9641396" lon="6.8692856">
      <time>2020-11-05T18:16:48Z</time>
    </trkpt>
    <trkpt lat="50.9642012" lon="6.8689759">
      <time>2020-11-05T18:16:55Z</time>
    </trkpt>
    <trkpt lat="50.9642253" lon="6.8688930">
      <time>2020-11-05T18:16:57Z</time>
    </trkpt>
    <trkpt lat="50.9642364" lon="6.8688639">
      <time>2020-11-05T18:16:58Z</time>
    </trkpt>
    <trkpt lat="50.9642575" lon="6.8686445">
      <time>2020-11-05T18:17:03Z</time>
    </trkpt>
    <trkpt lat="50.9642704" lon="6.8684286">
      <time>2020-11-05T18:17:08Z</time>
    </trkpt>
    <trkpt lat="50.9642720" lon="6.8683051">
      <time>2020-11-05T18:17:11Z</time>
    </trkpt>
    <trkpt lat="50.9642550" lon="6.8681052">
      <time>2020-11-05T18:17:16Z</time>
    </trkpt>
    <trkpt lat="50.9642591" lon="6.8680631">
      <time>2020-11-05T18:17:17Z</time>
    </trkpt>
    <trkpt lat="50.9642709" lon="6.8680263">
      <time>2020-11-05T18:17:18Z</time>
    </trkpt>
    <trkpt lat="50.9643131" lon="6.8679867">
      <time>2020-11-05T18:17:20Z</time>
    </trkpt>
    <trkpt lat="50.9644947" lon="6.8680019">
      <time>2020-11-05T18:17:26Z</time>
    </trkpt>
    <trkpt lat="50.9646841" lon="6.8680451">
      <time>2020-11-05T18:17:32Z</time>
    </trkpt>
    <trkpt lat="50.9647660" lon="6.8681124">
      <time>2020-11-05T18:17:35Z</time>
    </trkpt>
    <trkpt lat="50.9649201" lon="6.8682235">
      <time>2020-11-05T18:17:41Z</time>
    </trkpt>
    <trkpt lat="50.9651038" lon="6.8683138">
      <time>2020-11-05T18:17:48Z</time>
    </trkpt>
    <trkpt lat="50.9652879" lon="6.8683952">
      <time>2020-11-05T18:17:55Z</time>
    </trkpt>
    <trkpt lat="50.9653747" lon="6.8684298">
      <time>2020-11-05T18:17:58Z</time>
    </trkpt>
    <trkpt lat="50.9655617" lon="6.8684970">
      <time>2020-11-05T18:18:05Z</time>
    </trkpt>
    <trkpt lat="50.9656178" lon="6.8685216">
      <time>2020-11-05T18:18:07Z</time>
    </trkpt>
    <trkpt lat="50.9657921" lon="6.8685967">
      <time>2020-11-05T18:18:13Z</time>
    </trkpt>
    <trkpt lat="50.9659203" lon="6.8686429">
      <time>2020-11-05T18:18:17Z</time>
    </trkpt>
    <trkpt lat="50.9659902" lon="6.8686437">
      <time>2020-11-05T18:18:20Z</time>
    </trkpt>
    <trkpt lat="50.9660463" lon="6.8686397">
      <time>2020-11-05T18:18:22Z</time>
    </trkpt>
    <trkpt lat="50.9660936" lon="6.8686625">
      <time>2020-11-05T18:18:24Z</time>
    </trkpt>
    <trkpt lat="50.9661359" lon="6.8687448">
      <time>2020-11-05T18:18:26Z</time>
    </trkpt>
    <trkpt lat="50.9661563" lon="6.8690789">
      <time>2020-11-05T18:18:32Z</time>
    </trkpt>
    <trkpt lat="50.9661632" lon="6.8693845">
      <time>2020-11-05T18:18:38Z</time>
    </trkpt>
    <trkpt lat="50.9661614" lon="6.8694198">
      <time>2020-11-05T18:18:39Z</time>
    </trkpt>
    <trkpt lat="50.9660945" lon="6.8697186">
      <time>2020-11-05T18:18:45Z</time>
    </trkpt>
    <trkpt lat="50.9660059" lon="6.8700011">
      <time>2020-11-05T18:18:52Z</time>
    </trkpt>
    <trkpt lat="50.9659888" lon="6.8700428">
      <time>2020-11-05T18:18:53Z</time>
    </trkpt>
    <trkpt lat="50.9658993" lon="6.8702778">
      <time>2020-11-05T18:18:59Z</time>
    </trkpt>
    <trkpt lat="50.9658332" lon="6.8704165">
      <time>2020-11-05T18:19:03Z</time>
    </trkpt>
    <trkpt lat="50.9658005" lon="6.8704788">
      <time>2020-11-05T18:19:05Z</time>
    </trkpt>
    <trkpt lat="50.9657852" lon="6.8705164">
      <time>2020-11-05T18:19:06Z</time>
    </trkpt>
    <trkpt lat="50.9656794" lon="6.8707690">
      <time>2020-11-05T18:19:13Z</time>
    </trkpt>
    <trkpt lat="50.9656944" lon="6.8710034">
      <time>2020-11-05T18:19:19Z</time>
    </trkpt>
    <trkpt lat="50.9657023" lon="6.8710867">
      <time>2020-11-05T18:19:21Z</time>
    </trkpt>
    <trkpt lat="50.9657016" lon="6.8712592">
      <time>2020-11-05T18:19:25Z</time>
    </trkpt>
    <trkpt lat="50.9656990" lon="6.8714367">
      <time>2020-11-05T18:19:30Z</time>
    </trkpt>
    <trkpt lat="50.9656870" lon="6.8716767">
      <time>2020-11-05T18:19:36Z</time>
    </trkpt>
    <trkpt lat="50.9656800" lon="6.8719700">
      <time>2020-11-05T18:19:43Z</time>
    </trkpt>
    <trkpt lat="50.9656756" lon="6.8721045">
      <time>2020-11-05T18:19:46Z</time>
    </trkpt>
    <trkpt lat="50.9656252" lon="6.8723298">
      <time>2020-11-05T18:19:52Z</time>
    </trkpt>
    <trkpt lat="50.9655994" lon="6.8725686">
      <time>2020-11-05T18:19:58Z</time>
    </trkpt>
    <trkpt lat="50.9655161" lon="6.8728117">
      <time>2020-11-05T18:20:04Z</time>
    </trkpt>
    <trkpt lat="50.9654048" lon="6.8730371">
      <time>2020-11-05T18:20:10Z</time>
    </trkpt>
    <trkpt lat="50.9653453" lon="6.8731666">
      <time>2020-11-05T18:20:14Z</time>
    </trkpt>
    <trkpt lat="50.9652110" lon="6.8733914">
      <time>2020-11-05T18:20:21Z</time>
    </trkpt>
    <trkpt lat="50.9651694" lon="6.8734565">
      <time>2020-11-05T18:20:23Z</time>
    </trkpt>
    <trkpt lat="50.9650432" lon="6.8736577">
      <time>2020-11-05T18:20:30Z</time>
    </trkpt>
    <trkpt lat="50.9649106" lon="6.8738746">
      <time>2020-11-05T18:20:37Z</time>
    </trkpt>
    <trkpt lat="50.9648595" lon="6.8739681">
      <time>2020-11-05T18:20:40Z</time>
    </trkpt>
    <trkpt lat="50.9647958" lon="6.8741093">
      <time>2020-11-05T18:20:44Z</time>
    </trkpt>
    <trkpt lat="50.9646990" lon="6.8743812">
      <time>2020-11-05T18:20:51Z</time>
    </trkpt>
    <trkpt lat="50.9646095" lon="6.8746417">
      <time>2020-11-05T18:20:58Z</time>
    </trkpt>
    <trkpt lat="50.9645970" lon="6.8746807">
      <time>2020-11-05T18:20:59Z</time>
    </trkpt>
    <trkpt lat="50.9645277" lon="6.8749548">
      <time>2020-11-05T18:21:06Z</time>
    </trkpt>
    <trkpt lat="50.9645071" lon="6.8750680">
      <time>2020-11-05T18:21:09Z</time>
    </trkpt>
    <trkpt lat="50.9644408" lon="6.8753500">
      <time>2020-11-05T18:21:16Z</time>
    </trkpt>
    <trkpt lat="50.9644202" lon="6.8754308">
      <time>2020-11-05T18:21:18Z</time>
    </trkpt>
    <trkpt lat="50.9643542" lon="6.8757162">
      <time>2020-11-05T18:21:25Z</time>
    </trkpt>
    <trkpt lat="50.9642990" lon="6.8759971">
      <time>2020-11-05T18:21:32Z</time>
    </trkpt>
    <trkpt lat="50.9642895" lon="6.8760778">
      <time>2020-11-05T18:21:34Z</time>
    </trkpt>
    <trkpt lat="50.9642506" lon="6.8763748">
      <time>2020-11-05T18:21:41Z</time>
    </trkpt>
    <trkpt lat="50.9642419" lon="6.8764172">
      <time>2020-11-05T18:21:42Z</time>
    </trkpt>
    <trkpt lat="50.9641869" lon="6.8766952">
      <time>2020-11-05T18:21:49Z</time>
    </trkpt>
    <trkpt lat="50.9641799" lon="6.8767351">
      <time>2020-11-05T18:21:50Z</time>
    </trkpt>
    <trkpt lat="50.9641230" lon="6.8770338">
      <time>2020-11-05T18:21:57Z</time>
    </trkpt>
    <trkpt lat="50.9640973" lon="6.8771594">
      <time>2020-11-05T18:22:00Z</time>
    </trkpt>
    <trkpt lat="50.9640335" lon="6.8774044">
      <time>2020-11-05T18:22:06Z</time>
    </trkpt>
    <trkpt lat="50.9639513" lon="6.8776784">
      <time>2020-11-05T18:22:13Z</time>
    </trkpt>
    <trkpt lat="50.9639102" lon="6.8777821">
      <time>2020-11-05T18:22:16Z</time>
    </trkpt>
    <trkpt lat="50.9638110" lon="6.8780462">
      <time>2020-11-05T18:22:23Z</time>
    </trkpt>
    <trkpt lat="50.9637985" lon="6.8780808">
      <time>2020-11-05T18:22:24Z</time>
    </trkpt>
    <trkpt lat="50.9636770" lon="6.8782337">
      <time>2020-11-05T18:22:30Z</time>
    </trkpt>
    <trkpt lat="50.9634876" lon="6.8783211">
      <time>2020-11-05T18:22:37Z</time>
    </trkpt>
    <trkpt lat="50.9632955" lon="6.8784129">
      <time>2020-11-05T18:22:45Z</time>
    </trkpt>
    <trkpt lat="50.9631837" lon="6.8785209">
      <time>2020-11-05T18:22:51Z</time>
    </trkpt>
    <trkpt lat="50.9630495" lon="6.8786279">
      <time>2020-11-05T18:22:58Z</time>
    </trkpt>
    <trkpt lat="50.9629508" lon="6.8788133">
      <time>2020-11-05T18:23:05Z</time>
    </trkpt>
    <trkpt lat="50.9628604" lon="6.8790591">
      <time>2020-11-05T18:23:12Z</time>
    </trkpt>
    <trkpt lat="50.9628348" lon="6.8791806">
      <time>2020-11-05T18:23:15Z</time>
    </trkpt>
    <trkpt lat="50.9627724" lon="6.8794614">
      <time>2020-11-05T18:23:21Z</time>
    </trkpt>
    <trkpt lat="50.9627594" lon="6.8795484">
      <time>2020-11-05T18:23:23Z</time>
    </trkpt>
    <trkpt lat="50.9627129" lon="6.8798660">
      <time>2020-11-05T18:23:31Z</time>
    </trkpt>
    <trkpt lat="50.9626732" lon="6.8801825">
      <time>2020-11-05T18:23:38Z</time>
    </trkpt>
    <trkpt lat="50.9626641" lon="6.8802564">
      <time>2020-11-05T18:23:40Z</time>
    </trkpt>
    <trkpt lat="50.9626203" lon="6.8805446">
      <time>2020-11-05T18:23:47Z</time>
    </trkpt>
    <trkpt lat="50.9626116" lon="6.8805923">
      <time>2020-11-05T18:23:48Z</time>
    </trkpt>
    <trkpt lat="50.9625681" lon="6.8808849">
      <time>2020-11-05T18:23:55Z</time>
    </trkpt>
    <trkpt lat="50.9625615" lon="6.8809254">
      <time>2020-11-05T18:23:56Z</time>
    </trkpt>
    <trkpt lat="50.9625202" lon="6.8812242">
      <time>2020-11-05T18:24:03Z</time>
    </trkpt>
    <trkpt lat="50.9624814" lon="6.8814738">
      <time>2020-11-05T18:24:09Z</time>
    </trkpt>
    <trkpt lat="50.9624278" lon="6.8817738">
      <time>2020-11-05T18:24:16Z</time>
    </trkpt>
    <trkpt lat="50.9624097" lon="6.8818432">
      <time>2020-11-05T18:24:18Z</time>
    </trkpt>
    <trkpt lat="50.9623662" lon="6.8821357">
      <time>2020-11-05T18:24:25Z</time>
    </trkpt>
    <trkpt lat="50.9623615" lon="6.8821777">
      <time>2020-11-05T18:24:26Z</time>
    </trkpt>
    <trkpt lat="50.9623174" lon="6.8824923">
      <time>2020-11-05T18:24:34Z</time>
    </trkpt>
    <trkpt lat="50.9623119" lon="6.8825368">
      <time>2020-11-05T18:24:35Z</time>
    </trkpt>
    <trkpt lat="50.9622695" lon="6.8827977">
      <time>2020-11-05T18:24:42Z</time>
    </trkpt>
    <trkpt lat="50.9622148" lon="6.8830823">
      <time>2020-11-05T18:24:49Z</time>
    </trkpt>
    <trkpt lat="50.9621629" lon="6.8833890">
      <time>2020-11-05T18:24:57Z</time>
    </trkpt>
    <trkpt lat="50.9621592" lon="6.8834264">
      <time>2020-11-05T18:24:58Z</time>
    </trkpt>
    <trkpt lat="50.9621559" lon="6.8834607">
      <time>2020-11-05T18:24:59Z</time>
    </trkpt>
    <trkpt lat="50.9621223" lon="6.8836600">
      <time>2020-11-05T18:25:04Z</time>
    </trkpt>
    <trkpt lat="50.9621189" lon="6.8836932">
      <time>2020-11-05T18:25:05Z</time>
    </trkpt>
    <trkpt lat="50.9620639" lon="6.8839997">
      <time>2020-11-05T18:25:12Z</time>
    </trkpt>
    <trkpt lat="50.9620392" lon="6.8842512">
      <time>2020-11-05T18:25:18Z</time>
    </trkpt>
    <trkpt lat="50.9620016" lon="6.8843742">
      <time>2020-11-05T18:25:22Z</time>
    </trkpt>
    <trkpt lat="50.9619891" lon="6.8843734">
      <time>2020-11-05T18:25:23Z</time>
    </trkpt>
    <trkpt lat="50.9619746" lon="6.8843245">
      <time>2020-11-05T18:25:25Z</time>
    </trkpt>
    <trkpt lat="50.9619216" lon="6.8840354">
      <time>2020-11-05T18:25:30Z</time>
    </trkpt>
    <trkpt lat="50.9619078" lon="6.8839694">
      <time>2020-11-05T18:25:31Z</time>
    </trkpt>
    <trkpt lat="50.9618289" lon="6.8836938">
      <time>2020-11-05T18:25:36Z</time>
    </trkpt>
    <trkpt lat="50.9618111" lon="6.8836184">
      <time>2020-11-05T18:25:38Z</time>
    </trkpt>
    <trkpt lat="50.9617345" lon="6.8833278">
      <time>2020-11-05T18:25:45Z</time>
    </trkpt>
    <trkpt lat="50.9616647" lon="6.8830334">
      <time>2020-11-05T18:25:52Z</time>
    </trkpt>
    <trkpt lat="50.9616292" lon="6.8829010">
      <time>2020-11-05T18:25:55Z</time>
    </trkpt>
    <trkpt lat="50.9615583" lon="6.8826322">
      <time>2020-11-05T18:26:02Z</time>
    </trkpt>
    <trkpt lat="50.9614891" lon="6.8823488">
      <time>2020-11-05T18:26:09Z</time>
    </trkpt>
    <trkpt lat="50.9614316" lon="6.8821359">
      <time>2020-11-05T18:26:14Z</time>
    </trkpt>
    <trkpt lat="50.9613569" lon="6.8818712">
      <time>2020-11-05T18:26:20Z</time>
    </trkpt>
    <trkpt lat="50.9613476" lon="6.8818395">
      <time>2020-11-05T18:26:21Z</time>
    </trkpt>
    <trkpt lat="50.9612853" lon="6.8816029">
      <time>2020-11-05T18:26:26Z</time>
    </trkpt>
    <trkpt lat="50.9612483" lon="6.8814659">
      <time>2020-11-05T18:26:29Z</time>
    </trkpt>
    <trkpt lat="50.9611662" lon="6.8811786">
      <time>2020-11-05T18:26:35Z</time>
    </trkpt>
    <trkpt lat="50.9610959" lon="6.8809411">
      <time>2020-11-05T18:26:40Z</time>
    </trkpt>
    <trkpt lat="50.9610608" lon="6.8808148">
      <time>2020-11-05T18:26:43Z</time>
    </trkpt>
    <trkpt lat="50.9609720" lon="6.8805141">
      <time>2020-11-05T18:26:49Z</time>
    </trkpt>
    <trkpt lat="50.9609443" lon="6.8804146">
      <time>2020-11-05T18:26:51Z</time>
    </trkpt>
    <trkpt lat="50.9608624" lon="6.8801003">
      <time>2020-11-05T18:26:57Z</time>
    </trkpt>
    <trkpt lat="50.9608400" lon="6.8800048">
      <time>2020-11-05T18:26:59Z</time>
    </trkpt>
    <trkpt lat="50.9607746" lon="6.8797330">
      <time>2020-11-05T18:27:05Z</time>
    </trkpt>
    <trkpt lat="50.9607569" lon="6.8796433">
      <time>2020-11-05T18:27:07Z</time>
    </trkpt>
    <trkpt lat="50.9607348" lon="6.8793226">
      <time>2020-11-05T18:27:14Z</time>
    </trkpt>
    <trkpt lat="50.9607904" lon="6.8789996">
      <time>2020-11-05T18:27:21Z</time>
    </trkpt>
    <trkpt lat="50.9608118" lon="6.8789260">
      <time>2020-11-05T18:27:23Z</time>
    </trkpt>
    <trkpt lat="50.9608624" lon="6.8786786">
      <time>2020-11-05T18:27:29Z</time>
    </trkpt>
    <trkpt lat="50.9608492" lon="6.8786378">
      <time>2020-11-05T18:27:30Z</time>
    </trkpt>
    <trkpt lat="50.9608124" lon="6.8785910">
      <time>2020-11-05T18:27:32Z</time>
    </trkpt>
    <trkpt lat="50.9606539" lon="6.8786331">
      <time>2020-11-05T18:27:37Z</time>
    </trkpt>
    <trkpt lat="50.9605096" lon="6.8785896">
      <time>2020-11-05T18:27:43Z</time>
    </trkpt>
    <trkpt lat="50.9604537" lon="6.8785461">
      <time>2020-11-05T18:27:46Z</time>
    </trkpt>
    <trkpt lat="50.9604692" lon="6.8784903">
      <time>2020-11-05T18:27:48Z</time>
    </trkpt>
    <trkpt lat="50.9605719" lon="6.8782710">
      <time>2020-11-05T18:27:54Z</time>
    </trkpt>
    <trkpt lat="50.9606993" lon="6.8780664">
      <time>2020-11-05T18:28:00Z</time>
    </trkpt>
    <trkpt lat="50.9608137" lon="6.8778665">
      <time>2020-11-05T18:28:06Z</time>
    </trkpt>
    <trkpt lat="50.9609208" lon="6.8776399">
      <time>2020-11-05T18:28:12Z</time>
    </trkpt>
    <trkpt lat="50.9610084" lon="6.8774500">
      <time>2020-11-05T18:28:18Z</time>
    </trkpt>
    <trkpt lat="50.9611588" lon="6.8773635">
      <time>2020-11-05T18:28:23Z</time>
    </trkpt>
    <trkpt lat="50.9613342" lon="6.8772699">
      <time>2020-11-05T18:28:29Z</time>
    </trkpt>
    <trkpt lat="50.9613608" lon="6.8772444">
      <time>2020-11-05T18:28:30Z</time>
    </trkpt>
    <trkpt lat="50.9615412" lon="6.8771116">
      <time>2020-11-05T18:28:36Z</time>
    </trkpt>
    <trkpt lat="50.9617436" lon="6.8769913">
      <time>2020-11-05T18:28:43Z</time>
    </trkpt>
    <trkpt lat="50.9617713" lon="6.8769796">
      <time>2020-11-05T18:28:44Z</time>
    </trkpt>
    <trkpt lat="50.9619653" lon="6.8768729">
      <time>2020-11-05T18:28:51Z</time>
    </trkpt>
    <trkpt lat="50.9619825" lon="6.8768409">
      <time>2020-11-05T18:28:52Z</time>
    </trkpt>
    <trkpt lat="50.9619978" lon="6.8766501">
      <time>2020-11-05T18:28:56Z</time>
    </trkpt>
    <trkpt lat="50.9620104" lon="6.8763721">
      <time>2020-11-05T18:29:02Z</time>
    </trkpt>
    <trkpt lat="50.9620999" lon="6.8763084">
      <time>2020-11-05T18:29:06Z</time>
    </trkpt>
    <trkpt lat="50.9622380" lon="6.8763166">
      <time>2020-11-05T18:29:10Z</time>
    </trkpt>
    <trkpt lat="50.9622956" lon="6.8763516">
      <time>2020-11-05T18:29:12Z</time>
    </trkpt>
    <trkpt lat="50.9624561" lon="6.8764321">
      <time>2020-11-05T18:29:18Z</time>
    </trkpt>
    <trkpt lat="50.9626535" lon="6.8764740">
      <time>2020-11-05T18:29:24Z</time>
    </trkpt>
    <trkpt lat="50.9627752" lon="6.8763894">
      <time>2020-11-05T18:29:29Z</time>
    </trkpt>
    <trkpt lat="50.9628919" lon="6.8762396">
      <time>2020-11-05T18:29:35Z</time>
    </trkpt>
    <trkpt lat="50.9630852" lon="6.8762640">
      <time>2020-11-05T18:29:42Z</time>
    </trkpt>
    <trkpt lat="50.9631087" lon="6.8762605">
      <time>2020-11-05T18:29:43Z</time>
    </trkpt>
    <trkpt lat="50.9632464" lon="6.8761564">
      <time>2020-11-05T18:29:50Z</time>
    </trkpt>
    <trkpt lat="50.9633252" lon="6.8760825">
      <time>2020-11-05T18:29:54Z</time>
    </trkpt>
    <trkpt lat="50.9633426" lon="6.8760872">
      <time>2020-11-05T18:29:55Z</time>
    </trkpt>
    <trkpt lat="50.9634821" lon="6.8760429">
      <time>2020-11-05T18:30:01Z</time>
    </trkpt>
    <trkpt lat="50.9636814" lon="6.8759684">
      <time>2020-11-05T18:30:07Z</time>
    </trkpt>
    <trkpt lat="50.9637149" lon="6.8759592">
      <time>2020-11-05T18:30:08Z</time>
    </trkpt>
    <trkpt lat="50.9637768" lon="6.8759223">
      <time>2020-11-05T18:30:12Z</time>
    </trkpt>
    <trkpt lat="50.9637296" lon="6.8759537">
      <time>2020-11-05T18:30:15Z</time>
    </trkpt>
    <trkpt lat="50.9637028" lon="6.8759597">
      <time>2020-11-05T18:30:16Z</time>
    </trkpt>
    <trkpt lat="50.9634954" lon="6.8759422">
      <time>2020-11-05T18:30:23Z</time>
    </trkpt>
    <trkpt lat="50.9634741" lon="6.8759413">
      <time>2020-11-05T18:30:24Z</time>
    </trkpt>
    <trkpt lat="50.9634538" lon="6.8759332">
      <time>2020-11-05T18:30:26Z</time>
    </trkpt>
    <trkpt lat="50.9634568" lon="6.8759334">
      <time>2020-11-05T18:30:27Z</time>
    </trkpt>
  </trkseg></trk>
</gpx>
