<?xml version="1.0" encoding="UTF-8"?>
<gpx version="1.1" creator="Diary FIT converter" xmlns="http://www.topografix.com/GPX/1/1">
  <trk><name>Cycling</name><trkseg>
    <trkpt lat="50.9018647" lon="7.0063896">
      <ele>37.0</ele>
      <time>2019-05-24T20:52:22Z</time>
    </trkpt>
    <trkpt lat="50.9018315" lon="7.0063774">
      <ele>37.0</ele>
      <time>2019-05-24T20:52:29Z</time>
    </trkpt>
    <trkpt lat="50.9015921" lon="7.0062348">
      <ele>36.8</ele>
      <time>2019-05-24T20:52:37Z</time>
    </trkpt>
    <trkpt lat="50.9012208" lon="7.0058127">
      <ele>36.8</ele>
      <time>2019-05-24T20:52:47Z</time>
    </trkpt>
    <trkpt lat="50.9011459" lon="7.0057337">
      <ele>36.8</ele>
      <time>2019-05-24T20:52:49Z</time>
    </trkpt>
    <trkpt lat="50.9010367" lon="7.0056164">
      <ele>37.0</ele>
      <time>2019-05-24T20:52:52Z</time>
    </trkpt>
    <trkpt lat="50.9009306" lon="7.0055134">
      <ele>37.0</ele>
      <time>2019-05-24T20:52:55Z</time>
    </trkpt>
    <trkpt lat="50.9008193" lon="7.0054503">
      <ele>37.0</ele>
      <time>2019-05-24T20:52:58Z</time>
    </trkpt>
    <trkpt lat="50.9005838" lon="7.0054315">
      <ele>37.0</ele>
      <time>2019-05-24T20:53:04Z</time>
    </trkpt>
    <trkpt lat="50.9005433" lon="7.0054388">
      <ele>37.0</ele>
      <time>2019-05-24T20:53:05Z</time>
    </trkpt>
    <trkpt lat="50.9004628" lon="7.0054520">
      <ele>37.0</ele>
      <time>2019-05-24T20:53:07Z</time>
    </trkpt>
    <trkpt lat="50.9004232" lon="7.0054631">
      <ele>37.0</ele>
      <time>2019-05-24T20:53:08Z</time>
    </trkpt>
    <trkpt lat="50.9003834" lon="7.0054748">
      <ele>37.2</ele>
      <time>2019-05-24T20:53:09Z</time>
    </trkpt>
    <trkpt lat="50.9002623" lon="7.0055060">
      <ele>37.0</ele>
      <time>2019-05-24T20:53:12Z</time>
    </trkpt>
    <trkpt lat="50.9000977" lon="7.0055499">
      <ele>37.2</ele>
      <time>2019-05-24T20:53:16Z</time>
    </trkpt>
    <trkpt lat="50.8999728" lon="7.0055792">
      <ele>37.2</ele>
      <time>2019-05-24T20:53:19Z</time>
    </trkpt>
    <trkpt lat="50.8999302" lon="7.0055889">
      <ele>37.2</ele>
      <time>2019-05-24T20:53:20Z</time>
    </trkpt>
    <trkpt lat="50.8998873" lon="7.0055990">
      <ele>37.2</ele>
      <time>2019-05-24T20:53:21Z</time>
    </trkpt>
    <trkpt lat="50.8995797" lon="7.0056681">
      <ele>37.2</ele>
      <time>2019-05-24T20:53:28Z</time>
    </trkpt>
    <trkpt lat="50.8995358" lon="7.0056787">
      <ele>37.2</ele>
      <time>2019-05-24T20:53:29Z</time>
    </trkpt>
    <trkpt lat="50.8994491" lon="7.0057031">
      <ele>37.2</ele>
      <time>2019-05-24T20:53:31Z</time>
    </trkpt>
    <trkpt lat="50.8993635" lon="7.0057289">
      <ele>37.2</ele>
      <time>2019-05-24T20:53:33Z</time>
    </trkpt>
    <trkpt lat="50.8992794" lon="7.0057533">
      <ele>37.2</ele>
      <time>2019-05-24T20:53:35Z</time>
    </trkpt>
    <trkpt lat="50.8992373" lon="7.0057634">
      <ele>37.2</ele>
      <time>2019-05-24T20:53:36Z</time>
    </trkpt>
    <trkpt lat="50.8991533" lon="7.0057854">
      <ele>37.2</ele>
      <time>2019-05-24T20:53:38Z</time>
    </trkpt>
    <trkpt lat="50.8990685" lon="7.0058103">
      <ele>37.2</ele>
      <time>2019-05-24T20:53:40Z</time>
    </trkpt>
    <trkpt lat="50.8989832" lon="7.0058337">
      <ele>37.0</ele>
      <time>2019-05-24T20:53:42Z</time>
    </trkpt>
    <trkpt lat="50.8986459" lon="7.0059160">
      <ele>37.2</ele>
      <time>2019-05-24T20:53:50Z</time>
    </trkpt>
    <trkpt lat="50.8985604" lon="7.0059383">
      <ele>37.0</ele>
      <time>2019-05-24T20:53:52Z</time>
    </trkpt>
    <trkpt lat="50.8985164" lon="7.0059514">
      <ele>37.0</ele>
      <time>2019-05-24T20:53:53Z</time>
    </trkpt>
    <trkpt lat="50.8984256" lon="7.0059791">
      <ele>37.0</ele>
      <time>2019-05-24T20:53:55Z</time>
    </trkpt>
    <trkpt lat="50.8983796" lon="7.0059922">
      <ele>37.0</ele>
      <time>2019-05-24T20:53:56Z</time>
    </trkpt>
    <trkpt lat="50.8983333" lon="7.0060052">
      <ele>37.0</ele>
      <time>2019-05-24T20:53:57Z</time>
    </trkpt>
    <trkpt lat="50.8981930" lon="7.0060445">
      <ele>36.8</ele>
      <time>2019-05-24T20:54:00Z</time>
    </trkpt>
    <trkpt lat="50.8979760" lon="7.0061001">
      <ele>37.0</ele>
      <time>2019-05-24T20:54:05Z</time>
    </trkpt>
    <trkpt lat="50.8976256" lon="7.0060869">
      <ele>37.0</ele>
      <time>2019-05-24T20:54:16Z</time>
    </trkpt>
    <trkpt lat="50.8976171" lon="7.0060386">
      <ele>37.0</ele>
      <time>2019-05-24T20:54:17Z</time>
    </trkpt>
    <trkpt lat="50.8976460" lon="7.0057377">
      <ele>36.6</ele>
      <time>2019-05-24T20:54:22Z</time>
    </trkpt>
    <trkpt lat="50.8976757" lon="7.0055466">
      <ele>36.0</ele>
      <time>2019-05-24T20:54:25Z</time>
    </trkpt>
    <trkpt lat="50.8977134" lon="7.0053485">
      <ele>35.6</ele>
      <time>2019-05-24T20:54:28Z</time>
    </trkpt>
    <trkpt lat="50.8977290" lon="7.0052087">
      <ele>35.2</ele>
      <time>2019-05-24T20:54:30Z</time>
    </trkpt>
    <trkpt lat="50.8977426" lon="7.0050576">
      <ele>35.4</ele>
      <time>2019-05-24T20:54:32Z</time>
    </trkpt>
    <trkpt lat="50.8977755" lon="7.0043239">
      <ele>34.8</ele>
      <time>2019-05-24T20:54:43Z</time>
    </trkpt>
    <trkpt lat="50.8975285" lon="7.0042218">
      <ele>33.8</ele>
      <time>2019-05-24T20:54:49Z</time>
    </trkpt>
    <trkpt lat="50.8972343" lon="7.0039530">
      <ele>33.2</ele>
      <time>2019-05-24T20:54:58Z</time>
    </trkpt>
    <trkpt lat="50.8972480" lon="7.0038157">
      <ele>33.0</ele>
      <time>2019-05-24T20:55:00Z</time>
    </trkpt>
    <trkpt lat="50.8973628" lon="7.0032534">
      <ele>31.8</ele>
      <time>2019-05-24T20:55:07Z</time>
    </trkpt>
    <trkpt lat="50.8973984" lon="7.0029962">
      <ele>31.2</ele>
      <time>2019-05-24T20:55:10Z</time>
    </trkpt>
    <trkpt lat="50.8976209" lon="7.0021535">
      <ele>29.4</ele>
      <time>2019-05-24T20:55:21Z</time>
    </trkpt>
    <trkpt lat="50.8976772" lon="7.0019221">
      <ele>28.6</ele>
      <time>2019-05-24T20:55:24Z</time>
    </trkpt>
    <trkpt lat="50.8977242" lon="7.0017907">
      <ele>28.6</ele>
      <time>2019-05-24T20:55:26Z</time>
    </trkpt>
    <trkpt lat="50.8978734" lon="7.0015022">
      <ele>28.4</ele>
      <time>2019-05-24T20:55:31Z</time>
    </trkpt>
    <trkpt lat="50.8980396" lon="7.0006654">
      <ele>25.4</ele>
      <time>2019-05-24T20:55:43Z</time>
    </trkpt>
    <trkpt lat="50.8981019" lon="7.0004515">
      <ele>27.6</ele>
      <time>2019-05-24T20:55:47Z</time>
    </trkpt>
    <trkpt lat="50.8982517" lon="7.0005404">
      <ele>32.8</ele>
      <time>2019-05-24T20:56:18Z</time>
    </trkpt>
    <trkpt lat="50.8982598" lon="7.0005385">
      <ele>33.0</ele>
      <time>2019-05-24T20:56:21Z</time>
    </trkpt>
    <trkpt lat="50.8982614" lon="7.0005366">
      <ele>33.0</ele>
      <time>2019-05-24T20:56:24Z</time>
    </trkpt>
    <trkpt lat="50.8982557" lon="7.0005305">
      <ele>33.0</ele>
      <time>2019-05-24T20:56:26Z</time>
    </trkpt>
    <trkpt lat="50.8982464" lon="7.0005333">
      <ele>33.2</ele>
      <time>2019-05-24T20:56:29Z</time>
    </trkpt>
    <trkpt lat="50.8982433" lon="7.0005427">
      <ele>33.2</ele>
      <time>2019-05-24T20:56:33Z</time>
    </trkpt>
    <trkpt lat="50.8982432" lon="7.0005483">
      <ele>33.2</ele>
      <time>2019-05-24T20:56:37Z</time>
    </trkpt>
    <trkpt lat="50.8982422" lon="7.0005502">
      <ele>33.2</ele>
      <time>2019-05-24T20:56:43Z</time>
    </trkpt>
    <trkpt lat="50.8982437" lon="7.0005481">
      <ele>33.2</ele>
      <time>2019-05-24T20:56:50Z</time>
    </trkpt>
    <trkpt lat="50.8982417" lon="7.0005434">
      <ele>33.2</ele>
      <time>2019-05-24T20:56:58Z</time>
    </trkpt>
    <trkpt lat="50.8982503" lon="7.0005435">
      <ele>33.4</ele>
      <time>2019-05-24T20:57:06Z</time>
    </trkpt>
    <trkpt lat="50.8982598" lon="7.0005390">
      <ele>33.4</ele>
      <time>2019-05-24T20:57:09Z</time>
    </trkpt>
    <trkpt lat="50.8982894" lon="7.0005371">
      <ele>34.0</ele>
      <time>2019-05-24T20:57:14Z</time>
    </trkpt>
    <trkpt lat="50.8983354" lon="7.0005605">
      <ele>34.4</ele>
      <time>2019-05-24T20:57:17Z</time>
    </trkpt>
    <trkpt lat="50.8984200" lon="7.0005701">
      <ele>35.2</ele>
      <time>2019-05-24T20:57:21Z</time>
    </trkpt>
    <trkpt lat="50.8985060" lon="7.0003874">
      <ele>35.6</ele>
      <time>2019-05-24T20:57:26Z</time>
    </trkpt>
    <trkpt lat="50.8986376" lon="6.9998682">
      <ele>36.0</ele>
      <time>2019-05-24T20:57:38Z</time>
    </trkpt>
    <trkpt lat="50.8987398" lon="6.9995128">
      <ele>36.6</ele>
      <time>2019-05-24T20:57:45Z</time>
    </trkpt>
    <trkpt lat="50.8987721" lon="6.9994162">
      <ele>36.6</ele>
      <time>2019-05-24T20:57:47Z</time>
    </trkpt>
    <trkpt lat="50.8988050" lon="6.9993142">
      <ele>36.6</ele>
      <time>2019-05-24T20:57:49Z</time>
    </trkpt>
    <trkpt lat="50.8988586" lon="6.9991542">
      <ele>36.6</ele>
      <time>2019-05-24T20:57:52Z</time>
    </trkpt>
    <trkpt lat="50.8991485" lon="6.9983601">
      <ele>36.6</ele>
      <time>2019-05-24T20:58:06Z</time>
    </trkpt>
    <trkpt lat="50.8994559" lon="6.9975912">
      <ele>35.2</ele>
      <time>2019-05-24T20:58:19Z</time>
    </trkpt>
    <trkpt lat="50.8997277" lon="6.9970458">
      <ele>32.4</ele>
      <time>2019-05-24T20:58:34Z</time>
    </trkpt>
    <trkpt lat="50.8997825" lon="6.9967994">
      <ele>37.2</ele>
      <time>2019-05-24T20:59:18Z</time>
    </trkpt>
    <trkpt lat="50.8997903" lon="6.9967988">
      <ele>38.2</ele>
      <time>2019-05-24T20:59:27Z</time>
    </trkpt>
    <trkpt lat="50.8997776" lon="6.9967782">
      <ele>42.4</ele>
      <time>2019-05-24T20:59:37Z</time>
    </trkpt>
    <trkpt lat="50.8997647" lon="6.9967522">
      <ele>41.4</ele>
      <time>2019-05-24T20:59:43Z</time>
    </trkpt>
    <trkpt lat="50.8997568" lon="6.9967158">
      <ele>39.6</ele>
      <time>2019-05-24T20:59:52Z</time>
    </trkpt>
    <trkpt lat="50.8997396" lon="6.9966520">
      <ele>35.6</ele>
      <time>2019-05-24T21:00:12Z</time>
    </trkpt>
    <trkpt lat="50.8997573" lon="6.9966042">
      <ele>35.2</ele>
      <time>2019-05-24T21:00:14Z</time>
    </trkpt>
    <trkpt lat="50.8998007" lon="6.9965018">
      <ele>35.8</ele>
      <time>2019-05-24T21:00:17Z</time>
    </trkpt>
    <trkpt lat="50.8998658" lon="6.9963733">
      <ele>35.0</ele>
      <time>2019-05-24T21:00:20Z</time>
    </trkpt>
    <trkpt lat="50.9000090" lon="6.9960757">
      <ele>34.0</ele>
      <time>2019-05-24T21:00:26Z</time>
    </trkpt>
    <trkpt lat="50.9000567" lon="6.9959665">
      <ele>33.4</ele>
      <time>2019-05-24T21:00:28Z</time>
    </trkpt>
    <trkpt lat="50.9001062" lon="6.9958541">
      <ele>33.6</ele>
      <time>2019-05-24T21:00:30Z</time>
    </trkpt>
    <trkpt lat="50.9004391" lon="6.9951667">
      <ele>37.0</ele>
      <time>2019-05-24T21:00:43Z</time>
    </trkpt>
    <trkpt lat="50.9005876" lon="6.9948999">
      <ele>37.0</ele>
      <time>2019-05-24T21:00:49Z</time>
    </trkpt>
    <trkpt lat="50.9006355" lon="6.9948158">
      <ele>36.2</ele>
      <time>2019-05-24T21:00:51Z</time>
    </trkpt>
    <trkpt lat="50.9006811" lon="6.9947157">
      <ele>35.4</ele>
      <time>2019-05-24T21:00:53Z</time>
    </trkpt>
    <trkpt lat="50.9007028" lon="6.9946601">
      <ele>35.0</ele>
      <time>2019-05-24T21:00:54Z</time>
    </trkpt>
    <trkpt lat="50.9008074" lon="6.9944398">
      <ele>34.4</ele>
      <time>2019-05-24T21:00:58Z</time>
    </trkpt>
    <trkpt lat="50.9008618" lon="6.9943280">
      <ele>33.6</ele>
      <time>2019-05-24T21:01:00Z</time>
    </trkpt>
    <trkpt lat="50.9009184" lon="6.9942147">
      <ele>32.4</ele>
      <time>2019-05-24T21:01:02Z</time>
    </trkpt>
    <trkpt lat="50.9012526" lon="6.9935018">
      <ele>27.4</ele>
      <time>2019-05-24T21:01:15Z</time>
    </trkpt>
    <trkpt lat="50.9014855" lon="6.9930292">
      <ele>35.0</ele>
      <time>2019-05-24T21:01:26Z</time>
    </trkpt>
    <trkpt lat="50.9017702" lon="6.9926305">
      <ele>33.6</ele>
      <time>2019-05-24T21:01:35Z</time>
    </trkpt>
    <trkpt lat="50.9019097" lon="6.9924560">
      <ele>35.4</ele>
      <time>2019-05-24T21:01:38Z</time>
    </trkpt>
    <trkpt lat="50.9022986" lon="6.9918507">
      <ele>41.8</ele>
      <time>2019-05-24T21:01:48Z</time>
    </trkpt>
    <trkpt lat="50.9027298" lon="6.9912727">
      <ele>40.6</ele>
      <time>2019-05-24T21:01:59Z</time>
    </trkpt>
    <trkpt lat="50.9031448" lon="6.9907222">
      <ele>40.6</ele>
      <time>2019-05-24T21:02:10Z</time>
    </trkpt>
    <trkpt lat="50.9036185" lon="6.9902584">
      <ele>43.0</ele>
      <time>2019-05-24T21:02:22Z</time>
    </trkpt>
    <trkpt lat="50.9041507" lon="6.9898853">
      <ele>44.0</ele>
      <time>2019-05-24T21:02:35Z</time>
    </trkpt>
    <trkpt lat="50.9046268" lon="6.9894519">
      <ele>42.2</ele>
      <time>2019-05-24T21:02:47Z</time>
    </trkpt>
    <trkpt lat="50.9051029" lon="6.9890414">
      <ele>40.0</ele>
      <time>2019-05-24T21:02:59Z</time>
    </trkpt>
    <trkpt lat="50.9055046" lon="6.9886671">
      <ele>41.0</ele>
      <time>2019-05-24T21:03:08Z</time>
    </trkpt>
    <trkpt lat="50.9058016" lon="6.9884394">
      <ele>41.2</ele>
      <time>2019-05-24T21:03:15Z</time>
    </trkpt>
    <trkpt lat="50.9060336" lon="6.9883615">
      <ele>40.4</ele>
      <time>2019-05-24T21:03:20Z</time>
    </trkpt>
    <trkpt lat="50.9060791" lon="6.9883422">
      <ele>40.4</ele>
      <time>2019-05-24T21:03:21Z</time>
    </trkpt>
    <trkpt lat="50.9061273" lon="6.9883202">
      <ele>40.2</ele>
      <time>2019-05-24T21:03:22Z</time>
    </trkpt>
    <trkpt lat="50.9061745" lon="6.9883013">
      <ele>39.8</ele>
      <time>2019-05-24T21:03:23Z</time>
    </trkpt>
    <trkpt lat="50.9062203" lon="6.9882826">
      <ele>39.8</ele>
      <time>2019-05-24T21:03:24Z</time>
    </trkpt>
    <trkpt lat="50.9064583" lon="6.9881992">
      <ele>40.0</ele>
      <time>2019-05-24T21:03:29Z</time>
    </trkpt>
    <trkpt lat="50.9066117" lon="6.9881748">
      <ele>39.8</ele>
      <time>2019-05-24T21:03:32Z</time>
    </trkpt>
    <trkpt lat="50.9067019" lon="6.9881590">
      <ele>40.0</ele>
      <time>2019-05-24T21:03:34Z</time>
    </trkpt>
    <trkpt lat="50.9068351" lon="6.9881414">
      <ele>40.4</ele>
      <time>2019-05-24T21:03:37Z</time>
    </trkpt>
    <trkpt lat="50.9070504" lon="6.9880680">
      <ele>40.2</ele>
      <time>2019-05-24T21:03:42Z</time>
    </trkpt>
    <trkpt lat="50.9075721" lon="6.9877647">
      <ele>41.4</ele>
      <time>2019-05-24T21:03:54Z</time>
    </trkpt>
    <trkpt lat="50.9081020" lon="6.9874295">
      <ele>41.0</ele>
      <time>2019-05-24T21:04:07Z</time>
    </trkpt>
    <trkpt lat="50.9086374" lon="6.9871078">
      <ele>40.0</ele>
      <time>2019-05-24T21:04:20Z</time>
    </trkpt>
    <trkpt lat="50.9091447" lon="6.9867490">
      <ele>38.8</ele>
      <time>2019-05-24T21:04:32Z</time>
    </trkpt>
    <trkpt lat="50.9093531" lon="6.9866916">
      <ele>39.6</ele>
      <time>2019-05-24T21:04:39Z</time>
    </trkpt>
    <trkpt lat="50.9098223" lon="6.9865270">
      <ele>41.8</ele>
      <time>2019-05-24T21:04:56Z</time>
    </trkpt>
    <trkpt lat="50.9099914" lon="6.9863402">
      <ele>41.4</ele>
      <time>2019-05-24T21:05:02Z</time>
    </trkpt>
    <trkpt lat="50.9101955" lon="6.9861701">
      <ele>42.2</ele>
      <time>2019-05-24T21:05:10Z</time>
    </trkpt>
    <trkpt lat="50.9105314" lon="6.9860969">
      <ele>40.2</ele>
      <time>2019-05-24T21:05:25Z</time>
    </trkpt>
    <trkpt lat="50.9109843" lon="6.9855686">
      <ele>40.8</ele>
      <time>2019-05-24T21:05:38Z</time>
    </trkpt>
    <trkpt lat="50.9113624" lon="6.9851500">
      <ele>40.8</ele>
      <time>2019-05-24T21:05:48Z</time>
    </trkpt>
    <trkpt lat="50.9118259" lon="6.9846456">
      <ele>40.2</ele>
      <time>2019-05-24T21:06:00Z</time>
    </trkpt>
    <trkpt lat="50.9122929" lon="6.9841117">
      <ele>41.8</ele>
      <time>2019-05-24T21:06:13Z</time>
    </trkpt>
    <trkpt lat="50.9127366" lon="6.9836118">
      <ele>41.4</ele>
      <time>2019-05-24T21:06:26Z</time>
    </trkpt>
    <trkpt lat="50.9132160" lon="6.9831258">
      <ele>40.6</ele>
      <time>2019-05-24T21:06:39Z</time>
    </trkpt>
    <trkpt lat="50.9137220" lon="6.9826799">
      <ele>40.8</ele>
      <time>2019-05-24T21:06:52Z</time>
    </trkpt>
    <trkpt lat="50.9142028" lon="6.9822066">
      <ele>41.0</ele>
      <time>2019-05-24T21:07:05Z</time>
    </trkpt>
    <trkpt lat="50.9146948" lon="6.9817359">
      <ele>41.0</ele>
      <time>2019-05-24T21:07:18Z</time>
    </trkpt>
    <trkpt lat="50.9148824" lon="6.9815518">
      <ele>41.2</ele>
      <time>2019-05-24T21:07:23Z</time>
    </trkpt>
    <trkpt lat="50.9151719" lon="6.9812499">
      <ele>42.2</ele>
      <time>2019-05-24T21:07:31Z</time>
    </trkpt>
    <trkpt lat="50.9156614" lon="6.9808096">
      <ele>41.6</ele>
      <time>2019-05-24T21:07:44Z</time>
    </trkpt>
    <trkpt lat="50.9158100" lon="6.9806790">
      <ele>41.6</ele>
      <time>2019-05-24T21:07:48Z</time>
    </trkpt>
    <trkpt lat="50.9160000" lon="6.9805163">
      <ele>41.2</ele>
      <time>2019-05-24T21:07:53Z</time>
    </trkpt>
    <trkpt lat="50.9164927" lon="6.9800832">
      <ele>41.0</ele>
      <time>2019-05-24T21:08:08Z</time>
    </trkpt>
    <trkpt lat="50.9169784" lon="6.9796631">
      <ele>42.6</ele>
      <time>2019-05-24T21:08:22Z</time>
    </trkpt>
    <trkpt lat="50.9174540" lon="6.9792584">
      <ele>42.0</ele>
      <time>2019-05-24T21:08:35Z</time>
    </trkpt>
    <trkpt lat="50.9179660" lon="6.9788291">
      <ele>42.2</ele>
      <time>2019-05-24T21:08:49Z</time>
    </trkpt>
    <trkpt lat="50.9181350" lon="6.9786580">
      <ele>42.2</ele>
      <time>2019-05-24T21:08:54Z</time>
    </trkpt>
    <trkpt lat="50.9181916" lon="6.9785658">
      <ele>41.6</ele>
      <time>2019-05-24T21:08:56Z</time>
    </trkpt>
    <trkpt lat="50.9182836" lon="6.9784474">
      <ele>40.2</ele>
      <time>2019-05-24T21:08:59Z</time>
    </trkpt>
    <trkpt lat="50.9183152" lon="6.9784185">
      <ele>39.8</ele>
      <time>2019-05-24T21:09:00Z</time>
    </trkpt>
    <trkpt lat="50.9183792" lon="6.9783698">
      <ele>38.2</ele>
      <time>2019-05-24T21:09:01Z</time>
    </trkpt>
    <trkpt lat="50.9183792" lon="6.9783698">
      <ele>38.2</ele>
      <time>2019-05-24T21:09:02Z</time>
    </trkpt>
    <trkpt lat="50.9185804" lon="6.9781934">
      <ele>38.2</ele>
      <time>2019-05-24T21:09:08Z</time>
    </trkpt>
    <trkpt lat="50.9189039" lon="6.9779211">
      <ele>39.6</ele>
      <time>2019-05-24T21:09:16Z</time>
    </trkpt>
    <trkpt lat="50.9189513" lon="6.9778904">
      <ele>39.4</ele>
      <time>2019-05-24T21:09:17Z</time>
    </trkpt>
    <trkpt lat="50.9191717" lon="6.9777338">
      <ele>40.2</ele>
      <time>2019-05-24T21:09:22Z</time>
    </trkpt>
    <trkpt lat="50.9192129" lon="6.9776999">
      <ele>40.2</ele>
      <time>2019-05-24T21:09:23Z</time>
    </trkpt>
    <trkpt lat="50.9194663" lon="6.9775052">
      <ele>40.4</ele>
      <time>2019-05-24T21:09:28Z</time>
    </trkpt>
    <trkpt lat="50.9196757" lon="6.9773373">
      <ele>40.6</ele>
      <time>2019-05-24T21:09:32Z</time>
    </trkpt>
    <trkpt lat="50.9197284" lon="6.9772989">
      <ele>40.8</ele>
      <time>2019-05-24T21:09:33Z</time>
    </trkpt>
    <trkpt lat="50.9198291" lon="6.9772272">
      <ele>40.4</ele>
      <time>2019-05-24T21:09:35Z</time>
    </trkpt>
    <trkpt lat="50.9200090" lon="6.9770975">
      <ele>40.2</ele>
      <time>2019-05-24T21:09:39Z</time>
    </trkpt>
    <trkpt lat="50.9200516" lon="6.9770655">
      <ele>40.2</ele>
      <time>2019-05-24T21:09:40Z</time>
    </trkpt>
    <trkpt lat="50.9202478" lon="6.9769248">
      <ele>39.8</ele>
      <time>2019-05-24T21:09:45Z</time>
    </trkpt>
    <trkpt lat="50.9202872" lon="6.9768997">
      <ele>39.8</ele>
      <time>2019-05-24T21:09:46Z</time>
    </trkpt>
    <trkpt lat="50.9203256" lon="6.9768732">
      <ele>39.8</ele>
      <time>2019-05-24T21:09:47Z</time>
    </trkpt>
    <trkpt lat="50.9204010" lon="6.9768146">
      <ele>39.8</ele>
      <time>2019-05-24T21:09:49Z</time>
    </trkpt>
    <trkpt lat="50.9205143" lon="6.9767333">
      <ele>39.8</ele>
      <time>2019-05-24T21:09:52Z</time>
    </trkpt>
    <trkpt lat="50.9205515" lon="6.9767067">
      <ele>39.8</ele>
      <time>2019-05-24T21:09:53Z</time>
    </trkpt>
    <trkpt lat="50.9206633" lon="6.9766269">
      <ele>39.8</ele>
      <time>2019-05-24T21:09:56Z</time>
    </trkpt>
    <trkpt lat="50.9207008" lon="6.9766012">
      <ele>40.0</ele>
      <time>2019-05-24T21:09:57Z</time>
    </trkpt>
    <trkpt lat="50.9211962" lon="6.9762423">
      <ele>40.2</ele>
      <time>2019-05-24T21:10:10Z</time>
    </trkpt>
    <trkpt lat="50.9213573" lon="6.9761277">
      <ele>40.6</ele>
      <time>2019-05-24T21:10:14Z</time>
    </trkpt>
    <trkpt lat="50.9215579" lon="6.9759880">
      <ele>40.6</ele>
      <time>2019-05-24T21:10:19Z</time>
    </trkpt>
    <trkpt lat="50.9217920" lon="6.9758267">
      <ele>40.8</ele>
      <time>2019-05-24T21:10:25Z</time>
    </trkpt>
    <trkpt lat="50.9219662" lon="6.9757144">
      <ele>40.6</ele>
      <time>2019-05-24T21:10:29Z</time>
    </trkpt>
    <trkpt lat="50.9221895" lon="6.9755694">
      <ele>40.6</ele>
      <time>2019-05-24T21:10:34Z</time>
    </trkpt>
    <trkpt lat="50.9223696" lon="6.9754521">
      <ele>40.6</ele>
      <time>2019-05-24T21:10:38Z</time>
    </trkpt>
    <trkpt lat="50.9225087" lon="6.9753570">
      <ele>40.4</ele>
      <time>2019-05-24T21:10:41Z</time>
    </trkpt>
    <trkpt lat="50.9226584" lon="6.9752529">
      <ele>40.4</ele>
      <time>2019-05-24T21:10:44Z</time>
    </trkpt>
    <trkpt lat="50.9231790" lon="6.9748988">
      <ele>40.2</ele>
      <time>2019-05-24T21:10:54Z</time>
    </trkpt>
    <trkpt lat="50.9234408" lon="6.9747395">
      <ele>40.0</ele>
      <time>2019-05-24T21:10:59Z</time>
    </trkpt>
    <trkpt lat="50.9239471" lon="6.9744315">
      <ele>40.4</ele>
      <time>2019-05-24T21:11:09Z</time>
    </trkpt>
    <trkpt lat="50.9241875" lon="6.9742931">
      <ele>40.6</ele>
      <time>2019-05-24T21:11:14Z</time>
    </trkpt>
    <trkpt lat="50.9246658" lon="6.9739936">
      <ele>41.4</ele>
      <time>2019-05-24T21:11:24Z</time>
    </trkpt>
    <trkpt lat="50.9248147" lon="6.9739121">
      <ele>41.4</ele>
      <time>2019-05-24T21:11:27Z</time>
    </trkpt>
    <trkpt lat="50.9249121" lon="6.9738518">
      <ele>41.4</ele>
      <time>2019-05-24T21:11:29Z</time>
    </trkpt>
    <trkpt lat="50.9250715" lon="6.9737611">
      <ele>40.0</ele>
      <time>2019-05-24T21:11:34Z</time>
    </trkpt>
    <trkpt lat="50.9251402" lon="6.9737218">
      <ele>40.0</ele>
      <time>2019-05-24T21:11:37Z</time>
    </trkpt>
    <trkpt lat="50.9256466" lon="6.9734248">
      <ele>40.8</ele>
      <time>2019-05-24T21:11:51Z</time>
    </trkpt>
    <trkpt lat="50.9258596" lon="6.9733134">
      <ele>40.8</ele>
      <time>2019-05-24T21:11:56Z</time>
    </trkpt>
    <trkpt lat="50.9259849" lon="6.9732299">
      <ele>41.2</ele>
      <time>2019-05-24T21:11:59Z</time>
    </trkpt>
    <trkpt lat="50.9260308" lon="6.9732089">
      <ele>41.0</ele>
      <time>2019-05-24T21:12:00Z</time>
    </trkpt>
    <trkpt lat="50.9261208" lon="6.9731752">
      <ele>40.8</ele>
      <time>2019-05-24T21:12:02Z</time>
    </trkpt>
    <trkpt lat="50.9262037" lon="6.9731420">
      <ele>40.8</ele>
      <time>2019-05-24T21:12:04Z</time>
    </trkpt>
    <trkpt lat="50.9262851" lon="6.9730995">
      <ele>40.8</ele>
      <time>2019-05-24T21:12:06Z</time>
    </trkpt>
    <trkpt lat="50.9263269" lon="6.9730777">
      <ele>40.6</ele>
      <time>2019-05-24T21:12:07Z</time>
    </trkpt>
    <trkpt lat="50.9264511" lon="6.9730096">
      <ele>40.4</ele>
      <time>2019-05-24T21:12:10Z</time>
    </trkpt>
    <trkpt lat="50.9265728" lon="6.9729477">
      <ele>40.8</ele>
      <time>2019-05-24T21:12:13Z</time>
    </trkpt>
    <trkpt lat="50.9268019" lon="6.9728042">
      <ele>40.6</ele>
      <time>2019-05-24T21:12:19Z</time>
    </trkpt>
    <trkpt lat="50.9270253" lon="6.9726994">
      <ele>40.0</ele>
      <time>2019-05-24T21:12:25Z</time>
    </trkpt>
    <trkpt lat="50.9271747" lon="6.9726201">
      <ele>39.4</ele>
      <time>2019-05-24T21:12:29Z</time>
    </trkpt>
    <trkpt lat="50.9273396" lon="6.9725393">
      <ele>38.8</ele>
      <time>2019-05-24T21:12:33Z</time>
    </trkpt>
    <trkpt lat="50.9274249" lon="6.9725172">
      <ele>38.8</ele>
      <time>2019-05-24T21:12:35Z</time>
    </trkpt>
    <trkpt lat="50.9275105" lon="6.9725377">
      <ele>39.0</ele>
      <time>2019-05-24T21:12:37Z</time>
    </trkpt>
    <trkpt lat="50.9275806" lon="6.9726273">
      <ele>39.0</ele>
      <time>2019-05-24T21:12:39Z</time>
    </trkpt>
    <trkpt lat="50.9276099" lon="6.9726880">
      <ele>39.0</ele>
      <time>2019-05-24T21:12:40Z</time>
    </trkpt>
    <trkpt lat="50.9276988" lon="6.9728823">
      <ele>38.6</ele>
      <time>2019-05-24T21:12:43Z</time>
    </trkpt>
    <trkpt lat="50.9277255" lon="6.9729480">
      <ele>38.6</ele>
      <time>2019-05-24T21:12:44Z</time>
    </trkpt>
    <trkpt lat="50.9277522" lon="6.9730116">
      <ele>38.6</ele>
      <time>2019-05-24T21:12:45Z</time>
    </trkpt>
    <trkpt lat="50.9278674" lon="6.9733055">
      <ele>38.0</ele>
      <time>2019-05-24T21:12:50Z</time>
    </trkpt>
    <trkpt lat="50.9280516" lon="6.9737067">
      <ele>37.6</ele>
      <time>2019-05-24T21:12:58Z</time>
    </trkpt>
    <trkpt lat="50.9281024" lon="6.9737838">
      <ele>37.6</ele>
      <time>2019-05-24T21:13:00Z</time>
    </trkpt>
    <trkpt lat="50.9281576" lon="6.9737651">
      <ele>37.2</ele>
      <time>2019-05-24T21:13:02Z</time>
    </trkpt>
    <trkpt lat="50.9282503" lon="6.9736821">
      <ele>38.0</ele>
      <time>2019-05-24T21:13:05Z</time>
    </trkpt>
    <trkpt lat="50.9283518" lon="6.9735954">
      <ele>38.0</ele>
      <time>2019-05-24T21:13:08Z</time>
    </trkpt>
    <trkpt lat="50.9284529" lon="6.9735085">
      <ele>38.4</ele>
      <time>2019-05-24T21:13:11Z</time>
    </trkpt>
    <trkpt lat="50.9285891" lon="6.9734036">
      <ele>39.0</ele>
      <time>2019-05-24T21:13:15Z</time>
    </trkpt>
    <trkpt lat="50.9286771" lon="6.9733238">
      <ele>39.2</ele>
      <time>2019-05-24T21:13:18Z</time>
    </trkpt>
    <trkpt lat="50.9290949" lon="6.9729780">
      <ele>40.2</ele>
      <time>2019-05-24T21:13:31Z</time>
    </trkpt>
    <trkpt lat="50.9296155" lon="6.9725570">
      <ele>39.0</ele>
      <time>2019-05-24T21:13:43Z</time>
    </trkpt>
    <trkpt lat="50.9300943" lon="6.9721620">
      <ele>37.8</ele>
      <time>2019-05-24T21:13:55Z</time>
    </trkpt>
    <trkpt lat="50.9305548" lon="6.9717893">
      <ele>37.4</ele>
      <time>2019-05-24T21:14:06Z</time>
    </trkpt>
    <trkpt lat="50.9310610" lon="6.9713737">
      <ele>37.4</ele>
      <time>2019-05-24T21:14:20Z</time>
    </trkpt>
    <trkpt lat="50.9315912" lon="6.9711128">
      <ele>34.6</ele>
      <time>2019-05-24T21:14:35Z</time>
    </trkpt>
    <trkpt lat="50.9318478" lon="6.9710115">
      <ele>36.4</ele>
      <time>2019-05-24T21:14:42Z</time>
    </trkpt>
    <trkpt lat="50.9323858" lon="6.9708007">
      <ele>38.2</ele>
      <time>2019-05-24T21:14:57Z</time>
    </trkpt>
    <trkpt lat="50.9325153" lon="6.9708827">
      <ele>39.2</ele>
      <time>2019-05-24T21:15:04Z</time>
    </trkpt>
    <trkpt lat="50.9325445" lon="6.9709368">
      <ele>39.6</ele>
      <time>2019-05-24T21:15:12Z</time>
    </trkpt>
    <trkpt lat="50.9331064" lon="6.9709251">
      <ele>42.2</ele>
      <time>2019-05-24T21:15:29Z</time>
    </trkpt>
    <trkpt lat="50.9332503" lon="6.9708882">
      <ele>43.2</ele>
      <time>2019-05-24T21:15:33Z</time>
    </trkpt>
    <trkpt lat="50.9334669" lon="6.9708364">
      <ele>44.2</ele>
      <time>2019-05-24T21:15:39Z</time>
    </trkpt>
    <trkpt lat="50.9335029" lon="6.9708293">
      <ele>44.4</ele>
      <time>2019-05-24T21:15:40Z</time>
    </trkpt>
    <trkpt lat="50.9335377" lon="6.9708238">
      <ele>44.6</ele>
      <time>2019-05-24T21:15:41Z</time>
    </trkpt>
    <trkpt lat="50.9336406" lon="6.9708058">
      <ele>45.6</ele>
      <time>2019-05-24T21:15:44Z</time>
    </trkpt>
    <trkpt lat="50.9336742" lon="6.9707998">
      <ele>45.6</ele>
      <time>2019-05-24T21:15:45Z</time>
    </trkpt>
    <trkpt lat="50.9337074" lon="6.9707920">
      <ele>45.8</ele>
      <time>2019-05-24T21:15:46Z</time>
    </trkpt>
    <trkpt lat="50.9338771" lon="6.9707494">
      <ele>46.6</ele>
      <time>2019-05-24T21:15:51Z</time>
    </trkpt>
    <trkpt lat="50.9340631" lon="6.9707457">
      <ele>46.2</ele>
      <time>2019-05-24T21:15:56Z</time>
    </trkpt>
    <trkpt lat="50.9341739" lon="6.9707342">
      <ele>46.4</ele>
      <time>2019-05-24T21:15:59Z</time>
    </trkpt>
    <trkpt lat="50.9342146" lon="6.9707348">
      <ele>46.0</ele>
      <time>2019-05-24T21:16:00Z</time>
    </trkpt>
    <trkpt lat="50.9346662" lon="6.9707323">
      <ele>47.4</ele>
      <time>2019-05-24T21:16:11Z</time>
    </trkpt>
    <trkpt lat="50.9347087" lon="6.9707394">
      <ele>47.6</ele>
      <time>2019-05-24T21:16:12Z</time>
    </trkpt>
    <trkpt lat="50.9348253" lon="6.9707581">
      <ele>48.8</ele>
      <time>2019-05-24T21:16:15Z</time>
    </trkpt>
    <trkpt lat="50.9348633" lon="6.9707714">
      <ele>48.8</ele>
      <time>2019-05-24T21:16:16Z</time>
    </trkpt>
    <trkpt lat="50.9349023" lon="6.9707915">
      <ele>48.2</ele>
      <time>2019-05-24T21:16:17Z</time>
    </trkpt>
    <trkpt lat="50.9349421" lon="6.9708222">
      <ele>47.0</ele>
      <time>2019-05-24T21:16:18Z</time>
    </trkpt>
    <trkpt lat="50.9351940" lon="6.9708031">
      <ele>55.2</ele>
      <time>2019-05-24T21:16:26Z</time>
    </trkpt>
    <trkpt lat="50.9352275" lon="6.9708006">
      <ele>56.4</ele>
      <time>2019-05-24T21:16:27Z</time>
    </trkpt>
    <trkpt lat="50.9352679" lon="6.9708122">
      <ele>57.0</ele>
      <time>2019-05-24T21:16:28Z</time>
    </trkpt>
    <trkpt lat="50.9354361" lon="6.9708391">
      <ele>58.6</ele>
      <time>2019-05-24T21:16:32Z</time>
    </trkpt>
    <trkpt lat="50.9357684" lon="6.9708987">
      <ele>60.8</ele>
      <time>2019-05-24T21:16:40Z</time>
    </trkpt>
    <trkpt lat="50.9363046" lon="6.9712320">
      <ele>57.8</ele>
      <time>2019-05-24T21:16:54Z</time>
    </trkpt>
    <trkpt lat="50.9368236" lon="6.9715218">
      <ele>41.0</ele>
      <time>2019-05-24T21:17:13Z</time>
    </trkpt>
    <trkpt lat="50.9368568" lon="6.9716289">
      <ele>42.2</ele>
      <time>2019-05-24T21:17:20Z</time>
    </trkpt>
    <trkpt lat="50.9368722" lon="6.9715975">
      <ele>51.2</ele>
      <time>2019-05-24T21:17:32Z</time>
    </trkpt>
    <trkpt lat="50.9369716" lon="6.9715240">
      <ele>55.4</ele>
      <time>2019-05-24T21:17:37Z</time>
    </trkpt>
    <trkpt lat="50.9371453" lon="6.9714883">
      <ele>70.2</ele>
      <time>2019-05-24T21:17:43Z</time>
    </trkpt>
    <trkpt lat="50.9372175" lon="6.9714693">
      <ele>73.8</ele>
      <time>2019-05-24T21:17:45Z</time>
    </trkpt>
    <trkpt lat="50.9373658" lon="6.9714161">
      <ele>80.8</ele>
      <time>2019-05-24T21:17:49Z</time>
    </trkpt>
    <trkpt lat="50.9374411" lon="6.9713875">
      <ele>84.4</ele>
      <time>2019-05-24T21:17:51Z</time>
    </trkpt>
    <trkpt lat="50.9375255" lon="6.9713761">
      <ele>84.6</ele>
      <time>2019-05-24T21:17:53Z</time>
    </trkpt>
    <trkpt lat="50.9376229" lon="6.9713801">
      <ele>85.0</ele>
      <time>2019-05-24T21:17:55Z</time>
    </trkpt>
    <trkpt lat="50.9378358" lon="6.9713608">
      <ele>86.2</ele>
      <time>2019-05-24T21:17:59Z</time>
    </trkpt>
    <trkpt lat="50.9380247" lon="6.9712749">
      <ele>92.4</ele>
      <time>2019-05-24T21:18:03Z</time>
    </trkpt>
    <trkpt lat="50.9384214" lon="6.9713900">
      <ele>97.8</ele>
      <time>2019-05-24T21:18:12Z</time>
    </trkpt>
    <trkpt lat="50.9384662" lon="6.9714065">
      <ele>98.6</ele>
      <time>2019-05-24T21:18:13Z</time>
    </trkpt>
    <trkpt lat="50.9387460" lon="6.9717117">
      <ele>84.4</ele>
      <time>2019-05-24T21:18:21Z</time>
    </trkpt>
    <trkpt lat="50.9388274" lon="6.9718245">
      <ele>77.2</ele>
      <time>2019-05-24T21:18:24Z</time>
    </trkpt>
    <trkpt lat="50.9391566" lon="6.9723405">
      <ele>59.2</ele>
      <time>2019-05-24T21:18:35Z</time>
    </trkpt>
    <trkpt lat="50.9394788" lon="6.9730419">
      <ele>50.0</ele>
      <time>2019-05-24T21:18:49Z</time>
    </trkpt>
    <trkpt lat="50.9396153" lon="6.9732581">
      <ele>46.6</ele>
      <time>2019-05-24T21:18:56Z</time>
    </trkpt>
    <trkpt lat="50.9396802" lon="6.9734389">
      <ele>46.2</ele>
      <time>2019-05-24T21:19:03Z</time>
    </trkpt>
    <trkpt lat="50.9396934" lon="6.9734543">
      <ele>46.2</ele>
      <time>2019-05-24T21:19:04Z</time>
    </trkpt>
    <trkpt lat="50.9397172" lon="6.9734850">
      <ele>44.6</ele>
      <time>2019-05-24T21:19:07Z</time>
    </trkpt>
    <trkpt lat="50.9397159" lon="6.9734880">
      <ele>44.0</ele>
      <time>2019-05-24T21:19:09Z</time>
    </trkpt>
    <trkpt lat="50.9397103" lon="6.9734885">
      <ele>43.4</ele>
      <time>2019-05-24T21:19:10Z</time>
    </trkpt>
    <trkpt lat="50.9397064" lon="6.9734881">
      <ele>43.2</ele>
      <time>2019-05-24T21:19:11Z</time>
    </trkpt>
    <trkpt lat="50.9396986" lon="6.9734882">
      <ele>41.8</ele>
      <time>2019-05-24T21:19:14Z</time>
    </trkpt>
    <trkpt lat="50.9396973" lon="6.9734792">
      <ele>38.8</ele>
      <time>2019-05-24T21:19:29Z</time>
    </trkpt>
    <trkpt lat="50.9396975" lon="6.9734765">
      <ele>38.6</ele>
      <time>2019-05-24T21:19:32Z</time>
    </trkpt>
    <trkpt lat="50.9397832" lon="6.9773489">
      <ele>38.6</ele>
      <time>2019-05-24T21:21:21Z</time>
    </trkpt>
    <trkpt lat="50.9397768" lon="6.9774119">
      <ele>38.6</ele>
      <time>2019-05-24T21:21:22Z</time>
    </trkpt>
    <trkpt lat="50.9397652" lon="6.9775352">
      <ele>38.8</ele>
      <time>2019-05-24T21:21:24Z</time>
    </trkpt>
    <trkpt lat="50.9397526" lon="6.9776630">
      <ele>38.8</ele>
      <time>2019-05-24T21:21:26Z</time>
    </trkpt>
    <trkpt lat="50.9397461" lon="6.9777274">
      <ele>39.0</ele>
      <time>2019-05-24T21:21:27Z</time>
    </trkpt>
    <trkpt lat="50.9397321" lon="6.9779948">
      <ele>39.2</ele>
      <time>2019-05-24T21:21:31Z</time>
    </trkpt>
    <trkpt lat="50.9397312" lon="6.9780622">
      <ele>39.2</ele>
      <time>2019-05-24T21:21:32Z</time>
    </trkpt>
    <trkpt lat="50.9397272" lon="6.9781316">
      <ele>39.2</ele>
      <time>2019-05-24T21:21:33Z</time>
    </trkpt>
    <trkpt lat="50.9397198" lon="6.9784756">
      <ele>38.8</ele>
      <time>2019-05-24T21:21:38Z</time>
    </trkpt>
    <trkpt lat="50.9397951" lon="6.9788513">
      <ele>38.8</ele>
      <time>2019-05-24T21:21:44Z</time>
    </trkpt>
    <trkpt lat="50.9398180" lon="6.9789224">
      <ele>39.2</ele>
      <time>2019-05-24T21:21:46Z</time>
    </trkpt>
    <trkpt lat="50.9398519" lon="6.9789718">
      <ele>39.6</ele>
      <time>2019-05-24T21:21:48Z</time>
    </trkpt>
    <trkpt lat="50.9403293" lon="6.9793836">
      <ele>50.6</ele>
      <time>2019-05-24T21:22:05Z</time>
    </trkpt>
    <trkpt lat="50.9408318" lon="6.9795451">
      <ele>37.0</ele>
      <time>2019-05-24T21:22:24Z</time>
    </trkpt>
    <trkpt lat="50.9410437" lon="6.9787417">
      <ele>32.8</ele>
      <time>2019-05-24T21:22:38Z</time>
    </trkpt>
    <trkpt lat="50.9410622" lon="6.9786795">
      <ele>33.2</ele>
      <time>2019-05-24T21:22:39Z</time>
    </trkpt>
    <trkpt lat="50.9411226" lon="6.9785970">
      <ele>33.6</ele>
      <time>2019-05-24T21:22:41Z</time>
    </trkpt>
    <trkpt lat="50.9413495" lon="6.9785767">
      <ele>35.6</ele>
      <time>2019-05-24T21:22:46Z</time>
    </trkpt>
    <trkpt lat="50.9415919" lon="6.9786057">
      <ele>37.0</ele>
      <time>2019-05-24T21:22:52Z</time>
    </trkpt>
    <trkpt lat="50.9416611" lon="6.9786847">
      <ele>37.4</ele>
      <time>2019-05-24T21:22:54Z</time>
    </trkpt>
    <trkpt lat="50.9415949" lon="6.9791706">
      <ele>37.6</ele>
      <time>2019-05-24T21:23:02Z</time>
    </trkpt>
    <trkpt lat="50.9416680" lon="6.9800348">
      <ele>36.2</ele>
      <time>2019-05-24T21:23:17Z</time>
    </trkpt>
    <trkpt lat="50.9420740" lon="6.9805687">
      <ele>41.4</ele>
      <time>2019-05-24T21:23:35Z</time>
    </trkpt>
    <trkpt lat="50.9424844" lon="6.9808681">
      <ele>48.8</ele>
      <time>2019-05-24T21:23:47Z</time>
    </trkpt>
    <trkpt lat="50.9425219" lon="6.9808957">
      <ele>49.0</ele>
      <time>2019-05-24T21:23:48Z</time>
    </trkpt>
    <trkpt lat="50.9425984" lon="6.9809458">
      <ele>49.2</ele>
      <time>2019-05-24T21:23:50Z</time>
    </trkpt>
    <trkpt lat="50.9426725" lon="6.9809887">
      <ele>48.8</ele>
      <time>2019-05-24T21:23:52Z</time>
    </trkpt>
    <trkpt lat="50.9427047" lon="6.9810123">
      <ele>48.4</ele>
      <time>2019-05-24T21:23:53Z</time>
    </trkpt>
    <trkpt lat="50.9427373" lon="6.9810355">
      <ele>48.0</ele>
      <time>2019-05-24T21:23:54Z</time>
    </trkpt>
    <trkpt lat="50.9428024" lon="6.9810876">
      <ele>46.2</ele>
      <time>2019-05-24T21:23:56Z</time>
    </trkpt>
    <trkpt lat="50.9428341" lon="6.9811115">
      <ele>45.8</ele>
      <time>2019-05-24T21:23:57Z</time>
    </trkpt>
    <trkpt lat="50.9428987" lon="6.9811589">
      <ele>47.4</ele>
      <time>2019-05-24T21:23:59Z</time>
    </trkpt>
    <trkpt lat="50.9430738" lon="6.9812830">
      <ele>49.6</ele>
      <time>2019-05-24T21:24:05Z</time>
    </trkpt>
    <trkpt lat="50.9431053" lon="6.9813006">
      <ele>49.8</ele>
      <time>2019-05-24T21:24:06Z</time>
    </trkpt>
    <trkpt lat="50.9431705" lon="6.9813334">
      <ele>50.4</ele>
      <time>2019-05-24T21:24:08Z</time>
    </trkpt>
    <trkpt lat="50.9432009" lon="6.9813537">
      <ele>50.4</ele>
      <time>2019-05-24T21:24:09Z</time>
    </trkpt>
    <trkpt lat="50.9432284" lon="6.9813734">
      <ele>50.2</ele>
      <time>2019-05-24T21:24:10Z</time>
    </trkpt>
    <trkpt lat="50.9432557" lon="6.9813887">
      <ele>49.8</ele>
      <time>2019-05-24T21:24:11Z</time>
    </trkpt>
    <trkpt lat="50.9432842" lon="6.9814095">
      <ele>49.8</ele>
      <time>2019-05-24T21:24:12Z</time>
    </trkpt>
    <trkpt lat="50.9434257" lon="6.9815278">
      <ele>50.6</ele>
      <time>2019-05-24T21:24:17Z</time>
    </trkpt>
    <trkpt lat="50.9435308" lon="6.9816567">
      <ele>52.0</ele>
      <time>2019-05-24T21:24:21Z</time>
    </trkpt>
    <trkpt lat="50.9436352" lon="6.9817693">
      <ele>53.2</ele>
      <time>2019-05-24T21:24:25Z</time>
    </trkpt>
    <trkpt lat="50.9436629" lon="6.9817957">
      <ele>53.0</ele>
      <time>2019-05-24T21:24:26Z</time>
    </trkpt>
    <trkpt lat="50.9436899" lon="6.9818243">
      <ele>52.6</ele>
      <time>2019-05-24T21:24:27Z</time>
    </trkpt>
    <trkpt lat="50.9437489" lon="6.9818829">
      <ele>52.4</ele>
      <time>2019-05-24T21:24:29Z</time>
    </trkpt>
    <trkpt lat="50.9438046" lon="6.9819445">
      <ele>52.4</ele>
      <time>2019-05-24T21:24:31Z</time>
    </trkpt>
    <trkpt lat="50.9440221" lon="6.9821592">
      <ele>51.4</ele>
      <time>2019-05-24T21:24:39Z</time>
    </trkpt>
    <trkpt lat="50.9440458" lon="6.9821792">
      <ele>51.4</ele>
      <time>2019-05-24T21:24:40Z</time>
    </trkpt>
    <trkpt lat="50.9440982" lon="6.9822273">
      <ele>51.6</ele>
      <time>2019-05-24T21:24:42Z</time>
    </trkpt>
    <trkpt lat="50.9441645" lon="6.9822763">
      <ele>51.2</ele>
      <time>2019-05-24T21:24:44Z</time>
    </trkpt>
    <trkpt lat="50.9442739" lon="6.9823567">
      <ele>49.6</ele>
      <time>2019-05-24T21:24:47Z</time>
    </trkpt>
    <trkpt lat="50.9445436" lon="6.9826293">
      <ele>49.0</ele>
      <time>2019-05-24T21:24:55Z</time>
    </trkpt>
    <trkpt lat="50.9446565" lon="6.9827837">
      <ele>48.2</ele>
      <time>2019-05-24T21:24:59Z</time>
    </trkpt>
    <trkpt lat="50.9450828" lon="6.9833811">
      <ele>50.0</ele>
      <time>2019-05-24T21:25:16Z</time>
    </trkpt>
    <trkpt lat="50.9455518" lon="6.9838207">
      <ele>51.0</ele>
      <time>2019-05-24T21:25:31Z</time>
    </trkpt>
    <trkpt lat="50.9460593" lon="6.9842597">
      <ele>46.8</ele>
      <time>2019-05-24T21:25:45Z</time>
    </trkpt>
    <trkpt lat="50.9465653" lon="6.9846402">
      <ele>46.6</ele>
      <time>2019-05-24T21:25:59Z</time>
    </trkpt>
    <trkpt lat="50.9470704" lon="6.9850729">
      <ele>45.6</ele>
      <time>2019-05-24T21:26:14Z</time>
    </trkpt>
    <trkpt lat="50.9475453" lon="6.9855150">
      <ele>45.6</ele>
      <time>2019-05-24T21:26:33Z</time>
    </trkpt>
    <trkpt lat="50.9475436" lon="6.9855866">
      <ele>47.0</ele>
      <time>2019-05-24T21:26:35Z</time>
    </trkpt>
    <trkpt lat="50.9477477" lon="6.9859362">
      <ele>43.2</ele>
      <time>2019-05-24T21:26:47Z</time>
    </trkpt>
    <trkpt lat="50.9478336" lon="6.9859851">
      <ele>43.2</ele>
      <time>2019-05-24T21:26:49Z</time>
    </trkpt>
    <trkpt lat="50.9483438" lon="6.9863996">
      <ele>50.0</ele>
      <time>2019-05-24T21:27:02Z</time>
    </trkpt>
    <trkpt lat="50.9488478" lon="6.9867841">
      <ele>53.8</ele>
      <time>2019-05-24T21:27:14Z</time>
    </trkpt>
    <trkpt lat="50.9493396" lon="6.9871654">
      <ele>65.4</ele>
      <time>2019-05-24T21:27:27Z</time>
    </trkpt>
    <trkpt lat="50.9498367" lon="6.9876264">
      <ele>60.6</ele>
      <time>2019-05-24T21:27:40Z</time>
    </trkpt>
    <trkpt lat="50.9503048" lon="6.9880698">
      <ele>55.4</ele>
      <time>2019-05-24T21:27:53Z</time>
    </trkpt>
    <trkpt lat="50.9507810" lon="6.9884880">
      <ele>52.6</ele>
      <time>2019-05-24T21:28:07Z</time>
    </trkpt>
    <trkpt lat="50.9512628" lon="6.9889107">
      <ele>50.0</ele>
      <time>2019-05-24T21:28:20Z</time>
    </trkpt>
    <trkpt lat="50.9517553" lon="6.9893516">
      <ele>51.0</ele>
      <time>2019-05-24T21:28:34Z</time>
    </trkpt>
    <trkpt lat="50.9516879" lon="6.9901278">
      <ele>57.0</ele>
      <time>2019-05-24T21:28:52Z</time>
    </trkpt>
    <trkpt lat="50.9520283" lon="6.9907417">
      <ele>61.2</ele>
      <time>2019-05-24T21:29:08Z</time>
    </trkpt>
    <trkpt lat="50.9519000" lon="6.9914799">
      <ele>63.0</ele>
      <time>2019-05-24T21:29:20Z</time>
    </trkpt>
    <trkpt lat="50.9519100" lon="6.9916582">
      <ele>61.2</ele>
      <time>2019-05-24T21:29:24Z</time>
    </trkpt>
    <trkpt lat="50.9523848" lon="6.9920713">
      <ele>50.2</ele>
      <time>2019-05-24T21:29:42Z</time>
    </trkpt>
    <trkpt lat="50.9524739" lon="6.9926647">
      <ele>45.0</ele>
      <time>2019-05-24T21:30:02Z</time>
    </trkpt>
    <trkpt lat="50.9523106" lon="6.9925995">
      <ele>46.0</ele>
      <time>2019-05-24T21:30:08Z</time>
    </trkpt>
    <trkpt lat="50.9520925" lon="6.9926021">
      <ele>51.2</ele>
      <time>2019-05-24T21:30:18Z</time>
    </trkpt>
    <trkpt lat="50.9520700" lon="6.9926143">
      <ele>56.6</ele>
      <time>2019-05-24T21:30:35Z</time>
    </trkpt>
    <trkpt lat="50.9520689" lon="6.9926239">
      <ele>57.2</ele>
      <time>2019-05-24T21:30:40Z</time>
    </trkpt>
    <trkpt lat="50.9520248" lon="6.9926647">
      <ele>59.0</ele>
      <time>2019-05-24T21:31:00Z</time>
    </trkpt>
    <trkpt lat="50.9520303" lon="6.9926514">
      <ele>59.2</ele>
      <time>2019-05-24T21:31:05Z</time>
    </trkpt>
    <trkpt lat="50.9520281" lon="6.9926668">
      <ele>59.6</ele>
      <time>2019-05-24T21:31:08Z</time>
    </trkpt>
    <trkpt lat="50.9520226" lon="6.9926873">
      <ele>60.4</ele>
      <time>2019-05-24T21:31:11Z</time>
    </trkpt>
    <trkpt lat="50.9520189" lon="6.9926910">
      <ele>60.6</ele>
      <time>2019-05-24T21:31:13Z</time>
    </trkpt>
    <trkpt lat="50.9520146" lon="6.9926974">
      <ele>60.8</ele>
      <time>2019-05-24T21:31:16Z</time>
    </trkpt>
    <trkpt lat="50.9520089" lon="6.9927042">
      <ele>61.4</ele>
      <time>2019-05-24T21:31:19Z</time>
    </trkpt>
    <trkpt lat="50.9520017" lon="6.9927173">
      <ele>62.0</ele>
      <time>2019-05-24T21:31:23Z</time>
    </trkpt>
    <trkpt lat="50.9519900" lon="6.9927327">
      <ele>62.4</ele>
      <time>2019-05-24T21:31:28Z</time>
    </trkpt>
    <trkpt lat="50.9519805" lon="6.9927467">
      <ele>63.2</ele>
      <time>2019-05-24T21:31:33Z</time>
    </trkpt>
  </trkseg></trk>
</gpx>
