<?xml version="1.0" encoding="UTF-8"?>
<gpx version="1.1" creator="Diary FIT converter" xmlns="http://www.topografix.com/GPX/1/1">
  <trk><name>Cycling</name><trkseg>
    <trkpt lat="50.9657692" lon="6.8806799">
      <time>2022-05-26T10:05:00Z</time>
    </trkpt>
    <trkpt lat="50.9659496" lon="6.8807789">
      <time>2022-05-26T10:05:03Z</time>
    </trkpt>
    <trkpt lat="50.9662844" lon="6.8811087">
      <time>2022-05-26T10:05:11Z</time>
    </trkpt>
    <trkpt lat="50.9663361" lon="6.8811897">
      <time>2022-05-26T10:05:15Z</time>
    </trkpt>
    <trkpt lat="50.9663361" lon="6.8811897">
      <time>2022-05-26T10:05:17Z</time>
    </trkpt>
    <trkpt lat="50.9663673" lon="6.8812376">
      <time>2022-05-26T10:05:43Z</time>
    </trkpt>
    <trkpt lat="50.9664054" lon="6.8813043">
      <time>2022-05-26T10:05:45Z</time>
    </trkpt>
    <trkpt lat="50.9665849" lon="6.8814589">
      <time>2022-05-26T10:05:50Z</time>
    </trkpt>
    <trkpt lat="50.9668633" lon="6.8817351">
      <time>2022-05-26T10:05:55Z</time>
    </trkpt>
    <trkpt lat="50.9671169" lon="6.8820011">
      <time>2022-05-26T10:05:59Z</time>
    </trkpt>
    <trkpt lat="50.9671848" lon="6.8820589">
      <time>2022-05-26T10:06:00Z</time>
    </trkpt>
    <trkpt lat="50.9673187" lon="6.8821768">
      <time>2022-05-26T10:06:02Z</time>
    </trkpt>
    <trkpt lat="50.9675073" lon="6.8823942">
      <time>2022-05-26T10:06:05Z</time>
    </trkpt>
    <trkpt lat="50.9679532" lon="6.8828567">
      <time>2022-05-26T10:06:12Z</time>
    </trkpt>
    <trkpt lat="50.9683064" lon="6.8832461">
      <time>2022-05-26T10:06:18Z</time>
    </trkpt>
    <trkpt lat="50.9687193" lon="6.8837096">
      <time>2022-05-26T10:06:25Z</time>
    </trkpt>
    <trkpt lat="50.9690845" lon="6.8840689">
      <time>2022-05-26T10:06:31Z</time>
    </trkpt>
    <trkpt lat="50.9691384" lon="6.8841269">
      <time>2022-05-26T10:06:32Z</time>
    </trkpt>
    <trkpt lat="50.9696008" lon="6.8845881">
      <time>2022-05-26T10:06:40Z</time>
    </trkpt>
    <trkpt lat="50.9701022" lon="6.8850162">
      <time>2022-05-26T10:06:48Z</time>
    </trkpt>
    <trkpt lat="50.9704716" lon="6.8853859">
      <time>2022-05-26T10:06:54Z</time>
    </trkpt>
    <trkpt lat="50.9707571" lon="6.8857687">
      <time>2022-05-26T10:07:00Z</time>
    </trkpt>
    <trkpt lat="50.9709407" lon="6.8860104">
      <time>2022-05-26T10:07:04Z</time>
    </trkpt>
    <trkpt lat="50.9710421" lon="6.8861228">
      <time>2022-05-26T10:07:06Z</time>
    </trkpt>
    <trkpt lat="50.9713423" lon="6.8864393">
      <time>2022-05-26T10:07:12Z</time>
    </trkpt>
    <trkpt lat="50.9715016" lon="6.8865857">
      <time>2022-05-26T10:07:15Z</time>
    </trkpt>
    <trkpt lat="50.9716426" lon="6.8867674">
      <time>2022-05-26T10:07:18Z</time>
    </trkpt>
    <trkpt lat="50.9718411" lon="6.8870227">
      <time>2022-05-26T10:07:22Z</time>
    </trkpt>
    <trkpt lat="50.9718629" lon="6.8871223">
      <time>2022-05-26T10:07:23Z</time>
    </trkpt>
    <trkpt lat="50.9718630" lon="6.8872209">
      <time>2022-05-26T10:07:24Z</time>
    </trkpt>
    <trkpt lat="50.9718297" lon="6.8873828">
      <time>2022-05-26T10:07:26Z</time>
    </trkpt>
    <trkpt lat="50.9716174" lon="6.8880511">
      <time>2022-05-26T10:07:34Z</time>
    </trkpt>
    <trkpt lat="50.9715888" lon="6.8881456">
      <time>2022-05-26T10:07:35Z</time>
    </trkpt>
    <trkpt lat="50.9715571" lon="6.8882397">
      <time>2022-05-26T10:07:36Z</time>
    </trkpt>
    <trkpt lat="50.9713630" lon="6.8887913">
      <time>2022-05-26T10:07:42Z</time>
    </trkpt>
    <trkpt lat="50.9712962" lon="6.8889840">
      <time>2022-05-26T10:07:44Z</time>
    </trkpt>
    <trkpt lat="50.9710821" lon="6.8895901">
      <time>2022-05-26T10:07:51Z</time>
    </trkpt>
    <trkpt lat="50.9709299" lon="6.8899910">
      <time>2022-05-26T10:07:57Z</time>
    </trkpt>
    <trkpt lat="50.9708629" lon="6.8901671">
      <time>2022-05-26T10:08:00Z</time>
    </trkpt>
    <trkpt lat="50.9707647" lon="6.8903961">
      <time>2022-05-26T10:08:04Z</time>
    </trkpt>
    <trkpt lat="50.9706998" lon="6.8906256">
      <time>2022-05-26T10:08:09Z</time>
    </trkpt>
    <trkpt lat="50.9707305" lon="6.8907481">
      <time>2022-05-26T10:08:12Z</time>
    </trkpt>
    <trkpt lat="50.9708627" lon="6.8907586">
      <time>2022-05-26T10:08:16Z</time>
    </trkpt>
    <trkpt lat="50.9709047" lon="6.8907577">
      <time>2022-05-26T10:08:17Z</time>
    </trkpt>
    <trkpt lat="50.9709926" lon="6.8907526">
      <time>2022-05-26T10:08:19Z</time>
    </trkpt>
    <trkpt lat="50.9710382" lon="6.8907447">
      <time>2022-05-26T10:08:20Z</time>
    </trkpt>
    <trkpt lat="50.9710872" lon="6.8907375">
      <time>2022-05-26T10:08:21Z</time>
    </trkpt>
    <trkpt lat="50.9713258" lon="6.8907206">
      <time>2022-05-26T10:08:26Z</time>
    </trkpt>
    <trkpt lat="50.9716141" lon="6.8907385">
      <time>2022-05-26T10:08:33Z</time>
    </trkpt>
    <trkpt lat="50.9716483" lon="6.8907544">
      <time>2022-05-26T10:08:34Z</time>
    </trkpt>
    <trkpt lat="50.9717497" lon="6.8908706">
      <time>2022-05-26T10:08:37Z</time>
    </trkpt>
    <trkpt lat="50.9718344" lon="6.8909320">
      <time>2022-05-26T10:08:39Z</time>
    </trkpt>
    <trkpt lat="50.9718874" lon="6.8909369">
      <time>2022-05-26T10:08:40Z</time>
    </trkpt>
    <trkpt lat="50.9721222" lon="6.8909608">
      <time>2022-05-26T10:08:44Z</time>
    </trkpt>
    <trkpt lat="50.9721725" lon="6.8910023">
      <time>2022-05-26T10:08:45Z</time>
    </trkpt>
    <trkpt lat="50.9722091" lon="6.8910597">
      <time>2022-05-26T10:08:46Z</time>
    </trkpt>
    <trkpt lat="50.9722429" lon="6.8912310">
      <time>2022-05-26T10:08:48Z</time>
    </trkpt>
    <trkpt lat="50.9722611" lon="6.8915424">
      <time>2022-05-26T10:08:51Z</time>
    </trkpt>
    <trkpt lat="50.9722680" lon="6.8917700">
      <time>2022-05-26T10:08:53Z</time>
    </trkpt>
    <trkpt lat="50.9722503" lon="6.8926660">
      <time>2022-05-26T10:09:01Z</time>
    </trkpt>
    <trkpt lat="50.9722616" lon="6.8932010">
      <time>2022-05-26T10:09:06Z</time>
    </trkpt>
    <trkpt lat="50.9722611" lon="6.8934142">
      <time>2022-05-26T10:09:08Z</time>
    </trkpt>
    <trkpt lat="50.9722610" lon="6.8939320">
      <time>2022-05-26T10:09:13Z</time>
    </trkpt>
    <trkpt lat="50.9722694" lon="6.8940386">
      <time>2022-05-26T10:09:14Z</time>
    </trkpt>
    <trkpt lat="50.9722830" lon="6.8941495">
      <time>2022-05-26T10:09:15Z</time>
    </trkpt>
    <trkpt lat="50.9723663" lon="6.8945402">
      <time>2022-05-26T10:09:19Z</time>
    </trkpt>
    <trkpt lat="50.9724693" lon="6.8947957">
      <time>2022-05-26T10:09:22Z</time>
    </trkpt>
    <trkpt lat="50.9725680" lon="6.8949457">
      <time>2022-05-26T10:09:24Z</time>
    </trkpt>
    <trkpt lat="50.9726734" lon="6.8950665">
      <time>2022-05-26T10:09:26Z</time>
    </trkpt>
    <trkpt lat="50.9728343" lon="6.8952400">
      <time>2022-05-26T10:09:29Z</time>
    </trkpt>
    <trkpt lat="50.9731748" lon="6.8956005">
      <time>2022-05-26T10:09:35Z</time>
    </trkpt>
    <trkpt lat="50.9735535" lon="6.8959495">
      <time>2022-05-26T10:09:41Z</time>
    </trkpt>
    <trkpt lat="50.9739783" lon="6.8963728">
      <time>2022-05-26T10:09:48Z</time>
    </trkpt>
    <trkpt lat="50.9743118" lon="6.8967440">
      <time>2022-05-26T10:09:54Z</time>
    </trkpt>
    <trkpt lat="50.9746659" lon="6.8970696">
      <time>2022-05-26T10:10:00Z</time>
    </trkpt>
    <trkpt lat="50.9750165" lon="6.8971916">
      <time>2022-05-26T10:10:05Z</time>
    </trkpt>
    <trkpt lat="50.9754275" lon="6.8971929">
      <time>2022-05-26T10:10:11Z</time>
    </trkpt>
    <trkpt lat="50.9758281" lon="6.8972058">
      <time>2022-05-26T10:10:17Z</time>
    </trkpt>
    <trkpt lat="50.9758963" lon="6.8972087">
      <time>2022-05-26T10:10:18Z</time>
    </trkpt>
    <trkpt lat="50.9763969" lon="6.8972048">
      <time>2022-05-26T10:10:25Z</time>
    </trkpt>
    <trkpt lat="50.9769901" lon="6.8972071">
      <time>2022-05-26T10:10:34Z</time>
    </trkpt>
    <trkpt lat="50.9773419" lon="6.8972267">
      <time>2022-05-26T10:10:40Z</time>
    </trkpt>
    <trkpt lat="50.9775003" lon="6.8972335">
      <time>2022-05-26T10:10:44Z</time>
    </trkpt>
    <trkpt lat="50.9775674" lon="6.8972553">
      <time>2022-05-26T10:10:49Z</time>
    </trkpt>
    <trkpt lat="50.9776210" lon="6.8974316">
      <time>2022-05-26T10:10:54Z</time>
    </trkpt>
    <trkpt lat="50.9776219" lon="6.8976415">
      <time>2022-05-26T10:10:57Z</time>
    </trkpt>
    <trkpt lat="50.9776253" lon="6.8977250">
      <time>2022-05-26T10:10:58Z</time>
    </trkpt>
    <trkpt lat="50.9776289" lon="6.8980028">
      <time>2022-05-26T10:11:01Z</time>
    </trkpt>
    <trkpt lat="50.9776262" lon="6.8983303">
      <time>2022-05-26T10:11:04Z</time>
    </trkpt>
    <trkpt lat="50.9776244" lon="6.8988039">
      <time>2022-05-26T10:11:08Z</time>
    </trkpt>
    <trkpt lat="50.9776056" lon="6.8991650">
      <time>2022-05-26T10:11:11Z</time>
    </trkpt>
    <trkpt lat="50.9775770" lon="6.8996311">
      <time>2022-05-26T10:11:15Z</time>
    </trkpt>
    <trkpt lat="50.9775580" lon="6.9002509">
      <time>2022-05-26T10:11:20Z</time>
    </trkpt>
    <trkpt lat="50.9775517" lon="6.9011769">
      <time>2022-05-26T10:11:28Z</time>
    </trkpt>
    <trkpt lat="50.9775397" lon="6.9016146">
      <time>2022-05-26T10:11:32Z</time>
    </trkpt>
    <trkpt lat="50.9775147" lon="6.9019064">
      <time>2022-05-26T10:11:35Z</time>
    </trkpt>
    <trkpt lat="50.9775046" lon="6.9023342">
      <time>2022-05-26T10:11:40Z</time>
    </trkpt>
    <trkpt lat="50.9774876" lon="6.9025130">
      <time>2022-05-26T10:11:42Z</time>
    </trkpt>
    <trkpt lat="50.9774782" lon="6.9028210">
      <time>2022-05-26T10:11:45Z</time>
    </trkpt>
    <trkpt lat="50.9773691" lon="6.9033643">
      <time>2022-05-26T10:11:50Z</time>
    </trkpt>
    <trkpt lat="50.9772517" lon="6.9039184">
      <time>2022-05-26T10:11:55Z</time>
    </trkpt>
    <trkpt lat="50.9770880" lon="6.9047299">
      <time>2022-05-26T10:12:02Z</time>
    </trkpt>
    <trkpt lat="50.9770012" lon="6.9049151">
      <time>2022-05-26T10:12:04Z</time>
    </trkpt>
    <trkpt lat="50.9769721" lon="6.9050215">
      <time>2022-05-26T10:12:05Z</time>
    </trkpt>
    <trkpt lat="50.9768533" lon="6.9057377">
      <time>2022-05-26T10:12:11Z</time>
    </trkpt>
    <trkpt lat="50.9767388" lon="6.9065141">
      <time>2022-05-26T10:12:17Z</time>
    </trkpt>
    <trkpt lat="50.9766596" lon="6.9068869">
      <time>2022-05-26T10:12:20Z</time>
    </trkpt>
    <trkpt lat="50.9765509" lon="6.9072377">
      <time>2022-05-26T10:12:23Z</time>
    </trkpt>
    <trkpt lat="50.9764255" lon="6.9076847">
      <time>2022-05-26T10:12:27Z</time>
    </trkpt>
    <trkpt lat="50.9763162" lon="6.9079727">
      <time>2022-05-26T10:12:30Z</time>
    </trkpt>
    <trkpt lat="50.9762592" lon="6.9080950">
      <time>2022-05-26T10:12:31Z</time>
    </trkpt>
    <trkpt lat="50.9761032" lon="6.9083500">
      <time>2022-05-26T10:12:34Z</time>
    </trkpt>
    <trkpt lat="50.9757668" lon="6.9088366">
      <time>2022-05-26T10:12:40Z</time>
    </trkpt>
    <trkpt lat="50.9755226" lon="6.9091848">
      <time>2022-05-26T10:12:45Z</time>
    </trkpt>
    <trkpt lat="50.9752056" lon="6.9096309">
      <time>2022-05-26T10:12:51Z</time>
    </trkpt>
    <trkpt lat="50.9748456" lon="6.9101283">
      <time>2022-05-26T10:12:57Z</time>
    </trkpt>
    <trkpt lat="50.9745120" lon="6.9105567">
      <time>2022-05-26T10:13:02Z</time>
    </trkpt>
    <trkpt lat="50.9741343" lon="6.9110884">
      <time>2022-05-26T10:13:08Z</time>
    </trkpt>
    <trkpt lat="50.9737063" lon="6.9117186">
      <time>2022-05-26T10:13:15Z</time>
    </trkpt>
    <trkpt lat="50.9736490" lon="6.9118143">
      <time>2022-05-26T10:13:16Z</time>
    </trkpt>
    <trkpt lat="50.9734189" lon="6.9121579">
      <time>2022-05-26T10:13:20Z</time>
    </trkpt>
    <trkpt lat="50.9733672" lon="6.9122212">
      <time>2022-05-26T10:13:21Z</time>
    </trkpt>
    <trkpt lat="50.9730718" lon="6.9125830">
      <time>2022-05-26T10:13:26Z</time>
    </trkpt>
    <trkpt lat="50.9726746" lon="6.9131841">
      <time>2022-05-26T10:13:33Z</time>
    </trkpt>
    <trkpt lat="50.9726197" lon="6.9132653">
      <time>2022-05-26T10:13:34Z</time>
    </trkpt>
    <trkpt lat="50.9724814" lon="6.9134953">
      <time>2022-05-26T10:13:37Z</time>
    </trkpt>
    <trkpt lat="50.9724079" lon="6.9136049">
      <time>2022-05-26T10:13:39Z</time>
    </trkpt>
    <trkpt lat="50.9722984" lon="6.9138043">
      <time>2022-05-26T10:13:44Z</time>
    </trkpt>
    <trkpt lat="50.9721854" lon="6.9139616">
      <time>2022-05-26T10:13:47Z</time>
    </trkpt>
    <trkpt lat="50.9720257" lon="6.9141237">
      <time>2022-05-26T10:13:50Z</time>
    </trkpt>
    <trkpt lat="50.9717220" lon="6.9145328">
      <time>2022-05-26T10:13:57Z</time>
    </trkpt>
    <trkpt lat="50.9715060" lon="6.9148711">
      <time>2022-05-26T10:14:02Z</time>
    </trkpt>
    <trkpt lat="50.9714114" lon="6.9149902">
      <time>2022-05-26T10:14:04Z</time>
    </trkpt>
    <trkpt lat="50.9713679" lon="6.9150501">
      <time>2022-05-26T10:14:05Z</time>
    </trkpt>
    <trkpt lat="50.9711123" lon="6.9153785">
      <time>2022-05-26T10:14:10Z</time>
    </trkpt>
    <trkpt lat="50.9706823" lon="6.9159645">
      <time>2022-05-26T10:14:19Z</time>
    </trkpt>
    <trkpt lat="50.9704549" lon="6.9162330">
      <time>2022-05-26T10:14:24Z</time>
    </trkpt>
    <trkpt lat="50.9703688" lon="6.9163280">
      <time>2022-05-26T10:14:26Z</time>
    </trkpt>
    <trkpt lat="50.9703287" lon="6.9163714">
      <time>2022-05-26T10:14:27Z</time>
    </trkpt>
    <trkpt lat="50.9702558" lon="6.9164785">
      <time>2022-05-26T10:14:29Z</time>
    </trkpt>
    <trkpt lat="50.9700954" lon="6.9166988">
      <time>2022-05-26T10:14:34Z</time>
    </trkpt>
    <trkpt lat="50.9700249" lon="6.9167944">
      <time>2022-05-26T10:14:36Z</time>
    </trkpt>
    <trkpt lat="50.9699040" lon="6.9169398">
      <time>2022-05-26T10:14:39Z</time>
    </trkpt>
    <trkpt lat="50.9698058" lon="6.9171022">
      <time>2022-05-26T10:14:43Z</time>
    </trkpt>
    <trkpt lat="50.9697262" lon="6.9172487">
      <time>2022-05-26T10:14:48Z</time>
    </trkpt>
    <trkpt lat="50.9696728" lon="6.9172998">
      <time>2022-05-26T10:14:51Z</time>
    </trkpt>
    <trkpt lat="50.9696537" lon="6.9173126">
      <time>2022-05-26T10:14:53Z</time>
    </trkpt>
    <trkpt lat="50.9696505" lon="6.9173140">
      <time>2022-05-26T10:14:56Z</time>
    </trkpt>
    <trkpt lat="50.9696267" lon="6.9173622">
      <time>2022-05-26T10:15:10Z</time>
    </trkpt>
    <trkpt lat="50.9696037" lon="6.9174001">
      <time>2022-05-26T10:15:11Z</time>
    </trkpt>
    <trkpt lat="50.9694924" lon="6.9175753">
      <time>2022-05-26T10:15:15Z</time>
    </trkpt>
    <trkpt lat="50.9694899" lon="6.9176360">
      <time>2022-05-26T10:15:16Z</time>
    </trkpt>
    <trkpt lat="50.9695054" lon="6.9176937">
      <time>2022-05-26T10:15:17Z</time>
    </trkpt>
    <trkpt lat="50.9695694" lon="6.9178138">
      <time>2022-05-26T10:15:19Z</time>
    </trkpt>
    <trkpt lat="50.9696008" lon="6.9179700">
      <time>2022-05-26T10:15:21Z</time>
    </trkpt>
    <trkpt lat="50.9696026" lon="6.9180444">
      <time>2022-05-26T10:15:22Z</time>
    </trkpt>
    <trkpt lat="50.9696168" lon="6.9181006">
      <time>2022-05-26T10:15:23Z</time>
    </trkpt>
    <trkpt lat="50.9696478" lon="6.9181323">
      <time>2022-05-26T10:15:24Z</time>
    </trkpt>
    <trkpt lat="50.9697374" lon="6.9181776">
      <time>2022-05-26T10:15:26Z</time>
    </trkpt>
    <trkpt lat="50.9698280" lon="6.9182601">
      <time>2022-05-26T10:15:28Z</time>
    </trkpt>
    <trkpt lat="50.9698706" lon="6.9183222">
      <time>2022-05-26T10:15:29Z</time>
    </trkpt>
    <trkpt lat="50.9700827" lon="6.9186929">
      <time>2022-05-26T10:15:34Z</time>
    </trkpt>
    <trkpt lat="50.9701219" lon="6.9187665">
      <time>2022-05-26T10:15:35Z</time>
    </trkpt>
    <trkpt lat="50.9703298" lon="6.9191493">
      <time>2022-05-26T10:15:40Z</time>
    </trkpt>
    <trkpt lat="50.9704144" lon="6.9192324">
      <time>2022-05-26T10:15:41Z</time>
    </trkpt>
    <trkpt lat="50.9704694" lon="6.9193944">
      <time>2022-05-26T10:15:42Z</time>
    </trkpt>
    <trkpt lat="50.9704985" lon="6.9194782">
      <time>2022-05-26T10:15:43Z</time>
    </trkpt>
    <trkpt lat="50.9704656" lon="6.9195817">
      <time>2022-05-26T10:15:44Z</time>
    </trkpt>
    <trkpt lat="50.9704031" lon="6.9197750">
      <time>2022-05-26T10:15:46Z</time>
    </trkpt>
    <trkpt lat="50.9703196" lon="6.9200854">
      <time>2022-05-26T10:15:49Z</time>
    </trkpt>
    <trkpt lat="50.9702772" lon="6.9202990">
      <time>2022-05-26T10:15:51Z</time>
    </trkpt>
    <trkpt lat="50.9702697" lon="6.9204126">
      <time>2022-05-26T10:15:52Z</time>
    </trkpt>
    <trkpt lat="50.9702701" lon="6.9205278">
      <time>2022-05-26T10:15:53Z</time>
    </trkpt>
    <trkpt lat="50.9702747" lon="6.9209752">
      <time>2022-05-26T10:15:58Z</time>
    </trkpt>
    <trkpt lat="50.9702801" lon="6.9210630">
      <time>2022-05-26T10:16:00Z</time>
    </trkpt>
    <trkpt lat="50.9702699" lon="6.9211006">
      <time>2022-05-26T10:16:01Z</time>
    </trkpt>
    <trkpt lat="50.9702609" lon="6.9211124">
      <time>2022-05-26T10:16:02Z</time>
    </trkpt>
    <trkpt lat="50.9701962" lon="6.9211276">
      <time>2022-05-26T10:16:04Z</time>
    </trkpt>
    <trkpt lat="50.9700192" lon="6.9212546">
      <time>2022-05-26T10:16:10Z</time>
    </trkpt>
    <trkpt lat="50.9699732" lon="6.9214205">
      <time>2022-05-26T10:16:14Z</time>
    </trkpt>
    <trkpt lat="50.9699455" lon="6.9216460">
      <time>2022-05-26T10:16:17Z</time>
    </trkpt>
    <trkpt lat="50.9699325" lon="6.9217369">
      <time>2022-05-26T10:16:18Z</time>
    </trkpt>
    <trkpt lat="50.9698566" lon="6.9222620">
      <time>2022-05-26T10:16:24Z</time>
    </trkpt>
    <trkpt lat="50.9698299" lon="6.9225183">
      <time>2022-05-26T10:16:27Z</time>
    </trkpt>
    <trkpt lat="50.9697679" lon="6.9227919">
      <time>2022-05-26T10:16:30Z</time>
    </trkpt>
    <trkpt lat="50.9697511" lon="6.9228883">
      <time>2022-05-26T10:16:31Z</time>
    </trkpt>
    <trkpt lat="50.9697316" lon="6.9230844">
      <time>2022-05-26T10:16:33Z</time>
    </trkpt>
    <trkpt lat="50.9696871" lon="6.9234090">
      <time>2022-05-26T10:16:36Z</time>
    </trkpt>
    <trkpt lat="50.9695594" lon="6.9240189">
      <time>2022-05-26T10:16:42Z</time>
    </trkpt>
    <trkpt lat="50.9695303" lon="6.9242127">
      <time>2022-05-26T10:16:44Z</time>
    </trkpt>
    <trkpt lat="50.9694462" lon="6.9249687">
      <time>2022-05-26T10:16:51Z</time>
    </trkpt>
    <trkpt lat="50.9693763" lon="6.9254107">
      <time>2022-05-26T10:16:55Z</time>
    </trkpt>
    <trkpt lat="50.9693361" lon="6.9255949">
      <time>2022-05-26T10:16:57Z</time>
    </trkpt>
    <trkpt lat="50.9692164" lon="6.9261874">
      <time>2022-05-26T10:17:03Z</time>
    </trkpt>
    <trkpt lat="50.9691024" lon="6.9267096">
      <time>2022-05-26T10:17:08Z</time>
    </trkpt>
    <trkpt lat="50.9690739" lon="6.9268041">
      <time>2022-05-26T10:17:09Z</time>
    </trkpt>
    <trkpt lat="50.9690554" lon="6.9268994">
      <time>2022-05-26T10:17:10Z</time>
    </trkpt>
    <trkpt lat="50.9690437" lon="6.9270730">
      <time>2022-05-26T10:17:12Z</time>
    </trkpt>
    <trkpt lat="50.9690418" lon="6.9272295">
      <time>2022-05-26T10:17:14Z</time>
    </trkpt>
    <trkpt lat="50.9690448" lon="6.9273108">
      <time>2022-05-26T10:17:16Z</time>
    </trkpt>
    <trkpt lat="50.9690388" lon="6.9274386">
      <time>2022-05-26T10:17:19Z</time>
    </trkpt>
    <trkpt lat="50.9690268" lon="6.9275821">
      <time>2022-05-26T10:17:22Z</time>
    </trkpt>
    <trkpt lat="50.9690179" lon="6.9276387">
      <time>2022-05-26T10:17:23Z</time>
    </trkpt>
    <trkpt lat="50.9690024" lon="6.9276981">
      <time>2022-05-26T10:17:24Z</time>
    </trkpt>
    <trkpt lat="50.9689545" lon="6.9277896">
      <time>2022-05-26T10:17:26Z</time>
    </trkpt>
    <trkpt lat="50.9689117" lon="6.9278340">
      <time>2022-05-26T10:17:27Z</time>
    </trkpt>
    <trkpt lat="50.9688362" lon="6.9279119">
      <time>2022-05-26T10:17:29Z</time>
    </trkpt>
    <trkpt lat="50.9687998" lon="6.9280004">
      <time>2022-05-26T10:17:31Z</time>
    </trkpt>
    <trkpt lat="50.9687901" lon="6.9280435">
      <time>2022-05-26T10:17:32Z</time>
    </trkpt>
    <trkpt lat="50.9687481" lon="6.9281273">
      <time>2022-05-26T10:17:35Z</time>
    </trkpt>
    <trkpt lat="50.9687176" lon="6.9281580">
      <time>2022-05-26T10:17:37Z</time>
    </trkpt>
    <trkpt lat="50.9686735" lon="6.9282093">
      <time>2022-05-26T10:17:40Z</time>
    </trkpt>
    <trkpt lat="50.9686515" lon="6.9282238">
      <time>2022-05-26T10:17:41Z</time>
    </trkpt>
    <trkpt lat="50.9686175" lon="6.9282543">
      <time>2022-05-26T10:17:42Z</time>
    </trkpt>
    <trkpt lat="50.9685951" lon="6.9283155">
      <time>2022-05-26T10:17:45Z</time>
    </trkpt>
    <trkpt lat="50.9685905" lon="6.9283087">
      <time>2022-05-26T10:17:52Z</time>
    </trkpt>
    <trkpt lat="50.9685902" lon="6.9283010">
      <time>2022-05-26T10:17:54Z</time>
    </trkpt>
    <trkpt lat="50.9683866" lon="6.9283056">
      <time>2022-05-26T10:26:11Z</time>
    </trkpt>
    <trkpt lat="50.9683786" lon="6.9283819">
      <time>2022-05-26T10:26:21Z</time>
    </trkpt>
    <trkpt lat="50.9683704" lon="6.9282167">
      <time>2022-05-26T10:26:22Z</time>
    </trkpt>
    <trkpt lat="50.9683915" lon="6.9282025">
      <time>2022-05-26T10:26:25Z</time>
    </trkpt>
    <trkpt lat="50.9683937" lon="6.9282635">
      <time>2022-05-26T10:26:26Z</time>
    </trkpt>
    <trkpt lat="50.9683717" lon="6.9283328">
      <time>2022-05-26T10:26:30Z</time>
    </trkpt>
    <trkpt lat="50.9683556" lon="6.9283102">
      <time>2022-05-26T10:26:38Z</time>
    </trkpt>
    <trkpt lat="50.9683962" lon="6.9282134">
      <time>2022-05-26T10:26:41Z</time>
    </trkpt>
    <trkpt lat="50.9685602" lon="6.9280445">
      <time>2022-05-26T10:26:47Z</time>
    </trkpt>
    <trkpt lat="50.9686296" lon="6.9279668">
      <time>2022-05-26T10:26:49Z</time>
    </trkpt>
    <trkpt lat="50.9687409" lon="6.9278702">
      <time>2022-05-26T10:26:52Z</time>
    </trkpt>
    <trkpt lat="50.9688221" lon="6.9278567">
      <time>2022-05-26T10:26:54Z</time>
    </trkpt>
    <trkpt lat="50.9689133" lon="6.9278679">
      <time>2022-05-26T10:26:56Z</time>
    </trkpt>
    <trkpt lat="50.9689694" lon="6.9278253">
      <time>2022-05-26T10:26:58Z</time>
    </trkpt>
    <trkpt lat="50.9689869" lon="6.9277562">
      <time>2022-05-26T10:26:59Z</time>
    </trkpt>
    <trkpt lat="50.9689920" lon="6.9276862">
      <time>2022-05-26T10:27:00Z</time>
    </trkpt>
    <trkpt lat="50.9690041" lon="6.9274218">
      <time>2022-05-26T10:27:04Z</time>
    </trkpt>
    <trkpt lat="50.9690045" lon="6.9273512">
      <time>2022-05-26T10:27:05Z</time>
    </trkpt>
    <trkpt lat="50.9690169" lon="6.9268676">
      <time>2022-05-26T10:27:11Z</time>
    </trkpt>
    <trkpt lat="50.9690335" lon="6.9267834">
      <time>2022-05-26T10:27:12Z</time>
    </trkpt>
    <trkpt lat="50.9690498" lon="6.9267161">
      <time>2022-05-26T10:27:13Z</time>
    </trkpt>
    <trkpt lat="50.9690816" lon="6.9266210">
      <time>2022-05-26T10:27:14Z</time>
    </trkpt>
    <trkpt lat="50.9691268" lon="6.9264936">
      <time>2022-05-26T10:27:16Z</time>
    </trkpt>
    <trkpt lat="50.9691543" lon="6.9264218">
      <time>2022-05-26T10:27:17Z</time>
    </trkpt>
    <trkpt lat="50.9691975" lon="6.9262685">
      <time>2022-05-26T10:27:19Z</time>
    </trkpt>
    <trkpt lat="50.9692193" lon="6.9261130">
      <time>2022-05-26T10:27:21Z</time>
    </trkpt>
    <trkpt lat="50.9692423" lon="6.9259535">
      <time>2022-05-26T10:27:23Z</time>
    </trkpt>
    <trkpt lat="50.9692534" lon="6.9258711">
      <time>2022-05-26T10:27:24Z</time>
    </trkpt>
    <trkpt lat="50.9692817" lon="6.9256994">
      <time>2022-05-26T10:27:26Z</time>
    </trkpt>
    <trkpt lat="50.9693043" lon="6.9256063">
      <time>2022-05-26T10:27:27Z</time>
    </trkpt>
    <trkpt lat="50.9694247" lon="6.9250325">
      <time>2022-05-26T10:27:33Z</time>
    </trkpt>
    <trkpt lat="50.9695344" lon="6.9243015">
      <time>2022-05-26T10:27:40Z</time>
    </trkpt>
    <trkpt lat="50.9696681" lon="6.9234958">
      <time>2022-05-26T10:27:48Z</time>
    </trkpt>
    <trkpt lat="50.9697174" lon="6.9232255">
      <time>2022-05-26T10:27:51Z</time>
    </trkpt>
    <trkpt lat="50.9697509" lon="6.9229492">
      <time>2022-05-26T10:27:54Z</time>
    </trkpt>
    <trkpt lat="50.9697658" lon="6.9228545">
      <time>2022-05-26T10:27:55Z</time>
    </trkpt>
    <trkpt lat="50.9698227" lon="6.9224666">
      <time>2022-05-26T10:27:59Z</time>
    </trkpt>
    <trkpt lat="50.9698984" lon="6.9218851">
      <time>2022-05-26T10:28:05Z</time>
    </trkpt>
    <trkpt lat="50.9699283" lon="6.9216635">
      <time>2022-05-26T10:28:07Z</time>
    </trkpt>
    <trkpt lat="50.9699700" lon="6.9213869">
      <time>2022-05-26T10:28:10Z</time>
    </trkpt>
    <trkpt lat="50.9700322" lon="6.9211470">
      <time>2022-05-26T10:28:13Z</time>
    </trkpt>
    <trkpt lat="50.9700754" lon="6.9211045">
      <time>2022-05-26T10:28:14Z</time>
    </trkpt>
    <trkpt lat="50.9701770" lon="6.9210175">
      <time>2022-05-26T10:28:16Z</time>
    </trkpt>
    <trkpt lat="50.9703073" lon="6.9209817">
      <time>2022-05-26T10:28:18Z</time>
    </trkpt>
    <trkpt lat="50.9704249" lon="6.9209328">
      <time>2022-05-26T10:28:20Z</time>
    </trkpt>
    <trkpt lat="50.9704367" lon="6.9208991">
      <time>2022-05-26T10:28:21Z</time>
    </trkpt>
    <trkpt lat="50.9703868" lon="6.9204312">
      <time>2022-05-26T10:28:27Z</time>
    </trkpt>
    <trkpt lat="50.9703746" lon="6.9202816">
      <time>2022-05-26T10:28:28Z</time>
    </trkpt>
    <trkpt lat="50.9703683" lon="6.9201625">
      <time>2022-05-26T10:28:29Z</time>
    </trkpt>
    <trkpt lat="50.9703922" lon="6.9198936">
      <time>2022-05-26T10:28:32Z</time>
    </trkpt>
    <trkpt lat="50.9704139" lon="6.9198090">
      <time>2022-05-26T10:28:33Z</time>
    </trkpt>
    <trkpt lat="50.9704469" lon="6.9196259">
      <time>2022-05-26T10:28:35Z</time>
    </trkpt>
    <trkpt lat="50.9704345" lon="6.9193466">
      <time>2022-05-26T10:28:38Z</time>
    </trkpt>
    <trkpt lat="50.9703917" lon="6.9189098">
      <time>2022-05-26T10:28:41Z</time>
    </trkpt>
    <trkpt lat="50.9703281" lon="6.9184565">
      <time>2022-05-26T10:28:44Z</time>
    </trkpt>
    <trkpt lat="50.9699985" lon="6.9185668">
      <time>2022-05-26T10:28:49Z</time>
    </trkpt>
    <trkpt lat="50.9698308" lon="6.9182842">
      <time>2022-05-26T10:28:53Z</time>
    </trkpt>
    <trkpt lat="50.9697393" lon="6.9181835">
      <time>2022-05-26T10:28:55Z</time>
    </trkpt>
    <trkpt lat="50.9696133" lon="6.9181041">
      <time>2022-05-26T10:28:58Z</time>
    </trkpt>
    <trkpt lat="50.9695882" lon="6.9180649">
      <time>2022-05-26T10:28:59Z</time>
    </trkpt>
    <trkpt lat="50.9695776" lon="6.9180060">
      <time>2022-05-26T10:29:00Z</time>
    </trkpt>
    <trkpt lat="50.9695795" lon="6.9178994">
      <time>2022-05-26T10:29:02Z</time>
    </trkpt>
    <trkpt lat="50.9695750" lon="6.9178521">
      <time>2022-05-26T10:29:03Z</time>
    </trkpt>
    <trkpt lat="50.9695234" lon="6.9177283">
      <time>2022-05-26T10:29:06Z</time>
    </trkpt>
    <trkpt lat="50.9693193" lon="6.9174468">
      <time>2022-05-26T10:29:14Z</time>
    </trkpt>
    <trkpt lat="50.9692539" lon="6.9174088">
      <time>2022-05-26T10:29:16Z</time>
    </trkpt>
    <trkpt lat="50.9692308" lon="6.9173668">
      <time>2022-05-26T10:29:17Z</time>
    </trkpt>
    <trkpt lat="50.9692203" lon="6.9173168">
      <time>2022-05-26T10:29:18Z</time>
    </trkpt>
    <trkpt lat="50.9692148" lon="6.9172223">
      <time>2022-05-26T10:29:22Z</time>
    </trkpt>
    <trkpt lat="50.9691881" lon="6.9171519">
      <time>2022-05-26T10:29:26Z</time>
    </trkpt>
    <trkpt lat="50.9691688" lon="6.9171274">
      <time>2022-05-26T10:29:27Z</time>
    </trkpt>
    <trkpt lat="50.9690403" lon="6.9169575">
      <time>2022-05-26T10:29:32Z</time>
    </trkpt>
    <trkpt lat="50.9690027" lon="6.9169159">
      <time>2022-05-26T10:29:33Z</time>
    </trkpt>
    <trkpt lat="50.9689311" lon="6.9168193">
      <time>2022-05-26T10:29:35Z</time>
    </trkpt>
    <trkpt lat="50.9688969" lon="6.9167682">
      <time>2022-05-26T10:29:36Z</time>
    </trkpt>
    <trkpt lat="50.9687981" lon="6.9165934">
      <time>2022-05-26T10:29:39Z</time>
    </trkpt>
    <trkpt lat="50.9687251" lon="6.9165002">
      <time>2022-05-26T10:29:41Z</time>
    </trkpt>
    <trkpt lat="50.9685845" lon="6.9162979">
      <time>2022-05-26T10:29:45Z</time>
    </trkpt>
    <trkpt lat="50.9685251" lon="6.9161877">
      <time>2022-05-26T10:29:47Z</time>
    </trkpt>
    <trkpt lat="50.9684494" lon="6.9161012">
      <time>2022-05-26T10:29:49Z</time>
    </trkpt>
    <trkpt lat="50.9683391" lon="6.9159585">
      <time>2022-05-26T10:29:52Z</time>
    </trkpt>
    <trkpt lat="50.9679624" lon="6.9154260">
      <time>2022-05-26T10:30:02Z</time>
    </trkpt>
    <trkpt lat="50.9678431" lon="6.9152803">
      <time>2022-05-26T10:30:05Z</time>
    </trkpt>
    <trkpt lat="50.9678094" lon="6.9152430">
      <time>2022-05-26T10:30:07Z</time>
    </trkpt>
    <trkpt lat="50.9678337" lon="6.9152309">
      <time>2022-05-26T10:30:10Z</time>
    </trkpt>
    <trkpt lat="50.9679096" lon="6.9153435">
      <time>2022-05-26T10:30:17Z</time>
    </trkpt>
    <trkpt lat="50.9679096" lon="6.9153435">
      <time>2022-05-26T10:30:20Z</time>
    </trkpt>
    <trkpt lat="50.9678783" lon="6.9153091">
      <time>2022-05-26T10:30:40Z</time>
    </trkpt>
    <trkpt lat="50.9677949" lon="6.9151858">
      <time>2022-05-26T10:30:44Z</time>
    </trkpt>
    <trkpt lat="50.9677623" lon="6.9151505">
      <time>2022-05-26T10:30:45Z</time>
    </trkpt>
    <trkpt lat="50.9675354" lon="6.9148508">
      <time>2022-05-26T10:30:52Z</time>
    </trkpt>
    <trkpt lat="50.9672971" lon="6.9145641">
      <time>2022-05-26T10:30:58Z</time>
    </trkpt>
    <trkpt lat="50.9670158" lon="6.9142160">
      <time>2022-05-26T10:31:05Z</time>
    </trkpt>
    <trkpt lat="50.9668896" lon="6.9140774">
      <time>2022-05-26T10:31:08Z</time>
    </trkpt>
    <trkpt lat="50.9666144" lon="6.9137542">
      <time>2022-05-26T10:31:15Z</time>
    </trkpt>
    <trkpt lat="50.9664367" lon="6.9135910">
      <time>2022-05-26T10:31:19Z</time>
    </trkpt>
    <trkpt lat="50.9663348" lon="6.9134558">
      <time>2022-05-26T10:31:22Z</time>
    </trkpt>
    <trkpt lat="50.9662404" lon="6.9133734">
      <time>2022-05-26T10:31:25Z</time>
    </trkpt>
    <trkpt lat="50.9661150" lon="6.9132843">
      <time>2022-05-26T10:31:30Z</time>
    </trkpt>
    <trkpt lat="50.9660550" lon="6.9131220">
      <time>2022-05-26T10:31:34Z</time>
    </trkpt>
    <trkpt lat="50.9658948" lon="6.9129143">
      <time>2022-05-26T10:31:39Z</time>
    </trkpt>
    <trkpt lat="50.9658289" lon="6.9128123">
      <time>2022-05-26T10:31:41Z</time>
    </trkpt>
    <trkpt lat="50.9656709" lon="6.9126265">
      <time>2022-05-26T10:31:45Z</time>
    </trkpt>
    <trkpt lat="50.9655525" lon="6.9125010">
      <time>2022-05-26T10:31:48Z</time>
    </trkpt>
    <trkpt lat="50.9654041" lon="6.9123651">
      <time>2022-05-26T10:31:52Z</time>
    </trkpt>
    <trkpt lat="50.9653289" lon="6.9123318">
      <time>2022-05-26T10:31:55Z</time>
    </trkpt>
    <trkpt lat="50.9653120" lon="6.9123131">
      <time>2022-05-26T10:31:57Z</time>
    </trkpt>
    <trkpt lat="50.9653131" lon="6.9123071">
      <time>2022-05-26T10:31:59Z</time>
    </trkpt>
    <trkpt lat="50.9653131" lon="6.9123071">
      <time>2022-05-26T10:32:00Z</time>
    </trkpt>
    <trkpt lat="50.9652891" lon="6.9122583">
      <time>2022-05-26T10:32:16Z</time>
    </trkpt>
    <trkpt lat="50.9652459" lon="6.9122122">
      <time>2022-05-26T10:32:18Z</time>
    </trkpt>
    <trkpt lat="50.9650866" lon="6.9120430">
      <time>2022-05-26T10:32:24Z</time>
    </trkpt>
    <trkpt lat="50.9650013" lon="6.9119470">
      <time>2022-05-26T10:32:27Z</time>
    </trkpt>
    <trkpt lat="50.9649765" lon="6.9119115">
      <time>2022-05-26T10:32:28Z</time>
    </trkpt>
    <trkpt lat="50.9649247" lon="6.9118345">
      <time>2022-05-26T10:32:30Z</time>
    </trkpt>
    <trkpt lat="50.9647915" lon="6.9116967">
      <time>2022-05-26T10:32:34Z</time>
    </trkpt>
    <trkpt lat="50.9645607" lon="6.9114643">
      <time>2022-05-26T10:32:39Z</time>
    </trkpt>
    <trkpt lat="50.9645096" lon="6.9114228">
      <time>2022-05-26T10:32:40Z</time>
    </trkpt>
    <trkpt lat="50.9641276" lon="6.9110662">
      <time>2022-05-26T10:32:47Z</time>
    </trkpt>
    <trkpt lat="50.9639122" lon="6.9108393">
      <time>2022-05-26T10:32:51Z</time>
    </trkpt>
    <trkpt lat="50.9638169" lon="6.9107471">
      <time>2022-05-26T10:32:53Z</time>
    </trkpt>
    <trkpt lat="50.9634005" lon="6.9103224">
      <time>2022-05-26T10:33:01Z</time>
    </trkpt>
    <trkpt lat="50.9631774" lon="6.9100587">
      <time>2022-05-26T10:33:06Z</time>
    </trkpt>
    <trkpt lat="50.9628859" lon="6.9097471">
      <time>2022-05-26T10:33:12Z</time>
    </trkpt>
    <trkpt lat="50.9626058" lon="6.9094431">
      <time>2022-05-26T10:33:18Z</time>
    </trkpt>
    <trkpt lat="50.9623165" lon="6.9090968">
      <time>2022-05-26T10:33:25Z</time>
    </trkpt>
    <trkpt lat="50.9621309" lon="6.9088776">
      <time>2022-05-26T10:33:29Z</time>
    </trkpt>
    <trkpt lat="50.9620389" lon="6.9087731">
      <time>2022-05-26T10:33:31Z</time>
    </trkpt>
    <trkpt lat="50.9616868" lon="6.9084117">
      <time>2022-05-26T10:33:38Z</time>
    </trkpt>
    <trkpt lat="50.9613902" lon="6.9081043">
      <time>2022-05-26T10:33:44Z</time>
    </trkpt>
    <trkpt lat="50.9613431" lon="6.9080515">
      <time>2022-05-26T10:33:45Z</time>
    </trkpt>
    <trkpt lat="50.9610908" lon="6.9077770">
      <time>2022-05-26T10:33:50Z</time>
    </trkpt>
    <trkpt lat="50.9609880" lon="6.9076831">
      <time>2022-05-26T10:33:52Z</time>
    </trkpt>
    <trkpt lat="50.9607362" lon="6.9074065">
      <time>2022-05-26T10:33:57Z</time>
    </trkpt>
    <trkpt lat="50.9603511" lon="6.9070033">
      <time>2022-05-26T10:34:05Z</time>
    </trkpt>
    <trkpt lat="50.9600739" lon="6.9067279">
      <time>2022-05-26T10:34:11Z</time>
    </trkpt>
    <trkpt lat="50.9597547" lon="6.9063886">
      <time>2022-05-26T10:34:19Z</time>
    </trkpt>
    <trkpt lat="50.9596139" lon="6.9062508">
      <time>2022-05-26T10:34:23Z</time>
    </trkpt>
    <trkpt lat="50.9595036" lon="6.9061379">
      <time>2022-05-26T10:34:26Z</time>
    </trkpt>
    <trkpt lat="50.9594661" lon="6.9061028">
      <time>2022-05-26T10:34:27Z</time>
    </trkpt>
    <trkpt lat="50.9593872" lon="6.9060265">
      <time>2022-05-26T10:34:29Z</time>
    </trkpt>
    <trkpt lat="50.9593203" lon="6.9059280">
      <time>2022-05-26T10:34:31Z</time>
    </trkpt>
    <trkpt lat="50.9592425" lon="6.9058203">
      <time>2022-05-26T10:34:33Z</time>
    </trkpt>
    <trkpt lat="50.9591524" lon="6.9057300">
      <time>2022-05-26T10:34:35Z</time>
    </trkpt>
    <trkpt lat="50.9590503" lon="6.9056431">
      <time>2022-05-26T10:34:37Z</time>
    </trkpt>
    <trkpt lat="50.9590017" lon="6.9055978">
      <time>2022-05-26T10:34:38Z</time>
    </trkpt>
    <trkpt lat="50.9589085" lon="6.9055328">
      <time>2022-05-26T10:34:40Z</time>
    </trkpt>
    <trkpt lat="50.9588610" lon="6.9054883">
      <time>2022-05-26T10:34:41Z</time>
    </trkpt>
    <trkpt lat="50.9586712" lon="6.9052866">
      <time>2022-05-26T10:34:45Z</time>
    </trkpt>
    <trkpt lat="50.9585348" lon="6.9051345">
      <time>2022-05-26T10:34:48Z</time>
    </trkpt>
    <trkpt lat="50.9581222" lon="6.9046845">
      <time>2022-05-26T10:34:57Z</time>
    </trkpt>
    <trkpt lat="50.9580750" lon="6.9046533">
      <time>2022-05-26T10:34:58Z</time>
    </trkpt>
    <trkpt lat="50.9579348" lon="6.9045341">
      <time>2022-05-26T10:35:01Z</time>
    </trkpt>
    <trkpt lat="50.9575462" lon="6.9041627">
      <time>2022-05-26T10:35:09Z</time>
    </trkpt>
    <trkpt lat="50.9573576" lon="6.9039669">
      <time>2022-05-26T10:35:13Z</time>
    </trkpt>
    <trkpt lat="50.9572533" lon="6.9038730">
      <time>2022-05-26T10:35:15Z</time>
    </trkpt>
    <trkpt lat="50.9570431" lon="6.9036851">
      <time>2022-05-26T10:35:19Z</time>
    </trkpt>
    <trkpt lat="50.9568658" lon="6.9035089">
      <time>2022-05-26T10:35:23Z</time>
    </trkpt>
    <trkpt lat="50.9568212" lon="6.9034712">
      <time>2022-05-26T10:35:24Z</time>
    </trkpt>
    <trkpt lat="50.9567414" lon="6.9034023">
      <time>2022-05-26T10:35:26Z</time>
    </trkpt>
    <trkpt lat="50.9566998" lon="6.9033781">
      <time>2022-05-26T10:35:27Z</time>
    </trkpt>
    <trkpt lat="50.9566240" lon="6.9033334">
      <time>2022-05-26T10:35:29Z</time>
    </trkpt>
    <trkpt lat="50.9565816" lon="6.9033463">
      <time>2022-05-26T10:35:31Z</time>
    </trkpt>
    <trkpt lat="50.9565194" lon="6.9035427">
      <time>2022-05-26T10:35:35Z</time>
    </trkpt>
    <trkpt lat="50.9564167" lon="6.9038937">
      <time>2022-05-26T10:35:40Z</time>
    </trkpt>
    <trkpt lat="50.9563769" lon="6.9040477">
      <time>2022-05-26T10:35:42Z</time>
    </trkpt>
    <trkpt lat="50.9563237" lon="6.9042883">
      <time>2022-05-26T10:35:45Z</time>
    </trkpt>
    <trkpt lat="50.9562416" lon="6.9047044">
      <time>2022-05-26T10:35:50Z</time>
    </trkpt>
    <trkpt lat="50.9561950" lon="6.9048638">
      <time>2022-05-26T10:35:52Z</time>
    </trkpt>
    <trkpt lat="50.9560511" lon="6.9055531">
      <time>2022-05-26T10:36:00Z</time>
    </trkpt>
    <trkpt lat="50.9559081" lon="6.9060464">
      <time>2022-05-26T10:36:06Z</time>
    </trkpt>
    <trkpt lat="50.9558536" lon="6.9062269">
      <time>2022-05-26T10:36:08Z</time>
    </trkpt>
    <trkpt lat="50.9556962" lon="6.9067564">
      <time>2022-05-26T10:36:14Z</time>
    </trkpt>
    <trkpt lat="50.9555388" lon="6.9071903">
      <time>2022-05-26T10:36:19Z</time>
    </trkpt>
    <trkpt lat="50.9555093" lon="6.9072786">
      <time>2022-05-26T10:36:20Z</time>
    </trkpt>
    <trkpt lat="50.9553022" lon="6.9078825">
      <time>2022-05-26T10:36:27Z</time>
    </trkpt>
    <trkpt lat="50.9551184" lon="6.9083895">
      <time>2022-05-26T10:36:33Z</time>
    </trkpt>
    <trkpt lat="50.9550864" lon="6.9084780">
      <time>2022-05-26T10:36:34Z</time>
    </trkpt>
    <trkpt lat="50.9550591" lon="6.9085594">
      <time>2022-05-26T10:36:35Z</time>
    </trkpt>
    <trkpt lat="50.9549457" lon="6.9088783">
      <time>2022-05-26T10:36:39Z</time>
    </trkpt>
    <trkpt lat="50.9547965" lon="6.9093050">
      <time>2022-05-26T10:36:45Z</time>
    </trkpt>
    <trkpt lat="50.9546129" lon="6.9098378">
      <time>2022-05-26T10:36:52Z</time>
    </trkpt>
    <trkpt lat="50.9544603" lon="6.9103394">
      <time>2022-05-26T10:36:58Z</time>
    </trkpt>
    <trkpt lat="50.9544272" lon="6.9104211">
      <time>2022-05-26T10:36:59Z</time>
    </trkpt>
    <trkpt lat="50.9542764" lon="6.9107031">
      <time>2022-05-26T10:37:03Z</time>
    </trkpt>
    <trkpt lat="50.9539507" lon="6.9112157">
      <time>2022-05-26T10:37:10Z</time>
    </trkpt>
    <trkpt lat="50.9536320" lon="6.9116671">
      <time>2022-05-26T10:37:16Z</time>
    </trkpt>
    <trkpt lat="50.9532083" lon="6.9122577">
      <time>2022-05-26T10:37:24Z</time>
    </trkpt>
    <trkpt lat="50.9530677" lon="6.9124970">
      <time>2022-05-26T10:37:27Z</time>
    </trkpt>
    <trkpt lat="50.9529723" lon="6.9126465">
      <time>2022-05-26T10:37:29Z</time>
    </trkpt>
    <trkpt lat="50.9529308" lon="6.9127205">
      <time>2022-05-26T10:37:30Z</time>
    </trkpt>
    <trkpt lat="50.9528160" lon="6.9129352">
      <time>2022-05-26T10:37:33Z</time>
    </trkpt>
    <trkpt lat="50.9525298" lon="6.9133439">
      <time>2022-05-26T10:37:39Z</time>
    </trkpt>
    <trkpt lat="50.9523322" lon="6.9136433">
      <time>2022-05-26T10:37:43Z</time>
    </trkpt>
    <trkpt lat="50.9521930" lon="6.9138829">
      <time>2022-05-26T10:37:46Z</time>
    </trkpt>
    <trkpt lat="50.9518309" lon="6.9144718">
      <time>2022-05-26T10:37:54Z</time>
    </trkpt>
    <trkpt lat="50.9515587" lon="6.9148922">
      <time>2022-05-26T10:38:00Z</time>
    </trkpt>
    <trkpt lat="50.9513318" lon="6.9153604">
      <time>2022-05-26T10:38:06Z</time>
    </trkpt>
    <trkpt lat="50.9512910" lon="6.9154046">
      <time>2022-05-26T10:38:07Z</time>
    </trkpt>
    <trkpt lat="50.9510837" lon="6.9156421">
      <time>2022-05-26T10:38:12Z</time>
    </trkpt>
    <trkpt lat="50.9509367" lon="6.9158395">
      <time>2022-05-26T10:38:16Z</time>
    </trkpt>
    <trkpt lat="50.9508975" lon="6.9158931">
      <time>2022-05-26T10:38:17Z</time>
    </trkpt>
    <trkpt lat="50.9507772" lon="6.9160744">
      <time>2022-05-26T10:38:20Z</time>
    </trkpt>
    <trkpt lat="50.9506841" lon="6.9161895">
      <time>2022-05-26T10:38:22Z</time>
    </trkpt>
    <trkpt lat="50.9505445" lon="6.9163598">
      <time>2022-05-26T10:38:26Z</time>
    </trkpt>
    <trkpt lat="50.9504155" lon="6.9165332">
      <time>2022-05-26T10:38:32Z</time>
    </trkpt>
    <trkpt lat="50.9504121" lon="6.9165351">
      <time>2022-05-26T10:38:34Z</time>
    </trkpt>
    <trkpt lat="50.9503871" lon="6.9165701">
      <time>2022-05-26T10:39:05Z</time>
    </trkpt>
    <trkpt lat="50.9502751" lon="6.9166944">
      <time>2022-05-26T10:39:09Z</time>
    </trkpt>
    <trkpt lat="50.9502263" lon="6.9167493">
      <time>2022-05-26T10:39:11Z</time>
    </trkpt>
    <trkpt lat="50.9501436" lon="6.9169229">
      <time>2022-05-26T10:39:15Z</time>
    </trkpt>
    <trkpt lat="50.9501194" lon="6.9169838">
      <time>2022-05-26T10:39:16Z</time>
    </trkpt>
    <trkpt lat="50.9500883" lon="6.9170373">
      <time>2022-05-26T10:39:17Z</time>
    </trkpt>
    <trkpt lat="50.9499616" lon="6.9172238">
      <time>2022-05-26T10:39:20Z</time>
    </trkpt>
    <trkpt lat="50.9496611" lon="6.9176390">
      <time>2022-05-26T10:39:25Z</time>
    </trkpt>
    <trkpt lat="50.9494097" lon="6.9180620">
      <time>2022-05-26T10:39:29Z</time>
    </trkpt>
    <trkpt lat="50.9491800" lon="6.9185340">
      <time>2022-05-26T10:39:33Z</time>
    </trkpt>
    <trkpt lat="50.9491420" lon="6.9186300">
      <time>2022-05-26T10:39:34Z</time>
    </trkpt>
    <trkpt lat="50.9488716" lon="6.9192768">
      <time>2022-05-26T10:39:40Z</time>
    </trkpt>
    <trkpt lat="50.9487321" lon="6.9196082">
      <time>2022-05-26T10:39:43Z</time>
    </trkpt>
    <trkpt lat="50.9485526" lon="6.9200516">
      <time>2022-05-26T10:39:47Z</time>
    </trkpt>
    <trkpt lat="50.9484594" lon="6.9203575">
      <time>2022-05-26T10:39:50Z</time>
    </trkpt>
    <trkpt lat="50.9484366" lon="6.9204747">
      <time>2022-05-26T10:39:51Z</time>
    </trkpt>
    <trkpt lat="50.9483748" lon="6.9206917">
      <time>2022-05-26T10:39:53Z</time>
    </trkpt>
    <trkpt lat="50.9482884" lon="6.9208869">
      <time>2022-05-26T10:39:55Z</time>
    </trkpt>
    <trkpt lat="50.9481059" lon="6.9213035">
      <time>2022-05-26T10:39:59Z</time>
    </trkpt>
    <trkpt lat="50.9480572" lon="6.9214166">
      <time>2022-05-26T10:40:00Z</time>
    </trkpt>
    <trkpt lat="50.9477394" lon="6.9220839">
      <time>2022-05-26T10:40:06Z</time>
    </trkpt>
    <trkpt lat="50.9474684" lon="6.9227452">
      <time>2022-05-26T10:40:12Z</time>
    </trkpt>
    <trkpt lat="50.9471826" lon="6.9234163">
      <time>2022-05-26T10:40:19Z</time>
    </trkpt>
    <trkpt lat="50.9470252" lon="6.9237905">
      <time>2022-05-26T10:40:23Z</time>
    </trkpt>
    <trkpt lat="50.9469026" lon="6.9240850">
      <time>2022-05-26T10:40:26Z</time>
    </trkpt>
    <trkpt lat="50.9468655" lon="6.9241759">
      <time>2022-05-26T10:40:27Z</time>
    </trkpt>
    <trkpt lat="50.9466220" lon="6.9247103">
      <time>2022-05-26T10:40:33Z</time>
    </trkpt>
    <trkpt lat="50.9464725" lon="6.9251586">
      <time>2022-05-26T10:40:37Z</time>
    </trkpt>
    <trkpt lat="50.9464260" lon="6.9252674">
      <time>2022-05-26T10:40:38Z</time>
    </trkpt>
    <trkpt lat="50.9463310" lon="6.9254854">
      <time>2022-05-26T10:40:40Z</time>
    </trkpt>
    <trkpt lat="50.9462435" lon="6.9256334">
      <time>2022-05-26T10:40:42Z</time>
    </trkpt>
    <trkpt lat="50.9461191" lon="6.9259274">
      <time>2022-05-26T10:40:45Z</time>
    </trkpt>
    <trkpt lat="50.9460722" lon="6.9261023">
      <time>2022-05-26T10:40:47Z</time>
    </trkpt>
    <trkpt lat="50.9459608" lon="6.9263880">
      <time>2022-05-26T10:40:50Z</time>
    </trkpt>
    <trkpt lat="50.9458615" lon="6.9265664">
      <time>2022-05-26T10:40:52Z</time>
    </trkpt>
    <trkpt lat="50.9456459" lon="6.9270485">
      <time>2022-05-26T10:40:57Z</time>
    </trkpt>
    <trkpt lat="50.9456049" lon="6.9271368">
      <time>2022-05-26T10:40:58Z</time>
    </trkpt>
    <trkpt lat="50.9455679" lon="6.9272246">
      <time>2022-05-26T10:40:59Z</time>
    </trkpt>
    <trkpt lat="50.9455056" lon="6.9273951">
      <time>2022-05-26T10:41:01Z</time>
    </trkpt>
    <trkpt lat="50.9454376" lon="6.9276065">
      <time>2022-05-26T10:41:03Z</time>
    </trkpt>
    <trkpt lat="50.9453123" lon="6.9280100">
      <time>2022-05-26T10:41:07Z</time>
    </trkpt>
    <trkpt lat="50.9452483" lon="6.9281954">
      <time>2022-05-26T10:41:09Z</time>
    </trkpt>
    <trkpt lat="50.9450266" lon="6.9286164">
      <time>2022-05-26T10:41:14Z</time>
    </trkpt>
    <trkpt lat="50.9448819" lon="6.9288744">
      <time>2022-05-26T10:41:17Z</time>
    </trkpt>
    <trkpt lat="50.9448142" lon="6.9290662">
      <time>2022-05-26T10:41:19Z</time>
    </trkpt>
    <trkpt lat="50.9446532" lon="6.9295828">
      <time>2022-05-26T10:41:24Z</time>
    </trkpt>
    <trkpt lat="50.9446040" lon="6.9297566">
      <time>2022-05-26T10:41:26Z</time>
    </trkpt>
    <trkpt lat="50.9445142" lon="6.9300444">
      <time>2022-05-26T10:41:29Z</time>
    </trkpt>
    <trkpt lat="50.9443722" lon="6.9303875">
      <time>2022-05-26T10:41:33Z</time>
    </trkpt>
    <trkpt lat="50.9441538" lon="6.9310060">
      <time>2022-05-26T10:41:41Z</time>
    </trkpt>
    <trkpt lat="50.9441174" lon="6.9311379">
      <time>2022-05-26T10:41:43Z</time>
    </trkpt>
    <trkpt lat="50.9440509" lon="6.9313344">
      <time>2022-05-26T10:41:46Z</time>
    </trkpt>
    <trkpt lat="50.9439867" lon="6.9315100">
      <time>2022-05-26T10:41:50Z</time>
    </trkpt>
    <trkpt lat="50.9439229" lon="6.9315948">
      <time>2022-05-26T10:41:53Z</time>
    </trkpt>
    <trkpt lat="50.9438969" lon="6.9315981">
      <time>2022-05-26T10:41:54Z</time>
    </trkpt>
    <trkpt lat="50.9437199" lon="6.9314792">
      <time>2022-05-26T10:41:59Z</time>
    </trkpt>
    <trkpt lat="50.9434937" lon="6.9313905">
      <time>2022-05-26T10:42:04Z</time>
    </trkpt>
    <trkpt lat="50.9432951" lon="6.9312777">
      <time>2022-05-26T10:42:08Z</time>
    </trkpt>
    <trkpt lat="50.9431123" lon="6.9311741">
      <time>2022-05-26T10:42:12Z</time>
    </trkpt>
    <trkpt lat="50.9430776" lon="6.9311481">
      <time>2022-05-26T10:42:13Z</time>
    </trkpt>
    <trkpt lat="50.9429392" lon="6.9310264">
      <time>2022-05-26T10:42:18Z</time>
    </trkpt>
    <trkpt lat="50.9428297" lon="6.9309405">
      <time>2022-05-26T10:42:23Z</time>
    </trkpt>
    <trkpt lat="50.9427545" lon="6.9308744">
      <time>2022-05-26T10:42:28Z</time>
    </trkpt>
    <trkpt lat="50.9427448" lon="6.9308564">
      <time>2022-05-26T10:42:29Z</time>
    </trkpt>
    <trkpt lat="50.9427171" lon="6.9308304">
      <time>2022-05-26T10:42:31Z</time>
    </trkpt>
    <trkpt lat="50.9426804" lon="6.9307653">
      <time>2022-05-26T10:42:34Z</time>
    </trkpt>
    <trkpt lat="50.9426566" lon="6.9306406">
      <time>2022-05-26T10:42:39Z</time>
    </trkpt>
    <trkpt lat="50.9426500" lon="6.9306228">
      <time>2022-05-26T10:42:40Z</time>
    </trkpt>
    <trkpt lat="50.9426409" lon="6.9306141">
      <time>2022-05-26T10:42:41Z</time>
    </trkpt>
    <trkpt lat="50.9426186" lon="6.9305539">
      <time>2022-05-26T10:42:45Z</time>
    </trkpt>
    <trkpt lat="50.9426010" lon="6.9305393">
      <time>2022-05-26T10:42:47Z</time>
    </trkpt>
    <trkpt lat="50.9425538" lon="6.9304636">
      <time>2022-05-26T10:42:54Z</time>
    </trkpt>
    <trkpt lat="50.9425255" lon="6.9304144">
      <time>2022-05-26T10:43:00Z</time>
    </trkpt>
    <trkpt lat="50.9425269" lon="6.9304103">
      <time>2022-05-26T10:43:01Z</time>
    </trkpt>
    <trkpt lat="50.9425269" lon="6.9304103">
      <time>2022-05-26T10:43:02Z</time>
    </trkpt>
    <trkpt lat="50.9444765" lon="6.9305631">
      <time>2022-05-26T12:52:13Z</time>
    </trkpt>
    <trkpt lat="50.9444929" lon="6.9305103">
      <time>2022-05-26T12:52:14Z</time>
    </trkpt>
    <trkpt lat="50.9443353" lon="6.9303270">
      <time>2022-05-26T12:52:15Z</time>
    </trkpt>
    <trkpt lat="50.9444187" lon="6.9301385">
      <time>2022-05-26T12:52:18Z</time>
    </trkpt>
    <trkpt lat="50.9444350" lon="6.9300660">
      <time>2022-05-26T12:52:19Z</time>
    </trkpt>
    <trkpt lat="50.9444488" lon="6.9299913">
      <time>2022-05-26T12:52:20Z</time>
    </trkpt>
    <trkpt lat="50.9445291" lon="6.9297989">
      <time>2022-05-26T12:52:23Z</time>
    </trkpt>
    <trkpt lat="50.9445555" lon="6.9297650">
      <time>2022-05-26T12:52:24Z</time>
    </trkpt>
    <trkpt lat="50.9446045" lon="6.9297251">
      <time>2022-05-26T12:52:25Z</time>
    </trkpt>
    <trkpt lat="50.9446718" lon="6.9296217">
      <time>2022-05-26T12:52:27Z</time>
    </trkpt>
    <trkpt lat="50.9446834" lon="6.9295517">
      <time>2022-05-26T12:52:28Z</time>
    </trkpt>
    <trkpt lat="50.9447381" lon="6.9292006">
      <time>2022-05-26T12:52:33Z</time>
    </trkpt>
    <trkpt lat="50.9447463" lon="6.9291293">
      <time>2022-05-26T12:52:34Z</time>
    </trkpt>
    <trkpt lat="50.9447571" lon="6.9290598">
      <time>2022-05-26T12:52:35Z</time>
    </trkpt>
    <trkpt lat="50.9448299" lon="6.9286720">
      <time>2022-05-26T12:52:41Z</time>
    </trkpt>
    <trkpt lat="50.9448642" lon="6.9285893">
      <time>2022-05-26T12:52:44Z</time>
    </trkpt>
    <trkpt lat="50.9448497" lon="6.9285655">
      <time>2022-05-26T12:52:45Z</time>
    </trkpt>
    <trkpt lat="50.9448521" lon="6.9285581">
      <time>2022-05-26T12:52:48Z</time>
    </trkpt>
    <trkpt lat="50.9448719" lon="6.9284905">
      <time>2022-05-26T12:53:12Z</time>
    </trkpt>
    <trkpt lat="50.9448787" lon="6.9284545">
      <time>2022-05-26T12:53:13Z</time>
    </trkpt>
    <trkpt lat="50.9449139" lon="6.9282665">
      <time>2022-05-26T12:53:19Z</time>
    </trkpt>
    <trkpt lat="50.9449750" lon="6.9281731">
      <time>2022-05-26T12:53:23Z</time>
    </trkpt>
    <trkpt lat="50.9450110" lon="6.9281609">
      <time>2022-05-26T12:53:25Z</time>
    </trkpt>
    <trkpt lat="50.9450468" lon="6.9281683">
      <time>2022-05-26T12:53:27Z</time>
    </trkpt>
    <trkpt lat="50.9450532" lon="6.9281707">
      <time>2022-05-26T12:53:30Z</time>
    </trkpt>
    <trkpt lat="50.9451258" lon="6.9281907">
      <time>2022-05-26T12:53:51Z</time>
    </trkpt>
    <trkpt lat="50.9452260" lon="6.9280746">
      <time>2022-05-26T12:53:54Z</time>
    </trkpt>
    <trkpt lat="50.9453361" lon="6.9277553">
      <time>2022-05-26T12:53:59Z</time>
    </trkpt>
    <trkpt lat="50.9453603" lon="6.9276835">
      <time>2022-05-26T12:54:00Z</time>
    </trkpt>
    <trkpt lat="50.9454979" lon="6.9271942">
      <time>2022-05-26T12:54:07Z</time>
    </trkpt>
    <trkpt lat="50.9457503" lon="6.9265814">
      <time>2022-05-26T12:54:17Z</time>
    </trkpt>
    <trkpt lat="50.9458753" lon="6.9262646">
      <time>2022-05-26T12:54:22Z</time>
    </trkpt>
    <trkpt lat="50.9459188" lon="6.9261443">
      <time>2022-05-26T12:54:24Z</time>
    </trkpt>
    <trkpt lat="50.9460490" lon="6.9256943">
      <time>2022-05-26T12:54:31Z</time>
    </trkpt>
    <trkpt lat="50.9461950" lon="6.9254187">
      <time>2022-05-26T12:54:36Z</time>
    </trkpt>
    <trkpt lat="50.9462839" lon="6.9252396">
      <time>2022-05-26T12:54:39Z</time>
    </trkpt>
    <trkpt lat="50.9463928" lon="6.9249711">
      <time>2022-05-26T12:54:43Z</time>
    </trkpt>
    <trkpt lat="50.9466502" lon="6.9243637">
      <time>2022-05-26T12:54:52Z</time>
    </trkpt>
    <trkpt lat="50.9468652" lon="6.9237863">
      <time>2022-05-26T12:55:00Z</time>
    </trkpt>
    <trkpt lat="50.9470950" lon="6.9232526">
      <time>2022-05-26T12:55:07Z</time>
    </trkpt>
    <trkpt lat="50.9471167" lon="6.9231900">
      <time>2022-05-26T12:55:08Z</time>
    </trkpt>
    <trkpt lat="50.9472435" lon="6.9228719">
      <time>2022-05-26T12:55:12Z</time>
    </trkpt>
    <trkpt lat="50.9473521" lon="6.9226546">
      <time>2022-05-26T12:55:15Z</time>
    </trkpt>
    <trkpt lat="50.9476204" lon="6.9219945">
      <time>2022-05-26T12:55:23Z</time>
    </trkpt>
    <trkpt lat="50.9477694" lon="6.9216768">
      <time>2022-05-26T12:55:27Z</time>
    </trkpt>
    <trkpt lat="50.9479334" lon="6.9213126">
      <time>2022-05-26T12:55:32Z</time>
    </trkpt>
    <trkpt lat="50.9481747" lon="6.9208078">
      <time>2022-05-26T12:55:39Z</time>
    </trkpt>
    <trkpt lat="50.9482687" lon="6.9206178">
      <time>2022-05-26T12:55:42Z</time>
    </trkpt>
    <trkpt lat="50.9483342" lon="6.9203930">
      <time>2022-05-26T12:55:45Z</time>
    </trkpt>
    <trkpt lat="50.9483875" lon="6.9201595">
      <time>2022-05-26T12:55:48Z</time>
    </trkpt>
    <trkpt lat="50.9484778" lon="6.9199490">
      <time>2022-05-26T12:55:51Z</time>
    </trkpt>
    <trkpt lat="50.9485772" lon="6.9197460">
      <time>2022-05-26T12:55:54Z</time>
    </trkpt>
    <trkpt lat="50.9486363" lon="6.9195999">
      <time>2022-05-26T12:55:56Z</time>
    </trkpt>
    <trkpt lat="50.9488169" lon="6.9191720">
      <time>2022-05-26T12:56:02Z</time>
    </trkpt>
    <trkpt lat="50.9488753" lon="6.9190409">
      <time>2022-05-26T12:56:04Z</time>
    </trkpt>
    <trkpt lat="50.9491096" lon="6.9185028">
      <time>2022-05-26T12:56:12Z</time>
    </trkpt>
    <trkpt lat="50.9493209" lon="6.9181018">
      <time>2022-05-26T12:56:18Z</time>
    </trkpt>
    <trkpt lat="50.9493673" lon="6.9180393">
      <time>2022-05-26T12:56:19Z</time>
    </trkpt>
    <trkpt lat="50.9495834" lon="6.9176984">
      <time>2022-05-26T12:56:24Z</time>
    </trkpt>
    <trkpt lat="50.9496252" lon="6.9176315">
      <time>2022-05-26T12:56:25Z</time>
    </trkpt>
    <trkpt lat="50.9499056" lon="6.9171725">
      <time>2022-05-26T12:56:32Z</time>
    </trkpt>
    <trkpt lat="50.9501272" lon="6.9168375">
      <time>2022-05-26T12:56:38Z</time>
    </trkpt>
    <trkpt lat="50.9502496" lon="6.9167252">
      <time>2022-05-26T12:56:41Z</time>
    </trkpt>
    <trkpt lat="50.9503242" lon="6.9166312">
      <time>2022-05-26T12:56:43Z</time>
    </trkpt>
    <trkpt lat="50.9503882" lon="6.9165320">
      <time>2022-05-26T12:56:45Z</time>
    </trkpt>
    <trkpt lat="50.9504552" lon="6.9164066">
      <time>2022-05-26T12:56:47Z</time>
    </trkpt>
    <trkpt lat="50.9504939" lon="6.9163494">
      <time>2022-05-26T12:56:48Z</time>
    </trkpt>
    <trkpt lat="50.9506599" lon="6.9161122">
      <time>2022-05-26T12:56:52Z</time>
    </trkpt>
    <trkpt lat="50.9508271" lon="6.9158350">
      <time>2022-05-26T12:56:57Z</time>
    </trkpt>
    <trkpt lat="50.9508509" lon="6.9158086">
      <time>2022-05-26T12:56:58Z</time>
    </trkpt>
    <trkpt lat="50.9509187" lon="6.9157259">
      <time>2022-05-26T12:57:02Z</time>
    </trkpt>
    <trkpt lat="50.9509353" lon="6.9156858">
      <time>2022-05-26T12:57:03Z</time>
    </trkpt>
    <trkpt lat="50.9509740" lon="6.9155956">
      <time>2022-05-26T12:57:05Z</time>
    </trkpt>
    <trkpt lat="50.9511264" lon="6.9153614">
      <time>2022-05-26T12:57:10Z</time>
    </trkpt>
    <trkpt lat="50.9512051" lon="6.9152147">
      <time>2022-05-26T12:57:13Z</time>
    </trkpt>
    <trkpt lat="50.9512396" lon="6.9151131">
      <time>2022-05-26T12:57:15Z</time>
    </trkpt>
    <trkpt lat="50.9515836" lon="6.9145665">
      <time>2022-05-26T12:57:23Z</time>
    </trkpt>
    <trkpt lat="50.9516646" lon="6.9143982">
      <time>2022-05-26T12:57:26Z</time>
    </trkpt>
    <trkpt lat="50.9517810" lon="6.9142344">
      <time>2022-05-26T12:57:29Z</time>
    </trkpt>
    <trkpt lat="50.9518545" lon="6.9141344">
      <time>2022-05-26T12:57:31Z</time>
    </trkpt>
    <trkpt lat="50.9519244" lon="6.9140438">
      <time>2022-05-26T12:57:33Z</time>
    </trkpt>
    <trkpt lat="50.9520242" lon="6.9139044">
      <time>2022-05-26T12:57:36Z</time>
    </trkpt>
    <trkpt lat="50.9520902" lon="6.9138097">
      <time>2022-05-26T12:57:38Z</time>
    </trkpt>
    <trkpt lat="50.9523208" lon="6.9134726">
      <time>2022-05-26T12:57:45Z</time>
    </trkpt>
    <trkpt lat="50.9523506" lon="6.9134229">
      <time>2022-05-26T12:57:46Z</time>
    </trkpt>
    <trkpt lat="50.9523853" lon="6.9133731">
      <time>2022-05-26T12:57:47Z</time>
    </trkpt>
    <trkpt lat="50.9525210" lon="6.9131686">
      <time>2022-05-26T12:57:51Z</time>
    </trkpt>
    <trkpt lat="50.9527706" lon="6.9127702">
      <time>2022-05-26T12:57:59Z</time>
    </trkpt>
    <trkpt lat="50.9528361" lon="6.9126858">
      <time>2022-05-26T12:58:01Z</time>
    </trkpt>
    <trkpt lat="50.9529342" lon="6.9125509">
      <time>2022-05-26T12:58:04Z</time>
    </trkpt>
    <trkpt lat="50.9530168" lon="6.9124035">
      <time>2022-05-26T12:58:07Z</time>
    </trkpt>
    <trkpt lat="50.9530876" lon="6.9123198">
      <time>2022-05-26T12:58:09Z</time>
    </trkpt>
    <trkpt lat="50.9531191" lon="6.9122724">
      <time>2022-05-26T12:58:10Z</time>
    </trkpt>
    <trkpt lat="50.9531524" lon="6.9122203">
      <time>2022-05-26T12:58:11Z</time>
    </trkpt>
    <trkpt lat="50.9532494" lon="6.9120713">
      <time>2022-05-26T12:58:14Z</time>
    </trkpt>
    <trkpt lat="50.9533211" lon="6.9119801">
      <time>2022-05-26T12:58:16Z</time>
    </trkpt>
    <trkpt lat="50.9535002" lon="6.9117215">
      <time>2022-05-26T12:58:21Z</time>
    </trkpt>
    <trkpt lat="50.9535662" lon="6.9116117">
      <time>2022-05-26T12:58:23Z</time>
    </trkpt>
    <trkpt lat="50.9538533" lon="6.9111481">
      <time>2022-05-26T12:58:31Z</time>
    </trkpt>
    <trkpt lat="50.9541438" lon="6.9106960">
      <time>2022-05-26T12:58:39Z</time>
    </trkpt>
    <trkpt lat="50.9541752" lon="6.9106456">
      <time>2022-05-26T12:58:40Z</time>
    </trkpt>
    <trkpt lat="50.9542455" lon="6.9105512">
      <time>2022-05-26T12:58:42Z</time>
    </trkpt>
    <trkpt lat="50.9542740" lon="6.9104944">
      <time>2022-05-26T12:58:43Z</time>
    </trkpt>
    <trkpt lat="50.9542976" lon="6.9104312">
      <time>2022-05-26T12:58:44Z</time>
    </trkpt>
    <trkpt lat="50.9543595" lon="6.9103272">
      <time>2022-05-26T12:58:46Z</time>
    </trkpt>
    <trkpt lat="50.9544239" lon="6.9101640">
      <time>2022-05-26T12:58:49Z</time>
    </trkpt>
    <trkpt lat="50.9544354" lon="6.9101287">
      <time>2022-05-26T12:58:50Z</time>
    </trkpt>
    <trkpt lat="50.9544632" lon="6.9100759">
      <time>2022-05-26T12:58:54Z</time>
    </trkpt>
    <trkpt lat="50.9544697" lon="6.9100506">
      <time>2022-05-26T12:58:58Z</time>
    </trkpt>
    <trkpt lat="50.9544697" lon="6.9100506">
      <time>2022-05-26T12:58:59Z</time>
    </trkpt>
    <trkpt lat="50.9544827" lon="6.9100228">
      <time>2022-05-26T12:59:17Z</time>
    </trkpt>
    <trkpt lat="50.9544932" lon="6.9099918">
      <time>2022-05-26T12:59:18Z</time>
    </trkpt>
    <trkpt lat="50.9545037" lon="6.9099497">
      <time>2022-05-26T12:59:19Z</time>
    </trkpt>
    <trkpt lat="50.9545880" lon="6.9096800">
      <time>2022-05-26T12:59:24Z</time>
    </trkpt>
    <trkpt lat="50.9546100" lon="6.9096148">
      <time>2022-05-26T12:59:25Z</time>
    </trkpt>
    <trkpt lat="50.9546784" lon="6.9094453">
      <time>2022-05-26T12:59:28Z</time>
    </trkpt>
    <trkpt lat="50.9547027" lon="6.9093791">
      <time>2022-05-26T12:59:29Z</time>
    </trkpt>
    <trkpt lat="50.9547560" lon="6.9092384">
      <time>2022-05-26T12:59:31Z</time>
    </trkpt>
    <trkpt lat="50.9547802" lon="6.9091605">
      <time>2022-05-26T12:59:32Z</time>
    </trkpt>
    <trkpt lat="50.9548840" lon="6.9088533">
      <time>2022-05-26T12:59:36Z</time>
    </trkpt>
    <trkpt lat="50.9549342" lon="6.9087032">
      <time>2022-05-26T12:59:38Z</time>
    </trkpt>
    <trkpt lat="50.9550072" lon="6.9084690">
      <time>2022-05-26T12:59:41Z</time>
    </trkpt>
    <trkpt lat="50.9550949" lon="6.9081605">
      <time>2022-05-26T12:59:45Z</time>
    </trkpt>
    <trkpt lat="50.9552857" lon="6.9075752">
      <time>2022-05-26T12:59:53Z</time>
    </trkpt>
    <trkpt lat="50.9553350" lon="6.9074259">
      <time>2022-05-26T12:59:55Z</time>
    </trkpt>
    <trkpt lat="50.9554396" lon="6.9071263">
      <time>2022-05-26T12:59:59Z</time>
    </trkpt>
    <trkpt lat="50.9554671" lon="6.9070506">
      <time>2022-05-26T13:00:00Z</time>
    </trkpt>
    <trkpt lat="50.9555453" lon="6.9068234">
      <time>2022-05-26T13:00:03Z</time>
    </trkpt>
    <trkpt lat="50.9555929" lon="6.9066699">
      <time>2022-05-26T13:00:05Z</time>
    </trkpt>
    <trkpt lat="50.9556431" lon="6.9065140">
      <time>2022-05-26T13:00:07Z</time>
    </trkpt>
    <trkpt lat="50.9557434" lon="6.9062148">
      <time>2022-05-26T13:00:11Z</time>
    </trkpt>
    <trkpt lat="50.9558460" lon="6.9059188">
      <time>2022-05-26T13:00:15Z</time>
    </trkpt>
    <trkpt lat="50.9559053" lon="6.9057706">
      <time>2022-05-26T13:00:17Z</time>
    </trkpt>
    <trkpt lat="50.9559348" lon="6.9057001">
      <time>2022-05-26T13:00:18Z</time>
    </trkpt>
    <trkpt lat="50.9560597" lon="6.9053203">
      <time>2022-05-26T13:00:23Z</time>
    </trkpt>
    <trkpt lat="50.9562682" lon="6.9046579">
      <time>2022-05-26T13:00:32Z</time>
    </trkpt>
    <trkpt lat="50.9564346" lon="6.9041687">
      <time>2022-05-26T13:00:39Z</time>
    </trkpt>
    <trkpt lat="50.9566121" lon="6.9036880">
      <time>2022-05-26T13:00:46Z</time>
    </trkpt>
    <trkpt lat="50.9566798" lon="6.9034871">
      <time>2022-05-26T13:00:49Z</time>
    </trkpt>
    <trkpt lat="50.9568130" lon="6.9031174">
      <time>2022-05-26T13:00:55Z</time>
    </trkpt>
    <trkpt lat="50.9568421" lon="6.9030372">
      <time>2022-05-26T13:00:56Z</time>
    </trkpt>
    <trkpt lat="50.9570100" lon="6.9025248">
      <time>2022-05-26T13:01:03Z</time>
    </trkpt>
    <trkpt lat="50.9570382" lon="6.9024530">
      <time>2022-05-26T13:01:04Z</time>
    </trkpt>
    <trkpt lat="50.9571064" lon="6.9022292">
      <time>2022-05-26T13:01:07Z</time>
    </trkpt>
    <trkpt lat="50.9571619" lon="6.9019899">
      <time>2022-05-26T13:01:10Z</time>
    </trkpt>
    <trkpt lat="50.9571846" lon="6.9018185">
      <time>2022-05-26T13:01:12Z</time>
    </trkpt>
    <trkpt lat="50.9572010" lon="6.9017537">
      <time>2022-05-26T13:01:13Z</time>
    </trkpt>
    <trkpt lat="50.9572890" lon="6.9015095">
      <time>2022-05-26T13:01:16Z</time>
    </trkpt>
    <trkpt lat="50.9573236" lon="6.9014623">
      <time>2022-05-26T13:01:17Z</time>
    </trkpt>
    <trkpt lat="50.9573645" lon="6.9013737">
      <time>2022-05-26T13:01:18Z</time>
    </trkpt>
    <trkpt lat="50.9574342" lon="6.9011452">
      <time>2022-05-26T13:01:21Z</time>
    </trkpt>
    <trkpt lat="50.9575274" lon="6.9008877">
      <time>2022-05-26T13:01:26Z</time>
    </trkpt>
    <trkpt lat="50.9575348" lon="6.9008596">
      <time>2022-05-26T13:01:30Z</time>
    </trkpt>
    <trkpt lat="50.9575348" lon="6.9008596">
      <time>2022-05-26T13:01:32Z</time>
    </trkpt>
    <trkpt lat="50.9575596" lon="6.9007894">
      <time>2022-05-26T13:01:40Z</time>
    </trkpt>
    <trkpt lat="50.9575678" lon="6.9007474">
      <time>2022-05-26T13:01:41Z</time>
    </trkpt>
    <trkpt lat="50.9576495" lon="6.9005231">
      <time>2022-05-26T13:01:46Z</time>
    </trkpt>
    <trkpt lat="50.9577008" lon="6.9003973">
      <time>2022-05-26T13:01:48Z</time>
    </trkpt>
    <trkpt lat="50.9577510" lon="6.9002798">
      <time>2022-05-26T13:01:50Z</time>
    </trkpt>
    <trkpt lat="50.9577757" lon="6.9002170">
      <time>2022-05-26T13:01:51Z</time>
    </trkpt>
    <trkpt lat="50.9579683" lon="6.8998268">
      <time>2022-05-26T13:01:57Z</time>
    </trkpt>
    <trkpt lat="50.9581095" lon="6.8994918">
      <time>2022-05-26T13:02:02Z</time>
    </trkpt>
    <trkpt lat="50.9581340" lon="6.8994464">
      <time>2022-05-26T13:02:03Z</time>
    </trkpt>
    <trkpt lat="50.9582419" lon="6.8992237">
      <time>2022-05-26T13:02:07Z</time>
    </trkpt>
    <trkpt lat="50.9582795" lon="6.8991387">
      <time>2022-05-26T13:02:08Z</time>
    </trkpt>
    <trkpt lat="50.9585096" lon="6.8986698">
      <time>2022-05-26T13:02:14Z</time>
    </trkpt>
    <trkpt lat="50.9587867" lon="6.8980591">
      <time>2022-05-26T13:02:21Z</time>
    </trkpt>
    <trkpt lat="50.9590706" lon="6.8974363">
      <time>2022-05-26T13:02:28Z</time>
    </trkpt>
    <trkpt lat="50.9593959" lon="6.8967269">
      <time>2022-05-26T13:02:36Z</time>
    </trkpt>
    <trkpt lat="50.9594637" lon="6.8965858">
      <time>2022-05-26T13:02:38Z</time>
    </trkpt>
    <trkpt lat="50.9597215" lon="6.8960529">
      <time>2022-05-26T13:02:45Z</time>
    </trkpt>
    <trkpt lat="50.9599059" lon="6.8956622">
      <time>2022-05-26T13:02:50Z</time>
    </trkpt>
    <trkpt lat="50.9601107" lon="6.8952502">
      <time>2022-05-26T13:02:55Z</time>
    </trkpt>
    <trkpt lat="50.9604315" lon="6.8945992">
      <time>2022-05-26T13:03:04Z</time>
    </trkpt>
    <trkpt lat="50.9605993" lon="6.8942853">
      <time>2022-05-26T13:03:09Z</time>
    </trkpt>
    <trkpt lat="50.9606321" lon="6.8942152">
      <time>2022-05-26T13:03:10Z</time>
    </trkpt>
    <trkpt lat="50.9606895" lon="6.8940905">
      <time>2022-05-26T13:03:12Z</time>
    </trkpt>
    <trkpt lat="50.9607698" lon="6.8938463">
      <time>2022-05-26T13:03:15Z</time>
    </trkpt>
    <trkpt lat="50.9608754" lon="6.8936455">
      <time>2022-05-26T13:03:18Z</time>
    </trkpt>
    <trkpt lat="50.9609618" lon="6.8935610">
      <time>2022-05-26T13:03:20Z</time>
    </trkpt>
    <trkpt lat="50.9609935" lon="6.8935290">
      <time>2022-05-26T13:03:21Z</time>
    </trkpt>
    <trkpt lat="50.9610671" lon="6.8934317">
      <time>2022-05-26T13:03:23Z</time>
    </trkpt>
    <trkpt lat="50.9611080" lon="6.8933641">
      <time>2022-05-26T13:03:24Z</time>
    </trkpt>
    <trkpt lat="50.9611649" lon="6.8932431">
      <time>2022-05-26T13:03:26Z</time>
    </trkpt>
    <trkpt lat="50.9612716" lon="6.8930392">
      <time>2022-05-26T13:03:30Z</time>
    </trkpt>
    <trkpt lat="50.9612947" lon="6.8929679">
      <time>2022-05-26T13:03:32Z</time>
    </trkpt>
    <trkpt lat="50.9612887" lon="6.8929323">
      <time>2022-05-26T13:03:33Z</time>
    </trkpt>
    <trkpt lat="50.9611889" lon="6.8928189">
      <time>2022-05-26T13:03:37Z</time>
    </trkpt>
    <trkpt lat="50.9611208" lon="6.8927337">
      <time>2022-05-26T13:03:41Z</time>
    </trkpt>
    <trkpt lat="50.9611188" lon="6.8926873">
      <time>2022-05-26T13:03:42Z</time>
    </trkpt>
    <trkpt lat="50.9611274" lon="6.8926449">
      <time>2022-05-26T13:03:43Z</time>
    </trkpt>
    <trkpt lat="50.9611147" lon="6.8925639">
      <time>2022-05-26T13:03:45Z</time>
    </trkpt>
    <trkpt lat="50.9610929" lon="6.8925210">
      <time>2022-05-26T13:03:46Z</time>
    </trkpt>
    <trkpt lat="50.9610240" lon="6.8924149">
      <time>2022-05-26T13:03:48Z</time>
    </trkpt>
    <trkpt lat="50.9609949" lon="6.8923590">
      <time>2022-05-26T13:03:49Z</time>
    </trkpt>
    <trkpt lat="50.9609294" lon="6.8922594">
      <time>2022-05-26T13:03:51Z</time>
    </trkpt>
    <trkpt lat="50.9607910" lon="6.8919954">
      <time>2022-05-26T13:03:55Z</time>
    </trkpt>
    <trkpt lat="50.9606390" lon="6.8916197">
      <time>2022-05-26T13:04:00Z</time>
    </trkpt>
    <trkpt lat="50.9604081" lon="6.8911224">
      <time>2022-05-26T13:04:07Z</time>
    </trkpt>
    <trkpt lat="50.9602576" lon="6.8907625">
      <time>2022-05-26T13:04:12Z</time>
    </trkpt>
    <trkpt lat="50.9602379" lon="6.8906792">
      <time>2022-05-26T13:04:13Z</time>
    </trkpt>
    <trkpt lat="50.9601715" lon="6.8901268">
      <time>2022-05-26T13:04:19Z</time>
    </trkpt>
    <trkpt lat="50.9602216" lon="6.8895480">
      <time>2022-05-26T13:04:25Z</time>
    </trkpt>
    <trkpt lat="50.9602392" lon="6.8893325">
      <time>2022-05-26T13:04:28Z</time>
    </trkpt>
    <trkpt lat="50.9603102" lon="6.8881611">
      <time>2022-05-26T13:04:41Z</time>
    </trkpt>
    <trkpt lat="50.9603401" lon="6.8881081">
      <time>2022-05-26T13:04:42Z</time>
    </trkpt>
    <trkpt lat="50.9603293" lon="6.8880485">
      <time>2022-05-26T13:04:43Z</time>
    </trkpt>
    <trkpt lat="50.9603058" lon="6.8879084">
      <time>2022-05-26T13:04:45Z</time>
    </trkpt>
    <trkpt lat="50.9602822" lon="6.8875522">
      <time>2022-05-26T13:04:49Z</time>
    </trkpt>
    <trkpt lat="50.9602285" lon="6.8871818">
      <time>2022-05-26T13:04:53Z</time>
    </trkpt>
    <trkpt lat="50.9601538" lon="6.8868075">
      <time>2022-05-26T13:04:57Z</time>
    </trkpt>
    <trkpt lat="50.9601133" lon="6.8866500">
      <time>2022-05-26T13:04:59Z</time>
    </trkpt>
    <trkpt lat="50.9600482" lon="6.8864294">
      <time>2022-05-26T13:05:02Z</time>
    </trkpt>
    <trkpt lat="50.9599698" lon="6.8862358">
      <time>2022-05-26T13:05:05Z</time>
    </trkpt>
    <trkpt lat="50.9599094" lon="6.8861261">
      <time>2022-05-26T13:05:07Z</time>
    </trkpt>
    <trkpt lat="50.9598700" lon="6.8860377">
      <time>2022-05-26T13:05:09Z</time>
    </trkpt>
    <trkpt lat="50.9598817" lon="6.8859192">
      <time>2022-05-26T13:05:11Z</time>
    </trkpt>
    <trkpt lat="50.9599115" lon="6.8858835">
      <time>2022-05-26T13:05:12Z</time>
    </trkpt>
    <trkpt lat="50.9599499" lon="6.8858654">
      <time>2022-05-26T13:05:13Z</time>
    </trkpt>
    <trkpt lat="50.9600930" lon="6.8858177">
      <time>2022-05-26T13:05:17Z</time>
    </trkpt>
    <trkpt lat="50.9603226" lon="6.8858030">
      <time>2022-05-26T13:05:23Z</time>
    </trkpt>
    <trkpt lat="50.9604301" lon="6.8857762">
      <time>2022-05-26T13:05:26Z</time>
    </trkpt>
    <trkpt lat="50.9605548" lon="6.8857604">
      <time>2022-05-26T13:05:29Z</time>
    </trkpt>
    <trkpt lat="50.9608462" lon="6.8856701">
      <time>2022-05-26T13:05:35Z</time>
    </trkpt>
    <trkpt lat="50.9611883" lon="6.8855742">
      <time>2022-05-26T13:05:41Z</time>
    </trkpt>
    <trkpt lat="50.9612450" lon="6.8855403">
      <time>2022-05-26T13:05:42Z</time>
    </trkpt>
    <trkpt lat="50.9614157" lon="6.8854110">
      <time>2022-05-26T13:05:45Z</time>
    </trkpt>
    <trkpt lat="50.9614546" lon="6.8853661">
      <time>2022-05-26T13:05:46Z</time>
    </trkpt>
    <trkpt lat="50.9616627" lon="6.8851747">
      <time>2022-05-26T13:05:50Z</time>
    </trkpt>
    <trkpt lat="50.9617045" lon="6.8851513">
      <time>2022-05-26T13:05:51Z</time>
    </trkpt>
    <trkpt lat="50.9618236" lon="6.8850930">
      <time>2022-05-26T13:05:53Z</time>
    </trkpt>
    <trkpt lat="50.9619580" lon="6.8850321">
      <time>2022-05-26T13:05:56Z</time>
    </trkpt>
    <trkpt lat="50.9620116" lon="6.8849130">
      <time>2022-05-26T13:05:58Z</time>
    </trkpt>
    <trkpt lat="50.9620127" lon="6.8847820">
      <time>2022-05-26T13:06:00Z</time>
    </trkpt>
    <trkpt lat="50.9620193" lon="6.8845432">
      <time>2022-05-26T13:06:03Z</time>
    </trkpt>
    <trkpt lat="50.9620271" lon="6.8844592">
      <time>2022-05-26T13:06:04Z</time>
    </trkpt>
    <trkpt lat="50.9620835" lon="6.8841529">
      <time>2022-05-26T13:06:08Z</time>
    </trkpt>
    <trkpt lat="50.9620976" lon="6.8840826">
      <time>2022-05-26T13:06:09Z</time>
    </trkpt>
    <trkpt lat="50.9621125" lon="6.8839318">
      <time>2022-05-26T13:06:11Z</time>
    </trkpt>
    <trkpt lat="50.9621408" lon="6.8835433">
      <time>2022-05-26T13:06:16Z</time>
    </trkpt>
    <trkpt lat="50.9621473" lon="6.8834696">
      <time>2022-05-26T13:06:17Z</time>
    </trkpt>
    <trkpt lat="50.9622175" lon="6.8831100">
      <time>2022-05-26T13:06:22Z</time>
    </trkpt>
    <trkpt lat="50.9622948" lon="6.8825767">
      <time>2022-05-26T13:06:29Z</time>
    </trkpt>
    <trkpt lat="50.9623760" lon="6.8819380">
      <time>2022-05-26T13:06:37Z</time>
    </trkpt>
    <trkpt lat="50.9624860" lon="6.8813123">
      <time>2022-05-26T13:06:45Z</time>
    </trkpt>
    <trkpt lat="50.9625695" lon="6.8808107">
      <time>2022-05-26T13:06:52Z</time>
    </trkpt>
    <trkpt lat="50.9626518" lon="6.8802434">
      <time>2022-05-26T13:07:00Z</time>
    </trkpt>
    <trkpt lat="50.9627153" lon="6.8798682">
      <time>2022-05-26T13:07:05Z</time>
    </trkpt>
    <trkpt lat="50.9627419" lon="6.8797300">
      <time>2022-05-26T13:07:07Z</time>
    </trkpt>
    <trkpt lat="50.9627583" lon="6.8796645">
      <time>2022-05-26T13:07:08Z</time>
    </trkpt>
    <trkpt lat="50.9627688" lon="6.8795982">
      <time>2022-05-26T13:07:09Z</time>
    </trkpt>
    <trkpt lat="50.9628197" lon="6.8792524">
      <time>2022-05-26T13:07:14Z</time>
    </trkpt>
    <trkpt lat="50.9628638" lon="6.8790502">
      <time>2022-05-26T13:07:17Z</time>
    </trkpt>
    <trkpt lat="50.9629083" lon="6.8789348">
      <time>2022-05-26T13:07:19Z</time>
    </trkpt>
    <trkpt lat="50.9629314" lon="6.8788908">
      <time>2022-05-26T13:07:20Z</time>
    </trkpt>
    <trkpt lat="50.9631188" lon="6.8786224">
      <time>2022-05-26T13:07:27Z</time>
    </trkpt>
    <trkpt lat="50.9631800" lon="6.8785237">
      <time>2022-05-26T13:07:29Z</time>
    </trkpt>
    <trkpt lat="50.9632597" lon="6.8784209">
      <time>2022-05-26T13:07:31Z</time>
    </trkpt>
    <trkpt lat="50.9632957" lon="6.8783742">
      <time>2022-05-26T13:07:32Z</time>
    </trkpt>
    <trkpt lat="50.9633696" lon="6.8783057">
      <time>2022-05-26T13:07:34Z</time>
    </trkpt>
    <trkpt lat="50.9634494" lon="6.8782768">
      <time>2022-05-26T13:07:36Z</time>
    </trkpt>
    <trkpt lat="50.9636460" lon="6.8781258">
      <time>2022-05-26T13:07:42Z</time>
    </trkpt>
    <trkpt lat="50.9636840" lon="6.8780868">
      <time>2022-05-26T13:07:44Z</time>
    </trkpt>
    <trkpt lat="50.9636964" lon="6.8780500">
      <time>2022-05-26T13:07:47Z</time>
    </trkpt>
    <trkpt lat="50.9636964" lon="6.8780500">
      <time>2022-05-26T13:07:49Z</time>
    </trkpt>
    <trkpt lat="50.9636908" lon="6.8779373">
      <time>2022-05-26T13:07:56Z</time>
    </trkpt>
    <trkpt lat="50.9636678" lon="6.8779228">
      <time>2022-05-26T13:07:57Z</time>
    </trkpt>
    <trkpt lat="50.9635616" lon="6.8777789">
      <time>2022-05-26T13:08:01Z</time>
    </trkpt>
    <trkpt lat="50.9633924" lon="6.8774581">
      <time>2022-05-26T13:08:07Z</time>
    </trkpt>
    <trkpt lat="50.9632455" lon="6.8771868">
      <time>2022-05-26T13:08:12Z</time>
    </trkpt>
    <trkpt lat="50.9631981" lon="6.8770977">
      <time>2022-05-26T13:08:14Z</time>
    </trkpt>
    <trkpt lat="50.9631247" lon="6.8769820">
      <time>2022-05-26T13:08:17Z</time>
    </trkpt>
    <trkpt lat="50.9630896" lon="6.8768785">
      <time>2022-05-26T13:08:19Z</time>
    </trkpt>
    <trkpt lat="50.9630981" lon="6.8765538">
      <time>2022-05-26T13:08:25Z</time>
    </trkpt>
    <trkpt lat="50.9632094" lon="6.8762114">
      <time>2022-05-26T13:08:32Z</time>
    </trkpt>
    <trkpt lat="50.9632600" lon="6.8760461">
      <time>2022-05-26T13:08:37Z</time>
    </trkpt>
    <trkpt lat="50.9632908" lon="6.8759679">
      <time>2022-05-26T13:08:40Z</time>
    </trkpt>
    <trkpt lat="50.9633326" lon="6.8759390">
      <time>2022-05-26T13:08:42Z</time>
    </trkpt>
    <trkpt lat="50.9634006" lon="6.8759438">
      <time>2022-05-26T13:08:47Z</time>
    </trkpt>
    <trkpt lat="50.9634042" lon="6.8759441">
      <time>2022-05-26T13:08:51Z</time>
    </trkpt>
    <trkpt lat="50.9636882" lon="6.8756341">
      <time>2022-05-26T13:14:30Z</time>
    </trkpt>
    <trkpt lat="50.9636139" lon="6.8756054">
      <time>2022-05-26T13:14:33Z</time>
    </trkpt>
    <trkpt lat="50.9637280" lon="6.8754599">
      <time>2022-05-26T13:14:35Z</time>
    </trkpt>
    <trkpt lat="50.9635020" lon="6.8755605">
      <time>2022-05-26T13:24:15Z</time>
    </trkpt>
    <trkpt lat="50.9634759" lon="6.8754792">
      <time>2022-05-26T13:24:16Z</time>
    </trkpt>
    <trkpt lat="50.9634499" lon="6.8756164">
      <time>2022-05-26T13:24:18Z</time>
    </trkpt>
  </trkseg></trk>
</gpx>
