<?xml version="1.0" encoding="UTF-8"?>
<gpx version="1.1" creator="Diary FIT converter" xmlns="http://www.topografix.com/GPX/1/1">
  <trk><name>Running</name><trkseg>
    <trkpt lat="50.9629151" lon="6.8769674">
      <time>2022-03-28T15:23:51Z</time>
    </trkpt>
    <trkpt lat="50.9627858" lon="6.8769197">
      <time>2022-03-28T15:23:55Z</time>
    </trkpt>
    <trkpt lat="50.9627811" lon="6.8769283">
      <time>2022-03-28T15:23:56Z</time>
    </trkpt>
    <trkpt lat="50.9627547" lon="6.8769861">
      <time>2022-03-28T15:23:59Z</time>
    </trkpt>
    <trkpt lat="50.9626860" lon="6.8770538">
      <time>2022-03-28T15:24:03Z</time>
    </trkpt>
    <trkpt lat="50.9625773" lon="6.8770499">
      <time>2022-03-28T15:24:07Z</time>
    </trkpt>
    <trkpt lat="50.9625234" lon="6.8770263">
      <time>2022-03-28T15:24:09Z</time>
    </trkpt>
    <trkpt lat="50.9623283" lon="6.8769645">
      <time>2022-03-28T15:24:17Z</time>
    </trkpt>
    <trkpt lat="50.9622565" lon="6.8769404">
      <time>2022-03-28T15:24:20Z</time>
    </trkpt>
    <trkpt lat="50.9621505" lon="6.8768714">
      <time>2022-03-28T15:24:25Z</time>
    </trkpt>
    <trkpt lat="50.9620530" lon="6.8768664">
      <time>2022-03-28T15:24:30Z</time>
    </trkpt>
    <trkpt lat="50.9620145" lon="6.8770094">
      <time>2022-03-28T15:24:35Z</time>
    </trkpt>
    <trkpt lat="50.9620126" lon="6.8771335">
      <time>2022-03-28T15:24:39Z</time>
    </trkpt>
    <trkpt lat="50.9619948" lon="6.8772751">
      <time>2022-03-28T15:24:43Z</time>
    </trkpt>
    <trkpt lat="50.9618441" lon="6.8774027">
      <time>2022-03-28T15:24:50Z</time>
    </trkpt>
    <trkpt lat="50.9616674" lon="6.8775077">
      <time>2022-03-28T15:24:57Z</time>
    </trkpt>
    <trkpt lat="50.9615722" lon="6.8775479">
      <time>2022-03-28T15:25:02Z</time>
    </trkpt>
    <trkpt lat="50.9613663" lon="6.8776765">
      <time>2022-03-28T15:25:08Z</time>
    </trkpt>
    <trkpt lat="50.9613315" lon="6.8777033">
      <time>2022-03-28T15:25:09Z</time>
    </trkpt>
    <trkpt lat="50.9611355" lon="6.8777908">
      <time>2022-03-28T15:25:16Z</time>
    </trkpt>
    <trkpt lat="50.9609430" lon="6.8779008">
      <time>2022-03-28T15:25:23Z</time>
    </trkpt>
    <trkpt lat="50.9608789" lon="6.8779119">
      <time>2022-03-28T15:25:25Z</time>
    </trkpt>
    <trkpt lat="50.9606903" lon="6.8779507">
      <time>2022-03-28T15:25:31Z</time>
    </trkpt>
    <trkpt lat="50.9606360" lon="6.8779716">
      <time>2022-03-28T15:25:33Z</time>
    </trkpt>
    <trkpt lat="50.9604572" lon="6.8780447">
      <time>2022-03-28T15:25:40Z</time>
    </trkpt>
    <trkpt lat="50.9604357" lon="6.8780524">
      <time>2022-03-28T15:25:41Z</time>
    </trkpt>
    <trkpt lat="50.9602817" lon="6.8781151">
      <time>2022-03-28T15:25:48Z</time>
    </trkpt>
    <trkpt lat="50.9601240" lon="6.8782057">
      <time>2022-03-28T15:25:55Z</time>
    </trkpt>
    <trkpt lat="50.9599846" lon="6.8781540">
      <time>2022-03-28T15:26:01Z</time>
    </trkpt>
    <trkpt lat="50.9598416" lon="6.8780033">
      <time>2022-03-28T15:26:09Z</time>
    </trkpt>
    <trkpt lat="50.9596886" lon="6.8778049">
      <time>2022-03-28T15:26:17Z</time>
    </trkpt>
    <trkpt lat="50.9596197" lon="6.8775832">
      <time>2022-03-28T15:26:23Z</time>
    </trkpt>
    <trkpt lat="50.9596244" lon="6.8775444">
      <time>2022-03-28T15:26:24Z</time>
    </trkpt>
    <trkpt lat="50.9596336" lon="6.8774151">
      <time>2022-03-28T15:26:27Z</time>
    </trkpt>
    <trkpt lat="50.9596619" lon="6.8772930">
      <time>2022-03-28T15:26:30Z</time>
    </trkpt>
    <trkpt lat="50.9596697" lon="6.8772567">
      <time>2022-03-28T15:26:31Z</time>
    </trkpt>
    <trkpt lat="50.9596639" lon="6.8771772">
      <time>2022-03-28T15:26:33Z</time>
    </trkpt>
    <trkpt lat="50.9596237" lon="6.8768606">
      <time>2022-03-28T15:26:40Z</time>
    </trkpt>
    <trkpt lat="50.9596118" lon="6.8767363">
      <time>2022-03-28T15:26:43Z</time>
    </trkpt>
    <trkpt lat="50.9595976" lon="6.8765636">
      <time>2022-03-28T15:26:47Z</time>
    </trkpt>
    <trkpt lat="50.9595732" lon="6.8764316">
      <time>2022-03-28T15:26:50Z</time>
    </trkpt>
    <trkpt lat="50.9595298" lon="6.8761399">
      <time>2022-03-28T15:26:57Z</time>
    </trkpt>
    <trkpt lat="50.9595027" lon="6.8758518">
      <time>2022-03-28T15:27:04Z</time>
    </trkpt>
    <trkpt lat="50.9595206" lon="6.8756414">
      <time>2022-03-28T15:27:10Z</time>
    </trkpt>
    <trkpt lat="50.9595461" lon="6.8754563">
      <time>2022-03-28T15:27:15Z</time>
    </trkpt>
    <trkpt lat="50.9595561" lon="6.8752878">
      <time>2022-03-28T15:27:19Z</time>
    </trkpt>
    <trkpt lat="50.9595796" lon="6.8750699">
      <time>2022-03-28T15:27:25Z</time>
    </trkpt>
    <trkpt lat="50.9595985" lon="6.8747622">
      <time>2022-03-28T15:27:33Z</time>
    </trkpt>
    <trkpt lat="50.9596109" lon="6.8744683">
      <time>2022-03-28T15:27:40Z</time>
    </trkpt>
    <trkpt lat="50.9596447" lon="6.8742362">
      <time>2022-03-28T15:27:46Z</time>
    </trkpt>
    <trkpt lat="50.9596317" lon="6.8739971">
      <time>2022-03-28T15:27:52Z</time>
    </trkpt>
    <trkpt lat="50.9596021" lon="6.8737290">
      <time>2022-03-28T15:27:59Z</time>
    </trkpt>
    <trkpt lat="50.9595819" lon="6.8734808">
      <time>2022-03-28T15:28:06Z</time>
    </trkpt>
    <trkpt lat="50.9595302" lon="6.8732247">
      <time>2022-03-28T15:28:13Z</time>
    </trkpt>
    <trkpt lat="50.9594919" lon="6.8729756">
      <time>2022-03-28T15:28:20Z</time>
    </trkpt>
    <trkpt lat="50.9594755" lon="6.8727442">
      <time>2022-03-28T15:28:26Z</time>
    </trkpt>
    <trkpt lat="50.9594120" lon="6.8724714">
      <time>2022-03-28T15:28:33Z</time>
    </trkpt>
    <trkpt lat="50.9594078" lon="6.8724337">
      <time>2022-03-28T15:28:34Z</time>
    </trkpt>
    <trkpt lat="50.9593370" lon="6.8721629">
      <time>2022-03-28T15:28:41Z</time>
    </trkpt>
    <trkpt lat="50.9593275" lon="6.8721330">
      <time>2022-03-28T15:28:42Z</time>
    </trkpt>
    <trkpt lat="50.9592682" lon="6.8718893">
      <time>2022-03-28T15:28:49Z</time>
    </trkpt>
    <trkpt lat="50.9591880" lon="6.8716498">
      <time>2022-03-28T15:28:56Z</time>
    </trkpt>
    <trkpt lat="50.9590975" lon="6.8714016">
      <time>2022-03-28T15:29:04Z</time>
    </trkpt>
    <trkpt lat="50.9590623" lon="6.8713640">
      <time>2022-03-28T15:29:06Z</time>
    </trkpt>
    <trkpt lat="50.9589742" lon="6.8713056">
      <time>2022-03-28T15:29:11Z</time>
    </trkpt>
    <trkpt lat="50.9588292" lon="6.8712971">
      <time>2022-03-28T15:29:18Z</time>
    </trkpt>
    <trkpt lat="50.9586693" lon="6.8713071">
      <time>2022-03-28T15:29:24Z</time>
    </trkpt>
    <trkpt lat="50.9584985" lon="6.8712807">
      <time>2022-03-28T15:29:31Z</time>
    </trkpt>
    <trkpt lat="50.9584789" lon="6.8712658">
      <time>2022-03-28T15:29:32Z</time>
    </trkpt>
    <trkpt lat="50.9583040" lon="6.8711404">
      <time>2022-03-28T15:29:39Z</time>
    </trkpt>
    <trkpt lat="50.9582503" lon="6.8710872">
      <time>2022-03-28T15:29:41Z</time>
    </trkpt>
    <trkpt lat="50.9581678" lon="6.8709568">
      <time>2022-03-28T15:29:46Z</time>
    </trkpt>
    <trkpt lat="50.9581581" lon="6.8709140">
      <time>2022-03-28T15:29:48Z</time>
    </trkpt>
    <trkpt lat="50.9581868" lon="6.8707240">
      <time>2022-03-28T15:29:53Z</time>
    </trkpt>
    <trkpt lat="50.9582696" lon="6.8704407">
      <time>2022-03-28T15:30:01Z</time>
    </trkpt>
    <trkpt lat="50.9582741" lon="6.8704026">
      <time>2022-03-28T15:30:02Z</time>
    </trkpt>
    <trkpt lat="50.9583088" lon="6.8702597">
      <time>2022-03-28T15:30:06Z</time>
    </trkpt>
    <trkpt lat="50.9583190" lon="6.8702286">
      <time>2022-03-28T15:30:07Z</time>
    </trkpt>
    <trkpt lat="50.9583268" lon="6.8701978">
      <time>2022-03-28T15:30:08Z</time>
    </trkpt>
    <trkpt lat="50.9583495" lon="6.8699708">
      <time>2022-03-28T15:30:16Z</time>
    </trkpt>
    <trkpt lat="50.9583703" lon="6.8698829">
      <time>2022-03-28T15:30:21Z</time>
    </trkpt>
    <trkpt lat="50.9583790" lon="6.8698562">
      <time>2022-03-28T15:30:23Z</time>
    </trkpt>
    <trkpt lat="50.9583858" lon="6.8697751">
      <time>2022-03-28T15:30:29Z</time>
    </trkpt>
    <trkpt lat="50.9584132" lon="6.8697276">
      <time>2022-03-28T15:30:32Z</time>
    </trkpt>
    <trkpt lat="50.9584277" lon="6.8697131">
      <time>2022-03-28T15:30:36Z</time>
    </trkpt>
    <trkpt lat="50.9584223" lon="6.8697291">
      <time>2022-03-28T15:30:38Z</time>
    </trkpt>
    <trkpt lat="50.9585678" lon="6.8691235">
      <time>2022-03-28T15:32:29Z</time>
    </trkpt>
    <trkpt lat="50.9585808" lon="6.8690638">
      <time>2022-03-28T15:32:30Z</time>
    </trkpt>
    <trkpt lat="50.9586177" lon="6.8688871">
      <time>2022-03-28T15:32:33Z</time>
    </trkpt>
    <trkpt lat="50.9586361" lon="6.8687835">
      <time>2022-03-28T15:32:35Z</time>
    </trkpt>
    <trkpt lat="50.9586315" lon="6.8687194">
      <time>2022-03-28T15:32:37Z</time>
    </trkpt>
    <trkpt lat="50.9585914" lon="6.8686915">
      <time>2022-03-28T15:32:39Z</time>
    </trkpt>
    <trkpt lat="50.9585282" lon="6.8686920">
      <time>2022-03-28T15:32:43Z</time>
    </trkpt>
    <trkpt lat="50.9585013" lon="6.8686942">
      <time>2022-03-28T15:32:48Z</time>
    </trkpt>
    <trkpt lat="50.9584493" lon="6.8683700">
      <time>2022-03-28T15:33:04Z</time>
    </trkpt>
    <trkpt lat="50.9584741" lon="6.8683099">
      <time>2022-03-28T15:33:06Z</time>
    </trkpt>
    <trkpt lat="50.9584963" lon="6.8682906">
      <time>2022-03-28T15:33:07Z</time>
    </trkpt>
    <trkpt lat="50.9586735" lon="6.8681786">
      <time>2022-03-28T15:33:13Z</time>
    </trkpt>
    <trkpt lat="50.9586998" lon="6.8681492">
      <time>2022-03-28T15:33:14Z</time>
    </trkpt>
    <trkpt lat="50.9587582" lon="6.8679787">
      <time>2022-03-28T15:33:18Z</time>
    </trkpt>
    <trkpt lat="50.9588366" lon="6.8677148">
      <time>2022-03-28T15:33:24Z</time>
    </trkpt>
    <trkpt lat="50.9588642" lon="6.8676231">
      <time>2022-03-28T15:33:26Z</time>
    </trkpt>
    <trkpt lat="50.9588634" lon="6.8674436">
      <time>2022-03-28T15:33:30Z</time>
    </trkpt>
    <trkpt lat="50.9588444" lon="6.8674147">
      <time>2022-03-28T15:33:31Z</time>
    </trkpt>
    <trkpt lat="50.9588183" lon="6.8673975">
      <time>2022-03-28T15:33:32Z</time>
    </trkpt>
    <trkpt lat="50.9587443" lon="6.8674238">
      <time>2022-03-28T15:33:35Z</time>
    </trkpt>
    <trkpt lat="50.9585697" lon="6.8674850">
      <time>2022-03-28T15:33:41Z</time>
    </trkpt>
    <trkpt lat="50.9584858" lon="6.8675479">
      <time>2022-03-28T15:33:45Z</time>
    </trkpt>
    <trkpt lat="50.9582988" lon="6.8676186">
      <time>2022-03-28T15:33:53Z</time>
    </trkpt>
    <trkpt lat="50.9581082" lon="6.8676827">
      <time>2022-03-28T15:34:01Z</time>
    </trkpt>
    <trkpt lat="50.9580729" lon="6.8676872">
      <time>2022-03-28T15:34:02Z</time>
    </trkpt>
    <trkpt lat="50.9578895" lon="6.8677686">
      <time>2022-03-28T15:34:10Z</time>
    </trkpt>
    <trkpt lat="50.9578294" lon="6.8677948">
      <time>2022-03-28T15:34:13Z</time>
    </trkpt>
    <trkpt lat="50.9576702" lon="6.8678456">
      <time>2022-03-28T15:34:21Z</time>
    </trkpt>
    <trkpt lat="50.9576532" lon="6.8678539">
      <time>2022-03-28T15:34:22Z</time>
    </trkpt>
    <trkpt lat="50.9574982" lon="6.8678998">
      <time>2022-03-28T15:34:29Z</time>
    </trkpt>
    <trkpt lat="50.9573373" lon="6.8679268">
      <time>2022-03-28T15:34:35Z</time>
    </trkpt>
    <trkpt lat="50.9571558" lon="6.8680002">
      <time>2022-03-28T15:34:43Z</time>
    </trkpt>
    <trkpt lat="50.9571084" lon="6.8680181">
      <time>2022-03-28T15:34:45Z</time>
    </trkpt>
    <trkpt lat="50.9569421" lon="6.8680746">
      <time>2022-03-28T15:34:52Z</time>
    </trkpt>
    <trkpt lat="50.9567471" lon="6.8681396">
      <time>2022-03-28T15:35:00Z</time>
    </trkpt>
    <trkpt lat="50.9567199" lon="6.8681508">
      <time>2022-03-28T15:35:01Z</time>
    </trkpt>
    <trkpt lat="50.9565138" lon="6.8682336">
      <time>2022-03-28T15:35:09Z</time>
    </trkpt>
    <trkpt lat="50.9563213" lon="6.8683180">
      <time>2022-03-28T15:35:16Z</time>
    </trkpt>
    <trkpt lat="50.9561659" lon="6.8683138">
      <time>2022-03-28T15:35:22Z</time>
    </trkpt>
    <trkpt lat="50.9560323" lon="6.8683410">
      <time>2022-03-28T15:35:28Z</time>
    </trkpt>
    <trkpt lat="50.9558302" lon="6.8683707">
      <time>2022-03-28T15:35:35Z</time>
    </trkpt>
    <trkpt lat="50.9556262" lon="6.8683641">
      <time>2022-03-28T15:35:42Z</time>
    </trkpt>
    <trkpt lat="50.9554182" lon="6.8684009">
      <time>2022-03-28T15:35:49Z</time>
    </trkpt>
    <trkpt lat="50.9552450" lon="6.8684211">
      <time>2022-03-28T15:35:55Z</time>
    </trkpt>
    <trkpt lat="50.9550497" lon="6.8684195">
      <time>2022-03-28T15:36:03Z</time>
    </trkpt>
    <trkpt lat="50.9550032" lon="6.8684212">
      <time>2022-03-28T15:36:05Z</time>
    </trkpt>
    <trkpt lat="50.9549802" lon="6.8684269">
      <time>2022-03-28T15:36:06Z</time>
    </trkpt>
    <trkpt lat="50.9547955" lon="6.8684402">
      <time>2022-03-28T15:36:13Z</time>
    </trkpt>
    <trkpt lat="50.9547683" lon="6.8684423">
      <time>2022-03-28T15:36:14Z</time>
    </trkpt>
    <trkpt lat="50.9546030" lon="6.8684936">
      <time>2022-03-28T15:36:21Z</time>
    </trkpt>
    <trkpt lat="50.9544248" lon="6.8685241">
      <time>2022-03-28T15:36:29Z</time>
    </trkpt>
    <trkpt lat="50.9542421" lon="6.8685536">
      <time>2022-03-28T15:36:37Z</time>
    </trkpt>
    <trkpt lat="50.9540674" lon="6.8686346">
      <time>2022-03-28T15:36:43Z</time>
    </trkpt>
    <trkpt lat="50.9538994" lon="6.8687097">
      <time>2022-03-28T15:36:50Z</time>
    </trkpt>
    <trkpt lat="50.9538713" lon="6.8687213">
      <time>2022-03-28T15:36:51Z</time>
    </trkpt>
    <trkpt lat="50.9538243" lon="6.8687437">
      <time>2022-03-28T15:36:53Z</time>
    </trkpt>
    <trkpt lat="50.9536993" lon="6.8687819">
      <time>2022-03-28T15:36:59Z</time>
    </trkpt>
    <trkpt lat="50.9535515" lon="6.8688352">
      <time>2022-03-28T15:37:06Z</time>
    </trkpt>
    <trkpt lat="50.9535109" lon="6.8688505">
      <time>2022-03-28T15:37:08Z</time>
    </trkpt>
    <trkpt lat="50.9533357" lon="6.8688983">
      <time>2022-03-28T15:37:15Z</time>
    </trkpt>
    <trkpt lat="50.9531981" lon="6.8688825">
      <time>2022-03-28T15:37:21Z</time>
    </trkpt>
    <trkpt lat="50.9531891" lon="6.8688564">
      <time>2022-03-28T15:37:22Z</time>
    </trkpt>
    <trkpt lat="50.9531738" lon="6.8686213">
      <time>2022-03-28T15:37:28Z</time>
    </trkpt>
    <trkpt lat="50.9531425" lon="6.8683150">
      <time>2022-03-28T15:37:36Z</time>
    </trkpt>
    <trkpt lat="50.9531336" lon="6.8682472">
      <time>2022-03-28T15:37:38Z</time>
    </trkpt>
    <trkpt lat="50.9531117" lon="6.8680737">
      <time>2022-03-28T15:37:43Z</time>
    </trkpt>
    <trkpt lat="50.9530903" lon="6.8679308">
      <time>2022-03-28T15:37:47Z</time>
    </trkpt>
    <trkpt lat="50.9530684" lon="6.8677176">
      <time>2022-03-28T15:37:53Z</time>
    </trkpt>
    <trkpt lat="50.9530524" lon="6.8676097">
      <time>2022-03-28T15:37:56Z</time>
    </trkpt>
    <trkpt lat="50.9530074" lon="6.8673041">
      <time>2022-03-28T15:38:04Z</time>
    </trkpt>
    <trkpt lat="50.9529995" lon="6.8672594">
      <time>2022-03-28T15:38:05Z</time>
    </trkpt>
    <trkpt lat="50.9529835" lon="6.8670359">
      <time>2022-03-28T15:38:11Z</time>
    </trkpt>
    <trkpt lat="50.9529633" lon="6.8668765">
      <time>2022-03-28T15:38:15Z</time>
    </trkpt>
    <trkpt lat="50.9529361" lon="6.8665669">
      <time>2022-03-28T15:38:23Z</time>
    </trkpt>
    <trkpt lat="50.9529284" lon="6.8665245">
      <time>2022-03-28T15:38:24Z</time>
    </trkpt>
    <trkpt lat="50.9529163" lon="6.8664493">
      <time>2022-03-28T15:38:26Z</time>
    </trkpt>
    <trkpt lat="50.9528740" lon="6.8661354">
      <time>2022-03-28T15:38:34Z</time>
    </trkpt>
    <trkpt lat="50.9528370" lon="6.8658303">
      <time>2022-03-28T15:38:42Z</time>
    </trkpt>
    <trkpt lat="50.9528317" lon="6.8657871">
      <time>2022-03-28T15:38:43Z</time>
    </trkpt>
    <trkpt lat="50.9527649" lon="6.8655170">
      <time>2022-03-28T15:38:50Z</time>
    </trkpt>
    <trkpt lat="50.9526851" lon="6.8652217">
      <time>2022-03-28T15:38:57Z</time>
    </trkpt>
    <trkpt lat="50.9526369" lon="6.8649036">
      <time>2022-03-28T15:39:05Z</time>
    </trkpt>
    <trkpt lat="50.9526693" lon="6.8646637">
      <time>2022-03-28T15:39:10Z</time>
    </trkpt>
    <trkpt lat="50.9526935" lon="6.8646322">
      <time>2022-03-28T15:39:11Z</time>
    </trkpt>
    <trkpt lat="50.9528332" lon="6.8645654">
      <time>2022-03-28T15:39:16Z</time>
    </trkpt>
    <trkpt lat="50.9529596" lon="6.8645388">
      <time>2022-03-28T15:39:21Z</time>
    </trkpt>
    <trkpt lat="50.9530131" lon="6.8645314">
      <time>2022-03-28T15:39:23Z</time>
    </trkpt>
    <trkpt lat="50.9532117" lon="6.8644935">
      <time>2022-03-28T15:39:31Z</time>
    </trkpt>
    <trkpt lat="50.9534060" lon="6.8644634">
      <time>2022-03-28T15:39:39Z</time>
    </trkpt>
    <trkpt lat="50.9535853" lon="6.8644238">
      <time>2022-03-28T15:39:47Z</time>
    </trkpt>
    <trkpt lat="50.9536716" lon="6.8643906">
      <time>2022-03-28T15:39:51Z</time>
    </trkpt>
    <trkpt lat="50.9537276" lon="6.8643725">
      <time>2022-03-28T15:39:53Z</time>
    </trkpt>
    <trkpt lat="50.9537529" lon="6.8643607">
      <time>2022-03-28T15:39:54Z</time>
    </trkpt>
    <trkpt lat="50.9537815" lon="6.8643532">
      <time>2022-03-28T15:39:55Z</time>
    </trkpt>
    <trkpt lat="50.9539233" lon="6.8642968">
      <time>2022-03-28T15:40:01Z</time>
    </trkpt>
    <trkpt lat="50.9541045" lon="6.8642539">
      <time>2022-03-28T15:40:09Z</time>
    </trkpt>
    <trkpt lat="50.9541700" lon="6.8642337">
      <time>2022-03-28T15:40:12Z</time>
    </trkpt>
    <trkpt lat="50.9543086" lon="6.8641792">
      <time>2022-03-28T15:40:18Z</time>
    </trkpt>
    <trkpt lat="50.9543957" lon="6.8641578">
      <time>2022-03-28T15:40:22Z</time>
    </trkpt>
    <trkpt lat="50.9545813" lon="6.8640913">
      <time>2022-03-28T15:40:30Z</time>
    </trkpt>
    <trkpt lat="50.9546038" lon="6.8640838">
      <time>2022-03-28T15:40:31Z</time>
    </trkpt>
    <trkpt lat="50.9546737" lon="6.8640705">
      <time>2022-03-28T15:40:34Z</time>
    </trkpt>
    <trkpt lat="50.9548136" lon="6.8640201">
      <time>2022-03-28T15:40:40Z</time>
    </trkpt>
    <trkpt lat="50.9549220" lon="6.8639838">
      <time>2022-03-28T15:40:45Z</time>
    </trkpt>
    <trkpt lat="50.9550472" lon="6.8639683">
      <time>2022-03-28T15:40:50Z</time>
    </trkpt>
    <trkpt lat="50.9552382" lon="6.8638926">
      <time>2022-03-28T15:40:59Z</time>
    </trkpt>
    <trkpt lat="50.9554233" lon="6.8638420">
      <time>2022-03-28T15:41:07Z</time>
    </trkpt>
    <trkpt lat="50.9554784" lon="6.8638206">
      <time>2022-03-28T15:41:10Z</time>
    </trkpt>
    <trkpt lat="50.9556650" lon="6.8637836">
      <time>2022-03-28T15:41:18Z</time>
    </trkpt>
    <trkpt lat="50.9557004" lon="6.8637731">
      <time>2022-03-28T15:41:20Z</time>
    </trkpt>
    <trkpt lat="50.9559020" lon="6.8637215">
      <time>2022-03-28T15:41:29Z</time>
    </trkpt>
    <trkpt lat="50.9560821" lon="6.8636868">
      <time>2022-03-28T15:41:37Z</time>
    </trkpt>
    <trkpt lat="50.9561207" lon="6.8636780">
      <time>2022-03-28T15:41:39Z</time>
    </trkpt>
    <trkpt lat="50.9562521" lon="6.8636341">
      <time>2022-03-28T15:41:45Z</time>
    </trkpt>
    <trkpt lat="50.9563173" lon="6.8636211">
      <time>2022-03-28T15:41:48Z</time>
    </trkpt>
    <trkpt lat="50.9564993" lon="6.8635764">
      <time>2022-03-28T15:41:56Z</time>
    </trkpt>
    <trkpt lat="50.9565655" lon="6.8635518">
      <time>2022-03-28T15:41:59Z</time>
    </trkpt>
    <trkpt lat="50.9567559" lon="6.8635014">
      <time>2022-03-28T15:42:08Z</time>
    </trkpt>
    <trkpt lat="50.9569503" lon="6.8634080">
      <time>2022-03-28T15:42:17Z</time>
    </trkpt>
    <trkpt lat="50.9570053" lon="6.8634128">
      <time>2022-03-28T15:42:19Z</time>
    </trkpt>
    <trkpt lat="50.9571954" lon="6.8633680">
      <time>2022-03-28T15:42:28Z</time>
    </trkpt>
    <trkpt lat="50.9572164" lon="6.8633594">
      <time>2022-03-28T15:42:29Z</time>
    </trkpt>
    <trkpt lat="50.9574015" lon="6.8632575">
      <time>2022-03-28T15:42:38Z</time>
    </trkpt>
    <trkpt lat="50.9574239" lon="6.8632485">
      <time>2022-03-28T15:42:39Z</time>
    </trkpt>
    <trkpt lat="50.9575985" lon="6.8632029">
      <time>2022-03-28T15:42:46Z</time>
    </trkpt>
    <trkpt lat="50.9577451" lon="6.8631440">
      <time>2022-03-28T15:42:53Z</time>
    </trkpt>
    <trkpt lat="50.9577621" lon="6.8631389">
      <time>2022-03-28T15:42:54Z</time>
    </trkpt>
    <trkpt lat="50.9578727" lon="6.8630967">
      <time>2022-03-28T15:43:00Z</time>
    </trkpt>
    <trkpt lat="50.9579284" lon="6.8630717">
      <time>2022-03-28T15:43:03Z</time>
    </trkpt>
    <trkpt lat="50.9580699" lon="6.8629932">
      <time>2022-03-28T15:43:11Z</time>
    </trkpt>
    <trkpt lat="50.9582135" lon="6.8629001">
      <time>2022-03-28T15:43:18Z</time>
    </trkpt>
    <trkpt lat="50.9583386" lon="6.8627946">
      <time>2022-03-28T15:43:25Z</time>
    </trkpt>
    <trkpt lat="50.9583561" lon="6.8627791">
      <time>2022-03-28T15:43:26Z</time>
    </trkpt>
    <trkpt lat="50.9585212" lon="6.8626917">
      <time>2022-03-28T15:43:34Z</time>
    </trkpt>
    <trkpt lat="50.9585588" lon="6.8626691">
      <time>2022-03-28T15:43:36Z</time>
    </trkpt>
    <trkpt lat="50.9587148" lon="6.8625583">
      <time>2022-03-28T15:43:44Z</time>
    </trkpt>
    <trkpt lat="50.9588802" lon="6.8624260">
      <time>2022-03-28T15:43:52Z</time>
    </trkpt>
    <trkpt lat="50.9590576" lon="6.8623007">
      <time>2022-03-28T15:44:00Z</time>
    </trkpt>
    <trkpt lat="50.9592397" lon="6.8622241">
      <time>2022-03-28T15:44:08Z</time>
    </trkpt>
    <trkpt lat="50.9592607" lon="6.8622128">
      <time>2022-03-28T15:44:09Z</time>
    </trkpt>
    <trkpt lat="50.9593575" lon="6.8621849">
      <time>2022-03-28T15:44:14Z</time>
    </trkpt>
    <trkpt lat="50.9594068" lon="6.8621734">
      <time>2022-03-28T15:44:16Z</time>
    </trkpt>
    <trkpt lat="50.9595099" lon="6.8621332">
      <time>2022-03-28T15:44:20Z</time>
    </trkpt>
    <trkpt lat="50.9595882" lon="6.8621199">
      <time>2022-03-28T15:44:23Z</time>
    </trkpt>
    <trkpt lat="50.9597499" lon="6.8621242">
      <time>2022-03-28T15:44:30Z</time>
    </trkpt>
    <trkpt lat="50.9599443" lon="6.8621329">
      <time>2022-03-28T15:44:38Z</time>
    </trkpt>
    <trkpt lat="50.9601324" lon="6.8621387">
      <time>2022-03-28T15:44:47Z</time>
    </trkpt>
    <trkpt lat="50.9601517" lon="6.8621386">
      <time>2022-03-28T15:44:48Z</time>
    </trkpt>
    <trkpt lat="50.9603179" lon="6.8621583">
      <time>2022-03-28T15:44:56Z</time>
    </trkpt>
    <trkpt lat="50.9604852" lon="6.8621879">
      <time>2022-03-28T15:45:04Z</time>
    </trkpt>
    <trkpt lat="50.9606715" lon="6.8622901">
      <time>2022-03-28T15:45:13Z</time>
    </trkpt>
    <trkpt lat="50.9607035" lon="6.8623091">
      <time>2022-03-28T15:45:15Z</time>
    </trkpt>
    <trkpt lat="50.9608790" lon="6.8623898">
      <time>2022-03-28T15:45:24Z</time>
    </trkpt>
    <trkpt lat="50.9609146" lon="6.8624164">
      <time>2022-03-28T15:45:26Z</time>
    </trkpt>
    <trkpt lat="50.9611029" lon="6.8625240">
      <time>2022-03-28T15:45:35Z</time>
    </trkpt>
    <trkpt lat="50.9612886" lon="6.8626298">
      <time>2022-03-28T15:45:44Z</time>
    </trkpt>
    <trkpt lat="50.9613083" lon="6.8626418">
      <time>2022-03-28T15:45:45Z</time>
    </trkpt>
    <trkpt lat="50.9615017" lon="6.8627223">
      <time>2022-03-28T15:45:54Z</time>
    </trkpt>
    <trkpt lat="50.9615202" lon="6.8627385">
      <time>2022-03-28T15:45:55Z</time>
    </trkpt>
    <trkpt lat="50.9616885" lon="6.8628309">
      <time>2022-03-28T15:46:03Z</time>
    </trkpt>
    <trkpt lat="50.9617461" lon="6.8628670">
      <time>2022-03-28T15:46:06Z</time>
    </trkpt>
    <trkpt lat="50.9619238" lon="6.8629892">
      <time>2022-03-28T15:46:15Z</time>
    </trkpt>
    <trkpt lat="50.9619506" lon="6.8630033">
      <time>2022-03-28T15:46:16Z</time>
    </trkpt>
    <trkpt lat="50.9621267" lon="6.8631146">
      <time>2022-03-28T15:46:25Z</time>
    </trkpt>
    <trkpt lat="50.9623118" lon="6.8631985">
      <time>2022-03-28T15:46:33Z</time>
    </trkpt>
    <trkpt lat="50.9623602" lon="6.8632182">
      <time>2022-03-28T15:46:35Z</time>
    </trkpt>
    <trkpt lat="50.9625284" lon="6.8632957">
      <time>2022-03-28T15:46:42Z</time>
    </trkpt>
    <trkpt lat="50.9626042" lon="6.8633284">
      <time>2022-03-28T15:46:45Z</time>
    </trkpt>
    <trkpt lat="50.9626280" lon="6.8633373">
      <time>2022-03-28T15:46:46Z</time>
    </trkpt>
    <trkpt lat="50.9628062" lon="6.8634064">
      <time>2022-03-28T15:46:54Z</time>
    </trkpt>
    <trkpt lat="50.9628759" lon="6.8634389">
      <time>2022-03-28T15:46:57Z</time>
    </trkpt>
    <trkpt lat="50.9630386" lon="6.8635119">
      <time>2022-03-28T15:47:05Z</time>
    </trkpt>
    <trkpt lat="50.9631209" lon="6.8635433">
      <time>2022-03-28T15:47:09Z</time>
    </trkpt>
    <trkpt lat="50.9631579" lon="6.8635646">
      <time>2022-03-28T15:47:11Z</time>
    </trkpt>
    <trkpt lat="50.9632908" lon="6.8636370">
      <time>2022-03-28T15:47:18Z</time>
    </trkpt>
    <trkpt lat="50.9634564" lon="6.8637112">
      <time>2022-03-28T15:47:25Z</time>
    </trkpt>
    <trkpt lat="50.9636032" lon="6.8638022">
      <time>2022-03-28T15:47:32Z</time>
    </trkpt>
    <trkpt lat="50.9637644" lon="6.8638600">
      <time>2022-03-28T15:47:39Z</time>
    </trkpt>
    <trkpt lat="50.9639004" lon="6.8639286">
      <time>2022-03-28T15:47:45Z</time>
    </trkpt>
    <trkpt lat="50.9640590" lon="6.8639824">
      <time>2022-03-28T15:47:53Z</time>
    </trkpt>
    <trkpt lat="50.9641336" lon="6.8639973">
      <time>2022-03-28T15:47:57Z</time>
    </trkpt>
    <trkpt lat="50.9641977" lon="6.8640308">
      <time>2022-03-28T15:48:00Z</time>
    </trkpt>
    <trkpt lat="50.9643568" lon="6.8640765">
      <time>2022-03-28T15:48:07Z</time>
    </trkpt>
    <trkpt lat="50.9644833" lon="6.8641335">
      <time>2022-03-28T15:48:14Z</time>
    </trkpt>
    <trkpt lat="50.9646651" lon="6.8642449">
      <time>2022-03-28T15:48:22Z</time>
    </trkpt>
    <trkpt lat="50.9647980" lon="6.8643150">
      <time>2022-03-28T15:48:29Z</time>
    </trkpt>
    <trkpt lat="50.9649055" lon="6.8643774">
      <time>2022-03-28T15:48:35Z</time>
    </trkpt>
    <trkpt lat="50.9650546" lon="6.8644380">
      <time>2022-03-28T15:48:42Z</time>
    </trkpt>
    <trkpt lat="50.9652478" lon="6.8644997">
      <time>2022-03-28T15:48:50Z</time>
    </trkpt>
    <trkpt lat="50.9652686" lon="6.8645153">
      <time>2022-03-28T15:48:51Z</time>
    </trkpt>
    <trkpt lat="50.9654383" lon="6.8645794">
      <time>2022-03-28T15:48:59Z</time>
    </trkpt>
    <trkpt lat="50.9656058" lon="6.8646409">
      <time>2022-03-28T15:49:06Z</time>
    </trkpt>
    <trkpt lat="50.9657167" lon="6.8647857">
      <time>2022-03-28T15:49:12Z</time>
    </trkpt>
    <trkpt lat="50.9656970" lon="6.8650452">
      <time>2022-03-28T15:49:19Z</time>
    </trkpt>
    <trkpt lat="50.9657234" lon="6.8653355">
      <time>2022-03-28T15:49:26Z</time>
    </trkpt>
    <trkpt lat="50.9657244" lon="6.8656098">
      <time>2022-03-28T15:49:32Z</time>
    </trkpt>
    <trkpt lat="50.9656785" lon="6.8658500">
      <time>2022-03-28T15:49:39Z</time>
    </trkpt>
    <trkpt lat="50.9656017" lon="6.8661100">
      <time>2022-03-28T15:49:46Z</time>
    </trkpt>
    <trkpt lat="50.9655121" lon="6.8662806">
      <time>2022-03-28T15:49:52Z</time>
    </trkpt>
    <trkpt lat="50.9653831" lon="6.8663643">
      <time>2022-03-28T15:49:58Z</time>
    </trkpt>
    <trkpt lat="50.9652054" lon="6.8664357">
      <time>2022-03-28T15:50:05Z</time>
    </trkpt>
    <trkpt lat="50.9650316" lon="6.8664991">
      <time>2022-03-28T15:50:12Z</time>
    </trkpt>
    <trkpt lat="50.9648544" lon="6.8665391">
      <time>2022-03-28T15:50:19Z</time>
    </trkpt>
    <trkpt lat="50.9647045" lon="6.8665134">
      <time>2022-03-28T15:50:25Z</time>
    </trkpt>
    <trkpt lat="50.9646197" lon="6.8664860">
      <time>2022-03-28T15:50:28Z</time>
    </trkpt>
    <trkpt lat="50.9644899" lon="6.8664142">
      <time>2022-03-28T15:50:33Z</time>
    </trkpt>
    <trkpt lat="50.9642936" lon="6.8663545">
      <time>2022-03-28T15:50:40Z</time>
    </trkpt>
    <trkpt lat="50.9641096" lon="6.8662957">
      <time>2022-03-28T15:50:46Z</time>
    </trkpt>
    <trkpt lat="50.9640800" lon="6.8662801">
      <time>2022-03-28T15:50:47Z</time>
    </trkpt>
    <trkpt lat="50.9640283" lon="6.8662615">
      <time>2022-03-28T15:50:49Z</time>
    </trkpt>
    <trkpt lat="50.9639478" lon="6.8662672">
      <time>2022-03-28T15:50:52Z</time>
    </trkpt>
    <trkpt lat="50.9637612" lon="6.8662441">
      <time>2022-03-28T15:50:59Z</time>
    </trkpt>
    <trkpt lat="50.9636151" lon="6.8662006">
      <time>2022-03-28T15:51:05Z</time>
    </trkpt>
    <trkpt lat="50.9634355" lon="6.8661615">
      <time>2022-03-28T15:51:12Z</time>
    </trkpt>
    <trkpt lat="50.9633791" lon="6.8661755">
      <time>2022-03-28T15:51:14Z</time>
    </trkpt>
    <trkpt lat="50.9631996" lon="6.8661586">
      <time>2022-03-28T15:51:21Z</time>
    </trkpt>
    <trkpt lat="50.9631786" lon="6.8661499">
      <time>2022-03-28T15:51:22Z</time>
    </trkpt>
    <trkpt lat="50.9630538" lon="6.8661302">
      <time>2022-03-28T15:51:27Z</time>
    </trkpt>
    <trkpt lat="50.9628563" lon="6.8660469">
      <time>2022-03-28T15:51:36Z</time>
    </trkpt>
    <trkpt lat="50.9628041" lon="6.8660371">
      <time>2022-03-28T15:51:38Z</time>
    </trkpt>
    <trkpt lat="50.9626377" lon="6.8659937">
      <time>2022-03-28T15:51:46Z</time>
    </trkpt>
    <trkpt lat="50.9626184" lon="6.8659846">
      <time>2022-03-28T15:51:47Z</time>
    </trkpt>
    <trkpt lat="50.9624361" lon="6.8659752">
      <time>2022-03-28T15:51:55Z</time>
    </trkpt>
    <trkpt lat="50.9622693" lon="6.8659766">
      <time>2022-03-28T15:52:02Z</time>
    </trkpt>
    <trkpt lat="50.9620969" lon="6.8659998">
      <time>2022-03-28T15:52:09Z</time>
    </trkpt>
    <trkpt lat="50.9619585" lon="6.8660173">
      <time>2022-03-28T15:52:15Z</time>
    </trkpt>
    <trkpt lat="50.9618264" lon="6.8660387">
      <time>2022-03-28T15:52:21Z</time>
    </trkpt>
    <trkpt lat="50.9618059" lon="6.8660391">
      <time>2022-03-28T15:52:22Z</time>
    </trkpt>
    <trkpt lat="50.9616088" lon="6.8660490">
      <time>2022-03-28T15:52:29Z</time>
    </trkpt>
    <trkpt lat="50.9615678" lon="6.8660552">
      <time>2022-03-28T15:52:31Z</time>
    </trkpt>
    <trkpt lat="50.9613711" lon="6.8661217">
      <time>2022-03-28T15:52:39Z</time>
    </trkpt>
    <trkpt lat="50.9611936" lon="6.8661834">
      <time>2022-03-28T15:52:46Z</time>
    </trkpt>
    <trkpt lat="50.9611712" lon="6.8661953">
      <time>2022-03-28T15:52:47Z</time>
    </trkpt>
    <trkpt lat="50.9609925" lon="6.8662711">
      <time>2022-03-28T15:52:54Z</time>
    </trkpt>
    <trkpt lat="50.9609686" lon="6.8662822">
      <time>2022-03-28T15:52:55Z</time>
    </trkpt>
    <trkpt lat="50.9608064" lon="6.8663651">
      <time>2022-03-28T15:53:02Z</time>
    </trkpt>
    <trkpt lat="50.9606238" lon="6.8664614">
      <time>2022-03-28T15:53:10Z</time>
    </trkpt>
    <trkpt lat="50.9604381" lon="6.8665707">
      <time>2022-03-28T15:53:18Z</time>
    </trkpt>
    <trkpt lat="50.9602783" lon="6.8666386">
      <time>2022-03-28T15:53:25Z</time>
    </trkpt>
    <trkpt lat="50.9600991" lon="6.8667204">
      <time>2022-03-28T15:53:33Z</time>
    </trkpt>
    <trkpt lat="50.9599331" lon="6.8667945">
      <time>2022-03-28T15:53:40Z</time>
    </trkpt>
    <trkpt lat="50.9597948" lon="6.8668835">
      <time>2022-03-28T15:53:46Z</time>
    </trkpt>
    <trkpt lat="50.9596224" lon="6.8669753">
      <time>2022-03-28T15:53:53Z</time>
    </trkpt>
    <trkpt lat="50.9594721" lon="6.8670478">
      <time>2022-03-28T15:53:59Z</time>
    </trkpt>
    <trkpt lat="50.9592993" lon="6.8671292">
      <time>2022-03-28T15:54:05Z</time>
    </trkpt>
    <trkpt lat="50.9592254" lon="6.8671815">
      <time>2022-03-28T15:54:08Z</time>
    </trkpt>
    <trkpt lat="50.9590434" lon="6.8672712">
      <time>2022-03-28T15:54:15Z</time>
    </trkpt>
    <trkpt lat="50.9589252" lon="6.8674350">
      <time>2022-03-28T15:54:21Z</time>
    </trkpt>
    <trkpt lat="50.9588836" lon="6.8675799">
      <time>2022-03-28T15:54:25Z</time>
    </trkpt>
    <trkpt lat="50.9588526" lon="6.8677466">
      <time>2022-03-28T15:54:29Z</time>
    </trkpt>
    <trkpt lat="50.9587956" lon="6.8680036">
      <time>2022-03-28T15:54:36Z</time>
    </trkpt>
    <trkpt lat="50.9587064" lon="6.8682020">
      <time>2022-03-28T15:54:42Z</time>
    </trkpt>
    <trkpt lat="50.9585907" lon="6.8682906">
      <time>2022-03-28T15:54:48Z</time>
    </trkpt>
    <trkpt lat="50.9585707" lon="6.8683084">
      <time>2022-03-28T15:54:50Z</time>
    </trkpt>
    <trkpt lat="50.9585162" lon="6.8683623">
      <time>2022-03-28T15:54:55Z</time>
    </trkpt>
    <trkpt lat="50.9584977" lon="6.8683793">
      <time>2022-03-28T15:54:57Z</time>
    </trkpt>
    <trkpt lat="50.9584973" lon="6.8683677">
      <time>2022-03-28T15:55:00Z</time>
    </trkpt>
    <trkpt lat="50.9584599" lon="6.8684356">
      <time>2022-03-28T15:55:06Z</time>
    </trkpt>
    <trkpt lat="50.9584751" lon="6.8685743">
      <time>2022-03-28T15:55:10Z</time>
    </trkpt>
    <trkpt lat="50.9584897" lon="6.8686495">
      <time>2022-03-28T15:55:12Z</time>
    </trkpt>
    <trkpt lat="50.9585325" lon="6.8687189">
      <time>2022-03-28T15:55:15Z</time>
    </trkpt>
    <trkpt lat="50.9585536" lon="6.8687211">
      <time>2022-03-28T15:55:16Z</time>
    </trkpt>
    <trkpt lat="50.9586562" lon="6.8688073">
      <time>2022-03-28T15:55:21Z</time>
    </trkpt>
    <trkpt lat="50.9586578" lon="6.8688466">
      <time>2022-03-28T15:55:22Z</time>
    </trkpt>
    <trkpt lat="50.9586207" lon="6.8690321">
      <time>2022-03-28T15:55:27Z</time>
    </trkpt>
    <trkpt lat="50.9585511" lon="6.8693058">
      <time>2022-03-28T15:55:34Z</time>
    </trkpt>
    <trkpt lat="50.9585282" lon="6.8694224">
      <time>2022-03-28T15:55:37Z</time>
    </trkpt>
    <trkpt lat="50.9584916" lon="6.8696578">
      <time>2022-03-28T15:55:43Z</time>
    </trkpt>
    <trkpt lat="50.9584834" lon="6.8697360">
      <time>2022-03-28T15:55:45Z</time>
    </trkpt>
    <trkpt lat="50.9584553" lon="6.8698796">
      <time>2022-03-28T15:55:49Z</time>
    </trkpt>
    <trkpt lat="50.9584324" lon="6.8699880">
      <time>2022-03-28T15:55:52Z</time>
    </trkpt>
    <trkpt lat="50.9583844" lon="6.8702740">
      <time>2022-03-28T15:56:00Z</time>
    </trkpt>
    <trkpt lat="50.9583755" lon="6.8705375">
      <time>2022-03-28T15:56:07Z</time>
    </trkpt>
    <trkpt lat="50.9584621" lon="6.8706807">
      <time>2022-03-28T15:56:13Z</time>
    </trkpt>
    <trkpt lat="50.9585879" lon="6.8707287">
      <time>2022-03-28T15:56:19Z</time>
    </trkpt>
    <trkpt lat="50.9587793" lon="6.8707819">
      <time>2022-03-28T15:56:28Z</time>
    </trkpt>
    <trkpt lat="50.9589618" lon="6.8707987">
      <time>2022-03-28T15:56:36Z</time>
    </trkpt>
    <trkpt lat="50.9591257" lon="6.8708450">
      <time>2022-03-28T15:56:44Z</time>
    </trkpt>
    <trkpt lat="50.9592473" lon="6.8709904">
      <time>2022-03-28T15:56:51Z</time>
    </trkpt>
    <trkpt lat="50.9593426" lon="6.8712610">
      <time>2022-03-28T15:56:59Z</time>
    </trkpt>
    <trkpt lat="50.9594260" lon="6.8714988">
      <time>2022-03-28T15:57:06Z</time>
    </trkpt>
    <trkpt lat="50.9594406" lon="6.8715644">
      <time>2022-03-28T15:57:08Z</time>
    </trkpt>
    <trkpt lat="50.9594671" lon="6.8716577">
      <time>2022-03-28T15:57:11Z</time>
    </trkpt>
    <trkpt lat="50.9594834" lon="6.8717222">
      <time>2022-03-28T15:57:13Z</time>
    </trkpt>
    <trkpt lat="50.9595474" lon="6.8719898">
      <time>2022-03-28T15:57:21Z</time>
    </trkpt>
    <trkpt lat="50.9595891" lon="6.8722178">
      <time>2022-03-28T15:57:28Z</time>
    </trkpt>
    <trkpt lat="50.9596521" lon="6.8725028">
      <time>2022-03-28T15:57:36Z</time>
    </trkpt>
    <trkpt lat="50.9596818" lon="6.8726073">
      <time>2022-03-28T15:57:39Z</time>
    </trkpt>
    <trkpt lat="50.9597242" lon="6.8728324">
      <time>2022-03-28T15:57:48Z</time>
    </trkpt>
    <trkpt lat="50.9597445" lon="6.8729934">
      <time>2022-03-28T15:57:53Z</time>
    </trkpt>
    <trkpt lat="50.9597393" lon="6.8732845">
      <time>2022-03-28T15:58:00Z</time>
    </trkpt>
    <trkpt lat="50.9597442" lon="6.8733219">
      <time>2022-03-28T15:58:01Z</time>
    </trkpt>
    <trkpt lat="50.9597839" lon="6.8736333">
      <time>2022-03-28T15:58:09Z</time>
    </trkpt>
    <trkpt lat="50.9598000" lon="6.8739436">
      <time>2022-03-28T15:58:17Z</time>
    </trkpt>
    <trkpt lat="50.9597965" lon="6.8739816">
      <time>2022-03-28T15:58:18Z</time>
    </trkpt>
    <trkpt lat="50.9597901" lon="6.8741721">
      <time>2022-03-28T15:58:23Z</time>
    </trkpt>
    <trkpt lat="50.9597888" lon="6.8742083">
      <time>2022-03-28T15:58:24Z</time>
    </trkpt>
    <trkpt lat="50.9597863" lon="6.8743779">
      <time>2022-03-28T15:58:28Z</time>
    </trkpt>
    <trkpt lat="50.9597647" lon="6.8746758">
      <time>2022-03-28T15:58:36Z</time>
    </trkpt>
    <trkpt lat="50.9597455" lon="6.8749207">
      <time>2022-03-28T15:58:43Z</time>
    </trkpt>
    <trkpt lat="50.9597324" lon="6.8751286">
      <time>2022-03-28T15:58:49Z</time>
    </trkpt>
    <trkpt lat="50.9597132" lon="6.8754117">
      <time>2022-03-28T15:58:57Z</time>
    </trkpt>
    <trkpt lat="50.9597130" lon="6.8754862">
      <time>2022-03-28T15:58:59Z</time>
    </trkpt>
    <trkpt lat="50.9597250" lon="6.8757748">
      <time>2022-03-28T15:59:07Z</time>
    </trkpt>
    <trkpt lat="50.9597344" lon="6.8758475">
      <time>2022-03-28T15:59:09Z</time>
    </trkpt>
    <trkpt lat="50.9597751" lon="6.8761194">
      <time>2022-03-28T15:59:17Z</time>
    </trkpt>
    <trkpt lat="50.9597945" lon="6.8764096">
      <time>2022-03-28T15:59:25Z</time>
    </trkpt>
    <trkpt lat="50.9598126" lon="6.8767003">
      <time>2022-03-28T15:59:33Z</time>
    </trkpt>
    <trkpt lat="50.9597946" lon="6.8769155">
      <time>2022-03-28T15:59:39Z</time>
    </trkpt>
    <trkpt lat="50.9597804" lon="6.8771656">
      <time>2022-03-28T15:59:46Z</time>
    </trkpt>
    <trkpt lat="50.9598709" lon="6.8773653">
      <time>2022-03-28T15:59:53Z</time>
    </trkpt>
    <trkpt lat="50.9600015" lon="6.8775101">
      <time>2022-03-28T16:00:01Z</time>
    </trkpt>
    <trkpt lat="50.9600191" lon="6.8775292">
      <time>2022-03-28T16:00:02Z</time>
    </trkpt>
    <trkpt lat="50.9601615" lon="6.8776571">
      <time>2022-03-28T16:00:10Z</time>
    </trkpt>
    <trkpt lat="50.9602660" lon="6.8776510">
      <time>2022-03-28T16:00:15Z</time>
    </trkpt>
    <trkpt lat="50.9602848" lon="6.8776434">
      <time>2022-03-28T16:00:16Z</time>
    </trkpt>
    <trkpt lat="50.9604749" lon="6.8775769">
      <time>2022-03-28T16:00:25Z</time>
    </trkpt>
    <trkpt lat="50.9606240" lon="6.8775138">
      <time>2022-03-28T16:00:32Z</time>
    </trkpt>
    <trkpt lat="50.9607966" lon="6.8774478">
      <time>2022-03-28T16:00:40Z</time>
    </trkpt>
    <trkpt lat="50.9609769" lon="6.8773919">
      <time>2022-03-28T16:00:47Z</time>
    </trkpt>
    <trkpt lat="50.9609957" lon="6.8773734">
      <time>2022-03-28T16:00:48Z</time>
    </trkpt>
    <trkpt lat="50.9611453" lon="6.8772383">
      <time>2022-03-28T16:00:55Z</time>
    </trkpt>
    <trkpt lat="50.9612906" lon="6.8771428">
      <time>2022-03-28T16:01:02Z</time>
    </trkpt>
    <trkpt lat="50.9614967" lon="6.8770819">
      <time>2022-03-28T16:01:10Z</time>
    </trkpt>
    <trkpt lat="50.9616462" lon="6.8769643">
      <time>2022-03-28T16:01:17Z</time>
    </trkpt>
    <trkpt lat="50.9616646" lon="6.8769528">
      <time>2022-03-28T16:01:18Z</time>
    </trkpt>
    <trkpt lat="50.9617875" lon="6.8768714">
      <time>2022-03-28T16:01:24Z</time>
    </trkpt>
    <trkpt lat="50.9619067" lon="6.8767214">
      <time>2022-03-28T16:01:31Z</time>
    </trkpt>
    <trkpt lat="50.9619215" lon="6.8764334">
      <time>2022-03-28T16:01:38Z</time>
    </trkpt>
    <trkpt lat="50.9620230" lon="6.8762406">
      <time>2022-03-28T16:01:44Z</time>
    </trkpt>
    <trkpt lat="50.9621227" lon="6.8762879">
      <time>2022-03-28T16:01:48Z</time>
    </trkpt>
    <trkpt lat="50.9622327" lon="6.8763703">
      <time>2022-03-28T16:01:53Z</time>
    </trkpt>
    <trkpt lat="50.9623965" lon="6.8763966">
      <time>2022-03-28T16:01:59Z</time>
    </trkpt>
    <trkpt lat="50.9625879" lon="6.8764186">
      <time>2022-03-28T16:02:06Z</time>
    </trkpt>
    <trkpt lat="50.9626055" lon="6.8764031">
      <time>2022-03-28T16:02:07Z</time>
    </trkpt>
    <trkpt lat="50.9626577" lon="6.8763635">
      <time>2022-03-28T16:02:09Z</time>
    </trkpt>
    <trkpt lat="50.9627449" lon="6.8762464">
      <time>2022-03-28T16:02:13Z</time>
    </trkpt>
    <trkpt lat="50.9628354" lon="6.8761881">
      <time>2022-03-28T16:02:17Z</time>
    </trkpt>
    <trkpt lat="50.9628604" lon="6.8762140">
      <time>2022-03-28T16:02:19Z</time>
    </trkpt>
  </trkseg></trk>
</gpx>
