<?xml version="1.0" encoding="UTF-8"?>
<gpx version="1.1" creator="Diary FIT converter" xmlns="http://www.topografix.com/GPX/1/1">
  <trk><name>Running</name><trkseg>
    <trkpt lat="50.9639560" lon="6.8780830">
      <time>2021-01-15T17:18:36Z</time>
    </trkpt>
    <trkpt lat="50.9641234" lon="6.8783564">
      <time>2021-01-15T17:18:40Z</time>
    </trkpt>
    <trkpt lat="50.9641621" lon="6.8784441">
      <time>2021-01-15T17:18:42Z</time>
    </trkpt>
    <trkpt lat="50.9642986" lon="6.8786829">
      <time>2021-01-15T17:18:50Z</time>
    </trkpt>
    <trkpt lat="50.9643150" lon="6.8787191">
      <time>2021-01-15T17:18:51Z</time>
    </trkpt>
    <trkpt lat="50.9644024" lon="6.8788912">
      <time>2021-01-15T17:18:56Z</time>
    </trkpt>
    <trkpt lat="50.9644170" lon="6.8789209">
      <time>2021-01-15T17:18:57Z</time>
    </trkpt>
    <trkpt lat="50.9644743" lon="6.8790066">
      <time>2021-01-15T17:19:00Z</time>
    </trkpt>
    <trkpt lat="50.9644849" lon="6.8790440">
      <time>2021-01-15T17:19:01Z</time>
    </trkpt>
    <trkpt lat="50.9645026" lon="6.8790693">
      <time>2021-01-15T17:19:02Z</time>
    </trkpt>
    <trkpt lat="50.9645422" lon="6.8791527">
      <time>2021-01-15T17:19:05Z</time>
    </trkpt>
    <trkpt lat="50.9646549" lon="6.8794146">
      <time>2021-01-15T17:19:13Z</time>
    </trkpt>
    <trkpt lat="50.9646795" lon="6.8794815">
      <time>2021-01-15T17:19:15Z</time>
    </trkpt>
    <trkpt lat="50.9647100" lon="6.8795541">
      <time>2021-01-15T17:19:17Z</time>
    </trkpt>
    <trkpt lat="50.9648302" lon="6.8796683">
      <time>2021-01-15T17:19:22Z</time>
    </trkpt>
    <trkpt lat="50.9649697" lon="6.8797926">
      <time>2021-01-15T17:19:27Z</time>
    </trkpt>
    <trkpt lat="50.9650409" lon="6.8798453">
      <time>2021-01-15T17:19:30Z</time>
    </trkpt>
    <trkpt lat="50.9651247" lon="6.8799233">
      <time>2021-01-15T17:19:34Z</time>
    </trkpt>
    <trkpt lat="50.9652169" lon="6.8800095">
      <time>2021-01-15T17:19:38Z</time>
    </trkpt>
    <trkpt lat="50.9653711" lon="6.8801839">
      <time>2021-01-15T17:19:46Z</time>
    </trkpt>
    <trkpt lat="50.9653909" lon="6.8802027">
      <time>2021-01-15T17:19:47Z</time>
    </trkpt>
    <trkpt lat="50.9654754" lon="6.8802903">
      <time>2021-01-15T17:19:51Z</time>
    </trkpt>
    <trkpt lat="50.9656296" lon="6.8804446">
      <time>2021-01-15T17:19:58Z</time>
    </trkpt>
    <trkpt lat="50.9657459" lon="6.8805533">
      <time>2021-01-15T17:20:03Z</time>
    </trkpt>
    <trkpt lat="50.9658392" lon="6.8806320">
      <time>2021-01-15T17:20:07Z</time>
    </trkpt>
    <trkpt lat="50.9659976" lon="6.8807930">
      <time>2021-01-15T17:20:14Z</time>
    </trkpt>
    <trkpt lat="50.9660385" lon="6.8808394">
      <time>2021-01-15T17:20:16Z</time>
    </trkpt>
    <trkpt lat="50.9661373" lon="6.8809606">
      <time>2021-01-15T17:20:21Z</time>
    </trkpt>
    <trkpt lat="50.9661765" lon="6.8810066">
      <time>2021-01-15T17:20:23Z</time>
    </trkpt>
    <trkpt lat="50.9663280" lon="6.8811635">
      <time>2021-01-15T17:20:30Z</time>
    </trkpt>
    <trkpt lat="50.9663626" lon="6.8813594">
      <time>2021-01-15T17:20:35Z</time>
    </trkpt>
    <trkpt lat="50.9663396" lon="6.8815553">
      <time>2021-01-15T17:20:40Z</time>
    </trkpt>
    <trkpt lat="50.9662342" lon="6.8818244">
      <time>2021-01-15T17:20:47Z</time>
    </trkpt>
    <trkpt lat="50.9661365" lon="6.8820727">
      <time>2021-01-15T17:20:54Z</time>
    </trkpt>
    <trkpt lat="50.9661253" lon="6.8821039">
      <time>2021-01-15T17:20:55Z</time>
    </trkpt>
    <trkpt lat="50.9660159" lon="6.8823614">
      <time>2021-01-15T17:21:02Z</time>
    </trkpt>
    <trkpt lat="50.9659808" lon="6.8824311">
      <time>2021-01-15T17:21:04Z</time>
    </trkpt>
    <trkpt lat="50.9658749" lon="6.8826039">
      <time>2021-01-15T17:21:10Z</time>
    </trkpt>
    <trkpt lat="50.9658014" lon="6.8828069">
      <time>2021-01-15T17:21:17Z</time>
    </trkpt>
    <trkpt lat="50.9657586" lon="6.8829811">
      <time>2021-01-15T17:21:22Z</time>
    </trkpt>
    <trkpt lat="50.9656652" lon="6.8831947">
      <time>2021-01-15T17:21:28Z</time>
    </trkpt>
    <trkpt lat="50.9655567" lon="6.8834150">
      <time>2021-01-15T17:21:35Z</time>
    </trkpt>
    <trkpt lat="50.9654444" lon="6.8836733">
      <time>2021-01-15T17:21:42Z</time>
    </trkpt>
    <trkpt lat="50.9654311" lon="6.8837102">
      <time>2021-01-15T17:21:43Z</time>
    </trkpt>
    <trkpt lat="50.9653138" lon="6.8839396">
      <time>2021-01-15T17:21:50Z</time>
    </trkpt>
    <trkpt lat="50.9652608" lon="6.8840513">
      <time>2021-01-15T17:21:55Z</time>
    </trkpt>
    <trkpt lat="50.9652237" lon="6.8841496">
      <time>2021-01-15T17:21:59Z</time>
    </trkpt>
    <trkpt lat="50.9651375" lon="6.8843278">
      <time>2021-01-15T17:22:03Z</time>
    </trkpt>
    <trkpt lat="50.9650162" lon="6.8845488">
      <time>2021-01-15T17:22:10Z</time>
    </trkpt>
    <trkpt lat="50.9650007" lon="6.8845752">
      <time>2021-01-15T17:22:11Z</time>
    </trkpt>
    <trkpt lat="50.9648962" lon="6.8848188">
      <time>2021-01-15T17:22:18Z</time>
    </trkpt>
    <trkpt lat="50.9647791" lon="6.8850855">
      <time>2021-01-15T17:22:25Z</time>
    </trkpt>
    <trkpt lat="50.9647395" lon="6.8851573">
      <time>2021-01-15T17:22:27Z</time>
    </trkpt>
    <trkpt lat="50.9646210" lon="6.8854028">
      <time>2021-01-15T17:22:34Z</time>
    </trkpt>
    <trkpt lat="50.9645946" lon="6.8854517">
      <time>2021-01-15T17:22:35Z</time>
    </trkpt>
    <trkpt lat="50.9644887" lon="6.8857175">
      <time>2021-01-15T17:22:42Z</time>
    </trkpt>
    <trkpt lat="50.9643670" lon="6.8859439">
      <time>2021-01-15T17:22:48Z</time>
    </trkpt>
    <trkpt lat="50.9643146" lon="6.8860586">
      <time>2021-01-15T17:22:51Z</time>
    </trkpt>
    <trkpt lat="50.9642499" lon="6.8861883">
      <time>2021-01-15T17:22:55Z</time>
    </trkpt>
    <trkpt lat="50.9641954" lon="6.8862704">
      <time>2021-01-15T17:22:57Z</time>
    </trkpt>
    <trkpt lat="50.9641690" lon="6.8863090">
      <time>2021-01-15T17:22:58Z</time>
    </trkpt>
    <trkpt lat="50.9640621" lon="6.8865789">
      <time>2021-01-15T17:23:05Z</time>
    </trkpt>
    <trkpt lat="50.9639559" lon="6.8867939">
      <time>2021-01-15T17:23:11Z</time>
    </trkpt>
    <trkpt lat="50.9638412" lon="6.8870055">
      <time>2021-01-15T17:23:18Z</time>
    </trkpt>
    <trkpt lat="50.9638276" lon="6.8870337">
      <time>2021-01-15T17:23:19Z</time>
    </trkpt>
    <trkpt lat="50.9637791" lon="6.8871081">
      <time>2021-01-15T17:23:22Z</time>
    </trkpt>
    <trkpt lat="50.9637457" lon="6.8871635">
      <time>2021-01-15T17:23:24Z</time>
    </trkpt>
    <trkpt lat="50.9636522" lon="6.8873989">
      <time>2021-01-15T17:23:31Z</time>
    </trkpt>
    <trkpt lat="50.9636298" lon="6.8874654">
      <time>2021-01-15T17:23:33Z</time>
    </trkpt>
    <trkpt lat="50.9635789" lon="6.8875479">
      <time>2021-01-15T17:23:36Z</time>
    </trkpt>
    <trkpt lat="50.9634638" lon="6.8877853">
      <time>2021-01-15T17:23:43Z</time>
    </trkpt>
    <trkpt lat="50.9633963" lon="6.8880005">
      <time>2021-01-15T17:23:49Z</time>
    </trkpt>
    <trkpt lat="50.9633841" lon="6.8880295">
      <time>2021-01-15T17:23:50Z</time>
    </trkpt>
    <trkpt lat="50.9633333" lon="6.8881177">
      <time>2021-01-15T17:23:53Z</time>
    </trkpt>
    <trkpt lat="50.9631983" lon="6.8883533">
      <time>2021-01-15T17:24:01Z</time>
    </trkpt>
    <trkpt lat="50.9631630" lon="6.8884203">
      <time>2021-01-15T17:24:03Z</time>
    </trkpt>
    <trkpt lat="50.9630551" lon="6.8886548">
      <time>2021-01-15T17:24:10Z</time>
    </trkpt>
    <trkpt lat="50.9629854" lon="6.8888744">
      <time>2021-01-15T17:24:16Z</time>
    </trkpt>
    <trkpt lat="50.9629675" lon="6.8889107">
      <time>2021-01-15T17:24:17Z</time>
    </trkpt>
    <trkpt lat="50.9629481" lon="6.8889921">
      <time>2021-01-15T17:24:19Z</time>
    </trkpt>
    <trkpt lat="50.9629443" lon="6.8890221">
      <time>2021-01-15T17:24:20Z</time>
    </trkpt>
    <trkpt lat="50.9628666" lon="6.8892020">
      <time>2021-01-15T17:24:25Z</time>
    </trkpt>
    <trkpt lat="50.9627542" lon="6.8894411">
      <time>2021-01-15T17:24:32Z</time>
    </trkpt>
    <trkpt lat="50.9627329" lon="6.8894675">
      <time>2021-01-15T17:24:33Z</time>
    </trkpt>
    <trkpt lat="50.9626299" lon="6.8897538">
      <time>2021-01-15T17:24:40Z</time>
    </trkpt>
    <trkpt lat="50.9625965" lon="6.8898599">
      <time>2021-01-15T17:24:42Z</time>
    </trkpt>
    <trkpt lat="50.9625668" lon="6.8899848">
      <time>2021-01-15T17:24:44Z</time>
    </trkpt>
    <trkpt lat="50.9622305" lon="6.8902495">
      <time>2021-01-15T17:24:56Z</time>
    </trkpt>
    <trkpt lat="50.9622443" lon="6.8902617">
      <time>2021-01-15T17:24:57Z</time>
    </trkpt>
    <trkpt lat="50.9621982" lon="6.8902727">
      <time>2021-01-15T17:24:58Z</time>
    </trkpt>
    <trkpt lat="50.9621805" lon="6.8903505">
      <time>2021-01-15T17:25:01Z</time>
    </trkpt>
    <trkpt lat="50.9619585" lon="6.8912305">
      <time>2021-01-15T17:25:27Z</time>
    </trkpt>
    <trkpt lat="50.9617586" lon="6.8912881">
      <time>2021-01-15T17:25:31Z</time>
    </trkpt>
    <trkpt lat="50.9617124" lon="6.8914725">
      <time>2021-01-15T17:25:37Z</time>
    </trkpt>
    <trkpt lat="50.9617364" lon="6.8917772">
      <time>2021-01-15T17:25:47Z</time>
    </trkpt>
    <trkpt lat="50.9617762" lon="6.8918783">
      <time>2021-01-15T17:25:49Z</time>
    </trkpt>
    <trkpt lat="50.9617496" lon="6.8919145">
      <time>2021-01-15T17:25:50Z</time>
    </trkpt>
    <trkpt lat="50.9616140" lon="6.8920258">
      <time>2021-01-15T17:25:54Z</time>
    </trkpt>
    <trkpt lat="50.9615927" lon="6.8920592">
      <time>2021-01-15T17:25:55Z</time>
    </trkpt>
    <trkpt lat="50.9615453" lon="6.8922082">
      <time>2021-01-15T17:25:59Z</time>
    </trkpt>
    <trkpt lat="50.9615516" lon="6.8922406">
      <time>2021-01-15T17:26:00Z</time>
    </trkpt>
    <trkpt lat="50.9615369" lon="6.8923067">
      <time>2021-01-15T17:26:02Z</time>
    </trkpt>
    <trkpt lat="50.9615329" lon="6.8923414">
      <time>2021-01-15T17:26:03Z</time>
    </trkpt>
    <trkpt lat="50.9615216" lon="6.8924045">
      <time>2021-01-15T17:26:05Z</time>
    </trkpt>
    <trkpt lat="50.9615161" lon="6.8924359">
      <time>2021-01-15T17:26:06Z</time>
    </trkpt>
    <trkpt lat="50.9614505" lon="6.8924726">
      <time>2021-01-15T17:26:08Z</time>
    </trkpt>
    <trkpt lat="50.9613369" lon="6.8924718">
      <time>2021-01-15T17:26:10Z</time>
    </trkpt>
    <trkpt lat="50.9612910" lon="6.8924146">
      <time>2021-01-15T17:26:12Z</time>
    </trkpt>
    <trkpt lat="50.9612138" lon="6.8922925">
      <time>2021-01-15T17:26:16Z</time>
    </trkpt>
    <trkpt lat="50.9611935" lon="6.8922641">
      <time>2021-01-15T17:26:17Z</time>
    </trkpt>
    <trkpt lat="50.9610575" lon="6.8920216">
      <time>2021-01-15T17:26:24Z</time>
    </trkpt>
    <trkpt lat="50.9609243" lon="6.8918183">
      <time>2021-01-15T17:26:30Z</time>
    </trkpt>
    <trkpt lat="50.9607378" lon="6.8917055">
      <time>2021-01-15T17:26:35Z</time>
    </trkpt>
    <trkpt lat="50.9607150" lon="6.8916768">
      <time>2021-01-15T17:26:36Z</time>
    </trkpt>
    <trkpt lat="50.9606163" lon="6.8915690">
      <time>2021-01-15T17:26:40Z</time>
    </trkpt>
    <trkpt lat="50.9605911" lon="6.8915343">
      <time>2021-01-15T17:26:41Z</time>
    </trkpt>
    <trkpt lat="50.9605550" lon="6.8915149">
      <time>2021-01-15T17:26:42Z</time>
    </trkpt>
    <trkpt lat="50.9604729" lon="6.8914492">
      <time>2021-01-15T17:26:45Z</time>
    </trkpt>
    <trkpt lat="50.9604152" lon="6.8911498">
      <time>2021-01-15T17:26:52Z</time>
    </trkpt>
    <trkpt lat="50.9603124" lon="6.8909493">
      <time>2021-01-15T17:26:58Z</time>
    </trkpt>
    <trkpt lat="50.9602892" lon="6.8908689">
      <time>2021-01-15T17:27:00Z</time>
    </trkpt>
    <trkpt lat="50.9602483" lon="6.8907588">
      <time>2021-01-15T17:27:03Z</time>
    </trkpt>
    <trkpt lat="50.9602005" lon="6.8904792">
      <time>2021-01-15T17:27:09Z</time>
    </trkpt>
    <trkpt lat="50.9601991" lon="6.8902858">
      <time>2021-01-15T17:27:13Z</time>
    </trkpt>
    <trkpt lat="50.9602072" lon="6.8901744">
      <time>2021-01-15T17:27:15Z</time>
    </trkpt>
    <trkpt lat="50.9602343" lon="6.8898833">
      <time>2021-01-15T17:27:21Z</time>
    </trkpt>
    <trkpt lat="50.9602430" lon="6.8898348">
      <time>2021-01-15T17:27:22Z</time>
    </trkpt>
    <trkpt lat="50.9602478" lon="6.8897556">
      <time>2021-01-15T17:27:24Z</time>
    </trkpt>
    <trkpt lat="50.9602611" lon="6.8896157">
      <time>2021-01-15T17:27:27Z</time>
    </trkpt>
    <trkpt lat="50.9602810" lon="6.8895242">
      <time>2021-01-15T17:27:30Z</time>
    </trkpt>
    <trkpt lat="50.9602806" lon="6.8895138">
      <time>2021-01-15T17:27:31Z</time>
    </trkpt>
    <trkpt lat="50.9602164" lon="6.8871837">
      <time>2021-01-15T17:28:26Z</time>
    </trkpt>
    <trkpt lat="50.9601745" lon="6.8870334">
      <time>2021-01-15T17:28:29Z</time>
    </trkpt>
    <trkpt lat="50.9601588" lon="6.8867325">
      <time>2021-01-15T17:28:36Z</time>
    </trkpt>
    <trkpt lat="50.9601534" lon="6.8866842">
      <time>2021-01-15T17:28:37Z</time>
    </trkpt>
    <trkpt lat="50.9600823" lon="6.8864467">
      <time>2021-01-15T17:28:44Z</time>
    </trkpt>
    <trkpt lat="50.9600237" lon="6.8862006">
      <time>2021-01-15T17:28:50Z</time>
    </trkpt>
    <trkpt lat="50.9599517" lon="6.8859927">
      <time>2021-01-15T17:28:56Z</time>
    </trkpt>
    <trkpt lat="50.9600036" lon="6.8859305">
      <time>2021-01-15T17:28:59Z</time>
    </trkpt>
    <trkpt lat="50.9601626" lon="6.8858654">
      <time>2021-01-15T17:29:05Z</time>
    </trkpt>
    <trkpt lat="50.9603172" lon="6.8858359">
      <time>2021-01-15T17:29:11Z</time>
    </trkpt>
    <trkpt lat="50.9604146" lon="6.8858233">
      <time>2021-01-15T17:29:16Z</time>
    </trkpt>
    <trkpt lat="50.9604917" lon="6.8857830">
      <time>2021-01-15T17:29:19Z</time>
    </trkpt>
    <trkpt lat="50.9606373" lon="6.8857684">
      <time>2021-01-15T17:29:25Z</time>
    </trkpt>
    <trkpt lat="50.9608096" lon="6.8857244">
      <time>2021-01-15T17:29:31Z</time>
    </trkpt>
    <trkpt lat="50.9609989" lon="6.8856643">
      <time>2021-01-15T17:29:38Z</time>
    </trkpt>
    <trkpt lat="50.9610489" lon="6.8856393">
      <time>2021-01-15T17:29:40Z</time>
    </trkpt>
    <trkpt lat="50.9612359" lon="6.8855574">
      <time>2021-01-15T17:29:47Z</time>
    </trkpt>
    <trkpt lat="50.9613063" lon="6.8854671">
      <time>2021-01-15T17:29:50Z</time>
    </trkpt>
    <trkpt lat="50.9614826" lon="6.8852989">
      <time>2021-01-15T17:29:57Z</time>
    </trkpt>
    <trkpt lat="50.9615094" lon="6.8852719">
      <time>2021-01-15T17:29:58Z</time>
    </trkpt>
    <trkpt lat="50.9616981" lon="6.8851467">
      <time>2021-01-15T17:30:05Z</time>
    </trkpt>
    <trkpt lat="50.9618321" lon="6.8850789">
      <time>2021-01-15T17:30:11Z</time>
    </trkpt>
    <trkpt lat="50.9619766" lon="6.8849290">
      <time>2021-01-15T17:30:18Z</time>
    </trkpt>
    <trkpt lat="50.9619852" lon="6.8848938">
      <time>2021-01-15T17:30:19Z</time>
    </trkpt>
    <trkpt lat="50.9620101" lon="6.8847686">
      <time>2021-01-15T17:30:23Z</time>
    </trkpt>
    <trkpt lat="50.9620194" lon="6.8845123">
      <time>2021-01-15T17:30:30Z</time>
    </trkpt>
    <trkpt lat="50.9620018" lon="6.8843094">
      <time>2021-01-15T17:30:36Z</time>
    </trkpt>
    <trkpt lat="50.9619323" lon="6.8840469">
      <time>2021-01-15T17:30:44Z</time>
    </trkpt>
    <trkpt lat="50.9619020" lon="6.8839727">
      <time>2021-01-15T17:30:46Z</time>
    </trkpt>
    <trkpt lat="50.9618049" lon="6.8837001">
      <time>2021-01-15T17:30:54Z</time>
    </trkpt>
    <trkpt lat="50.9618021" lon="6.8836633">
      <time>2021-01-15T17:30:55Z</time>
    </trkpt>
    <trkpt lat="50.9617259" lon="6.8833782">
      <time>2021-01-15T17:31:03Z</time>
    </trkpt>
    <trkpt lat="50.9616703" lon="6.8831229">
      <time>2021-01-15T17:31:09Z</time>
    </trkpt>
    <trkpt lat="50.9616139" lon="6.8828476">
      <time>2021-01-15T17:31:16Z</time>
    </trkpt>
    <trkpt lat="50.9615570" lon="6.8826086">
      <time>2021-01-15T17:31:22Z</time>
    </trkpt>
    <trkpt lat="50.9614799" lon="6.8823080">
      <time>2021-01-15T17:31:29Z</time>
    </trkpt>
    <trkpt lat="50.9614614" lon="6.8822223">
      <time>2021-01-15T17:31:31Z</time>
    </trkpt>
    <trkpt lat="50.9613998" lon="6.8819750">
      <time>2021-01-15T17:31:37Z</time>
    </trkpt>
    <trkpt lat="50.9613176" lon="6.8816848">
      <time>2021-01-15T17:31:44Z</time>
    </trkpt>
    <trkpt lat="50.9613044" lon="6.8816425">
      <time>2021-01-15T17:31:45Z</time>
    </trkpt>
    <trkpt lat="50.9612138" lon="6.8813713">
      <time>2021-01-15T17:31:52Z</time>
    </trkpt>
    <trkpt lat="50.9611888" lon="6.8812463">
      <time>2021-01-15T17:31:55Z</time>
    </trkpt>
    <trkpt lat="50.9611114" lon="6.8809675">
      <time>2021-01-15T17:32:02Z</time>
    </trkpt>
    <trkpt lat="50.9610944" lon="6.8808872">
      <time>2021-01-15T17:32:04Z</time>
    </trkpt>
    <trkpt lat="50.9610285" lon="6.8806225">
      <time>2021-01-15T17:32:11Z</time>
    </trkpt>
    <trkpt lat="50.9610185" lon="6.8805865">
      <time>2021-01-15T17:32:12Z</time>
    </trkpt>
    <trkpt lat="50.9609489" lon="6.8803249">
      <time>2021-01-15T17:32:19Z</time>
    </trkpt>
    <trkpt lat="50.9608717" lon="6.8800293">
      <time>2021-01-15T17:32:27Z</time>
    </trkpt>
    <trkpt lat="50.9608619" lon="6.8799967">
      <time>2021-01-15T17:32:28Z</time>
    </trkpt>
    <trkpt lat="50.9607983" lon="6.8796971">
      <time>2021-01-15T17:32:36Z</time>
    </trkpt>
    <trkpt lat="50.9607745" lon="6.8795386">
      <time>2021-01-15T17:32:40Z</time>
    </trkpt>
    <trkpt lat="50.9607877" lon="6.8792259">
      <time>2021-01-15T17:32:48Z</time>
    </trkpt>
    <trkpt lat="50.9608622" lon="6.8789797">
      <time>2021-01-15T17:32:55Z</time>
    </trkpt>
    <trkpt lat="50.9609728" lon="6.8787475">
      <time>2021-01-15T17:33:03Z</time>
    </trkpt>
    <trkpt lat="50.9610988" lon="6.8785848">
      <time>2021-01-15T17:33:10Z</time>
    </trkpt>
    <trkpt lat="50.9612097" lon="6.8784651">
      <time>2021-01-15T17:33:16Z</time>
    </trkpt>
    <trkpt lat="50.9612323" lon="6.8784632">
      <time>2021-01-15T17:33:17Z</time>
    </trkpt>
    <trkpt lat="50.9614230" lon="6.8784913">
      <time>2021-01-15T17:33:24Z</time>
    </trkpt>
    <trkpt lat="50.9614929" lon="6.8785093">
      <time>2021-01-15T17:33:26Z</time>
    </trkpt>
    <trkpt lat="50.9616008" lon="6.8785356">
      <time>2021-01-15T17:33:30Z</time>
    </trkpt>
    <trkpt lat="50.9617424" lon="6.8785851">
      <time>2021-01-15T17:33:37Z</time>
    </trkpt>
    <trkpt lat="50.9619371" lon="6.8786683">
      <time>2021-01-15T17:33:44Z</time>
    </trkpt>
    <trkpt lat="50.9620182" lon="6.8787009">
      <time>2021-01-15T17:33:47Z</time>
    </trkpt>
    <trkpt lat="50.9622229" lon="6.8787932">
      <time>2021-01-15T17:33:55Z</time>
    </trkpt>
    <trkpt lat="50.9623667" lon="6.8788411">
      <time>2021-01-15T17:34:01Z</time>
    </trkpt>
    <trkpt lat="50.9624966" lon="6.8789009">
      <time>2021-01-15T17:34:06Z</time>
    </trkpt>
    <trkpt lat="50.9626767" lon="6.8789937">
      <time>2021-01-15T17:34:13Z</time>
    </trkpt>
    <trkpt lat="50.9626994" lon="6.8790031">
      <time>2021-01-15T17:34:14Z</time>
    </trkpt>
    <trkpt lat="50.9628452" lon="6.8791786">
      <time>2021-01-15T17:34:21Z</time>
    </trkpt>
    <trkpt lat="50.9628424" lon="6.8792184">
      <time>2021-01-15T17:34:22Z</time>
    </trkpt>
    <trkpt lat="50.9628502" lon="6.8793364">
      <time>2021-01-15T17:34:25Z</time>
    </trkpt>
    <trkpt lat="50.9628370" lon="6.8796329">
      <time>2021-01-15T17:34:33Z</time>
    </trkpt>
    <trkpt lat="50.9627872" lon="6.8799429">
      <time>2021-01-15T17:34:41Z</time>
    </trkpt>
    <trkpt lat="50.9627360" lon="6.8802658">
      <time>2021-01-15T17:34:48Z</time>
    </trkpt>
    <trkpt lat="50.9626824" lon="6.8805310">
      <time>2021-01-15T17:34:54Z</time>
    </trkpt>
    <trkpt lat="50.9626495" lon="6.8807543">
      <time>2021-01-15T17:34:59Z</time>
    </trkpt>
    <trkpt lat="50.9626429" lon="6.8808398">
      <time>2021-01-15T17:35:01Z</time>
    </trkpt>
    <trkpt lat="50.9626334" lon="6.8809227">
      <time>2021-01-15T17:35:03Z</time>
    </trkpt>
    <trkpt lat="50.9625833" lon="6.8812181">
      <time>2021-01-15T17:35:10Z</time>
    </trkpt>
    <trkpt lat="50.9625646" lon="6.8813738">
      <time>2021-01-15T17:35:14Z</time>
    </trkpt>
    <trkpt lat="50.9625078" lon="6.8816437">
      <time>2021-01-15T17:35:21Z</time>
    </trkpt>
    <trkpt lat="50.9624701" lon="6.8818787">
      <time>2021-01-15T17:35:27Z</time>
    </trkpt>
    <trkpt lat="50.9624206" lon="6.8820924">
      <time>2021-01-15T17:35:32Z</time>
    </trkpt>
    <trkpt lat="50.9623615" lon="6.8823816">
      <time>2021-01-15T17:35:40Z</time>
    </trkpt>
    <trkpt lat="50.9623170" lon="6.8826461">
      <time>2021-01-15T17:35:46Z</time>
    </trkpt>
    <trkpt lat="50.9623045" lon="6.8827126">
      <time>2021-01-15T17:35:48Z</time>
    </trkpt>
    <trkpt lat="50.9622959" lon="6.8827796">
      <time>2021-01-15T17:35:50Z</time>
    </trkpt>
    <trkpt lat="50.9622869" lon="6.8828898">
      <time>2021-01-15T17:35:53Z</time>
    </trkpt>
    <trkpt lat="50.9622440" lon="6.8831067">
      <time>2021-01-15T17:35:59Z</time>
    </trkpt>
    <trkpt lat="50.9621963" lon="6.8832198">
      <time>2021-01-15T17:36:02Z</time>
    </trkpt>
    <trkpt lat="50.9621857" lon="6.8833457">
      <time>2021-01-15T17:36:06Z</time>
    </trkpt>
    <trkpt lat="50.9621395" lon="6.8836417">
      <time>2021-01-15T17:36:14Z</time>
    </trkpt>
    <trkpt lat="50.9621122" lon="6.8838836">
      <time>2021-01-15T17:36:20Z</time>
    </trkpt>
    <trkpt lat="50.9621096" lon="6.8839240">
      <time>2021-01-15T17:36:21Z</time>
    </trkpt>
    <trkpt lat="50.9621135" lon="6.8839999">
      <time>2021-01-15T17:36:23Z</time>
    </trkpt>
    <trkpt lat="50.9621116" lon="6.8840363">
      <time>2021-01-15T17:36:24Z</time>
    </trkpt>
    <trkpt lat="50.9620854" lon="6.8842463">
      <time>2021-01-15T17:36:29Z</time>
    </trkpt>
    <trkpt lat="50.9620595" lon="6.8842918">
      <time>2021-01-15T17:36:31Z</time>
    </trkpt>
    <trkpt lat="50.9620103" lon="6.8842672">
      <time>2021-01-15T17:36:33Z</time>
    </trkpt>
    <trkpt lat="50.9619353" lon="6.8841067">
      <time>2021-01-15T17:36:38Z</time>
    </trkpt>
    <trkpt lat="50.9618533" lon="6.8838415">
      <time>2021-01-15T17:36:45Z</time>
    </trkpt>
    <trkpt lat="50.9618181" lon="6.8835686">
      <time>2021-01-15T17:36:51Z</time>
    </trkpt>
    <trkpt lat="50.9617450" lon="6.8832897">
      <time>2021-01-15T17:36:58Z</time>
    </trkpt>
    <trkpt lat="50.9616456" lon="6.8830507">
      <time>2021-01-15T17:37:05Z</time>
    </trkpt>
    <trkpt lat="50.9615580" lon="6.8827707">
      <time>2021-01-15T17:37:12Z</time>
    </trkpt>
    <trkpt lat="50.9615506" lon="6.8827260">
      <time>2021-01-15T17:37:13Z</time>
    </trkpt>
    <trkpt lat="50.9614924" lon="6.8825334">
      <time>2021-01-15T17:37:18Z</time>
    </trkpt>
    <trkpt lat="50.9614439" lon="6.8822545">
      <time>2021-01-15T17:37:25Z</time>
    </trkpt>
    <trkpt lat="50.9614153" lon="6.8821400">
      <time>2021-01-15T17:37:28Z</time>
    </trkpt>
    <trkpt lat="50.9613674" lon="6.8819090">
      <time>2021-01-15T17:37:34Z</time>
    </trkpt>
    <trkpt lat="50.9612861" lon="6.8816159">
      <time>2021-01-15T17:37:42Z</time>
    </trkpt>
    <trkpt lat="50.9612756" lon="6.8815770">
      <time>2021-01-15T17:37:43Z</time>
    </trkpt>
    <trkpt lat="50.9611952" lon="6.8812802">
      <time>2021-01-15T17:37:51Z</time>
    </trkpt>
    <trkpt lat="50.9611500" lon="6.8811001">
      <time>2021-01-15T17:37:56Z</time>
    </trkpt>
    <trkpt lat="50.9610695" lon="6.8808167">
      <time>2021-01-15T17:38:04Z</time>
    </trkpt>
    <trkpt lat="50.9610479" lon="6.8807443">
      <time>2021-01-15T17:38:06Z</time>
    </trkpt>
    <trkpt lat="50.9609747" lon="6.8804836">
      <time>2021-01-15T17:38:13Z</time>
    </trkpt>
    <trkpt lat="50.9609620" lon="6.8804073">
      <time>2021-01-15T17:38:15Z</time>
    </trkpt>
    <trkpt lat="50.9608753" lon="6.8801279">
      <time>2021-01-15T17:38:23Z</time>
    </trkpt>
    <trkpt lat="50.9608703" lon="6.8800868">
      <time>2021-01-15T17:38:24Z</time>
    </trkpt>
    <trkpt lat="50.9608001" lon="6.8798367">
      <time>2021-01-15T17:38:31Z</time>
    </trkpt>
    <trkpt lat="50.9607614" lon="6.8795550">
      <time>2021-01-15T17:38:38Z</time>
    </trkpt>
    <trkpt lat="50.9607567" lon="6.8794783">
      <time>2021-01-15T17:38:40Z</time>
    </trkpt>
    <trkpt lat="50.9607830" lon="6.8791740">
      <time>2021-01-15T17:38:48Z</time>
    </trkpt>
    <trkpt lat="50.9608528" lon="6.8789084">
      <time>2021-01-15T17:38:55Z</time>
    </trkpt>
    <trkpt lat="50.9609510" lon="6.8787134">
      <time>2021-01-15T17:39:02Z</time>
    </trkpt>
    <trkpt lat="50.9610423" lon="6.8785824">
      <time>2021-01-15T17:39:08Z</time>
    </trkpt>
    <trkpt lat="50.9610920" lon="6.8785242">
      <time>2021-01-15T17:39:11Z</time>
    </trkpt>
    <trkpt lat="50.9611920" lon="6.8784145">
      <time>2021-01-15T17:39:16Z</time>
    </trkpt>
    <trkpt lat="50.9612752" lon="6.8784037">
      <time>2021-01-15T17:39:19Z</time>
    </trkpt>
    <trkpt lat="50.9614620" lon="6.8784691">
      <time>2021-01-15T17:39:26Z</time>
    </trkpt>
    <trkpt lat="50.9614873" lon="6.8784774">
      <time>2021-01-15T17:39:27Z</time>
    </trkpt>
    <trkpt lat="50.9616832" lon="6.8785365">
      <time>2021-01-15T17:39:34Z</time>
    </trkpt>
    <trkpt lat="50.9617656" lon="6.8785605">
      <time>2021-01-15T17:39:37Z</time>
    </trkpt>
    <trkpt lat="50.9619434" lon="6.8786546">
      <time>2021-01-15T17:39:44Z</time>
    </trkpt>
    <trkpt lat="50.9619586" lon="6.8786775">
      <time>2021-01-15T17:39:45Z</time>
    </trkpt>
    <trkpt lat="50.9620183" lon="6.8786679">
      <time>2021-01-15T17:39:48Z</time>
    </trkpt>
    <trkpt lat="50.9620427" lon="6.8786171">
      <time>2021-01-15T17:39:50Z</time>
    </trkpt>
    <trkpt lat="50.9620538" lon="6.8783986">
      <time>2021-01-15T17:39:56Z</time>
    </trkpt>
    <trkpt lat="50.9620363" lon="6.8780991">
      <time>2021-01-15T17:40:03Z</time>
    </trkpt>
    <trkpt lat="50.9620304" lon="6.8780628">
      <time>2021-01-15T17:40:04Z</time>
    </trkpt>
    <trkpt lat="50.9619606" lon="6.8779749">
      <time>2021-01-15T17:40:09Z</time>
    </trkpt>
    <trkpt lat="50.9619448" lon="6.8779636">
      <time>2021-01-15T17:40:10Z</time>
    </trkpt>
    <trkpt lat="50.9619041" lon="6.8779431">
      <time>2021-01-15T17:40:12Z</time>
    </trkpt>
    <trkpt lat="50.9617927" lon="6.8778848">
      <time>2021-01-15T17:40:17Z</time>
    </trkpt>
    <trkpt lat="50.9616461" lon="6.8778355">
      <time>2021-01-15T17:40:23Z</time>
    </trkpt>
    <trkpt lat="50.9614586" lon="6.8777607">
      <time>2021-01-15T17:40:30Z</time>
    </trkpt>
    <trkpt lat="50.9612643" lon="6.8777021">
      <time>2021-01-15T17:40:37Z</time>
    </trkpt>
    <trkpt lat="50.9610801" lon="6.8776857">
      <time>2021-01-15T17:40:44Z</time>
    </trkpt>
    <trkpt lat="50.9609378" lon="6.8778450">
      <time>2021-01-15T17:40:51Z</time>
    </trkpt>
    <trkpt lat="50.9608483" lon="6.8779850">
      <time>2021-01-15T17:40:56Z</time>
    </trkpt>
    <trkpt lat="50.9608081" lon="6.8780404">
      <time>2021-01-15T17:40:58Z</time>
    </trkpt>
    <trkpt lat="50.9606797" lon="6.8782629">
      <time>2021-01-15T17:41:05Z</time>
    </trkpt>
    <trkpt lat="50.9606572" lon="6.8782938">
      <time>2021-01-15T17:41:06Z</time>
    </trkpt>
    <trkpt lat="50.9605338" lon="6.8784591">
      <time>2021-01-15T17:41:12Z</time>
    </trkpt>
    <trkpt lat="50.9603937" lon="6.8786331">
      <time>2021-01-15T17:41:19Z</time>
    </trkpt>
    <trkpt lat="50.9602640" lon="6.8786314">
      <time>2021-01-15T17:41:23Z</time>
    </trkpt>
    <trkpt lat="50.9601885" lon="6.8785364">
      <time>2021-01-15T17:41:27Z</time>
    </trkpt>
    <trkpt lat="50.9600398" lon="6.8783694">
      <time>2021-01-15T17:41:34Z</time>
    </trkpt>
    <trkpt lat="50.9600073" lon="6.8783473">
      <time>2021-01-15T17:41:35Z</time>
    </trkpt>
    <trkpt lat="50.9599416" lon="6.8782873">
      <time>2021-01-15T17:41:38Z</time>
    </trkpt>
    <trkpt lat="50.9599031" lon="6.8782389">
      <time>2021-01-15T17:41:40Z</time>
    </trkpt>
    <trkpt lat="50.9597823" lon="6.8780698">
      <time>2021-01-15T17:41:47Z</time>
    </trkpt>
    <trkpt lat="50.9596706" lon="6.8778889">
      <time>2021-01-15T17:41:53Z</time>
    </trkpt>
    <trkpt lat="50.9595637" lon="6.8777235">
      <time>2021-01-15T17:41:59Z</time>
    </trkpt>
    <trkpt lat="50.9594099" lon="6.8775600">
      <time>2021-01-15T17:42:06Z</time>
    </trkpt>
    <trkpt lat="50.9593630" lon="6.8774220">
      <time>2021-01-15T17:42:11Z</time>
    </trkpt>
    <trkpt lat="50.9594399" lon="6.8773655">
      <time>2021-01-15T17:42:15Z</time>
    </trkpt>
    <trkpt lat="50.9596298" lon="6.8773272">
      <time>2021-01-15T17:42:22Z</time>
    </trkpt>
    <trkpt lat="50.9596518" lon="6.8773340">
      <time>2021-01-15T17:42:23Z</time>
    </trkpt>
    <trkpt lat="50.9597789" lon="6.8773302">
      <time>2021-01-15T17:42:28Z</time>
    </trkpt>
    <trkpt lat="50.9598320" lon="6.8773678">
      <time>2021-01-15T17:42:30Z</time>
    </trkpt>
    <trkpt lat="50.9599912" lon="6.8775246">
      <time>2021-01-15T17:42:36Z</time>
    </trkpt>
    <trkpt lat="50.9600136" lon="6.8775490">
      <time>2021-01-15T17:42:37Z</time>
    </trkpt>
    <trkpt lat="50.9601901" lon="6.8776726">
      <time>2021-01-15T17:42:42Z</time>
    </trkpt>
    <trkpt lat="50.9602880" lon="6.8777434">
      <time>2021-01-15T17:42:46Z</time>
    </trkpt>
    <trkpt lat="50.9604307" lon="6.8777046">
      <time>2021-01-15T17:42:52Z</time>
    </trkpt>
    <trkpt lat="50.9606035" lon="6.8776168">
      <time>2021-01-15T17:42:59Z</time>
    </trkpt>
    <trkpt lat="50.9606453" lon="6.8775877">
      <time>2021-01-15T17:43:01Z</time>
    </trkpt>
    <trkpt lat="50.9607641" lon="6.8775417">
      <time>2021-01-15T17:43:06Z</time>
    </trkpt>
    <trkpt lat="50.9609038" lon="6.8774945">
      <time>2021-01-15T17:43:12Z</time>
    </trkpt>
    <trkpt lat="50.9610800" lon="6.8774136">
      <time>2021-01-15T17:43:19Z</time>
    </trkpt>
    <trkpt lat="50.9612438" lon="6.8773213">
      <time>2021-01-15T17:43:26Z</time>
    </trkpt>
    <trkpt lat="50.9614160" lon="6.8772371">
      <time>2021-01-15T17:43:33Z</time>
    </trkpt>
    <trkpt lat="50.9614959" lon="6.8771991">
      <time>2021-01-15T17:43:36Z</time>
    </trkpt>
    <trkpt lat="50.9615759" lon="6.8771323">
      <time>2021-01-15T17:43:40Z</time>
    </trkpt>
    <trkpt lat="50.9617576" lon="6.8770274">
      <time>2021-01-15T17:43:48Z</time>
    </trkpt>
    <trkpt lat="50.9618891" lon="6.8769445">
      <time>2021-01-15T17:43:55Z</time>
    </trkpt>
    <trkpt lat="50.9619771" lon="6.8767720">
      <time>2021-01-15T17:44:01Z</time>
    </trkpt>
    <trkpt lat="50.9619978" lon="6.8765419">
      <time>2021-01-15T17:44:08Z</time>
    </trkpt>
    <trkpt lat="50.9620643" lon="6.8764041">
      <time>2021-01-15T17:44:12Z</time>
    </trkpt>
    <trkpt lat="50.9621170" lon="6.8763860">
      <time>2021-01-15T17:44:14Z</time>
    </trkpt>
    <trkpt lat="50.9622579" lon="6.8764298">
      <time>2021-01-15T17:44:19Z</time>
    </trkpt>
    <trkpt lat="50.9624588" lon="6.8764627">
      <time>2021-01-15T17:44:25Z</time>
    </trkpt>
    <trkpt lat="50.9625889" lon="6.8764502">
      <time>2021-01-15T17:44:29Z</time>
    </trkpt>
    <trkpt lat="50.9627667" lon="6.8764923">
      <time>2021-01-15T17:44:35Z</time>
    </trkpt>
    <trkpt lat="50.9627971" lon="6.8764957">
      <time>2021-01-15T17:44:36Z</time>
    </trkpt>
    <trkpt lat="50.9629808" lon="6.8765728">
      <time>2021-01-15T17:44:43Z</time>
    </trkpt>
    <trkpt lat="50.9630051" lon="6.8765646">
      <time>2021-01-15T17:44:44Z</time>
    </trkpt>
    <trkpt lat="50.9630277" lon="6.8765428">
      <time>2021-01-15T17:44:45Z</time>
    </trkpt>
    <trkpt lat="50.9630535" lon="6.8765182">
      <time>2021-01-15T17:44:46Z</time>
    </trkpt>
    <trkpt lat="50.9631453" lon="6.8764220">
      <time>2021-01-15T17:44:50Z</time>
    </trkpt>
    <trkpt lat="50.9632366" lon="6.8762097">
      <time>2021-01-15T17:44:56Z</time>
    </trkpt>
    <trkpt lat="50.9632877" lon="6.8759818">
      <time>2021-01-15T17:45:02Z</time>
    </trkpt>
    <trkpt lat="50.9633339" lon="6.8756991">
      <time>2021-01-15T17:45:09Z</time>
    </trkpt>
    <trkpt lat="50.9633963" lon="6.8754068">
      <time>2021-01-15T17:45:16Z</time>
    </trkpt>
    <trkpt lat="50.9634541" lon="6.8751908">
      <time>2021-01-15T17:45:22Z</time>
    </trkpt>
    <trkpt lat="50.9635114" lon="6.8749892">
      <time>2021-01-15T17:45:27Z</time>
    </trkpt>
    <trkpt lat="50.9635681" lon="6.8747823">
      <time>2021-01-15T17:45:33Z</time>
    </trkpt>
    <trkpt lat="50.9636065" lon="6.8746933">
      <time>2021-01-15T17:45:38Z</time>
    </trkpt>
    <trkpt lat="50.9635952" lon="6.8748314">
      <time>2021-01-15T17:45:42Z</time>
    </trkpt>
    <trkpt lat="50.9635325" lon="6.8750617">
      <time>2021-01-15T17:45:48Z</time>
    </trkpt>
    <trkpt lat="50.9634952" lon="6.8753299">
      <time>2021-01-15T17:45:54Z</time>
    </trkpt>
    <trkpt lat="50.9634352" lon="6.8756013">
      <time>2021-01-15T17:46:01Z</time>
    </trkpt>
    <trkpt lat="50.9633527" lon="6.8757781">
      <time>2021-01-15T17:46:06Z</time>
    </trkpt>
    <trkpt lat="50.9633295" lon="6.8760059">
      <time>2021-01-15T17:46:11Z</time>
    </trkpt>
    <trkpt lat="50.9633258" lon="6.8761634">
      <time>2021-01-15T17:46:15Z</time>
    </trkpt>
    <trkpt lat="50.9633934" lon="6.8761439">
      <time>2021-01-15T17:46:19Z</time>
    </trkpt>
    <trkpt lat="50.9635369" lon="6.8760655">
      <time>2021-01-15T17:46:25Z</time>
    </trkpt>
    <trkpt lat="50.9637267" lon="6.8760291">
      <time>2021-01-15T17:46:32Z</time>
    </trkpt>
    <trkpt lat="50.9637581" lon="6.8760139">
      <time>2021-01-15T17:46:33Z</time>
    </trkpt>
    <trkpt lat="50.9638968" lon="6.8759653">
      <time>2021-01-15T17:46:38Z</time>
    </trkpt>
    <trkpt lat="50.9638415" lon="6.8759759">
      <time>2021-01-15T17:46:40Z</time>
    </trkpt>
    <trkpt lat="50.9638026" lon="6.8759768">
      <time>2021-01-15T17:46:41Z</time>
    </trkpt>
    <trkpt lat="50.9636068" lon="6.8759349">
      <time>2021-01-15T17:46:47Z</time>
    </trkpt>
  </trkseg></trk>
</gpx>
